{"type": "Feature","bbox": [18.7083,-34.0634,19.2438,-33.7934],"geometry": {"type": "MultiPolygon","coordinates": [[[[18.9074,-33.8632,893.5626],[18.8848,-33.8464,411.6377],[18.8954,-33.8421,319.551],[18.8932,-33.8261,293.9792],[18.8959,-33.8052,187.5316],[18.9022,-33.8035,164.454],[18.9028,-33.7967,151.5695],[18.8964,-33.7983,167.3773],[18.8968,-33.7934,158.4671],[18.8702,-33.7974,153.1713],[18.8344,-33.8076,188.8612],[18.8277,-33.7963,184.6922],[18.8221,-33.7989,197.6676],[18.8212,-33.8114,200.7005],[18.7926,-33.8192,135.69],[18.7906,-33.8177,131.0976],[18.7898,-33.8201,143.1526],[18.7678,-33.8262,137.1439],[18.7684,-33.8327,139.7709],[18.7529,-33.8344,128.3919],[18.7531,-33.85,150.916],[18.7458,-33.8603,130.6882],[18.7457,-33.874,110.0261],[18.7529,-33.8845,95.6168],[18.7514,-33.8935,145.9865],[18.7459,-33.8873,95.5602],[18.7371,-33.8935,88.6704],[18.7356,-33.891,81.2719],[18.7173,-33.8985,89.6994],[18.7166,-33.902,81.8035],[18.7193,-33.9035,73.289],[18.7172,-33.9056,74.411],[18.7153,-33.9036,80.4714],[18.7083,-33.9227,110.6746],[18.7108,-33.9212,108.0268],[18.7248,-33.9258,270.6795],[18.7274,-33.9247,279.1747],[18.7396,-33.9328,311.2729],[18.744,-33.9322,348.8386],[18.7423,-33.9365,245.7506],[18.7398,-33.936,289.7869],[18.7398,-33.9384,253.4917],[18.7369,-33.9406,271.8886],[18.7379,-33.9422,290.214],[18.7308,-33.9628,175.9997],[18.7335,-33.9659,153.7073],[18.7292,-33.9675,124.7033],[18.7407,-33.9841,89.626],[18.7454,-33.9874,99.7986],[18.7377,-33.9893,67.3068],[18.7518,-34.0053,34.9786],[18.7459,-34.0064,37.469],[18.7474,-34.0104,35.3579],[18.7419,-34.0135,27.5477],[18.7448,-34.0193,26.269],[18.7421,-34.0213,13.4274],[18.7444,-34.0248,12.8997],[18.751,-34.0282,12.2259],[18.7548,-34.0346,20.1598],[18.759,-34.0333,28.9622],[18.7637,-34.0387,41.8214],[18.7677,-34.0404,61.2463],[18.7663,-34.0437,30.2022],[18.7827,-34.0495,30.8675],[18.7897,-34.0537,27.081],[18.806,-34.054,77.0858],[18.8092,-34.0634,44.3749],[18.8138,-34.0584,109.527],[18.813,-34.0563,122.9092],[18.8145,-34.0568,122.9092],[18.8152,-34.0512,136.5724],[18.8052,-34.0512,85.0163],[18.819,-34.0397,124.3131],[18.8246,-34.0428,155.07],[18.833,-34.0429,208.1301],[18.8358,-34.0466,255.3565],[18.8418,-34.0471,264.754],[18.8619,-34.0383,718.8925],[18.8604,-34.0364,787.3584],[18.8625,-34.0352,709.5222],[18.862,-34.0337,603.6172],[18.8592,-34.0336,502.699],[18.8553,-34.0309,404.7874],[18.8663,-34.0321,572.8386],[18.8692,-34.0305,596.1615],[18.8722,-34.034,845.3674],[18.8783,-34.034,868.3564],[18.8792,-34.0321,1035.3662],[18.8852,-34.0341,713.368],[18.8852,-34.0303,742.3355],[18.8881,-34.0304,593.4931],[18.8926,-34.0255,776.9616],[18.8972,-34.0264,643.6307],[18.9226,-34.014,551.4474],[18.9227,-34.0128,557.1351],[18.918,-34.0119,803.1827],[18.9179,-34.0088,814.0811],[18.9216,-34.0033,909.7285],[18.9274,-33.9999,1042.3452],[18.9316,-34.0026,933.3917],[18.9437,-34.0037,931.2189],[18.9539,-34.0093,931.7244],[18.9621,-34.0162,863.589],[18.9695,-34.0199,827.3297],[18.9846,-34.0359,1557.2942],[18.9872,-34.0352,1505.5649],[19.0264,-34.0206,1486.0686],[19.0424,-34.0083,1492.0325],[19.1261,-33.9617,1176.8738],[19.1455,-33.956,987.9157],[19.1646,-33.9714,318.3528],[19.191,-33.9472,958.8356],[19.2066,-33.9504,1233.8022],[19.2438,-33.8974,1224.8989],[19.214,-33.8571,1215.481],[19.1791,-33.8624,764.3372],[19.1646,-33.8685,637.9877],[19.1462,-33.8614,463.6186],[19.1427,-33.8634,481.9574],[19.1412,-33.8624,571.7161],[19.1432,-33.8605,437.3483],[19.0942,-33.8317,367.6354],[19.0841,-33.8367,352.3758],[19.0595,-33.854,233.6079],[19.0558,-33.8596,404.7567],[19.0466,-33.8405,409.4403],[19.0343,-33.8389,427.1939],[19.0311,-33.844,329.597],[19.0271,-33.8402,254.2305],[19.0202,-33.8452,180.2628],[18.9939,-33.8492,141.1354],[18.9916,-33.8506,144.1671],[18.9904,-33.8543,147.5694],[18.982,-33.8529,146.88],[18.9793,-33.8492,143.1844],[18.9724,-33.8444,139.6588],[18.9666,-33.8531,165.7896],[18.965,-33.8627,186.7322],[18.9517,-33.8707,251.2732],[18.9485,-33.8668,269.3253],[18.9315,-33.8791,745.5106],[18.9221,-33.8762,689.0593],[18.9074,-33.8632,893.5626]]]]}
,"properties": {"GID_3": "ZAF.9.1.4_1","GID_0": "ZAF","country": "SouthAfrica","GID_1": "ZAF.9_1","province": "WesternCape","NL_NAME_1": "NA","GID_2": "ZAF.9.1_1","county": "CapeWinelands","NL_NAME_2": "NA","city": "Stellenbosch","VARNAME_3": "NA","NL_NAME_3": "NA","TYPE_3": "LocalMunicipality","ENGTYPE_3": "LocalMunicipality","CC_3": "WC024","HASC_3": "NA","name": "Stellenbosch.city","area_km2": 831.8012,"hist_schema_id": "Elevation0-9000","hist_area_km2": {"0": 0.4569,"25": 10.6161,"50": 15.1879,"75": 28.4628,"100": 37.5412,"125": 47.2686,"150": 68.7803,"175": 66.5154,"200": 49.8427,"225": 36.868,"250": 37.9544,"275": 29.4719,"300": 25.4938,"325": 24.1898,"350": 21.164,"375": 17.9268,"400": 15.2172,"425": 12.6308,"450": 11.7688,"475": 10.7655,"500": 10.2554,"525": 9.6217,"550": 9.3758,"575": 8.9711,"600": 8.9884,"625": 8.6546,"650": 8.6021,"675": 8.3911,"700": 8.0388,"725": 9.1475,"750": 8.145,"775": 7.2125,"800": 7.9339,"825": 7.969,"850": 7.2826,"875": 7.4232,"900": 7.4589,"925": 7.9684,"950": 7.9506,"975": 7.2823,"1000": 7.4931,"1025": 6.6838,"1050": 7.3871,"1075": 7.0,"1100": 6.3495,"1125": 5.2413,"1150": 6.1026,"1175": 4.7667,"1200": 4.5206,"1225": 5.2763,"1250": 5.1004,"1275": 4.6789,"1300": 4.7142,"1325": 4.3272,"1350": 3.3948,"1375": 3.1667,"1400": 2.6035,"1425": 2.0934,"1450": 2.0054,"1475": 1.7066,"1500": 1.2318,"1525": 0.5104,"1550": 0.4928,"1575": 0.1407,"1600": 0.0176}}}