{"type":"Feature","properties":{"GID_3":"ZAF.2.1.2_1","GID_0":"ZAF","country":"SouthAfrica","GID_1":"ZAF.2_1","province":"FreeState","NL_NAME_1":"NA","GID_2":"ZAF.2.1_1","county":"FezileDabi","NL_NAME_2":"NA","city":"Metsimaholo","VARNAME_3":"NA","NL_NAME_3":"NA","TYPE_3":"LocalMunicipality","ENGTYPE_3":"LocalMunicipality","CC_3":"FS204","HASC_3":"NA","name":"Metsimaholo.city"},
"geometry":{"type": "MultiPolygon","coordinates": [[[[28.383,-27.0171,1544.6128],[28.4133,-27.0069,1483.0],[28.429,-26.9896,1483.0],[28.4207,-26.9781,1483.0],[28.4149,-26.973,1483.0],[28.405,-26.9551,1483.0],[28.4004,-26.9509,1483.0],[28.4012,-26.9385,1483.0],[28.3996,-26.9357,1483.0],[28.3936,-26.932,1483.0],[28.3858,-26.931,1483.0],[28.3726,-26.9347,1483.0],[28.3621,-26.9318,1483.0],[28.3529,-26.9316,1483.0],[28.3295,-26.9472,1483.0],[28.3245,-26.949,1483.0],[28.3206,-26.9419,1483.0],[28.3197,-26.9365,1483.0],[28.3302,-26.9284,1483.0],[28.3313,-26.9259,1483.0],[28.3301,-26.9239,1483.0],[28.3219,-26.9226,1483.0],[28.3146,-26.9247,1483.0],[28.3125,-26.9279,1483.0],[28.3111,-26.9359,1483.0],[28.306,-26.9406,1483.0],[28.3017,-26.9409,1483.0],[28.2886,-26.9281,1483.0],[28.2814,-26.9148,1483.0],[28.2815,-26.9061,1483.0],[28.2775,-26.9065,1483.0],[28.267,-26.9143,1483.0],[28.2626,-26.9148,1483.0],[28.2609,-26.9114,1483.0],[28.2614,-26.902,1483.0],[28.2517,-26.893,1483.0],[28.2501,-26.888,1483.0],[28.2365,-26.8811,1483.0],[28.2283,-26.8918,1483.0],[28.2273,-26.8972,1483.0],[28.2298,-26.9066,1483.0],[28.2385,-26.913,1483.0],[28.2403,-26.9164,1483.0],[28.2308,-26.9229,1483.0],[28.2259,-26.9237,1483.0],[28.2162,-26.9121,1483.0],[28.203,-26.9116,1483.0],[28.1932,-26.8962,1483.0],[28.185,-26.8907,1483.0],[28.185,-26.8715,1483.0],[28.1799,-26.8618,1483.0],[28.1786,-26.8532,1483.0],[28.1714,-26.8458,1483.0],[28.1598,-26.8454,1483.0],[28.1562,-26.847,1483.0],[28.1538,-26.8506,1483.0],[28.1678,-26.868,1483.0],[28.1713,-26.8837,1483.0],[28.1711,-26.8873,1483.0],[28.1687,-26.89,1483.0],[28.1638,-26.8904,1483.0],[28.1581,-26.8849,1483.0],[28.1539,-26.8841,1483.0],[28.1501,-26.8846,1483.0],[28.1429,-26.8898,1483.0],[28.1324,-26.8877,1483.0],[28.1251,-26.8909,1483.0],[28.1191,-26.8893,1483.0],[28.1161,-26.8833,1483.0],[28.1156,-26.8764,1447.5],[28.1162,-26.8735,1452.4884],[28.1208,-26.8694,1444.5],[28.1213,-26.8558,1445.7531],[28.1148,-26.8444,1451.9874],[28.088,-26.8379,1455.9172],[28.0763,-26.8323,1432.5],[28.0709,-26.8264,1433.6055],[28.0657,-26.8235,1439.9539],[28.0656,-26.8209,1429.9049],[28.051,-26.8141,1425.4309],[28.0491,-26.8032,1424.5344],[28.0455,-26.7999,1427.5671],[28.0378,-26.7973,1423.325],[28.035,-26.7948,1423.348],[28.0216,-26.7959,1425.8414],[28.0146,-26.7936,1427.0485],[28.0155,-26.7896,1423.8556],[28.0265,-26.7844,1422.8181],[28.0284,-26.7805,1421.0],[28.0245,-26.7796,1426.4376],[28.0201,-26.7754,1422.7932],[28.0069,-26.7689,1427.4261],[28.0068,-26.7631,1430.6951],[28.0017,-26.7483,1424.0854],[27.993,-26.7346,1423.1143],[27.992,-26.7275,1421.0],[28.0004,-26.7058,1420.5],[27.9996,-26.696,1429.1864],[27.9827,-26.6801,1424.002],[27.9775,-26.6719,1421.9358],[27.9729,-26.6692,1423.4337],[27.9691,-26.6688,1420.0],[27.9636,-26.6712,1425.2954],[27.953,-26.6717,1421.7654],[27.9425,-26.6746,1423.798],[27.9387,-26.6797,1424.2896],[27.9352,-26.6927,1419.5],[27.9256,-26.7038,1420.728],[27.9135,-26.7065,1423.6014],[27.908,-26.7059,1423.8872],[27.8932,-26.711,1425.1505],[27.8918,-26.7144,1422.6757],[27.8955,-26.7178,1420.3583],[27.8949,-26.7212,1420.6],[27.8928,-26.7259,1421.2394],[27.8847,-26.7343,1423.2719],[27.883,-26.744,1420.8669],[27.88,-26.7462,1420.1992],[27.8722,-26.7477,1424.6233],[27.8494,-26.7456,1420.4153],[27.8306,-26.7511,1423.5031],[27.8216,-26.7495,1430.6598],[27.7824,-26.7508,1422.0518],[27.7705,-26.759,1419.1027],[27.7682,-26.7652,1421.4131],[27.7671,-26.7829,1418.0],[27.7727,-26.7941,1425.6406],[27.7702,-26.7992,1422.3516],[27.7597,-26.7969,1418.0],[27.7489,-26.7872,1417.5],[27.742,-26.7706,1417.5],[27.7316,-26.7621,1417.5],[27.7242,-26.7604,1417.5],[27.7163,-26.7617,1417.5],[27.7161,-26.7638,1421.1854],[27.7078,-26.7665,1425.6934],[27.7021,-26.767,1424.6549],[27.6941,-26.8089,1476.379],[27.6805,-26.829,1485.9983],[27.7105,-26.8423,1487.4613],[27.7405,-26.8823,1483.8309],[27.7504,-26.9033,1504.4188],[27.7727,-26.9249,1485.3356],[27.7826,-26.9597,1494.9114],[27.8027,-26.9972,1486.2682],[27.8353,-27.0075,1491.2762],[27.8689,-26.9814,1485.7571],[27.8734,-26.9384,1469.5768],[27.9286,-26.966,1479.1218],[27.9401,-27.0031,1476.2627],[27.9554,-27.009,1475.9055],[27.9737,-27.0424,1499.5432],[27.9956,-27.0439,1492.092],[28.0244,-27.0383,1490.9973],[28.0297,-27.0244,1487.5764],[28.0466,-27.0127,1484.6272],[28.0478,-27.017,1481.1962],[28.0492,-27.017,1481.5707],[28.0478,-27.0191,1481.873],[28.0512,-27.0194,1482.5006],[28.0522,-27.0179,1487.6956],[28.0518,-27.0214,1483.347],[28.0533,-27.0229,1483.8529],[28.0514,-27.0246,1484.4878],[28.0564,-27.0324,1486.1455],[28.0597,-27.0319,1486.037],[28.0591,-27.0339,1487.2355],[28.0616,-27.0361,1487.7581],[28.0618,-27.04,1487.7571],[28.0632,-27.0408,1488.2922],[28.0608,-27.0435,1489.7781],[28.0633,-27.0423,1489.5677],[28.0638,-27.0459,1490.3401],[28.067,-27.0462,1490.7855],[28.0659,-27.0476,1490.4209],[28.067,-27.049,1490.5674],[28.0647,-27.0502,1491.3119],[28.0638,-27.0541,1492.1068],[28.0621,-27.054,1493.1587],[28.0634,-27.0556,1492.8978],[28.0625,-27.058,1493.8844],[28.064,-27.0619,1494.3955],[28.0668,-27.0605,1495.0637],[28.0676,-27.0639,1495.3875],[28.0694,-27.0644,1497.7371],[28.0697,-27.0684,1497.9409],[28.0726,-27.0679,1499.2349],[28.0709,-27.0705,1500.8766],[28.0736,-27.0732,1499.2219],[28.0732,-27.0785,1499.8774],[28.0714,-27.0804,1500.6234],[28.0769,-27.0861,1502.1553],[28.0756,-27.0888,1502.6162],[28.0774,-27.0912,1503.7938],[28.0753,-27.0932,1504.6519],[28.0777,-27.095,1504.6136],[28.0776,-27.0973,1505.2964],[28.1043,-27.086,1555.761],[28.1191,-27.1144,1570.2451],[28.1268,-27.1379,1539.8623],[28.162,-27.1441,1519.6584],[28.1842,-27.1635,1553.0253],[28.1939,-27.1652,1566.2949],[28.2389,-27.1854,1520.9021],[28.2399,-27.1843,1519.6166],[28.2591,-27.1842,1502.7339],[28.2642,-27.1862,1494.978],[28.264,-27.1823,1494.1604],[28.2674,-27.1798,1493.5328],[28.2613,-27.174,1504.9774],[28.2657,-27.173,1492.457],[28.2643,-27.1712,1491.7102],[28.265,-27.1695,1491.7771],[28.2672,-27.1702,1491.2883],[28.2684,-27.1686,1491.6332],[28.2671,-27.165,1491.2518],[28.2702,-27.1652,1491.144],[28.269,-27.163,1491.0806],[28.2703,-27.1603,1490.4296],[28.2675,-27.1612,1489.9003],[28.266,-27.16,1490.9767],[28.2671,-27.1571,1489.9637],[28.2704,-27.1563,1490.3047],[28.2716,-27.1502,1487.958],[28.2759,-27.1511,1487.6757],[28.2735,-27.1491,1488.0955],[28.2768,-27.1467,1487.6191],[28.2727,-27.1444,1487.4308],[28.2734,-27.1417,1486.7654],[28.2778,-27.1376,1486.8126],[28.2799,-27.1324,1491.0598],[28.2843,-27.1326,1485.3297],[28.2836,-27.1291,1487.9124],[28.2898,-27.1224,1488.95],[28.2887,-27.1162,1494.9971],[28.2913,-27.1119,1483.3752],[28.2978,-27.1108,1483.0],[28.3013,-27.1037,1483.0],[28.311,-27.0991,1483.0],[28.3145,-27.0947,1483.0],[28.316,-27.0899,1483.0],[28.3127,-27.0828,1483.0],[28.2975,-27.076,1483.0],[28.2955,-27.0728,1483.0],[28.2924,-27.0616,1483.0],[28.2943,-27.0528,1483.0],[28.3157,-27.0358,1483.0],[28.3541,-27.0412,1483.0],[28.3529,-27.0378,1483.0],[28.356,-27.0311,1483.0],[28.3537,-27.0251,1483.0],[28.384,-27.0194,1546.1479],[28.383,-27.0171,1544.6128]]]]}}