{"type":"Feature","properties":{"GID_3":"ZAF.7.1.2_1","GID_0":"ZAF","country":"SouthAfrica","GID_1":"ZAF.7_1","province":"NorthWest","NL_NAME_1":"NA","GID_2":"ZAF.7.1_1","county":"Bojanala","NL_NAME_2":"NA","city":"Madibeng","VARNAME_3":"NA","NL_NAME_3":"NA","TYPE_3":"LocalMunicipality","ENGTYPE_3":"LocalMunicipality","CC_3":"NW372","HASC_3":"NA","name":"Madibeng.city"},
"geometry":{"type": "MultiPolygon","coordinates": [[[[27.9401,-25.8197,1414.6418],[27.9602,-25.816,1491.0203],[27.9572,-25.8005,1310.7737],[27.9636,-25.7991,1363.5343],[27.9622,-25.7919,1389.1753],[27.9632,-25.7871,1305.6167],[27.9546,-25.7869,1257.3928],[27.9493,-25.7598,1351.7007],[27.9527,-25.7596,1354.8535],[27.9558,-25.7566,1415.0756],[27.9732,-25.7568,1422.9508],[27.9795,-25.7514,1447.3115],[27.9482,-25.6952,1575.4894],[27.9575,-25.6937,1579.7479],[27.9538,-25.6729,1322.6753],[27.9519,-25.6713,1319.3354],[27.9523,-25.6535,1269.3972],[27.9573,-25.6477,1250.519],[27.9571,-25.6437,1243.6838],[27.9652,-25.6454,1254.4489],[27.9649,-25.6348,1285.9045],[27.9806,-25.6328,1366.8726],[27.9722,-25.5979,1226.6377],[27.9576,-25.5926,1213.3674],[27.9815,-25.5427,1235.4814],[28.0306,-25.5584,1199.2283],[28.0495,-25.5596,1216.4949],[28.0524,-25.5358,1271.1144],[28.0244,-25.5307,1167.6539],[27.9924,-25.518,1238.9093],[28.0075,-25.4841,1129.3004],[28.0119,-25.4805,1110.3134],[28.0359,-25.4706,1161.1721],[27.9917,-25.4245,1131.2686],[27.9697,-25.4391,1087.3077],[27.9604,-25.4273,1078.6703],[27.9582,-25.4263,1075.275],[27.9456,-25.4067,1064.0156],[27.9708,-25.3629,1070.1451],[27.9718,-25.3182,1047.1072],[28.0026,-25.3006,1031.7932],[27.9986,-25.2904,1032.9607],[27.9666,-25.3012,1049.5906],[27.9636,-25.3046,1053.1898],[27.9438,-25.2913,1062.5995],[27.9891,-25.2666,1024.7499],[27.9855,-25.2384,1018.8379],[27.961,-25.2517,1024.7698],[27.9313,-25.2337,1031.2427],[27.8921,-25.2631,1042.1658],[27.8913,-25.259,1042.2719],[27.8853,-25.2526,1043.2153],[27.87,-25.1717,1007.9282],[27.8681,-25.1721,1007.2246],[27.8673,-25.1685,999.1559],[27.8727,-25.1659,995.2064],[27.8718,-25.1615,989.0897],[27.8765,-25.1567,989.9129],[27.8813,-25.1569,989.5622],[27.8868,-25.153199999999998,991.674],[27.8906,-25.1488,992.5919],[27.8963,-25.1357,994.7036],[27.8822,-25.1266,1008.5111],[27.8812,-25.1195,1015.6149],[27.8767,-25.1152,1024.8643],[27.8736,-25.1084,1030.115],[27.883,-25.1005,1068.4517],[27.8646,-25.0805,1093.9628],[27.8389,-25.1051,1040.1191],[27.8244,-25.1109,1042.6133],[27.8177,-25.0861,1063.9209],[27.82,-25.0854,1061.5573],[27.8179,-25.0771,1085.1216],[27.8156,-25.0777,1086.0725],[27.8147,-25.0747,1083.589],[27.8194,-25.0746,1088.1851],[27.8048,-25.0184,1206.1447],[27.8217,-24.9746,1164.8651],[27.7889,-24.9665,1127.7942],[27.7591,-24.9689,1109.0708],[27.7388,-24.9831,1133.0902],[27.6873,-24.9944,1058.2402],[27.6847,-24.9858,1052.9425],[27.6286,-24.9737,1146.1681],[27.5975,-24.9849,1014.8673],[27.594,-25.0294,1008.4968],[27.5678,-25.0594,1201.4777],[27.5598,-25.0773,1232.5352],[27.5654,-25.0797,1044.4824],[27.5645,-25.0837,1058.743],[27.5436,-25.0959,945.9973],[27.5428,-25.098,943.8389],[27.5323,-25.0944,956.373],[27.5339,-25.0833,996.1863],[27.5212,-25.0797,942.6392],[27.5212,-25.076,943.0264],[27.498,-25.0732,988.7766],[27.4869,-25.0784,1126.234],[27.5032,-25.0984,1004.1711],[27.5099,-25.1101,1031.6302],[27.4834,-25.1128,1064.9779],[27.4917,-25.1615,1094.6769],[27.4902,-25.1972,1016.7797],[27.4669,-25.2308,1052.1023],[27.4691,-25.2321,1052.2025],[27.4242,-25.2795,1039.5525],[27.428,-25.2897,1019.1754],[27.453,-25.2969,1012.8997],[27.471,-25.2866,1005.8354],[27.5212,-25.3414,1025.0111],[27.5193,-25.4199,1134.3094],[27.5316,-25.4206,1102.1105],[27.5371,-25.4258,1084.5088],[27.5849,-25.4289,1005.0],[27.5832,-25.4371,1005.0],[27.5859,-25.4446,1005.0],[27.6099,-25.4577,1053.3838],[27.6156,-25.4639,1066.6293],[27.6197,-25.475,1074.106],[27.6112,-25.5105,1080.6949],[27.6251,-25.5316,1135.7244],[27.6392,-25.6256,1158.475],[27.6465,-25.6502,1139.089],[27.6393,-25.6547,1138.7875],[27.6345,-25.653199999999998,1152.4119],[27.5734,-25.6655,1216.1204],[27.5704,-25.6313,1156.1111],[27.5484,-25.625,1180.5646],[27.5012,-25.6378,1118.5818],[27.5077,-25.6795,1138.7076],[27.5048,-25.7234,1179.3654],[27.5109,-25.7242,1178.6195],[27.5156,-25.7754,1465.4441],[27.5059,-25.7774,1363.4164],[27.534,-25.849,1729.4131],[27.5323,-25.85,1705.3772],[27.5336,-25.8521,1724.3008],[27.5474,-25.8514,1701.8506],[27.546,-25.8462,1794.8007],[27.5599,-25.8428,1784.5549],[27.5746,-25.836,1764.8308],[27.5983,-25.8196,1625.9224],[27.5993,-25.8127,1562.5923],[27.6056,-25.8082,1580.134],[27.6436,-25.7959,1664.9641],[27.6466,-25.8141,1307.587],[27.6418,-25.8114,1319.0562],[27.6411,-25.8128,1319.0562],[27.6455,-25.8198,1286.3267],[27.6488,-25.835,1255.824],[27.6471,-25.8406,1242.2313],[27.6504,-25.8427,1235.0746],[27.6497,-25.8435,1230.7787],[27.6546,-25.8453,1230.2455],[27.6639,-25.84,1226.8115],[27.6849,-25.8754,1542.4753],[27.7046,-25.8683,1579.7156],[27.7303,-25.8552,1456.6143],[27.7358,-25.8553,1461.6412],[27.7427,-25.8502,1443.4706],[27.7446,-25.8946,1481.3904],[27.791,-25.8747,1408.6896],[27.8315,-25.8602,1549.434],[27.844,-25.8489,1459.7629],[27.8518,-25.8464,1496.6194],[27.8482,-25.8393,1429.2283],[27.8587,-25.8188,1293.0768],[27.8917,-25.8229,1234.4253],[27.8901,-25.8298,1279.3643],[27.8853,-25.8354,1352.46],[27.8844,-25.8388,1341.9843],[27.8835,-25.8457,1350.7676],[27.8847,-25.8517,1358.145],[27.8826,-25.8619,1414.5594],[27.8982,-25.8597,1368.9429],[27.9005,-25.8408,1302.3518],[27.9395,-25.8368,1269.7627],[27.9258,-25.8241,1304.3606],[27.9401,-25.8197,1414.6418]]]]}}