{"type":"Feature","properties":{"GID_3":"ZAF.8.3.6_1","GID_0":"ZAF","country":"SouthAfrica","GID_1":"ZAF.8_1","province":"NorthernCape","NL_NAME_1":"NA","GID_2":"ZAF.8.3_1","county":"Namakwa","NL_NAME_2":"NA","city":"Richtersveld","VARNAME_3":"NA","NL_NAME_3":"NA","TYPE_3":"LocalMunicipality","ENGTYPE_3":"LocalMunicipality","CC_3":"NC061","HASC_3":"NA","name":"Richtersveld.city"},
"geometry":{"type": "MultiPolygon","coordinates": [[[[16.9132,-29.3443,0.0],[16.9121,-29.3437,0.0],[16.9115,-29.3457,0.0],[16.9146,-29.3471,0.0],[16.9151,-29.3457,0.0],[16.9132,-29.3443,0.0]]],
[[[16.906,-29.3324,0.0],[16.9051,-29.3315,0.0],[16.9032,-29.3343,0.0],[16.9079,-29.3429,0.0],[16.911,-29.344,0.0],[16.9121,-29.3424,0.0],[16.9082,-29.3396,0.0],[16.9079,-29.3362,0.303],[16.9049,-29.3343,0.0],[16.906,-29.3324,0.0]]],
[[[16.8643,-29.259,0.0],[16.864,-29.2576,0.0],[16.8629,-29.2574,0.0],[16.8629,-29.2593,0.0],[16.8643,-29.259,0.0]]],
[[[16.8585,-29.2457,0.0],[16.8568,-29.2457,0.0],[16.8576,-29.2479,0.0],[16.8596,-29.2474,0.0],[16.8585,-29.2457,0.0]]],
[[[17.0868,-29.4437,179.8895],[17.104,-29.3753,344.9745],[17.0916,-29.3338,260.1548],[17.133,-29.3253,186.6555],[17.1326,-29.3088,177.8642],[17.1748,-29.3027,215.2997],[17.1673,-29.2728,186.2272],[17.1927,-29.2663,193.3791],[17.1967,-29.2685,197.1893],[17.2043,-29.2638,211.3446],[17.2084,-29.2579,204.1622],[17.2051,-29.2566,202.1271],[17.2382,-29.2407,218.4674],[17.2999,-29.3045,471.047],[17.3575,-29.3279,324.0212],[17.3407,-29.3589,211.4443],[17.3264,-29.4043,240.4507],[17.3698,-29.4178,273.4915],[17.4093,-29.4207,429.8575],[17.4681,-29.42,611.4615],[17.5208,-29.4374,702.7251],[17.5379,-29.414,584.0182],[17.5653,-29.3979,595.626],[17.5581,-29.3837,350.0943],[17.5406,-29.3376,559.0688],[17.4605,-29.0277,899.0801],[17.4573,-28.9291,957.7294],[17.4622,-28.8545,725.4526],[17.349,-28.7945,817.8187],[17.4187,-28.722,144.7081],[17.4105,-28.7145,144.7778],[17.4173,-28.6961,147.939],[17.414,-28.6712,150.7411],[17.4157,-28.6675,137.3345],[17.4263,-28.6563,155.7361],[17.428,-28.6503,133.5],[17.4256,-28.6339,140.0818],[17.4301,-28.6234,132.9368],[17.4313,-28.6144,132.5],[17.4298,-28.6087,134.1728],[17.4246,-28.6001,153.758],[17.4321,-28.5832,130.304],[17.4326,-28.578,141.4288],[17.4291,-28.5693,132.5175],[17.4224,-28.5647,130.5867],[17.4162,-28.5631,130.2769],[17.4018,-28.5641,130.9458],[17.3891,-28.5712,143.405],[17.3845,-28.5711,138.5713],[17.3802,-28.5689,142.5522],[17.3763,-28.562,120.1347],[17.3773,-28.5366,124.2274],[17.3761,-28.5384,119.677],[17.3716,-28.5212,130.1637],[17.367,-28.5143,118.4734],[17.3664,-28.5101,124.1621],[17.3591,-28.504,123.4208],[17.3462,-28.5004,118.597],[17.3407,-28.496,122.5504],[17.338,-28.4868,123.2939],[17.3341,-28.4804,113.3951],[17.3333,-28.4734,112.9278],[17.3393,-28.4559,118.0381],[17.339,-28.4527,111.8999],[17.347,-28.4449,159.4654],[17.3489,-28.4388,113.8626],[17.3553,-28.4368,113.045],[17.3844,-28.4371,118.625],[17.3961,-28.428,125.368],[17.4088,-28.4033,112.4993],[17.4142,-28.3763,114.9793],[17.4102,-28.3709,109.0717],[17.4046,-28.3551,103.1841],[17.3943,-28.3417,103.6221],[17.3817,-28.3307,104.6051],[17.376,-28.3218,107.4622],[17.378,-28.3107,101.6814],[17.383,-28.3012,123.1506],[17.3821,-28.2956,115.0731],[17.3708,-28.2785,162.6507],[17.3622,-28.2744,95.2124],[17.3583,-28.2649,105.0532],[17.3554,-28.2516,99.3299],[17.3438,-28.2368,133.0146],[17.3391,-28.2341,96.1727],[17.3393,-28.2323,99.1076],[17.3342,-28.2262,106.9601],[17.3084,-28.2239,100.2683],[17.303,-28.2263,90.6472],[17.2819,-28.2442,106.7205],[17.2735,-28.245,84.5295],[17.2614,-28.2391,97.0057],[17.255,-28.2379,96.751],[17.2504,-28.239,88.249],[17.2399,-28.2478,87.5005],[17.2299,-28.2509,82.5884],[17.2148,-28.248,77.5851],[17.2054,-28.239,76.2367],[17.1953,-28.2277,72.581],[17.1882,-28.2168,76.9691],[17.1824,-28.2034,74.046],[17.1839,-28.1919,76.8812],[17.1832,-28.1828,73.9894],[17.1932,-28.1517,67.3547],[17.1964,-28.1297,73.3897],[17.1944,-28.1247,64.0],[17.1945,-28.1144,68.9647],[17.1927,-28.1094,68.4852],[17.1895,-28.1048,69.9079],[17.1792,-28.0988,67.693],[17.1663,-28.1003,65.0321],[17.1382,-28.0931,59.8645],[17.1314,-28.0855,53.5],[17.1255,-28.0673,54.5543],[17.1027,-28.0465,51.0],[17.0804,-28.0328,64.9988],[17.0728,-28.0346,50.434],[17.0669,-28.0426,50.612],[17.0513,-28.0491,52.649],[17.026,-28.0505,54.1277],[17.0215,-28.0521,52.4258],[17.017,-28.0576,49.8153],[17.0122,-28.0677,49.9037],[17.0082,-28.0724,48.7584],[17.002,-28.0755,43.2209],[16.991,-28.0707,42.5743],[16.9846,-28.0621,48.584],[16.9738,-28.0587,44.7772],[16.96,-28.0732,37.7116],[16.9545,-28.076,39.9466],[16.9475,-28.0763,36.1377],[16.9291,-28.0697,37.1953],[16.9232,-28.0693,38.4978],[16.9148,-28.0709,35.2562],[16.9069,-28.0704,34.976],[16.8985,-28.0746,31.9372],[16.8966,-28.0797,32.5107],[16.8856,-28.0885,33.3051],[16.8814,-28.0977,26.5563],[16.8842,-28.1112,33.2142],[16.8878,-28.1139,29.9922],[16.8896,-28.1193,33.6119],[16.8895,-28.1387,29.8314],[16.8878,-28.1461,36.9277],[16.8841,-28.1505,35.6534],[16.8851,-28.1629,30.2646],[16.8879,-28.1729,29.4357],[16.8822,-28.1783,24.1432],[16.8707,-28.182,25.3213],[16.8636,-28.1733,28.3634],[16.8454,-28.1652,23.128],[16.8395,-28.1643,27.3976],[16.8313,-28.1667,25.6564],[16.8282,-28.1696,20.5619],[16.8268,-28.1746,52.9824],[16.8302,-28.1835,31.5188],[16.8369,-28.1906,26.1619],[16.8442,-28.1933,20.8749],[16.851,-28.198,28.4703],[16.8568,-28.2062,23.3646],[16.8561,-28.2117,21.5488],[16.848,-28.2161,25.6402],[16.8329,-28.2176,29.0936],[16.8199,-28.2171,19.6166],[16.8108,-28.2138,24.9094],[16.8071,-28.2156,20.7621],[16.8031,-28.222,18.4097],[16.8034,-28.2272,51.7852],[16.8067,-28.2335,27.7082],[16.8195,-28.2398,24.4015],[16.826,-28.2451,26.8596],[16.8274,-28.2542,20.3955],[16.8267,-28.2642,29.6328],[16.8247,-28.269,31.284],[16.8204,-28.2739,18.4776],[16.8153,-28.2761,26.8079],[16.8024,-28.2754,20.5744],[16.7932,-28.271,28.0025],[16.7815,-28.2603,16.7264],[16.7764,-28.2591,20.6745],[16.7602,-28.2626,16.4351],[16.7545,-28.2728,29.308],[16.7519,-28.2907,12.5],[16.755,-28.302,28.1006],[16.7661,-28.3141,12.0],[16.7798,-28.3216,23.3388],[16.7888,-28.3461,13.6428],[16.8009,-28.3542,12.1703],[16.8084,-28.3619,15.7906],[16.8019,-28.3658,15.9476],[16.7886,-28.3816,12.6694],[16.769,-28.3968,13.324],[16.7671,-28.4091,13.4749],[16.7768,-28.4401,8.7381],[16.7752,-28.4448,9.8562],[16.7689,-28.453,8.3707],[16.758,-28.4575,17.9505],[16.7502,-28.4638,15.4425],[16.7341,-28.4941,11.7545],[16.7248,-28.4995,15.6033],[16.7183,-28.5009,11.8671],[16.7009,-28.4968,11.3248],[16.6977,-28.4914,18.8699],[16.6968,-28.4776,16.6732],[16.6899,-28.4711,16.8005],[16.6813,-28.4701,7.4885],[16.6724,-28.4723,21.3468],[16.6211,-28.5001,22.6491],[16.6175,-28.5047,3.5],[16.6127,-28.5203,9.0206],[16.6024,-28.5305,7.4604],[16.5958,-28.5339,6.4407],[16.5691,-28.54,6.7467],[16.5437,-28.5481,5.2104],[16.5302,-28.5545,6.0607],[16.5181,-28.5562,6.7848],[16.5143,-28.5583,3.0105],[16.5022,-28.5589,6.0567],[16.5,-28.562,3.6521],[16.4887,-28.5628,7.6632],[16.4805,-28.5653,4.743],[16.4788,-28.5676,3.759],[16.4679,-28.5732,3.106],[16.4654,-28.583,3.0265],[16.4558,-28.5921,3.8563],[16.4522,-28.6121,0.1656],[16.4534,-28.6209,0.86],[16.4519,-28.6321,0.3458],[16.4583,-28.6358,0.0],[16.4618,-28.641,0.0],[16.4851,-28.6499,1.036],[16.4882,-28.6535,1.578],[16.4871,-28.656,0.0],[16.4896,-28.656,0.6362],[16.4938,-28.6612,0.0],[16.5035,-28.6665,0.0],[16.5043,-28.6701,0.0],[16.5079,-28.6721,0.0],[16.5088,-28.676,0.0],[16.5132,-28.6779,1.9277],[16.5156,-28.686,0.0],[16.5213,-28.6882,0.0],[16.5221,-28.691,0.0],[16.5307,-28.6971,0.0],[16.5301,-28.7015,0.0],[16.5335,-28.7057,0.0],[16.5407,-28.7101,0.0],[16.5446,-28.7085,0.0],[16.5504,-28.7112,0.0],[16.5535,-28.7135,0.0],[16.5535,-28.7165,0.0],[16.5579,-28.7179,0.0],[16.5643,-28.7251,0.0],[16.5693,-28.7276,0.0],[16.569,-28.7329,0.0],[16.5713,-28.7407,0.0],[16.5688,-28.7507,2.7475],[16.5643,-28.7537,2.6675],[16.561,-28.759,0.0],[16.5613,-28.7635,0.0],[16.5626,-28.7665,0.0],[16.566,-28.766,6.3637],[16.5643,-28.7685,1.2182],[16.5682,-28.7699,0.0],[16.5707,-28.7732,0.0],[16.5704,-28.7763,0.0],[16.5735,-28.7774,1.971],[16.5715,-28.7843,0.0],[16.5738,-28.7907,0.0],[16.5729,-28.7949,0.0],[16.5785,-28.7965,0.0],[16.5824,-28.8015,6.5292],[16.5832,-28.8121,0.7422],[16.5799,-28.8137,0.0],[16.5793,-28.8218,0.0],[16.584,-28.8274,0.0],[16.5846,-28.8326,0.0],[16.5949,-28.8393,-0.5188],[16.599,-28.8576,2.7141],[16.5993,-28.8657,0.1535],[16.6015,-28.8679,0.0],[16.6001,-28.8732,0.0],[16.601,-28.8774,0.0],[16.6051,-28.879,0.0],[16.6093,-28.8774,0.0],[16.6143,-28.8785,0.0],[16.6285,-28.891,0.0],[16.6374,-28.8924,0.0],[16.6526,-28.9004,0.0],[16.6751,-28.9154,0.0],[16.6807,-28.9224,0.0],[16.6885,-28.9279,0.1535],[16.6896,-28.9343,0.3023],[16.6954,-28.9418,0.0],[16.6963,-28.954,0.4774],[16.701,-28.9568,0.0],[16.7013,-28.9657,0.0],[16.7071,-28.9674,0.0209],[16.7113,-28.9754,0.0],[16.7204,-28.9801,0.0],[16.7204,-28.9907,0.0],[16.7171,-28.9979,0.0],[16.7179,-29.0037,0.0],[16.724,-29.0082,0.0],[16.7254,-29.0137,0.0],[16.7401,-29.0307,0.0],[16.7465,-29.0426,0.0],[16.7818,-29.0618,0.0],[16.7954,-29.0751,0.0],[16.8026,-29.0801,1.9584],[16.8049,-29.0837,0.0],[16.8076,-29.0849,0.0],[16.8121,-29.091,0.0],[16.8137,-29.0901,0.0],[16.8179,-29.0965,6.553],[16.8149,-29.1015,1.6874],[16.8151,-29.1068,1.1711],[16.8132,-29.1099,1.5669],[16.8157,-29.1132,0.0],[16.8143,-29.1162,0.0],[16.8185,-29.119,0.0],[16.8229,-29.1257,0.0],[16.8229,-29.1357,0.0],[16.8312,-29.1513,0.0],[16.8318,-29.1557,1.61],[16.836,-29.1601,14.9673],[16.8357,-29.1621,3.97],[16.8318,-29.1618,0.0],[16.8304,-29.1637,0.0],[16.831,-29.1696,0.0],[16.836,-29.1732,3.3258],[16.836,-29.1754,4.0863],[16.8338,-29.1771,0.0],[16.8338,-29.1807,0.0],[16.8376,-29.1818,0.0],[16.8385,-29.1796,0.0],[16.8401,-29.1799,0.3318],[16.8421,-29.1849,0.0],[16.8415,-29.1926,0.0],[16.8435,-29.201,0.0],[16.8376,-29.2079,0.2475],[16.8371,-29.2115,0.0],[16.8438,-29.2215,0.0768],[16.8476,-29.2224,0.2635],[16.846,-29.224,1.0524],[16.8457,-29.2279,0.0],[16.8543,-29.2362,5.3356],[16.854,-29.2385,3.2348],[16.851,-29.2396,0.0],[16.854,-29.2424,0.0],[16.8585,-29.241,2.7602],[16.8665,-29.2474,0.887],[16.8665,-29.2576,0.0],[16.8688,-29.2599,0.7972],[16.8685,-29.2637,0.1391],[16.8665,-29.2649,0.2187],[16.8604,-29.2579,0.0],[16.859,-29.259,0.0],[16.866,-29.266,0.0],[16.8674,-29.2721,0.0],[16.8696,-29.2712,0.0],[16.8701,-29.2676,0.4978],[16.8715,-29.2671,2.7084],[16.8715,-29.2718,0.0],[16.8743,-29.2771,0.0],[16.8762,-29.2774,0.0],[16.8749,-29.274,0.0],[16.876,-29.2726,4.5992],[16.879,-29.2776,9.4962],[16.8793,-29.284,5.379],[16.8771,-29.2857,0.1639],[16.8771,-29.2904,0.3125],[16.8746,-29.2876,0.0],[16.876,-29.2796,0.04],[16.8749,-29.2785,0.0],[16.8729,-29.2793,0.0],[16.8732,-29.2901,0.0],[16.8865,-29.306,0.0],[16.8943,-29.3121,0.0],[16.8946,-29.3187,0.0],[16.9015,-29.3254,0.0],[16.9079,-29.3276,4.1379],[16.9085,-29.3351,0.303],[16.9112,-29.3388,0.0],[16.9268,-29.3504,2.09],[16.9237,-29.3546,0.0],[16.9251,-29.361,0.0],[16.9296,-29.3604,0.0],[16.9276,-29.3585,0.0],[16.9263,-29.359,0.0],[16.926,-29.3551,0.4211],[16.9329,-29.3582,0.0],[16.9407,-29.3718,6.6634],[16.939,-29.3876,0.0],[16.9418,-29.3876,0.6439],[16.9426,-29.401,0.7418],[16.9454,-29.4035,0.0],[16.9454,-29.409,0.2317],[16.9493,-29.4107,0.5536],[16.9538,-29.4196,0.0],[16.9588,-29.4218,0.0],[16.9588,-29.4268,0.0],[16.9662,-29.4318,0.0],[16.9693,-29.4404,1.5241],[16.9685,-29.4487,0.0],[16.9707,-29.4554,0.0],[16.9729,-29.4576,0.0],[16.974,-29.4624,0.0],[16.9776,-29.4649,1.3365],[16.9774,-29.4793,0.0],[16.981,-29.486,0.0647],[16.9854,-29.4896,1.176],[16.9824,-29.4954,0.0],[16.984,-29.4971,2.2553],[16.984,-29.5004,1.2184],[16.9818,-29.4996,0.0],[16.9835,-29.5035,0.0],[16.9821,-29.5068,0.0],[16.9874,-29.5099,0.0],[16.9912,-29.5099,0.0],[16.9935,-29.5121,0.0],[16.9921,-29.5151,0.0],[16.9946,-29.515,5.1931],[17.0373,-29.5007,30.3418],[17.068,-29.4551,119.5495],[17.0868,-29.4437,179.8895]]],
[[[16.934,-29.3649,0.0],[16.9326,-29.3646,0.0],[16.9337,-29.3704,0.0],[16.9365,-29.3735,0.0],[16.9349,-29.3704,0.0],[16.934,-29.3649,0.0]]],
[[[16.9215,-29.3493,0.0],[16.9176,-29.3487,0.0],[16.9174,-29.3499,0.0],[16.9188,-29.3515,0.0],[16.9201,-29.3499,0.0],[16.9201,-29.3524,0.0],[16.9224,-29.3526,0.0],[16.9243,-29.3499,0.0],[16.9215,-29.3493,0.0]]],
[[[16.5699,-28.7776,0.0],[16.5685,-28.7771,0.0],[16.5676,-28.779,0.0],[16.5701,-28.779,0.0],[16.5699,-28.7776,0.0]]]]}}