{"type":"Feature","properties":{"GID_3":"ZAF.4.10.5_1","GID_0":"ZAF","country":"SouthAfrica","GID_1":"ZAF.4_1","province":"KwaZulu-Natal","NL_NAME_1":"NA","GID_2":"ZAF.4.10_1","county":"Uthungulu","NL_NAME_2":"NA","city":"uMhlathuze","VARNAME_3":"NA","NL_NAME_3":"NA","TYPE_3":"LocalMunicipality","ENGTYPE_3":"LocalMunicipality","CC_3":"KZN282","HASC_3":"NA","name":"u_Mhlathuze.city"},
"geometry":{"type": "MultiPolygon","coordinates": [[[[31.7968,-28.9482,0.0],[31.7965,-28.9482,0.0],[31.7965,-28.9483,0.0],[31.7968,-28.9482,0.0]]],
[[[31.8024,-28.9457,0.0],[31.8024,-28.9459,0.0],[31.8032,-28.9457,0.0],[31.8024,-28.9457,0.0]]],
[[[31.8048,-28.9454,0.0],[31.8035,-28.9454,0.0],[31.8035,-28.9456,0.0],[31.8044,-28.9455,0.0],[31.8048,-28.9454,0.0]]],
[[[31.8126,-28.9455,1.8669],[31.8126,-28.9454,1.8669],[31.8125,-28.9454,1.8669],[31.8126,-28.9455,1.8669]]],
[[[31.8193,-28.9435,0.0],[31.8418,-28.9432,0.0],[31.8793,-28.9282,0.0],[31.9188,-28.9185,0.0],[31.9365,-28.9101,0.0],[31.9407,-28.9065,0.0],[31.9632,-28.9004,0.0],[31.991,-28.8882,0.0],[32.0004,-28.8857,0.0],[32.0101,-28.8804,0.0],[32.0365,-28.8601,0.0],[32.0399,-28.856,18.1101],[32.0424,-28.8554,0.0],[32.0457,-28.8499,2.7291],[32.0412,-28.8465,13.0199],[32.0415,-28.8449,3.3318],[32.0393,-28.8429,0.0],[32.0282,-28.8476,0.0],[32.0115,-28.8399,1.1678],[32.0071,-28.836,2.2629],[32.0032,-28.8274,0.8404],[32.0029,-28.8249,5.8975],[32.0076,-28.8243,0.0],[32.0074,-28.8199,0.0],[32.0157,-28.8229,5.9373],[32.0201,-28.8265,0.0],[32.0235,-28.8257,6.979],[32.0224,-28.8276,0.0],[32.0238,-28.8299,3.2456],[32.0276,-28.8312,6.1646],[32.0288,-28.8246,2.9988],[32.0254,-28.8176,1.9843],[32.026,-28.8149,5.2484],[32.0304,-28.8237,0.1305],[32.0301,-28.831,2.197],[32.0365,-28.8318,0.8235],[32.0376,-28.8354,0.0],[32.0415,-28.8354,1.136],[32.046,-28.8399,0.0],[32.0479,-28.8385,1.2953],[32.0493,-28.841,0.0],[32.0468,-28.8421,0.3166],[32.0521,-28.8449,1.3409],[32.0643,-28.8318,5.1327],[32.0851,-28.8149,11.3986],[32.094,-28.816,0.0],[32.0982,-28.8149,0.0],[32.0913,-28.8146,0.0],[32.0807,-28.8113,4.1124],[32.0726,-28.8062,0.0],[32.0643,-28.8049,2.1662],[32.0535,-28.8087,0.0],[32.0451,-28.8243,0.9516],[32.0401,-28.8257,0.4506],[32.0432,-28.8282,1.7355],[32.0415,-28.829,1.3475],[32.0363,-28.826,0.0],[32.0379,-28.8176,0.4645],[32.0299,-28.814,0.0],[32.0318,-28.8124,1.1833],[32.0324,-28.8146,4.3485],[32.0351,-28.8154,0.0],[32.034,-28.8115,0.0],[32.0299,-28.8099,2.5716],[32.0254,-28.8032,3.8208],[32.0299,-28.7985,2.0904],[32.036,-28.799,0.0],[32.0376,-28.8021,0.0],[32.0396,-28.8029,0.0],[32.0399,-28.8018,0.0],[32.0351,-28.7979,0.0],[32.0318,-28.7979,4.9968],[32.0324,-28.7965,0.0],[32.0282,-28.7943,0.0],[32.0282,-28.7924,0.0],[32.0313,-28.7921,0.0],[32.0354,-28.7949,0.0],[32.0374,-28.7924,4.4126],[32.0493,-28.7921,4.7691],[32.0504,-28.7951,0.0],[32.0504,-28.7924,0.0],[32.0554,-28.7868,1.6585],[32.0582,-28.7893,1.178],[32.0568,-28.7926,1.4628],[32.0579,-28.7951,0.0],[32.0649,-28.7985,0.0],[32.0679,-28.7982,0.0],[32.069,-28.7949,0.3555],[32.0785,-28.7974,0.0],[32.0812,-28.7946,0.0],[32.0818,-28.7982,4.3115],[32.0771,-28.7993,0.0],[32.0807,-28.8021,1.3042],[32.0835,-28.801,0.879],[32.0824,-28.7935,1.9165],[32.0901,-28.7935,4.2741],[32.0943,-28.7987,4.2066],[32.0915,-28.8029,0.0],[32.0929,-28.8068,0.0],[32.0926,-28.8049,1.0054],[32.0954,-28.8037,0.7862],[32.0982,-28.7993,6.4142],[32.1218,-28.7843,1.2323],[32.144,-28.7618,0.0],[32.1259,-28.7487,2.1673],[32.1257,-28.7457,0.9599],[32.1344,-28.7344,0.5],[32.1431,-28.7269,3.5371],[32.1417,-28.7244,1.4888],[32.1386,-28.7245,18.3608],[32.1429,-28.7141,27.008],[32.146,-28.712,13.8333],[32.1498,-28.7124,13.3961],[32.1543,-28.7079,10.9565],[32.1442,-28.702,27.5711],[32.1209,-28.7034,58.65],[32.106,-28.7105,56.1959],[32.0882,-28.7043,68.9829],[32.0685,-28.7034,71.2987],[32.0735,-28.6839,70.7072],[32.0571,-28.6642,52.1289],[32.0411,-28.6819,46.0197],[32.0366,-28.6909,27.0112],[32.0285,-28.6895,15.9573],[32.0264,-28.6873,18.8788],[32.0201,-28.6873,13.5227],[32.019,-28.6859,9.3223],[32.0205,-28.6847,14.5967],[32.0179,-28.6814,10.0764],[32.02,-28.68,15.345],[32.0189,-28.6779,19.5821],[32.0236,-28.6779,12.4937],[32.0246,-28.6756,14.9567],[32.0273,-28.6777,11.7439],[32.0295,-28.6744,12.403],[32.0269,-28.6708,14.4642],[32.0285,-28.6675,17.1638],[32.0277,-28.666,23.1251],[32.0316,-28.6653,19.778],[32.0324,-28.6626,20.8717],[32.0381,-28.6591,14.9531],[32.0344,-28.6577,30.3487],[32.0315,-28.6536,28.0235],[32.03,-28.6574,30.3288],[32.0274,-28.657,26.8634],[32.0277,-28.6536,22.1862],[32.0259,-28.6527,31.0671],[32.0271,-28.6497,29.1004],[32.0235,-28.6486,26.3705],[32.0216,-28.6461,39.2852],[32.0076,-28.6483,31.922],[32.0047,-28.6509,32.0257],[32.0026,-28.6484,33.6595],[32.0,-28.6484,39.4898],[32.0021,-28.6455,36.4886],[32.0003,-28.6432,37.9934],[32.0023,-28.6393,38.0198],[31.9992,-28.635,39.1693],[31.9996,-28.631,41.1485],[32.005,-28.6286,40.7778],[32.0056,-28.6253,44.5731],[32.0003,-28.622,142.055],[31.9593,-28.6641,28.6106],[31.9503,-28.6653,36.9199],[31.946,-28.6635,31.5434],[31.9452,-28.6613,31.4915],[31.9492,-28.6577,32.3709],[31.945,-28.6528,38.6005],[31.9452,-28.6493,33.8791],[31.9414,-28.6521,36.0665],[31.9347,-28.6452,47.5337],[31.9328,-28.6461,64.2094],[31.9329,-28.6505,39.8369],[31.9314,-28.6523,42.7585],[31.9282,-28.6502,42.9672],[31.9309,-28.6452,42.3945],[31.9264,-28.6443,50.3465],[31.9259,-28.6408,55.0983],[31.9303,-28.6375,46.467],[31.9314,-28.6346,59.406],[31.9311,-28.6308,74.7323],[31.9287,-28.6276,72.5825],[31.9187,-28.6362,52.6314],[31.916,-28.6337,51.0411],[31.9166,-28.6314,52.1889],[31.9152,-28.6291,72.8268],[31.9135,-28.6288,52.7994],[31.9127,-28.6324,59.0957],[31.9089,-28.6369,57.6536],[31.9118,-28.6387,55.3448],[31.9179,-28.6388,62.5164],[31.9169,-28.6437,61.582],[31.91,-28.6475,61.4355],[31.9098,-28.6493,58.7598],[31.9038,-28.65,67.8565],[31.8944,-28.6606,114.4753],[31.8678,-28.6793,100.848],[31.8699,-28.6833,94.4371],[31.8685,-28.6863,80.1019],[31.8725,-28.695,71.1516],[31.8704,-28.6964,70.4643],[31.8708,-28.6987,67.6423],[31.8745,-28.7024,65.1702],[31.8818,-28.7035,60.2588],[31.8886,-28.7092,52.7211],[31.8795,-28.7118,60.4128],[31.8769,-28.715,57.8888],[31.8727,-28.7135,59.576],[31.8682,-28.7167,62.8217],[31.8603,-28.7175,65.0266],[31.8524,-28.7149,68.5581],[31.8448,-28.7201,72.412],[31.8416,-28.7202,74.5347],[31.839,-28.7192,77.2904],[31.8396,-28.713,82.1154],[31.8353,-28.7088,90.7927],[31.8232,-28.7043,110.4327],[31.8137,-28.7036,130.8432],[31.7881,-28.7222,181.4416],[31.7716,-28.7423,60.1932],[31.7694,-28.7494,52.3152],[31.762,-28.7563,43.4241],[31.771,-28.7592,58.1844],[31.7689,-28.7624,41.4486],[31.7567,-28.7649,42.118],[31.7543,-28.7678,39.6787],[31.7551,-28.7731,45.549],[31.7617,-28.7732,47.3223],[31.7674,-28.7722,37.8819],[31.7718,-28.7667,38.3548],[31.774,-28.7668,39.9037],[31.7845,-28.7771,43.1482],[31.8003,-28.7802,38.3722],[31.8064,-28.7781,44.9569],[31.8129,-28.7667,28.1655],[31.8169,-28.7668,30.3538],[31.8215,-28.7693,29.5434],[31.8233,-28.772,32.4907],[31.8192,-28.7818,26.3941],[31.8177,-28.7905,29.4344],[31.8243,-28.7988,31.8506],[31.8269,-28.8058,26.5316],[31.828,-28.822,25.7492],[31.8346,-28.8248,22.4399],[31.8323,-28.8316,80.0108],[31.8239,-28.8369,131.7225],[31.8205,-28.842,82.6151],[31.8151,-28.8461,51.0904],[31.8048,-28.8505,71.2994],[31.8013,-28.8463,114.2841],[31.7983,-28.8458,120.0493],[31.7886,-28.8526,82.1252],[31.7875,-28.8482,97.0552],[31.7804,-28.8487,97.788],[31.7794,-28.8506,108.2364],[31.7699,-28.8534,155.1847],[31.7665,-28.8527,149.2079],[31.7645,-28.862,136.8311],[31.7615,-28.8665,67.4533],[31.7554,-28.8645,94.4792],[31.7542,-28.871,117.4087],[31.7478,-28.8727,84.9244],[31.7514,-28.8792,55.5335],[31.7473,-28.8794,70.1836],[31.7455,-28.8834,50.5823],[31.7404,-28.8883,98.222],[31.7265,-28.8958,81.7055],[31.7256,-28.8994,83.9212],[31.7219,-28.9004,71.5574],[31.7201,-28.8994,70.8081],[31.7177,-28.9021,66.1724],[31.7123,-28.903,59.6673],[31.7058,-28.9085,17.5997],[31.7112,-28.9116,15.7371],[31.7098,-28.9148,7.9287],[31.7125,-28.9149,8.9512],[31.7169,-28.919,9.1777],[31.7209,-28.9168,6.8988],[31.7275,-28.9172,10.367],[31.7285,-28.9186,6.9108],[31.7304,-28.9171,10.77],[31.7335,-28.9186,4.8524],[31.7377,-28.9182,5.1354],[31.7399,-28.9202,6.1922],[31.7442,-28.9184,4.9146],[31.7468,-28.9198,5.514],[31.7859,-28.9027,47.5631],[31.8017,-28.933,7.3538],[31.7974,-28.9342,6.5678],[31.7919,-28.9317,7.1484],[31.7802,-28.9359,1.586],[31.7848,-28.9396,3.7072],[31.786,-28.9434,2.2371],[31.7823,-28.9484,9.0162],[31.7753,-28.9517,1.1346],[31.7758,-28.9546,10.8208],[31.7798,-28.955,12.3419],[31.7846,-28.951,4.8289],[31.8021,-28.9449,0.0],[31.8193,-28.9435,0.0]]],
[[[31.8055,-28.9453,0.0],[31.806,-28.9452,4.1682],[31.8068,-28.9451,4.1682],[31.8054,-28.9451,0.0],[31.8055,-28.9453,0.0]]],
[[[31.8096,-28.9451,3.9889],[31.8124,-28.9454,1.8669],[31.8115,-28.9449,0.0],[31.8076,-28.9449,3.9889],[31.8096,-28.9451,3.9889]]],
[[[32.039,-28.839,0.0],[32.0399,-28.8382,0.0],[32.0385,-28.8379,0.0],[32.0385,-28.8399,0.0],[32.0404,-28.8401,0.0],[32.0404,-28.839,0.0],[32.0393,-28.8396,0.0],[32.039,-28.839,0.0]]],
[[[32.0851,-28.7954,0.0],[32.0868,-28.7951,0.4594],[32.0868,-28.7949,0.4594],[32.084,-28.7943,0.942],[32.0851,-28.7954,0.0]]]]}}