{"type": "Feature","bbox": [28.3793,-26.3843,30.6656,-24.9015],"geometry": {"type": "MultiPolygon","coordinates": [[[[29.1844,-26.3478,1557.2161],[29.1952,-26.362,1574.7633],[29.2163,-26.3622,1554.0],[29.214,-26.359,1554.0],[29.2155,-26.3522,1550.427],[29.2174,-26.351,1549.3818],[29.2239,-26.3546,1566.5653],[29.2606,-26.3624,1605.781],[29.2851,-26.3427,1567.885],[29.3355,-26.3483,1591.9932],[29.3452,-26.354,1590.3085],[29.352,-26.3361,1564.1992],[29.3446,-26.3315,1561.2987],[29.3666,-26.2921,1633.8231],[29.3673,-26.2638,1633.322],[29.340699999999998,-26.2451,1599.2533],[29.3535,-26.2231,1590.3961],[29.3445,-26.2148,1618.3241],[29.3614,-26.2132,1561.8199],[29.375,-26.1964,1547.4641],[29.388,-26.2049,1608.457],[29.4555,-26.2114,1577.153],[29.4566,-26.2037,1661.4302],[29.4756,-26.1738,1616.8079],[29.4935,-26.1695,1621.2484],[29.5131,-26.1856,1606.5444],[29.5602,-26.2092,1649.6968],[29.5403,-26.2539,1633.7418],[29.5858,-26.2534,1613.5789],[29.5909,-26.2404,1629.1838],[29.5943,-26.2398,1627.9646],[29.6492,-26.2423,1632.1768],[29.6676,-26.2446,1638.6372],[29.6974,-26.2316,1640.938],[29.6975,-26.2276,1639.8347],[29.7051,-26.2281,1653.8818],[29.7154,-26.2038,1715.4619],[29.7588,-26.2254,1690.257],[29.8047,-26.1895,1714.1829],[29.8006,-26.1635,1740.7913],[29.8111,-26.1053,1675.7556],[29.8274,-26.071,1663.3552],[29.8305,-26.0735,1668.1737],[29.8658,-26.0139,1655.8203],[29.8569,-26.0032,1679.7509],[29.8566,-25.979,1702.1741],[29.877,-25.9652,1711.6941],[29.8568,-25.9345,1721.1038],[29.8306,-25.9219,1727.7521],[29.8393,-25.9062,1722.1539],[29.8482,-25.876,1755.2825],[29.8618,-25.8624,1765.073],[29.899,-25.8693,1731.5613],[29.9438,-25.9057,1686.3019],[29.9589,-25.9129,1670.0546],[29.9977,-25.9187,1672.3463],[29.9899,-25.8837,1714.4629],[30.0364,-25.8769,1749.0562],[30.0867,-25.8603,1765.5421],[30.0915,-25.8462,1776.5476],[30.1497,-25.8297,1576.73],[30.1517,-25.8193,1579.9883],[30.2008,-25.8364,1569.0424],[30.2138,-25.804,1648.4408],[30.2704,-25.8254,1754.0717],[30.2434,-25.8721,1603.8053],[30.254,-25.8933,1701.6787],[30.2789,-25.9072,1470.6595],[30.299,-25.9264,1762.2285],[30.3311,-25.8805,1781.5488],[30.3811,-25.8869,1825.0986],[30.4191,-25.8776,1573.332],[30.4306,-25.8555,1750.1611],[30.4554,-25.8383,1191.7435],[30.4489,-25.8306,1193.7944],[30.4641,-25.8139,1245.405],[30.4591,-25.8095,1243.7417],[30.4568,-25.8036,1257.7854],[30.4788,-25.7938,1508.3628],[30.484,-25.8186,1510.5793],[30.5149,-25.7879,1601.7771],[30.4864,-25.7622,1811.8783],[30.5087,-25.7369,1861.4061],[30.5193,-25.7285,1908.3265],[30.5586,-25.7683,1722.1193],[30.6061,-25.7897,1579.0928],[30.5796,-25.7535,1794.3004],[30.6112,-25.719,1836.0378],[30.6185,-25.7238,1796.248],[30.6385,-25.724,1633.2115],[30.6387,-25.7118,1654.2645],[30.6466,-25.7124,1601.09],[30.6656,-25.673,1208.6942],[30.6081,-25.6553,1628.556],[30.6152,-25.6395,1697.292],[30.6257,-25.6373,1718.536],[30.6326,-25.6297,1709.2119],[30.6108,-25.5919,942.0434],[30.5937,-25.5541,1620.9269],[30.5862,-25.5516,1700.86],[30.5739,-25.557,1759.9963],[30.5408,-25.5544,1824.9664],[30.5341,-25.536,1927.7889],[30.5653,-25.4812,2000.2141],[30.5623,-25.478,1825.2847],[30.5572,-25.4781,1921.3259],[30.5501,-25.4693,1887.5426],[30.5309,-25.4664,1868.9333],[30.5105,-25.4758,1782.0056],[30.5005,-25.4511,1397.8245],[30.4807,-25.4618,1723.1104],[30.4801,-25.4524,1680.9669],[30.4596,-25.4108,1255.2981],[30.4525,-25.4103,1394.8947],[30.4424,-25.3808,1099.8535],[30.4492,-25.345,1545.9799],[30.4243,-25.3525,1578.5415],[30.4014,-25.3808,1141.3455],[30.4178,-25.4235,1595.2509],[30.3887,-25.4493,1581.9314],[30.3875,-25.4483,1570.8198],[30.351,-25.4925,1601.0515],[30.3014,-25.445,1346.2212],[30.2789,-25.4529,1832.153],[30.2626,-25.473,1795.7954],[30.2295,-25.4324,1809.634],[30.2433,-25.4096,1914.2423],[30.2392,-25.4108,1911.4874],[30.2517,-25.3573,1821.0426],[30.2273,-25.3495,1875.6826],[30.2235,-25.366,1772.1118],[30.2056,-25.3568,1897.9438],[30.1881,-25.3203,2004.804],[30.2034,-25.3085,2010.5638],[30.1968,-25.2946,2064.5874],[30.1944,-25.3021,2091.1602],[30.1901,-25.2938,2001.6437],[30.1908,-25.2758,1917.8792],[30.1869,-25.2731,1942.4492],[30.1803,-25.2745,2058.5049],[30.1761,-25.2668,2167.488],[30.1432,-25.2458,2232.6562],[30.1418,-25.2364,2268.6992],[30.1258,-25.2123,1972.3696],[30.1152,-25.2417,2199.7571],[30.1218,-25.2426,2197.6323],[30.1117,-25.265,2088.1758],[30.1066,-25.2654,2150.5022],[30.1031,-25.2747,2242.7493],[30.0834,-25.2941,2080.9065],[30.0255,-25.3677,2115.2188],[29.9935,-25.3547,1886.4075],[29.9906,-25.3382,1808.3212],[29.9376,-25.331,1774.454],[29.8879,-25.3386,1474.3289],[29.8878,-25.3643,1497.7518],[29.8403,-25.3863,1446.9564],[29.8373,-25.3818,1439.2964],[29.8372,-25.3768,1436.2859],[29.8327,-25.37,1435.1334],[29.832,-25.3655,1431.3171],[29.8273,-25.365,1431.0071],[29.8258,-25.3621,1430.323],[29.8229,-25.3623,1427.1697],[29.8203,-25.3589,1431.0981],[29.8201,-25.3607,1426.0204],[29.8171,-25.362,1434.2218],[29.7932,-25.3621,1480.6885],[29.7702,-25.4015,1784.0336],[29.7276,-25.3842,1731.0808],[29.6739,-25.3722,1640.7322],[29.6128,-25.4006,1482.6124],[29.587,-25.3952,1422.7622],[29.5226,-25.405,1279.4856],[29.5188,-25.4228,1235.939],[29.453,-25.4065,1295.6638],[29.399,-25.4148,1276.7278],[29.35,-25.4046,1011.3369],[29.3421,-25.3731,977.5097],[29.3214,-25.3799,1015.9812],[29.2644,-25.3755,1288.5026],[29.2531,-25.3835,1316.7013],[29.243,-25.4036,1357.811],[29.2375,-25.4023,1348.2861],[29.2073,-25.4146,1425.1552],[29.1957,-25.3703,1391.7755],[29.1313,-25.3902,1408.6228],[29.142,-25.3858,1409.7351],[29.1641,-25.3545,1168.265],[29.1746,-25.3185,1068.8785],[29.167,-25.3034,1047.974],[29.1184,-25.3132,1072.1863],[29.0959,-25.3212,1158.5276],[29.0902,-25.2894,1030.1276],[29.0844,-25.2929,1052.1995],[29.0827,-25.2871,1023.6481],[29.0761,-25.2846,1027.4524],[29.0728,-25.2869,1030.5115],[29.0565,-25.2793,1162.6426],[29.0503,-25.2802,1202.457],[29.0384,-25.2765,1298.7957],[29.0349,-25.2646,1231.0018],[29.0414,-25.261,1175.1208],[29.0318,-25.2509,1164.5105],[29.0449,-25.2022,1041.6168],[29.0425,-25.1405,961.8878],[29.0898,-25.1485,975.8448],[29.0869,-25.1365,962.6976],[29.1284,-25.113,948.3602],[29.1058,-25.1004,919.0217],[29.1016,-25.1027,917.8971],[29.0979,-25.1003,914.616],[29.0942,-25.1032,915.7372],[29.0912,-25.1002,912.1144],[29.0883,-25.1036,910.1466],[29.0849,-25.0977,903.6767],[29.0903,-25.0918,901.7196],[29.0857,-25.0888,886.5391],[29.0707,-25.0655,948.611],[29.0188,-25.0549,978.7997],[28.9764,-25.0708,958.0494],[28.9754,-25.0687,958.0379],[28.9717,-25.0702,962.8127],[28.9462,-25.017,1006.7723],[28.9349,-25.0,1009.9091],[28.9103,-25.0071,990.4467],[28.9053,-24.996,992.6898],[28.9094,-24.9955,993.0339],[28.8916,-24.9555,1046.8612],[28.9418,-24.9336,1010.3162],[28.937,-24.9228,1014.7595],[28.9241,-24.9015,1020.8388],[28.8464,-24.9333,1020.0236],[28.8374,-24.916,1018.3555],[28.7594,-24.9114,1038.6354],[28.7138,-24.9536,1024.4514],[28.6588,-24.9722,1028.7234],[28.6338,-24.9844,1027.5366],[28.6055,-25.0037,1021.084],[28.6343,-25.0582,991.0466],[28.6095,-25.0599,1000.9346],[28.6069,-25.0704,1006.7924],[28.4737,-25.0893,1047.0042],[28.4952,-25.1318,1051.2],[28.4466,-25.1359,1069.5332],[28.443,-25.129,1070.1079],[28.4005,-25.1478,1095.3468],[28.3793,-25.1553,1089.7759],[28.3919,-25.1642,1110.7148],[28.411,-25.2048,1075.2112],[28.3869,-25.2134,1063.2268],[28.4616,-25.2015,1075.606],[28.4977,-25.1818,1046.4249],[28.5321,-25.1698,1025.3793],[28.5366,-25.1524,1045.7395],[28.5961,-25.1426,1006.1946],[28.5967,-25.1385,1004.2089],[28.6361,-25.1281,994.7316],[28.635,-25.1183,1001.1304],[28.6489,-25.1129,1000.2932],[28.6516,-25.1429,996.2341],[28.6683,-25.1385,979.7917],[28.7101,-25.1161,975.3374],[28.7446,-25.1096,971.5077],[28.7592,-25.1497,949.1703],[28.7574,-25.1499,949.1472],[28.7765,-25.1837,979.2057],[28.7754,-25.1838,979.2057],[28.7846,-25.2287,1246.6497],[28.7791,-25.2308,1295.5961],[28.7638,-25.2211,1261.1262],[28.7324,-25.2692,1238.4305],[28.7396,-25.2885,1228.6077],[28.7329,-25.2827,1225.8896],[28.6956,-25.2945,1348.0072],[28.6792,-25.303,1229.2178],[28.6413,-25.3276,1211.9967],[28.6332,-25.3315,1233.0223],[28.6226,-25.3337,1219.6377],[28.6389,-25.394,1289.4829],[28.6198,-25.4114,1283.8563],[28.6253,-25.4476,1241.51],[28.6295,-25.4594,1241.5413],[28.6208,-25.4632,1248.407],[28.6154,-25.4679,1249.675],[28.621,-25.4707,1251.1144],[28.6321,-25.4884,1271.6382],[28.634,-25.5199,1379.917],[28.6257,-25.5231,1361.2886],[28.6267,-25.5312,1371.1902],[28.635,-25.5592,1399.6643],[28.6455,-25.5858,1459.4897],[28.6473,-25.5856,1462.4158],[28.6425,-25.5899,1427.0248],[28.6747,-25.6588,1437.5992],[28.6727,-25.665,1435.4285],[28.6838,-25.6754,1467.9746],[28.7088,-25.6828,1507.4701],[28.7221,-25.6442,1506.5077],[28.7239,-25.6318,1470.7167],[28.7382,-25.6339,1461.3406],[28.7663,-25.647,1421.4012],[28.759,-25.678,1451.542],[28.7528,-25.6939,1491.8165],[28.7574,-25.6953,1481.3092],[28.7572,-25.7059,1496.6562],[28.7649,-25.7036,1501.4138],[28.7653,-25.7006,1491.9684],[28.7681,-25.7009,1493.9215],[28.7693,-25.6988,1489.9418],[28.7793,-25.7019,1489.7267],[28.7927,-25.7024,1454.692],[28.8082,-25.689,1412.0679],[28.8193,-25.6951,1443.1589],[28.847,-25.6824,1487.8167],[28.8229,-25.6589,1388.5105],[28.81,-25.6591,1420.141],[28.8115,-25.643,1381.7113],[28.836,-25.6374,1371.9175],[28.8355,-25.6456,1379.3531],[28.8416,-25.6545,1387.9808],[28.8457,-25.6523,1382.5674],[28.8693,-25.6581,1393.7377],[28.872,-25.6416,1359.2899],[28.8629,-25.6355,1361.4984],[28.8584,-25.6348,1363.0272],[28.8431,-25.5664,1512.9442],[28.8085,-25.5732,1503.4114],[28.7971,-25.542,1488.1505],[28.8219,-25.5224,1431.7354],[28.8518,-25.5018,1360.6699],[28.8699,-25.5247,1443.4504],[28.8741,-25.5271,1443.2012],[28.8582,-25.5691,1501.1733],[28.9101,-25.5245,1430.3088],[28.9152,-25.558,1383.0764],[28.9465,-25.5998,1624.7455],[29.0078,-25.5742,1246.5859],[28.9869,-25.5402,1349.7576],[28.9881,-25.5395,1354.6414],[28.9932,-25.5425,1329.031],[29.0067,-25.5376,1358.4523],[29.0106,-25.5332,1360.4094],[29.019,-25.5278,1413.3502],[29.0137,-25.5132,1360.7089],[29.036,-25.5213,1284.1631],[29.0422,-25.521,1262.9933],[29.0474,-25.517,1257.5815],[29.0482,-25.5202,1253.73],[29.0587,-25.5272,1234.2681],[29.0787,-25.4996,1413.4529],[29.0774,-25.4962,1446.8688],[29.08,-25.4946,1462.3619],[29.0914,-25.5306,1301.1926],[29.0984,-25.5377,1234.4933],[29.0869,-25.5486,1202.5187],[29.0684,-25.5523,1248.5698],[29.0343,-25.5634,1323.1147],[29.042,-25.5733,1278.1433],[29.0456,-25.5808,1243.0344],[29.04,-25.6175,1453.1716],[29.0642,-25.6207,1349.0653],[29.0661,-25.6305,1518.6494],[29.0565,-25.6326,1524.537],[29.0646,-25.6424,1560.248],[28.9688,-25.6733,1352.8721],[28.9507,-25.7283,1405.1477],[28.9813,-25.7425,1350.0485],[28.9576,-25.7746,1448.1257],[28.9382,-25.8233,1500.3746],[28.9433,-25.8244,1480.1958],[28.9504,-25.8374,1551.6729],[28.9382,-25.8886,1549.2202],[28.8868,-25.8714,1449.011],[28.8839,-25.8783,1436.5209],[28.889,-25.8803,1447.8713],[28.8795,-25.9252,1429.9817],[28.8825,-25.9698,1512.8762],[28.8833,-25.9714,1517.1105],[28.8852,-25.9714,1518.1599],[28.885,-25.9744,1513.5593],[28.8673,-26.007,1453.0421],[28.8648,-26.0013,1452.7549],[28.8329,-26.0048,1505.7949],[28.7939,-26.0046,1537.5439],[28.7739,-26.0137,1535.6116],[28.7624,-25.9831,1546.3005],[28.7579,-25.9837,1551.3909],[28.7575,-25.9906,1545.0604],[28.7108,-25.9906,1501.5925],[28.6527,-25.9743,1487.1128],[28.6323,-25.9708,1510.3308],[28.591,-26.0025,1561.7325],[28.5867,-26.016,1539.1907],[28.5789,-26.0596,1562.8827],[28.5386,-26.0478,1598.1165],[28.5308,-26.0616,1589.1638],[28.5158,-26.0585,1581.4004],[28.5031,-26.0638,1600.9934],[28.5158,-26.0812,1592.0378],[28.5012,-26.0896,1609.9274],[28.5052,-26.0992,1617.3489],[28.497,-26.1039,1624.1477],[28.4905,-26.1264,1629.738],[28.5213,-26.1445,1621.3582],[28.5271,-26.1787,1626.1859],[28.5343,-26.1722,1631.7723],[28.5305,-26.2253,1613.5417],[28.6223,-26.2484,1636.3892],[28.6269,-26.2924,1617.3829],[28.6728,-26.3117,1639.1514],[28.6727,-26.3209,1655.701],[28.7101,-26.3412,1640.1895],[28.7394,-26.3245,1643.5028],[28.7536,-26.3207,1651.49],[28.7789,-26.3169,1645.4865],[28.8051,-26.3066,1631.6313],[28.8178,-26.3457,1638.0272],[28.8384,-26.340699999999998,1599.59],[28.8676,-26.3277,1599.9215],[28.8876,-26.28,1556.0492],[28.8863,-26.2577,1543.5419],[28.9395,-26.2658,1568.0759],[28.95,-26.2547,1587.364],[28.9708,-26.2384,1608.3069],[28.9835,-26.2421,1630.4994],[28.9842,-26.2369,1639.9849],[29.0011,-26.2288,1619.1132],[29.0333,-26.2258,1614.3735],[29.0401,-26.2594,1594.4652],[29.0658,-26.3143,1638.0919],[29.1022,-26.3298,1640.4741],[29.1034,-26.3452,1648.4133],[29.1236,-26.3843,1586.0195],[29.1614,-26.3598,1566.6907],[29.162,-26.3581,1562.7874],[29.1693,-26.357,1561.1097],[29.1678,-26.3528,1560.0468],[29.1713,-26.3498,1561.6868],[29.1735,-26.3486,1564.0692],[29.1766,-26.3504,1557.5867],[29.1799,-26.3479,1561.6979],[29.1844,-26.3478,1557.2161]]]]}
,"properties": {"GID_2": "ZAF.6.3_1","GID_0": "ZAF","country": "SouthAfrica","GID_1": "ZAF.6_1","province": "Mpumalanga","NL_NAME_1": "NA","county": "Nkangala","VARNAME_2": "NA","NL_NAME_2": "NA","TYPE_2": "DistrictMunicipality","ENGTYPE_2": "DistrictMunicipality","CC_2": "DC31","HASC_2": "ZA.MP.NK","name": "Nkangala.county","area_km2": 16791.03,"hist_schema_id": "Elevation0-9000","hist_area_km2": {"875": 0.33,"900": 16.84,"925": 56.15,"950": 252.53,"975": 275.35,"1000": 277.99,"1025": 296.03,"1050": 122.7,"1075": 103.53,"1100": 96.41,"1125": 84.09,"1150": 93.85,"1175": 115.32,"1200": 134.92,"1225": 150.29,"1250": 176.66,"1275": 214.34,"1300": 253.29,"1325": 279.69,"1350": 311.18,"1375": 382.79,"1400": 450.4,"1425": 511.28,"1450": 547.59,"1475": 592.1,"1500": 661.4,"1525": 872.29,"1550": 1272.44,"1575": 1527.29,"1600": 1409.8,"1625": 1023.5,"1650": 692.74,"1675": 583.51,"1700": 454.19,"1725": 369.65,"1750": 296.94,"1775": 254.63,"1800": 214.43,"1825": 171.31,"1850": 195.43,"1875": 199.96,"1900": 174.01,"1925": 136.65,"1950": 101.52,"1975": 82.27,"2000": 57.48,"2025": 40.39,"2050": 33.56,"2075": 31.52,"2100": 30.24,"2125": 29.47,"2150": 26.89,"2175": 24.69,"2200": 15.16,"2225": 9.2,"2250": 2.55,"2275": 0.27}}}