{"type":"Feature","properties":{"GID_3":"ZAF.7.4.2_1","GID_0":"ZAF","country":"SouthAfrica","GID_1":"ZAF.7_1","province":"NorthWest","NL_NAME_1":"NA","GID_2":"ZAF.7.4_1","county":"NgakaModiriMolema","NL_NAME_2":"NA","city":"Mafikeng","VARNAME_3":"NA","NL_NAME_3":"NA","TYPE_3":"LocalMunicipality","ENGTYPE_3":"LocalMunicipality","CC_3":"NW383","HASC_3":"NA","name":"Mafikeng.city"},
"geometry":{"type": "MultiPolygon","coordinates": [[[[25.6893,-26.257,1376.6544],[25.7015,-26.2392,1381.6506],[25.713,-26.2276,1388.6437],[25.7129,-26.2248,1387.8093],[25.721,-26.2132,1392.2864],[25.7337,-26.1855,1402.3219],[25.7441,-26.1673,1407.802],[25.7504,-26.1385,1414.2583],[25.7667,-26.0852,1424.0916],[25.7656,-26.0837,1423.7018],[25.7572,-26.0847,1421.3989],[25.7516,-26.0932,1418.4226],[25.7498,-26.0778,1420.4961],[25.7585,-26.0742,1420.8455],[25.752,-26.0655,1416.8639],[25.7529,-26.0592,1413.1804],[25.7465,-26.0582,1411.2542],[25.7383,-26.0472,1404.3741],[25.7495,-26.0274,1401.4791],[25.7649,-26.028,1406.4545],[25.7721,-26.0358,1412.8542],[25.777,-26.0289,1413.1282],[25.7873,-26.0196,1417.2234],[25.8054,-25.9517,1399.5221],[25.8061,-25.915,1414.7662],[25.8019,-25.9001,1405.4893],[25.9246,-25.9116,1459.1841],[25.9075,-25.8573,1434.9413],[25.9316,-25.8512,1449.6735],[25.9384,-25.8525,1452.2749],[25.9433,-25.8511,1455.1239],[25.9553,-25.855,1455.9844],[25.9688,-25.8628,1457.1183],[25.9808,-25.8652,1456.4243],[25.9896,-25.8658,1460.0669],[25.9944,-25.8644,1457.1422],[26.0048,-25.8664,1456.9574],[26.0115,-25.8761,1458.564],[26.0246,-25.8859,1466.4564],[26.0262,-25.8892,1466.7368],[26.0569,-25.9193,1491.168],[26.0947,-25.8572,1525.8779],[26.1148,-25.8297,1506.3796],[26.1539,-25.8155,1533.0983],[26.1124,-25.8253,1537.8972],[26.1005,-25.787,1529.6801],[26.0717,-25.768,1498.4045],[26.0999,-25.7344,1469.099],[26.0964,-25.7313,1468.1069],[26.1092,-25.7021,1390.8068],[26.0943,-25.673,1311.7549],[26.0916,-25.6649,1318.6072],[26.1135,-25.6433,1308.4299],[26.0973,-25.6466,1256.6046],[26.0968,-25.6447,1252.3198],[26.1001,-25.6401,1283.2843],[26.1001,-25.6343,1282.9153],[26.0954,-25.6178,1241.29],[26.0733,-25.6175,1257.4449],[26.0624,-25.6263,1273.3473],[26.0524,-25.6288,1280.0972],[26.0366,-25.6079,1295.9385],[26.0376,-25.6063,1295.9385],[26.0331,-25.6052,1295.1353],[26.0329,-25.6023,1288.6179],[26.0291,-25.6032,1294.0411],[26.0283,-25.5974,1287.6809],[26.0019,-25.6001,1375.8613],[25.9799,-25.6045,1405.5117],[25.9779,-25.6069,1413.1687],[26.0179,-25.6169,1366.0763],[26.0246,-25.6369,1367.0333],[25.9757,-25.65,1430.1744],[25.9488,-25.6653,1408.9728],[25.8869,-25.6753,1427.7168],[25.8456,-25.6656,1423.537],[25.8351,-25.6116,1423.6304],[25.8134,-25.5664,1435.2484],[25.7966,-25.525,1427.1582],[25.7407,-25.5138,1416.6852],[25.6794,-25.5201,1381.4683],[25.6421,-25.5444,1347.3929],[25.6298,-25.5378,1344.512],[25.5809,-25.6388,1273.1263],[25.5775,-25.6387,1269.7867],[25.5667,-25.6474,1265.2559],[25.5576,-25.6498,1261.1868],[25.5344,-25.6656,1251.3717],[25.5311,-25.67,1249.4899],[25.5275,-25.671,1249.0541],[25.513,-25.6847,1244.1709],[25.5071,-25.686,1240.2515],[25.5001,-25.6907,1236.9973],[25.4885,-25.6888,1233.1427],[25.4853,-25.694,1231.1199],[25.48,-25.696,1228.8027],[25.4695,-25.6959,1225.839],[25.4549,-25.7102,1218.8212],[25.4516,-25.7102,1218.1541],[25.446,-25.7138,1216.3867],[25.4238,-25.7314,1207.4403],[25.4073,-25.7385,1202.2217],[25.387,-25.7442,1198.6089],[25.3782,-25.7503,1196.7092],[25.3717,-25.7525,1195.0507],[25.3668,-25.7579,1194.2064],[25.3516,-25.7617,1191.4756],[25.347,-25.7666,1189.8358],[25.3393,-25.7693,1189.0857],[25.3446,-25.7785,1203.2933],[25.3446,-25.7817,1204.5994],[25.3493,-25.7927,1212.1288],[25.329,-25.8321,1185.5],[25.2659,-25.8711,1232.2651],[25.3497,-25.9163,1253.1874],[25.3991,-25.9507,1222.9448],[25.4024,-25.9516,1223.9835],[25.402,-25.9537,1225.3696],[25.4061,-25.9547,1226.0398],[25.4081,-25.9636,1229.4025],[25.4156,-25.9686,1233.4324],[25.4153,-25.9712,1233.8555],[25.4214,-25.9753,1238.236],[25.4268,-25.9839,1240.2275],[25.4316,-25.9855,1243.4058],[25.4317,-25.9879,1242.7684],[25.4368,-25.9907,1244.6111],[25.4402,-25.9959,1247.0425],[25.4419,-25.9952,1248.1537],[25.4431,-25.9972,1248.7896],[25.4498,-25.9986,1252.6008],[25.449,-26.0002,1251.6425],[25.4521,-26.0025,1253.9314],[25.4518,-26.0052,1254.9072],[25.4536,-26.0064,1255.64],[25.4528,-26.0117,1259.7141],[25.4555,-26.0161,1260.2722],[25.457,-26.0155,1260.2722],[25.4577,-26.0185,1261.4042],[25.4597,-26.0186,1263.116],[25.4592,-26.0202,1262.2285],[25.4646,-26.0229,1263.9249],[25.4662,-26.0287,1266.6378],[25.4693,-26.0312,1267.8337],[25.4685,-26.0328,1268.4272],[25.472,-26.0347,1270.7996],[25.4718,-26.0407,1273.5999],[25.4731,-26.0427,1274.1644],[25.4824,-26.0416,1278.1698],[25.4851,-26.0481,1280.9199],[25.4884,-26.0488,1282.1388],[25.4926,-26.0547,1286.1097],[25.4923,-26.0571,1284.8929],[25.501,-26.0618,1290.9968],[25.458,-26.1034,1325.8347],[25.4303,-26.1591,1292.6763],[25.436,-26.1651,1295.9824],[25.4382,-26.1655,1294.1169],[25.4421,-26.1764,1302.9482],[25.4587,-26.1586,1304.3953],[25.4585,-26.1613,1304.7158],[25.4611,-26.1624,1304.5989],[25.4612,-26.1641,1305.2668],[25.4692,-26.1672,1306.7778],[25.4709,-26.1747,1311.7905],[25.4728,-26.1754,1309.3491],[25.4722,-26.1774,1310.2437],[25.4739,-26.1793,1318.1674],[25.4734,-26.1833,1318.1055],[25.476,-26.1838,1316.8655],[25.479,-26.1875,1317.5586],[25.4791,-26.1914,1322.4059],[25.4817,-26.1945,1320.4923],[25.4811,-26.2047,1329.4951],[25.4825,-26.2091,1328.2566],[25.4847,-26.21,1330.7407],[25.4847,-26.2156,1332.0879],[25.4866,-26.217,1332.8253],[25.4919,-26.215699999999998,1335.7222],[25.4959,-26.2186,1337.7457],[25.5039,-26.2123,1341.5388],[25.5102,-26.2144,1343.7394],[25.5006,-26.2217,1345.8455],[25.4773,-26.2275,1355.2573],[25.4695,-26.2317,1361.9977],[25.4591,-26.2346,1362.4469],[25.432,-26.2635,1337.6219],[25.4223,-26.2708,1337.4821],[25.5029,-26.3801,1384.8962],[25.5549,-26.3624,1366.677],[25.546,-26.3277,1369.5818],[25.5891,-26.3058,1352.2666],[25.6553,-26.2966,1367.582],[25.6693,-26.2848,1370.6707],[25.6893,-26.257,1376.6544]]]]}}