{"type":"Feature","properties":{"GID_3":"ZAF.4.4.2_1","GID_0":"ZAF","country":"SouthAfrica","GID_1":"ZAF.4_1","province":"KwaZulu-Natal","NL_NAME_1":"NA","GID_2":"ZAF.4.4_1","county":"Sisonke","NL_NAME_2":"NA","city":"Ingwe","VARNAME_3":"NA","NL_NAME_3":"NA","TYPE_3":"LocalMunicipality","ENGTYPE_3":"LocalMunicipality","CC_3":"KZN431","HASC_3":"NA","name":"Ingwe.city"},
"geometry":{"type": "MultiPolygon","coordinates": [[[[29.7903,-30.057,939.4454],[29.793,-30.0555,940.4895],[29.7951,-30.0563,938.4385],[29.7973,-30.0635,938.7498],[29.7999,-30.0646,942.7305],[29.8059,-30.0548,936.0678],[29.8087,-30.0543,939.6839],[29.8144,-30.0676,926.2026],[29.8205,-30.0712,936.2471],[29.825,-30.0708,924.7156],[29.8286,-30.0732,915.6348],[29.8306,-30.079,913.2783],[29.8334,-30.0816,911.6299],[29.8274,-30.088,904.4524],[29.8291,-30.0951,909.2172],[29.8378,-30.0985,906.2759],[29.8494,-30.094,908.4044],[29.8545,-30.096,883.2611],[29.8577,-30.0997,855.6721],[29.8575,-30.1047,848.6621],[29.8528,-30.1139,846.5642],[29.8524,-30.1176,847.6201],[29.8688,-30.1052,1021.7029],[29.9284,-30.1121,1237.9148],[29.9578,-30.0733,1366.3246],[29.9631,-30.0769,1368.7866],[29.9585,-30.0878,1254.8782],[29.9689,-30.0898,1305.1591],[29.9697,-30.0858,1327.0133],[29.9867,-30.0869,1286.3293],[29.9991,-30.0741,1293.7736],[30.0021,-30.0588,1145.4342],[30.0105,-30.0496,1033.2484],[30.0174,-30.0529,974.9349],[30.023,-30.0536,924.4019],[30.0335,-30.0518,888.4227],[30.0375,-30.0468,855.9922],[30.0428,-30.0558,843.3171],[30.0506,-30.0586,809.9033],[30.0672,-30.0555,777.7554],[30.0703,-30.0562,773.6588],[30.0781,-30.0536,753.7726],[30.0846,-30.0539,743.2725],[30.0909,-30.0565,729.8235],[30.0998,-30.0539,713.4313],[30.1023,-30.0492,708.9559],[30.0994,-30.0437,753.0837],[30.0989,-30.0332,1027.0037],[30.1057,-30.0368,1023.3868],[30.0965,-29.996,1060.9911],[30.1058,-29.9746,455.3538],[30.1028,-29.9717,477.545],[30.1056,-29.9687,462.673],[30.1102,-29.969,459.1326],[30.1134,-29.9669,490.3807],[30.1143,-29.9617,513.6685],[30.1107,-29.9571,478.0477],[30.1185,-29.9509,476.0298],[30.1191,-29.9489,474.134],[30.105,-29.9461,484.3462],[30.1061,-29.942,539.9756],[30.104,-29.9403,516.5873],[30.1008,-29.9422,492.7283],[30.0961,-29.9494,506.5262],[30.0926,-29.9497,507.3543],[30.0865,-29.9462,507.1633],[30.0871,-29.94,510.5315],[30.0911,-29.9352,512.3246],[30.084,-29.9281,534.9826],[30.0837,-29.9234,526.2318],[30.0923,-29.9169,537.6366],[30.0995,-29.9154,537.882],[30.1014,-29.9127,540.649],[30.092,-29.9049,549.127],[30.0886,-29.904,567.2795],[30.0831,-29.9064,595.1266],[30.0811,-29.9055,559.7039],[30.0781,-29.9079,632.5474],[30.0701,-29.9026,879.9442],[30.0679,-29.895,571.5997],[30.0632,-29.8983,591.5487],[30.0611,-29.8974,581.2991],[30.0607,-29.8902,602.6743],[30.0662,-29.8853,590.8977],[30.0636,-29.8725,600.4298],[30.068,-29.8649,603.2531],[30.0669,-29.8597,609.3671],[30.064,-29.8594,623.1478],[30.0616,-29.8664,646.6168],[30.0553,-29.8702,634.4645],[30.0371,-29.8671,645.4474],[30.0361,-29.8633,671.5466],[30.038,-29.8528,718.8389],[30.0362,-29.8474,704.179],[30.0394,-29.8459,792.1753],[30.049,-29.8351,1249.1146],[30.0454,-29.83,1370.219],[30.0466,-29.8193,1410.6161],[30.0534,-29.8048,1409.5283],[30.0609,-29.8038,1294.4058],[30.0785,-29.7801,1359.7458],[30.0706,-29.7655,1440.8241],[30.0884,-29.7601,1405.074],[30.0924,-29.7473,1444.4373],[30.1001,-29.7208,1455.147],[30.0888,-29.7064,1465.3342],[30.0865,-29.6951,1468.2233],[30.0694,-29.701,1407.9937],[30.0692,-29.724,1598.574],[30.0399,-29.7202,1415.6606],[30.0241,-29.7101,1351.9802],[30.0158,-29.729,1176.2914],[29.9761,-29.7179,1362.7633],[29.9469,-29.7035,1607.8977],[29.9366,-29.7167,1519.1746],[29.9123,-29.7028,1452.2405],[29.9059,-29.6874,1511.2932],[29.9032,-29.6717,1542.2896],[29.9157,-29.6524,1607.4507],[29.9119,-29.634,1719.4858],[29.883,-29.6259,1615.9335],[29.8711,-29.6383,1658.912],[29.8663,-29.6557,1581.1552],[29.8696,-29.6871,1393.8989],[29.8515,-29.6787,1471.4409],[29.8319,-29.673,1388.7426],[29.8042,-29.6593,1504.4812],[29.7833,-29.6674,1116.085],[29.7792,-29.6665,1101.127],[29.7785,-29.6653,1137.9551],[29.7836,-29.6607,1096.2047],[29.784,-29.6585,1092.1061],[29.7672,-29.6489,1110.1765],[29.7671,-29.6424,1129.2592],[29.7557,-29.6409,1114.255],[29.7533,-29.635,1120.1211],[29.7517,-29.637,1122.8223],[29.7441,-29.6355,1144.701],[29.7398,-29.6445,1181.2001],[29.7397,-29.6502,1216.3416],[29.7417,-29.6536,1260.391],[29.7301,-29.6583,1322.9697],[29.7354,-29.6632,1265.9613],[29.7357,-29.6694,1455.4297],[29.7272,-29.6776,1507.4653],[29.6872,-29.6756,1580.6082],[29.6721,-29.685,1648.1282],[29.6709,-29.6958,1869.2021],[29.6625,-29.7019,1893.5413],[29.6399,-29.7078,1873.0719],[29.6465,-29.7129,1932.444],[29.6385,-29.7349,1914.0399],[29.6514,-29.7384,1962.0795],[29.6432,-29.7454,1829.3337],[29.6754,-29.7565,1899.5175],[29.6737,-29.7649,1833.6349],[29.6521,-29.7685,1589.4506],[29.6408,-29.7879,1516.9264],[29.6586,-29.7961,1511.7026],[29.6364,-29.8073,1462.7607],[29.6602,-29.8149,1456.1118],[29.6585,-29.8183,1451.8351],[29.6492,-29.8227,1427.5906],[29.6483,-29.825,1416.9686],[29.6506,-29.8263,1420.5112],[29.6479,-29.8305,1413.98],[29.65,-29.8332,1427.4255],[29.6446,-29.8358,1438.9507],[29.6511,-29.838,1434.4495],[29.6503,-29.843,1413.1533],[29.6527,-29.8436,1404.1558],[29.6514,-29.8476,1404.689],[29.6559,-29.8474,1398.5471],[29.6576,-29.8497,1413.625],[29.6542,-29.8497,1383.3245],[29.6513,-29.8545,1376.646],[29.645,-29.8573,1359.4354],[29.6454,-29.8646,1351.5909],[29.6488,-29.8656,1334.0779],[29.6469,-29.868,1356.1351],[29.6531,-29.8697,1296.8885],[29.6519,-29.8712,1296.8885],[29.6541,-29.8764,1277.5945],[29.6534,-29.8797,1270.7256],[29.6552,-29.8817,1267.698],[29.6388,-29.8832,1632.8124],[29.6322,-29.8777,1590.3647],[29.6309,-29.8937,1684.1096],[29.6358,-29.8991,1708.9442],[29.5629,-29.9432,1647.6453],[29.4795,-29.9645,1467.8386],[29.4801,-29.9672,1465.4913],[29.4852,-29.9699,1464.3167],[29.4829,-29.9723,1463.3132],[29.4795,-29.9727,1486.7402],[29.4801,-29.9773,1484.4384],[29.4827,-29.9792,1461.6154],[29.4899,-29.9776,1461.1292],[29.4934,-29.9783,1466.6512],[29.4899,-29.9811,1460.1714],[29.4861,-29.9809,1464.2393],[29.4858,-29.9845,1464.3755],[29.4931,-29.9836,1468.9612],[29.4947,-29.9879,1476.5847],[29.4931,-29.9898,1458.8385],[29.4949,-29.9906,1457.8976],[29.5059,-29.9889,1459.7732],[29.5111,-29.9946,1451.4828],[29.5091,-30.0031,1459.2178],[29.5142,-30.0019,1452.7346],[29.516,-30.0045,1465.6967],[29.5133,-30.0069,1449.5371],[29.5206,-30.0084,1438.6932],[29.5194,-30.0102,1440.4468],[29.5203,-30.0114,1444.3921],[29.5344,-30.0203,1402.9254],[29.5366,-30.0196,1431.3252],[29.5366,-30.0168,1403.5332],[29.5348,-30.0144,1420.7006],[29.5305,-30.0132,1385.7328],[29.5287,-30.0095,1366.5176],[29.5326,-30.0037,1358.2466],[29.5335,-30.0063,1358.8838],[29.5398,-30.007,1347.6926],[29.5423,-30.0098,1354.3372],[29.5479,-30.0088,1339.9227],[29.5517,-30.0112,1359.1238],[29.5506,-30.0198,1322.9196],[29.5534,-30.0222,1322.4353],[29.5562,-30.0213,1319.2876],[29.5553,-30.0139,1315.4186],[29.5592,-30.0105,1310.7974],[29.5611,-30.011,1353.3361],[29.5624,-30.0127,1314.7355],[29.5618,-30.017,1304.4181],[29.5683,-30.0189,1304.2736],[29.5722,-30.0251,1298.0745],[29.5801,-30.027,1281.1632],[29.5799,-30.0289,1288.5654],[29.5764,-30.0301,1307.6875],[29.5793,-30.0358,1256.3433],[29.5839,-30.0337,1256.4824],[29.5916,-30.0332,1232.876],[29.5906,-30.0372,1224.6643],[29.5935,-30.0396,1208.2491],[29.594,-30.0435,1215.0988],[29.5981,-30.0433,1216.6774],[29.6,-30.0397,1195.7817],[29.6015,-30.0406,1195.7817],[29.61,-30.0383,1187.5814],[29.6112,-30.043,1191.7394],[29.6131,-30.0429,1180.5491],[29.6144,-30.0407,1186.256],[29.6176,-30.0426,1177.9614],[29.6185,-30.0418,1177.2058],[29.6161,-30.0394,1177.9254],[29.6177,-30.0375,1191.3943],[29.6242,-30.039,1173.0781],[29.6263,-30.0373,1176.8472],[29.6284,-30.0395,1173.2874],[29.6321,-30.0339,1166.8541],[29.6366,-30.0352,1138.1735],[29.6403,-30.0407,1109.475],[29.6469,-30.0455,1110.839],[29.6537,-30.0479,1095.5431],[29.6555,-30.0541,1063.4984],[29.6545,-30.0559,1065.1493],[29.6611,-30.062,1052.23],[29.6606,-30.0651,1052.5222],[29.666,-30.0636,1052.8105],[29.6678,-30.0647,1049.3303],[29.6673,-30.0664,1046.0602],[29.6755,-30.0682,1043.0073],[29.6748,-30.0709,1047.2913],[29.6705,-30.0715,1040.3403],[29.6743,-30.0751,1047.8834],[29.6706,-30.0765,1033.5],[29.675,-30.0801,1030.571],[29.678,-30.0793,1041.4902],[29.6834,-30.0817,1030.0137],[29.6873,-30.0813,1027.8707],[29.6906,-30.0836,1028.2141],[29.692,-30.0828,1032.532],[29.6916,-30.0796,1030.8152],[29.6976,-30.0758,1033.0624],[29.7019,-30.0787,1022.9302],[29.7059,-30.0785,1021.3399],[29.7162,-30.0848,1023.0781],[29.7203,-30.0832,1023.3499],[29.7216,-30.0799,1017.3193],[29.7237,-30.0791,1022.3677],[29.7248,-30.0828,1017.6995],[29.7308,-30.0863,1034.7766],[29.731,-30.0833,1020.2689],[29.7345,-30.0784,1015.0026],[29.7341,-30.0717,1012.4471],[29.7363,-30.0709,1038.9481],[29.739,-30.0726,1018.8685],[29.7462,-30.0698,1014.5643],[29.7492,-30.063,994.8829],[29.7519,-30.0672,1004.5246],[29.7486,-30.0738,993.38],[29.7529,-30.0769,993.3155],[29.757,-30.0752,988.3981],[29.7611,-30.071,1012.9154],[29.7686,-30.0696,991.8745],[29.769,-30.0646,962.9262],[29.7713,-30.0616,954.3091],[29.7774,-30.0626,949.0594],[29.7879,-30.0611,943.521],[29.7903,-30.057,939.4454]]]]}}