{"type":"Feature","properties":{"GID_3":"ZAF.4.6.7_1","GID_0":"ZAF","country":"SouthAfrica","GID_1":"ZAF.4_1","province":"KwaZulu-Natal","NL_NAME_1":"NA","GID_2":"ZAF.4.6_1","county":"Umgungundlovu","NL_NAME_2":"NA","city":"uMshwathi","VARNAME_3":"NA","NL_NAME_3":"NA","TYPE_3":"LocalMunicipality","ENGTYPE_3":"LocalMunicipality","CC_3":"KZN221","HASC_3":"NA","name":"u_Mshwathi.city"},
"geometry":{"type": "MultiPolygon","coordinates": [[[[30.6735,-29.6066,599.2747],[30.6741,-29.6047,544.2634],[30.684,-29.6004,604.7205],[30.6921,-29.6029,529.1705],[30.7142,-29.6051,508.7562],[30.7172,-29.607,409.398],[30.7242,-29.6068,314.4418],[30.7286,-29.6042,241.6191],[30.7288,-29.6021,222.7458],[30.7247,-29.6002,290.2211],[30.7288,-29.5969,232.7696],[30.7247,-29.5884,268.0077],[30.7262,-29.5848,251.8737],[30.7237,-29.5807,267.0382],[30.7251,-29.5787,278.1647],[30.7245,-29.5735,299.5156],[30.7272,-29.5709,303.0031],[30.7243,-29.5692,348.372],[30.7187,-29.5712,467.5577],[30.709,-29.5715,636.6032],[30.7081,-29.5694,653.4733],[30.7048,-29.5685,661.3179],[30.7025,-29.5611,671.6586],[30.7066,-29.5566,718.5436],[30.7037,-29.55,788.0522],[30.704,-29.5455,839.5811],[30.706,-29.5354,869.6594],[30.7097,-29.5272,741.8818],[30.7178,-29.5278,753.3784],[30.7187,-29.5301,652.5073],[30.7226,-29.5277,750.5316],[30.7219,-29.5258,796.8094],[30.7242,-29.5229,848.089],[30.7225,-29.511,824.4125],[30.7244,-29.5023,882.8644],[30.7276,-29.4987,873.0371],[30.7314,-29.4984,784.8574],[30.7345,-29.4956,891.9692],[30.7373,-29.4856,881.9601],[30.7427,-29.4804,631.5217],[30.7441,-29.4709,700.3146],[30.7477,-29.4673,784.2434],[30.7486,-29.464,813.2172],[30.7481,-29.4534,837.7744],[30.7681,-29.455,1059.2354],[30.7662,-29.488,973.5795],[30.7903,-29.4763,968.3113],[30.7936,-29.4496,975.6686],[30.8501,-29.4037,1011.9644],[30.8884,-29.4156,736.9471],[30.8908,-29.4127,730.0458],[30.8903,-29.4088,716.5725],[30.8969,-29.4076,699.4506],[30.8977,-29.4049,697.6385],[30.9037,-29.3994,671.1619],[30.9093,-29.3966,662.3648],[30.9153,-29.39,640.3662],[30.9167,-29.386,628.1558],[30.9195,-29.3847,668.2161],[30.9172,-29.3829,669.1924],[30.9056,-29.383,768.7767],[30.8953,-29.3762,824.5422],[30.889,-29.3764,866.87],[30.8837,-29.3732,916.0159],[30.8804,-29.3684,923.5106],[30.8804,-29.3648,922.1042],[30.8824,-29.3605,922.5771],[30.8817,-29.3504,963.1599],[30.8846,-29.3458,958.2249],[30.8791,-29.3398,745.299],[30.8757,-29.3384,706.7386],[30.8724,-29.3321,623.014],[30.8683,-29.3297,599.7012],[30.867,-29.3272,588.4611],[30.8606,-29.3259,616.7389],[30.8605,-29.3293,585.0229],[30.859,-29.3299,633.4445],[30.8573,-29.3234,649.6208],[30.8546,-29.3221,616.8214],[30.855,-29.3136,547.5375],[30.8589,-29.3117,543.1712],[30.8561,-29.3092,605.5793],[30.8603,-29.3067,558.3132],[30.8575,-29.3024,513.411],[30.865,-29.3007,521.5886],[30.8654,-29.298,501.519],[30.8634,-29.2952,495.5328],[30.8684,-29.2943,519.2162],[30.8692,-29.2928,495.767],[30.8677,-29.2897,481.4229],[30.8718,-29.2893,473.0063],[30.872,-29.2868,478.4429],[30.8684,-29.2856,467.3311],[30.8682,-29.284,462.6935],[30.87,-29.283,460.6691],[30.8793,-29.2841,449.6878],[30.8772,-29.2748,438.5365],[30.8844,-29.2747,452.6302],[30.8799,-29.2633,406.77],[30.8815,-29.2594,396.0034],[30.8941,-29.2525,395.2727],[30.8962,-29.2489,404.5712],[30.8958,-29.2441,379.5274],[30.8986,-29.2404,374.7862],[30.8923,-29.2399,446.3383],[30.8877,-29.2367,738.3349],[30.8876,-29.2382,703.0348],[30.8857,-29.2402,633.6382],[30.8873,-29.238,703.0348],[30.8849,-29.2368,694.4815],[30.8854,-29.234,740.6147],[30.8833,-29.2341,621.1215],[30.8818,-29.2313,645.0682],[30.8836,-29.2242,590.9529],[30.8859,-29.2221,759.4421],[30.8856,-29.2185,702.6846],[30.8638,-29.2212,676.3176],[30.8613,-29.2236,743.1243],[30.8616,-29.2266,709.9172],[30.8536,-29.2351,435.9162],[30.8555,-29.2422,681.9575],[30.8524,-29.2448,729.4437],[30.8418,-29.2463,792.1459],[30.8395,-29.2511,696.4487],[30.8402,-29.2529,722.929],[30.8351,-29.2538,794.8044],[30.8367,-29.2605,912.7184],[30.8429,-29.2717,864.4968],[30.8454,-29.2826,757.5263],[30.839,-29.2902,764.4061],[30.8278,-29.2651,717.1241],[30.8072,-29.2558,900.5663],[30.7988,-29.25,862.558],[30.7983,-29.247,877.4079],[30.8074,-29.2318,826.436],[30.8058,-29.2301,842.1936],[30.8073,-29.2285,821.8534],[30.8039,-29.2253,694.4803],[30.8061,-29.2223,713.2151],[30.7972,-29.2174,645.2711],[30.7937,-29.2086,569.1923],[30.7986,-29.2073,563.3436],[30.8012,-29.2026,562.8462],[30.7941,-29.2036,558.8541],[30.7905,-29.2009,579.801],[30.7876,-29.2012,572.8068],[30.788,-29.2083,632.386],[30.7824,-29.2101,794.6465],[30.7756,-29.2046,844.884],[30.7722,-29.2042,828.6161],[30.7658,-29.1954,907.0575],[30.7712,-29.1895,908.3076],[30.7661,-29.1834,1023.6854],[30.7693,-29.1793,1080.3101],[30.7691,-29.1763,1098.8756],[30.763,-29.1784,951.8244],[30.7588,-29.1868,849.296],[30.7554,-29.1897,795.8671],[30.7562,-29.1937,742.4636],[30.7514,-29.2024,681.7456],[30.7509,-29.207,646.7181],[30.7453,-29.2074,661.0031],[30.7381,-29.2115,671.2503],[30.7335,-29.211,657.4911],[30.7329,-29.2221,674.1955],[30.7231,-29.2185,690.1339],[30.7149,-29.2088,1029.2546],[30.6603,-29.2242,1069.6995],[30.6415,-29.2467,1038.9893],[30.6329,-29.2401,1051.0797],[30.6003,-29.2479,1068.4697],[30.5788,-29.2581,1074.9852],[30.5658,-29.2493,1095.0228],[30.556,-29.2554,1092.3311],[30.5548,-29.2501,1108.181],[30.5228,-29.22,1084.1531],[30.5106,-29.2208,1152.9269],[30.5042,-29.23,1207.0803],[30.4797,-29.2327,1369.4678],[30.4794,-29.2317,1369.4678],[30.4554,-29.2407,1451.9705],[30.4188,-29.2627,1331.97],[30.42,-29.2176,1174.2087],[30.398,-29.2193,1333.7549],[30.3978,-29.2117,1197.2463],[30.4,-29.2095,1181.7787],[30.3975,-29.2058,1245.8599],[30.3845,-29.2022,1336.4551],[30.376,-29.1862,1431.3082],[30.3486,-29.1929,1510.6895],[30.3486,-29.1699,1535.4373],[30.3359,-29.1639,1522.3301],[30.3223,-29.1853,1424.5651],[30.3216,-29.196,1388.2456],[30.3174,-29.1981,1360.1833],[30.3157,-29.1969,1356.2299],[30.315,-29.2065,1400.7698],[30.3115,-29.2094,1437.8635],[30.314,-29.2193,1422.3269],[30.3276,-29.2139,1489.5247],[30.3345,-29.2355,1541.6962],[30.3063,-29.24,1553.4088],[30.3026,-29.2649,1536.4226],[30.2867,-29.3045,1669.8782],[30.2763,-29.3092,1656.0723],[30.2973,-29.336,1119.7019],[30.3145,-29.3173,1106.6024],[30.3272,-29.3376,1185.3995],[30.3217,-29.3567,1157.1479],[30.3266,-29.3757,1216.7565],[30.3126,-29.3979,1205.2113],[30.3061,-29.4022,1175.8723],[30.3195,-29.4165,1056.2106],[30.3195,-29.4435,692.1787],[30.3208,-29.4455,688.3403],[30.3257,-29.4446,684.2382],[30.3323,-29.4397,678.2928],[30.3321,-29.4451,683.556],[30.3342,-29.4459,673.796],[30.3375,-29.4458,671.7557],[30.3417,-29.4412,670.5389],[30.3465,-29.4473,661.5847],[30.3489,-29.4442,661.0751],[30.3515,-29.4444,660.1837],[30.3521,-29.4431,660.1837],[30.357,-29.4443,660.5604],[30.3572,-29.4419,662.0564],[30.3596,-29.4422,671.5864],[30.3612,-29.4452,666.4539],[30.3693,-29.4456,656.5729],[30.3733,-29.4436,660.813],[30.3768,-29.4393,677.165],[30.3817,-29.4418,654.0],[30.3913,-29.437,654.0],[30.3967,-29.4379,654.0],[30.3944,-29.4567,654.0],[30.3959,-29.4624,654.0],[30.395,-29.4727,701.7999],[30.4,-29.4714,701.5923],[30.4069,-29.4742,724.4512],[30.4005,-29.4778,726.1475],[30.3974,-29.483,736.7778],[30.3856,-29.4944,731.9192],[30.3824,-29.5018,765.5323],[30.3787,-29.4983,790.6984],[30.3606,-29.5153,1104.6423],[30.3636,-29.5227,1101.6077],[30.3647,-29.5429,1102.8708],[30.3801,-29.5519,804.9519],[30.3805,-29.5495,835.7789],[30.3849,-29.5455,812.7588],[30.3826,-29.5413,880.5396],[30.3917,-29.5365,954.7949],[30.4092,-29.5395,874.4107],[30.4091,-29.5377,866.7147],[30.4118,-29.5374,852.1079],[30.4142,-29.5261,773.5251],[30.4194,-29.5174,758.0134],[30.4324,-29.5228,852.9348],[30.4317,-29.5434,914.6766],[30.4406,-29.5432,896.0994],[30.445,-29.5504,890.4371],[30.4458,-29.557,917.3315],[30.4483,-29.5592,930.9166],[30.4441,-29.5637,845.4829],[30.4445,-29.5657,834.9175],[30.4506,-29.5637,853.6099],[30.4522,-29.5665,836.8875],[30.451,-29.5689,860.9808],[30.4541,-29.5702,851.0429],[30.4569,-29.5755,827.4254],[30.4545,-29.5744,830.5623],[30.4522,-29.5762,831.8423],[30.4592,-29.5798,800.6758],[30.4583,-29.5871,699.3605],[30.4702,-29.5846,677.2208],[30.4838,-29.5876,737.4928],[30.4811,-29.5954,675.9003],[30.4849,-29.5988,510.1703],[30.4885,-29.598,511.876],[30.5046,-29.6038,500.9854],[30.5098,-29.6037,510.0609],[30.5124,-29.6003,495.542],[30.5157,-29.5989,530.8516],[30.5198,-29.6052,503.5042],[30.5212,-29.6128,483.5337],[30.5283,-29.6125,468.5679],[30.5358,-29.6174,448.8878],[30.54,-29.6183,454.9014],[30.5307,-29.5825,724.5379],[30.5127,-29.5833,624.8096],[30.5128,-29.5679,730.595],[30.5278,-29.562,681.3776],[30.5331,-29.5615,668.806],[30.5358,-29.5574,673.1228],[30.5372,-29.5604,500.3288],[30.535,-29.5645,493.6546],[30.5365,-29.5682,487.7927],[30.539,-29.5702,490.6991],[30.5423,-29.5702,514.4109],[30.5445,-29.5685,521.2466],[30.5486,-29.5597,484.2123],[30.5558,-29.5533,477.1289],[30.5724,-29.5467,467.8304],[30.5781,-29.5486,485.083],[30.5793,-29.5559,469.7666],[30.5824,-29.5598,502.6249],[30.5857,-29.5595,465.7801],[30.5912,-29.5514,616.3007],[30.6181,-29.55,487.2065],[30.6246,-29.5528,485.7719],[30.6268,-29.564,626.8058],[30.6156,-29.5726,568.0395],[30.6456,-29.585,585.9604],[30.6477,-29.5927,458.8601],[30.6463,-29.5973,419.7543],[30.6427,-29.6017,492.1619],[30.6357,-29.6017,343.0509],[30.6389,-29.6095,353.9963],[30.6439,-29.6156,331.2529],[30.6429,-29.6238,320.4401],[30.6517,-29.6217,311.7693],[30.6551,-29.6253,315.3066],[30.6631,-29.6219,291.8861],[30.6738,-29.6199,283.2034],[30.6754,-29.6103,500.5135],[30.6735,-29.6066,599.2747]]]]}}