{"type": "Feature","bbox": [28.8916,-25.4228,30.759,-24.2042],"geometry": {"type": "MultiPolygon","coordinates": [[[[29.1745,-25.3183,1068.8785],[29.1641,-25.3545,1168.265],[29.142,-25.3858,1409.7351],[29.1313,-25.3902,1408.6228],[29.1957,-25.3703,1391.7755],[29.2073,-25.4146,1425.1552],[29.2375,-25.4023,1348.2861],[29.243,-25.4036,1357.811],[29.2531,-25.3835,1316.7013],[29.2644,-25.3755,1288.5026],[29.3214,-25.3799,1015.9812],[29.3421,-25.3731,977.5097],[29.35,-25.4046,1011.3369],[29.399,-25.4148,1276.7278],[29.453,-25.4065,1295.6638],[29.5188,-25.4228,1235.939],[29.5226,-25.405,1279.4856],[29.587,-25.3952,1422.7622],[29.6128,-25.4006,1482.6124],[29.6739,-25.3722,1640.7322],[29.7276,-25.3842,1731.0808],[29.7702,-25.4015,1784.0336],[29.7932,-25.3621,1480.6885],[29.8171,-25.362,1434.2218],[29.8201,-25.3607,1426.0204],[29.8203,-25.3589,1431.0981],[29.8229,-25.3623,1427.1697],[29.8258,-25.3621,1430.323],[29.8273,-25.365,1431.0071],[29.832,-25.3655,1431.3171],[29.8327,-25.37,1435.1334],[29.8372,-25.3768,1436.2859],[29.8373,-25.3818,1439.2964],[29.8403,-25.3863,1446.9564],[29.8878,-25.3643,1497.7518],[29.8879,-25.3386,1474.3289],[29.9376,-25.331,1774.454],[30.0062,-25.3403,1842.3058],[30.0007,-25.2795,1806.0634],[30.0129,-25.231,1845.4772],[30.0098,-25.2313,1867.6292],[30.0054,-25.1444,1894.5951],[29.979,-25.0921,1698.2791],[30.0298,-25.0846,1952.0972],[30.0299,-25.0641,1887.5096],[30.0902,-25.1081,2091.6641],[30.0909,-25.1255,2030.3224],[30.1211,-25.1209,1170.5193],[30.1444,-25.1238,1549.7026],[30.1444,-25.0912,1560.8577],[30.1486,-25.09,1666.2716],[30.1485,-25.0324,1301.1158],[30.1593,-25.028,1415.2583],[30.1987,-25.0364,1838.2549],[30.1972,-25.0309,1817.0413],[30.1792,-24.9991,1474.1637],[30.1795,-24.9896,1377.8092],[30.1721,-24.9892,1381.6886],[30.1717,-24.9698,1305.5529],[30.1785,-24.9221,1350.5686],[30.192,-24.8555,1599.1931],[30.2973,-24.8677,1426.7808],[30.3068,-24.8815,994.5568],[30.3063,-24.8843,985.9506],[30.308,-24.885,966.892],[30.3088,-24.8827,972.3098],[30.3117,-24.8838,960.1416],[30.3124,-24.8825,960.2652],[30.31,-24.8806,954.822],[30.3086,-24.8754,955.334],[30.3109,-24.8729,947.2689],[30.3529,-24.8834,1649.874],[30.3542,-24.8493,1352.9545],[30.3965,-24.8712,909.4311],[30.3986,-24.8683,921.0901],[30.396,-24.861,947.9929],[30.3916,-24.8623,892.7285],[30.3897,-24.8603,927.925],[30.3908,-24.8521,882.0217],[30.3897,-24.8495,878.6819],[30.4251,-24.8549,1281.8212],[30.438,-24.8643,1379.3173],[30.4515,-24.912,1425.9489],[30.4942,-24.9533,1515.2627],[30.4963,-24.9147,1519.0037],[30.5629,-24.8965,1487.5796],[30.5812,-24.9169,1720.1592],[30.58,-24.8874,1236.4258],[30.6084,-24.8724,1723.8284],[30.6187,-24.8442,1417.776],[30.6349,-24.8528,1589.667],[30.6562,-24.8117,1636.6355],[30.6642,-24.7746,1593.1965],[30.6337,-24.7585,1373.2845],[30.6366,-24.7341,1366.4037],[30.6786,-24.7358,1758.0704],[30.6855,-24.7324,1808.7985],[30.7201,-24.7052,1532.6078],[30.7097,-24.6674,1567.5801],[30.6792,-24.6237,1378.0264],[30.7015,-24.5864,1501.1938],[30.7303,-24.6087,1291.3612],[30.7323,-24.5481,892.2186],[30.7302,-24.4985,1357.801],[30.759,-24.4602,1776.6821],[30.7286,-24.4531,1720.425],[30.7037,-24.4506,1509.157],[30.6418,-24.4509,1164.7019],[30.6183,-24.433,490.2179],[30.6188,-24.4378,490.1452],[30.6139,-24.4419,497.5314],[30.5973,-24.4432,507.3499],[30.5838,-24.4375,509.4296],[30.5716,-24.4453,508.6751],[30.5658,-24.4472,510.5759],[30.5625,-24.4371,519.0131],[30.5557,-24.4245,526.5919],[30.5532,-24.427,522.429],[30.5512,-24.4391,545.1465],[30.5408,-24.445,540.688],[30.5335,-24.4397,907.3198],[30.5182,-24.4056,1657.0574],[30.4953,-24.3965,1732.2377],[30.4703,-24.3717,1857.2141],[30.4367,-24.3535,1844.5112],[30.4092,-24.3336,1761.1431],[30.3662,-24.2831,1826.887],[30.325,-24.3107,1257.9539],[30.2914,-24.3173,635.6222],[30.2776,-24.318,625.421],[30.2743,-24.3205,635.9424],[30.2662,-24.3095,631.7613],[30.2558,-24.3051,655.0439],[30.2525,-24.2996,658.1071],[30.2477,-24.298,640.7456],[30.2408,-24.2908,642.1504],[30.2417,-24.2867,636.9532],[30.2387,-24.2835,636.2605],[30.2224,-24.2844,644.2012],[30.21,-24.2885,641.3912],[30.2003,-24.288,640.0687],[30.183,-24.2999,644.9413],[30.1809,-24.304,642.9254],[30.1789,-24.3046,649.0554],[30.1721,-24.2999,646.9521],[30.1634,-24.2996,664.3771],[30.1527,-24.2939,648.8126],[30.1483,-24.2933,653.6347],[30.1436,-24.2887,651.6921],[30.1483,-24.2774,663.838],[30.1479,-24.2726,686.3718],[30.144,-24.2648,666.3588],[30.1472,-24.2575,670.4128],[30.1405,-24.2479,669.0361],[30.1043,-24.2447,703.379],[30.0958,-24.2394,718.4995],[30.0854,-24.2409,668.792],[30.0785,-24.2371,670.7605],[30.0707,-24.2389,669.2267],[30.0529,-24.2235,675.482],[30.0491,-24.2176,676.2634],[30.0475,-24.2115,693.7394],[30.0389,-24.2061,681.7464],[30.0309,-24.2068,699.7906],[30.0238,-24.2046,725.0703],[30.0102,-24.2042,695.0596],[29.9966,-24.2105,693.9656],[29.9913,-24.2075,703.0967],[29.9823,-24.2091,700.403],[29.9793,-24.2123,700.8593],[29.9776,-24.2239,697.782],[29.9744,-24.2255,696.712],[29.9608,-24.2191,702.6257],[29.9533,-24.2175,701.7454],[29.9479,-24.2188,703.3961],[29.9423,-24.2236,702.584],[29.938,-24.2251,705.8955],[29.9059,-24.2236,715.0616],[29.8973,-24.2215,713.5625],[29.8856,-24.225,716.859],[29.8811,-24.2221,713.1808],[29.8772,-24.2217,712.9647],[29.8732,-24.2242,721.5235],[29.8762,-24.233,717.5601],[29.8757,-24.2457,779.5939],[29.874,-24.2479,717.4147],[29.8479,-24.2542,720.1885],[29.8206,-24.2533,722.3933],[29.8166,-24.2486,723.6646],[29.8111,-24.2498,724.136],[29.806,-24.2532,729.0334],[29.8054,-24.2613,729.683],[29.8,-24.2683,727.8253],[29.7906,-24.2674,727.7967],[29.7798,-24.2715,731.2462],[29.7683,-24.2731,728.1388],[29.7634,-24.2768,730.1197],[29.7599,-24.2821,740.2191],[29.76,-24.2904,735.0533],[29.755,-24.295,733.2162],[29.7537,-24.3011,735.0222],[29.7567,-24.31,733.3513],[29.7561,-24.3145,735.3748],[29.7586,-24.3246,736.1114],[29.7556,-24.3268,735.2524],[29.7457,-24.3279,742.4962],[29.7449,-24.33,737.3094],[29.7513,-24.3402,739.8621],[29.7517,-24.348,743.9398],[29.7542,-24.3495,739.2113],[29.7642,-24.3493,743.5366],[29.7679,-24.3532,742.7828],[29.7375,-24.3857,746.7022],[29.7373,-24.392,743.777],[29.7409,-24.4018,745.0114],[29.737,-24.4159,745.0936],[29.7379,-24.4233,749.1526],[29.7354,-24.427,746.6531],[29.7287,-24.4257,749.3153],[29.7259,-24.43,748.8141],[29.7269,-24.4398,751.3221],[29.7296,-24.4445,750.4462],[29.7212,-24.4495,752.4993],[29.7216,-24.4562,750.7893],[29.719,-24.4593,750.9247],[29.7057,-24.4618,753.4362],[29.6952,-24.4678,753.8887],[29.6895,-24.4692,755.1893],[29.6826,-24.4672,754.255],[29.6752,-24.4627,755.4064],[29.6676,-24.4623,758.496],[29.6636,-24.4665,756.6249],[29.6565,-24.4705,757.5759],[29.6515,-24.4794,757.1843],[29.6478,-24.4824,758.5224],[29.6432,-24.4767,757.6566],[29.6394,-24.4745,760.3091],[29.6344,-24.4764,759.97],[29.6293,-24.4755,763.4104],[29.6233,-24.477,761.7155],[29.6207,-24.4748,763.6185],[29.6204,-24.465699999999998,761.7847],[29.6181,-24.4611,762.2589],[29.6133,-24.4595,763.6501],[29.6076,-24.4617,762.9722],[29.5968,-24.4686,763.7273],[29.5895,-24.4762,764.0045],[29.5849,-24.4871,766.7418],[29.5815,-24.4887,766.1481],[29.5774,-24.4942,767.0253],[29.5715,-24.4967,768.0624],[29.5628,-24.5041,768.8019],[29.5685,-24.5161,769.6678],[29.5649,-24.5232,770.1991],[29.5625,-24.5246,770.7679],[29.5573,-24.5233,770.7831],[29.5455,-24.5284,770.0841],[29.545,-24.5309,770.9078],[29.5495,-24.536,771.8708],[29.5526,-24.5441,773.6933],[29.5502,-24.5521,773.9984],[29.544,-24.5539,773.3605],[29.5389,-24.5602,774.0151],[29.5323,-24.5617,773.5468],[29.526,-24.5688,775.8572],[29.5239,-24.5743,775.9415],[29.5179,-24.5759,775.1386],[29.4964,-24.5913,777.2581],[29.4914,-24.6036,778.1168],[29.4803,-24.6059,778.7097],[29.4798,-24.6103,779.9315],[29.4764,-24.6163,780.5125],[29.469,-24.6216,778.518],[29.4681,-24.6241,778.0056],[29.4725,-24.6325,782.9882],[29.4708,-24.6406,780.4987],[29.4498,-24.6304,810.3922],[29.434,-24.5987,821.5264],[29.4005,-24.6085,835.0063],[29.3749,-24.6174,845.4281],[29.3941,-24.6584,874.8472],[29.3699,-24.6634,858.6968],[29.3043,-24.6916,868.41],[29.2474,-24.7136,889.2766],[29.272,-24.7426,934.8972],[29.2707,-24.7785,975.3054],[29.2756,-24.7914,999.101],[29.2644,-24.8122,990.6979],[29.2298,-24.8127,937.7599],[29.2163,-24.8522,949.8863],[29.2039,-24.8957,929.6324],[29.1758,-24.9054,902.1364],[29.1789,-24.9141,896.7073],[29.1831,-24.9399,890.8103],[29.1737,-24.9493,896.5772],[29.1586,-24.9527,912.8586],[29.0829,-24.9812,935.328],[29.0718,-24.9406,992.7421],[29.0559,-24.9123,953.6993],[28.9937,-24.912,967.8374],[28.9894,-24.903199999999998,968.5723],[28.9618,-24.9139,987.1351],[28.9384,-24.8732,994.96],[28.9142,-24.8891,1013.1633],[28.9241,-24.9015,1020.8388],[28.937,-24.9228,1014.7595],[28.9418,-24.9336,1010.3162],[28.8916,-24.9555,1046.8612],[28.9094,-24.9955,993.0339],[28.9053,-24.996,992.6898],[28.9103,-25.0071,990.4467],[28.9349,-25.0,1009.9091],[28.9462,-25.017,1006.7723],[28.9717,-25.0702,962.8127],[28.9754,-25.0687,958.0379],[28.9764,-25.0708,958.0494],[29.0188,-25.0549,978.7997],[29.0707,-25.0655,948.611],[29.0857,-25.0888,886.5391],[29.0903,-25.0918,901.7196],[29.0849,-25.0977,903.6767],[29.0883,-25.1036,910.1466],[29.0912,-25.1002,912.1144],[29.0942,-25.1032,915.7372],[29.0979,-25.1003,914.616],[29.1016,-25.1027,917.8971],[29.1058,-25.1004,919.0217],[29.1284,-25.113,948.3602],[29.0869,-25.1365,962.6976],[29.0898,-25.1485,975.8448],[29.0425,-25.1405,961.8878],[29.0449,-25.2022,1041.6168],[29.0318,-25.2509,1164.5105],[29.0414,-25.261,1175.1208],[29.0349,-25.2646,1231.0018],[29.0384,-25.2765,1298.7957],[29.0503,-25.2802,1202.457],[29.0565,-25.2793,1162.6426],[29.0728,-25.2869,1030.5115],[29.0761,-25.2846,1027.4524],[29.0827,-25.2871,1023.6481],[29.0844,-25.2929,1052.1995],[29.0902,-25.2894,1030.1276],[29.0959,-25.3212,1158.5276],[29.1184,-25.3132,1072.1863],[29.167,-25.3034,1047.974],[29.1745,-25.3183,1068.8785]]]]}
,"properties": {"GID_2": "ZAF.5.3_1","GID_0": "ZAF","country": "SouthAfrica","GID_1": "ZAF.5_1","province": "Limpopo","NL_NAME_1": "NA","county": "Sekhukhune","VARNAME_2": "NA","NL_NAME_2": "NA","TYPE_2": "DistrictMunicipality","ENGTYPE_2": "DistrictMunicipality","CC_2": "DC47","HASC_2": "ZA.MP.SK","name": "Sekhukhune.county","area_km2": 13556.91,"hist_schema_id": "Elevation0-9000","hist_area_km2": {"500": 0.85,"525": 1.72,"550": 3.45,"575": 9.21,"600": 14.38,"625": 26.18,"650": 37.85,"675": 64.89,"700": 79.77,"725": 108.95,"750": 175.4,"775": 246.35,"800": 339.08,"825": 432.62,"850": 509.83,"875": 602.73,"900": 639.22,"925": 643.73,"950": 663.0,"975": 666.37,"1000": 611.87,"1025": 530.46,"1050": 476.51,"1075": 430.16,"1100": 406.49,"1125": 379.54,"1150": 369.44,"1175": 364.02,"1200": 356.38,"1225": 339.06,"1250": 321.91,"1275": 310.05,"1300": 290.06,"1325": 276.95,"1350": 265.85,"1375": 262.89,"1400": 260.87,"1425": 263.4,"1450": 267.07,"1475": 249.01,"1500": 218.04,"1525": 183.0,"1550": 157.56,"1575": 128.2,"1600": 103.15,"1625": 79.84,"1650": 69.58,"1675": 59.35,"1700": 52.07,"1725": 46.76,"1750": 40.07,"1775": 26.65,"1800": 24.56,"1825": 22.52,"1850": 15.59,"1875": 11.88,"1900": 7.24,"1925": 4.41,"1950": 3.88,"1975": 2.51,"2000": 1.5,"2025": 0.56,"2050": 0.29,"2075": 0.12}}}