{"type": "Feature","bbox": [28.8735,-29.3513,30.3378,-28.0745],"geometry": {"type": "MultiPolygon","coordinates": [[[[29.4555,-29.3378,3195.75],[29.4555,-29.3412,3224.6655],[29.4593,-29.3437,3257.5051],[29.4618,-29.3483,3107.3052],[29.4672,-29.3486,3181.3601],[29.4717,-29.3447,3175.9146],[29.4812,-29.3467,3261.5342],[29.5068,-29.3398,2412.1968],[29.5152,-29.3261,2191.2014],[29.5221,-29.3301,2282.3806],[29.5401,-29.3513,2290.4194],[29.5591,-29.3375,2203.9404],[29.5786,-29.3355,2053.9321],[29.5786,-29.2991,1758.9824],[29.5698,-29.2904,1829.2758],[29.6097,-29.2486,1656.101],[29.6303,-29.2688,1912.2307],[29.6552,-29.256,1894.3383],[29.6661,-29.2549,1643.5662],[29.6681,-29.2573,1595.3744],[29.6511,-29.2628,1782.274],[29.6459,-29.2706,1775.8484],[29.6387,-29.2726,1771.4426],[29.6361,-29.2789,1750.0568],[29.628,-29.2854,1693.0065],[29.631,-29.2856,1642.792],[29.6318,-29.2915,1787.8049],[29.6442,-29.2934,1852.7057],[29.6521,-29.2971,1869.3542],[29.6722,-29.2981,1914.2953],[29.6789,-29.2959,1857.9126],[29.6867,-29.2985,1903.5332],[29.6844,-29.3008,1876.4187],[29.6857,-29.3025,1847.3999],[29.6922,-29.3013,1790.0591],[29.7037,-29.2951,1687.7267],[29.7538,-29.2833,1629.1716],[29.7535,-29.2421,1598.5625],[29.768,-29.2207,1532.6543],[29.7648,-29.2173,1533.8671],[29.7306,-29.227,1633.8345],[29.7557,-29.2069,1599.8441],[29.7806,-29.1928,1526.5839],[29.787,-29.1974,1524.2816],[29.7972,-29.1882,1577.0789],[29.8001,-29.2171,1541.3181],[29.8291,-29.2198,1596.4426],[29.8549,-29.2181,1567.5692],[29.8685,-29.1978,1725.2391],[29.8731,-29.183,1692.5936],[29.8923,-29.1617,1655.6917],[29.8998,-29.15,1649.6455],[29.9269,-29.1218,1687.7079],[29.9498,-29.1312,1586.5491],[29.9623,-29.0997,1523.9745],[29.9857,-29.0863,1531.5458],[30.0258,-29.0896,1610.2637],[30.028,-29.0593,1509.6846],[30.0634,-29.056,1567.1736],[30.0503,-29.0272,1348.5127],[30.0718,-29.0119,1281.9052],[30.0862,-28.9665,1148.8728],[30.1501,-28.9956,1421.7998],[30.155,-28.9793,1172.9193],[30.1737,-28.9776,1474.1987],[30.187,-28.9594,1483.1029],[30.1977,-28.9801,1500.5803],[30.2151,-28.9806,1476.5763],[30.2185,-28.9982,1676.0522],[30.2296,-28.984,1519.8228],[30.2302,-28.979,1413.9988],[30.2314,-28.9642,1380.2141],[30.2237,-28.9457,1520.8198],[30.2875,-28.9149,1254.8936],[30.2681,-28.9053,1139.5142],[30.2731,-28.877,1180.6338],[30.2724,-28.8447,1017.4635],[30.2745,-28.8345,982.1746],[30.2832,-28.8111,940.4218],[30.2787,-28.7318,696.1298],[30.2675,-28.731,617.7081],[30.2693,-28.7271,613.5341],[30.2645,-28.7147,611.8289],[30.2703,-28.7064,608.6688],[30.2718,-28.6955,597.7925],[30.2796,-28.6927,600.1793],[30.2843,-28.693,593.9083],[30.2764,-28.6804,607.9863],[30.2684,-28.6749,615.5668],[30.2646,-28.6695,621.3468],[30.2612,-28.6537,632.7201],[30.2571,-28.651,633.4926],[30.2539,-28.6459,645.7812],[30.244,-28.6444,651.809],[30.2492,-28.6394,652.3283],[30.25,-28.6365,661.1207],[30.2435,-28.6284,688.5135],[30.234,-28.6212,1141.8713],[30.2364,-28.5896,1136.3738],[30.2261,-28.5872,1348.7876],[30.2207,-28.5733,1606.7562],[30.2227,-28.5667,1292.1036],[30.2314,-28.5629,1334.4973],[30.2466,-28.5502,1385.2424],[30.2325,-28.5019,1111.21],[30.3007,-28.5341,1277.3638],[30.3039,-28.5313,1276.5293],[30.3082,-28.5303,1290.6859],[30.3198,-28.5302,1318.1333],[30.3216,-28.5273,1338.9829],[30.3209,-28.5114,1339.8979],[30.3183,-28.507,1326.8206],[30.3378,-28.4741,1262.2814],[30.2938,-28.4484,1117.9573],[30.2714,-28.4414,1120.8418],[30.2152,-28.3928,1089.5636],[30.1781,-28.4397,1006.7727],[30.1726,-28.4221,1005.1655],[30.1627,-28.4228,1012.5713],[30.1704,-28.4148,998.5772],[30.1623,-28.3888,1022.1583],[30.175,-28.3872,1048.2313],[30.1754,-28.3711,1053.2029],[30.1743,-28.3693,1060.2142],[30.153,-28.3601,1024.9071],[30.1597,-28.3458,1097.2017],[30.1426,-28.3418,1064.79],[30.1402,-28.3432,1070.6101],[30.1356,-28.3405,1080.8547],[30.1251,-28.3438,1238.0796],[30.128,-28.3492,1279.2377],[30.0989,-28.3673,1253.3662],[30.0959,-28.3631,1254.2487],[30.0755,-28.3578,1124.0138],[30.0786,-28.3494,1108.5382],[30.0715,-28.352,1207.4376],[30.0737,-28.345,1180.3229],[30.067,-28.3278,1226.6611],[30.0654,-28.3051,1184.7811],[30.0342,-28.2712,1216.3257],[29.9912,-28.2531,1281.0198],[29.9768,-28.2396,1290.7109],[29.9859,-28.2204,1462.9258],[29.9781,-28.2065,1516.2765],[29.9904,-28.1849,1631.1421],[29.9371,-28.1445,1660.3058],[29.941,-28.1315,1603.7898],[29.9375,-28.0997,1301.1265],[29.9381,-28.0745,1278.9281],[29.9258,-28.0759,1310.9811],[29.926,-28.0776,1306.1849],[29.9209,-28.078,1298.1232],[29.9146,-28.0828,1301.7188],[29.9003,-28.0846,1354.0037],[29.9007,-28.098,1358.9419],[29.8824,-28.1192,1435.4611],[29.8514,-28.1074,1569.1892],[29.8461,-28.0906,1483.5674],[29.8158,-28.0988,1490.1782],[29.7968,-28.1014,1606.16],[29.7883,-28.0984,1524.5223],[29.7746,-28.1427,1563.6595],[29.765,-28.1583,1581.3846],[29.7398,-28.1411,1698.6306],[29.7415,-28.1366,1655.1837],[29.7387,-28.131,1515.3243],[29.7276,-28.1257,1676.8755],[29.6851,-28.1218,1512.2224],[29.6845,-28.1282,1727.9834],[29.677,-28.1283,1755.6487],[29.6695,-28.1345,1695.0773],[29.6709,-28.1387,1745.9713],[29.6633,-28.142,1892.2695],[29.6628,-28.1772,1830.0269],[29.6263,-28.1857,1918.9664],[29.6096,-28.215,1831.6213],[29.6244,-28.225,1860.8154],[29.6198,-28.2412,1784.822],[29.5587,-28.2583,1758.4203],[29.5506,-28.2472,1740.406],[29.5099,-28.2654,1720.2786],[29.4829,-28.2722,1700.1167],[29.4793,-28.2907,1743.3143],[29.4587,-28.3104,1842.1471],[29.4376,-28.3211,1823.1554],[29.4381,-28.3321,1871.9723],[29.4277,-28.3393,1788.8467],[29.4143,-28.3759,1835.8569],[29.3734,-28.3719,1694.4805],[29.3575,-28.388,1712.2362],[29.3388,-28.3988,1997.2815],[29.3201,-28.4068,1808.7238],[29.3226,-28.424,1831.6057],[29.2901,-28.4379,1773.0728],[29.2685,-28.4319,1815.9746],[29.2615,-28.4337,1886.0714],[29.2488,-28.4249,2021.2703],[29.229,-28.4563,1843.5167],[29.1915,-28.4938,1869.4736],[29.2162,-28.5191,1889.4696],[29.1964,-28.545,1787.4575],[29.1787,-28.5427,1793.8099],[29.171,-28.53,1934.2775],[29.1615,-28.5421,1894.0406],[29.135,-28.5663,1738.9611],[29.0963,-28.5451,1866.7767],[28.974,-28.5746,2284.0674],[28.9613,-28.5972,2095.7725],[28.966,-28.6053,1944.0486],[28.9559,-28.6075,2073.8726],[28.9486,-28.6133,1949.1184],[28.9466,-28.6208,2075.3689],[28.9443,-28.6226,2057.0452],[28.9409,-28.6314,1973.1671],[28.9447,-28.6387,1961.86],[28.9428,-28.6509,2070.76],[28.9357,-28.6538,2002.2428],[28.9346,-28.6569,2034.7354],[28.9284,-28.6601,2197.8662],[28.926,-28.6638,2136.1592],[28.922,-28.6637,2150.2205],[28.9089,-28.6814,2060.5352],[28.9034,-28.6872,2137.2773],[28.8991,-28.6873,2177.4517],[28.8972,-28.6909,2191.2354],[28.8962,-28.6947,2216.3862],[28.9,-28.7032,2251.189],[28.8921,-28.7449,2909.0933],[28.8913,-28.7465,3051.0383],[28.883,-28.7487,3002.2686],[28.8735,-28.7722,3245.396],[28.8823,-28.775,3120.376],[28.8883,-28.775,3141.9092],[28.8934,-28.7664,3007.5332],[28.9064,-28.759,2910.7202],[28.9078,-28.7605,2953.4854],[28.9124,-28.7606,2924.8848],[28.9154,-28.7643,2986.957],[28.9154,-28.77,3144.4192],[28.9321,-28.7749,3099.4119],[28.9438,-28.7827,2987.03],[28.9452,-28.7872,3057.7126],[28.9421,-28.7875,3026.4568],[28.939,-28.7854,3038.4209],[28.9359,-28.7918,3162.9873],[28.9322,-28.7919,3185.7573],[28.9478,-28.798,3065.9143],[28.949,-28.8043,3113.3647],[28.9404,-28.8066,3007.0503],[28.9362,-28.8048,3170.7734],[28.9341,-28.8071,3110.9343],[28.9348,-28.8094,3095.0713],[28.9219,-28.8125,3223.5913],[28.9242,-28.8171,3204.6084],[28.931,-28.8203,3191.603],[28.9396,-28.8184,3187.1299],[28.9377,-28.8236,3106.9482],[28.9459,-28.8251,2960.9639],[28.945,-28.8272,3085.5269],[28.9483,-28.8286,3051.438],[28.9457,-28.8339,3068.1506],[28.9478,-28.8409,3053.6274],[28.9446,-28.843,3169.4604],[28.9462,-28.8463,3110.3074],[28.951,-28.8492,2984.5874],[28.953,-28.8534,2994.5979],[28.9521,-28.8551,2874.2603],[28.9465,-28.8539,3028.1985],[28.9434,-28.8549,2979.7273],[28.9442,-28.8571,3012.9377],[28.9391,-28.8605,3036.6689],[28.9485,-28.8689,3089.3003],[28.9535,-28.8678,3018.7139],[28.958,-28.8696,3089.7825],[28.962,-28.8688,3028.9714],[28.9609,-28.8701,3100.021],[28.9629,-28.8712,3065.3215],[28.9572,-28.8768,3083.4585],[28.9643,-28.8821,3204.9526],[28.9627,-28.8845,3192.7842],[28.9639,-28.887,3137.3213],[28.9743,-28.8912,3162.9822],[28.975,-28.9039,3195.1838],[28.9728,-28.9072,3194.9087],[28.9802,-28.9147,3147.2991],[28.9865,-28.9158,3186.0723],[28.9909,-28.9143,3157.5493],[28.9942,-28.9052,3113.6157],[29.0035,-28.9025,2958.7678],[29.0055,-28.8976,2961.4019],[29.0121,-28.8974,2916.8887],[29.0134,-28.8944,2888.9526],[29.01,-28.8904,2963.2],[29.0114,-28.8873,2909.8953],[29.0101,-28.886,2871.4709],[29.0121,-28.8853,2910.6455],[29.011,-28.8844,2784.021],[29.0123,-28.8835,2861.6731],[29.019,-28.8819,2910.4792],[29.0291,-28.888,2980.7434],[29.029,-28.8982,2911.1118],[29.0378,-28.9055,2891.5984],[29.039,-28.9079,2898.6055],[29.0381,-28.9112,3001.6042],[29.0413,-28.9151,3024.4526],[29.0488,-28.9142,3048.2737],[29.0579,-28.9185,2916.9648],[29.0599,-28.9162,2805.6736],[29.0638,-28.9157,3039.8442],[29.0711,-28.9185,2981.293],[29.0778,-28.9181,2934.9661],[29.0724,-28.9227,3020.0317],[29.0772,-28.9285,2912.7153],[29.0735,-28.9351,3161.5759],[29.0739,-28.9377,3150.938],[29.0789,-28.9394,3096.9878],[29.0856,-28.9359,2902.1809],[29.0892,-28.9375,2880.3901],[29.0933,-28.9367,2880.4189],[29.0935,-28.9386,2858.551],[29.0994,-28.9422,2916.1519],[29.1012,-28.9481,2867.5239],[29.1083,-28.9493,2893.1985],[29.1112,-28.9532,2955.2864],[29.1267,-28.9639,2890.5488],[29.1305,-28.969,2745.0347],[29.1263,-28.9682,2977.6465],[29.1233,-28.9704,3003.8057],[29.1245,-28.9803,3161.2197],[29.1336,-28.9851,3055.1284],[29.1376,-28.9837,2965.1655],[29.1378,-28.9814,2973.1814],[29.1408,-28.9817,2913.8313],[29.1434,-28.9847,2984.3091],[29.1517,-28.9878,2756.6104],[29.1492,-28.9897,2974.8193],[29.1528,-28.9902,2988.0918],[29.1546,-28.9975,3156.959],[29.1592,-29.0031,3237.9807],[29.1669,-29.002,3254.7656],[29.1782,-29.0033,2977.1396],[29.1852,-29.013,3047.3557],[29.202,-29.0154,2921.8564],[29.2088,-29.0224,2922.2654],[29.2153,-29.0261,3014.3982],[29.2173,-29.0311,3006.7957],[29.215,-29.0348,3030.5291],[29.2111,-29.0372,3042.9714],[29.2136,-29.0407,3010.0894],[29.2119,-29.0461,2938.0635],[29.2153,-29.0485,2768.1445],[29.2257,-29.0494,2734.4807],[29.2296,-29.0568,2828.1021],[29.2279,-29.0631,2975.4526],[29.2398,-29.073,3194.8374],[29.2413,-29.076,3246.9697],[29.2526,-29.0822,3329.8635],[29.2548,-29.0895,3317.624],[29.2588,-29.0906,3311.2361],[29.2611,-29.0895,3292.7554],[29.2632,-29.0856,3281.76],[29.2795,-29.0756,3285.6748],[29.3078,-29.0766,3295.9966],[29.3125,-29.0793,3299.0664],[29.3146,-29.0856,3259.9038],[29.3255,-29.0972,3306.9873],[29.3261,-29.1013,3234.0928],[29.3295,-29.1016,3179.3408],[29.338,-29.1069,3176.3445],[29.3388,-29.1096,3231.8472],[29.3494,-29.1187,2912.9907],[29.3489,-29.1208,2918.4978],[29.3564,-29.1282,3086.509],[29.3548,-29.1311,3019.646],[29.3571,-29.1352,2995.4055],[29.3536,-29.1376,2987.9395],[29.3513,-29.1423,3032.426],[29.3531,-29.1476,3030.4683],[29.3487,-29.1485,3060.02],[29.344,-29.1531,3070.0339],[29.3487,-29.1627,2997.8262],[29.3467,-29.165,3180.21],[29.3472,-29.1738,3202.9692],[29.344,-29.1777,3262.0903],[29.3446,-29.1875,3330.4536],[29.3548,-29.1949,3395.6489],[29.357,-29.202,3441.2808],[29.3628,-29.2051,3384.8652],[29.3681,-29.2052,3360.3035],[29.3811,-29.2014,3333.9014],[29.4009,-29.2081,3110.0574],[29.4083,-29.2123,3113.4529],[29.4136,-29.2212,3077.561],[29.4089,-29.2219,3161.457],[29.4069,-29.2288,3303.3154],[29.4153,-29.2318,3241.0554],[29.4182,-29.2369,3158.8525],[29.4217,-29.2384,3055.8918],[29.4261,-29.2498,3062.3706],[29.4228,-29.2525,3044.8826],[29.4187,-29.2521,3092.9224],[29.4185,-29.2581,3235.4822],[29.4209,-29.2601,3238.4592],[29.4343,-29.2628,3040.2246],[29.4401,-29.2698,2976.9509],[29.4396,-29.2798,2850.7534],[29.4352,-29.2797,2945.5815],[29.4365,-29.286,3070.585],[29.4397,-29.289,3106.2117],[29.4402,-29.2941,3026.1338],[29.4432,-29.2987,3098.2534],[29.4427,-29.3011,3104.251],[29.4393,-29.3037,3166.7324],[29.4398,-29.3078,3228.2129],[29.4383,-29.3093,3194.3672],[29.4425,-29.3119,3154.627],[29.4416,-29.3145,3108.436],[29.4471,-29.3163,3104.1641],[29.4486,-29.3208,3032.3137],[29.4517,-29.321,2981.3149],[29.4523,-29.3293,3115.8606],[29.4555,-29.3378,3195.75]]]]}
,"properties": {"GID_2": "ZAF.4.9_1","GID_0": "ZAF","country": "SouthAfrica","GID_1": "ZAF.4_1","province": "KwaZulu-Natal","NL_NAME_1": "NA","county": "Uthukela","VARNAME_2": "NA","NL_NAME_2": "NA","TYPE_2": "DistrictMunicipality","ENGTYPE_2": "DistrictMunicipality","CC_2": "DC23","HASC_2": "ZA.NL.UL","name": "Uthukela.county","area_km2": 11342.821,"hist_schema_id": "Elevation0-9000","hist_area_km2": {"600": 1.004,"625": 8.292,"650": 20.84,"675": 22.661,"700": 28.796,"725": 29.986,"750": 30.713,"775": 36.218,"800": 50.186,"825": 58.325,"850": 86.574,"875": 109.489,"900": 126.519,"925": 133.393,"950": 175.943,"975": 256.948,"1000": 347.35,"1025": 417.627,"1050": 509.806,"1075": 554.834,"1100": 585.895,"1125": 626.069,"1150": 593.678,"1175": 607.945,"1200": 574.669,"1225": 468.279,"1250": 404.766,"1275": 359.287,"1300": 317.597,"1325": 276.687,"1350": 234.833,"1375": 207.735,"1400": 192.147,"1425": 192.213,"1450": 205.458,"1475": 187.17,"1500": 168.866,"1525": 142.594,"1550": 146.24,"1575": 161.584,"1600": 137.193,"1625": 110.447,"1650": 84.041,"1675": 77.664,"1700": 73.817,"1725": 71.508,"1750": 68.513,"1775": 69.532,"1800": 66.36,"1825": 63.985,"1850": 56.865,"1875": 57.445,"1900": 58.732,"1925": 55.285,"1950": 53.225,"1975": 49.833,"2000": 47.533,"2025": 41.03,"2050": 35.802,"2075": 31.63,"2100": 26.009,"2125": 22.784,"2150": 20.482,"2175": 19.199,"2200": 17.585,"2225": 17.103,"2250": 14.787,"2275": 12.934,"2300": 11.842,"2325": 10.565,"2350": 10.047,"2375": 9.288,"2400": 8.953,"2425": 8.88,"2450": 8.638,"2475": 7.47,"2500": 6.692,"2525": 6.543,"2550": 6.229,"2575": 5.506,"2600": 5.803,"2625": 5.58,"2650": 5.358,"2675": 5.468,"2700": 5.005,"2725": 4.802,"2750": 4.504,"2775": 5.042,"2800": 3.948,"2825": 4.171,"2850": 4.023,"2875": 3.67,"2900": 3.374,"2925": 3.893,"2950": 3.579,"2975": 4.136,"3000": 4.582,"3025": 4.545,"3050": 4.526,"3075": 4.154,"3100": 4.617,"3125": 4.264,"3150": 4.987,"3175": 4.096,"3200": 3.298,"3225": 2.52,"3250": 2.037,"3275": 1.908,"3300": 1.519,"3325": 1.111,"3350": 0.518,"3375": 0.241,"3400": 0.259,"3425": 0.093}}}