{"type": "Feature","bbox": [25.0938,-26.9673,26.2758,-26.2004],"geometry": {"type": "MultiPolygon","coordinates": [[[[25.678,-26.9673,1407.5344],[25.6919,-26.9416,1415.7793],[25.7625,-26.9151,1427.8297],[25.8097,-26.9012,1452.5828],[25.8333,-26.9362,1463.095],[25.8938,-26.8984,1487.8234],[25.891,-26.8752,1478.7676],[25.9137,-26.9068,1492.8152],[25.9863,-26.8753,1507.014],[26.0042,-26.8552,1528.7693],[26.0125,-26.8604,1534.2856],[26.0109,-26.8625,1532.9792],[26.0189,-26.8667,1532.7925],[26.0239,-26.8595,1528.7474],[26.0287,-26.8615,1527.7935],[26.0291,-26.8588,1525.9329],[26.0362,-26.8615,1524.2717],[26.042,-26.845,1511.9148],[26.0482,-26.8456,1527.1516],[26.0488,-26.8395,1534.4419],[26.0561,-26.8343,1523.1816],[26.0683,-26.8647,1537.6125],[26.0768,-26.8623,1537.8958],[26.1022,-26.8197,1539.5061],[26.1151,-26.771,1534.3754],[26.1458,-26.7642,1541.6876],[26.143,-26.7534,1544.9677],[26.1472,-26.7518,1545.5848],[26.1458,-26.7481,1546.6409],[26.1563,-26.7437,1549.5502],[26.1619,-26.7521,1548.4868],[26.1595,-26.7461,1549.3304],[26.189,-26.7338,1559.7346],[26.1854,-26.7106,1559.6987],[26.2331,-26.701,1588.4556],[26.2364,-26.7061,1592.9817],[26.2497,-26.7001,1606.9568],[26.261,-26.7004,1605.6494],[26.2603,-26.6993,1608.5615],[26.2724,-26.6914,1630.5267],[26.2635,-26.6835,1600.7708],[26.2674,-26.6812,1599.7303],[26.251,-26.6457,1558.8712],[26.2758,-26.6446,1572.3857],[26.2481,-26.5873,1563.1693],[26.1489,-26.5867,1512.8956],[26.1496,-26.5815,1509.6765],[26.1303,-26.5793,1505.0186],[26.1296,-26.5839,1504.6472],[26.1032,-26.5784,1494.5963],[26.0996,-26.5131,1453.5465],[26.1282,-26.5106,1467.1825],[26.102,-26.4618,1492.2732],[26.08,-26.4641,1488.0782],[26.0417,-26.4497,1459.6975],[26.0152,-26.4488,1439.6163],[25.9793,-26.4228,1421.626],[25.9533,-26.4296,1411.6306],[25.948,-26.4004,1412.4324],[25.8984,-26.423,1389.0958],[25.8668,-26.3599,1411.5779],[25.8345,-26.3577,1417.9868],[25.8892,-26.3205,1424.8983],[25.8688,-26.2806,1434.2935],[25.8833,-26.2706,1436.1576],[25.8791,-26.2653,1439.1366],[25.8657,-26.2745,1434.9326],[25.8269,-26.2004,1421.0464],[25.7708,-26.238,1398.5048],[25.7228,-26.2569,1382.4167],[25.713,-26.2276,1388.6437],[25.7015,-26.2392,1381.6506],[25.6693,-26.2848,1370.6707],[25.6553,-26.2966,1367.582],[25.5891,-26.3058,1352.2666],[25.546,-26.3277,1369.5818],[25.5549,-26.3624,1366.677],[25.5029,-26.3801,1384.8962],[25.4223,-26.2708,1337.4821],[25.4188,-26.2756,1332.2798],[25.4151,-26.3001,1344.6943],[25.3944,-26.3246,1341.4412],[25.3855,-26.3322,1329.0033],[25.3721,-26.3388,1342.7449],[25.3672,-26.3366,1346.8324],[25.2973,-26.3218,1308.4286],[25.259,-26.3588,1330.0476],[25.2249,-26.3858,1293.5527],[25.2365,-26.4111,1329.8992],[25.2364,-26.416,1336.9569],[25.2329,-26.4271,1330.3813],[25.2475,-26.445,1363.5205],[25.2354,-26.4531,1366.197],[25.2254,-26.4561,1360.2426],[25.2186,-26.4611,1348.5469],[25.1833,-26.4941,1355.0288],[25.1739,-26.4982,1358.9431],[25.1724,-26.5018,1352.9679],[25.1696,-26.5199,1359.9016],[25.177,-26.559,1369.2771],[25.1688,-26.5635,1370.0715],[25.1696,-26.5844,1373.0216],[25.1628,-26.6047,1370.0724],[25.1743,-26.6529,1366.4594],[25.1787,-26.6625,1368.1976],[25.1688,-26.6766,1361.4612],[25.1526,-26.7077,1348.9279],[25.1476,-26.714,1345.7825],[25.1418,-26.7426,1334.9384],[25.1343,-26.7607,1327.0538],[25.1331,-26.7718,1321.7102],[25.1237,-26.7927,1313.7761],[25.1109,-26.8081,1310.062],[25.1078,-26.8192,1307.1058],[25.0994,-26.8355,1302.2933],[25.0963,-26.8736,1289.423],[25.0938,-26.8846,1285.329],[25.0984,-26.8906,1285.6843],[25.1804,-26.8687,1332.6765],[25.2255,-26.8324,1357.1675],[25.2575,-26.8022,1372.4518],[25.3208,-26.8863,1369.2117],[25.3985,-26.8553,1354.8358],[25.4926,-26.9179,1328.0796],[25.4834,-26.9203,1327.4865],[25.5693,-26.9363,1380.1884],[25.6045,-26.9065,1372.6782],[25.6305,-26.8585,1371.4875],[25.6109,-26.9231,1375.998],[25.6658,-26.8991,1393.2529],[25.6656,-26.9669,1404.3365],[25.678,-26.9673,1407.5344]]]]}
,"properties": {"GID_3": "ZAF.7.4.5_1","GID_0": "ZAF","country": "SouthAfrica","GID_1": "ZAF.7_1","province": "NorthWest","NL_NAME_1": "NA","GID_2": "ZAF.7.4_1","county": "NgakaModiriMolema","NL_NAME_2": "NA","city": "Tswaing","VARNAME_3": "NA","NL_NAME_3": "NA","TYPE_3": "LocalMunicipality","ENGTYPE_3": "LocalMunicipality","CC_3": "NW382","HASC_3": "NA","name": "Tswaing.city","area_km2": 5976.517,"hist_schema_id": "Elevation0-9000","hist_area_km2": {"1275": 2.258,"1300": 51.31,"1325": 172.502,"1350": 1200.274,"1375": 1911.206,"1400": 962.446,"1425": 576.925,"1450": 378.283,"1475": 280.253,"1500": 192.143,"1525": 122.229,"1550": 98.439,"1575": 23.267,"1600": 4.073,"1625": 0.909}}}