{"type": "Feature","bbox": [24.4651,-26.5503,25.5102,-25.7222],"geometry": {"type": "MultiPolygon","coordinates": [[[[25.2354,-26.4531,1366.197],[25.2475,-26.445,1363.5205],[25.2329,-26.4271,1330.3813],[25.2364,-26.416,1336.9569],[25.2365,-26.4111,1329.8992],[25.2249,-26.3858,1293.5527],[25.259,-26.3588,1330.0476],[25.2973,-26.3218,1308.4286],[25.3672,-26.3366,1346.8324],[25.3721,-26.3388,1342.7449],[25.3855,-26.3322,1329.0033],[25.4007,-26.318,1348.8965],[25.4151,-26.3001,1344.6943],[25.4188,-26.2756,1332.2798],[25.4223,-26.2708,1337.4821],[25.432,-26.2635,1337.6219],[25.4591,-26.2346,1362.4469],[25.4695,-26.2317,1361.9977],[25.4773,-26.2275,1355.2573],[25.5006,-26.2217,1345.8455],[25.5102,-26.2144,1343.7394],[25.5039,-26.2123,1341.5388],[25.4959,-26.2186,1337.7457],[25.4919,-26.215699999999998,1335.7222],[25.4866,-26.217,1332.8253],[25.4847,-26.2156,1332.0879],[25.4847,-26.21,1330.7407],[25.4825,-26.2091,1328.2566],[25.4811,-26.2047,1329.4951],[25.4817,-26.1945,1320.4923],[25.4791,-26.1914,1322.4059],[25.479,-26.1875,1317.5586],[25.476,-26.1838,1316.8655],[25.4734,-26.1833,1318.1055],[25.4739,-26.1793,1318.1674],[25.4722,-26.1774,1310.2437],[25.4728,-26.1754,1309.3491],[25.4709,-26.1747,1311.7905],[25.4692,-26.1672,1306.7778],[25.4612,-26.1641,1305.2668],[25.4611,-26.1624,1304.5989],[25.4585,-26.1613,1304.7158],[25.4587,-26.1586,1304.3953],[25.4421,-26.1764,1302.9482],[25.4382,-26.1655,1294.1169],[25.436,-26.1651,1295.9824],[25.4303,-26.1591,1292.6763],[25.458,-26.1034,1325.8347],[25.501,-26.0618,1290.9968],[25.4923,-26.0571,1284.8929],[25.4926,-26.0547,1286.1097],[25.4884,-26.0488,1282.1388],[25.4851,-26.0481,1280.9199],[25.4824,-26.0416,1278.1698],[25.4731,-26.0427,1274.1644],[25.4718,-26.0407,1273.5999],[25.472,-26.0347,1270.7996],[25.4685,-26.0328,1268.4272],[25.4693,-26.0312,1267.8337],[25.4662,-26.0287,1266.6378],[25.4646,-26.0229,1263.9249],[25.4592,-26.0202,1262.2285],[25.4597,-26.0186,1263.116],[25.4577,-26.0185,1261.4042],[25.457,-26.0155,1260.2722],[25.4555,-26.0161,1260.2722],[25.4528,-26.0117,1259.7141],[25.4536,-26.0064,1255.64],[25.4518,-26.0052,1254.9072],[25.4521,-26.0025,1253.9314],[25.449,-26.0002,1251.6425],[25.4498,-25.9986,1252.6008],[25.4431,-25.9972,1248.7896],[25.4419,-25.9952,1248.1537],[25.4402,-25.9959,1247.0425],[25.4368,-25.9907,1244.6111],[25.4317,-25.9879,1242.7684],[25.4316,-25.9855,1243.4058],[25.4268,-25.9839,1240.2275],[25.4214,-25.9753,1238.236],[25.4153,-25.9712,1233.8555],[25.4156,-25.9686,1233.4324],[25.4081,-25.9636,1229.4025],[25.4061,-25.9547,1226.0398],[25.402,-25.9537,1225.3696],[25.4024,-25.9516,1223.9835],[25.3991,-25.9507,1222.9448],[25.3497,-25.9163,1253.1874],[25.2659,-25.8711,1232.2651],[25.329,-25.8321,1185.5],[25.3493,-25.7927,1212.1288],[25.3446,-25.7817,1204.5994],[25.3446,-25.7785,1203.2933],[25.3393,-25.7693,1189.0857],[25.3341,-25.771,1187.5381],[25.3287,-25.7698,1186.1797],[25.3184,-25.7728,1183.8975],[25.3151,-25.7722,1182.8218],[25.3111,-25.7689,1180.9421],[25.2994,-25.7657,1178.8862],[25.2852,-25.7654,1175.2799],[25.2748,-25.768,1173.2551],[25.2648,-25.7665,1171.3486],[25.2614,-25.7686,1169.876],[25.2523,-25.7675,1168.7739],[25.2485,-25.7656,1168.269],[25.2239,-25.7635,1161.3256],[25.2198,-25.7659,1160.3706],[25.2156,-25.7632,1159.4822],[25.2091,-25.7626,1158.9901],[25.2069,-25.7596,1158.1921],[25.2031,-25.7584,1158.1899],[25.1922,-25.7625,1158.204],[25.1836,-25.7628,1163.7384],[25.1761,-25.7662,1156.6326],[25.1726,-25.7662,1157.2429],[25.1687,-25.7655,1154.9832],[25.1611,-25.7596,1154.6738],[25.1484,-25.7596,1155.8195],[25.1426,-25.7564,1153.4156],[25.1349,-25.7577,1154.2979],[25.1271,-25.7627,1152.8149],[25.1214,-25.7638,1150.6547],[25.1087,-25.7544,1149.0206],[25.1099,-25.7487,1150.1333],[25.1022,-25.748,1147.2938],[25.1021,-25.7461,1148.6494],[25.1052,-25.7425,1147.5725],[25.1043,-25.7411,1149.1816],[25.0993,-25.7425,1147.9187],[25.087,-25.7409,1147.5707],[25.0843,-25.7384,1143.2246],[25.0809,-25.7304,1142.9041],[25.0769,-25.7313,1140.9531],[25.0716,-25.7363,1140.2205],[25.0617,-25.7355,1144.2991],[25.0539,-25.7313,1136.7662],[25.0516,-25.7261,1136.6841],[25.0375,-25.7222,1132.4868],[25.0229,-25.731,1134.9645],[25.0185,-25.7304,1129.9709],[25.0147,-25.7255,1130.6311],[25.0006,-25.7296,1130.0796],[24.9998,-25.7312,1127.0079],[25.0038,-25.7358,1127.1794],[25.0036,-25.7387,1126.8096],[24.9897,-25.7454,1127.387],[24.9839,-25.7543,1125.0911],[24.9753,-25.7539,1124.1282],[24.9667,-25.7661,1122.4094],[24.9615,-25.7661,1122.236],[24.9544,-25.7603,1120.2881],[24.9518,-25.7623,1119.639],[24.9538,-25.7683,1118.9731],[24.9511,-25.7691,1123.3801],[24.9514,-25.7717,1118.8813],[24.9458,-25.7746,1118.5079],[24.9338,-25.7766,1116.262],[24.9278,-25.7877,1116.3423],[24.9203,-25.79,1114.8185],[24.9158,-25.7844,1114.5989],[24.9128,-25.7844,1113.6987],[24.9131,-25.7975,1112.4235],[24.9078,-25.7984,1111.7891],[24.9047,-25.8026,1111.67],[24.8976,-25.8026,1111.7478],[24.8963,-25.8059,1111.5447],[24.8989,-25.8093,1110.9059],[24.8969,-25.8108,1110.877],[24.8857,-25.8071,1110.3173],[24.8753,-25.8091,1109.7799],[24.8696,-25.8054,1108.5168],[24.8443,-25.8092,1106.6799],[24.8335,-25.8153,1106.2319],[24.8246,-25.8117,1105.1863],[24.8184,-25.817,1104.2415],[24.8162,-25.8161,1106.0468],[24.8156,-25.8116,1105.3468],[24.8132,-25.8103,1105.2235],[24.8111,-25.8128,1106.4484],[24.8105,-25.8184,1103.1746],[24.8026,-25.8187,1102.9402],[24.7947,-25.8253,1102.2394],[24.7875,-25.8175,1102.3571],[24.7837,-25.8172,1101.5396],[24.7784,-25.8197,1101.8169],[24.7674,-25.8128,1105.4326],[24.7617,-25.811,1101.4849],[24.7559,-25.8114,1103.0244],[24.752,-25.8145,1101.3717],[24.7481,-25.8141,1100.2437],[24.7418,-25.8124,1099.3402],[24.7367,-25.8076,1098.0886],[24.729,-25.804,1099.95],[24.7116,-25.8058,1097.3795],[24.6966,-25.8113,1099.9094],[24.6859,-25.8233,1100.6157],[24.6827,-25.8239,1094.6621],[24.679,-25.8192,1096.55],[24.6757,-25.8179,1104.8778],[24.6643,-25.8183,1093.9316],[24.6402,-25.8076,1092.8715],[24.6089,-25.8006,1091.6785],[24.5989,-25.7936,1089.4874],[24.5894,-25.7898,1089.3186],[24.5781,-25.7774,1087.5664],[24.5694,-25.7727,1086.2747],[24.5615,-25.7709,1087.1671],[24.5505,-25.7727,1085.5588],[24.5443,-25.772,1084.7693],[24.4848,-25.7499,1084.177],[24.4651,-25.7902,1111.5413],[24.667,-25.9212,1132.3342],[24.6392,-25.9343,1137.7871],[24.6539,-25.9593,1144.5961],[24.7101,-26.012,1161.5605],[24.7339,-26.0396,1169.2294],[24.7452,-26.063,1174.5325],[24.7625,-26.0933,1158.691],[24.8041,-26.1583,1212.4843],[24.8171,-26.1988,1231.8193],[24.7642,-26.2052,1208.9993],[24.7892,-26.2437,1238.5841],[24.8048,-26.2769,1257.8835],[24.8317,-26.327,1267.1361],[24.8476,-26.3681,1258.4404],[24.8358,-26.3707,1261.9841],[24.8336,-26.3829,1268.0732],[24.8523,-26.3813,1273.7874],[24.8578,-26.395,1285.8892],[24.9007,-26.3634,1260.1787],[24.9302,-26.4206,1302.1954],[24.9661,-26.4044,1290.5656],[24.9912,-26.3909,1296.3456],[25.0259,-26.4478,1317.4408],[25.0455,-26.4364,1300.626],[25.0701,-26.4862,1366.422],[25.0407,-26.5014,1354.8856],[25.0662,-26.5503,1357.5128],[25.0957,-26.5356,1370.271],[25.1696,-26.5199,1359.9016],[25.1711,-26.5062,1349.7699],[25.1739,-26.4982,1358.9431],[25.1833,-26.4941,1355.0288],[25.1916,-26.4852,1354.709],[25.2254,-26.4561,1360.2426],[25.2354,-26.4531,1366.197]]]]}
,"properties": {"GID_3": "ZAF.7.4.4_1","GID_0": "ZAF","country": "SouthAfrica","GID_1": "ZAF.7_1","province": "NorthWest","NL_NAME_1": "NA","GID_2": "ZAF.7.4_1","county": "NgakaModiriMolema","NL_NAME_2": "NA","city": "Ratlou","VARNAME_3": "NA","NL_NAME_3": "NA","TYPE_3": "LocalMunicipality","ENGTYPE_3": "LocalMunicipality","CC_3": "NW381","HASC_3": "NA","name": "Ratlou.city","area_km2": 4891.875,"hist_schema_id": "Elevation0-9000","hist_area_km2": {"1075": 1.661,"1100": 62.912,"1125": 279.629,"1150": 454.194,"1175": 649.823,"1200": 772.612,"1225": 757.662,"1250": 703.187,"1275": 503.939,"1300": 346.368,"1325": 203.458,"1350": 105.141,"1375": 51.288}}}