{"type": "Feature","bbox": [26.7758,-32.842,27.9264,-32.0944],"geometry": {"type": "MultiPolygon","coordinates": [[[[27.2889,-32.6838,1018.7157],[27.293,-32.681,960.954],[27.2932,-32.6757,918.5563],[27.2974,-32.6767,917.5608],[27.3391,-32.674,894.4664],[27.3546,-32.6744,880.4916],[27.3706,-32.6756,878.649],[27.3873,-32.6798,850.6439],[27.3713,-32.6998,812.7048],[27.3824,-32.7249,846.0387],[27.347,-32.7122,774.3946],[27.3437,-32.7181,547.926],[27.3466,-32.7189,569.9929],[27.3425,-32.7247,564.3798],[27.333,-32.7292,768.8459],[27.3331,-32.7308,842.7137],[27.3371,-32.7327,843.3118],[27.3339,-32.7326,870.2529],[27.3261,-32.7398,604.6873],[27.3385,-32.7616,490.5833],[27.3335,-32.7642,485.9411],[27.3328,-32.7694,518.2883],[27.3305,-32.7724,532.2408],[27.3299,-32.7771,557.0471],[27.3324,-32.7842,618.1729],[27.3226,-32.7884,640.1101],[27.3303,-32.7915,589.5669],[27.3349,-32.7909,590.9297],[27.342,-32.7929,568.6525],[27.3426,-32.7946,537.4814],[27.3385,-32.7943,562.231],[27.3383,-32.802,533.8865],[27.3402,-32.8074,546.567],[27.3485,-32.8125,543.2437],[27.3563,-32.8274,460.0644],[27.3662,-32.8378,472.0601],[27.3787,-32.836,394.7207],[27.378,-32.8328,395.7642],[27.3804,-32.8281,397.8839],[27.3932,-32.8226,403.3873],[27.3945,-32.8191,411.0241],[27.3936,-32.814,406.7919],[27.3862,-32.8139,408.3642],[27.3849,-32.8102,455.1217],[27.3854,-32.8014,505.9673],[27.3929,-32.8005,532.3776],[27.3954,-32.8025,549.0193],[27.4161,-32.8007,569.3879],[27.4193,-32.7996,580.9566],[27.4213,-32.796,572.429],[27.4244,-32.8034,590.3033],[27.4501,-32.8136,558.7896],[27.456,-32.7974,536.9941],[27.4561,-32.7816,591.2263],[27.4622,-32.7796,586.3993],[27.467,-32.7722,537.39],[27.4751,-32.7727,519.2672],[27.4767,-32.7611,530.9516],[27.4849,-32.758,546.4742],[27.4899,-32.7595,565.1165],[27.4927,-32.7516,596.4661],[27.4933,-32.7436,608.6025],[27.5035,-32.7271,628.9014],[27.5153,-32.7159,677.0265],[27.5538,-32.7252,657.6659],[27.5356,-32.7395,652.0037],[27.5192,-32.7466,614.7676],[27.5256,-32.7666,562.2089],[27.5364,-32.7926,436.1977],[27.543,-32.796,428.7139],[27.5459,-32.7948,424.142],[27.5577,-32.8017,419.2686],[27.5654,-32.7986,411.8627],[27.565,-32.7967,409.9395],[27.5706,-32.7966,405.8993],[27.5746,-32.7989,402.9988],[27.5769,-32.8043,399.0584],[27.5801,-32.8048,399.0738],[27.5794,-32.8084,397.3515],[27.5847,-32.8099,392.7126],[27.5869,-32.8131,429.7777],[27.5897,-32.8118,404.2316],[27.5925,-32.8076,393.467],[27.5991,-32.8076,389.0092],[27.6075,-32.81,378.8608],[27.6083,-32.8128,391.0758],[27.6035,-32.8176,384.5477],[27.6114,-32.8208,370.1082],[27.6136,-32.82,370.0194],[27.6135,-32.8168,371.7744],[27.6169,-32.8153,378.4719],[27.6213,-32.8176,368.2144],[27.6214,-32.8202,372.2713],[27.6258,-32.8207,362.958],[27.6295,-32.8231,373.0068],[27.6305,-32.8221,372.2805],[27.6258,-32.8149,352.5204],[27.6274,-32.8123,360.1699],[27.6352,-32.8173,349.6589],[27.6396,-32.8135,345.4691],[27.6473,-32.8116,342.9445],[27.6519,-32.8207,347.78],[27.6462,-32.8222,341.0749],[27.6456,-32.8244,338.6907],[27.6552,-32.8279,353.1145],[27.6519,-32.8397,335.873],[27.6565,-32.8413,319.9658],[27.6589,-32.8404,330.136],[27.6566,-32.8376,326.6957],[27.6653,-32.8363,335.4101],[27.6613,-32.8322,329.6695],[27.6661,-32.8306,343.7537],[27.6671,-32.8284,335.8081],[27.674,-32.8344,441.335],[27.6918,-32.8178,457.411],[27.7043,-32.8155,453.9735],[27.7159,-32.8086,453.4168],[27.7205,-32.7999,497.4283],[27.7158,-32.7973,495.9915],[27.7078,-32.7783,507.0936],[27.7273,-32.7839,486.9453],[27.7424,-32.7777,477.7794],[27.763,-32.7784,471.7416],[27.7771,-32.7661,338.2646],[27.7793,-32.7663,348.6698],[27.7818,-32.7578,365.7511],[27.7873,-32.7598,352.0644],[27.7857,-32.7551,321.434],[27.7822,-32.7525,326.891],[27.7827,-32.7489,311.3213],[27.7742,-32.7469,344.3636],[27.775,-32.7382,335.2341],[27.7637,-32.7387,329.8474],[27.7602,-32.7362,323.1543],[27.7597,-32.7278,353.9351],[27.7649,-32.7191,362.6345],[27.7644,-32.7172,399.5699],[27.7609,-32.7165,358.9344],[27.7567,-32.7198,359.4528],[27.7521,-32.7147,380.4418],[27.7532,-32.7113,381.9914],[27.7522,-32.7083,389.7016],[27.7482,-32.7109,392.2227],[27.7439,-32.7098,402.5797],[27.7413,-32.7125,408.936],[27.7372,-32.7122,415.1723],[27.7365,-32.71,419.7668],[27.7395,-32.7066,443.6273],[27.7356,-32.7012,464.1089],[27.727,-32.7008,456.4274],[27.7262,-32.6942,458.2397],[27.73,-32.6921,459.7174],[27.7297,-32.6896,457.7789],[27.7265,-32.6865,459.25],[27.7218,-32.6861,458.5022],[27.7191,-32.68,482.3531],[27.7126,-32.6811,488.8463],[27.715,-32.6849,475.2314],[27.7141,-32.6858,465.5223],[27.7067,-32.686,466.3733],[27.7048,-32.6845,472.4708],[27.705,-32.6822,474.0012],[27.7102,-32.6793,478.9771],[27.7083,-32.6756,488.0869],[27.7062,-32.6777,477.1935],[27.7017,-32.6771,479.5869],[27.6962,-32.6706,498.986],[27.6952,-32.6712,498.9607],[27.6966,-32.6736,490.6192],[27.6944,-32.6751,510.5822],[27.6884,-32.6752,497.0237],[27.6805,-32.6723,503.4009],[27.684,-32.6679,517.3282],[27.6873,-32.6708,506.2255],[27.693,-32.6698,512.74],[27.6937,-32.6656,514.692],[27.6882,-32.667,516.2865],[27.6851,-32.6636,515.3266],[27.6864,-32.6621,519.1823],[27.6898,-32.6639,517.1807],[27.6914,-32.6574,520.642],[27.6853,-32.6557,527.5435],[27.6835,-32.6573,521.1485],[27.68,-32.6563,522.249],[27.6775,-32.6609,524.5575],[27.6663,-32.6627,532.0736],[27.6849,-32.6498,635.7795],[27.7039,-32.6292,755.7233],[27.7292,-32.6163,814.692],[27.7269,-32.5895,754.6317],[27.7346,-32.5746,652.6896],[27.7344,-32.5714,635.8369],[27.7303,-32.568,625.4675],[27.731,-32.5596,592.1703],[27.7288,-32.5595,563.5517],[27.7275,-32.5573,550.6251],[27.7312,-32.5524,536.3437],[27.742,-32.5524,532.0852],[27.7483,-32.5551,508.804],[27.75,-32.5541,516.587],[27.7496,-32.5524,503.3929],[27.7353,-32.5404,536.845],[27.7356,-32.5341,539.3698],[27.7285,-32.5309,468.9151],[27.7326,-32.521,454.9002],[27.7323,-32.5158,467.4716],[27.7296,-32.5112,447.8022],[27.7328,-32.5055,443.8535],[27.7316,-32.5001,441.6417],[27.736,-32.5004,486.4363],[27.7402,-32.5048,435.1291],[27.7426,-32.5145,421.7558],[27.7515,-32.5141,419.0815],[27.7578,-32.5161,413.7232],[27.7615,-32.5092,435.0016],[27.7642,-32.5082,410.6281],[27.7702,-32.5182,466.5961],[27.7772,-32.5198,394.892],[27.7896,-32.5277,405.7518],[27.7907,-32.5241,390.2941],[27.7891,-32.5151,385.2797],[27.7909,-32.5039,415.6696],[27.7698,-32.4934,421.165],[27.765,-32.4848,361.3206],[27.7668,-32.4817,356.006],[27.7802,-32.4721,356.8811],[27.7866,-32.4693,365.7485],[27.79,-32.4736,353.7224],[27.7876,-32.4869,370.2344],[27.7891,-32.4895,331.0809],[27.7939,-32.4912,329.2719],[27.7972,-32.4901,325.3229],[27.8106,-32.4912,318.0762],[27.8149,-32.49,315.6087],[27.823,-32.4959,312.9497],[27.8262,-32.494,308.1957],[27.8273,-32.4913,305.6958],[27.8192,-32.4795,304.7999],[27.8189,-32.4751,303.0269],[27.8208,-32.4719,314.9957],[27.8418,-32.4761,287.8408],[27.8563,-32.4703,276.3467],[27.8587,-32.4723,292.9395],[27.8577,-32.4805,285.9937],[27.8646,-32.4831,274.018],[27.8748,-32.5027,261.8238],[27.8799,-32.5037,240.1805],[27.8836,-32.5004,236.342],[27.8845,-32.4961,237.3945],[27.8761,-32.4774,257.0918],[27.8807,-32.473,217.2687],[27.8853,-32.4711,225.5447],[27.893,-32.46,203.5883],[27.894,-32.4562,198.0905],[27.8878,-32.4516,195.8067],[27.8885,-32.4445,242.4919],[27.9121,-32.4375,249.66309999999999],[27.915,-32.4381,201.1639],[27.9201,-32.4425,205.8603],[27.9244,-32.4419,208.8235],[27.9264,-32.4399,208.0212],[27.9229,-32.4323,217.1482],[27.9171,-32.4266,242.7516],[27.9139,-32.4156,216.9225],[27.9072,-32.4055,216.2681],[27.8964,-32.3951,219.1318],[27.8877,-32.3911,222.1656],[27.8827,-32.3834,223.464],[27.8783,-32.3811,250.1545],[27.8676,-32.3793,261.1214],[27.8638,-32.3806,248.4075],[27.8581,-32.3871,270.2252],[27.8551,-32.4,244.6602],[27.8613,-32.4084,267.6424],[27.8612,-32.4127,244.1878],[27.8595,-32.4141,236.2222],[27.8528,-32.4066,263.4331],[27.8409,-32.4093,240.2948],[27.8322,-32.4067,248.4939],[27.8266,-32.3985,244.5658],[27.8292,-32.3913,249.7133],[27.8137,-32.3814,257.2141],[27.799,-32.3798,303.055],[27.7831,-32.3741,271.2317],[27.7703,-32.3763,267.6567],[27.7659,-32.38,278.0329],[27.7662,-32.3856,272.1207],[27.7682,-32.3891,284.8027],[27.7768,-32.3965,280.216],[27.7888,-32.3986,283.8377],[27.8006,-32.3969,281.5517],[27.8067,-32.3976,347.5616],[27.8123,-32.402,281.6182],[27.8146,-32.4067,285.8811],[27.8137,-32.4089,311.774],[27.8111,-32.4096,297.8054],[27.7993,-32.4037,330.5163],[27.7964,-32.4037,338.8171],[27.7899,-32.4081,294.4816],[27.7863,-32.4148,304.0023],[27.7743,-32.4188,301.7162],[27.7669,-32.4189,305.83],[27.7593,-32.4137,311.3043],[27.7556,-32.409,307.4647],[27.7512,-32.3993,312.7281],[27.7346,-32.3777,331.2535],[27.7299,-32.367,349.2723],[27.7155,-32.363,436.6287],[27.7115,-32.3605,328.1004],[27.7108,-32.357,341.4176],[27.7163,-32.3497,332.8298],[27.7202,-32.3388,339.3233],[27.7308,-32.3383,342.6007],[27.7472,-32.3478,352.067],[27.7505,-32.3481,379.9916],[27.7585,-32.3432,398.4454],[27.7598,-32.3382,358.5117],[27.7588,-32.332,356.5183],[27.7655,-32.3275,559.9933],[27.7692,-32.3283,441.5258],[27.7677,-32.3191,470.119],[27.7783,-32.3175,436.4525],[27.7814,-32.3149,460.4265],[27.7824,-32.3098,444.5977],[27.7796,-32.3073,456.6305],[27.7738,-32.3058,483.1884],[27.7687,-32.3091,459.7756],[27.7649,-32.3086,465.2359],[27.7682,-32.2988,483.4485],[27.7631,-32.2844,480.7534],[27.7642,-32.2796,504.5304],[27.7672,-32.2763,494.1373],[27.7818,-32.2755,502.9095],[27.7864,-32.2725,498.3855],[27.7816,-32.2705,501.4474],[27.7679,-32.2699,559.6804],[27.7643,-32.2656,512.6638],[27.764,-32.2607,531.9777],[27.765,-32.2588,519.4097],[27.7803,-32.2537,520.4163],[27.7846,-32.2505,522.3163],[27.7859,-32.2463,522.419],[27.7835,-32.2409,552.424],[27.7717,-32.2368,546.3465],[27.7696,-32.2307,541.2114],[27.7579,-32.2309,670.1559],[27.7474,-32.235,788.6886],[27.7345,-32.2321,882.8728],[27.7088,-32.2324,967.8822],[27.6901,-32.2199,977.7588],[27.6813,-32.2036,976.1169],[27.686,-32.1984,985.0762],[27.6888,-32.1921,980.5614],[27.6935,-32.1881,991.5522],[27.6933,-32.1829,995.5432],[27.6815,-32.1635,1040.1492],[27.6883,-32.1537,1094.3396],[27.6985,-32.1534,1150.3656],[27.7037,-32.1497,1164.6332],[27.7084,-32.1438,1158.7328],[27.7057,-32.1343,1116.5468],[27.7014,-32.1318,1102.1567],[27.6943,-32.1323,1102.2808],[27.6865,-32.122,1060.9009],[27.6835,-32.1215,1061.5825],[27.6814,-32.118,1054.98],[27.6684,-32.1183,1086.3264],[27.6619,-32.1116,1049.8182],[27.6537,-32.1157,1060.9404],[27.6423,-32.1127,1122.8979],[27.6385,-32.1096,1132.0662],[27.6337,-32.1009,1157.3],[27.6303,-32.0993,1167.9983],[27.6324,-32.1003,1163.1826],[27.6318,-32.1019,1131.8535],[27.6245,-32.1001,1135.7448],[27.6204,-32.1009,1130.8174],[27.6174,-32.0967,1188.2905],[27.6017,-32.0944,1139.4945],[27.5928,-32.1036,1107.1344],[27.5817,-32.1002,1093.0359],[27.5716,-32.1032,1138.584],[27.567,-32.103,1116.2316],[27.5668,-32.1136,1007.3732],[27.5705,-32.1169,1030.3002],[27.5687,-32.1224,1130.6879],[27.5744,-32.1251,1131.4868],[27.5726,-32.1273,1060.9015],[27.5652,-32.1296,890.8354],[27.556,-32.1287,826.5731],[27.5542,-32.1323,807.1379],[27.5483,-32.1326,777.5383],[27.5464,-32.1362,770.4023],[27.5425,-32.1366,752.6522],[27.5403,-32.1413,740.276],[27.5432,-32.1465,727.8102],[27.5429,-32.1497,766.0084],[27.5462,-32.1495,738.0963],[27.5456,-32.1517,741.2758],[27.5482,-32.1507,711.1907],[27.5484,-32.1521,703.7632],[27.5517,-32.1526,696.4543],[27.5532,-32.1554,684.1578],[27.5557,-32.1555,660.4435],[27.5534,-32.1593,649.0239],[27.5554,-32.1615,659.4366],[27.5608,-32.163,627.4329],[27.5642,-32.1711,612.2247],[27.5629,-32.1739,607.2972],[27.5662,-32.1759,600.5712],[27.5626,-32.1778,597.0689],[27.5605,-32.1754,611.7285],[27.5567,-32.1812,581.6156],[27.5546,-32.1817,579.1133],[27.5546,-32.1847,581.0217],[27.552,-32.1856,680.7463],[27.5578,-32.1867,549.6745],[27.5582,-32.1896,569.462],[27.5634,-32.1946,502.5791],[27.5642,-32.2062,505.1165],[27.5599,-32.2077,507.968],[27.5507,-32.1998,510.1169],[27.5423,-32.1974,536.0959],[27.5351,-32.1975,527.2677],[27.5206,-32.203,522.8237],[27.5193,-32.2114,518.2177],[27.5276,-32.2228,556.5833],[27.5289,-32.2294,524.119],[27.5273,-32.2348,535.9821],[27.5233,-32.2376,527.537],[27.5142,-32.2376,531.5812],[27.5096,-32.2354,532.0371],[27.5079,-32.2308,552.2115],[27.5063,-32.2346,679.0702],[27.4858,-32.2526,877.9434],[27.4925,-32.2648,830.025],[27.4855,-32.2793,1111.2563],[27.4901,-32.2903,1105.873],[27.4921,-32.3066,1237.9126],[27.4747,-32.3263,1231.8865],[27.4609,-32.3343,1245.2295],[27.4413,-32.3344,1033.0742],[27.4492,-32.3408,1067.3124],[27.4519,-32.3486,1102.623],[27.4513,-32.3522,1123.0669],[27.4411,-32.3588,1281.634],[27.4315,-32.3563,1231.6061],[27.4138,-32.3384,1084.1692],[27.411,-32.3549,1029.9792],[27.3869,-32.3588,1171.6931],[27.3662,-32.3511,1005.4437],[27.3706,-32.3401,1074.4117],[27.3656,-32.3305,1037.7898],[27.3478,-32.3117,891.8034],[27.3365,-32.3206,917.422],[27.3331,-32.3125,788.2915],[27.3327,-32.3143,795.8979],[27.3294,-32.316,792.8205],[27.3242,-32.3154,797.699],[27.3225,-32.3129,804.8295],[27.3249,-32.3098,808.6465],[27.3197,-32.3006,1042.97],[27.3042,-32.2953,1258.3907],[27.3049,-32.2922,1310.5616],[27.3025,-32.2885,1356.8195],[27.2925,-32.2893,1318.7881],[27.2742,-32.2698,1227.7566],[27.261,-32.2762,1261.7987],[27.2436,-32.2819,1262.7938],[27.2059,-32.2661,1221.222],[27.1984,-32.2494,1353.3374],[27.1844,-32.2528,1247.8982],[27.1851,-32.2511,1237.8491],[27.1806,-32.2331,1224.9918],[27.1643,-32.2308,1226.4517],[27.1607,-32.2385,1272.1594],[27.1199,-32.2389,1059.9373],[27.1195,-32.2375,1063.7328],[27.1243,-32.2287,1028.1088],[27.0916,-32.2209,950.6384],[27.0721,-32.2281,971.1704],[27.0675,-32.2275,981.7332],[27.0618,-32.2292,981.3998],[27.0572,-32.2331,1001.7443],[27.0541,-32.2325,992.2523],[27.0513,-32.2354,1001.4716],[27.0493,-32.2197,1129.4849],[27.0109,-32.2225,1337.8364],[26.9795,-32.2064,1373.105],[26.9704,-32.193,1168.8875],[26.9654,-32.1916,1162.5471],[26.9634,-32.194,1194.687],[26.9627,-32.1994,1180.973],[26.9581,-32.2039,1200.7365],[26.9595,-32.2052,1205.7712],[26.9336,-32.2266,1243.9543],[26.9251,-32.2388,1300.2069],[26.9002,-32.2514,1402.1152],[26.893,-32.2716,1420.4365],[26.8694,-32.2696,1417.6433],[26.8566,-32.2595,1118.8373],[26.8541,-32.251,1100.4186],[26.8511,-32.2469,1102.8911],[26.8448,-32.247,1112.1992],[26.8423,-32.2498,1138.9822],[26.8437,-32.2633,1120.6753],[26.8461,-32.265,1120.8096],[26.8482,-32.2617,1160.3079],[26.8498,-32.2617,1123.3811],[26.8511,-32.2665,1125.9067],[26.848,-32.2668,1144.7637],[26.8449,-32.2704,1169.1931],[26.8397,-32.2718,1224.7275],[26.8327,-32.2715,1276.203],[26.8299,-32.2886,1596.2089],[26.8121,-32.2958,1415.9491],[26.812,-32.3091,1543.3413],[26.8283,-32.3204,1287.5143],[26.8282,-32.3228,1281.3719],[26.8306,-32.3237,1277.3103],[26.8139,-32.3306,1316.343],[26.8112,-32.3362,1316.3511],[26.8073,-32.3335,1321.7465],[26.8026,-32.3358,1329.4473],[26.8012,-32.3382,1331.8298],[26.7937,-32.34,1341.0182],[26.7854,-32.335,1355.4906],[26.7825,-32.3356,1365.087],[26.7758,-32.3333,1378.4246],[26.7936,-32.3574,1562.0515],[26.8037,-32.3554,1556.7423],[26.8044,-32.3692,1664.7207],[26.8009,-32.3725,1646.9388],[26.8158,-32.3862,1507.4114],[26.8134,-32.3928,1419.418],[26.8168,-32.3937,1418.6879],[26.8202,-32.3995,1408.8059],[26.8247,-32.398,1411.1409],[26.8257,-32.4003,1408.7631],[26.8362,-32.4064,1575.2905],[26.8324,-32.4203,1574.6816],[26.8343,-32.439,1614.5189],[26.8158,-32.4408,1652.8699],[26.8056,-32.4536,1637.8115],[26.8652,-32.5116,1927.4652],[26.9506,-32.5478,1952.9976],[26.9545,-32.5468,1923.0048],[26.9666,-32.5508,1555.7783],[26.9841,-32.5378,1392.1626],[26.9828,-32.5335,1388.6588],[26.9848,-32.5278,1395.8879],[26.9778,-32.5231,1389.2485],[26.9743,-32.5184,1385.616],[26.9707,-32.52,1385.8145],[26.9678,-32.5186,1385.1683],[26.9738,-32.5057,1720.7275],[26.9777,-32.501,1703.9977],[27.0171,-32.5112,1654.9137],[27.0449,-32.51,1535.1169],[27.0466,-32.52,1471.4766],[27.0423,-32.5178,1459.9883],[27.037,-32.5245,1452.3439],[27.0334,-32.5249,1464.7134],[27.0324,-32.5272,1444.7249],[27.0585,-32.5463,1698.1548],[27.0728,-32.5594,1794.5398],[27.0525,-32.5654,1592.5879],[27.0364,-32.5663,1593.5229],[27.0266,-32.586,1613.7117],[27.0246,-32.5943,1832.9022],[27.0045,-32.6051,1776.4349],[27.0092,-32.6093,1639.335],[27.0056,-32.6128,1712.1042],[27.0004,-32.6132,1818.1578],[26.9977,-32.6169,1774.1587],[27.0094,-32.6262,1393.4011],[27.0178,-32.647,1407.3713],[27.0169,-32.6564,1234.3398],[27.0189,-32.6686,1105.0475],[27.0216,-32.6719,1043.8645],[27.021,-32.6816,1038.9917],[27.0267,-32.6824,1004.9843],[27.0373,-32.693,1086.6099],[27.0423,-32.6934,1095.9209],[27.0478,-32.6976,1087.1106],[27.0551,-32.711,1098.2041],[27.0581,-32.7113,1086.323],[27.0511,-32.7143,969.165],[27.0474,-32.7189,866.3152],[27.0428,-32.7202,839.8654],[27.0337,-32.7221,810.4242],[27.0233,-32.7208,696.5939],[27.0216,-32.7246,568.8298],[27.0178,-32.7261,585.5375],[27.014,-32.7309,502.2699],[27.0175,-32.7314,486.0233],[27.0183,-32.7331,518.0216],[27.0217,-32.7303,480.7824],[27.0238,-32.7307,479.8007],[27.0214,-32.7333,469.473],[27.017,-32.7465,490.9484],[27.0176,-32.7506,459.6919],[27.0218,-32.7576,460.0274],[27.0214,-32.7626,452.8477],[27.0231,-32.7649,450.7586],[27.0205,-32.7694,450.4272],[27.0217,-32.7734,454.4258],[27.0168,-32.7794,448.1075],[27.0173,-32.7833,445.161],[27.019,-32.784,445.161],[27.0172,-32.7851,446.128],[27.0548,-32.7852,609.8494],[27.0865,-32.8057,811.1753],[27.0598,-32.8211,590.4822],[27.0481,-32.8317,660.1951],[27.0464,-32.8372,588.7462],[27.0559,-32.8385,573.9533],[27.0587,-32.8362,589.0223],[27.0653,-32.8376,581.222],[27.0759,-32.8371,537.384],[27.0843,-32.8404,537.9076],[27.0975,-32.842,545.4727],[27.1122,-32.8388,567.8051],[27.1578,-32.8385,620.8601],[27.1588,-32.832,612.5319],[27.1618,-32.8323,621.6237],[27.1625,-32.8285,658.2374],[27.1773,-32.8174,715.162],[27.1771,-32.8154,686.3218],[27.1682,-32.8117,690.1044],[27.1695,-32.8092,671.9905],[27.172,-32.8115,648.1177],[27.178,-32.8127,631.2866],[27.1777,-32.811,648.4636],[27.1819,-32.808,634.9234],[27.182,-32.8053,655.4408],[27.1846,-32.8041,643.4688],[27.1851,-32.7997,690.7665],[27.1902,-32.798,643.5264],[27.1889,-32.7974,662.8333],[27.2154,-32.7926,664.9045],[27.219,-32.7835,679.0919],[27.2127,-32.7654,993.9542],[27.2344,-32.7599,1183.3882],[27.2407,-32.7536,1249.6532],[27.2414,-32.745,1185.7395],[27.2342,-32.7295,1280.9745],[27.2306,-32.7174,1331.5986],[27.232,-32.7145,1341.1158],[27.2596,-32.6896,1219.5898],[27.275,-32.6843,1054.3672],[27.2872,-32.6849,1048.9395],[27.2889,-32.6838,1018.7157]]]]}
,"properties": {"GID_3": "ZAF.1.2.1_1","GID_0": "ZAF","country": "SouthAfrica","GID_1": "ZAF.1_1","province": "EasternCape","NL_NAME_1": "NA","GID_2": "ZAF.1.2_1","county": "Amathole","NL_NAME_2": "NA","city": "Amahlathi","VARNAME_3": "NA","NL_NAME_3": "NA","TYPE_3": "LocalMunicipality","ENGTYPE_3": "LocalMunicipality","CC_3": "EC124","HASC_3": "NA","name": "Amahlathi.city","area_km2": 4823.021,"hist_schema_id": "Elevation0-9000","hist_area_km2": {"200": 0.662,"225": 2.864,"250": 4.636,"275": 6.193,"300": 7.964,"325": 10.195,"350": 12.35,"375": 18.454,"400": 28.527,"425": 45.112,"450": 56.362,"475": 64.465,"500": 67.854,"525": 83.005,"550": 96.9,"575": 117.613,"600": 123.453,"625": 125.461,"650": 125.84,"675": 125.905,"700": 131.097,"725": 155.676,"750": 146.703,"775": 151.823,"800": 165.304,"825": 169.174,"850": 163.282,"875": 147.366,"900": 120.884,"925": 93.376,"950": 80.94,"975": 81.345,"1000": 84.389,"1025": 94.326,"1050": 100.167,"1075": 104.662,"1100": 100.494,"1125": 99.144,"1150": 101.611,"1175": 102.035,"1200": 95.925,"1225": 88.014,"1250": 85.955,"1275": 85.277,"1300": 86.958,"1325": 93.009,"1350": 99.588,"1375": 98.153,"1400": 97.625,"1425": 90.931,"1450": 80.959,"1475": 69.307,"1500": 57.516,"1525": 44.037,"1550": 32.493,"1575": 22.758,"1600": 17.013,"1625": 11.985,"1650": 8.048,"1675": 6.618,"1700": 5.794,"1725": 4.65,"1750": 3.827,"1775": 2.825,"1800": 2.789,"1825": 2.342,"1850": 2.342,"1875": 1.556,"1900": 1.52,"1925": 2.02,"1950": 2.396,"1975": 0.823,"2000": 0.34}}}