{"type":"Feature","properties":{"GID_3":"ZAF.4.11.3_1","GID_0":"ZAF","country":"SouthAfrica","GID_1":"ZAF.4_1","province":"KwaZulu-Natal","NL_NAME_1":"NA","GID_2":"ZAF.4.11_1","county":"Zululand","NL_NAME_2":"NA","city":"Nongoma","VARNAME_3":"NA","NL_NAME_3":"NA","TYPE_3":"LocalMunicipality","ENGTYPE_3":"LocalMunicipality","CC_3":"KZN265","HASC_3":"NA","name":"Nongoma.city"},
"geometry":{"type": "MultiPolygon","coordinates": [[[[31.8091,-28.1033,171.1496],[31.8197,-28.0911,184.8107],[31.8151,-28.0874,185.301],[31.8218,-28.0766,203.7692],[31.8231,-28.0701,222.8907],[31.8209,-28.0656,233.2609],[31.8262,-28.0656,238.3319],[31.8192,-28.038,249.6373],[31.8291,-28.03,289.2048],[31.8495,-28.0262,553.1331],[31.8744,-28.0369,481.0212],[31.8797,-28.0322,449.7159],[31.8867,-28.0295,438.6251],[31.8928,-28.036,376.6015],[31.8964,-28.0366,369.1797],[31.8981,-28.0355,363.6781],[31.8972,-28.0326,378.2382],[31.9002,-28.0324,342.1006],[31.9008,-28.031,345.2195],[31.9046,-28.0314,334.1932],[31.9047,-28.0266,311.6285],[31.9092,-28.025,297.7186],[31.912,-28.0277,287.1294],[31.916,-28.0264,289.8809],[31.921,-28.0277,340.4414],[31.9228,-28.0354,304.3414],[31.9296,-28.0343,318.9362],[31.926,-28.0382,290.6395],[31.9263,-28.0397,319.2293],[31.9395,-28.0483,251.9666],[31.9449,-28.0492,246.328],[31.9439,-28.0456,251.2625],[31.9421,-28.0458,250.3408],[31.9415,-28.0385,258.428],[31.939,-28.0389,257.4618],[31.9401,-28.0348,258.3374],[31.9454,-28.0324,263.4909],[31.9461,-28.0278,275.3735],[31.9441,-28.0258,273.4068],[31.9465,-28.0251,273.8119],[31.9468,-28.0184,276.6835],[31.9494,-28.0166,277.8444],[31.9472,-28.0161,282.3801],[31.9482,-28.0133,286.7767],[31.9442,-28.0103,299.1976],[31.9465,-28.0091,293.2849],[31.9466,-28.0059,294.7112],[31.9485,-28.0061,294.9448],[31.9483,-28.0038,294.951],[31.951,-28.0008,298.5204],[31.9457,-27.9997,307.4194],[31.9429,-27.996,345.271],[31.9438,-27.9937,335.7927],[31.9398,-27.9879,357.5969],[31.937,-27.9762,416.9435],[31.94,-27.9701,416.5114],[31.948,-27.9667,513.2903],[31.9472,-27.9641,552.4195],[31.9526,-27.9582,514.4257],[31.9527,-27.9503,470.0131],[31.9564,-27.9432,433.8416],[31.9543,-27.9371,401.2273],[31.9613,-27.9314,389.1495],[31.9655,-27.9309,380.0894],[31.969,-27.931,374.6096],[31.9781,-27.9367,357.0893],[31.9803,-27.9367,354.3892],[31.9848,-27.9314,346.0004],[31.9848,-27.9284,336.326],[31.991,-27.9258,336.2212],[31.9935,-27.9282,325.0463],[31.993,-27.9311,321.8231],[32.0004,-27.9337,313.1783],[32.0023,-27.9318,310.838],[32.0029,-27.9328,310.838],[32.0061,-27.9306,311.5593],[32.0081,-27.9314,306.5182],[32.0112,-27.93,308.5169],[32.0152,-27.9314,298.3456],[32.0228,-27.9301,288.1388],[32.0234,-27.9329,289.1147],[32.0257,-27.9328,285.0623],[32.0246,-27.931,282.8658],[32.0319,-27.9286,287.5191],[31.9962,-27.8853,664.5643],[31.9516,-27.6191,135.0509],[31.9437,-27.6173,137.8375],[31.9388,-27.6051,142.3633],[31.9325,-27.6026,172.6016],[31.9256,-27.6073,150.416],[31.9179,-27.616,206.8965],[31.9164,-27.6266,151.2883],[31.9111,-27.6308,157.1808],[31.9059,-27.6267,184.3401],[31.9071,-27.6186,173.8221],[31.9059,-27.6153,160.5748],[31.9025,-27.6149,165.0117],[31.8966,-27.6202,181.9068],[31.8926,-27.6196,191.1501],[31.8852,-27.6096,170.4843],[31.8793,-27.6135,177.2811],[31.8777,-27.6223,205.0761],[31.8737,-27.6249,192.1728],[31.867,-27.6239,196.7747],[31.8563,-27.6171,188.0475],[31.846,-27.6248,190.2537],[31.8351,-27.6268,186.8981],[31.8338,-27.6314,189.1102],[31.8384,-27.6384,200.4544],[31.8382,-27.6407,198.3065],[31.827,-27.6447,203.6936],[31.8209,-27.6441,194.5643],[31.8142,-27.639,202.7614],[31.8134,-27.6325,216.2145],[31.8148,-27.6244,202.0061],[31.8182,-27.6191,208.648],[31.8286,-27.6172,205.3519],[31.8332,-27.614,212.4523],[31.8358,-27.6084,208.7667],[31.8367,-27.597,211.8824],[31.8304,-27.5858,220.2986],[31.8215,-27.5796,215.7837],[31.8185,-27.5812,216.4867],[31.8168,-27.5902,219.293],[31.8234,-27.6011,223.4427],[31.8236,-27.6058,225.6687],[31.8209,-27.6097,239.7725],[31.8143,-27.6108,229.5866],[31.8093,-27.6009,227.6832],[31.8016,-27.5938,235.4654],[31.7948,-27.5977,239.6973],[31.7907,-27.6061,235.7049],[31.7841,-27.6084,234.6639],[31.7791,-27.6124,238.8953],[31.7819,-27.6182,240.8301],[31.7854,-27.6196,247.6623],[31.7901,-27.6182,245.499],[31.7903,-27.6119,241.0324],[31.7955,-27.6124,243.4043],[31.803,-27.6174,243.2588],[31.8063,-27.6227,283.6544],[31.7933,-27.6318,254.1608],[31.7862,-27.6312,248.3038],[31.7804,-27.6267,253.9402],[31.775,-27.6285,249.3463],[31.7759,-27.636,254.5347],[31.7654,-27.651,260.5873],[31.769,-27.6577,259.6349],[31.7787,-27.6651,266.1541],[31.7683,-27.6733,282.7118],[31.7761,-27.6786,270.2569],[31.7666,-27.6824,275.4574],[31.7708,-27.6869,299.0262],[31.7649,-27.6921,279.7126],[31.7695,-27.6964,286.7864],[31.7699,-27.7031,286.8961],[31.7598,-27.7058,310.0025],[31.76,-27.7076,315.8033],[31.7651,-27.7107,300.7867],[31.7649,-27.7221,308.9184],[31.7569,-27.7201,303.6272],[31.7572,-27.7154,310.0686],[31.7517,-27.7115,310.6746],[31.7471,-27.7116,313.799],[31.7451,-27.7065,317.1167],[31.7479,-27.703,327.0263],[31.741,-27.7023,323.9853],[31.7333,-27.7068,341.4335],[31.7367,-27.7102,333.8914],[31.7345,-27.7195,340.5236],[31.7323,-27.7219,340.8865],[31.7277,-27.722,337.7585],[31.7271,-27.7299,345.796],[31.7208,-27.7357,348.9431],[31.7158,-27.7372,350.6685],[31.7056,-27.7365,364.4594],[31.6968,-27.7412,370.3552],[31.6957,-27.743,378.2211],[31.6972,-27.746,373.7759],[31.6757,-27.7463,392.548],[31.6674,-27.7561,403.2592],[31.6588,-27.7614,429.7817],[31.6546,-27.7562,431.5795],[31.6522,-27.7484,426.2941],[31.6498,-27.7533,447.6758],[31.6332,-27.7675,444.2719],[31.633,-27.7741,463.2431],[31.6278,-27.7785,459.4548],[31.6243,-27.7773,460.4567],[31.6233,-27.7742,465.7246],[31.6251,-27.771,492.9511],[31.6223,-27.7696,467.8885],[31.6165,-27.7695,475.1495],[31.6097,-27.7734,477.3228],[31.6015,-27.7748,496.9141],[31.5884,-27.7741,521.6872],[31.5865,-27.7776,507.6733],[31.5917,-27.7816,514.0159],[31.5899,-27.7841,516.7021],[31.5881,-27.7841,523.7011],[31.5889,-27.7868,523.7469],[31.5834,-27.7864,530.7344],[31.5812,-27.7833,531.9689],[31.5644,-27.7971,554.3998],[31.5609,-27.7969,556.3957],[31.5567,-27.7938,568.4247],[31.5518,-27.796,587.5631],[31.5499,-27.7993,590.3202],[31.546,-27.7995,602.1093],[31.5451,-27.8056,603.546],[31.5462,-27.8134,617.4175],[31.5422,-27.8175,635.2045],[31.5427,-27.8198,670.4819],[31.539,-27.8249,676.8033],[31.538,-27.831,709.8486],[31.535,-27.8329,708.3599],[31.5167,-27.8339,779.4352],[31.5114,-27.8382,847.414],[31.5118,-27.8397,851.8321],[31.4889,-27.8577,617.8488],[31.487,-27.8682,541.0455],[31.4834,-27.8692,544.0308],[31.4855,-27.8712,529.6335],[31.4883,-27.8702,526.178],[31.4864,-27.873,550.1725],[31.4887,-27.8745,544.8313],[31.4856,-27.8805,511.0118],[31.4869,-27.8828,503.51],[31.4847,-27.8835,497.8684],[31.4868,-27.8866,506.7171],[31.4829,-27.8889,489.7424],[31.4798,-27.8881,500.6898],[31.4796,-27.8912,491.3087],[31.475,-27.8935,479.1743],[31.4754,-27.896,474.5538],[31.4718,-27.8968,491.571],[31.4735,-27.8988,468.3826],[31.4706,-27.9033,468.7487],[31.4769,-27.9045,470.9438],[31.4756,-27.9071,454.2599],[31.4772,-27.9082,450.0938],[31.4751,-27.9114,445.1553],[31.4766,-27.9128,441.399],[31.4781,-27.9098,441.7906],[31.4831,-27.9066,438.5743],[31.4864,-27.9077,434.9746],[31.4872,-27.9143,422.9356],[31.4885,-27.9113,422.7558],[31.4935,-27.9119,416.3594],[31.49,-27.9195,411.6062],[31.4906,-27.9231,424.0149],[31.4944,-27.9258,409.7341],[31.4901,-27.9309,406.6715],[31.492,-27.934,401.1027],[31.4957,-27.9309,398.4716],[31.4981,-27.9308,398.4483],[31.5025,-27.9349,389.3511],[31.505,-27.9342,386.3994],[31.5023,-27.9403,381.2803],[31.5045,-27.9424,374.5261],[31.5019,-27.9428,377.372],[31.5024,-27.9465,369.093],[31.5,-27.9487,367.7406],[31.4951,-27.9496,368.3306],[31.49,-27.9479,362.1614],[31.4905,-27.9568,339.9318],[31.4868,-27.9619,333.621],[31.4778,-27.965,310.5184],[31.4754,-27.9751,305.6274],[31.4763,-27.9762,305.4609],[31.485,-27.974,316.7855],[31.4855,-27.9765,306.241],[31.4797,-27.9801,314.6888],[31.4836,-27.9828,303.683],[31.4862,-27.9926,296.0282],[31.4917,-27.9947,300.1886],[31.4964,-27.9893,301.0251],[31.4995,-27.9901,290.9917],[31.4999,-27.9918,288.9383],[31.4977,-27.9925,290.9244],[31.496,-27.9964,314.2325],[31.5006,-28.0014,303.735],[31.5049,-28.0015,284.6139],[31.5047,-28.005,283.7265],[31.5017,-28.0062,286.2987],[31.5009,-28.0088,287.0163],[31.4795,-28.0149,593.1331],[31.466,-28.0251,570.8704],[31.4562,-28.0241,653.0628],[31.4625,-28.0271,549.2087],[31.465,-28.0301,439.3767],[31.4738,-28.0326,365.8824],[31.4778,-28.0374,336.5449],[31.4866,-28.0366,303.8181],[31.4892,-28.0387,303.161],[31.4885,-28.0433,294.7816],[31.4952,-28.0455,276.3589],[31.4959,-28.0441,298.4858],[31.4968,-28.0457,276.3589],[31.4959,-28.0548,281.4507],[31.4993,-28.0765,467.3557],[31.5032,-28.0883,352.1224],[31.5013,-28.0954,388.463],[31.4996,-28.1183,341.2516],[31.5044,-28.1275,303.8505],[31.51,-28.1301,277.6651],[31.5063,-28.1374,274.3066],[31.5079,-28.1386,271.1723],[31.5117,-28.1389,268.4981],[31.5175,-28.1339,266.5369],[31.5234,-28.1392,263.1816],[31.5257,-28.1382,268.0104],[31.5266,-28.1348,257.6332],[31.5223,-28.1345,257.9442],[31.5218,-28.1325,256.5358],[31.5219,-28.1306,258.2226],[31.5252,-28.1296,255.6021],[31.5309,-28.133,253.6843],[31.5579,-28.143,530.1067],[31.5615,-28.1203,314.5585],[31.586,-28.0984,209.7469],[31.5878,-28.0996,226.0121],[31.5865,-28.1127,211.6352],[31.5956,-28.1155,203.4382],[31.6012,-28.1247,225.7161],[31.6066,-28.1247,211.9854],[31.6139,-28.1163,199.5949],[31.6175,-28.1146,200.6212],[31.6205,-28.1153,261.9235],[31.6211,-28.1259,199.8882],[31.6149,-28.1388,193.3969],[31.6151,-28.1423,192.4594],[31.6196,-28.1449,193.399],[31.6279,-28.144,190.7661],[31.6339,-28.1459,187.1365],[31.6406,-28.1439,189.5299],[31.6427,-28.1451,187.5125],[31.6452,-28.15,186.0903],[31.6457,-28.1641,182.3363],[31.6485,-28.17,183.8577],[31.6436,-28.1789,178.0145],[31.6454,-28.1861,176.2356],[31.6375,-28.1935,174.5361],[31.6382,-28.198,176.8923],[31.6299,-28.2031,176.7007],[31.6299,-28.2089,180.7095],[31.6329,-28.2114,175.5035],[31.6434,-28.2027,174.3168],[31.6503,-28.2071,168.7454],[31.6558,-28.2079,190.8563],[31.6591,-28.1992,170.881],[31.666,-28.1934,166.009],[31.6685,-28.1945,173.5134],[31.6698,-28.2015,163.7738],[31.674,-28.2025,179.1943],[31.6781,-28.1989,163.0952],[31.682,-28.1918,170.5846],[31.6756,-28.1825,158.316],[31.6742,-28.1763,164.6383],[31.6837,-28.1735,158.7765],[31.6924,-28.1682,154.5952],[31.6994,-28.1773,154.4333],[31.7028,-28.1924,149.066],[31.7051,-28.1922,156.0576],[31.7127,-28.1836,151.665],[31.7159,-28.1841,146.7805],[31.7185,-28.1893,149.2225],[31.7193,-28.1954,152.4161],[31.7158,-28.2036,146.2951],[31.7168,-28.2064,178.3869],[31.7225,-28.2074,141.4519],[31.7275,-28.2049,149.1681],[31.7307,-28.2013,138.6549],[31.7319,-28.194,138.2935],[31.734,-28.1908,142.1219],[31.7416,-28.1924,134.5619],[31.7423,-28.1972,133.5724],[31.7393,-28.2065,133.3587],[31.7332,-28.2113,142.8877],[31.731,-28.2161,143.5627],[31.7385,-28.2207,128.9408],[31.7398,-28.2307,128.7039],[31.7425,-28.2327,127.4972],[31.7474,-28.2322,125.0113],[31.7507,-28.2253,124.9525],[31.755,-28.2218,123.9147],[31.7711,-28.2173,133.0104],[31.778199999999998,-28.2064,119.0212],[31.7826,-28.2092,116.993],[31.7819,-28.215,116.5706],[31.786,-28.218,132.086],[31.7927,-28.2198,129.5251],[31.8088,-28.216,119.1879],[31.8131,-28.2196,134.513],[31.8161,-28.2145,124.2887],[31.8184,-28.2051,124.8065],[31.815,-28.2032,124.751],[31.8051,-28.2034,134.7447],[31.8008,-28.2001,127.6239],[31.7997,-28.1955,127.0571],[31.8056,-28.1929,139.2527],[31.8072,-28.1889,130.0141],[31.7942,-28.1807,135.5603],[31.7984,-28.177,135.4995],[31.7908,-28.1647,140.258],[31.7925,-28.1612,143.5323],[31.8016,-28.153199999999998,151.2885],[31.7948,-28.146,149.7585],[31.793,-28.1385,157.935],[31.7947,-28.137,155.2183],[31.7996,-28.1381,165.6255],[31.8034,-28.1365,156.04],[31.8043,-28.1318,156.3025],[31.8022,-28.1272,158.7633],[31.8025,-28.1213,163.8581],[31.8114,-28.1173,165.1927],[31.8144,-28.1125,201.5876],[31.8139,-28.1106,201.6195],[31.8068,-28.1091,168.0938],[31.8069,-28.1056,171.4026],[31.8091,-28.1033,171.1496]]]]}}