{"type":"Feature","properties":{"GID_3":"ZAF.1.5.4_1","GID_0":"ZAF","country":"SouthAfrica","GID_1":"ZAF.1_1","province":"EasternCape","NL_NAME_1":"NA","GID_2":"ZAF.1.5_1","county":"ChrisHani","NL_NAME_2":"NA","city":"IntsikaYethu","VARNAME_3":"NA","NL_NAME_3":"NA","TYPE_3":"LocalMunicipality","ENGTYPE_3":"LocalMunicipality","CC_3":"EC135","HASC_3":"NA","name":"Intsika_Yethu.city"},
"geometry":{"type": "MultiPolygon","coordinates": [[[[27.5687,-32.1224,1130.6879],[27.5705,-32.1169,1030.3002],[27.5668,-32.1136,1007.3732],[27.567,-32.103,1116.2316],[27.5716,-32.1032,1138.584],[27.5817,-32.1002,1093.0359],[27.5928,-32.1036,1107.1344],[27.6017,-32.0944,1139.4945],[27.6174,-32.0967,1188.2905],[27.6204,-32.1009,1130.8174],[27.6245,-32.1001,1135.7448],[27.6318,-32.102,1131.8535],[27.6324,-32.1003,1163.1826],[27.6303,-32.0993,1167.9983],[27.6322,-32.0998,1163.1826],[27.6385,-32.1096,1132.0662],[27.6423,-32.1127,1122.8979],[27.6537,-32.1157,1060.9404],[27.6619,-32.1116,1049.8182],[27.6684,-32.1183,1086.3264],[27.6814,-32.118,1054.98],[27.6835,-32.1215,1061.5825],[27.6865,-32.122,1060.9009],[27.6943,-32.1323,1102.2808],[27.7014,-32.1318,1102.1567],[27.7057,-32.1343,1116.5468],[27.7083,-32.1433,1158.7328],[27.7037,-32.1497,1164.6332],[27.6987,-32.1534,1150.3656],[27.6883,-32.1537,1094.3396],[27.6815,-32.1635,1040.1492],[27.6933,-32.1829,995.5432],[27.6935,-32.1881,991.5522],[27.6888,-32.1921,980.5614],[27.686,-32.1984,985.0762],[27.6813,-32.2036,976.1169],[27.6909,-32.2208,977.7588],[27.7079,-32.2323,965.0746],[27.7345,-32.2321,882.8728],[27.7474,-32.235,788.6886],[27.7579,-32.2309,670.1559],[27.7696,-32.2307,541.2114],[27.7683,-32.2275,563.4822],[27.7586,-32.2221,538.763],[27.758,-32.2161,543.9689],[27.759,-32.2122,581.4312],[27.7608,-32.2113,547.3345],[27.7707,-32.2153,552.8851],[27.7789,-32.2157,571.8978],[27.7848,-32.225,559.6519],[27.7964,-32.2274,558.0294],[27.7952,-32.2243,560.3593],[27.788,-32.2201,605.7504],[27.7877,-32.2169,573.5811],[27.7944,-32.2102,565.8611],[27.7949,-32.2069,572.6305],[27.7928,-32.2052,580.9559],[27.7947,-32.2003,572.1628],[27.8035,-32.1898,575.562],[27.8128,-32.183,582.2651],[27.8072,-32.1704,594.1339],[27.8005,-32.1634,609.1227],[27.8044,-32.1614,602.61],[27.8185,-32.1635,619.262],[27.8263,-32.1568,639.4095],[27.829,-32.1493,615.1116],[27.8279,-32.1425,733.7785],[27.8248,-32.1398,624.719],[27.8229,-32.14,624.0532],[27.8195,-32.1459,629.4252],[27.8165,-32.1472,633.113],[27.8031,-32.1409,642.1935],[27.7924,-32.1329,706.3804],[27.7873,-32.1327,663.4044],[27.7825,-32.1353,658.9911],[27.7788,-32.1334,655.1753],[27.7848,-32.1214,683.966],[27.7819,-32.1148,669.9549],[27.7752,-32.1095,676.1623],[27.7747,-32.1051,680.2409],[27.779,-32.1025,703.6003],[27.7888,-32.1045,695.6926],[27.7923,-32.1012,692.0957],[27.788,-32.0949,711.7513],[27.7923,-32.0894,711.1829],[27.7847,-32.0865,747.7172],[27.7815,-32.0832,730.5995],[27.7848,-32.0808,736.1916],[27.7918,-32.0796,748.9731],[27.8016,-32.0808,747.5485],[27.8093,-32.0794,758.6323],[27.8153,-32.0894,1040.5336],[27.8331,-32.0932,1069.6438],[27.8371,-32.1013,1052.4344],[27.837,-32.1051,1065.4219],[27.8413,-32.1114,1093.3367],[27.8289,-32.1182,1160.8965],[27.8497,-32.1268,1154.5474],[27.8569,-32.1328,1100.6245],[27.8628,-32.1324,1097.1184],[27.8646,-32.1306,1114.8364],[27.876,-32.1282,1110.0957],[27.8871,-32.1279,1089.9847],[27.8957,-32.1231,1137.8975],[27.8857,-32.1114,1077.0],[27.885,-32.1041,1017.3835],[27.8711,-32.0842,914.0819],[27.8649,-32.0814,906.5464],[27.8638,-32.0772,909.3101],[27.8661,-32.0753,912.1042],[27.8758,-32.0741,914.2118],[27.8783,-32.0711,924.6634],[27.8809,-32.072,918.1819],[27.8814,-32.0675,954.5627],[27.8869,-32.0584,1004.834],[27.8765,-32.0564,991.7838],[27.8813,-32.0535,1007.7454],[27.8832,-32.0502,1041.4147],[27.8891,-32.0498,1006.2043],[27.8962,-32.0584,995.7839],[27.9046,-32.0607,991.2338],[27.908,-32.0661,1008.377],[27.9135,-32.0665,1021.3156],[27.9287,-32.0747,1044.5675],[27.9342,-32.0735,1050.6304],[27.9502,-32.0819,1186.0944],[27.9665,-32.0627,1124.7787],[27.9997,-32.0405,1114.9872],[28.0071,-32.0389,1100.219],[28.01,-32.0364,1119.6863],[28.0084,-32.0199,1050.3102],[28.001,-32.0153,1035.5638],[27.9985,-32.0119,1094.99],[27.9897,-31.9913,1113.6293],[27.9833,-31.9843,1107.415],[27.9932,-31.959,1155.7904],[27.9922,-31.9563,1167.9333],[27.9934,-31.9553,1195.9631],[27.9935,-31.945,1217.6522],[27.9971,-31.9429,1155.303],[27.9996,-31.9385,1101.1862],[28.0055,-31.9405,1135.2194],[28.0102,-31.9398,1170.9258],[28.0093,-31.9333,1179.3463],[28.0039,-31.9264,1147.0667],[28.0036,-31.9211,1132.5076],[27.9974,-31.9068,1086.2993],[27.9975,-31.8951,1032.7278],[28.0037,-31.8946,1116.6683],[28.0064,-31.8925,1180.5405],[28.0118,-31.8855,1172.043],[28.0169,-31.8728,1182.1498],[28.0065,-31.87,1145.0786],[27.9982,-31.8601,1090.9644],[27.9821,-31.8589,965.4188],[27.9774,-31.8559,933.6435],[27.9566,-31.8493,898.7183],[27.9426,-31.843,847.1507],[27.9344,-31.8368,816.7209],[27.9173,-31.8325,865.8898],[27.9011,-31.8224,844.3568],[27.8784,-31.8141,825.6962],[27.8778,-31.8117,824.6296],[27.8793,-31.8108,824.7539],[27.8767,-31.8094,826.7443],[27.8769,-31.8057,825.9163],[27.8729,-31.8036,826.4712],[27.8709,-31.8,827.3896],[27.8689,-31.8001,828.2415],[27.868,-31.7971,829.5336],[27.8692,-31.7945,834.2169],[27.8656,-31.7929,830.4129],[27.8668,-31.7917,830.4129],[27.8618,-31.7856,830.0499],[27.8625,-31.7844,834.3907],[27.8593,-31.783,831.3182],[27.861,-31.78,855.4637],[27.8591,-31.7795,833.5681],[27.8592,-31.775,844.5667],[27.8574,-31.7737,839.7172],[27.8552,-31.7748,840.5128],[27.848,-31.7739,838.3097],[27.848,-31.7695,847.7032],[27.842,-31.7702,840.4338],[27.8428,-31.767,852.9992],[27.8402,-31.765,863.3812],[27.8412,-31.7612,862.2014],[27.8388,-31.7598,849.6166],[27.8378,-31.7559,856.7469],[27.841,-31.7537,857.5786],[27.8402,-31.7515,865.2332],[27.8421,-31.7509,850.3899],[27.8365,-31.7446,853.1182],[27.8324,-31.7503,852.3005],[27.83,-31.7505,857.4538],[27.8285,-31.7551,854.7831],[27.825,-31.7551,855.5004],[27.8195,-31.7581,856.1584],[27.8181,-31.7554,863.3729],[27.8162,-31.7557,856.7155],[27.812,-31.7512,868.0849],[27.8027,-31.7476,859.9767],[27.7999,-31.7435,859.6611],[27.8029,-31.7425,860.3251],[27.8007,-31.7415,860.2433],[27.8014,-31.7389,862.473],[27.7977,-31.7365,862.4462],[27.7973,-31.7341,863.8281],[27.7986,-31.7333,863.8281],[27.7972,-31.7315,864.6911],[27.8006,-31.7307,865.8541],[27.7963,-31.7276,871.9108],[27.7986,-31.7269,867.9722],[27.7989,-31.7253,869.1852],[27.7972,-31.7249,869.1852],[27.8003,-31.7223,872.0962],[27.7991,-31.721,873.8951],[27.801,-31.7165,875.2854],[27.7987,-31.7152,876.9231],[27.8009,-31.7118,881.9048],[27.7973,-31.7087,882.1035],[27.7993,-31.7073,886.1029],[27.7993,-31.7041,885.2331],[27.8016,-31.7037,895.8997],[27.8004,-31.7009,888.0302],[27.8016,-31.6978,903.5166],[27.7929,-31.6989,903.7831],[27.7893,-31.696,917.7599],[27.7904,-31.6928,933.7253],[27.7924,-31.6924,939.2646],[27.7911,-31.6881,950.5068],[27.7926,-31.6813,991.8118],[27.7789,-31.6749,1083.6586],[27.759,-31.6526,1618.8562],[27.7584,-31.6565,1488.0068],[27.7508,-31.6636,1611.9819],[27.7438,-31.6674,1642.4388],[27.7408,-31.6719,1622.2235],[27.7415,-31.6769,1625.801],[27.7362,-31.6855,1603.0757],[27.7356,-31.6893,1559.3499],[27.7227,-31.7065,1656.5103],[27.7151,-31.7017,1588.405],[27.71,-31.7017,1574.7848],[27.7086,-31.7018,1574.7848],[27.7085,-31.7044,1546.0295],[27.6944,-31.7134,1109.9824],[27.6873,-31.7122,1058.6427],[27.675,-31.7143,1034.828],[27.673,-31.7101,1036.5879],[27.6702,-31.7093,1036.9203],[27.6704,-31.7118,1041.9539],[27.6647,-31.7186,1221.7543],[27.6616,-31.73,1203.2747],[27.6538,-31.7286,1291.3549],[27.6493,-31.7226,1184.489],[27.6335,-31.7131,1424.8794],[27.6176,-31.7181,1561.2745],[27.6123,-31.7115,1555.6674],[27.6081,-31.715,1623.261],[27.5688,-31.72,1218.6169],[27.5608,-31.7121,1154.4879],[27.5518,-31.7101,1175.9805],[27.5486,-31.7126,1181.0682],[27.5488,-31.7171,1202.3263],[27.5434,-31.7178,1218.8921],[27.5374,-31.7255,1270.6842],[27.5358,-31.7252,1270.6842],[27.5363,-31.7231,1290.1444],[27.5264,-31.7272,1282.5112],[27.5254,-31.7251,1296.397],[27.5169,-31.721,1346.1189],[27.5052,-31.7193,1403.5642],[27.4966,-31.7245,1479.4999],[27.4933,-31.7245,1568.7704],[27.4879,-31.7292,1653.2239],[27.4823,-31.7294,1675.2019],[27.4766,-31.7322,1728.7769],[27.4959,-31.7007,1718.6967],[27.4807,-31.6947,1223.2725],[27.4511,-31.69,1103.9702],[27.4542,-31.6782,1114.5042],[27.4371,-31.6767,1071.8278],[27.4365,-31.6782,1072.7312],[27.4383,-31.6789,1072.1536],[27.4361,-31.6801,1075.3066],[27.4396,-31.6872,1072.5918],[27.4362,-31.6891,1068.2808],[27.4352,-31.6947,1071.7944],[27.4313,-31.6969,1066.4172],[27.4291,-31.701,1069.0981],[27.4224,-31.7,1064.4159],[27.4214,-31.7022,1063.3138],[27.418,-31.7032,1065.7419],[27.4189,-31.707,1061.3301],[27.4124,-31.7085,1061.657],[27.4139,-31.7164,1062.6542],[27.4118,-31.7161,1070.3982],[27.4099,-31.7185,1069.6863],[27.4142,-31.7258,1053.8639],[27.4078,-31.7273,1058.9242],[27.405,-31.7238,1054.0669],[27.3987,-31.7257,1055.2622],[27.4016,-31.7288,1070.2805],[27.4025,-31.7352,1050.5922],[27.4045,-31.7375,1057.527],[27.406,-31.7383,1054.1224],[27.4086,-31.7368,1040.2588],[27.4168,-31.7409,1031.8854],[27.4147,-31.742,1038.1592],[27.4075,-31.7403,1034.384],[27.4063,-31.7418,1021.9819],[27.407,-31.7455,1020.2991],[27.4091,-31.7469,1019.823],[27.4191,-31.7476,1019.8185],[27.4231,-31.7503,1016.3389],[27.4228,-31.7526,1016.0],[27.4192,-31.756,1016.0],[27.4206,-31.7619,1016.0],[27.4196,-31.7704,1016.0],[27.4307,-31.7936,1016.0],[27.4304,-31.804,984.4937],[27.4342,-31.8106,962.3012],[27.4325,-31.8191,955.9299],[27.4255,-31.8259,938.0242],[27.4203,-31.8435,926.7466],[27.4244,-31.8535,916.5688],[27.4239,-31.8588,914.6705],[27.4265,-31.8609,916.5934],[27.4272,-31.8653,901.7083],[27.4243,-31.8664,942.5786],[27.4148,-31.8542,904.7761],[27.412,-31.8551,903.1931],[27.4103,-31.8583,873.6915],[27.4139,-31.8662,882.8507],[27.4096,-31.8776,859.5031],[27.4094,-31.8909,848.4343],[27.412,-31.8927,852.6059],[27.4097,-31.8996,842.4642],[27.4079,-31.8959,969.5909],[27.3788,-31.8899,1162.8151],[27.3522,-31.889,1221.8613],[27.3288,-31.8909,1293.4531],[27.3177,-31.8816,1459.9692],[27.3013,-31.8626,1411.4678],[27.2932,-31.866,1073.249],[27.2965,-31.8693,1115.094],[27.2939,-31.882,960.0764],[27.2907,-31.8826,929.7568],[27.2921,-31.888,911.8519],[27.2906,-31.8909,906.1697],[27.2972,-31.8968,892.2405],[27.2977,-31.904,879.3231],[27.2912,-31.9082,870.3024],[27.282,-31.9104,894.9003],[27.2788,-31.9138,1047.8831],[27.2837,-31.9316,981.5054],[27.2722,-31.9333,830.3364],[27.2673,-31.944,1221.3767],[27.2548,-31.9391,1044.7349],[27.2369,-31.9471,1253.104],[27.2285,-31.9618,1234.2551],[27.208,-31.9622,1326.6387],[27.1776,-31.9341,1285.6438],[27.1699,-31.9444,1179.5416],[27.1478,-31.9286,1143.5664],[27.1121,-31.9365,1383.4093],[27.1209,-31.9717,1295.9884],[27.1193,-31.9801,1257.9855],[27.1525,-31.9946,966.2563],[27.1568,-31.993,954.6583],[27.1627,-31.994,952.8618],[27.1895,-31.9907,931.4651],[27.1976,-31.9936,915.1463],[27.2033,-31.992,902.3755],[27.207,-31.9877,887.5214],[27.2147,-31.9896,898.8518],[27.2244,-31.988,889.4658],[27.2262,-31.9854,878.9094],[27.2271,-31.9783,867.9755],[27.231,-31.9776,865.7213],[27.2327,-31.9812,861.4351],[27.2396,-31.9827,860.8376],[27.2388,-31.9837,855.5804],[27.2451,-31.9865,854.666],[27.2501,-31.9857,848.4177],[27.2587,-31.9928,845.2048],[27.2697,-31.9922,834.6169],[27.2731,-31.9903,830.5195],[27.2751,-31.9918,829.6372],[27.2779,-31.9871,829.3958],[27.2806,-31.9888,824.7224],[27.2855,-31.9867,820.9001],[27.2857,-31.9886,821.7714],[27.2864,-31.9868,820.9001],[27.2887,-31.9877,820.2917],[27.2946,-31.9827,818.4316],[27.2981,-31.9844,814.1979],[27.3011,-31.9831,813.7039],[27.3046,-31.9846,813.0826],[27.3051,-31.9824,812.3727],[27.3104,-31.9841,805.7469],[27.3146,-31.9801,802.8401],[27.3157,-31.9813,803.4117],[27.3295,-31.9782,791.0012],[27.3304,-31.9902,788.923],[27.3337,-31.9972,789.1754],[27.3378,-31.9962,790.9071],[27.341,-31.9889,788.1443],[27.3558,-31.9932,783.623],[27.3582,-31.9969,785.4045],[27.3582,-32.001,782.8352],[27.3561,-32.0029,777.8784],[27.3513,-32.0023,776.8605],[27.3512,-32.0068,779.093],[27.3532,-32.0105,775.9381],[27.3595,-32.0129,793.5247],[27.3603,-32.0196,775.0964],[27.3622,-32.0209,772.192],[27.3652,-32.02,779.4446],[27.3714,-32.0123,768.9153],[27.3737,-32.0131,767.2662],[27.3746,-32.0156,770.7225],[27.3713,-32.0251,769.3389],[27.3629,-32.0281,759.574],[27.3635,-32.0303,762.8787],[27.3722,-32.0329,761.0126],[27.3635,-32.0365,751.615],[27.3668,-32.0429,752.9929],[27.3666,-32.0469,748.5721],[27.3523,-32.0508,740.8264],[27.3544,-32.0544,740.7714],[27.3675,-32.0522,747.4551],[27.3713,-32.0535,759.364],[27.3749,-32.0651,743.8132],[27.3817,-32.0685,738.3377],[27.3799,-32.0709,726.7927],[27.3691,-32.075,726.769],[27.3685,-32.0774,712.5568],[27.3789,-32.0817,708.6776],[27.3912,-32.0811,703.8474],[27.3954,-32.0785,737.4174],[27.4002,-32.0701,695.3146],[27.4029,-32.0695,738.3788],[27.4054,-32.0703,712.1033],[27.412,-32.0786,701.9494],[27.4148,-32.0927,695.2059],[27.4133,-32.0975,701.9436],[27.4068,-32.1001,694.2182],[27.3977,-32.0986,673.473],[27.3921,-32.0998,675.2497],[27.3887,-32.1021,672.1202],[27.3879,-32.1082,680.278],[27.3942,-32.1152,667.181],[27.4014,-32.1151,663.962],[27.41,-32.1119,663.3248],[27.4192,-32.1146,656.0361],[27.4233,-32.1199,656.9102],[27.4232,-32.1239,655.6455],[27.4196,-32.1263,677.6223],[27.4027,-32.1229,667.059],[27.4004,-32.1254,636.4125],[27.3995,-32.1326,633.8337],[27.3974,-32.1364,626.1356],[27.4002,-32.1404,630.8651],[27.4155,-32.1476,633.8431],[27.4185,-32.1518,625.1503],[27.4147,-32.1782,606.1276],[27.4157,-32.1824,615.1885],[27.4204,-32.1851,666.3412],[27.4283,-32.1855,602.1927],[27.4392,-32.1841,601.1756],[27.4441,-32.1813,622.5095],[27.4464,-32.1749,594.8171],[27.4457,-32.1719,597.2133],[27.4334,-32.1609,587.6249],[27.4344,-32.1582,586.1509],[27.4401,-32.1554,585.3712],[27.4458,-32.1547,596.6735],[27.4495,-32.1563,579.6257],[27.4547,-32.1628,577.9694],[27.4598,-32.1729,591.2135],[27.4624,-32.1749,576.2369],[27.4677,-32.1721,568.9581],[27.4755,-32.1629,567.9365],[27.4823,-32.1628,672.6002],[27.4882,-32.1693,559.4353],[27.4914,-32.1799,555.8256],[27.5001,-32.1877,554.7313],[27.4989,-32.1904,567.4326],[27.4967,-32.1909,552.1339],[27.4844,-32.1829,569.3492],[27.4821,-32.185,584.1998],[27.4821,-32.1885,580.1209],[27.4858,-32.1944,543.7299],[27.492,-32.1988,548.5604],[27.5007,-32.2092,538.5684],[27.5141,-32.2172,539.5549],[27.5137,-32.2214,539.8742],[27.5076,-32.2315,564.2353],[27.512,-32.237,555.8458],[27.5233,-32.2376,527.537],[27.5284,-32.2326,526.4098],[27.5276,-32.2228,556.5833],[27.5193,-32.2114,518.2177],[27.5197,-32.2047,519.0646],[27.5226,-32.2013,522.2115],[27.5351,-32.1975,527.2677],[27.5423,-32.1974,536.0959],[27.5507,-32.1998,510.1169],[27.5599,-32.2077,507.968],[27.5642,-32.2062,505.1165],[27.5634,-32.1946,502.5791],[27.5582,-32.1896,569.462],[27.5578,-32.1867,549.6745],[27.552,-32.1856,680.7463],[27.5546,-32.1847,581.0217],[27.5546,-32.1817,579.1133],[27.5567,-32.1812,581.6156],[27.5605,-32.1754,611.7285],[27.5626,-32.1778,597.0689],[27.5662,-32.1759,600.5712],[27.5629,-32.1739,607.2972],[27.5642,-32.1711,612.2247],[27.5608,-32.163,627.4329],[27.5554,-32.1615,659.4366],[27.5534,-32.1593,649.0239],[27.5557,-32.1555,660.4435],[27.5532,-32.1554,684.1578],[27.5517,-32.1526,696.4543],[27.5484,-32.1521,703.7632],[27.5482,-32.1507,711.1907],[27.5456,-32.1517,741.2758],[27.5462,-32.1495,738.0963],[27.5429,-32.1497,766.0084],[27.5432,-32.1465,727.8102],[27.5403,-32.1413,740.276],[27.5425,-32.1366,752.6522],[27.5464,-32.1362,770.4023],[27.5483,-32.1326,777.5383],[27.5542,-32.1323,807.1379],[27.556,-32.1287,826.5731],[27.5652,-32.1296,890.8354],[27.5726,-32.1273,1060.9015],[27.5744,-32.1251,1131.4868],[27.5687,-32.1224,1130.6879]]]]}}