{"type": "Feature","bbox": [29.167,-23.4374,30.5636,-22.5996],"geometry": {"type": "MultiPolygon","coordinates": [[[[30.3561,-23.3317,523.6395],[30.3571,-23.3236,527.3264],[30.3641,-23.3172,519.5],[30.3692,-23.3102,519.5],[30.3599,-23.3004,556.6733],[30.3488,-23.2819,581.0072],[30.335,-23.2494,547.7112],[30.3685,-23.2477,534.1963],[30.4035,-23.2342,519.6071],[30.4186,-23.2707,502.8013],[30.4229,-23.2717,501.7615],[30.4255,-23.2705,498.3763],[30.4281,-23.2558,502.6896],[30.4393,-23.2548,505.0877],[30.4489,-23.2485,492.1022],[30.4529,-23.2495,489.9397],[30.4648,-23.2403,487.6911],[30.4737,-23.2405,486.3305],[30.4876,-23.2442,485.6417],[30.5,-23.2532,481.877],[30.5094,-23.2578,487.7189],[30.5162,-23.2686,480.9384],[30.5328,-23.2752,478.2774],[30.5221,-23.2187,516.0247],[30.5636,-23.1751,529.5149],[30.5516,-23.1734,534.4642],[30.5488,-23.1704,536.5635],[30.5487,-23.1677,541.7668],[30.5427,-23.1686,542.7649],[30.5347,-23.1618,550.0267],[30.5304,-23.1619,554.233],[30.522,-23.1658,562.8352],[30.518,-23.1601,567.4084],[30.5189,-23.1591,569.3331],[30.5161,-23.1534,576.6089],[30.5178,-23.1514,583.9854],[30.5169,-23.1484,582.8022],[30.5075,-23.1464,598.5973],[30.4998,-23.1422,606.5721],[30.4964,-23.1343,596.3337],[30.484,-23.1315,585.0009],[30.4809,-23.1276,589.0219],[30.4757,-23.1249,577.8748],[30.4751,-23.1217,576.673],[30.473,-23.1223,575.6847],[30.4728,-23.1207,578.0797],[30.4704,-23.122,575.2332],[30.4703,-23.1187,573.6404],[30.4682,-23.116,573.396],[30.4707,-23.1155,569.76],[30.4713,-23.1125,567.7569],[30.4694,-23.1098,570.4652],[30.4732,-23.105,563.8647],[30.4702,-23.1036,560.747],[30.4665,-23.0967,555.1412],[30.4668,-23.0945,556.5153],[30.4651,-23.0937,552.2617],[30.4676,-23.0902,550.4627],[30.4667,-23.0871,547.2798],[30.4702,-23.0844,543.6768],[30.4667,-23.0834,545.8555],[30.4661,-23.0803,552.0312],[30.4497,-23.0747,556.7917],[30.4468,-23.0817,559.6855],[30.439,-23.0852,559.386],[30.4363,-23.0831,563.2509],[30.4298,-23.0818,561.5164],[30.425,-23.0844,562.1342],[30.4171,-23.0853,564.5212],[30.4163,-23.0865,569.0352],[30.4176,-23.0886,566.6641],[30.4127,-23.0903,569.4113],[30.4101,-23.0947,568.2598],[30.3967,-23.0646,590.9606],[30.3921,-23.0578,566.0863],[30.3877,-23.0592,571.3262],[30.3854,-23.0588,571.6467],[30.3836,-23.0561,586.5825],[30.3819,-23.0581,578.6812],[30.3736,-23.0572,588.136],[30.3718,-23.0553,590.2573],[30.373,-23.054,592.4711],[30.3716,-23.0543,592.4711],[30.3716,-23.0501,599.9734],[30.3695,-23.0494,602.9118],[30.3704,-23.0473,608.3245],[30.3687,-23.0452,611.4209],[30.3682,-23.039,632.9869],[30.3617,-23.0348,651.0692],[30.362,-23.033,653.7128],[30.3603,-23.0324,660.5049],[30.3587,-23.0279,677.7815],[30.3123,-23.0239,1172.3225],[30.3221,-23.0154,1175.8512],[30.2885,-22.992,1430.5718],[30.3077,-22.974,1383.6779],[30.2221,-22.9601,1111.1431],[30.1972,-22.9422,1186.902],[30.1648,-22.925,1451.4216],[30.1849,-22.9052,786.752],[30.1973,-22.908,793.0089],[30.2005,-22.9109,794.0005],[30.207,-22.8886,924.9385],[30.1874,-22.8847,844.7511],[30.1902,-22.8595,1199.7056],[30.2054,-22.7826,728.1003],[30.2042,-22.7792,704.636],[30.2201,-22.7658,1313.62],[30.2275,-22.7572,1187.6929],[30.2693,-22.7241,1075.9492],[30.2926,-22.6851,962.403],[30.3237,-22.653199999999998,741.3074],[30.2882,-22.6537,637.6402],[30.2565,-22.6685,699.3621],[30.2142,-22.6852,687.2705],[30.2267,-22.6926,891.0172],[30.1885,-22.6936,717.4788],[30.1342,-22.6896,670.1085],[30.1383,-22.7196,1115.1482],[30.1056,-22.704,572.9514],[30.0625,-22.6981,581.5383],[30.0586,-22.7113,622.4146],[30.0334,-22.6937,601.4286],[30.0213,-22.6759,664.5157],[29.986,-22.693,647.2041],[29.962,-22.6777,682.0807],[29.9363,-22.6919,695.0127],[29.9282,-22.6648,712.1876],[29.9026,-22.671,714.2266],[29.8765,-22.6885,718.3683],[29.8847,-22.7102,743.8246],[29.8595,-22.7251,757.1173],[29.8212,-22.7409,723.066],[29.7985,-22.7581,719.1422],[29.7904,-22.7302,912.7888],[29.7879,-22.7004,732.5702],[29.7638,-22.6712,672.7883],[29.7482,-22.6801,681.9712],[29.7073,-22.6718,650.4142],[29.706,-22.6729,650.6853],[29.6534,-22.6683,671.7945],[29.6188,-22.6595,668.2529],[29.5783,-22.6342,681.8867],[29.5385,-22.6151,708.6332],[29.4741,-22.5996,736.4542],[29.4822,-22.6313,738.58],[29.4216,-22.6249,758.071],[29.4238,-22.6393,755.7616],[29.3687,-22.652,786.2301],[29.3088,-22.602,789.2899],[29.308,-22.6129,791.0544],[29.2774,-22.6115,766.8818],[29.2836,-22.6194,779.2322],[29.2417,-22.6469,817.666],[29.2094,-22.6628,837.3427],[29.2402,-22.6858,817.1893],[29.2047,-22.7126,838.8604],[29.2449,-22.7353,810.496],[29.2229,-22.8074,776.1377],[29.2126,-22.8237,788.3812],[29.2091,-22.8385,801.8754],[29.1934,-22.8696,801.0516],[29.1752,-22.8991,819.1108],[29.167,-22.9178,821.7565],[29.1741,-22.946,822.6208],[29.1833,-22.9735,822.5523],[29.2189,-22.9551,809.3435],[29.2463,-22.9384,804.3715],[29.2554,-22.9624,809.3246],[29.2575,-22.9925,827.2266],[29.2938,-22.9731,817.9908],[29.2845,-23.0023,845.7114],[29.2981,-23.0369,886.4469],[29.3067,-23.0543,890.5024],[29.3102,-23.0738,895.17],[29.2727,-23.0881,906.6927],[29.2824,-23.1148,918.6333],[29.2517,-23.1071,905.7183],[29.2664,-23.1694,938.066],[29.2729,-23.1698,942.511],[29.2629,-23.1979,959.6777],[29.2932,-23.204,978.5289],[29.2678,-23.2386,1013.4893],[29.3155,-23.2515,990.4565],[29.358,-23.2388,965.524],[29.4405,-23.2463,929.594],[29.4277,-23.28,942.9685],[29.4836,-23.2761,971.2817],[29.5341,-23.2754,959.9897],[29.5604,-23.2705,960.5507],[29.5918,-23.2683,909.7938],[29.5909,-23.2763,914.6512],[29.5927,-23.2837,913.3307],[29.5914,-23.2928,917.2322],[29.5983,-23.298,919.4491],[29.617,-23.3224,927.4963],[29.6215,-23.3246,935.9596],[29.6228,-23.327,936.051],[29.6118,-23.3363,939.2589],[29.612,-23.3442,950.0909],[29.6004,-23.372,956.8225],[29.6103,-23.384,957.9906],[29.6185,-23.3891,964.0449],[29.6176,-23.3948,963.6429],[29.6109,-23.403199999999998,968.0269],[29.6092,-23.4088,971.4427],[29.6116,-23.4205,979.6767],[29.6146,-23.4249,978.5618],[29.6178,-23.4265,982.6931],[29.6265,-23.4253,984.3235],[29.6379,-23.401,1006.9821],[29.6788,-23.416,1048.2046],[29.7117,-23.4215,1050.3247],[29.7401,-23.4058,1065.3732],[29.7419,-23.4352,1086.4373],[29.7654,-23.4293,1135.4513],[29.8096,-23.4266,1118.9573],[29.8408,-23.4301,1124.0735],[29.8668,-23.4374,1164.801],[29.8784,-23.4061,1151.0345],[29.8942,-23.4189,1165.6064],[29.8963,-23.4079,1120.147],[29.9,-23.4023,1100.1663],[29.9028,-23.4017,1104.7925],[29.9155,-23.4055,1135.6949],[29.9281,-23.4022,1162.6655],[29.9311,-23.3967,1166.4564],[29.9304,-23.379,1122.3723],[29.9349,-23.3715,1114.1097],[29.9481,-23.3857,1102.5984],[29.958,-23.3856,1079.4449],[29.9652,-23.3782,1053.9761],[29.9708,-23.3798,1041.0569],[29.9716,-23.3818,1043.8867],[29.9742,-23.3826,1026.1842],[29.976,-23.381,1029.6051],[29.9838,-23.3831,1071.5913],[29.9893,-23.3777,1050.821],[29.9898,-23.3582,1046.8185],[29.9972,-23.3375,1077.5326],[30.0377,-23.3387,932.0184],[30.0636,-23.3368,774.0884],[30.0472,-23.3698,1139.4689],[30.0716,-23.3637,1022.6867],[30.0909,-23.3473,955.9208],[30.1188,-23.3424,918.2009],[30.1468,-23.3414,749.9447],[30.1516,-23.3138,692.1337],[30.2343,-23.3085,833.3973],[30.2686,-23.3244,611.8478],[30.2731,-23.3517,703.9236],[30.294,-23.3857,584.9066],[30.3286,-23.3776,544.4407],[30.3346,-23.3719,535.0831],[30.3354,-23.364,531.3736],[30.3419,-23.3554,528.6791],[30.3454,-23.3452,526.0177],[30.3567,-23.3387,524.8605],[30.3561,-23.3317,523.6395]]]]}
,"properties": {"GID_3": "ZAF.5.4.1_1","GID_0": "ZAF","country": "SouthAfrica","GID_1": "ZAF.5_1","province": "Limpopo","NL_NAME_1": "NA","GID_2": "ZAF.5.4_1","county": "Vhembe","NL_NAME_2": "NA","city": "Makhado","VARNAME_3": "NA","NL_NAME_3": "NA","TYPE_3": "LocalMunicipality","ENGTYPE_3": "LocalMunicipality","CC_3": "LIM344","HASC_3": "NA","name": "Makhado.city","area_km2": 8320.057,"hist_schema_id": "Elevation0-9000","hist_area_km2": {"475": 1.286,"500": 20.962,"525": 60.319,"550": 129.345,"575": 157.682,"600": 165.287,"625": 182.899,"650": 207.759,"675": 282.253,"700": 407.471,"725": 511.511,"750": 503.374,"775": 515.79,"800": 463.194,"825": 392.034,"850": 246.605,"875": 330.301,"900": 425.134,"925": 501.237,"950": 448.462,"975": 329.938,"1000": 260.522,"1025": 220.554,"1050": 204.462,"1075": 172.227,"1100": 159.175,"1125": 146.504,"1150": 99.555,"1175": 74.435,"1200": 69.437,"1225": 68.229,"1250": 64.308,"1275": 58.569,"1300": 54.936,"1325": 50.034,"1350": 49.818,"1375": 47.318,"1400": 42.573,"1425": 37.497,"1450": 35.388,"1475": 32.713,"1500": 27.012,"1525": 20.415,"1550": 15.926,"1575": 11.319,"1600": 6.772,"1625": 4.723,"1650": 2.01,"1675": 0.585,"1700": 0.117,"1725": 0.078}}}