{"type": "Feature","bbox": [24.6342,-33.844,26.5307,-33.2502],"geometry": {"type": "MultiPolygon","coordinates": [[[[26.2865,-33.8379,0.0],[26.2832,-33.8374,0.0],[26.2821,-33.8393,0.0],[26.2857,-33.844,0.0],[26.2899,-33.8437,0.0],[26.2904,-33.8407,0.0443],[26.2865,-33.8379,0.0]]],
[[[26.2646,-33.8379,0.0],[26.261,-33.8374,0.0],[26.2604,-33.8387,0.0],[26.2649,-33.8387,0.0],[26.2646,-33.8379,0.0]]],
[[[26.2796,-33.8324,0.0],[26.2754,-33.8321,0.0],[26.274,-33.8357,0.0],[26.2768,-33.8357,0.2518],[26.2793,-33.8335,0.0861],[26.2854,-33.834,0.1142],[26.2835,-33.8324,0.0],[26.2796,-33.8324,0.0]]],
[[[26.3439,-33.6433,228.1813],[26.3395,-33.6387,215.4706],[26.3394,-33.6365,216.2086],[26.3355,-33.6336,201.2252],[26.3319,-33.6332,203.7669],[26.3521,-33.611,267.7581],[26.344,-33.6103,271.7392],[26.3486,-33.6039,203.4428],[26.3497,-33.605,211.5762],[26.3756,-33.6022,181.7307],[26.3807,-33.5626,249.9166],[26.3692,-33.5594,245.6141],[26.3727,-33.5552,265.5283],[26.3411,-33.5376,157.7451],[26.3295,-33.5276,246.3206],[26.3013,-33.5173,254.5297],[26.3013,-33.5185,283.3265],[26.2638,-33.5204,134.7053],[26.258,-33.512,207.3982],[26.2451,-33.5028,325.2042],[26.2307,-33.5175,253.3379],[26.2193,-33.522,168.5801],[26.2311,-33.5294,209.0365],[26.2131,-33.5238,273.1241],[26.2123,-33.5272,171.9212],[26.1667,-33.5131,179.1352],[26.16,-33.5296,212.5471],[26.1338,-33.5321,181.1637],[26.1299,-33.537,181.3977],[26.1249,-33.5368,182.3036],[26.1232,-33.5403,188.5504],[26.1191,-33.5423,184.6947],[26.1089,-33.541,184.6595],[26.1081,-33.5362,185.0848],[26.1261,-33.4941,187.3974],[26.1252,-33.4933,187.3974],[26.1277,-33.4902,191.7854],[26.1267,-33.4883,190.967],[26.1292,-33.4882,213.3784],[26.132,-33.4816,284.268],[26.1237,-33.4793,256.3308],[26.0933,-33.4834,193.4311],[26.094,-33.4858,192.7305],[26.0911,-33.4869,205.4735],[26.0842,-33.4755,232.5452],[26.0628,-33.4811,243.3757],[26.0613,-33.4792,231.4043],[26.0653,-33.4778,243.6577],[26.0512,-33.4748,212.9022],[26.0552,-33.4577,224.5519],[26.0524,-33.46,215.0781],[26.0531,-33.4528,237.3877],[26.0495,-33.4521,237.9823],[26.0527,-33.4456,239.3865],[26.0485,-33.4438,219.6572],[26.0592,-33.4359,224.1943],[26.0618,-33.4321,226.6591],[26.0588,-33.4292,224.1336],[26.0362,-33.4223,226.4587],[26.043,-33.4171,234.2494],[26.0383,-33.4103,231.5709],[26.0401,-33.4039,239.9529],[26.0423,-33.4025,233.5102],[26.0366,-33.3949,282.3357],[26.0474,-33.3812,264.7812],[26.0632,-33.3331,532.9667],[26.0505,-33.3357,564.9626],[26.0389,-33.3325,662.4185],[26.0384,-33.3279,603.3201],[26.0174,-33.3242,574.4467],[25.9879,-33.3066,402.27],[25.969,-33.3153,709.9847],[25.9277,-33.3124,784.0333],[25.9281,-33.3136,806.486],[25.8765,-33.2995,847.007],[25.8496,-33.2947,740.7825],[25.8492,-33.3001,700.1378],[25.8475,-33.3023,612.204],[25.8396,-33.2998,481.3087],[25.8418,-33.2965,598.5958],[25.8326,-33.2915,711.7493],[25.7882,-33.2845,744.9685],[25.6977,-33.2854,835.0367],[25.6336,-33.3069,585.9784],[25.6081,-33.2812,777.1556],[25.5146,-33.2738,809.9517],[25.4507,-33.2835,874.1269],[25.3961,-33.2706,625.181],[25.3157,-33.2599,747.3367],[25.2934,-33.2602,942.7763],[25.2149,-33.2566,767.9403],[25.1813,-33.2629,715.7428],[25.1783,-33.2517,819.3895],[25.153199999999998,-33.2523,805.0305],[25.1319,-33.2502,205.8679],[25.1348,-33.2951,826.3214],[25.0498,-33.2747,910.3936],[25.0294,-33.272,892.8801],[24.9778,-33.2566,716.1865],[24.972,-33.2709,784.0942],[24.9593,-33.2706,703.391],[24.8803,-33.2575,789.0114],[24.8807,-33.2777,631.1006],[24.8717,-33.275,624.5838],[24.8395,-33.3518,464.0178],[24.8504,-33.378,460.7269],[24.8429,-33.3829,457.6712],[24.8418,-33.4088,569.1812],[24.8169,-33.439,499.4485],[24.798,-33.4834,457.1189],[24.8088,-33.5069,432.5929],[24.8044,-33.5382,648.17],[24.7479,-33.5238,594.7778],[24.7019,-33.5145,345.9339],[24.7008,-33.5208,612.9175],[24.6922,-33.5397,946.6884],[24.673,-33.5716,485.6156],[24.6461,-33.5708,346.1797],[24.6342,-33.5968,666.304],[24.6869,-33.6127,831.6597],[24.7307,-33.6204,764.1705],[24.7293,-33.6109,690.6102],[24.8301,-33.6287,611.5234],[24.8295,-33.6426,763.1891],[24.868,-33.6673,826.2882],[24.8909,-33.6744,879.0582],[24.9086,-33.689,717.9612],[24.9422,-33.6996,1047.912],[24.9755,-33.7165,799.3898],[24.9941,-33.7344,967.5261],[25.025,-33.7489,838.3371],[25.0335,-33.755,776.602],[25.036,-33.7653,750.1783],[25.053,-33.7755,795.0156],[25.0814,-33.7867,693.805],[25.088,-33.7979,723.7482],[25.113,-33.798,599.3224],[25.1526,-33.8078,356.4643],[25.1812,-33.8188,550.9001],[25.2031,-33.8216,595.3644],[25.235,-33.8369,477.9731],[25.2616,-33.8021,105.6463],[25.2682,-33.7793,395.2663],[25.2733,-33.7734,389.9308],[25.2997,-33.7709,382.9755],[25.305,-33.762,169.0278],[25.285,-33.7533,279.1447],[25.3015,-33.7264,167.5485],[25.2913,-33.7225,200.2563],[25.2831,-33.7112,194.0961],[25.2682,-33.7062,124.3484],[25.2663,-33.6993,144.2578],[25.264,-33.7015,156.191],[25.261,-33.6964,238.0605],[25.2533,-33.6917,202.2742],[25.2448,-33.6924,146.1315],[25.2418,-33.6944,165.1553],[25.2399,-33.6913,196.4136],[25.2475,-33.687,150.4238],[25.2492,-33.6828,283.7556],[25.2755,-33.6889,237.244],[25.267,-33.6976,130.7207],[25.3014,-33.703,137.1172],[25.3027,-33.7121,140.3752],[25.2951,-33.7141,96.698],[25.3075,-33.7169,155.7419],[25.3273,-33.7259,120.6504],[25.3373,-33.7095,284.8796],[25.3504,-33.7151,253.3329],[25.3505,-33.702,300.752],[25.3306,-33.689,451.0516],[25.3478,-33.6709,546.0997],[25.3081,-33.6379,930.5578],[25.3362,-33.6367,770.5566],[25.3395,-33.6288,650.514],[25.3211,-33.6216,680.4191],[25.3463,-33.5571,261.2291],[25.3583,-33.5567,287.6823],[25.4045,-33.5617,325.3939],[25.4263,-33.559,257.5335],[25.4377,-33.5531,224.5871],[25.5076,-33.5718,267.7969],[25.4938,-33.6116,256.9803],[25.5558,-33.6281,205.9201],[25.5534,-33.6051,140.6867],[25.558,-33.5962,169.3575],[25.6317,-33.5916,42.946],[25.6271,-33.6089,118.5574],[25.6596,-33.6153,11.4224],[25.6681,-33.6144,25.659],[25.6695,-33.6198,9.0695],[25.6793,-33.6284,10.098],[25.6835,-33.6252,18.1256],[25.679,-33.6226,20.1907],[25.6823,-33.6185,17.2254],[25.6752,-33.6179,23.3082],[25.6786,-33.6061,35.0552],[25.6881,-33.6016,40.4933],[25.6936,-33.6095,33.8211],[25.6914,-33.6152,16.059],[25.7017,-33.6278,13.0854],[25.7047,-33.6224,8.2949],[25.7078,-33.6206,9.873],[25.7132,-33.6233,8.8753],[25.731,-33.6254,6.0766],[25.7354,-33.6281,5.0232],[25.7391,-33.641,5.7302],[25.7375,-33.6522,8.951],[25.7385,-33.6568,6.4065],[25.7685,-33.6791,6.4021],[25.771,-33.6844,2.8283],[25.7801,-33.6923,4.0358],[25.7925,-33.6944,4.356],[25.7916,-33.6837,61.4279],[25.8498,-33.6654,74.9988],[25.858,-33.682,62.5619],[25.8619,-33.6841,53.8621],[25.8682,-33.6995,77.512],[25.8493,-33.7221,0.0],[25.9096,-33.7126,0.8284],[25.9446,-33.709,3.4804],[26.0163,-33.7051,0.9015],[26.0582,-33.7054,1.1167],[26.1043,-33.7096,0.0],[26.1471,-33.716,8.4742],[26.2232,-33.7368,1.4575],[26.2632,-33.7504,9.4197],[26.2862,-33.7615,0.0],[26.3215,-33.7676,5.5729],[26.3349,-33.7663,0.0],[26.3524,-33.7612,11.56],[26.3807,-33.7593,5.3982],[26.419,-33.7632,-0.2505],[26.4488,-33.7715,0.0],[26.4568,-33.7713,0.0],[26.4665,-33.7732,0.0],[26.4837,-33.7654,0.9142],[26.4962,-33.7649,0.0],[26.5082,-33.7596,0.0],[26.5307,-33.7543,0.0],[26.5281,-33.7503,30.8549],[26.4629,-33.7566,97.1079],[26.463,-33.7543,135.0945],[26.4649,-33.7542,144.8835],[26.4656,-33.7443,141.6501],[26.4635,-33.7439,154.1517],[26.464,-33.7315,124.7012],[26.4593,-33.7155,138.8338],[26.4615,-33.7052,126.2799],[26.4402,-33.6991,138.2224],[26.3883,-33.7071,162.7143],[26.3478,-33.6898,207.6582],[26.3501,-33.6839,184.0123],[26.3459,-33.6848,195.7411],[26.3597,-33.6433,236.5482],[26.3439,-33.6433,228.1813]]]]}
,"properties": {"GID_3": "ZAF.1.4.9_1","GID_0": "ZAF","country": "SouthAfrica","GID_1": "ZAF.1_1","province": "EasternCape","NL_NAME_1": "NA","GID_2": "ZAF.1.4_1","county": "Cacadu","NL_NAME_2": "NA","city": "SundaysRiverValley","VARNAME_3": "NA","NL_NAME_3": "NA","TYPE_3": "LocalMunicipality","ENGTYPE_3": "LocalMunicipality","CC_3": "EC106","HASC_3": "NA","name": "Sundays_River_Valley.city","area_km2": 5997.294,"hist_schema_id": "Elevation0-9000","hist_area_km2": {"0": 23.795,"25": 66.453,"50": 115.237,"75": 154.437,"100": 195.909,"125": 218.377,"150": 263.513,"175": 301.913,"200": 318.856,"225": 314.452,"250": 316.258,"275": 336.213,"300": 340.628,"325": 314.873,"350": 238.851,"375": 211.605,"400": 191.021,"425": 194.152,"450": 200.618,"475": 200.212,"500": 179.838,"525": 163.452,"550": 145.258,"575": 131.391,"600": 113.949,"625": 97.501,"650": 83.303,"675": 72.364,"700": 64.398,"725": 57.326,"750": 51.918,"775": 46.258,"800": 40.35,"825": 35.273,"850": 30.09,"875": 26.59,"900": 22.296,"925": 18.301,"950": 16.533,"975": 14.536,"1000": 12.611,"1025": 10.527,"1050": 8.373,"1075": 6.483,"1100": 6.677,"1125": 5.158,"1150": 4.257,"1175": 3.056,"1200": 2.332,"1225": 2.12,"1250": 1.396,"1275": 1.166,"1300": 0.813,"1325": 0.848,"1350": 0.442,"1375": 0.724,"1400": 0.389,"1425": 0.406,"1450": 0.371,"1475": 0.283,"1500": 0.194,"1525": 0.106,"1550": 0.124,"1600": 0.053}}}