{"type": "Feature","bbox": [30.2207,-28.9474,30.7651,-28.2617],"geometry": {"type": "MultiPolygon","coordinates": [[[[30.5379,-28.8718,708.98],[30.5389,-28.8631,699.1653],[30.5583,-28.868,818.1971],[30.564,-28.8793,882.9439],[30.6079,-28.8399,1439.9912],[30.6306,-28.8559,1477.9758],[30.6334,-28.8693,1487.2216],[30.6232,-28.8777,1455.7336],[30.647,-28.889,1427.7705],[30.6781,-28.9135,1080.8337],[30.7009,-28.8846,964.4653],[30.7585,-28.8948,1350.5261],[30.7651,-28.8777,1377.4156],[30.742,-28.8498,1287.7175],[30.7265,-28.8426,1345.0061],[30.7212,-28.8354,1324.0287],[30.7234,-28.8315,1070.7092],[30.7213,-28.8278,945.6539],[30.7217,-28.8204,772.497],[30.7201,-28.8158,643.7747],[30.7241,-28.8114,582.6123],[30.7238,-28.8097,548.1747],[30.7279,-28.8075,474.7946],[30.7288,-28.8026,435.5224],[30.7325,-28.799,402.5],[30.7282,-28.7953,411.228],[30.7112,-28.7872,424.3647],[30.6995,-28.7834,430.2382],[30.6964,-28.7792,411.6368],[30.6966,-28.7753,411.9009],[30.7001,-28.7707,434.2318],[30.7206,-28.7686,421.3138],[30.7261,-28.7655,421.3119],[30.7297,-28.7609,433.4491],[30.7292,-28.7567,426.3734],[30.7188,-28.7502,432.8838],[30.715,-28.7387,429.4309],[30.6922,-28.7325,434.0],[30.6878,-28.7334,435.2426],[30.6786,-28.739,444.4058],[30.6714,-28.7453,441.0628],[30.6653,-28.7469,445.8321],[30.6538,-28.7406,453.7933],[30.6539,-28.7303,447.75],[30.6497,-28.7203,461.8363],[30.6432,-28.7169,459.633],[30.6375,-28.716,465.0182],[30.6337,-28.7122,463.8299],[30.6237,-28.7115,516.0302],[30.6206,-28.7098,469.0294],[30.6208,-28.7041,481.0849],[30.6249,-28.699,481.4778],[30.6357,-28.6988,495.3902],[30.6517,-28.6891,501.0087],[30.67,-28.6845,508.9956],[30.6741,-28.6772,538.6738],[30.6816,-28.6695,587.2203],[30.6846,-28.6624,543.4456],[30.6839,-28.6606,551.2283],[30.6787,-28.6585,537.9486],[30.6715,-28.6503,629.0638],[30.6713,-28.6451,610.8125],[30.6673,-28.6388,546.7606],[30.6622,-28.6401,573.9857],[30.6595,-28.6383,577.1283],[30.6629,-28.6282,578.0552],[30.6669,-28.6263,573.206],[30.6646,-28.6219,561.9775],[30.6576,-28.6241,562.1548],[30.6505,-28.6315,591.2422],[30.6466,-28.6312,586.421],[30.6411,-28.6272,571.4239],[30.6338,-28.6294,582.1191],[30.632,-28.6348,586.2869],[30.6295,-28.6364,595.129],[30.6258,-28.635,594.312],[30.6235,-28.6301,593.9587],[30.6189,-28.6297,605.2316],[30.6157,-28.6273,597.1317],[30.6153,-28.6146,616.8588],[30.6126,-28.6063,652.2883],[30.6141,-28.5959,701.575],[30.6105,-28.5897,641.9526],[30.6104,-28.586,651.557],[30.6053,-28.5807,638.4278],[30.6064,-28.5761,666.3123],[30.6019,-28.5702,644.53],[30.6018,-28.5679,652.2534],[30.6036,-28.5657,687.9564],[30.6085,-28.5688,659.2843],[30.6135,-28.5678,689.7468],[30.6187,-28.5706,654.058],[30.6262,-28.567,661.1755],[30.6357,-28.5664,674.462],[30.6486,-28.5613,678.9475],[30.6482,-28.5552,684.7029],[30.6523,-28.5505,680.0889],[30.6632,-28.5528,685.0367],[30.6726,-28.5515,689.7411],[30.6817,-28.5408,759.5181],[30.6789,-28.5363,746.7581],[30.6729,-28.5337,713.0494],[30.6669,-28.5283,714.1881],[30.6701,-28.5222,726.1257],[30.6764,-28.5194,725.4118],[30.6762,-28.5097,732.0258],[30.67,-28.5026,734.5654],[30.6668,-28.4954,741.4257],[30.6609,-28.4919,742.6122],[30.654,-28.495,749.6691],[30.649,-28.4922,746.5445],[30.639,-28.4937,764.9871],[30.6317,-28.4927,782.7807],[30.6292,-28.4969,768.7889],[30.6282,-28.5049,764.3221],[30.6238,-28.5091,763.8947],[30.6203,-28.5094,766.9218],[30.6203,-28.5038,778.1965],[30.6234,-28.4995,774.353],[30.6237,-28.4955,778.7693],[30.6169,-28.4864,788.5557],[30.6168,-28.4814,780.6682],[30.6134,-28.4755,779.6006],[30.6142,-28.4729,790.3631],[30.6305,-28.4756,789.5339],[30.6362,-28.4681,790.9716],[30.6427,-28.469,810.0818],[30.6445,-28.4629,804.0438],[30.6351,-28.4571,803.0624],[30.6299,-28.4486,839.76],[30.6247,-28.444,832.8327],[30.6223,-28.4444,827.4697],[30.6168,-28.4534,817.8962],[30.6124,-28.4525,820.2534],[30.6092,-28.4439,831.2996],[30.6059,-28.4433,826.8597],[30.5972,-28.4472,834.4139],[30.5943,-28.4468,833.5778],[30.5914,-28.4428,850.2419],[30.5901,-28.4278,843.2491],[30.6021,-28.424,853.8793],[30.6132,-28.4091,876.4711],[30.6183,-28.4137,865.7668],[30.6252,-28.4116,872.9978],[30.6311,-28.4157,876.9444],[30.6361,-28.4142,880.5352],[30.6357,-28.408,899.304],[30.626,-28.4011,895.9955],[30.6259,-28.3981,910.7791],[30.6282,-28.3945,933.5464],[30.6266,-28.3899,923.2124],[30.6166,-28.3895,970.7257],[30.6106,-28.3835,936.3044],[30.604,-28.3823,945.848],[30.5995,-28.3792,977.4054],[30.5853,-28.3828,967.8829],[30.5821,-28.3818,977.4064],[30.5812,-28.3785,995.9964],[30.5874,-28.3695,1033.4144],[30.5877,-28.3669,1041.1813],[30.5747,-28.357,1023.1606],[30.5763,-28.3539,1015.0823],[30.5692,-28.349,1036.1866],[30.5679,-28.3403,1045.832],[30.5592,-28.3409,1058.377],[30.5462,-28.3485,1061.3977],[30.5415,-28.3486,1060.3322],[30.5358,-28.3436,1059.8359],[30.5301,-28.3335,1062.2231],[30.5045,-28.3313,1074.7494],[30.5058,-28.3274,1069.3591],[30.505,-28.3255,1072.1854],[30.4958,-28.3215,1070.1227],[30.4971,-28.3177,1072.1901],[30.5023,-28.3134,1071.3315],[30.5176,-28.3188,1077.4108],[30.5228,-28.3092,1079.2104],[30.5275,-28.3129,1073.9286],[30.5307,-28.3094,1072.3972],[30.5303,-28.3056,1073.028],[30.5226,-28.2936,1072.9702],[30.5221,-28.2902,1073.2267],[30.5113,-28.2871,1074.847],[30.5089,-28.2838,1074.834],[30.5129,-28.2784,1074.9689],[30.5207,-28.2812,1075.2086],[30.5247,-28.2805,1075.0299],[30.5303,-28.274,1084.7344],[30.5291,-28.268,1076.757],[30.5101,-28.2661,1077.5779],[30.5057,-28.2627,1077.0422],[30.4809,-28.2656,1129.541],[30.4612,-28.2617,1133.7378],[30.4556,-28.2668,1154.6838],[30.4492,-28.2819,1301.229],[30.4204,-28.2806,1339.5497],[30.4097,-28.2927,1384.344],[30.3926,-28.2752,1363.2397],[30.3609,-28.2943,1351.9392],[30.3519,-28.2665,1454.9857],[30.3187,-28.2707,1415.9028],[30.3193,-28.2995,1467.2745],[30.3057,-28.3327,1373.6141],[30.2932,-28.3259,1458.0948],[30.2776,-28.3643,1405.0],[30.2336,-28.4087,1096.5446],[30.2714,-28.4414,1120.8418],[30.2938,-28.4484,1117.9573],[30.3378,-28.4741,1262.2814],[30.3183,-28.507,1326.8206],[30.3209,-28.5114,1339.8979],[30.3216,-28.5273,1338.9829],[30.3198,-28.5302,1318.1333],[30.3082,-28.5303,1290.6859],[30.3039,-28.5313,1276.5293],[30.3007,-28.5341,1277.3638],[30.2325,-28.5019,1111.21],[30.2466,-28.5502,1385.2424],[30.2314,-28.5629,1334.4973],[30.2227,-28.5667,1292.1036],[30.2207,-28.5733,1606.7562],[30.2261,-28.5872,1348.7876],[30.2364,-28.5896,1136.3738],[30.234,-28.6212,1141.8713],[30.2435,-28.6284,688.5135],[30.25,-28.6365,661.1207],[30.2492,-28.6394,652.3283],[30.244,-28.6444,651.809],[30.2539,-28.6459,645.7812],[30.2571,-28.651,633.4926],[30.2612,-28.6537,632.7201],[30.2646,-28.6695,621.3468],[30.2684,-28.6749,615.5668],[30.2764,-28.6804,607.9863],[30.2843,-28.693,593.9083],[30.2796,-28.6927,600.1793],[30.2718,-28.6955,597.7925],[30.2703,-28.7064,608.6688],[30.2645,-28.7142,609.5551],[30.2693,-28.7274,613.5341],[30.2675,-28.731,617.7081],[30.2787,-28.7318,696.1298],[30.2832,-28.8111,940.4218],[30.2745,-28.8345,982.1746],[30.2724,-28.8447,1017.4635],[30.2731,-28.877,1180.6338],[30.2681,-28.9053,1139.5142],[30.2875,-28.9149,1254.8936],[30.3214,-28.9387,1262.1396],[30.3254,-28.9457,1254.1045],[30.3292,-28.9474,1216.7074],[30.3435,-28.9284,1082.2017],[30.364,-28.9429,902.1095],[30.3883,-28.9223,735.6871],[30.3848,-28.9123,731.1476],[30.3869,-28.9111,729.7874],[30.3908,-28.914,728.6449],[30.3912,-28.906,741.0977],[30.397,-28.9058,722.8738],[30.3973,-28.9078,722.3296],[30.3935,-28.9106,730.9045],[30.3948,-28.9133,724.8427],[30.4084,-28.914,721.2487],[30.4109,-28.9184,717.4299],[30.4184,-28.9203,716.1663],[30.4257,-28.9102,709.2302],[30.4245,-28.909,736.9935],[30.4192,-28.9124,708.8939],[30.4166,-28.9091,706.2439],[30.417,-28.9047,704.7131],[30.4283,-28.9025,710.1646],[30.441,-28.903199999999998,704.4294],[30.443,-28.8957,696.0606],[30.4467,-28.8907,693.5485],[30.454,-28.8883,734.2161],[30.4515,-28.8765,678.0224],[30.4548,-28.8774,674.7739],[30.4588,-28.8762,673.5144],[30.4618,-28.8796,713.0014],[30.4978,-28.8886,824.2687],[30.4979,-28.9042,955.7233],[30.5373,-28.8748,735.7279],[30.5379,-28.8718,708.98]]]]}
,"properties": {"GID_3": "ZAF.4.8.2_1","GID_0": "ZAF","country": "SouthAfrica","GID_1": "ZAF.4_1","province": "KwaZulu-Natal","NL_NAME_1": "NA","GID_2": "ZAF.4.8_1","county": "Umzinyathi","NL_NAME_2": "NA","city": "Msinga","VARNAME_3": "NA","NL_NAME_3": "NA","TYPE_3": "LocalMunicipality","ENGTYPE_3": "LocalMunicipality","CC_3": "KZN244","HASC_3": "NA","name": "Msinga.city","area_km2": 2503.3,"hist_schema_id": "Elevation0-9000","hist_area_km2": {"400": 0.595,"425": 1.542,"450": 4.684,"475": 9.035,"500": 9.127,"525": 14.368,"550": 25.651,"575": 26.226,"600": 33.125,"625": 35.69,"650": 41.23,"675": 65.191,"700": 72.892,"725": 75.519,"750": 74.787,"775": 72.488,"800": 67.486,"825": 65.483,"850": 65.444,"875": 65.666,"900": 64.202,"925": 65.606,"950": 73.126,"975": 86.282,"1000": 89.135,"1025": 87.861,"1050": 90.927,"1075": 109.853,"1100": 108.067,"1125": 109.045,"1150": 97.562,"1175": 75.392,"1200": 61.981,"1225": 59.08,"1250": 53.027,"1275": 48.094,"1300": 43.39,"1325": 38.119,"1350": 36.443,"1375": 40.403,"1400": 37.58,"1425": 37.41,"1450": 36.889,"1475": 36.42,"1500": 32.312,"1525": 36.077,"1550": 18.31,"1575": 4.121,"1600": 0.093,"1625": 0.056,"1650": 0.074,"1675": 0.056,"1700": 0.074}}}