{"type":"Feature","properties":{"GID_3":"ZAF.4.9.5_1","GID_0":"ZAF","country":"SouthAfrica","GID_1":"ZAF.4_1","province":"KwaZulu-Natal","NL_NAME_1":"NA","GID_2":"ZAF.4.9_1","county":"Uthukela","NL_NAME_2":"NA","city":"Umtshezi","VARNAME_3":"NA","NL_NAME_3":"NA","TYPE_3":"LocalMunicipality","ENGTYPE_3":"LocalMunicipality","CC_3":"KZN234","HASC_3":"NA","name":"Umtshezi.city"},
"geometry":{"type": "MultiPolygon","coordinates": [[[[29.9544,-29.1192,1552.3676],[29.9623,-29.0997,1523.9745],[29.9857,-29.0863,1531.5458],[30.0258,-29.0896,1610.2637],[30.028,-29.0593,1509.6846],[30.0634,-29.056,1567.1736],[30.0503,-29.0272,1348.5127],[30.0718,-29.0119,1281.9052],[30.0862,-28.9665,1148.8728],[30.1501,-28.9956,1421.7998],[30.155,-28.9793,1172.9193],[30.1737,-28.9776,1474.1987],[30.187,-28.9594,1483.1029],[30.1977,-28.9801,1500.5803],[30.2151,-28.9806,1476.5763],[30.2185,-28.9982,1676.0522],[30.2296,-28.984,1519.8228],[30.2302,-28.979,1413.9988],[30.2314,-28.9642,1380.2141],[30.2237,-28.9457,1520.8198],[30.2875,-28.9149,1254.8936],[30.2681,-28.9053,1139.5142],[30.2731,-28.877,1180.6338],[30.2724,-28.8447,1017.4635],[30.2745,-28.8345,982.1746],[30.2832,-28.8111,940.4218],[30.2787,-28.7318,696.1298],[30.2675,-28.731,617.7081],[30.2575,-28.7336,618.3243],[30.2484,-28.7335,621.9664],[30.2388,-28.7404,621.1984],[30.2296,-28.7406,625.8515],[30.2217,-28.7438,626.7611],[30.2159,-28.7437,627.1903],[30.2102,-28.7491,626.0991],[30.2047,-28.7477,631.0075],[30.1973,-28.7505,630.674],[30.1927,-28.7493,632.0602],[30.1895,-28.7527,632.4022],[30.1859,-28.7539,630.1088],[30.1742,-28.7469,632.7736],[30.1709,-28.7465,633.9642],[30.1695,-28.7482,638.1426],[30.1707,-28.7637,641.5469],[30.1649,-28.7645,639.4998],[30.1535,-28.7615,667.0502],[30.1486,-28.7588,641.7139],[30.1501,-28.7552,643.458],[30.1445,-28.7462,646.8517],[30.1365,-28.7416,676.0601],[30.1438,-28.7358,649.7739],[30.1475,-28.7257,685.2559],[30.147,-28.7224,701.5137],[30.1307,-28.7186,669.554],[30.127,-28.7211,676.9984],[30.1211,-28.7323,673.6288],[30.1194,-28.733,688.048],[30.1124,-28.7302,684.6148],[30.0972,-28.7304,679.2081],[30.0855,-28.7175,700.8052],[30.0757,-28.7219,685.6489],[30.0668,-28.7209,686.8034],[30.0616,-28.7145,697.5493],[30.0612,-28.7068,718.6889],[30.0597,-28.7048,697.0396],[30.0527,-28.7024,715.6711],[30.0439,-28.7057,703.4909],[30.0407,-28.704,704.6691],[30.0403,-28.6977,721.1482],[30.044,-28.6941,712.1649],[30.0453,-28.6897,720.6591],[30.0446,-28.6804,727.4932],[30.0406,-28.6785,726.5195],[30.0268,-28.6826,729.5322],[30.0256,-28.6808,745.1646],[30.026,-28.6748,794.1166],[30.0234,-28.6728,749.179],[30.0123,-28.6774,738.11],[30.0093,-28.668,787.6677],[30.0036,-28.6581,749.2578],[30.0004,-28.654,750.8295],[29.9946,-28.6506,786.1148],[29.9946,-28.6419,759.8583],[29.99,-28.6411,764.6134],[29.9799,-28.6438,775.5482],[29.9674,-28.6516,775.3552],[29.9667,-28.6591,780.5825],[29.9625,-28.6646,782.9712],[29.9644,-28.6682,813.477],[29.9588,-28.6724,788.0682],[29.9432,-28.6702,799.9564],[29.9345,-28.6741,838.875],[29.9326,-28.6759,830.3242],[29.9316,-28.6806,844.4833],[29.9289,-28.6826,815.1094],[29.9139,-28.6783,832.5174],[29.9103,-28.6791,863.6742],[29.9059,-28.6834,829.9293],[29.8935,-28.6802,837.9269],[29.8903,-28.6815,878.5751],[29.8869,-28.6739,848.4201],[29.8803,-28.6695,883.9182],[29.8766,-28.6716,882.1309],[29.8712,-28.68,887.7571],[29.8644,-28.6771,888.0301],[29.8602,-28.6782,889.8184],[29.8475,-28.6952,918.5886],[29.8411,-28.6979,923.8208],[29.8337,-28.6962,934.7778],[29.8293,-28.6985,931.1618],[29.829,-28.7059,940.5607],[29.8366,-28.7144,946.9812],[29.8363,-28.7219,945.0988],[29.8459,-28.7273,945.3799],[29.8444,-28.7306,947.6964],[29.8479,-28.7439,983.3036],[29.8396,-28.7592,985.7412],[29.8483,-28.7612,985.5923],[29.8371,-28.7658,985.9084],[29.8349,-28.7624,977.7976],[29.8231,-28.7706,978.6437],[29.8159,-28.7535,978.9098],[29.8171,-28.7532,978.9098],[29.8169,-28.7441,955.7369],[29.8193,-28.7433,955.0931],[29.8184,-28.7421,953.3054],[29.8137,-28.744,953.3552],[29.8033,-28.7426,955.0695],[29.802,-28.738,954.1196],[29.7968,-28.7326,957.0884],[29.7833,-28.7278,958.8027],[29.7815,-28.7302,956.3241],[29.7899,-28.7374,958.2755],[29.7888,-28.7405,960.2299],[29.7612,-28.7379,964.0748],[29.7619,-28.7789,1051.4799],[29.7384,-28.7918,1083.7954],[29.7337,-28.8028,1081.7155],[29.7092,-28.8354,1093.6729],[29.728,-28.858,1080.1401],[29.7291,-28.8619,1099.3954],[29.7415,-28.8799,1124.0055],[29.7376,-28.8809,1120.5911],[29.7444,-28.8829,1119.7673],[29.7723,-28.9084,1077.8162],[29.778199999999998,-28.9038,1058.9331],[29.7826,-28.9189,1091.0757],[29.8183,-28.9424,1118.1936],[29.8004,-28.9509,1119.6514],[29.8014,-28.9571,1131.1808],[29.8124,-28.9715,1170.0858],[29.8018,-28.985,1179.8499],[29.8054,-28.9883,1197.3713],[29.7984,-28.9892,1177.6443],[29.7942,-28.9867,1176.5896],[29.7971,-28.991,1186.6211],[29.7769,-29.0198,1252.6761],[29.7614,-29.0256,1465.3612],[29.7614,-29.0278,1457.1257],[29.7694,-29.0465,1298.4933],[29.7738,-29.0458,1236.2178],[29.77,-29.0545,1265.8354],[29.7742,-29.0618,1264.4678],[29.7798,-29.078,1362.6761],[29.7928,-29.0693,1340.4772],[29.81,-29.0854,1381.0707],[29.8232,-29.0871,1210.2576],[29.8117,-29.0915,1210.3484],[29.8143,-29.0962,1240.2655],[29.8073,-29.1097,1354.0267],[29.772,-29.125,1343.7465],[29.7777,-29.1305,1356.5859],[29.7736,-29.1372,1370.056],[29.7622,-29.1409,1363.95],[29.7625,-29.154,1387.4053],[29.7709,-29.1568,1388.7557],[29.7755,-29.1696,1572.7059],[29.7459,-29.1842,1529.2498],[29.7557,-29.2069,1599.8441],[29.7806,-29.1928,1526.5839],[29.787,-29.1974,1524.2816],[29.7972,-29.1882,1577.0789],[29.8001,-29.2171,1541.3181],[29.8291,-29.2198,1596.4426],[29.8549,-29.2181,1567.5692],[29.8685,-29.1978,1725.2391],[29.8731,-29.183,1692.5936],[29.8923,-29.1617,1655.6917],[29.8998,-29.15,1649.6455],[29.9269,-29.1218,1687.7079],[29.9498,-29.1312,1586.5491],[29.9544,-29.1192,1552.3676]]]]}}