{"type": "Feature","bbox": [24.3466,-30.6939,29.7851,-26.6687],"geometry": {"type": "MultiPolygon","coordinates": [[[[26.4824,-30.6289,1282.6768],[26.4859,-30.6306,1278.5],[26.4938,-30.6299,1282.1877],[26.5042,-30.6318,1282.6294],[26.5105,-30.636,1279.0],[26.5217,-30.6402,1279.5],[26.5512,-30.6618,1285.2954],[26.5579,-30.6641,1281.9305],[26.5755,-30.6667,1284.9445],[26.5909,-30.6626,1287.5002],[26.6077,-30.664,1283.6316],[26.629,-30.6617,1286.3103],[26.6365,-30.6728,1286.7883],[26.6278,-30.6782,1286.5648],[26.6249,-30.6832,1285.5],[26.6253,-30.6912,1288.9866],[26.6294,-30.6939,1286.0],[26.6396,-30.6936,1290.2512],[26.6535,-30.6901,1291.6736],[26.6608,-30.6853,1287.5],[26.6698,-30.6706,1288.0],[26.6753,-30.6675,1297.4681],[26.6773,-30.6682,1288.5],[26.6807,-30.6784,1289.0],[26.6857,-30.686,1289.5],[26.6932,-30.6879,1293.6521],[26.7031,-30.6869,1294.7739],[26.7091,-30.684,1290.5],[26.7257,-30.6664,1296.0437],[26.7366,-30.6646,1297.5293],[26.7519,-30.6661,1296.7202],[26.762,-30.658,1301.5779],[26.7687,-30.6555,1295.4838],[26.7761,-30.6484,1296.0474],[26.8053,-30.6394,1301.7092],[26.8141,-30.6427,1297.8734],[26.8283,-30.6596,1298.4178],[26.8388,-30.6694,1301.2291],[26.8443,-30.6826,1302.751],[26.8543,-30.6848,1305.616],[26.8641,-30.684,1300.4574],[26.8727,-30.6813,1309.0645],[26.8761,-30.6781,1301.3376],[26.8773,-30.6737,1314.5021],[26.8758,-30.6649,1302.744],[26.8787,-30.6596,1302.5035],[26.8862,-30.6595,1312.3276],[26.8962,-30.6671,1302.678],[26.903,-30.6689,1302.3389],[26.9181,-30.6651,1303.8582],[26.9346,-30.6651,1308.1891],[26.9488,-30.6586,1307.5752],[26.9493,-30.6529,1328.3921],[26.9301,-30.6276,1310.4047],[26.9293,-30.6245,1318.7273],[26.933,-30.619,1308.8916],[26.9398,-30.6174,1305.5],[26.9479,-30.6076,1306.0],[26.9794,-30.5979,1346.0923],[27.0005,-30.5946,1319.8932],[27.0056,-30.5957,1313.3096],[27.0103,-30.6041,1313.594],[27.0138,-30.6064,1348.3195],[27.0279,-30.6046,1387.0732],[27.0337,-30.6007,1328.1915],[27.0426,-30.5876,1326.7373],[27.0415,-30.5815,1338.5303],[27.0392,-30.5791,1325.5033],[27.0265,-30.5786,1311.0],[27.0178,-30.5613,1315.7932],[27.0054,-30.5579,1327.2695],[27.0004,-30.5534,1317.5],[26.9981,-30.5487,1358.2925],[27.0024,-30.5398,1317.5],[27.0057,-30.5373,1321.99],[27.0129,-30.5363,1329.8176],[27.0226,-30.5375,1318.0],[27.0274,-30.5343,1328.2997],[27.0349,-30.5374,1327.9856],[27.0427,-30.537,1324.5311],[27.065,-30.5297,1351.6858],[27.0853,-30.528,1335.2734],[27.089,-30.5305,1325.4667],[27.0871,-30.5393,1381.0293],[27.0913,-30.5477,1349.2969],[27.0963,-30.5536,1328.0645],[27.1061,-30.5583,1343.0062],[27.1135,-30.5534,1327.4409],[27.1213,-30.5409,1357.4536],[27.1327,-30.538,1374.5017],[27.138,-30.5322,1356.1948],[27.1349,-30.5238,1345.5565],[27.1272,-30.5153,1329.0106],[27.1282,-30.5118,1354.4253],[27.1317,-30.5095,1335.551],[27.1395,-30.5097,1339.0719],[27.1611,-30.5142,1338.1021],[27.1697,-30.5123,1340.0223],[27.1763,-30.52,1335.2168],[27.1864,-30.5246,1354.1848],[27.206,-30.5074,1340.933],[27.2057,-30.5006,1342.9148],[27.2095,-30.4935,1337.5],[27.2099,-30.489,1363.7621],[27.2128,-30.487,1338.0],[27.2153,-30.4876,1343.6753],[27.219,-30.4923,1369.3077],[27.2183,-30.5054,1367.5381],[27.2197,-30.5086,1338.5],[27.2215,-30.5104,1339.7583],[27.2297,-30.5096,1358.6482],[27.2295,-30.4992,1342.2537],[27.2336,-30.4933,1342.6813],[27.2332,-30.4848,1347.4995],[27.2353,-30.4823,1347.0461],[27.2422,-30.4805,1341.0],[27.2448,-30.4807,1342.4821],[27.2481,-30.4868,1349.1985],[27.2482,-30.4953,1341.5],[27.2511,-30.5025,1346.1621],[27.2621,-30.5037,1357.72],[27.2665,-30.5063,1350.4675],[27.2747,-30.5023,1349.4894],[27.2833,-30.5031,1353.6425],[27.2902,-30.5103,1348.6819],[27.2975,-30.5122,1352.641],[27.3007,-30.5088,1351.8584],[27.3012,-30.5016,1381.9399],[27.2984,-30.4946,1356.3622],[27.3064,-30.4906,1361.2651],[27.3243,-30.4877,1352.4912],[27.3279,-30.4847,1353.1096],[27.3284,-30.4819,1350.6282],[27.3261,-30.4783,1363.6296],[27.3211,-30.4756,1366.0071],[27.3148,-30.469,1357.1781],[27.299,-30.4639,1363.1968],[27.2959,-30.4616,1382.3746],[27.2935,-30.4552,1360.4697],[27.3006,-30.4437,1363.6531],[27.3049,-30.4413,1375.7324],[27.3111,-30.4411,1375.9722],[27.3223,-30.4464,1381.8285],[27.3365,-30.4504,1371.3997],[27.3479,-30.4492,1380.3021],[27.3556,-30.4431,1370.0778],[27.3681,-30.4381,1379.1106],[27.3687,-30.434,1365.7657],[27.3615,-30.4253,1366.9875],[27.340699999999998,-30.431,1384.3667],[27.3338,-30.4294,1390.1173],[27.3242,-30.4232,1378.9935],[27.3236,-30.4177,1420.7589],[27.3319,-30.4157,1390.1002],[27.3346,-30.4121,1384.7025],[27.3391,-30.4035,1372.7058],[27.3389,-30.3983,1369.6497],[27.3446,-30.3973,1377.9177],[27.3522,-30.4011,1372.55],[27.366,-30.403,1388.1628],[27.3734,-30.4053,1376.5439],[27.3769,-30.4088,1381.0544],[27.3809,-30.4064,1374.5969],[27.3832,-30.4013,1383.009],[27.3991,-30.3951,1378.9192],[27.404,-30.3909,1397.7358],[27.4018,-30.385,1409.4336],[27.4029,-30.3804,1385.7799],[27.3959,-30.3703,1383.4436],[27.3967,-30.3611,1396.0485],[27.3914,-30.3575,1380.9332],[27.3834,-30.3583,1378.8518],[27.3799,-30.3619,1382.8982],[27.3787,-30.3745,1375.0],[27.3721,-30.3745,1378.1232],[27.3683,-30.3709,1375.5],[27.3629,-30.3552,1383.5936],[27.367,-30.3452,1417.2329],[27.3664,-30.3387,1377.6638],[27.3583,-30.3358,1380.0575],[27.3534,-30.3359,1378.0],[27.3489,-30.3324,1379.0],[27.3489,-30.3308,1381.9226],[27.3603,-30.3242,1384.5306],[27.3773,-30.3271,1385.0956],[27.3773,-30.3248,1397.8057],[27.3836,-30.3201,1391.0549],[27.3851,-30.32,1391.0549],[27.3872,-30.3241,1388.7333],[27.3916,-30.3207,1400.11],[27.3917,-30.3186,1394.0404],[27.3853,-30.3111,1418.7227],[27.3877,-30.3082,1396.2097],[27.3946,-30.3104,1408.705],[27.3947,-30.3053,1405.103],[27.3924,-30.3034,1396.6855],[27.3835,-30.3043,1396.4089],[27.3799,-30.2998,1393.988],[27.3891,-30.2935,1396.9717],[27.385,-30.2892,1408.2455],[27.3897,-30.284,1401.9448],[27.3874,-30.2817,1405.0342],[27.3826,-30.2822,1401.9011],[27.3798,-30.2742,1410.152],[27.3773,-30.2761,1400.2919],[27.3766,-30.2797,1401.631],[27.3738,-30.2806,1400.4697],[27.3692,-30.279,1405.6296],[27.3669,-30.2737,1407.5732],[27.3701,-30.2703,1402.8572],[27.3708,-30.2672,1399.8109],[27.3658,-30.2591,1404.0841],[27.3706,-30.2486,1404.2209],[27.3666,-30.2372,1420.4738],[27.3701,-30.2274,1415.2],[27.3654,-30.218,1410.8917],[27.3678,-30.2133,1414.4996],[27.3738,-30.2071,1413.386],[27.3753,-30.1985,1409.7831],[27.3713,-30.1978,1414.2346],[27.3682,-30.1926,1410.3093],[27.3709,-30.1899,1411.5804],[27.3818,-30.1947,1415.91],[27.3861,-30.1934,1430.5042],[27.3862,-30.1826,1422.5735],[27.3811,-30.1808,1415.7086],[27.3811,-30.1773,1416.9828],[27.3875,-30.1786,1417.3765],[27.3899,-30.1776,1416.6646],[27.3918,-30.1755,1417.1915],[27.3923,-30.167,1416.7167],[27.4017,-30.1637,1417.578],[27.4014,-30.1584,1425.239],[27.4085,-30.156,1420.7013],[27.4102,-30.1524,1420.1846],[27.4046,-30.1501,1418.6416],[27.4074,-30.1449,1418.816],[27.4021,-30.1391,1429.5541],[27.39,-30.1434,1483.8931],[27.3411,-30.146,1596.637],[27.336,-30.1478,1640.0593],[27.3269,-30.1481,1686.9133],[27.323,-30.1399,1769.0963],[27.2965,-30.0561,1842.1208],[27.2909,-30.0503,1879.8085],[27.2685,-30.043,1845.6139],[27.2654,-30.0332,1934.5924],[27.2695,-30.026,1967.2493],[27.2539,-30.0261,1930.4525],[27.2347,-30.0083,1886.0607],[27.2189,-30.01,1911.6077],[27.2241,-30.0058,1862.7614],[27.2229,-29.9968,1755.8762],[27.0966,-29.7299,1660.6165],[27.0833,-29.723,1662.58],[27.088,-29.7195,1650.0562],[27.0644,-29.7051,1617.3984],[27.0385,-29.677,1592.6372],[27.0284,-29.6711,1472.6948],[27.0243,-29.6661,1445.0729],[27.0196,-29.6667,1430.9336],[27.0196,-29.6642,1429.1198],[27.0133,-29.6609,1422.178],[27.0116,-29.6485,1422.8499],[27.026,-29.642,1427.4089],[27.0281,-29.6388,1425.2155],[27.025,-29.6282,1433.2944],[27.0182,-29.6206,1423.9056],[27.018,-29.6171,1424.449],[27.0203,-29.6158,1425.5933],[27.0285,-29.6157,1425.6943],[27.0339,-29.6134,1430.0618],[27.0368,-29.6215,1427.6873],[27.0433,-29.6295,1431.6664],[27.0487,-29.6343,1427.9182],[27.0572,-29.6371,1429.2457],[27.0659,-29.6195,1431.8794],[27.064,-29.6116,1431.2871],[27.0666,-29.6064,1431.8315],[27.0649,-29.5993,1427.5],[27.0663,-29.5973,1435.9698],[27.0695,-29.5978,1442.457],[27.0754,-29.6021,1431.8881],[27.0791,-29.6117,1436.4238],[27.0816,-29.6146,1452.6835],[27.0851,-29.6151,1441.0359],[27.0893,-29.6084,1438.6636],[27.0947,-29.6046,1434.6934],[27.1061,-29.603,1448.7642],[27.104,-29.5903,1441.3524],[27.1145,-29.5852,1439.4863],[27.1194,-29.5777,1441.9287],[27.13,-29.5737,1438.0347],[27.1411,-29.5752,1440.9966],[27.1542,-29.561,1443.2362],[27.1587,-29.5596,1441.2666],[27.1651,-29.5625,1440.9084],[27.185,-29.5659,1441.7778],[27.1895,-29.5699,1444.6033],[27.1949,-29.5676,1446.6166],[27.2027,-29.5687,1442.926],[27.2085,-29.5657,1449.5779],[27.206,-29.5605,1447.0345],[27.2068,-29.5578,1445.5317],[27.2217,-29.5495,1441.0],[27.2206,-29.5458,1445.3762],[27.2221,-29.5445,1447.9556],[27.2269,-29.5436,1445.6825],[27.2314,-29.5543,1447.5061],[27.2383,-29.5531,1447.178],[27.2439,-29.5545,1450.4285],[27.2559,-29.5475,1451.2136],[27.2549,-29.5368,1449.7351],[27.2573,-29.5333,1448.2588],[27.2628,-29.5333,1452.4141],[27.2768,-29.5263,1451.6956],[27.2831,-29.528,1449.6978],[27.2891,-29.5334,1451.1235],[27.3018,-29.5325,1452.8618],[27.3052,-29.5339,1456.4995],[27.3065,-29.5307,1454.9478],[27.3002,-29.5124,1453.311],[27.3051,-29.5062,1458.3485],[27.3043,-29.5003,1454.4192],[27.3064,-29.4968,1457.9423],[27.3294,-29.4807,1459.7583],[27.3335,-29.4807,1466.7212],[27.3401,-29.486,1456.7216],[27.3473,-29.488,1468.0369],[27.3613,-29.4856,1467.337],[27.3636,-29.4786,1459.0099],[27.3567,-29.4666,1459.9032],[27.358,-29.4607,1462.0391],[27.3566,-29.4527,1468.1298],[27.3622,-29.45,1464.3859],[27.3705,-29.4487,1462.8015],[27.3749,-29.4431,1477.5715],[27.3801,-29.4408,1465.7867],[27.3824,-29.4325,1470.6014],[27.3895,-29.4272,1471.6973],[27.3922,-29.4229,1467.0344],[27.3918,-29.4162,1466.1458],[27.3958,-29.4112,1469.1475],[27.404,-29.414,1469.7567],[27.4123,-29.4112,1470.8428],[27.4182,-29.411,1474.9811],[27.4246,-29.4041,1478.199],[27.4217,-29.3971,1472.4507],[27.4216,-29.3876,1472.1716],[27.4113,-29.38,1483.0038],[27.4075,-29.3752,1481.709],[27.4055,-29.3709,1470.0],[27.406,-29.3649,1480.4771],[27.4089,-29.3637,1477.2936],[27.4139,-29.3653,1475.8119],[27.4264,-29.3737,1476.7227],[27.4323,-29.373,1481.2708],[27.4353,-29.3702,1478.1686],[27.4377,-29.3642,1482.4227],[27.4338,-29.3522,1477.6023],[27.4363,-29.3342,1487.7443],[27.4445,-29.3287,1477.5695],[27.4609,-29.3266,1483.345],[27.4723,-29.3203,1497.2184],[27.472,-29.3181,1488.1046],[27.4647,-29.3135,1483.103],[27.4636,-29.3076,1481.879],[27.457,-29.3054,1482.1389],[27.4546,-29.2977,1496.845],[27.4656,-29.2941,1493.7152],[27.4717,-29.2953,1486.3331],[27.4807,-29.2936,1488.4187],[27.4844,-29.2965,1490.5745],[27.4846,-29.3018,1485.1128],[27.4893,-29.302,1485.5686],[27.4918,-29.3004,1487.3201],[27.4902,-29.2941,1494.3527],[27.4941,-29.2897,1485.4697],[27.4949,-29.284,1489.2059],[27.5145,-29.2819,1485.8293],[27.5202,-29.2762,1484.9506],[27.525,-29.2661,1494.7429],[27.5409,-29.2599,1486.5052],[27.5462,-29.2525,1490.4371],[27.5476,-29.2464,1489.1161],[27.542,-29.2414,1486.7437],[27.5338,-29.2402,1489.2467],[27.5304,-29.237,1490.5312],[27.5247,-29.241,1491.5593],[27.5216,-29.2403,1491.9414],[27.5205,-29.2385,1488.3972],[27.5243,-29.2346,1492.5024],[27.5247,-29.2317,1492.0659],[27.52,-29.2269,1492.5186],[27.5147,-29.2255,1499.9689],[27.5149,-29.2244,1494.3501],[27.5254,-29.217,1497.9657],[27.5296,-29.2194,1492.6136],[27.535,-29.2175,1492.3528],[27.5406,-29.2059,1494.0977],[27.5456,-29.2038,1494.6077],[27.5514,-29.1962,1509.7086],[27.5559,-29.1939,1493.8789],[27.5651,-29.1925,1490.354],[27.5671,-29.1876,1495.3931],[27.5748,-29.1848,1506.3994],[27.5767,-29.1823,1496.0988],[27.5782,-29.1717,1500.8141],[27.5806,-29.1663,1494.2451],[27.5906,-29.1661,1498.5122],[27.5929,-29.1695,1494.5458],[27.5963,-29.1712,1494.4688],[27.6002,-29.1685,1495.7026],[27.6063,-29.1677,1495.6014],[27.6142,-29.1642,1504.0424],[27.6171,-29.1575,1498.0662],[27.6169,-29.1523,1503.9338],[27.6026,-29.1401,1498.9792],[27.6014,-29.1371,1500.6577],[27.6109,-29.1335,1499.7286],[27.6183,-29.1353,1499.6602],[27.6331,-29.1315,1517.9144],[27.6358,-29.1234,1498.9041],[27.6309,-29.1198,1498.6045],[27.6327,-29.1152,1501.4333],[27.6379,-29.1151,1501.3032],[27.6442,-29.1186,1501.3203],[27.6463,-29.1176,1501.8068],[27.6508,-29.1091,1496.803],[27.65,-29.105,1502.1023],[27.6524,-29.1012,1499.4269],[27.6484,-29.0956,1513.9896],[27.6512,-29.0909,1519.2336],[27.647,-29.0856,1508.728],[27.64,-29.0855,1504.5438],[27.6412,-29.0809,1506.6222],[27.65,-29.0783,1507.6675],[27.6604,-29.0863,1514.585],[27.6659,-29.0778,1507.3776],[27.6726,-29.0793,1505.6],[27.6755,-29.0773,1505.1393],[27.6771,-29.0736,1506.8585],[27.6746,-29.07,1509.1388],[27.6765,-29.0668,1512.0104],[27.6749,-29.0651,1505.8735],[27.6674,-29.0636,1505.0801],[27.6599,-29.0557,1514.698],[27.6548,-29.0614,1508.4034],[27.6521,-29.0614,1514.2255],[27.6526,-29.0563,1505.2747],[27.6446,-29.0562,1509.49],[27.6414,-29.0458,1508.5405],[27.6512,-29.0415,1510.1687],[27.6551,-29.0468,1508.3723],[27.6588,-29.0487,1509.4314],[27.6613,-29.0465,1512.0398],[27.673,-29.044,1510.2576],[27.6756,-29.0389,1510.8571],[27.675,-29.0333,1511.509],[27.6698,-29.0296,1511.4182],[27.6701,-29.0273,1513.2574],[27.6748,-29.026,1518.8003],[27.6812,-29.0284,1511.5339],[27.6815,-29.024,1517.9897],[27.6859,-29.0251,1513.7448],[27.688,-29.0232,1514.7161],[27.6809,-29.0164,1516.3914],[27.6824,-29.0066,1512.3364],[27.6851,-29.0036,1514.9686],[27.6922,-29.0049,1517.2085],[27.7056,-29.0116,1518.6477],[27.711,-29.0118,1524.5784],[27.7136,-29.0101,1516.6785],[27.717,-29.0003,1514.0454],[27.7145,-28.9974,1517.6427],[27.7163,-28.9916,1518.8843],[27.7096,-28.9906,1518.2607],[27.7074,-28.9824,1521.014],[27.7084,-28.9813,1521.014],[27.7168,-28.9824,1516.098],[27.7229,-28.9756,1517.6442],[27.725,-28.9674,1520.9907],[27.7201,-28.963,1516.7332],[27.721,-28.9576,1520.2317],[27.7255,-28.9564,1518.3684],[27.7257,-28.9529,1522.4568],[27.7231,-28.9516,1519.1206],[27.7231,-28.9494,1519.121],[27.7282,-28.9506,1518.03],[27.7296,-28.9466,1522.1417],[27.7351,-28.9445,1525.4572],[27.7393,-28.9377,1539.5654],[27.7426,-28.9422,1523.8606],[27.7459,-28.9419,1522.6597],[27.7428,-28.9375,1519.6644],[27.7435,-28.9357,1534.0824],[27.7473,-28.9386,1519.9338],[27.7482,-28.9417,1523.1907],[27.76,-28.9414,1525.4362],[27.7619,-28.938,1523.6379],[27.7569,-28.9342,1517.4716],[27.7616,-28.9303,1525.3438],[27.7656,-28.9241,1521.0955],[27.7667,-28.917,1528.655],[27.7624,-28.9125,1548.0861],[27.7569,-28.9125,1525.381],[27.7541,-28.9039,1533.1177],[27.7543,-28.8971,1526.7993],[27.7628,-28.8975,1537.4031],[27.7773,-28.9069,1528.5345],[27.7868,-28.9095,1532.5581],[27.7934,-28.9092,1545.2665],[27.7918,-28.9146,1528.5842],[27.7983,-28.9184,1530.8849],[27.8078,-28.917,1537.4026],[27.8163,-28.9211,1538.5316],[27.8268,-28.9127,1531.4138],[27.8315,-28.9127,1528.0605],[27.8294,-28.9087,1531.1562],[27.8299,-28.9035,1532.1555],[27.8398,-28.9153,1537.0107],[27.8483,-28.9092,1535.5803],[27.8476,-28.9039,1534.2928],[27.8515,-28.903,1532.1567],[27.8541,-28.9097,1536.5085],[27.8585,-28.9104,1534.3032],[27.8594,-28.914,1533.337],[27.864,-28.9136,1531.5839],[27.8689,-28.9198,1536.1987],[27.8794,-28.9173,1533.3684],[27.8835,-28.9149,1533.1022],[27.8884,-28.9167,1535.0397],[27.8909,-28.9144,1534.2271],[27.8912,-28.9106,1541.6401],[27.8963,-28.9086,1540.1783],[27.8982,-28.9024,1546.697],[27.8978,-28.8976,1546.2617],[27.9001,-28.8941,1539.5349],[27.8978,-28.8903,1538.9611],[27.893,-28.8909,1536.376],[27.8878,-28.8884,1539.0366],[27.8931,-28.8792,1563.5272],[27.9,-28.8785,1542.0231],[27.9086,-28.8816,1541.4677],[27.92,-28.8775,1545.2869],[27.9201,-28.8719,1547.4863],[27.9158,-28.8662,1541.4612],[27.9187,-28.8603,1540.3838],[27.9211,-28.859,1546.7371],[27.9274,-28.8619,1537.9429],[27.9267,-28.8568,1541.4775],[27.9298,-28.8529,1541.345],[27.9385,-28.8523,1541.2334],[27.9384,-28.8483,1543.4666],[27.9483,-28.8525,1554.621],[27.9554,-28.8582,1550.5049],[27.9618,-28.8596,1545.4391],[27.9625,-28.8656,1545.7467],[27.9658,-28.871,1548.42],[27.9701,-28.8743,1546.3127],[27.984,-28.8769,1547.9962],[27.9906,-28.883,1550.7512],[27.9921,-28.8804,1547.3635],[27.9871,-28.877,1551.099],[27.9935,-28.8761,1548.6262],[27.994,-28.8727,1550.2406],[27.9958,-28.872,1549.0256],[27.9999,-28.8774,1548.0667],[28.0021,-28.8765,1550.7332],[28.0048,-28.8716,1550.8293],[28.0076,-28.8727,1565.8412],[28.0131,-28.8799,1551.897],[28.0184,-28.8757,1555.1914],[28.0247,-28.8741,1555.2424],[28.0289,-28.8791,1550.5836],[28.0303,-28.8766,1551.2207],[28.0286,-28.8735,1548.989],[28.0341,-28.8742,1558.0195],[28.0309,-28.8721,1554.7303],[28.0325,-28.8676,1554.6882],[28.028199999999998,-28.8667,1555.4238],[28.0303,-28.8649,1555.8263],[28.0297,-28.8598,1556.0234],[28.0257,-28.8624,1556.4872],[28.024,-28.8594,1561.6715],[28.0285,-28.8556,1557.2831],[28.0315,-28.856,1557.0405],[28.0361,-28.8499,1556.2798],[28.0405,-28.8506,1556.9346],[28.0413,-28.8463,1561.5983],[28.0447,-28.8455,1560.3226],[28.0478,-28.8417,1565.8162],[28.0515,-28.8441,1560.0624],[28.0545,-28.8414,1573.3101],[28.0543,-28.8348,1573.8921],[28.0501,-28.83,1597.1591],[28.052,-28.8266,1572.0928],[28.0508,-28.8181,1562.0271],[28.0591,-28.8144,1567.6166],[28.0749,-28.815,1572.5707],[28.0754,-28.8111,1566.4808],[28.0784,-28.8103,1562.8254],[28.0773,-28.8073,1562.4011],[28.0806,-28.8062,1564.2616],[28.0868,-28.7998,1567.408],[28.0856,-28.7941,1560.8461],[28.0827,-28.7932,1568.7579],[28.0893,-28.793,1588.4379],[28.0954,-28.7853,1574.98],[28.0946,-28.7834,1566.1741],[28.0978,-28.7819,1570.428],[28.0961,-28.7782,1567.8917],[28.1001,-28.7685,1569.4188],[28.1024,-28.766,1578.8577],[28.1082,-28.765,1580.8053],[28.1138,-28.7577,1600.7887],[28.12,-28.7575,1572.9174],[28.1191,-28.7416,1569.0242],[28.122,-28.7405,1571.722],[28.1251,-28.7451,1572.0294],[28.1282,-28.7468,1574.5463],[28.1309,-28.7458,1576.9731],[28.13,-28.7411,1590.3293],[28.1353,-28.7386,1574.5245],[28.1384,-28.7343,1590.3387],[28.1427,-28.738,1576.8074],[28.1433,-28.7294,1574.3961],[28.1467,-28.7276,1578.6456],[28.1505,-28.7227,1577.8879],[28.1551,-28.7312,1575.2449],[28.1577,-28.7308,1578.7416],[28.1553,-28.7239,1577.719],[28.1572,-28.7234,1583.546],[28.1596,-28.7258,1583.6497],[28.1607,-28.7225,1578.8116],[28.1553,-28.7191,1580.5912],[28.1624,-28.7179,1579.4698],[28.1598,-28.7152,1580.5063],[28.1662,-28.7127,1584.406],[28.1682,-28.7095,1584.3887],[28.167,-28.7055,1583.046],[28.1761,-28.7084,1586.1794],[28.184,-28.7088,1607.8879],[28.1815,-28.7014,1592.2932],[28.1852,-28.6969,1589.7223],[28.1831,-28.6939,1589.0116],[28.1902,-28.6968,1590.0297],[28.1905,-28.7056,1586.7002],[28.1964,-28.7112,1588.0514],[28.2103,-28.7073,1593.0126],[28.2138,-28.7024,1596.5621],[28.2179,-28.702,1594.8469],[28.2207,-28.7043,1597.96],[28.2288,-28.7023,1593.915],[28.2296,-28.6983,1605.34],[28.2335,-28.6951,1598.1884],[28.2414,-28.6967,1604.8151],[28.2433,-28.7026,1604.9094],[28.2478,-28.703,1600.9073],[28.2495,-28.7008,1603.2445],[28.253,-28.7016,1599.8854],[28.2576,-28.7003,1596.8793],[28.2582,-28.7062,1597.918],[28.2605,-28.7092,1595.7216],[28.2661,-28.7083,1599.4083],[28.2683,-28.7061,1600.3942],[28.2732,-28.7112,1601.9812],[28.2812,-28.7149,1603.8982],[28.2859,-28.7132,1603.0886],[28.2871,-28.7103,1601.2859],[28.2903,-28.7114,1605.8257],[28.2919,-28.7078,1605.1692],[28.295,-28.7077,1602.621],[28.2943,-28.7051,1604.3082],[28.2959,-28.7034,1602.7517],[28.2978,-28.7043,1607.6494],[28.2971,-28.7077,1601.9645],[28.299,-28.7072,1601.9645],[28.2992,-28.7048,1601.9832],[28.3018,-28.7062,1603.251],[28.3001,-28.7034,1604.0095],[28.3035,-28.7021,1605.2633],[28.3049,-28.6924,1616.8416],[28.3104,-28.6961,1612.8799],[28.3094,-28.6994,1609.3784],[28.3105,-28.7006,1608.7457],[28.317,-28.701,1617.7917],[28.3203,-28.7037,1609.197],[28.3288,-28.7058,1611.2145],[28.33,-28.7041,1619.0674],[28.3254,-28.7016,1617.5532],[28.3258,-28.7003,1613.1489],[28.3313,-28.6994,1624.1521],[28.3328,-28.6961,1617.7323],[28.3356,-28.6985,1626.8257],[28.3421,-28.6938,1615.4304],[28.344,-28.695,1615.0996],[28.3441,-28.6994,1615.3492],[28.3494,-28.6991,1619.646],[28.3496,-28.7034,1626.4099],[28.3554,-28.6951,1617.5098],[28.3573,-28.6957,1615.5688],[28.3568,-28.6922,1618.2461],[28.3603,-28.6918,1620.1438],[28.3609,-28.69,1625.8412],[28.3595,-28.6885,1618.593],[28.3643,-28.6878,1621.9333],[28.3637,-28.6857,1621.9253],[28.3672,-28.6864,1643.2114],[28.3672,-28.6838,1624.0845],[28.372,-28.6837,1625.0258],[28.3729,-28.6793,1628.1047],[28.3687,-28.675,1629.3093],[28.3706,-28.6737,1629.6603],[28.3703,-28.6704,1630.1431],[28.3659,-28.6654,1639.0391],[28.3722,-28.6658,1625.9686],[28.3757,-28.6606,1636.9197],[28.3852,-28.6566,1635.1833],[28.3871,-28.6529,1635.7167],[28.3889,-28.6537,1638.4011],[28.3873,-28.649,1643.5918],[28.3902,-28.6481,1651.8188],[28.3908,-28.644,1645.0669],[28.394,-28.6442,1658.0605],[28.396,-28.6465,1641.7493],[28.399,-28.6438,1645.0801],[28.4028,-28.6444,1649.8623],[28.4044,-28.6375,1652.0853],[28.4009,-28.6321,1650.5021],[28.403,-28.6276,1667.5525],[28.4009,-28.6251,1659.4316],[28.4019,-28.6243,1652.5569],[28.4095,-28.622,1651.46],[28.4132,-28.6274,1652.4093],[28.417,-28.6262,1679.2932],[28.4195,-28.6277,1657.2061],[28.4246,-28.6243,1684.4373],[28.4261,-28.6255,1655.5558],[28.4301,-28.6201,1676.476],[28.4371,-28.6204,1662.6997],[28.4376,-28.6218,1669.7816],[28.4412,-28.6181,1664.3477],[28.4426,-28.6201,1668.5642],[28.4451,-28.6154,1675.4661],[28.4466,-28.6195,1666.676],[28.4493,-28.6165,1667.2672],[28.4536,-28.6193,1669.8265],[28.4559,-28.6172,1710.0167],[28.4565,-28.6118,1673.2922],[28.4612,-28.6135,1678.999],[28.4592,-28.6108,1681.6151],[28.461,-28.6119,1674.2875],[28.4628,-28.6089,1677.8232],[28.4665,-28.6081,1677.7977],[28.4674,-28.6098,1685.9683],[28.4699,-28.6095,1678.8779],[28.47,-28.6073,1682.3488],[28.4724,-28.6053,1687.641],[28.4763,-28.6058,1693.9066],[28.4784,-28.6093,1683.4714],[28.4817,-28.6075,1684.2642],[28.4861,-28.6125,1690.1975],[28.4879,-28.6113,1693.1027],[28.4896,-28.6061,1717.0286],[28.4947,-28.6079,1694.1938],[28.4963,-28.6059,1701.9669],[28.4995,-28.6093,1697.4513],[28.5026,-28.6078,1701.4008],[28.5014,-28.6131,1702.4739],[28.5071,-28.6181,1817.4224],[28.5082,-28.6175,1756.8796],[28.506,-28.615,1729.0916],[28.5089,-28.6123,1740.5791],[28.5142,-28.6112,1725.8729],[28.5138,-28.6096,1725.8729],[28.5209,-28.6082,1735.1272],[28.5176,-28.607,1744.8586],[28.5181,-28.6027,1762.5648],[28.5212,-28.6035,1760.5853],[28.5241,-28.6012,1797.8638],[28.5284,-28.6059,1786.6995],[28.5285,-28.6098,1759.5974],[28.5303,-28.6103,1761.3789],[28.5325,-28.6096,1787.3989],[28.5318,-28.6072,1764.2859],[28.5361,-28.6079,1785.2959],[28.5403,-28.6025,1801.7306],[28.5429,-28.6068,1793.1292],[28.5464,-28.6071,1792.4491],[28.5485,-28.6096,1823.5872],[28.5518,-28.6056,1866.2117],[28.554,-28.6066,1813.5222],[28.5557,-28.6024,1829.1388],[28.5637,-28.605,1822.7493],[28.5668,-28.6077,1858.173],[28.567,-28.6104,1832.6025],[28.5681,-28.6084,1818.3741],[28.5725,-28.6073,1835.0574],[28.5757,-28.6102,1836.3572],[28.5784,-28.6038,1843.7817],[28.5837,-28.6038,1853.9725],[28.590699999999998,-28.6084,1867.0249],[28.5939,-28.6024,1867.4193],[28.604,-28.6007,1881.8329],[28.604,-28.5983,1878.848],[28.6062,-28.5981,1909.7407],[28.6074,-28.5954,1889.2327],[28.6128,-28.5975,1912.1321],[28.6135,-28.5939,1898.8167],[28.6168,-28.5909,1893.6053],[28.6172,-28.5879,1905.2825],[28.6193,-28.587,1902.5236],[28.6187,-28.5858,1900.2417],[28.622,-28.5806,1958.7513],[28.6287,-28.5808,1935.3813],[28.6324,-28.5826,1926.7993],[28.6326,-28.5789,1938.4977],[28.6351,-28.5788,1935.0933],[28.6366,-28.5756,1937.4116],[28.6388,-28.5778,1936.7395],[28.6395,-28.5754,1937.6277],[28.6447,-28.5753,1942.1194],[28.645,-28.5731,1943.7029],[28.6514,-28.5708,1970.1917],[28.6519,-28.5733,1955.6047],[28.6612,-28.5781,1971.2117],[28.6642,-28.5772,1983.1335],[28.674,-28.5861,2054.4644],[28.6817,-28.5896,2075.2671],[28.6859,-28.5991,2100.7266],[28.6921,-28.604,2142.9089],[28.6939,-28.6075,2178.3145],[28.6969,-28.6082,2217.8354],[28.6982,-28.6124,2244.8936],[28.7036,-28.6181,2320.7007],[28.6977,-28.6262,2498.1309],[28.6981,-28.631,2546.4937],[28.7009,-28.6366,2688.678],[28.6961,-28.6382,2921.0476],[28.6969,-28.6397,2969.9358],[28.6947,-28.6444,2969.6396],[28.6981,-28.6451,2965.2107],[28.7064,-28.6523,2963.3403],[28.7047,-28.6563,2893.5808],[28.7081,-28.6638,2918.2026],[28.7047,-28.6714,3030.7419],[28.7242,-28.6816,3134.3965],[28.7265,-28.6843,3127.6367],[28.7261,-28.6877,3145.3599],[28.73,-28.689,3116.9602],[28.7345,-28.6864,3109.8418],[28.7434,-28.6877,3090.6089],[28.7535,-28.6838,3111.0547],[28.7658,-28.6901,2911.2429],[28.7778,-28.7008,2958.4861],[28.7847,-28.7012,2975.7612],[28.7935,-28.699,2979.4453],[28.7992,-28.7073,2959.1609],[28.8062,-28.7099,2948.2065],[28.8069,-28.7176,2982.9517],[28.8117,-28.7207,2990.5652],[28.8033,-28.73,3082.1777],[28.8004,-28.7426,3099.4958],[28.8009,-28.7454,3100.467],[28.8042,-28.7474,3207.5613],[28.8039,-28.7592,3253.5913],[28.8075,-28.7643,3223.4856],[28.8085,-28.7715,3255.604],[28.8179,-28.7757,3256.8936],[28.8231,-28.772,3269.0605],[28.8243,-28.7671,3186.1125],[28.829,-28.7658,3173.7808],[28.8304,-28.7633,3226.0686],[28.8404,-28.7603,3129.9902],[28.8415,-28.7586,3143.687],[28.8524,-28.7596,3179.3296],[28.8576,-28.756,3177.552],[28.8686,-28.7606,3179.9612],[28.8736,-28.7707,3226.0715],[28.883,-28.7487,3002.2686],[28.8913,-28.7465,3051.0383],[28.8921,-28.7449,2909.0933],[28.9,-28.7032,2251.189],[28.8962,-28.6947,2216.3862],[28.8972,-28.6909,2191.2354],[28.8991,-28.6873,2177.4517],[28.9034,-28.6872,2137.2773],[28.9089,-28.6814,2060.5352],[28.922,-28.6637,2150.2205],[28.926,-28.6638,2136.1592],[28.9284,-28.6601,2197.8662],[28.9346,-28.6569,2034.7354],[28.9357,-28.6538,2002.2428],[28.9428,-28.6509,2070.76],[28.9447,-28.6387,1961.86],[28.9409,-28.6314,1973.1671],[28.9443,-28.6226,2057.0452],[28.9466,-28.6208,2075.3689],[28.9486,-28.6133,1949.1184],[28.9559,-28.6075,2073.8726],[28.966,-28.6053,1944.0486],[28.9613,-28.5972,2095.7725],[28.974,-28.5746,2284.0674],[29.0963,-28.5451,1866.7767],[29.135,-28.5663,1738.9611],[29.1615,-28.5421,1894.0406],[29.171,-28.53,1934.2775],[29.1787,-28.5427,1793.8099],[29.1964,-28.545,1787.4575],[29.2162,-28.5191,1889.4696],[29.1915,-28.4938,1869.4736],[29.229,-28.4563,1843.5167],[29.2488,-28.4249,2021.2703],[29.2615,-28.4337,1886.0714],[29.2685,-28.4319,1815.9746],[29.2901,-28.4379,1773.0728],[29.3226,-28.424,1831.6057],[29.3201,-28.4068,1808.7238],[29.3388,-28.3988,1997.2815],[29.3575,-28.388,1712.2362],[29.3734,-28.3719,1694.4805],[29.4143,-28.3759,1835.8569],[29.4277,-28.3393,1788.8467],[29.4381,-28.3321,1871.9723],[29.4376,-28.3211,1823.1554],[29.4587,-28.3104,1842.1471],[29.4793,-28.2907,1743.3143],[29.4829,-28.2722,1700.1167],[29.5099,-28.2654,1720.2786],[29.5506,-28.2472,1740.406],[29.5587,-28.2583,1758.4203],[29.6198,-28.2412,1784.822],[29.6244,-28.225,1860.8154],[29.6096,-28.215,1831.6213],[29.6263,-28.1857,1918.9664],[29.6628,-28.1772,1830.0269],[29.6633,-28.142,1892.2695],[29.6541,-28.1383,1904.6117],[29.6606,-28.1261,1876.7861],[29.6526,-28.0988,1853.6477],[29.6555,-28.09,1851.8206],[29.6318,-28.069,1916.6262],[29.6169,-28.0468,2096.9819],[29.6394,-28.0156,1858.6007],[29.6359,-27.9945,1932.9542],[29.6508,-27.9667,1959.9727],[29.6636,-27.9573,1988.0555],[29.6737,-27.9576,1965.2249],[29.6768,-27.9595,1985.8452],[29.6798,-27.9574,1987.1995],[29.6732,-27.9432,1983.335],[29.6646,-27.9418,1981.1649],[29.6576,-27.9374,1990.0684],[29.6632,-27.93,1980.4248],[29.6578,-27.9245,2000.7402],[29.6538,-27.9233,2008.5175],[29.6567,-27.9189,2003.9594],[29.6641,-27.9213,1972.1099],[29.6717,-27.917,1972.0055],[29.678,-27.9088,1962.7522],[29.682,-27.9068,1959.4634],[29.6903,-27.8957,1933.1227],[29.6869,-27.8907,1937.4037],[29.6827,-27.888,1938.6471],[29.683,-27.8836,1966.2935],[29.6859,-27.8831,1958.1313],[29.6872,-27.878,1917.0144],[29.685,-27.8675,1850.3888],[29.6896,-27.8644,1893.4521],[29.6871,-27.8585,1924.936],[29.699,-27.8598,1973.3784],[29.7028,-27.8566,1946.9016],[29.6969,-27.8437,1977.4945],[29.6931,-27.8393,2000.8611],[29.6938,-27.8323,1977.3085],[29.6963,-27.8291,1935.1589],[29.697,-27.8245,1850.2349],[29.7022,-27.8222,1871.965],[29.7038,-27.8189,1851.4441],[29.7095,-27.8157,1895.4788],[29.7134,-27.8181,1882.3865],[29.716,-27.8147,1911.5416],[29.7217,-27.8118,1897.3728],[29.7229,-27.8128,1897.3728],[29.7293,-27.812,1892.1252],[29.7313,-27.8081,1930.657],[29.7283,-27.801,1979.4069],[29.724,-27.7968,1963.8574],[29.7108,-27.7956,1982.6978],[29.7115,-27.7927,1973.9113],[29.7175,-27.7875,1958.9016],[29.7127,-27.7805,1960.8396],[29.709,-27.7799,1962.5364],[29.7078,-27.7752,1968.8547],[29.7108,-27.7717,1969.1902],[29.7035,-27.7667,1964.7792],[29.703,-27.7614,1967.4312],[29.7083,-27.7572,2006.7349],[29.7047,-27.7469,2137.5095],[29.7091,-27.7389,2011.1946],[29.7103,-27.7302,1960.1392],[29.7086,-27.7262,1960.8964],[29.71,-27.7222,1974.509],[29.7123,-27.7209,1973.4812],[29.7086,-27.7165,1975.8969],[29.709,-27.6985,2041.1757],[29.6997,-27.698,2018.6537],[29.6939,-27.6953,2037.4254],[29.6854,-27.6862,2057.5708],[29.6854,-27.6814,2003.2552],[29.6838,-27.6796,1975.1951],[29.6779,-27.6771,1996.5061],[29.6701,-27.6701,2048.5771],[29.6698,-27.6672,1960.2964],[29.6743,-27.66,1893.848],[29.6712,-27.6505,1864.1021],[29.678,-27.6389,1806.0697],[29.6844,-27.6377,1793.5863],[29.6979,-27.6408,1801.2607],[29.7121,-27.6306,1806.5881],[29.7148,-27.6319,1811.5726],[29.7183,-27.6295,1817.2533],[29.7206,-27.6268,1813.3589],[29.7196,-27.6257,1826.7643],[29.7229,-27.6188,1783.2512],[29.7281,-27.6167,1782.3032],[29.7312,-27.6177,1785.114],[29.7315,-27.613,1794.0913],[29.7348,-27.6071,1793.2538],[29.7402,-27.6056,1793.4341],[29.7489,-27.6137,1784.2474],[29.7522,-27.6051,1751.6013],[29.757,-27.604,1760.5814],[29.7589,-27.6015,1762.4343],[29.7707,-27.5956,1786.0729],[29.774,-27.5951,1798.5278],[29.7808,-27.5994,1794.7067],[29.7851,-27.5967,1794.1641],[29.7796,-27.5873,1785.8942],[29.7808,-27.5791,1829.5331],[29.7838,-27.5735,1913.8501],[29.7804,-27.5595,1785.6912],[29.7721,-27.5534,1794.196],[29.7711,-27.5464,1780.9634],[29.766,-27.5413,1796.6873],[29.7655,-27.5367,1776.3193],[29.7585,-27.5295,1818.1093],[29.7584,-27.5271,1826.584],[29.7449,-27.5255,1749.312],[29.7434,-27.5231,1767.3923],[29.736,-27.5196,1788.827],[29.7246,-27.5243,1797.0879],[29.7124,-27.5184,1799.2764],[29.7092,-27.5136,1795.2712],[29.7109,-27.5101,1788.1204],[29.7105,-27.4987,1750.0839],[29.7216,-27.4883,1749.7168],[29.725,-27.4894,1755.3046],[29.7319,-27.4879,1761.0631],[29.7143,-27.4804,1735.5831],[29.7032,-27.472,1803.2454],[29.7084,-27.4618,1769.176],[29.7169,-27.4649,1761.4138],[29.7352,-27.4508,1935.8824],[29.7587,-27.4426,2234.5369],[29.7446,-27.4326,1885.0098],[29.7325,-27.4309,1808.6331],[29.7214,-27.4328,1792.5486],[29.7197,-27.4383,1800.8245],[29.717,-27.4384,1793.0175],[29.7172,-27.4403,1803.2804],[29.7044,-27.4454,1757.7306],[29.6991,-27.4508,1757.9196],[29.6994,-27.4591,1748.3719],[29.7024,-27.4659,1737.2427],[29.6984,-27.4726,1734.5935],[29.6993,-27.4747,1734.3416],[29.6977,-27.4754,1756.5044],[29.6992,-27.4778,1735.5747],[29.7063,-27.4817,1723.2559],[29.7049,-27.4858,1714.1211],[29.7065,-27.4879,1712.1068],[29.7014,-27.4939,1713.7563],[29.6989,-27.4947,1710.6305],[29.6936,-27.4923,1715.1636],[29.6883,-27.4935,1695.8401],[29.6858,-27.4978,1698.4897],[29.681,-27.5001,1691.9998],[29.6795,-27.4968,1690.0519],[29.6741,-27.498,1692.2092],[29.6669,-27.4959,1688.4631],[29.6551,-27.4962,1698.5436],[29.6505,-27.4998,1687.1575],[29.6494,-27.5042,1687.1792],[29.6368,-27.5047,1689.4786],[29.6297,-27.5023,1694.666],[29.6255,-27.5057,1685.8519],[29.6189,-27.506,1686.3408],[29.6093,-27.4964,1683.9913],[29.6068,-27.4966,1683.9536],[29.604,-27.4942,1683.6121],[29.6049,-27.4854,1682.3931],[29.6018,-27.4816,1682.3369],[29.6039,-27.4802,1682.7141],[29.601,-27.4768,1682.2612],[29.6029,-27.4741,1682.4215],[29.6016,-27.4718,1681.6503],[29.5998,-27.4728,1681.6503],[29.6007,-27.4701,1683.0415],[29.5897,-27.4663,1681.4072],[29.589,-27.4632,1681.2712],[29.5845,-27.4644,1681.0779],[29.5836,-27.4623,1680.4569],[29.5846,-27.4619,1680.4569],[29.581,-27.4607,1680.3135],[29.58,-27.4584,1680.0992],[29.5781,-27.4596,1680.2769],[29.5767,-27.4569,1680.0601],[29.5787,-27.4565,1679.908],[29.5791,-27.4545,1680.2448],[29.5691,-27.4421,1683.3795],[29.5633,-27.4427,1679.1213],[29.5613,-27.4413,1677.7812],[29.5599,-27.4322,1673.9812],[29.5465,-27.4311,1667.5491],[29.55,-27.4241,1666.3022],[29.5425,-27.42,1665.8577],[29.5474,-27.4141,1663.1609],[29.552,-27.4136,1664.045],[29.5492,-27.4092,1661.9716],[29.5489,-27.4047,1660.1826],[29.552,-27.3988,1663.9519],[29.5435,-27.399,1654.795],[29.5416,-27.3915,1660.506],[29.5381,-27.387,1649.9124],[29.5271,-27.3941,1642.0073],[29.5257,-27.3863,1637.9852],[29.5298,-27.3864,1664.2318],[29.5304,-27.3828,1640.4822],[29.5271,-27.3783,1624.4772],[29.5239,-27.3772,1626.105],[29.5184,-27.3779,1625.05],[29.5222,-27.3828,1619.1624],[29.52,-27.3844,1617.3953],[29.5119,-27.3796,1614.0103],[29.5088,-27.3764,1612.0908],[29.5087,-27.3727,1608.7075],[29.5095,-27.3692,1607.3345],[29.5124,-27.3678,1608.2866],[29.5052,-27.365,1606.834],[29.5029,-27.3582,1602.8265],[29.4865,-27.3628,1598.7961],[29.4828,-27.36,1595.4634],[29.483,-27.3569,1595.786],[29.4871,-27.3506,1587.9399],[29.4848,-27.347,1593.4655],[29.4899,-27.3447,1587.0366],[29.4901,-27.3369,1584.5961],[29.4878,-27.3375,1587.302],[29.4865,-27.340699999999998,1586.5358],[29.4837,-27.3388,1585.6466],[29.4864,-27.3274,1581.793],[29.4833,-27.3281,1576.6304],[29.4826,-27.3322,1584.5894],[29.4807,-27.3328,1572.957],[29.4694,-27.3248,1568.6882],[29.4702,-27.3204,1564.4166],[29.4676,-27.3156,1576.5251],[29.4722,-27.3095,1547.7604],[29.4697,-27.3036,1551.3572],[29.4709,-27.3015,1543.3102],[29.4687,-27.3015,1543.5326],[29.47,-27.3003,1543.8718],[29.4687,-27.2987,1543.5179],[29.4663,-27.299,1542.7515],[29.4637,-27.2877,1541.5302],[29.4617,-27.2853,1542.2386],[29.4611,-27.2867,1541.3787],[29.4591,-27.2863,1545.9929],[29.4603,-27.2844,1543.2731],[29.4565,-27.2842,1541.1566],[29.4566,-27.2815,1541.5068],[29.4548,-27.2826,1546.144],[29.4552,-27.2796,1541.1483],[29.4533,-27.277,1540.4531],[29.4517,-27.2763,1540.4531],[29.4506,-27.2781,1540.3723],[29.4507,-27.2748,1540.079],[29.4483,-27.2754,1541.4991],[29.4481,-27.273,1543.701],[29.4434,-27.2669,1540.2739],[29.4395,-27.2677,1542.1781],[29.4364,-27.261,1539.5027],[29.4357,-27.2628,1538.7311],[29.4343,-27.2613,1538.3641],[29.432,-27.2622,1538.0417],[29.4282,-27.2539,1539.2106],[29.4248,-27.2547,1537.5015],[29.4265,-27.2563,1540.3992],[29.4233,-27.2576,1538.9655],[29.4213,-27.2566,1544.6877],[29.422,-27.254,1540.2429],[29.4194,-27.2554,1556.2147],[29.4151,-27.2505,1539.1115],[29.4107,-27.2523,1537.2483],[29.4043,-27.2523,1538.2283],[29.4015,-27.2496,1549.266],[29.4002,-27.2429,1536.8083],[29.3909,-27.2427,1542.0404],[29.3869,-27.2436,1539.2092],[29.3902,-27.2477,1541.3672],[29.3875,-27.2499,1539.6853],[29.3863,-27.2489,1535.3982],[29.389,-27.2475,1535.917],[29.3884,-27.246,1535.8923],[29.3845,-27.249,1537.1101],[29.3807,-27.2474,1547.4436],[29.3751,-27.251,1535.6665],[29.3698,-27.2515,1550.4631],[29.3619,-27.247,1535.0159],[29.3532,-27.2498,1537.3013],[29.3427,-27.2485,1537.3602],[29.3397,-27.252,1565.2307],[29.3408,-27.2604,1547.8036],[29.3392,-27.2637,1535.2501],[29.3312,-27.2634,1536.715],[29.3253,-27.2521,1532.9097],[29.3281,-27.2466,1533.3522],[29.3321,-27.2446,1532.4008],[29.3352,-27.2398,1535.7529],[29.3344,-27.2364,1532.616],[29.3382,-27.2351,1531.5824],[29.3361,-27.232,1531.0461],[29.3321,-27.2305,1544.3297],[29.3362,-27.2267,1531.3086],[29.3335,-27.2239,1531.1766],[29.3351,-27.2226,1530.0598],[29.3365,-27.2246,1531.1924],[29.3377,-27.2239,1530.3342],[29.3356,-27.2219,1530.0598],[29.3371,-27.2181,1529.8337],[29.3359,-27.2145,1530.6255],[29.3355,-27.2173,1531.1437],[29.3329,-27.217,1530.085],[29.3329,-27.2191,1529.5782],[29.3315,-27.2182,1531.4531],[29.3341,-27.2141,1529.6899],[29.3311,-27.213,1531.1216],[29.3312,-27.2103,1528.8573],[29.3351,-27.2074,1529.1124],[29.3308,-27.208,1528.4211],[29.3299,-27.2036,1557.4932],[29.3255,-27.2085,1529.0283],[29.3112,-27.2113,1529.8956],[29.312,-27.2141,1527.9656],[29.309,-27.2162,1527.8827],[29.3005,-27.2119,1527.9501],[29.3019,-27.2097,1527.2855],[29.2988,-27.2092,1527.6379],[29.2972,-27.2058,1527.4602],[29.298,-27.2041,1526.6821],[29.2954,-27.2031,1527.0472],[29.2957,-27.201,1527.0771],[29.2917,-27.1996,1526.806],[29.2887,-27.1965,1526.2739],[29.2876,-27.1927,1525.116],[29.2849,-27.1925,1525.2053],[29.2871,-27.1911,1525.2753],[29.2864,-27.1903,1525.4191],[29.2841,-27.1907,1525.182],[29.2839,-27.1936,1524.0188],[29.2819,-27.1921,1524.5127],[29.285,-27.195,1525.1644],[29.2819,-27.1996,1525.0588],[29.2807,-27.1989,1524.8806],[29.282,-27.195,1524.4202],[29.2767,-27.1943,1524.3107],[29.2732,-27.1956,1523.9156],[29.2747,-27.1927,1528.7212],[29.2722,-27.1916,1523.6213],[29.2719,-27.1962,1523.6555],[29.2682,-27.1983,1526.2823],[29.2683,-27.1961,1524.7328],[29.2708,-27.1958,1523.6555],[29.2694,-27.1929,1523.1675],[29.2703,-27.1893,1523.1545],[29.2657,-27.1916,1522.8291],[29.2682,-27.1849,1522.334],[29.2668,-27.184,1522.6605],[29.2658,-27.1868,1522.4073],[29.2633,-27.1874,1522.4548],[29.2602,-27.1838,1522.1688],[29.2629,-27.183,1523.2904],[29.2604,-27.1813,1522.2114],[29.2583,-27.1843,1522.282],[29.2563,-27.1946,1526.8152],[29.2535,-27.194,1522.8768],[29.2541,-27.1897,1523.1298],[29.2463,-27.192,1521.907],[29.2453,-27.1909,1521.6892],[29.2465,-27.1885,1523.4443],[29.2443,-27.1862,1523.1394],[29.2426,-27.1861,1520.6895],[29.2419,-27.1884,1520.1842],[29.2396,-27.1863,1521.0724],[29.2406,-27.1846,1520.5449],[29.2434,-27.1852,1520.6895],[29.2437,-27.1835,1524.4758],[29.2412,-27.1823,1520.8811],[29.2347,-27.1832,1524.8932],[29.2365,-27.1776,1521.2158],[29.2355,-27.1731,1522.9524],[29.2298,-27.1672,1518.915],[29.2307,-27.1604,1518.4786],[29.2281,-27.1611,1517.4832],[29.2286,-27.1568,1518.1866],[29.227,-27.1553,1524.0829],[29.2292,-27.151,1519.144],[29.2271,-27.1499,1519.3279],[29.2278,-27.1471,1518.4348],[29.2239,-27.1447,1519.106],[29.2158,-27.1476,1517.5555],[29.2097,-27.1424,1518.5474],[29.204,-27.1449,1518.2217],[29.195,-27.1402,1517.4276],[29.1927,-27.1371,1520.5173],[29.1926,-27.1403,1517.4767],[29.1897,-27.1409,1517.844],[29.1902,-27.1432,1518.2324],[29.1831,-27.1454,1516.8322],[29.1798,-27.1441,1516.4033],[29.1782,-27.1465,1516.3992],[29.1701,-27.1414,1515.7778],[29.1595,-27.1431,1515.7668],[29.1588,-27.1461,1514.9448],[29.1562,-27.1449,1515.6414],[29.1527,-27.146,1515.511],[29.151,-27.1519,1516.3818],[29.1474,-27.1491,1514.6321],[29.146,-27.1528,1514.7227],[29.1417,-27.1538,1515.2235],[29.1377,-27.1524,1514.0557],[29.1363,-27.1546,1514.6268],[29.138,-27.1584,1514.3225],[29.1372,-27.1612,1514.3076],[29.1334,-27.1626,1514.5781],[29.1321,-27.1602,1513.9507],[29.1316,-27.1624,1514.9904],[29.1296,-27.1628,1514.5073],[29.1296,-27.1684,1513.6713],[29.1269,-27.169,1513.9425],[29.1265,-27.1671,1513.1699],[29.1244,-27.1672,1513.1217],[29.1206,-27.1719,1513.2662],[29.1169,-27.1724,1513.8225],[29.1137,-27.1632,1512.212],[29.1141,-27.1589,1513.5955],[29.1121,-27.1528,1512.7373],[29.1134,-27.1496,1512.1361],[29.1106,-27.1477,1511.4978],[29.1075,-27.1419,1511.5505],[29.1014,-27.1372,1511.5055],[29.1018,-27.1342,1511.2709],[29.1054,-27.1338,1511.0507],[29.104,-27.1303,1513.2749],[29.0992,-27.1269,1510.9304],[29.097,-27.1227,1511.3651],[29.0917,-27.1211,1510.4492],[29.0927,-27.1182,1509.137],[29.0888,-27.1185,1510.175],[29.0862,-27.116,1509.9265],[29.0886,-27.113,1509.7858],[29.0857,-27.1103,1509.3109],[29.0864,-27.1067,1509.3473],[29.0833,-27.1054,1508.8423],[29.0777,-27.0926,1508.6803],[29.0737,-27.0908,1508.3331],[29.0718,-27.0857,1509.8411],[29.0673,-27.0855,1507.688],[29.0647,-27.0837,1509.5632],[29.0619,-27.0853,1507.4937],[29.0557,-27.0813,1508.0367],[29.0557,-27.0787,1507.7725],[29.0609,-27.0785,1507.8971],[29.0621,-27.0755,1507.6418],[29.061,-27.0718,1507.2979],[29.0654,-27.0651,1506.9114],[29.0674,-27.0647,1506.0803],[29.0682,-27.0674,1506.3516],[29.0701,-27.0678,1506.9316],[29.072,-27.0659,1506.0408],[29.0708,-27.064,1506.4161],[29.0733,-27.065,1508.7651],[29.0742,-27.0632,1506.2356],[29.0708,-27.0601,1506.9148],[29.072,-27.0563,1505.4689],[29.0683,-27.055,1507.3704],[29.0618,-27.0489,1505.085],[29.0615,-27.046,1504.9938],[29.0649,-27.0428,1506.1445],[29.0533,-27.0337,1504.1753],[29.0536,-27.0299,1503.7195],[29.0598,-27.0164,1505.1052],[29.0572,-27.0093,1502.1466],[29.0498,-27.0055,1504.9734],[29.0435,-27.0038,1502.493],[29.0388,-27.0048,1502.3217],[29.0388,-27.0225,1502.0593],[29.0352,-27.0273,1503.6869],[29.0312,-27.029,1505.4564],[29.0262,-27.0221,1502.5388],[29.0281,-27.0184,1502.2622],[29.027,-27.0164,1503.08],[29.0227,-27.0153,1503.9603],[29.0097,-27.0064,1501.2006],[28.9935,-27.0032,1502.4779],[28.9695,-26.9916,1500.7338],[28.9672,-26.9916,1499.7814],[28.9661,-26.9949,1502.2136],[28.9615,-26.9989,1502.1769],[28.9543,-27.0117,1500.6133],[28.9412,-27.0155,1500.21],[28.9346,-27.0154,1499.8779],[28.9289,-27.0147,1498.8254],[28.9204,-27.0111,1505.7087],[28.9128,-27.018,1506.8843],[28.9075,-27.0201,1500.5796],[28.9042,-27.0198,1501.3473],[28.8936,-27.0134,1504.8647],[28.8853,-27.0248,1505.7528],[28.8939,-27.0265,1496.3065],[28.898,-27.0296,1501.1748],[28.8991,-27.0347,1496.9918],[28.8962,-27.0427,1500.5938],[28.9004,-27.0481,1501.7815],[28.8963,-27.0539,1498.8303],[28.8886,-27.0593,1496.5925],[28.8799,-27.0552,1497.3925],[28.8699,-27.0316,1493.9547],[28.8645,-27.0305,1496.1837],[28.8579,-27.0249,1495.9817],[28.8522,-27.0273,1495.3462],[28.8436,-27.0391,1493.8879],[28.839,-27.0416,1499.3379],[28.8344,-27.0417,1497.615],[28.8259,-27.037,1492.9106],[28.814,-27.0426,1493.932],[28.8108,-27.0383,1499.6205],[28.8117,-27.0334,1493.0452],[28.8098,-27.0193,1495.1592],[28.8049,-27.0115,1495.5206],[28.8013,-27.0126,1492.3145],[28.802,-27.0172,1491.7457],[28.7978,-27.0264,1495.4336],[28.795,-27.0289,1499.7349],[28.7922,-27.0254,1491.4449],[28.7738,-27.019,1490.9011],[28.7768,-27.0091,1492.5231],[28.7707,-27.003,1492.8823],[28.7639,-27.0019,1492.8672],[28.7552,-26.9974,1492.3723],[28.7437,-27.0034,1494.7394],[28.7365,-27.0017,1491.7456],[28.7311,-26.9955,1490.6886],[28.7254,-26.9846,1490.1403],[28.715699999999998,-26.9791,1488.9636],[28.7138,-26.9716,1488.76],[28.7109,-26.9692,1494.4274],[28.7062,-26.9687,1501.3896],[28.7,-26.9757,1490.2454],[28.6834,-26.9752,1490.4033],[28.6614,-26.9608,1491.8447],[28.6545,-26.9602,1490.9735],[28.6455,-26.9527,1489.2354],[28.6369,-26.955,1487.3053],[28.6345,-26.962,1488.1797],[28.6215,-26.9688,1490.6777],[28.605,-26.9932,1486.8519],[28.6059,-26.9944,1487.4979],[28.6097,-26.9938,1487.7235],[28.6172,-27.0002,1487.397],[28.6233,-26.9951,1487.6742],[28.633,-26.9909,1490.6913],[28.6458,-26.9924,1487.614],[28.6535,-26.9953,1487.3275],[28.6558,-26.9986,1486.7256],[28.6513,-27.0094,1486.8203],[28.649,-27.0109,1486.6923],[28.6473,-27.0166,1487.8931],[28.6444,-27.0203,1485.6958],[28.6394,-27.0199,1486.1396],[28.6255,-27.0107,1485.5378],[28.6083,-27.0082,1486.7031],[28.6089,-27.0207,1485.8085],[28.5933,-27.0238,1488.8585],[28.5833,-27.0378,1484.7642],[28.5762,-27.0392,1485.9086],[28.569,-27.035,1485.025],[28.5608,-27.0394,1484.6423],[28.5592,-27.0411,1493.094],[28.5607,-27.0479,1488.301],[28.5599,-27.0542,1487.1769],[28.5546,-27.0604,1484.882],[28.5344,-27.067,1483.5745],[28.5327,-27.0638,1488.5292],[28.5364,-27.056,1484.4487],[28.5457,-27.0529,1484.5634],[28.5497,-27.045,1485.262],[28.5495,-27.0413,1486.3552],[28.5429,-27.0347,1483.2952],[28.5385,-27.0337,1483.7909],[28.5308,-27.0271,1484.3676],[28.5276,-27.018,1483.6206],[28.5036,-27.008,1483.0],[28.5043,-27.0021,1488.715],[28.5109,-26.9928,1483.0],[28.5096,-26.9866,1485.5005],[28.5005,-26.9778,1485.1873],[28.4924,-26.9756,1483.0],[28.4858,-26.9711,1483.0],[28.4776,-26.9502,1483.0],[28.4754,-26.9505,1483.0],[28.4703,-26.9565,1483.0],[28.4712,-26.9584,1483.0],[28.4757,-26.9602,1483.0],[28.476,-26.9627,1483.0],[28.4702,-26.9728,1483.0],[28.4724,-26.98,1483.0],[28.4676,-26.9828,1483.3228],[28.4645,-26.9829,1483.765],[28.4616,-26.9774,1491.8732],[28.4613,-26.9723,1483.0],[28.4514,-26.9638,1483.0],[28.4438,-26.9603,1483.0],[28.4366,-26.9646,1484.1924],[28.4365,-26.9669,1485.5961],[28.4515,-26.9789,1483.7692],[28.4513,-26.9813,1483.0],[28.4317,-27.0057,1483.0],[28.4185,-27.013,1483.0],[28.4148,-27.0104,1483.0],[28.4135,-27.0062,1483.0],[28.4261,-26.994,1483.0],[28.4291,-26.9892,1483.0],[28.4207,-26.9781,1483.0],[28.4149,-26.973,1483.0],[28.405,-26.9551,1483.0],[28.4004,-26.9509,1483.0],[28.4012,-26.9385,1483.0],[28.3996,-26.9357,1483.0],[28.3928,-26.9317,1483.0],[28.3858,-26.931,1483.0],[28.3726,-26.9347,1483.0],[28.3621,-26.9318,1483.0],[28.3529,-26.9316,1483.0],[28.3295,-26.9472,1483.0],[28.3245,-26.949,1483.0],[28.3206,-26.9419,1483.0],[28.3197,-26.9365,1483.0],[28.3302,-26.9284,1483.0],[28.3313,-26.9259,1483.0],[28.3301,-26.9239,1483.0],[28.3219,-26.9226,1483.0],[28.3146,-26.9247,1483.0],[28.3125,-26.9279,1483.0],[28.3111,-26.9359,1483.0],[28.306,-26.9406,1483.0],[28.3017,-26.9409,1483.0],[28.2886,-26.9281,1483.0],[28.2814,-26.9148,1483.0],[28.2815,-26.9061,1483.0],[28.2775,-26.9065,1483.0],[28.267,-26.9143,1483.0],[28.2626,-26.9148,1483.0],[28.2609,-26.9114,1483.0],[28.2614,-26.902,1483.0],[28.2517,-26.893,1483.0],[28.2501,-26.888,1483.0],[28.2365,-26.8811,1483.0],[28.2283,-26.8918,1483.0],[28.2273,-26.8972,1483.0],[28.2298,-26.9066,1483.0],[28.2385,-26.913,1483.0],[28.2403,-26.9164,1483.0],[28.2308,-26.9229,1483.0],[28.2259,-26.9237,1483.0],[28.2162,-26.9121,1483.0],[28.203,-26.9116,1483.0],[28.1932,-26.8962,1483.0],[28.185,-26.8907,1483.0],[28.185,-26.8715,1483.0],[28.1799,-26.8618,1483.0],[28.1786,-26.8532,1483.0],[28.1714,-26.8458,1483.0],[28.1598,-26.8454,1483.0],[28.1562,-26.847,1483.0],[28.1538,-26.8506,1483.0],[28.1678,-26.868,1483.0],[28.1713,-26.8837,1483.0],[28.1711,-26.8873,1483.0],[28.1687,-26.89,1483.0],[28.1638,-26.8904,1483.0],[28.1581,-26.8849,1483.0],[28.1539,-26.8841,1483.0],[28.1501,-26.8846,1483.0],[28.1429,-26.8898,1483.0],[28.1324,-26.8877,1483.0],[28.1251,-26.8909,1483.0],[28.1201,-26.8899,1483.0],[28.1163,-26.8839,1483.0],[28.1156,-26.8764,1447.5],[28.1162,-26.8735,1452.4884],[28.1208,-26.8694,1444.5],[28.1213,-26.8558,1445.7531],[28.1148,-26.8444,1451.9874],[28.088,-26.8379,1455.9172],[28.0763,-26.8323,1432.5],[28.0709,-26.8264,1433.6055],[28.0657,-26.8235,1439.9539],[28.0656,-26.8209,1429.9049],[28.051,-26.8141,1425.4309],[28.0491,-26.8032,1424.5344],[28.0455,-26.7999,1427.5671],[28.0378,-26.7973,1423.325],[28.035,-26.7948,1423.348],[28.0216,-26.7959,1425.8414],[28.0146,-26.7936,1427.0485],[28.0155,-26.7896,1423.8556],[28.0265,-26.7844,1422.8181],[28.0284,-26.7805,1421.0],[28.0245,-26.7796,1426.4376],[28.0201,-26.7754,1422.7932],[28.0071,-26.7693,1430.8496],[28.0068,-26.7631,1430.6951],[28.0014,-26.7474,1426.3075],[27.993,-26.7346,1423.1143],[27.9922,-26.7256,1420.625],[28.0004,-26.7058,1420.5],[27.9996,-26.696,1429.1864],[27.9827,-26.6801,1424.002],[27.977,-26.6714,1421.9358],[27.9695,-26.6687,1420.0],[27.9636,-26.6712,1425.2954],[27.9485,-26.6726,1423.4182],[27.9415,-26.6754,1423.798],[27.9361,-26.6866,1420.9622],[27.9352,-26.6927,1419.5],[27.9243,-26.7046,1422.3806],[27.9135,-26.7065,1423.6014],[27.908,-26.7059,1423.8872],[27.8932,-26.711,1425.1505],[27.8918,-26.7144,1422.6757],[27.8955,-26.7178,1420.3583],[27.8949,-26.7212,1420.6],[27.8928,-26.7259,1421.2394],[27.8847,-26.7343,1423.2719],[27.883,-26.744,1420.8669],[27.88,-26.7462,1420.1992],[27.8722,-26.7477,1424.6233],[27.8494,-26.7456,1420.4153],[27.8306,-26.7511,1423.5031],[27.8216,-26.7495,1430.6598],[27.7824,-26.7508,1422.0518],[27.7705,-26.759,1419.1027],[27.7682,-26.7652,1421.4131],[27.7671,-26.7829,1418.0],[27.7727,-26.7941,1425.6406],[27.7702,-26.7992,1422.3516],[27.759,-26.7964,1418.0],[27.7477,-26.7859,1419.9609],[27.7466,-26.7797,1417.5],[27.7415,-26.77,1417.5],[27.732,-26.7624,1417.5],[27.7265,-26.7604,1417.5],[27.7017,-26.764,1419.2528],[27.6882,-26.7618,1416.625],[27.6753,-26.7717,1412.5],[27.6662,-26.7736,1413.308],[27.6431,-26.7685,1411.0],[27.6357,-26.772,1412.3256],[27.632,-26.7718,1410.5],[27.6291,-26.7684,1412.614],[27.6286,-26.7642,1410.0],[27.6358,-26.7513,1409.0],[27.6323,-26.7455,1408.5],[27.6346,-26.7383,1409.6945],[27.6341,-26.7348,1410.7336],[27.6319,-26.7327,1407.5],[27.6105,-26.7326,1412.4296],[27.6067,-26.7413,1411.4843],[27.6013,-26.7408,1406.9452],[27.5942,-26.737,1404.5],[27.5795,-26.7449,1410.9003],[27.5702,-26.747,1403.0],[27.5699,-26.7546,1402.5],[27.5823,-26.7679,1401.5],[27.5816,-26.7739,1402.3539],[27.5699,-26.7812,1405.8359],[27.5557,-26.7732,1405.2574],[27.5498,-26.7752,1414.6506],[27.5378,-26.7851,1398.0],[27.5296,-26.7848,1399.2841],[27.5195,-26.7819,1400.7413],[27.5094,-26.7858,1403.4814],[27.5056,-26.792,1398.6752],[27.5059,-26.7948,1401.7098],[27.5153,-26.804,1394.5],[27.5182,-26.8102,1399.8181],[27.5108,-26.8255,1396.3798],[27.5112,-26.8378,1392.9558],[27.4997,-26.845,1394.73],[27.491,-26.8466,1393.5273],[27.4875,-26.8494,1391.1746],[27.4809,-26.8634,1388.5],[27.476,-26.8835,1386.145],[27.4713,-26.8868,1382.7712],[27.4552,-26.8906,1377.9594],[27.4442,-26.9004,1365.4091],[27.44,-26.8995,1370.2308],[27.4238,-26.9192,1370.6564],[27.4143,-26.9257,1370.8699],[27.4075,-26.9258,1356.2368],[27.4003,-26.9222,1352.4678],[27.3983,-26.916,1353.0449],[27.3913,-26.9138,1349.5957],[27.389,-26.9039,1336.9402],[27.3842,-26.9004,1337.2599],[27.3808,-26.9009,1332.939],[27.3766,-26.9049,1335.0002],[27.3709,-26.9042,1329.5],[27.3678,-26.8956,1334.4939],[27.3684,-26.8917,1330.5659],[27.3651,-26.891,1328.5],[27.3608,-26.8843,1331.1957],[27.3553,-26.8824,1327.9563],[27.340699999999998,-26.872,1326.0558],[27.3395,-26.8685,1324.0],[27.3402,-26.8609,1326.8959],[27.3328,-26.8542,1324.2788],[27.3154,-26.8526,1323.451],[27.303,-26.8543,1331.5134],[27.3004,-26.8563,1320.2119],[27.301,-26.8605,1320.812],[27.2995,-26.8631,1333.076],[27.2921,-26.8694,1320.27],[27.2898,-26.8794,1317.406],[27.2821,-26.8836,1318.2429],[27.278199999999998,-26.8881,1316.5],[27.2704,-26.8915,1327.7861],[27.2621,-26.9082,1332.3287],[27.255,-26.9126,1318.063],[27.2469,-26.9144,1320.5582],[27.2416,-26.9187,1318.8761],[27.2344,-26.9274,1321.8759],[27.2295,-26.939,1318.855],[27.2175,-26.9461,1324.6832],[27.2111,-26.9624,1319.3046],[27.2121,-26.9762,1314.5],[27.207,-26.9802,1313.5],[27.1901,-26.9775,1315.7927],[27.174,-26.9685,1309.75],[27.1752,-26.9636,1309.125],[27.1815,-26.9577,1309.8218],[27.1832,-26.9503,1310.9332],[27.1818,-26.9407,1307.0278],[27.1829,-26.9304,1304.9729],[27.1813,-26.9274,1303.875],[27.1764,-26.9249,1304.4359],[27.1701,-26.923,1306.5024],[27.1647,-26.9241,1312.4106],[27.1618,-26.9259,1301.5],[27.1537,-26.937,1301.9166],[27.1435,-26.9419,1298.5],[27.113,-26.9263,1302.2308],[27.0949,-26.931,1301.124],[27.0868,-26.9385,1298.4562],[27.0734,-26.9348,1299.5306],[27.0646,-26.9373,1295.0],[27.0506,-26.9367,1294.5],[27.04,-26.9382,1297.7168],[27.028199999999998,-26.9359,1294.0],[27.0139,-26.9321,1294.5231],[27.0052,-26.9254,1293.0441],[26.9748,-26.9121,1293.281],[26.9561,-26.9002,1293.4714],[26.9472,-26.892,1297.7122],[26.9513,-26.8783,1296.4915],[26.951,-26.8749,1295.5001],[26.9404,-26.8715,1296.6897],[26.9272,-26.8871,1292.7675],[26.9202,-26.906,1298.8055],[26.9246,-26.9303,1296.3191],[26.9233,-26.9434,1292.0],[26.925,-26.9573,1292.0],[26.9231,-26.969,1293.1128],[26.92,-26.9735,1293.2188],[26.9169,-26.9725,1292.0],[26.909,-26.9613,1293.9241],[26.9097,-26.9525,1294.0563],[26.9076,-26.9445,1289.5696],[26.8961,-26.9351,1286.1985],[26.8804,-26.9349,1287.5968],[26.8748,-26.9301,1290.6731],[26.8755,-26.9263,1284.0957],[26.8743,-26.9238,1285.3523],[26.8682,-26.9196,1284.2825],[26.8635,-26.9189,1283.0],[26.858,-26.922,1289.3274],[26.8485,-26.9402,1283.7668],[26.8424,-26.9421,1286.1807],[26.8306,-26.9493,1285.3162],[26.8183,-26.9532,1285.2538],[26.8114,-26.9513,1286.5015],[26.8094,-26.9472,1290.5592],[26.8117,-26.9342,1285.915],[26.8098,-26.9317,1284.4988],[26.805,-26.932,1285.7845],[26.7896,-26.9429,1282.5],[26.7667,-26.9481,1287.688],[26.7615,-26.9525,1288.8711],[26.7552,-26.9619,1287.1761],[26.7496,-26.9651,1287.3854],[26.7411,-26.9649,1286.3475],[26.7155,-26.9739,1282.0],[26.711,-26.978,1287.3748],[26.7064,-26.988,1284.3191],[26.7006,-27.0086,1289.9839],[26.6966,-27.0139,1282.5117],[26.6887,-27.018,1285.3481],[26.6842,-27.0176,1284.3589],[26.6789,-27.0146,1281.8761],[26.6765,-27.0102,1280.0],[26.6763,-27.0008,1282.7048],[26.6728,-26.9964,1287.209],[26.6688,-26.9946,1284.6466],[26.6589,-26.9938,1277.0],[26.646,-27.0004,1276.2084],[26.6361,-27.0034,1277.733],[26.6193,-27.0034,1274.0],[26.6135,-27.0271,1279.4294],[26.5926,-27.0378,1277.2964],[26.5818,-27.0531,1273.0144],[26.5815,-27.0598,1271.125],[26.5836,-27.0634,1272.7889],[26.5902,-27.0672,1271.0],[26.5924,-27.0709,1270.5],[26.5938,-27.0793,1270.5],[26.5881,-27.0954,1271.0319],[26.5869,-27.1034,1274.2526],[26.5835,-27.108,1272.8777],[26.5684,-27.1026,1268.0],[26.549,-27.0986,1269.2277],[26.5385,-27.0903,1270.2322],[26.5287,-27.091,1268.8367],[26.5242,-27.0959,1265.9371],[26.5221,-27.1037,1264.0],[26.5142,-27.1189,1264.0],[26.507,-27.1272,1262.5],[26.4984,-27.1329,1264.1023],[26.4874,-27.13,1261.4946],[26.4836,-27.131,1260.8325],[26.4781,-27.1373,1259.4264],[26.4763,-27.1485,1259.4568],[26.4731,-27.1542,1261.8438],[26.4592,-27.158,1260.3958],[26.4407,-27.15,1257.2891],[26.4289,-27.1502,1256.3724],[26.4255,-27.1536,1255.0],[26.4201,-27.1684,1260.3003],[26.4202,-27.1725,1260.718],[26.4243,-27.1775,1253.1996],[26.4272,-27.1852,1251.0],[26.4328,-27.1901,1252.0814],[26.4377,-27.21,1252.1207],[26.4437,-27.2174,1248.125],[26.4547,-27.2228,1247.5],[26.4639,-27.2298,1247.6923],[26.4768,-27.2446,1249.9841],[26.4888,-27.2506,1246.5269],[26.4946,-27.2591,1249.4307],[26.4972,-27.2678,1243.0],[26.4962,-27.2738,1245.8837],[26.4889,-27.2833,1240.5],[26.4885,-27.2861,1240.5],[26.4883,-27.2963,1248.3486],[26.4939,-27.3083,1240.0],[26.4934,-27.3191,1240.0],[26.4849,-27.3239,1240.0],[26.4808,-27.3232,1243.1609],[26.4791,-27.3189,1242.9653],[26.4849,-27.3135,1241.2705],[26.4848,-27.3091,1244.1195],[26.4814,-27.3067,1242.7383],[26.4755,-27.3083,1239.5],[26.4738,-27.3123,1243.782],[26.4582,-27.3262,1240.0872],[26.4555,-27.3374,1244.644],[26.4472,-27.344,1242.3799],[26.4464,-27.3497,1264.9631],[26.462,-27.3657,1238.5],[26.4763,-27.3718,1240.0974],[26.4847,-27.3799,1239.0897],[26.4995,-27.3797,1238.0],[26.5128,-27.3848,1244.5618],[26.5142,-27.3874,1240.4218],[26.5111,-27.3953,1245.3395],[26.5081,-27.3981,1242.8069],[26.5052,-27.3983,1244.6287],[26.4976,-27.3957,1237.75],[26.4683,-27.3912,1242.8276],[26.4589,-27.3866,1240.8647],[26.4519,-27.3857,1240.3621],[26.4452,-27.3881,1240.9333],[26.435,-27.3988,1238.8982],[26.4231,-27.4069,1237.0],[26.4165,-27.4027,1240.8762],[26.3943,-27.394,1239.6667],[26.388,-27.3895,1245.1881],[26.3802,-27.3884,1240.3531],[26.3724,-27.3838,1243.5021],[26.3616,-27.3893,1237.8157],[26.3457,-27.3853,1234.0699],[26.3396,-27.3894,1238.7032],[26.3354,-27.3984,1232.8676],[26.3272,-27.4058,1230.0],[26.3279,-27.42,1234.8212],[26.3266,-27.4292,1229.5],[26.3241,-27.4329,1230.9971],[26.3211,-27.4334,1233.4055],[26.3168,-27.4314,1232.578],[26.3136,-27.4224,1230.3219],[26.3099,-27.4183,1230.4686],[26.2956,-27.4158,1228.5],[26.291,-27.4167,1231.1428],[26.2862,-27.4222,1229.72],[26.2761,-27.4211,1229.5785],[26.2695,-27.4168,1231.4351],[26.2646,-27.4164,1229.656],[26.2602,-27.4199,1229.906],[26.2529,-27.4295,1230.0808],[26.245,-27.4299,1229.9636],[26.2423,-27.4314,1228.2986],[26.2397,-27.4354,1231.7085],[26.2339,-27.4542,1228.0],[26.2199,-27.4744,1231.6978],[26.2208,-27.4833,1229.1272],[26.2312,-27.4954,1232.421],[26.229,-27.5121,1228.0],[26.2222,-27.5145,1230.8239],[26.2018,-27.5168,1230.8456],[26.1861,-27.5315,1231.3556],[26.1701,-27.5361,1228.6056],[26.168,-27.538,1230.1487],[26.1631,-27.5517,1228.6227],[26.1536,-27.564,1228.4504],[26.1451,-27.5626,1231.0427],[26.1403,-27.5576,1228.4506],[26.134,-27.5585,1227.0],[26.1238,-27.5669,1227.7124],[26.1221,-27.5724,1235.1646],[26.1245,-27.5806,1228.583],[26.1133,-27.5933,1227.0],[26.1061,-27.5956,1227.0],[26.0882,-27.5939,1226.5],[26.0842,-27.5954,1226.5],[26.0749,-27.6205,1226.5],[26.0858,-27.6428,1226.5],[26.0862,-27.648,1228.2754],[26.0799,-27.6534,1227.9036],[26.0637,-27.6602,1226.5],[26.0547,-27.6692,1228.3696],[26.0678,-27.6808,1226.5],[26.0928,-27.6824,1226.5],[26.0948,-27.6846,1232.0497],[26.0948,-27.6901,1227.8679],[26.0922,-27.6966,1226.5],[26.0649,-27.7194,1226.5],[26.0477,-27.7255,1226.5],[26.0354,-27.7366,1226.5],[26.0262,-27.7347,1226.5],[26.0204,-27.7279,1226.9031],[26.0127,-27.7223,1226.5],[26.0027,-27.7066,1226.5],[26.003,-27.7023,1227.1848],[26.0107,-27.6893,1226.5],[26.0077,-27.6773,1226.5],[26.0086,-27.6633,1226.5],[26.0053,-27.653,1226.5],[25.9931,-27.6417,1226.5],[25.9819,-27.6385,1226.5],[25.98,-27.6338,1226.5],[25.9819,-27.6272,1226.5],[25.9681,-27.625,1226.5],[25.9473,-27.6329,1226.5],[25.9403,-27.6149,1226.5],[25.932,-27.6064,1226.5],[25.9243,-27.6035,1226.5],[25.9157,-27.6057,1226.5],[25.9097,-27.6104,1226.5],[25.8957,-27.61,1226.5],[25.8951,-27.6147,1226.5],[25.8983,-27.6225,1227.4731],[25.8913,-27.6261,1226.5],[25.8724,-27.628,1226.5],[25.8581,-27.6238,1226.5],[25.8526,-27.621,1226.5],[25.8458,-27.61,1226.5],[25.8435,-27.6039,1226.5],[25.8467,-27.5953,1226.5],[25.8462,-27.5923,1226.5],[25.835,-27.5785,1226.5],[25.8328,-27.567,1226.5],[25.8285,-27.5664,1226.5],[25.8147,-27.5728,1226.5],[25.8048,-27.5831,1226.5],[25.7986,-27.5844,1226.5],[25.7882,-27.583,1226.5],[25.7814,-27.5841,1226.5],[25.764,-27.596,1226.5],[25.7495,-27.5998,1226.5],[25.7375,-27.6089,1226.5],[25.7279,-27.609,1226.5],[25.7099,-27.6245,1226.5],[25.6852,-27.6262,1226.5],[25.6789,-27.6296,1226.5],[25.6755,-27.6349,1226.5],[25.6784,-27.6408,1226.5],[25.6796,-27.6489,1226.5],[25.6767,-27.6592,1226.5],[25.6785,-27.677,1226.5],[25.6717,-27.6886,1226.5],[25.6639,-27.6942,1226.5],[25.6574,-27.6947,1226.5],[25.6415,-27.6864,1226.5],[25.633,-27.6761,1226.5],[25.6323,-27.6698,1226.5],[25.6308,-27.668,1226.5],[25.6275,-27.6672,1226.5],[25.6185,-27.6693,1226.5],[25.6104,-27.66,1211.9456],[25.6034,-27.6598,1218.6582],[25.5977,-27.6555,1209.9106],[25.5919,-27.6549,1213.312],[25.5847,-27.6587,1210.6232],[25.5724,-27.6775,1208.9214],[25.5558,-27.6867,1212.4297],[25.5132,-27.6948,1212.0985],[25.4948,-27.6939,1207.9626],[25.4879,-27.6919,1212.1199],[25.4809,-27.6925,1209.6251],[25.4747,-27.6989,1211.5498],[25.4733,-27.7068,1210.6992],[25.4693,-27.7106,1208.2982],[25.4653,-27.7096,1211.3345],[25.458,-27.7109,1208.7604],[25.4404,-27.7169,1210.5144],[25.424,-27.7156,1206.0],[25.4125,-27.7222,1210.6213],[25.3945,-27.7287,1210.8279],[25.3796,-27.7424,1207.6677],[25.364,-27.7505,1206.994],[25.3486,-27.772,1207.0078],[25.3448,-27.7849,1210.6113],[25.3404,-27.793,1211.7615],[25.3374,-27.7935,1210.0946],[25.333,-27.7905,1205.0],[25.3138,-27.7958,1206.177],[25.3015,-27.7932,1208.722],[25.2849,-27.7944,1206.9839],[25.2774,-27.7953,1204.5],[25.271,-27.7994,1208.8312],[25.2606,-27.822,1206.2561],[25.2536,-27.8262,1210.1909],[25.2441,-27.8292,1204.7855],[25.2384,-27.8344,1204.3973],[25.2382,-27.8375,1202.0],[25.2422,-27.8437,1207.3049],[25.2577,-27.8551,1204.5826],[25.2575,-27.8602,1202.3511],[25.2521,-27.867,1200.5],[25.2282,-27.8785,1203.0137],[25.2067,-27.884,1196.0123],[25.1977,-27.8885,1194.7192],[25.193,-27.8933,1192.8069],[25.1851,-27.9089,1189.5518],[25.1721,-27.9185,1189.9618],[25.1657,-27.9214,1190.4728],[25.1606,-27.9271,1190.4305],[25.1506,-27.9286,1190.5775],[25.1387,-27.9236,1190.3362],[25.1335,-27.9253,1189.4723],[25.1309,-27.9291,1189.0],[25.1328,-27.9433,1192.0503],[25.131,-27.9506,1189.0],[25.1173,-27.9606,1189.0],[25.1113,-27.9702,1189.0],[25.0968,-27.9769,1189.8926],[25.0906,-27.984,1189.0],[25.0903,-27.9886,1189.0],[25.0951,-27.9918,1190.7461],[25.1025,-28.0009,1189.0],[25.1064,-28.0068,1192.6757],[25.1074,-28.0119,1189.0],[25.1049,-28.0167,1189.2878],[25.0769,-28.0484,1188.5],[25.0739,-28.0659,1188.5],[25.0702,-28.0685,1188.5],[25.0591,-28.0707,1188.5],[25.0385,-28.0681,1189.2417],[25.0281,-28.0735,1188.6108],[24.9646,-28.2507,1296.9343],[24.9267,-28.2469,1241.4027],[24.9053,-28.2748,1248.684],[24.8705,-28.2704,1220.088],[24.8903,-28.3102,1236.3884],[24.9376,-28.3249,1183.5444],[24.8868,-28.465,1154.5983],[24.8813,-28.4632,1147.7273],[24.8469,-28.5038,1155.2119],[24.8678,-28.5171,1166.5392],[24.8277,-28.627,1229.3425],[24.9018,-28.648,1298.3285],[24.6619,-29.0792,1113.6951],[24.3466,-29.6559,1071.1516],[24.3522,-29.6587,1070.0],[24.3535,-29.6615,1070.0],[24.3487,-29.7018,1073.6519],[24.3513,-29.709,1076.6418],[24.3565,-29.7147,1072.5],[24.365,-29.7188,1073.125],[24.376,-29.727,1074.0],[24.3879,-29.7539,1078.1293],[24.4022,-29.7741,1078.884],[24.4105,-29.7894,1078.7358],[24.4246,-29.8012,1081.2263],[24.4351,-29.8059,1083.4178],[24.439,-29.8149,1080.734],[24.4472,-29.8151,1091.2339],[24.4535,-29.8111,1082.6013],[24.459,-29.8107,1081.0],[24.4872,-29.813,1086.3744],[24.4977,-29.816,1082.375],[24.5034,-29.8241,1086.2094],[24.5018,-29.8332,1083.0],[24.5026,-29.8365,1083.7203],[24.5103,-29.8415,1083.5],[24.5237,-29.8452,1085.0281],[24.5395,-29.8423,1084.5],[24.547,-29.8449,1085.5972],[24.5507,-29.8492,1084.8013],[24.5551,-29.8626,1085.5588],[24.5642,-29.8777,1085.0],[24.5841,-29.8962,1085.5],[24.6079,-29.9113,1091.0029],[24.6453,-29.9113,1091.2598],[24.6495,-29.9069,1097.0471],[24.6498,-29.9016,1091.7758],[24.6527,-29.8988,1089.0],[24.6593,-29.8992,1091.6909],[24.6651,-29.902,1096.0593],[24.6679,-29.9091,1093.5059],[24.6628,-29.9422,1096.6405],[24.6695,-29.9611,1097.957],[24.6713,-29.9715,1100.1095],[24.6744,-29.9756,1095.3298],[24.6956,-29.9827,1093.0],[24.7036,-29.9837,1094.6857],[24.7124,-29.9887,1097.0007],[24.7237,-29.9922,1099.5577],[24.7502,-29.9895,1169.0],[24.7568,-29.9928,1169.0],[24.7738,-29.9938,1169.0],[24.794,-29.999,1169.0],[24.8037,-30.0118,1169.0],[24.8081,-30.023,1169.0],[24.8073,-30.0264,1169.0],[24.7985,-30.0339,1169.0],[24.7962,-30.0459,1169.0],[24.7978,-30.0516,1169.0],[24.8034,-30.0604,1169.0],[24.8141,-30.0679,1169.0],[24.8178,-30.0821,1169.0],[24.826,-30.0852,1169.0],[24.8329,-30.0923,1169.0],[24.8385,-30.0952,1169.0],[24.8364,-30.1151,1169.0],[24.8376,-30.1178,1169.0],[24.8442,-30.1235,1169.0],[24.8673,-30.1307,1169.0],[24.8711,-30.1345,1169.0],[24.8804,-30.1589,1169.0],[24.8816,-30.1733,1169.0],[24.8952,-30.1842,1169.0],[24.8957,-30.1964,1169.0],[24.9003,-30.207,1169.0],[24.9042,-30.2093,1169.0],[24.9104,-30.2097,1169.0],[24.9203,-30.2008,1169.0],[24.9251,-30.2007,1169.0],[24.9302,-30.2069,1169.0],[24.934,-30.2175,1169.0],[24.9426,-30.2215,1169.0],[24.9461,-30.2253,1169.0],[24.9542,-30.2261,1169.0],[24.9558,-30.2311,1169.0],[24.9553,-30.2386,1169.0],[24.9468,-30.2467,1169.0],[24.9465,-30.2518,1169.0],[24.9632,-30.2675,1169.0],[24.9761,-30.2733,1169.0],[24.9803,-30.2842,1169.0],[24.9863,-30.29,1169.0],[25.0028,-30.2935,1169.0],[25.0079,-30.2921,1169.0],[25.0233,-30.2835,1169.0],[25.0295,-30.2837,1169.0],[25.0344,-30.2862,1169.0],[25.0397,-30.3013,1169.0],[25.0459,-30.3111,1169.0],[25.0471,-30.3162,1169.0],[25.0466,-30.3229,1169.0],[25.0424,-30.3365,1169.0],[25.0355,-30.3449,1169.0],[25.0385,-30.3625,1169.0],[25.043,-30.3634,1169.0],[25.0511,-30.3572,1169.0],[25.064,-30.3569,1169.0],[25.0716,-30.3594,1189.9473],[25.0779,-30.3653,1171.2063],[25.0854,-30.3692,1171.2212],[25.0951,-30.3722,1171.2736],[25.0989,-30.3782,1169.0],[25.1021,-30.3913,1173.6226],[25.1112,-30.4036,1192.4869],[25.1135,-30.4092,1215.327],[25.1256,-30.4202,1169.5],[25.1399,-30.4242,1169.5],[25.1467,-30.4329,1171.4739],[25.1577,-30.4426,1169.5],[25.1612,-30.4495,1170.0942],[25.1531,-30.4532,1169.5],[25.1527,-30.4593,1169.5],[25.1601,-30.4647,1169.5],[25.1671,-30.4737,1175.1243],[25.1837,-30.484,1179.4668],[25.1896,-30.4984,1174.0376],[25.203,-30.504,1171.7264],[25.21,-30.5051,1169.5],[25.2252,-30.5037,1169.6976],[25.2313,-30.4995,1174.2668],[25.2353,-30.4999,1169.5],[25.2395,-30.5046,1169.625],[25.2434,-30.5136,1170.7534],[25.2547,-30.519,1173.4728],[25.2617,-30.5259,1194.8101],[25.2706,-30.5387,1178.9084],[25.279,-30.5441,1172.625],[25.2838,-30.559,1177.0457],[25.3054,-30.5765,1178.9298],[25.3114,-30.5771,1178.0],[25.3237,-30.5724,1181.4208],[25.326,-30.5696,1185.769],[25.3284,-30.561,1180.5],[25.3337,-30.5577,1189.1936],[25.34,-30.5583,1184.4869],[25.3504,-30.5643,1187.4583],[25.3572,-30.5636,1182.3658],[25.3636,-30.5581,1183.6794],[25.3747,-30.5591,1182.0],[25.3993,-30.5731,1192.9705],[25.4057,-30.5721,1184.0],[25.4187,-30.5782,1185.5],[25.4208,-30.5865,1188.8788],[25.4536,-30.609,1190.0701],[25.4664,-30.623,1193.4626],[25.4682,-30.6326,1193.457],[25.4744,-30.635,1214.2603],[25.4841,-30.6319,1200.3462],[25.4878,-30.6292,1196.4496],[25.5037,-30.625,1200.8928],[25.5169,-30.617,1258.0],[25.5256,-30.6139,1258.0],[25.5385,-30.6134,1258.0],[25.5563,-30.6166,1258.0],[25.564,-30.6158,1258.0],[25.5746,-30.6088,1258.0],[25.5901,-30.5911,1258.0],[25.5967,-30.5904,1258.0],[25.6031,-30.5944,1258.0],[25.609,-30.6072,1258.0],[25.617,-30.6189,1258.0],[25.6248,-30.6243,1258.0],[25.6229,-30.6324,1258.0],[25.61,-30.6482,1258.0],[25.6093,-30.6515,1258.0],[25.6119,-30.655,1258.0],[25.6241,-30.659,1258.0],[25.6417,-30.6577,1258.0],[25.654,-30.6524,1258.0],[25.6716,-30.6409,1258.0],[25.6755,-30.6401,1258.0],[25.6853,-30.6471,1258.0],[25.6854,-30.6506,1258.0],[25.6801,-30.6598,1258.0],[25.6797,-30.6662,1258.0],[25.6932,-30.6761,1258.0],[25.7006,-30.6796,1258.0],[25.7166,-30.6825,1258.0],[25.7498,-30.6825,1258.0],[25.7568,-30.6875,1258.0],[25.7631,-30.6887,1258.0],[25.7706,-30.6865,1258.0],[25.7769,-30.6816,1258.0],[25.7789,-30.6759,1258.0],[25.7791,-30.6566,1258.0],[25.7808,-30.649,1258.0],[25.7831,-30.6452,1258.0],[25.793,-30.6371,1258.0],[25.8003,-30.6347,1258.0],[25.819,-30.635,1258.0],[25.8338,-30.6324,1258.0],[25.8467,-30.6336,1258.0],[25.8512,-30.6293,1258.0],[25.8562,-30.6175,1258.0],[25.8606,-30.6129,1258.0],[25.8724,-30.6107,1258.0],[25.8873,-30.6122,1258.0],[25.891,-30.6103,1258.0],[25.8932,-30.6045,1258.0],[25.892,-30.5968,1258.0],[25.8748,-30.5728,1258.0],[25.8718,-30.5622,1258.0],[25.8726,-30.5581,1258.0],[25.8792,-30.549,1258.0],[25.8856,-30.5438,1258.0],[25.8952,-30.5406,1258.0],[25.903199999999998,-30.5432,1258.0],[25.9238,-30.5644,1258.0],[25.9268,-30.5713,1258.0],[25.9227,-30.579,1258.0],[25.923,-30.5813,1258.0],[25.931,-30.585,1258.0],[25.9377,-30.5836,1258.0],[25.9413,-30.5796,1258.0],[25.9406,-30.5649,1258.0],[25.9438,-30.5569,1258.0],[25.9552,-30.5471,1258.0],[25.977,-30.5382,1258.0],[25.9991,-30.5369,1258.0],[26.0295,-30.5321,1258.9365],[26.052,-30.5227,1258.0],[26.0696,-30.5235,1258.0],[26.0974,-30.5165,1258.9163],[26.1084,-30.5214,1258.5],[26.1182,-30.5354,1261.2172],[26.1341,-30.5406,1259.0],[26.1421,-30.5402,1260.4395],[26.1493,-30.5359,1262.0608],[26.1487,-30.5175,1262.4294],[26.1435,-30.5104,1261.298],[26.1367,-30.5098,1261.4854],[26.1319,-30.5074,1262.8372],[26.1301,-30.5049,1261.528],[26.1301,-30.5001,1262.1628],[26.1357,-30.4924,1263.1683],[26.1455,-30.4853,1260.8506],[26.1518,-30.4835,1260.0],[26.1626,-30.4835,1260.0],[26.1794,-30.4912,1260.5],[26.1941,-30.5038,1265.1501],[26.1962,-30.513,1263.02],[26.1938,-30.528,1261.5],[26.1973,-30.5316,1261.5],[26.206,-30.5336,1261.5],[26.2186,-30.5317,1263.1196],[26.2298,-30.5354,1262.3972],[26.2563,-30.5394,1264.0347],[26.2631,-30.543,1262.5],[26.2651,-30.5494,1265.1307],[26.2653,-30.5663,1263.0],[26.2696,-30.5715,1269.2023],[26.2805,-30.5781,1275.6416],[26.2804,-30.5814,1269.022],[26.2768,-30.5855,1264.0],[26.2802,-30.5896,1269.7307],[26.291,-30.5918,1264.5],[26.3092,-30.584,1266.395],[26.3164,-30.5825,1269.0974],[26.344,-30.5937,1266.5],[26.356,-30.595,1267.0],[26.3616,-30.5928,1267.0],[26.3723,-30.5816,1268.0],[26.3897,-30.5815,1272.0786],[26.3956,-30.5778,1270.1667],[26.4016,-30.5716,1269.0],[26.4179,-30.5664,1270.8203],[26.4257,-30.5652,1269.5],[26.4356,-30.5665,1270.0],[26.4501,-30.5697,1271.0],[26.4606,-30.5783,1273.0],[26.4789,-30.5893,1277.5012],[26.489,-30.5931,1278.0433],[26.49,-30.6,1280.4987],[26.4857,-30.6131,1278.0],[26.4807,-30.6213,1278.0],[26.4807,-30.6265,1279.6045],[26.4824,-30.6289,1282.6768]]]]}
,"properties": {"GID_1": "ZAF.2_1","GID_0": "ZAF","country": "SouthAfrica","province": "FreeState","VARNAME_1": "OrangeFreeState|Vrystaat","NL_NAME_1": "NA","TYPE_1": "Provinsie","ENGTYPE_1": "Province","CC_1": "FS","HASC_1": "ZA.FS","ISO_1": "ZA-FS","name": "Free_State.province","area_km2": 130010.97,"hist_schema_id": "Elevation0-9000","hist_area_km2": {"1075": 13.04,"1100": 132.15,"1125": 500.81,"1150": 1308.63,"1175": 1914.45,"1200": 2586.09,"1225": 3871.89,"1250": 5514.76,"1275": 7894.14,"1300": 8325.35,"1325": 7444.56,"1350": 7207.85,"1375": 6613.2,"1400": 6395.66,"1425": 6673.67,"1450": 6623.11,"1475": 6612.85,"1500": 5887.71,"1525": 5337.01,"1550": 5058.53,"1575": 4730.81,"1600": 4448.74,"1625": 3957.88,"1650": 3679.85,"1675": 3463.56,"1700": 3129.46,"1725": 2337.38,"1750": 1709.33,"1775": 1360.22,"1800": 1106.72,"1825": 831.77,"1850": 592.56,"1875": 469.7,"1900": 393.6,"1925": 348.61,"1950": 311.38,"1975": 271.96,"2000": 235.9,"2025": 188.31,"2050": 113.47,"2075": 72.95,"2100": 47.55,"2125": 38.87,"2150": 34.35,"2175": 28.31,"2200": 24.53,"2225": 19.38,"2250": 18.99,"2275": 17.03,"2300": 12.37,"2325": 10.99,"2350": 8.62,"2375": 7.02,"2400": 5.53,"2425": 5.19,"2450": 4.82,"2475": 3.94,"2500": 3.85,"2525": 3.87,"2550": 3.39,"2575": 2.75,"2600": 2.31,"2625": 1.9,"2650": 1.77,"2675": 1.66,"2700": 1.53,"2725": 1.39,"2750": 1.36,"2775": 1.1,"2800": 1.23,"2825": 1.39,"2850": 1.08,"2875": 2.01,"2900": 1.62,"2925": 2.19,"2950": 1.79,"2975": 1.84,"3000": 2.21,"3025": 2.27,"3050": 2.01,"3075": 1.97,"3125": 1.06}}}