{"type": "Feature","id": "1206","bbox": [24.34082,-30.68056,29.77496,-26.66654],"geometry": {"type": "Polygon","coordinates": [[[28.13713,-26.87681,1488.7278],[28.13108,-26.87273,1469.4037],[28.12395,-26.86653,1454.575],[28.11113,-26.85309,1487.1782],[28.09155,-26.83934,1437.6119],[28.07196,-26.82865,1432.9797],[28.04395,-26.818,1461.1553],[28.0316,-26.80312,1447.2346],[27.99073,-26.7364,1427.4553],[27.98117,-26.71274,1458.3967],[27.99016,-26.70204,1426.0],[27.99584,-26.69728,1427.8595],[27.98794,-26.68679,1431.1688],[27.96969,-26.67129,1426.7285],[27.95884,-26.66654,1430.0781],[27.94665,-26.66897,1429.5823],[27.9253,-26.6809,1440.1793],[27.91063,-26.69449,1437.9216],[27.89786,-26.71072,1427.3425],[27.88231,-26.72431,1440.1809],[27.85983,-26.72994,1464.6765],[27.81373,-26.73532,1467.8978],[27.79048,-26.74173,1449.3467],[27.77384,-26.75041,1429.0924],[27.76965,-26.75811,1425.3519],[27.77038,-26.76596,1434.1599],[27.76934,-26.77278,1418.0],[27.7602,-26.77775,1435.0973],[27.74924,-26.77619,1429.3473],[27.74128,-26.76875,1417.5],[27.73508,-26.76054,1435.8948],[27.7295,-26.75666,1438.6843],[27.65855,-26.76488,1425.3346],[27.64351,-26.7641,1439.1458],[27.64082,-26.75671,1437.2755],[27.62899,-26.73981,1434.658],[27.61612,-26.72726,1434.0875],[27.60997,-26.73304,1409.3691],[27.60078,-26.73723,1442.075],[27.58253,-26.73764,1428.2239],[27.56951,-26.74343,1411.4637],[27.57587,-26.7641,1420.2056],[27.55266,-26.76508,1425.5869],[27.54093,-26.76782,1437.9171],[27.53303,-26.76958,1544.0219],[27.51944,-26.78069,1406.5732],[27.51442,-26.80162,1394.875],[27.51386,-26.82198,1397.899],[27.51076,-26.83242,1403.5302],[27.48027,-26.87397,1389.5841],[27.46947,-26.87991,1381.7092],[27.40756,-26.89443,1384.7338],[27.39407,-26.89552,1359.1892],[27.38125,-26.89154,1366.3456],[27.34937,-26.86394,1382.4243],[27.33614,-26.85841,1329.6047],[27.30751,-26.86239,1428.354],[27.28338,-26.88099,1331.3093],[27.24152,-26.92554,1333.7927],[27.20245,-26.95195,1393.927],[27.1807,-26.96047,1318.6263],[27.17119,-26.95184,1371.8638],[27.17388,-26.94254,1359.2563],[27.17806,-26.93246,1333.1801],[27.17801,-26.9244,1315.9595],[27.16778,-26.92115,1317.0967],[27.15915,-26.92223,1388.7356],[27.14215,-26.92688,1332.5029],[27.04391,-26.9288,1316.0161],[26.99962,-26.92316,1292.0],[26.96634,-26.90745,1294.3579],[26.94588,-26.87567,1298.9684],[26.93265,-26.86487,1310.8838],[26.91792,-26.87397,1312.2207],[26.91415,-26.88993,1319.3444],[26.91792,-26.95525,1302.269],[26.89343,-26.94037,1299.5602],[26.86253,-26.91505,1294.7817],[26.85757,-26.91298,1303.5658],[26.83638,-26.9244,1311.6453],[26.82403,-26.93453,1291.618],[26.81752,-26.94337,1292.0415],[26.80832,-26.93913,1293.7209],[26.7938,-26.92797,1302.7738],[26.78837,-26.93066,1304.7317],[26.77757,-26.93965,1290.7665],[26.75494,-26.94564,1305.2158],[26.73747,-26.95551,1294.4983],[26.70843,-26.97918,1289.223],[26.70424,-26.98476,1289.7104],[26.70109,-26.99189,1288.1519],[26.69897,-26.99949,1288.875],[26.6982,-27.00677,1288.1132],[26.69458,-27.01696,1289.999],[26.68672,-27.01701,1284.9042],[26.67949,-27.01277,1284.5088],[26.67773,-27.00988,1285.5115],[26.66967,-27.0074,1309.2111],[26.65856,-27.00228,1294.2979],[26.64492,-26.99933,1284.3284],[26.62931,-27.00367,1275.1705],[26.61525,-27.01391,1276.3351],[26.58787,-27.04145,1272.0],[26.58151,-27.05148,1273.543],[26.58042,-27.06853,1288.783],[26.58368,-27.08264,1289.621],[26.58244,-27.09478,1284.8214],[26.56787,-27.1061,1282.644],[26.54394,-27.09809,1275.3715],[26.53185,-27.0985,1290.0758],[26.5058,-27.12718,1266.4055],[26.48968,-27.1386,1280.3623],[26.43129,-27.1539,1271.4467],[26.41113,-27.17684,1271.9368],[26.43309,-27.2048,1251.3259],[26.46777,-27.23224,1252.2781],[26.48591,-27.25379,1254.2181],[26.48524,-27.31084,1239.5],[26.4826,-27.3128,1247.1934],[26.47748,-27.31099,1250.6479],[26.46917,-27.31559,1241.2827],[26.45599,-27.33404,1243.0847],[26.45015,-27.3529,1247.6501],[26.45728,-27.36763,1258.4648],[26.48281,-27.37363,1249.7919],[26.49288,-27.37471,1248.3668],[26.50286,-27.37786,1249.9684],[26.5103,-27.38324,1239.4125],[26.51325,-27.39068,1238.0],[26.50844,-27.39378,1247.9851],[26.40943,-27.39285,1252.2344],[26.39036,-27.38727,1249.561],[26.36219,-27.3868,1241.9917],[26.34953,-27.38965,1245.0062],[26.33884,-27.39781,1237.3418],[26.32959,-27.41683,1233.889],[26.3283,-27.41858,1233.8293],[26.32478,-27.42132,1239.7704],[26.31662,-27.41703,1242.9171],[26.30747,-27.41083,1249.2192],[26.30096,-27.40773,1254.6853],[26.27372,-27.41254,1239.4124],[26.24959,-27.42597,1238.24],[26.23244,-27.44654,1237.3551],[26.22587,-27.47259,1236.0415],[26.22711,-27.48287,1238.4805],[26.22856,-27.48923,1234.5591],[26.22685,-27.49486,1234.4387],[26.21843,-27.50333,1243.6689],[26.21342,-27.50525,1241.1685],[26.19714,-27.50866,1254.5989],[26.19109,-27.51078,1261.7938],[26.10159,-27.58633,1234.756],[26.08852,-27.60204,1240.8071],[26.0817,-27.61077,1233.6703],[26.07937,-27.61309,1232.3291],[26.0555,-27.65252,1237.2915],[26.05348,-27.65764,1233.65],[26.0527,-27.66317,1229.0372],[26.05394,-27.66829,1229.1887],[26.05581,-27.67325,1257.7107],[26.06697,-27.69107,1249.5211],[26.06898,-27.69583,1246.2432],[26.0696,-27.70141,1239.1194],[26.06836,-27.70647,1232.9868],[26.06542,-27.71071,1227.5],[26.06123,-27.71376,1227.0],[26.05596,-27.71624,1230.6111],[26.04945,-27.71815,1230.5503],[26.04196,-27.71903,1228.9988],[26.03234,-27.71893,1229.6321],[26.0249,-27.71645,1232.2925],[26.01917,-27.71205,1236.8779],[26.01405,-27.70317,1236.448],[26.01204,-27.69557,1237.4746],[26.01002,-27.68193,1226.5],[26.00537,-27.66549,1226.5],[26.00103,-27.64276,1226.5],[25.99979,-27.63924,1226.5],[25.99436,-27.63609,1226.5],[25.98429,-27.63289,1226.5],[25.91581,-27.62023,1241.2354],[25.90357,-27.61955,1226.5],[25.88109,-27.62136,1226.5],[25.87442,-27.62095,1226.5],[25.866,-27.61769,1226.5],[25.8567,-27.61201,1226.5],[25.84228,-27.59832,1226.5],[25.8305,-27.58385,1233.0804],[25.82057,-27.57888,1232.1527],[25.79866,-27.58069,1226.5],[25.69407,-27.63439,1235.958],[25.6671,-27.65299,1230.3088],[25.66275,-27.6596,1226.5],[25.65469,-27.66891,1226.5],[25.64735,-27.67237,1226.5],[25.64038,-27.67325,1226.5],[25.63433,-27.67128,1226.5],[25.62255,-27.66844,1226.5],[25.60302,-27.65795,1210.8484],[25.59185,-27.6548,1213.312],[25.58095,-27.6548,1226.6968],[25.57397,-27.65888,1228.5728],[25.56281,-27.67237,1218.0442],[25.55739,-27.67526,1218.0553],[25.55139,-27.67743,1220.6477],[25.53408,-27.68673,1216.7759],[25.52292,-27.6889,1216.5626],[25.51796,-27.68777,1215.6321],[25.50866,-27.68265,1215.7061],[25.50245,-27.68146,1215.9298],[25.49646,-27.68358,1216.2045],[25.49134,-27.68813,1213.8799],[25.4854,-27.69511,1218.606],[25.42143,-27.7104,1216.4856],[25.40623,-27.71965,1212.6774],[25.33378,-27.77768,1215.1697],[25.32681,-27.78146,1213.8174],[25.31404,-27.78513,1214.6456],[25.30143,-27.78626,1213.8579],[25.29043,-27.78575,1215.6064],[25.28014,-27.78745,1216.7866],[25.2697,-27.79505,1213.8225],[25.25306,-27.81623,1217.6508],[25.24888,-27.81928,1217.062],[25.24061,-27.8229,1217.7958],[25.24066,-27.83127,1202.5],[25.24578,-27.84657,1207.4817],[25.2389,-27.85928,1219.8423],[25.225,-27.87763,1199.9844],[25.20857,-27.89406,1212.3993],[25.19426,-27.90119,1204.9653],[25.18929,-27.90445,1191.1733],[25.17875,-27.91902,1199.928],[25.17379,-27.92227,1199.3473],[25.15007,-27.92227,1195.1827],[25.13932,-27.92424,1190.3362],[25.12909,-27.9291,1195.2327],[25.12408,-27.93535,1200.3019],[25.09783,-27.97793,1194.6622],[25.09855,-27.98532,1199.105],[25.10165,-27.99106,1196.9218],[25.10181,-27.99741,1198.6172],[25.08129,-28.03012,1194.3038],[25.06682,-28.04743,1197.7997],[25.05339,-28.05824,1196.2366],[25.04476,-28.05824,1196.9388],[25.03334,-28.05575,1199.278],[25.02352,-28.05529,1199.7544],[25.01499,-28.0679,1195.6028],[25.01349,-28.06821,1194.2683],[25.01334,-28.08283,1193.5598],[25.01303,-28.09973,1228.641],[25.00993,-28.11508,1240.4095],[24.98125,-28.18836,1219.4205],[24.97019,-28.2081,1210.5959],[24.95034,-28.23605,1224.8334],[24.92347,-28.25931,1227.7535],[24.89975,-28.27285,1245.9589],[24.8951,-28.28603,1248.5985],[24.89898,-28.2976,1223.9093],[24.90688,-28.30928,1211.1132],[24.91603,-28.31744,1199.2261],[24.91727,-28.32923,1195.35],[24.91386,-28.34845,1183.9336],[24.89185,-28.42018,1162.2086],[24.88099,-28.44167,1160.3646],[24.86373,-28.46596,1153.6838],[24.84513,-28.5194,1158.4753],[24.8411,-28.58265,1205.6031],[24.84839,-28.61055,1211.7107],[24.86048,-28.6273,1215.7932],[24.87216,-28.63283,1228.2834],[24.87712,-28.63882,1233.3281],[24.87433,-28.64988,1232.9109],[24.76183,-28.86537,1157.897],[24.65506,-29.06934,1116.9219],[24.41704,-29.50988,1163.8135],[24.34852,-29.63618,1135.2441],[24.34082,-29.64904,1090.2731],[24.3479,-29.66036,1079.5259],[24.35539,-29.697,1090.0498],[24.36475,-29.71328,1097.9753],[24.40908,-29.76449,1112.3925],[24.4281,-29.77906,1107.1309],[24.442,-29.78506,1127.0378],[24.47461,-29.78562,1183.9813],[24.47776,-29.78986,1167.8094],[24.48329,-29.80867,1094.8611],[24.48825,-29.81291,1086.407],[24.51037,-29.81162,1095.7698],[24.52158,-29.81239,1112.2821],[24.52949,-29.81632,1103.4432],[24.57543,-29.86598,1108.3861],[24.60463,-29.88195,1166.2841],[24.64623,-29.88799,1146.6633],[24.65754,-29.89564,1117.2383],[24.66302,-29.91352,1108.3157],[24.66612,-29.93419,1099.0623],[24.67041,-29.95011,1109.4908],[24.6792,-29.96081,1115.053],[24.69165,-29.96876,1133.7651],[24.70721,-29.97419,1129.873],[24.72503,-29.97739,1238.9385],[24.73992,-29.98013,1170.9717],[24.75346,-29.98168,1182.0702],[24.78446,-29.98825,1192.8303],[24.8073,-30.02168,1169.0],[24.90688,-30.20121,1357.343],[24.91432,-30.20699,1169.0],[24.92068,-30.21061,1169.0],[24.92569,-30.21247,1169.0],[24.93453,-30.21433,1169.0],[24.94538,-30.21464,1193.5747],[24.96197,-30.23986,1181.9388],[24.96492,-30.24694,1250.391],[24.9674,-30.25087,1309.2244],[24.97825,-30.25795,1269.9882],[24.98207,-30.26322,1270.1692],[24.98605,-30.26601,1232.5468],[25.0293,-30.28306,1169.0],[25.03354,-30.289,1196.9642],[25.03551,-30.31117,1311.1548],[25.03866,-30.32244,1272.0281],[25.04346,-30.33024,1169.0],[25.13126,-30.39964,1268.7019],[25.1849,-30.45566,1214.9471],[25.21787,-30.47767,1213.8711],[25.25792,-30.4969,1261.9244],[25.27358,-30.51059,1253.1628],[25.27994,-30.5292,1221.821],[25.29032,-30.5431,1216.1523],[25.31456,-30.54651,1231.3853],[25.36184,-30.54532,1219.1099],[25.39683,-30.56356,1211.9807],[25.43161,-30.59219,1206.8904],[25.46747,-30.61312,1226.1974],[25.50586,-30.608,1258.0],[25.5224,-30.60862,1258.0],[25.5794,-30.60252,1258.0],[25.61123,-30.6063,1258.0],[25.61526,-30.61095,1258.0],[25.61728,-30.61632,1258.0],[25.62084,-30.64077,1258.0],[25.62255,-30.64624,1258.0],[25.62519,-30.65084,1258.0],[25.62922,-30.6542,1258.0],[25.63449,-30.65653,1258.0],[25.65996,-30.66092,1258.0],[25.6657,-30.66257,1259.0762],[25.68508,-30.67358,1258.0],[25.69702,-30.67725,1258.0],[25.72544,-30.68056,1258.0],[25.74544,-30.67301,1258.0],[25.77618,-30.65813,1258.0],[25.83964,-30.61741,1263.5817],[25.86274,-30.59824,1281.61],[25.87442,-30.58433,1258.0],[25.87359,-30.57829,1258.0],[25.87049,-30.56728,1258.0],[25.87003,-30.56175,1258.0],[25.87127,-30.55658,1258.0],[25.87452,-30.55209,1258.0],[25.87938,-30.54821,1258.0],[25.89225,-30.5417,1258.0],[25.90062,-30.54268,1258.0],[25.90729,-30.54465,1258.0],[25.93819,-30.5663,1270.2289],[25.95602,-30.55757,1258.0],[25.96113,-30.55369,1258.0],[25.97199,-30.54532,1258.2864],[25.98594,-30.53498,1258.0],[26.00289,-30.52842,1258.0],[26.05989,-30.51385,1261.7213],[26.07286,-30.51416,1270.8716],[26.10857,-30.52547,1261.0762],[26.13549,-30.5261,1301.3884],[26.14076,-30.51142,1261.3229],[26.13937,-30.49375,1269.2056],[26.14639,-30.48512,1260.8506],[26.17187,-30.48946,1263.334],[26.185,-30.50015,1267.1248],[26.19337,-30.51338,1265.0641],[26.20474,-30.52547,1293.4457],[26.22432,-30.5325,1267.3191],[26.24432,-30.53555,1268.3962],[26.25993,-30.54299,1290.1172],[26.26623,-30.5633,1281.3656],[26.28018,-30.57917,1272.4353],[26.31145,-30.58154,1269.4368],[26.44157,-30.55958,1330.8461],[26.44829,-30.56284,1308.193],[26.45738,-30.57064,1313.0143],[26.47227,-30.58754,1287.0887],[26.47692,-30.61451,1300.8007],[26.47971,-30.62164,1286.5537],[26.49159,-30.63027,1282.3782],[26.53459,-30.6511,1283.9664],[26.55076,-30.65518,1302.2372],[26.59588,-30.6541,1313.0034],[26.61773,-30.65627,1290.8092],[26.63613,-30.66324,1340.9418],[26.63613,-30.66945,1291.6138],[26.62792,-30.67978,1292.1562],[26.63644,-30.67864,1315.3291],[26.65722,-30.66945,1315.5369],[26.67065,-30.66852,1308.9781],[26.67732,-30.67131,1296.7092],[26.68336,-30.67503,1303.0111],[26.69478,-30.67689,1341.3479],[26.70269,-30.67513,1346.9199],[26.71261,-30.66645,1358.1216],[26.71933,-30.66324,1324.8885],[26.72708,-30.66185,1308.0997],[26.73111,-30.662,1316.7396],[26.73499,-30.66278,1302.1035],[26.74259,-30.66324,1298.2471],[26.75184,-30.6603,1310.1565],[26.77276,-30.64666,1309.8806],[26.78077,-30.64278,1313.7926],[26.80713,-30.64469,1321.2378],[26.82258,-30.65684,1359.1014],[26.83493,-30.67048,1320.9381],[26.85214,-30.67689,1325.2596],[26.86433,-30.67348,1333.6978],[26.87772,-30.65859,1308.0205],[26.89374,-30.65518,1400.0757],[26.9218,-30.65534,1382.7816],[26.9343,-30.65188,1403.4586],[26.94526,-30.64278,1370.3762],[26.93834,-30.62345,1359.0443],[26.94743,-30.6064,1306.0],[26.96557,-30.59364,1413.845],[26.98619,-30.58754,1556.213],[27.02474,-30.59079,1452.7468],[27.03352,-30.5863,1466.0555],[27.02717,-30.56707,1471.4564],[27.00608,-30.55012,1430.5746],[26.99869,-30.53834,1356.9917],[27.01042,-30.53292,1385.5768],[27.05791,-30.52547,1433.2443],[27.07962,-30.52982,1403.1116],[27.09869,-30.5371,1460.2059],[27.11693,-30.5386,1406.3987],[27.13641,-30.52547,1331.7482],[27.13667,-30.51741,1481.4155],[27.13176,-30.50863,1335.551],[27.13192,-30.50165,1358.3394],[27.14695,-30.49876,1502.1259],[27.18793,-30.50186,1573.1018],[27.20106,-30.48987,1427.0426],[27.20917,-30.48537,1367.9978],[27.22643,-30.48512,1378.7908],[27.23113,-30.48336,1365.4639],[27.23439,-30.47767,1420.1864],[27.23945,-30.47767,1439.6669],[27.244,-30.48031,1342.4821],[27.24912,-30.48506,1352.9717],[27.25289,-30.48946,1372.3739],[27.2531,-30.49132,1370.921],[27.27661,-30.49271,1560.2802],[27.28927,-30.49178,1492.6088],[27.2978,-30.48822,1416.7681],[27.31139,-30.47245,1420.3428],[27.31681,-30.46191,1425.8505],[27.31175,-30.45721,1476.3391],[27.29986,-30.45478,1444.2395],[27.28989,-30.44858,1460.5881],[27.28648,-30.4398,1506.9529],[27.2947,-30.42987,1471.9672],[27.30245,-30.43075,1493.7015],[27.3272,-30.4415,1492.3513],[27.335,-30.44352,1531.7314],[27.3566,-30.43215,1454.2983],[27.34327,-30.42155,1455.1517],[27.32338,-30.4091,1473.6909],[27.32539,-30.39199,1418.176],[27.3458,-30.38502,1425.5011],[27.36849,-30.3876,1490.5154],[27.38942,-30.38636,1528.298],[27.40456,-30.36781,1423.1918],[27.3981,-30.35851,1447.5408],[27.38999,-30.35417,1510.1066],[27.38058,-30.35494,1441.1079],[27.3704,-30.36099,1443.4478],[27.36188,-30.34166,1420.5134],[27.34932,-30.32001,1422.0143],[27.36219,-30.31489,1439.9517],[27.36916,-30.3135,1464.0504],[27.3766,-30.31319,1472.1069],[27.37771,-30.31232,1486.5189],[27.37702,-30.31215,1477.7704],[27.36616,-30.31102,1487.1523],[27.36782,-30.29541,1503.7358],[27.34554,-30.24156,1421.4418],[27.34368,-30.21294,1481.4871],[27.36554,-30.16581,1468.9839],[27.38053,-30.15258,1510.2104],[27.38136,-30.14266,1527.5192],[27.371949999999998,-30.13594,1473.1388],[27.35666,-30.13222,1508.095],[27.33443,-30.13222,1521.2156],[27.32203,-30.1348,1588.2305],[27.31278,-30.1316,1537.6881],[27.30043,-30.11496,1502.7424],[27.29371,-30.1009,1522.7845],[27.28017,-30.05346,1655.6534],[27.26591,-30.03331,1934.5924],[27.21796,-29.99806,1739.906],[27.19884,-29.97853,1649.2195],[27.17135,-29.9215,1640.851],[27.08876,-29.75012,1481.1572],[27.08866,-29.75012,1481.1572],[27.08866,-29.75002,1481.1572],[27.08013,-29.73513,1598.6028],[27.05099,-29.69679,1595.2639],[27.03766,-29.68646,1542.364],[27.02453,-29.68005,1537.6877],[27.01022,-29.66992,1424.8579],[27.00215,-29.66651,1436.6877],[27.01445,-29.6417,1433.0764],[27.01487,-29.62558,1460.1989],[27.02241,-29.61618,1426.1646],[27.03295,-29.61618,1434.2478],[27.04236,-29.62806,1431.6664],[27.04918,-29.62052,1466.6411],[27.05683,-29.60439,1490.9027],[27.0622,-29.60016,1467.7657],[27.07202,-29.59995,1436.458],[27.07512,-29.60512,1441.6602],[27.07771,-29.61132,1487.1587],[27.08587,-29.61442,1436.6016],[27.09042,-29.61163,1443.0471],[27.12277,-29.58176,1457.6637],[27.12814,-29.57856,1452.4142],[27.15636,-29.56863,1455.1198],[27.18571,-29.56595,1441.7778],[27.19584,-29.56264,1458.1387],[27.21372,-29.55406,1445.6479],[27.24183,-29.549,1459.0859],[27.26312,-29.54114,1475.1525],[27.29568,-29.5244,1487.9351],[27.30031,-29.52012,1466.4913],[27.3025,-29.51809,1452.1063],[27.30911,-29.50921,1481.1582],[27.31407,-29.49866,1497.7913],[27.31604,-29.48719,1472.1919],[27.32141,-29.48357,1490.2643],[27.34487,-29.4845,1486.4037],[27.35025,-29.48027,1507.5071],[27.35448,-29.46228,1521.8137],[27.36554,-29.44668,1501.0375],[27.40709,-29.40689,1490.2126],[27.41371,-29.40255,1495.1282],[27.41763,-29.39655,1493.2269],[27.41908,-29.38384,1475.8977],[27.41619,-29.37598,1503.7378],[27.4103,-29.36978,1499.8464],[27.40626,-29.36399,1480.6802],[27.40864,-29.35707,1533.2992],[27.41763,-29.35066,1526.0032],[27.42683,-29.34797,1511.8505],[27.43613,-29.34353,1477.0947],[27.44585,-29.33196,1493.4248],[27.44833,-29.32296,1498.7849],[27.45029,-29.29971,1493.1908],[27.45329,-29.29165,1542.7415],[27.46988,-29.28245,1556.9812],[27.51069,-29.27075,1519.2123],[27.51892,-29.26839,1511.835],[27.52889,-29.26095,1500.5889],[27.52724,-29.24938,1530.8379],[27.52099,-29.22612,1501.2893],[27.5215,-29.21651,1514.3312],[27.52817,-29.20762,1560.2366],[27.53825,-29.20235,1548.8782],[27.54848,-29.19894,1492.4353],[27.55571,-29.19543,1496.748],[27.61297,-29.13383,1500.0071],[27.6356,-29.09662,1593.9053],[27.63448,-29.09104,1546.1074],[27.63075,-29.07254,1558.6705],[27.63752,-29.06572,1546.3527],[27.64439,-29.07254,1561.6772],[27.64935,-29.07089,1550.4569],[27.6586,-29.06675,1526.9164],[27.66496,-29.06572,1523.1185],[27.65628,-29.0558,1512.9119],[27.64377,-29.04453,1512.2173],[27.63917,-29.03533,1520.5127],[27.65504,-29.03151,1547.9207],[27.66749,-29.02665,1552.8799],[27.67974,-29.01508,1512.7805],[27.69906,-28.99058,1549.1338],[27.70289,-28.98934,1572.1467],[27.70764,-28.99068,1529.2991],[27.71167,-28.99099,1520.327],[27.71333,-28.98686,1560.531],[27.71338,-28.97952,1540.9381],[27.71446,-28.97642,1550.77],[27.71669,-28.97322,1553.4312],[27.71901,-28.96784,1523.037],[27.72004,-28.95978,1517.7742],[27.72015,-28.94593,1528.2377],[27.72831,-28.93797,1529.126],[27.74407,-28.93322,1534.6271],[27.75477,-28.92547,1538.157],[27.74743,-28.90862,1578.8743],[27.86133,-28.91544,1537.5015],[27.88799,-28.9049,1570.717],[27.89729,-28.88981,1538.9611],[27.9036,-28.874,1580.123],[27.91166,-28.86077,1583.6906],[27.92623,-28.85343,1565.824],[27.94504,-28.8555,1570.254],[27.95693,-28.86511,1590.9254],[27.96623,-28.87565,1557.0665],[27.9775,-28.88072,1548.4656],[28.00468,-28.88072,1561.5375],[28.01357,-28.87844,1550.6429],[28.01481,-28.87255,1627.9432],[28.0145,-28.8648,1651.511],[28.01873,-28.85684,1650.7976],[28.05656,-28.8125,1577.1594],[28.1009,-28.77085,1573.2997],[28.1041,-28.76506,1573.6597],[28.1317,-28.7293,1640.9691],[28.14503,-28.71473,1591.842],[28.15495,-28.70233,1641.7192],[28.16405,-28.70543,1603.9541],[28.21812,-28.70065,1627.4946],[28.23071,-28.69954,1605.34],[28.25086,-28.70739,1603.548],[28.27391,-28.70956,1612.6233],[28.29706,-28.70688,1601.9645],[28.31722,-28.70006,1617.7917],[28.33644,-28.68466,1670.2192],[28.36352,-28.64363,1943.0493],[28.38295,-28.62647,1738.1212],[28.40341,-28.61892,1801.6848],[28.54263,-28.61076,1880.4207],[28.56247,-28.60652,1864.7922],[28.61942,-28.57242,2154.6646],[28.6343,-28.57076,2089.0923],[28.65322,-28.58306,2038.2351],[28.66655,-28.59722,2196.5327],[28.67564,-28.61376,2384.2454],[28.68174,-28.63339,2591.6394],[28.68898,-28.67442,2818.9629],[28.69952,-28.68848,2900.3633],[28.74386,-28.68951,3031.7556],[28.75864,-28.70047,2880.9148],[28.78768,-28.74874,3056.0586],[28.79595,-28.75432,3058.957],[28.82716,-28.75928,2786.4563],[28.82794,-28.75953,2786.4563],[28.8437,-28.76475,3050.009],[28.85879,-28.77282,3096.4883],[28.85901,-28.77299,3120.5342],[28.86597,-28.76155,3131.6169],[28.8869,-28.71365,2100.6392],[28.89279,-28.69504,2157.5725],[28.89558,-28.68879,2249.7551],[28.89977,-28.68223,2111.4551],[28.92555,-28.66176,2155.2803],[28.92896,-28.65732,2084.991],[28.93144,-28.65169,2061.9617],[28.93222,-28.64275,2025.4929],[28.9316,-28.62156,1887.9678],[28.93423,-28.61443,1871.1875],[28.93935,-28.60756,1894.0105],[28.9595,-28.592,2044.6654],[28.97304,-28.57484,2284.0674],[29.04255,-28.55247,2069.3655],[29.09515,-28.54291,1766.465],[29.10167,-28.54337,1787.6355],[29.12477,-28.54988,1728.7081],[29.13086,-28.55092,1693.2986],[29.13939,-28.55035,1772.9701],[29.15009,-28.54787,1817.9985],[29.16838,-28.54157,1699.0879],[29.17954,-28.53919,1779.4912],[29.1889,-28.53547,1775.9171],[29.19494,-28.53056,1749.3511],[29.19975,-28.51919,1723.9526],[29.20052,-28.51139,1755.986],[29.19944,-28.50544,1808.2219],[29.19572,-28.49831,1806.8268],[29.19432,-28.4949,1825.9669],[29.19324,-28.49051,1795.6414],[29.19401,-28.4855,1756.7632],[29.19866,-28.47578,1749.4783],[29.20905,-28.46307,1830.4946],[29.2306,-28.4426,1769.5869],[29.23478,-28.43956,1822.6985],[29.25235,-28.43325,1792.738],[29.3045,-28.42514,1700.416],[29.3386,-28.38726,1737.6973],[29.34403,-28.38302,1696.0396],[29.351,-28.37868,1681.0811],[29.36392,-28.37315,1683.8281],[29.3895,-28.36545,1700.3101],[29.40733,-28.35693,1686.1263],[29.42227,-28.34344,1748.5071],[29.48836,-28.26825,1688.1189],[29.49441,-28.2636,1705.0369],[29.50603,-28.25833,1719.2623],[29.51875,-28.25543,1701.5225],[29.57683,-28.25249,1782.6331],[29.58892,-28.25016,1749.0341],[29.59001,-28.24964,1742.7834],[29.5914,-28.24887,1732.8104],[29.59621,-28.24272,1740.5707],[29.60241,-28.23285,1733.2822],[29.6145,-28.20898,1757.7203],[29.62287,-28.1958,1737.4633],[29.6361,-28.18231,1796.2222],[29.66385,-28.16469,1835.6975],[29.67037,-28.15254,1676.8411],[29.67533,-28.12097,1510.442],[29.67114,-28.10438,1472.6843],[29.66587,-28.09415,1528.1277],[29.66246,-28.09027,1712.2456],[29.65858,-28.08686,1752.7133],[29.63703,-28.07152,1830.484],[29.63326,-28.06785,1891.1442],[29.63006,-28.06366,1893.7958],[29.62737,-28.05906,1937.5986],[29.62551,-28.05374,1975.377],[29.62411,-28.04806,1989.4552],[29.62566,-28.03772,1918.6587],[29.63006,-28.0248,1863.7195],[29.64184,-27.99989,1737.2443],[29.65471,-27.98134,1749.5359],[29.65905,-27.97809,1574.6909],[29.66261,-27.97442,1584.7474],[29.66571,-27.96884,1626.7419],[29.66695,-27.96119,1881.4199],[29.66463,-27.92439,1970.6838],[29.66587,-27.91747,1946.3915],[29.66804,-27.91049,1930.3772],[29.67362,-27.90207,1911.0222],[29.68494,-27.88791,1919.4479],[29.69243,-27.87406,1845.0562],[29.70809,-27.83375,1632.8774],[29.71274,-27.82616,1727.8748],[29.71693,-27.8212,1744.9905],[29.72003,-27.8167,1757.4226],[29.72189,-27.81096,1898.8545],[29.72049,-27.80233,1916.1831],[29.71848,-27.79717,1976.8805],[29.70623,-27.78704,1954.4393],[29.70266,-27.77619,1960.3026],[29.70266,-27.76218,1967.4312],[29.70731,-27.7228,1968.5179],[29.70716,-27.71593,1981.8281],[29.70607,-27.70988,1993.938],[29.70406,-27.70461,2021.5444],[29.70127,-27.70001,2025.3625],[29.68835,-27.68374,1960.9421],[29.68576,-27.67893,1955.4402],[29.6837,-27.67387,1822.0287],[29.68261,-27.66803,1743.4211],[29.68339,-27.66162,1703.6877],[29.68576,-27.65485,1699.7751],[29.69176,-27.6473,1733.0891],[29.69662,-27.64234,1791.6193],[29.70561,-27.63516,1837.6829],[29.7101,-27.63242,1804.0574],[29.76643,-27.60529,1617.4966],[29.77077,-27.60219,1750.7],[29.77372,-27.59465,1798.5278],[29.77496,-27.58307,1759.4119],[29.77093,-27.55734,1781.0847],[29.76721,-27.54576,1788.1516],[29.76256,-27.53811,1772.3379],[29.75775,-27.53542,1734.8945],[29.72359,-27.52504,1799.1182],[29.71863,-27.52282,1795.9723],[29.71615,-27.5177,1777.4901],[29.71646,-27.51,1772.9005],[29.72065,-27.49651,1689.9709],[29.72142,-27.4885,1749.7168],[29.71941,-27.48287,1732.0334],[29.72344,-27.47331,1686.642],[29.77124,-27.45233,2102.5852],[29.7486,-27.44737,1957.0378],[29.73243,-27.44716,1887.3473],[29.72545,-27.44825,1911.8423],[29.7132,-27.45135,1780.0732],[29.70793,-27.45378,1761.2319],[29.70344,-27.45662,1742.9332],[29.69956,-27.46018,1743.6248],[29.69677,-27.46432,1750.47],[29.69476,-27.46887,1751.563],[29.6946,-27.47398,1762.6322],[29.69553,-27.48432,1794.1949],[29.6946,-27.48938,1814.1346],[29.69135,-27.49253,1705.2937],[29.68649,-27.49393,1694.1697],[29.67409,-27.49341,1689.6787],[29.66773,-27.49408,1689.0015],[29.66215,-27.49563,1688.0825],[29.65796,-27.49775,1687.8081],[29.65579,-27.49915,1689.4115],[29.64882,-27.50519,1688.4941],[29.64432,-27.50783,1700.2354],[29.63905,-27.51,1722.1309],[29.63254,-27.51088,1698.7402],[29.62597,-27.51031,1703.105],[29.61528,-27.50184,1685.4282],[29.54872,-27.42654,1665.8429],[29.54469,-27.42318,1668.0013],[29.54112,-27.41946,1670.5929],[29.53833,-27.41497,1667.0465],[29.53678,-27.41006,1679.1854],[29.53818,-27.40355,1690.0448],[29.54081,-27.39884,1670.6342],[29.54267,-27.39424,1665.1537],[29.54128,-27.38949,1661.4668],[29.53384,-27.38386,1680.6565],[29.52154,-27.37719,1623.9686],[29.51673,-27.37352,1647.6443],[29.48464,-27.34221,1595.0627],[29.48324,-27.33776,1585.5198],[29.48479,-27.33125,1579.5125],[29.48479,-27.32552,1602.4575],[29.48262,-27.32055,1601.3611],[29.47627,-27.31637,1655.6342],[29.47115,-27.31136,1544.0364],[29.46676,-27.30515,1568.3647],[29.46211,-27.28609,1542.9973],[29.45715,-27.27172,1623.7944],[29.44227,-27.25317,1597.0483],[29.40826,-27.23451,1561.0046],[29.40067,-27.23162,1592.6401],[29.38625,-27.23022,1633.4294],[29.37912,-27.23203,1611.2498],[29.3616,-27.23844,1611.4313],[29.35535,-27.23984,1617.4354],[29.34821,-27.24025,1607.2738],[29.34155,-27.23906,1570.0057],[29.33597,-27.23622,1532.1549],[29.3324,-27.2296,1531.3665],[29.33209,-27.22361,1532.7612],[29.33364,-27.21834,1529.5782],[29.33581,-27.21446,1530.6255],[29.33659,-27.21074,1531.0298],[29.33426,-27.20743,1529.1124],[29.32915,-27.20433,1557.4932],[29.3217,-27.20185,1552.7731],[29.29953,-27.19772,1549.7615],[29.29271,-27.19245,1526.5698],[29.28848,-27.188,1534.0028],[29.28228,-27.18346,1538.6069],[29.2722,-27.17901,1556.7578],[29.25282,-27.17338,1537.8868],[29.23856,-27.1649,1531.051],[29.23075,-27.15876,1519.6512],[29.22331,-27.14909,1519.4821],[29.21928,-27.14568,1518.571],[29.21122,-27.14268,1519.1788],[29.1999,-27.14046,1517.4858],[29.17768,-27.13814,1530.9434],[29.15536,-27.1386,1517.1473],[29.1428,-27.1416,1515.2633],[29.13799,-27.14423,1522.1626],[29.13004,-27.15116,1518.942],[29.12559,-27.15395,1556.0381],[29.11965,-27.15421,1539.9207],[29.11267,-27.15131,1512.7373],[29.10477,-27.14279,1510.3915],[29.10074,-27.13721,1511.5055],[29.09159,-27.12031,1510.4492],[29.08322,-27.09959,1508.5],[29.07826,-27.09013,1508.7209],[29.07516,-27.08599,1517.4933],[29.07154,-27.08227,1532.6614],[29.06317,-27.07592,1507.2761],[29.06038,-27.07173,1506.7406],[29.05929,-27.06646,1506.6841],[29.06007,-27.05525,1506.0852],[29.05945,-27.0523,1506.0182],[29.05619,-27.04403,1505.7012],[29.05743,-27.03034,1505.8491],[29.05278,-27.02662,1505.8586],[29.04446,-27.02641,1514.417],[29.03511,-27.02352,1505.0347],[28.99041,-26.99623,1506.2356],[28.97072,-26.99422,1502.7217],[28.95857,-26.99499,1513.5146],[28.94943,-26.99995,1524.1196],[28.93945,-27.00864,1522.0369],[28.93057,-27.01143,1502.6952],[28.92183,-27.01282,1501.9233],[28.91222,-27.01732,1501.6182],[28.90483,-27.02445,1521.2068],[28.89294,-27.03923,1512.34],[28.88426,-27.04403,1512.9526],[28.87393,-27.04424,1498.5447],[28.86799,-27.03928,1502.4514],[28.86246,-27.03334,1501.3069],[28.85357,-27.03034,1503.3246],[28.84416,-27.03287,1502.043],[28.83362,-27.03721,1498.0],[28.82266,-27.03912,1494.3778],[28.81228,-27.03411,1493.0452],[28.80148,-27.02522,1500.4271],[28.79404,-27.02285,1509.2056],[28.78628,-27.02181,1494.3562],[28.7744,-27.01732,1491.0098],[28.69704,-26.97132,1516.9421],[28.65182,-26.95572,1490.2693],[28.62361,-26.96952,1495.9606],[28.62009,-26.97939,1493.444],[28.62268,-26.97949,1502.2816],[28.62934,-26.97778,1502.396],[28.63787,-26.98259,1501.347],[28.65503,-26.99685,1489.8206],[28.65771,-27.00584,1491.234],[28.64128,-27.00988,1501.7941],[28.62009,-27.00972,1491.0972],[28.60604,-27.01127,1497.137],[28.59317,-27.01716,1533.4003],[28.54702,-27.05411,1501.7837],[28.53483,-27.0583,1484.281],[28.54211,-27.03489,1483.2952],[28.54986,-27.02212,1524.7817],[28.54671,-27.01391,1508.7726],[28.51917,-27.00321,1513.335],[28.51436,-26.99251,1489.2827],[28.50253,-26.98264,1483.0],[28.49245,-26.96962,1493.1274],[28.48718,-26.96605,1488.5289],[28.48036,-26.96357,1491.8691],[28.46765,-26.96404,1503.8707],[28.46036,-26.96611,1494.5601],[28.45473,-26.96946,1485.7463],[28.44434,-26.98078,1483.0],[28.43969,-26.98383,1483.2831],[28.4338,-26.98445,1492.8865],[28.42636,-26.98264,1483.4874],[28.41737,-26.97474,1483.0],[28.41225,-26.96884,1483.0],[28.40884,-26.96311,1483.0],[28.40651,-26.95804,1483.0],[28.40202,-26.94104,1483.0],[28.39582,-26.93634,1483.676],[28.38584,-26.93293,1483.0],[28.36305,-26.93153,1483.0],[28.34083,-26.93293,1483.0],[28.32332,-26.93035,1488.7949],[28.28874,-26.9135,1486.6943],[28.27102,-26.90342,1498.7908],[28.26745,-26.89965,1503.1396],[28.26265,-26.89521,1488.8416],[28.25583,-26.8936,1483.0],[28.24466,-26.89407,1484.0242],[28.22616,-26.90058,1483.0],[28.19919,-26.90404,1483.0],[28.18648,-26.89552,1483.0],[28.18291,-26.89236,1483.0],[28.17826,-26.88627,1483.0],[28.17557,-26.88172,1483.0],[28.16984,-26.86074,1492.3365],[28.15821,-26.86043,1483.0],[28.13713,-26.87681,1488.7278]]]}
,"properties": {"ISO3166-1-Alpha-3": "ZAF","country": "South Africa","fill": "#0F0","name": "Orange Free State","area_km2": 129898.36,"hist_schema_id": "Elevation0-9000","hist_area_km2": {"1075": 6.43,"1100": 95.65,"1125": 512.45,"1150": 1352.84,"1175": 1912.65,"1200": 2617.59,"1225": 3920.25,"1250": 5507.06,"1275": 7883.47,"1300": 8332.22,"1325": 7435.84,"1350": 7201.69,"1375": 6615.4,"1400": 6382.45,"1425": 6667.26,"1450": 6608.19,"1475": 6603.39,"1500": 5859.91,"1525": 5320.12,"1550": 5047.34,"1575": 4719.16,"1600": 4442.97,"1625": 3947.78,"1650": 3669.25,"1675": 3450.49,"1700": 3118.41,"1725": 2329.12,"1750": 1701.56,"1775": 1354.84,"1800": 1104.03,"1825": 830.77,"1850": 593.34,"1875": 469.14,"1900": 392.04,"1925": 344.28,"1950": 306.41,"1975": 268.99,"2000": 234.97,"2025": 186.89,"2050": 112.11,"2075": 71.48,"2100": 46.21,"2125": 38.07,"2150": 33.98,"2175": 28.15,"2200": 24.57,"2225": 19.68,"2250": 19.21,"2275": 17.42,"2300": 12.89,"2325": 11.27,"2350": 8.84,"2375": 7.28,"2400": 5.55,"2425": 5.27,"2450": 4.91,"2475": 4.06,"2500": 3.87,"2525": 3.94,"2550": 3.48,"2575": 2.72,"2600": 2.36,"2625": 1.95,"2650": 1.84,"2675": 1.79,"2700": 1.54,"2725": 1.34,"2750": 1.41,"2775": 1.25,"2800": 1.17,"2825": 2.01,"2850": 2.36,"2875": 3.68,"2900": 5.45,"2925": 7.23,"2950": 5.32,"2975": 4.63,"3000": 4.82,"3025": 4.05,"3050": 3.4,"3075": 3.05,"3100": 1.93,"3125": 1.77,"3150": 1.17}}}