{"type":"Feature","properties":{"GID_3":"ZAF.4.9.2_1","GID_0":"ZAF","country":"SouthAfrica","GID_1":"ZAF.4_1","province":"KwaZulu-Natal","NL_NAME_1":"NA","GID_2":"ZAF.4.9_1","county":"Uthukela","NL_NAME_2":"NA","city":"Imbabazane","VARNAME_3":"NA","NL_NAME_3":"NA","TYPE_3":"LocalMunicipality","ENGTYPE_3":"LocalMunicipality","CC_3":"KZN236","HASC_3":"NA","name":"Imbabazane.city"},
"geometry":{"type": "MultiPolygon","coordinates": [[[[29.7648,-29.2177,1533.8671],[29.7306,-29.227,1633.8345],[29.7557,-29.2069,1599.8441],[29.7459,-29.1842,1529.2498],[29.7755,-29.1696,1572.7059],[29.7709,-29.1568,1388.7557],[29.7625,-29.154,1387.4053],[29.7622,-29.1409,1363.95],[29.7736,-29.1372,1370.056],[29.7777,-29.1305,1356.5859],[29.772,-29.125,1343.7465],[29.8073,-29.1097,1354.0267],[29.8143,-29.0962,1240.2655],[29.8117,-29.0915,1210.3484],[29.8232,-29.0871,1210.2576],[29.81,-29.0854,1381.0707],[29.7928,-29.0693,1340.4772],[29.7798,-29.078,1362.6761],[29.7742,-29.0618,1264.4678],[29.77,-29.0545,1265.8354],[29.7738,-29.0458,1236.2178],[29.7694,-29.0465,1298.4933],[29.7673,-29.0427,1287.2004],[29.7674,-29.0394,1278.4149],[29.7635,-29.0342,1288.7085],[29.7614,-29.0256,1465.3612],[29.7769,-29.0198,1252.6761],[29.7971,-28.991,1186.6211],[29.7942,-28.9867,1176.5896],[29.7984,-28.9892,1177.6443],[29.8054,-28.9883,1197.3713],[29.8018,-28.985,1179.8499],[29.8124,-28.9715,1170.0858],[29.8014,-28.9571,1131.1808],[29.8004,-28.9509,1119.6514],[29.8183,-28.9424,1118.1936],[29.7826,-28.9189,1091.0757],[29.778199999999998,-28.9038,1058.9331],[29.7723,-28.9084,1077.8162],[29.7444,-28.8829,1119.7673],[29.7376,-28.8809,1120.5911],[29.7415,-28.8799,1124.0055],[29.7291,-28.8619,1099.3954],[29.728,-28.858,1080.1401],[29.7092,-28.8354,1093.6729],[29.7047,-28.8414,1082.1843],[29.7181,-28.8575,1106.843],[29.7299,-28.8827,1148.5376],[29.7073,-28.8887,1164.2631],[29.6772,-28.8664,1060.8235],[29.6319,-28.8687,1112.2278],[29.6133,-28.8902,1224.8032],[29.6068,-28.9114,1195.4988],[29.5781,-28.909,1092.4907],[29.5811,-28.9411,1090.901],[29.5406,-28.9375,1105.3085],[29.5312,-28.9751,1452.9514],[29.5193,-28.9639,1435.2177],[29.5162,-28.9984,1361.8097],[29.5204,-28.9988,1291.7823],[29.5015,-29.0418,1449.2286],[29.4695,-29.0626,1382.3999],[29.4747,-29.0746,1363.9067],[29.4655,-29.0784,1364.8057],[29.4745,-29.0912,1510.1471],[29.4493,-29.108,1712.3201],[29.4245,-29.113,1623.9148],[29.4329,-29.1255,1679.4712],[29.4352,-29.1324,1553.9124],[29.4266,-29.1368,1684.2988],[29.42,-29.1492,1747.2738],[29.369,-29.1326,2499.9507],[29.3605,-29.133,2711.835],[29.354,-29.1371,2987.9395],[29.3515,-29.1414,3032.426],[29.3531,-29.1476,3030.4683],[29.3487,-29.1485,3060.02],[29.3439,-29.1535,3070.0339],[29.3487,-29.1627,2997.8262],[29.3467,-29.165,3180.21],[29.3472,-29.1738,3202.9692],[29.344,-29.1777,3262.0903],[29.3444,-29.1869,3363.8748],[29.3548,-29.1949,3395.6489],[29.357,-29.202,3441.2808],[29.3628,-29.2051,3384.8652],[29.367,-29.2054,3352.1519],[29.3811,-29.2014,3333.9014],[29.4009,-29.2081,3110.0574],[29.4077,-29.2118,3163.2007],[29.41,-29.2146,3107.8584],[29.4136,-29.2212,3077.561],[29.4089,-29.2219,3161.457],[29.4069,-29.2288,3303.3154],[29.4153,-29.2318,3241.0554],[29.4182,-29.2369,3158.8525],[29.4217,-29.2384,3055.8918],[29.4261,-29.2498,3062.3706],[29.4228,-29.2525,3044.8826],[29.4187,-29.2521,3092.9224],[29.4185,-29.2581,3235.4822],[29.4209,-29.2601,3238.4592],[29.4343,-29.2628,3040.2246],[29.4401,-29.2698,2976.9509],[29.4396,-29.2798,2850.7534],[29.4352,-29.2797,2945.5815],[29.4365,-29.286,3070.585],[29.4397,-29.289,3106.2117],[29.4402,-29.2941,3026.1338],[29.4432,-29.2987,3098.2534],[29.4427,-29.3011,3104.251],[29.4393,-29.3037,3166.7324],[29.4398,-29.3078,3228.2129],[29.4383,-29.3093,3194.3672],[29.4425,-29.3119,3154.627],[29.4416,-29.3145,3108.436],[29.4471,-29.3163,3104.1641],[29.4486,-29.3208,3032.3137],[29.4517,-29.321,2981.3149],[29.4523,-29.3293,3115.8606],[29.4557,-29.3363,3059.9583],[29.4555,-29.3412,3224.6655],[29.4593,-29.3437,3257.5051],[29.4618,-29.3483,3107.3052],[29.4672,-29.3486,3181.3601],[29.4717,-29.3447,3175.9146],[29.4812,-29.3467,3261.5342],[29.5068,-29.3398,2412.1968],[29.5152,-29.3261,2191.2014],[29.5221,-29.3301,2282.3806],[29.5401,-29.3513,2290.4194],[29.5591,-29.3375,2203.9404],[29.5786,-29.3355,2053.9321],[29.5786,-29.2991,1758.9824],[29.5698,-29.2904,1829.2758],[29.6097,-29.2486,1656.101],[29.6303,-29.2688,1912.2307],[29.6552,-29.256,1894.3383],[29.6661,-29.2549,1643.5662],[29.6681,-29.2573,1595.3744],[29.6511,-29.2628,1782.274],[29.6459,-29.2706,1775.8484],[29.6387,-29.2726,1771.4426],[29.6361,-29.2789,1750.0568],[29.628,-29.2854,1693.0065],[29.631,-29.2856,1642.792],[29.6318,-29.2915,1787.8049],[29.6442,-29.2934,1852.7057],[29.6521,-29.2971,1869.3542],[29.6722,-29.2981,1914.2953],[29.6789,-29.2959,1857.9126],[29.6867,-29.2985,1903.5332],[29.6844,-29.3008,1876.4187],[29.6857,-29.3025,1847.3999],[29.6922,-29.3013,1790.0591],[29.7037,-29.2951,1687.7267],[29.7538,-29.2833,1629.1716],[29.7535,-29.2421,1598.5625],[29.768,-29.2207,1532.6543],[29.7648,-29.2177,1533.8671]]]]}}