{"type":"Feature","properties":{"GID_3":"ZAF.8.1.3_1","GID_0":"ZAF","country":"SouthAfrica","GID_1":"ZAF.8_1","province":"NorthernCape","NL_NAME_1":"NA","GID_2":"ZAF.8.1_1","county":"FrancesBaard","NL_NAME_2":"NA","city":"Phokwane","VARNAME_3":"NA","NL_NAME_3":"NA","TYPE_3":"LocalMunicipality","ENGTYPE_3":"LocalMunicipality","CC_3":"NC094","HASC_3":"NA","name":"Phokwane.city"},
"geometry":{"type": "MultiPolygon","coordinates": [[[[24.6162,-27.9039,1050.7538],[24.6168,-27.9071,1055.293],[24.6645,-27.9163,1079.4948],[24.698,-27.9199,1089.5537],[24.6983,-27.9135,1080.1459],[24.7065,-27.9136,1079.1077],[24.7051,-27.9209,1089.9211],[24.7166,-27.9231,1092.132],[24.7191,-27.9231,1090.7031],[24.7204,-27.9194,1090.7073],[24.7287,-27.9158,1090.9189],[24.7323,-27.9191,1097.5165],[24.7374,-27.9377,1106.4277],[24.7636,-27.952,1120.0057],[24.7433,-27.9669,1126.7579],[24.7656,-27.9898,1159.1229],[24.7691,-27.9879,1144.7333],[24.7709,-27.9902,1149.6492],[24.7697,-27.9909,1149.167],[24.7752,-27.9941,1150.5189],[24.7773,-27.9929,1149.8169],[24.7774,-27.9901,1147.6182],[24.7848,-27.9916,1157.8291],[24.7904,-27.9848,1160.562],[24.7954,-27.9834,1160.1379],[24.8053,-27.9946,1180.0399],[24.8073,-27.994,1180.6355],[24.816,-27.9849,1181.9452],[24.8209,-27.9831,1178.485],[24.82,-27.9762,1175.5166],[24.8299,-27.9735,1173.4736],[24.8308,-27.9853,1188.5952],[24.8543,-27.9813,1196.5536],[24.8492,-27.9948,1210.8956],[24.862,-27.98,1215.3302],[24.8298,-27.9313,1151.8973],[24.8456,-27.9237,1159.8018],[24.8517,-27.9261,1160.7581],[24.8574,-27.9253,1165.3977],[24.8577,-27.9202,1166.59],[24.8598,-27.9213,1167.4386],[24.857,-27.9189,1167.751],[24.8571,-27.9161,1164.2725],[24.8615,-27.9083,1164.5858],[24.8469,-27.9112,1156.876],[25.0479,-27.6997,1262.4651],[25.0348,-27.6931,1266.3204],[24.9997,-27.6808,1285.129],[24.9732,-27.6826,1295.6744],[24.8857,-27.6945,1267.4513],[24.8545,-27.6956,1277.2902],[24.8012,-27.7018,1168.2332],[24.7966,-27.6982,1152.1229],[24.797,-27.693,1154.0327],[24.792,-27.6869,1156.2969],[24.7949,-27.682,1156.896],[24.7938,-27.6767,1157.5474],[24.7953,-27.6734,1155.7271],[24.7952,-27.6633,1151.2975],[24.7977,-27.6562,1149.2422],[24.7938,-27.646,1149.9393],[24.7866,-27.6432,1150.6565],[24.7822,-27.633,1148.8281],[24.7807,-27.6184,1148.7374],[24.7825,-27.6109,1147.7594],[24.7843,-27.6093,1145.2452],[24.7843,-27.6046,1144.7451],[24.7568,-27.6096,1110.1084],[24.7621,-27.6332,1118.1812],[24.6923,-27.6452,1073.0134],[24.6918,-27.6541,1070.8467],[24.6782,-27.6669,1070.2557],[24.6787,-27.6691,1070.1927],[24.6845,-27.6741,1069.9497],[24.686,-27.6784,1069.77],[24.6834,-27.6804,1071.8313],[24.6755,-27.6807,1069.1824],[24.6727,-27.6852,1068.3091],[24.6752,-27.6934,1069.1582],[24.6812,-27.7034,1067.3108],[24.6955,-27.7183,1067.6301],[24.6937,-27.7356,1073.4746],[24.6805,-27.7393,1079.936],[24.6704,-27.7616,1092.502],[24.6757,-27.7699,1085.9772],[24.6731,-27.7828,1086.5911],[24.6692,-27.7863,1089.2163],[24.6618,-27.7848,1100.7992],[24.6587,-27.7909,1136.1326],[24.6993,-27.8283,1056.9573],[24.6908,-27.8327,1056.6816],[24.6881,-27.8365,1056.6669],[24.6884,-27.8391,1056.9237],[24.695,-27.8427,1056.35],[24.6967,-27.8479,1055.8602],[24.6912,-27.8504,1055.1901],[24.6904,-27.8525,1055.0895],[24.6889,-27.8504,1054.9147],[24.6813,-27.8491,1055.4058],[24.6784,-27.8505,1054.1941],[24.6715,-27.8499,1053.7865],[24.6651,-27.8531,1055.3634],[24.6583,-27.8527,1053.4473],[24.6564,-27.8554,1053.4969],[24.6563,-27.8634,1052.8651],[24.652,-27.8698,1052.619],[24.6519,-27.8769,1052.6187],[24.6453,-27.8874,1052.5973],[24.6325,-27.8914,1051.8647],[24.6322,-27.8991,1052.3467],[24.6301,-27.9029,1051.0262],[24.6201,-27.905,1051.4695],[24.6162,-27.9039,1050.7538]]]]}}