{"type":"Feature","properties":{"GID_3":"ZAF.1.4.5_1","GID_0":"ZAF","country":"SouthAfrica","GID_1":"ZAF.1_1","province":"EasternCape","NL_NAME_1":"NA","GID_2":"ZAF.1.4_1","county":"Cacadu","NL_NAME_2":"NA","city":"Kou-Kamma","VARNAME_3":"NA","NL_NAME_3":"NA","TYPE_3":"LocalMunicipality","ENGTYPE_3":"LocalMunicipality","CC_3":"EC109","HASC_3":"NA","name":"Kou-Kamma.city"},
"geometry":{"type": "MultiPolygon","coordinates": [[[[24.1926,-34.0604,2.5043],[24.1951,-34.0599,6.0614],[24.2087,-34.0696,0.0],[24.2243,-34.0732,0.0],[24.2313,-34.0765,2.8775],[24.2321,-34.0785,0.0],[24.2443,-34.0793,4.3618],[24.2465,-34.0821,0.0],[24.2538,-34.0843,0.0],[24.2604,-34.0843,11.2705],[24.2676,-34.0876,1.2344],[24.2729,-34.0874,1.245],[24.2754,-34.0904,0.0],[24.2926,-34.0932,0.0],[24.2965,-34.0949,0.0],[24.2993,-34.0985,0.0],[24.3113,-34.1021,0.0],[24.3274,-34.1035,0.0],[24.3382,-34.1021,15.7201],[24.3451,-34.104,0.0],[24.3526,-34.1029,48.4343],[24.3587,-34.1046,0.0],[24.3813,-34.1037,6.5322],[24.3824,-34.1057,0.0],[24.3865,-34.1063,1.4408],[24.3879,-34.1085,0.0],[24.4004,-34.1154,6.001],[24.3999,-34.1171,0.3157],[24.4018,-34.1185,0.0],[24.4104,-34.1193,9.1495],[24.4274,-34.1276,4.3014],[24.4374,-34.1346,0.0],[24.4411,-34.1381,24.5215],[24.4399,-34.1399,1.1142],[24.445,-34.1436,3.9708],[24.4578,-34.1084,44.6012],[24.454,-34.1063,27.0146],[24.4618,-34.0978,109.6399],[24.5149,-34.1108,108.2938],[24.5237,-34.0857,159.3952],[24.4932,-34.0427,453.5275],[24.5239,-34.0404,205.7771],[24.5706,-34.0632,182.0861],[24.5811,-34.0783,206.7668],[24.6078,-34.0611,153.7979],[24.6037,-34.0548,135.0308],[24.622,-34.0498,118.5686],[24.6047,-34.047,92.0984],[24.6204,-34.0138,181.6579],[24.5347,-33.984,243.4013],[24.5427,-33.9661,208.7477],[24.4946,-33.951,189.9126],[24.4967,-33.9448,215.8871],[24.4942,-33.9319,357.321],[24.5177,-33.8876,601.8867],[24.5491,-33.8997,496.537],[24.5512,-33.897,497.4181],[24.5649,-33.9021,482.1741],[24.5727,-33.8875,626.7441],[24.5773,-33.8985,541.8123],[24.5935,-33.8618,356.4915],[24.6325,-33.8744,416.2175],[24.6619,-33.8073,522.9277],[24.625,-33.7986,530.8096],[24.5779,-33.7912,598.7956],[24.5438,-33.7738,516.7911],[24.5106,-33.7861,715.1511],[24.4995,-33.7784,681.1246],[24.4734,-33.7652,667.4747],[24.4229,-33.7587,916.2866],[24.3844,-33.7428,703.7589],[24.3552,-33.7335,450.1995],[24.3706,-33.704,599.2156],[24.3228,-33.7203,743.1797],[24.291,-33.7119,881.389],[24.2629,-33.7443,734.7494],[24.2413,-33.7429,964.0956],[24.1877,-33.7648,704.0045],[24.0572,-33.7259,1285.4656],[24.0607,-33.6984,1377.0869],[24.0069,-33.6872,1332.9045],[23.988,-33.6785,1305.3384],[23.962,-33.6705,1215.4763],[23.8878,-33.6605,795.7885],[23.8428,-33.6505,1528.4385],[23.8226,-33.6433,1318.6611],[23.8047,-33.6346,1584.302],[23.7856,-33.6225,1241.7596],[23.7749,-33.6125,1530.0208],[23.7671,-33.6092,1537.7987],[23.7605,-33.6093,1527.6232],[23.7496,-33.614,1353.9121],[23.7223,-33.6175,1100.0171],[23.7116,-33.6142,1065.3591],[23.6976,-33.6071,1247.4426],[23.6469,-33.5783,1310.9025],[23.6169,-33.5702,1267.3081],[23.6199,-33.5915,1605.3247],[23.675,-33.6259,1639.1666],[23.6704,-33.6726,1423.2118],[23.6288,-33.6693,1379.7428],[23.5859,-33.6727,808.3015],[23.5565,-33.6515,1490.1682],[23.5555,-33.673,866.9359],[23.5417,-33.683,917.9988],[23.5413,-33.6995,934.3683],[23.4754,-33.7177,825.5453],[23.4399,-33.7174,674.1986],[23.4301,-33.7618,918.2767],[23.395,-33.7926,1531.998],[23.417,-33.7947,1483.1555],[23.4277,-33.7991,1433.801],[23.4542,-33.8032,1441.7334],[23.4681,-33.8075,1305.2169],[23.4891,-33.8075,1397.4746],[23.488,-33.7915,1146.9363],[23.5179,-33.7856,990.0314],[23.5188,-33.7821,891.1888],[23.5574,-33.7934,882.9922],[23.554,-33.7964,953.5518],[23.562,-33.8289,1192.7241],[23.6081,-33.8329,1245.543],[23.6203,-33.8432,1361.8075],[23.7033,-33.8641,1559.9653],[23.7006,-33.8674,1336.0996],[23.6943,-33.868,963.8948],[23.6881,-33.8789,593.9024],[23.683,-33.884,485.6746],[23.671,-33.8835,446.726],[23.6692,-33.8854,459.0551],[23.6666,-33.8847,420.1198],[23.658,-33.8877,393.7539],[23.6559,-33.8868,395.5769],[23.6516,-33.8927,371.5045],[23.6474,-33.8928,390.3791],[23.6488,-33.8945,394.456],[23.6476,-33.8967,365.1198],[23.6497,-33.8989,335.5349],[23.6569,-33.9022,317.4205],[23.655,-33.9037,290.7705],[23.6577,-33.9049,283.0818],[23.6568,-33.9069,285.8661],[23.6523,-33.9096,326.3776],[23.6399,-33.9097,275.2938],[23.6374,-33.913,261.991],[23.6428,-33.9198,276.7454],[23.6432,-33.9223,258.4451],[23.64,-33.9242,262.2729],[23.6439,-33.9275,198.4251],[23.6447,-33.9307,209.6139],[23.6432,-33.9319,164.1065],[23.6399,-33.931,218.707],[23.6406,-33.9332,253.899],[23.637,-33.9347,116.6763],[23.6385,-33.9372,128.582],[23.6351,-33.94,120.3266],[23.636,-33.9433,123.0615],[23.6346,-33.952,89.6564],[23.6377,-33.9552,74.1066],[23.6409,-33.9548,72.6825],[23.6459,-33.9624,39.9032],[23.6444,-33.9638,88.8365],[23.6474,-33.9727,49.2274],[23.6454,-33.9758,46.8546],[23.6475,-33.9772,26.694],[23.6469,-33.981,3.945],[23.666,-33.9826,33.2161],[23.6754,-33.986,2.2199],[23.6904,-33.9865,0.0],[23.6993,-33.9896,0.0],[23.7026,-33.989,61.8733],[23.7054,-33.9921,0.0],[23.7204,-33.9926,31.4977],[23.7301,-33.996,7.6431],[23.7357,-33.9951,0.8263],[23.7371,-33.9974,33.8947],[23.7415,-33.9985,0.0],[23.7574,-33.9999,3.5932],[23.7621,-34.0043,5.4022],[23.7654,-34.0046,0.0],[23.7671,-34.0029,10.2602],[23.7707,-34.0065,0.0],[23.7768,-34.0082,0.0],[23.7857,-34.0068,1.7738],[23.7976,-34.0115,0.0],[23.8043,-34.009,10.1695],[23.8118,-34.0121,0.0],[23.8218,-34.0126,25.1163],[23.8246,-34.0163,0.0],[23.8404,-34.0168,3.5573],[23.8479,-34.0199,0.0],[23.8621,-34.0215,0.0],[23.8785,-34.0207,22.939],[23.8913,-34.0249,0.0],[23.8974,-34.0237,3.306],[23.9024,-34.0207,10.1369],[23.9121,-34.0237,7.208],[23.9488,-34.0282,0.0],[23.9646,-34.0329,2.4523],[23.9668,-34.0321,6.7162],[23.9762,-34.0346,0.0],[23.9837,-34.0346,0.0],[23.9943,-34.0379,15.6815],[24.0093,-34.0379,6.1818],[24.0171,-34.0401,0.0],[24.0268,-34.039,13.6622],[24.071,-34.0474,3.673],[24.0785,-34.0446,0.0],[24.081,-34.0485,0.0],[24.0976,-34.0488,10.031],[24.1063,-34.0521,0.0],[24.1132,-34.0521,1.2316],[24.1201,-34.056,5.4637],[24.1285,-34.0537,0.5237],[24.1296,-34.051,26.0217],[24.134,-34.0537,0.0],[24.1493,-34.0532,0.0],[24.1607,-34.0565,0.0],[24.1926,-34.0604,2.5043]]]]}}