{"type": "Feature","bbox": [26.8181,-29.5754,29.7851,-27.004],"geometry": {"type": "MultiPolygon","coordinates": [[[[27.3057,-29.5336,1458.1194],[27.3065,-29.5307,1454.9478],[27.3042,-29.5211,1452.1412],[27.3014,-29.5175,1455.8359],[27.3002,-29.5124,1453.311],[27.3051,-29.5062,1458.3485],[27.3043,-29.5003,1454.4192],[27.306,-29.4972,1457.9423],[27.3294,-29.4807,1459.7583],[27.3335,-29.4807,1466.7212],[27.3401,-29.486,1456.7216],[27.3473,-29.488,1468.0369],[27.361,-29.4858,1467.337],[27.3636,-29.4786,1459.0099],[27.3567,-29.4666,1459.9032],[27.358,-29.4607,1462.0391],[27.3566,-29.4527,1468.1298],[27.3622,-29.45,1464.3859],[27.3705,-29.4487,1462.8015],[27.3749,-29.4431,1477.5715],[27.3801,-29.4408,1465.7867],[27.3824,-29.4325,1470.6014],[27.3895,-29.4272,1471.6973],[27.3922,-29.4229,1467.0344],[27.3918,-29.4162,1466.1458],[27.3958,-29.4112,1469.1475],[27.404,-29.414,1469.7567],[27.4123,-29.4112,1470.8428],[27.4182,-29.411,1474.9811],[27.4244,-29.4045,1476.2343],[27.4217,-29.3971,1472.4507],[27.4216,-29.3876,1472.1716],[27.4097,-29.3783,1500.7913],[27.4056,-29.3716,1474.9585],[27.4055,-29.3664,1475.4418],[27.4069,-29.3641,1480.6802],[27.4103,-29.3639,1476.7465],[27.4264,-29.3737,1476.7227],[27.4323,-29.373,1481.2708],[27.4353,-29.3702,1478.1686],[27.4377,-29.3642,1482.4227],[27.4338,-29.3522,1477.6023],[27.4363,-29.3342,1487.7443],[27.4445,-29.3287,1477.5695],[27.4609,-29.3266,1483.345],[27.4723,-29.3203,1497.2184],[27.472,-29.3181,1488.1046],[27.4647,-29.3135,1483.103],[27.4636,-29.3076,1481.879],[27.457,-29.3054,1482.1389],[27.4546,-29.2977,1496.845],[27.4656,-29.2941,1493.7152],[27.4717,-29.2953,1486.3331],[27.4807,-29.2936,1488.4187],[27.4844,-29.2965,1490.5745],[27.4846,-29.3018,1485.1128],[27.4893,-29.302,1485.5686],[27.4918,-29.3004,1487.3201],[27.4902,-29.2941,1494.3527],[27.4941,-29.2897,1485.4697],[27.4949,-29.284,1489.2059],[27.5145,-29.2819,1485.8293],[27.5202,-29.2762,1484.9506],[27.525,-29.2661,1494.7429],[27.5409,-29.2599,1486.5052],[27.5462,-29.2525,1490.4371],[27.5476,-29.2464,1489.1161],[27.542,-29.2414,1486.7437],[27.5338,-29.2402,1489.2467],[27.5304,-29.237,1490.5312],[27.5247,-29.241,1491.5593],[27.5216,-29.2403,1491.9414],[27.5205,-29.2385,1488.3972],[27.5243,-29.2346,1492.5024],[27.5247,-29.2317,1492.0659],[27.52,-29.2269,1492.5186],[27.5147,-29.2255,1499.9689],[27.5149,-29.2244,1494.3501],[27.5254,-29.217,1497.9657],[27.5296,-29.2194,1492.6136],[27.535,-29.2175,1492.3528],[27.5406,-29.2059,1494.0977],[27.5456,-29.2038,1494.6077],[27.5514,-29.1962,1509.7086],[27.5559,-29.1939,1493.8789],[27.5651,-29.1925,1490.354],[27.5671,-29.1876,1495.3931],[27.5748,-29.1848,1506.3994],[27.5767,-29.1823,1496.0988],[27.5782,-29.1717,1500.8141],[27.5806,-29.1663,1494.2451],[27.5906,-29.1661,1498.5122],[27.5929,-29.1695,1494.5458],[27.5963,-29.1712,1494.4688],[27.6002,-29.1685,1495.7026],[27.6063,-29.1677,1495.6014],[27.6142,-29.1642,1504.0424],[27.6171,-29.1575,1498.0662],[27.6169,-29.1523,1503.9338],[27.6026,-29.1401,1498.9792],[27.6014,-29.1371,1500.6577],[27.6109,-29.1335,1499.7286],[27.6183,-29.1353,1499.6602],[27.6331,-29.1315,1517.9144],[27.6358,-29.1234,1498.9041],[27.6309,-29.1198,1498.6045],[27.6327,-29.1152,1501.4333],[27.6379,-29.1151,1501.3032],[27.6442,-29.1186,1501.3203],[27.6463,-29.1176,1501.8068],[27.6508,-29.1091,1496.803],[27.65,-29.105,1502.1023],[27.6524,-29.1012,1499.4269],[27.6484,-29.0956,1513.9896],[27.6512,-29.0909,1519.2336],[27.647,-29.0856,1508.728],[27.64,-29.0855,1504.5438],[27.6412,-29.0809,1506.6222],[27.65,-29.0783,1507.6675],[27.6604,-29.0863,1514.585],[27.6659,-29.0778,1507.3776],[27.6726,-29.0793,1505.6],[27.6755,-29.0773,1505.1393],[27.6771,-29.0736,1506.8585],[27.6746,-29.07,1509.1388],[27.6765,-29.0668,1512.0104],[27.6749,-29.0651,1505.8735],[27.6674,-29.0636,1505.0801],[27.6599,-29.0557,1514.698],[27.6548,-29.0614,1508.4034],[27.6521,-29.0614,1514.2255],[27.6526,-29.0563,1505.2747],[27.6446,-29.0562,1509.49],[27.6414,-29.0458,1508.5405],[27.6512,-29.0415,1510.1687],[27.6551,-29.0468,1508.3723],[27.6588,-29.0487,1509.4314],[27.6613,-29.0465,1512.0398],[27.673,-29.044,1510.2576],[27.6756,-29.0389,1510.8571],[27.675,-29.0333,1511.509],[27.6698,-29.0296,1511.4182],[27.6701,-29.0273,1513.2574],[27.6748,-29.026,1518.8003],[27.6812,-29.0284,1511.5339],[27.6815,-29.024,1517.9897],[27.6859,-29.0251,1513.7448],[27.688,-29.0232,1514.7161],[27.6809,-29.0164,1516.3914],[27.6824,-29.0066,1512.3364],[27.6851,-29.0036,1514.9686],[27.6922,-29.0049,1517.2085],[27.7056,-29.0116,1518.6477],[27.711,-29.0118,1524.5784],[27.7136,-29.0101,1516.6785],[27.717,-29.0003,1514.0454],[27.7145,-28.9974,1517.6427],[27.7163,-28.9916,1518.8843],[27.7096,-28.9906,1518.2607],[27.7074,-28.9824,1521.014],[27.7084,-28.9813,1521.014],[27.7168,-28.9824,1516.098],[27.7229,-28.9756,1517.6442],[27.725,-28.9674,1520.9907],[27.7201,-28.963,1516.7332],[27.721,-28.9576,1520.2317],[27.7255,-28.9564,1518.3684],[27.7257,-28.9529,1522.4568],[27.7231,-28.9516,1519.1206],[27.7231,-28.9494,1519.121],[27.7282,-28.9506,1518.03],[27.7296,-28.9466,1522.1417],[27.7351,-28.9445,1525.4572],[27.7393,-28.9377,1539.5654],[27.7426,-28.9422,1523.8606],[27.7459,-28.9419,1522.6597],[27.7428,-28.9375,1519.6644],[27.7435,-28.9357,1534.0824],[27.7473,-28.9386,1519.9338],[27.7482,-28.9417,1523.1907],[27.76,-28.9414,1525.4362],[27.7619,-28.938,1523.6379],[27.7569,-28.9342,1517.4716],[27.7616,-28.9303,1525.3438],[27.7656,-28.9241,1521.0955],[27.7667,-28.917,1528.655],[27.7624,-28.9125,1548.0861],[27.7569,-28.9125,1525.381],[27.7541,-28.9039,1533.1177],[27.7543,-28.8971,1526.7993],[27.7628,-28.8975,1537.4031],[27.7773,-28.9069,1528.5345],[27.7868,-28.9095,1532.5581],[27.7934,-28.9092,1545.2665],[27.7918,-28.9146,1528.5842],[27.7983,-28.9184,1530.8849],[27.8078,-28.917,1537.4026],[27.8163,-28.9211,1538.5316],[27.8268,-28.9127,1531.4138],[27.8315,-28.9127,1528.0605],[27.8294,-28.9087,1531.1562],[27.8299,-28.9035,1532.1555],[27.8398,-28.9153,1537.0107],[27.8483,-28.9092,1535.5803],[27.8476,-28.9039,1534.2928],[27.8515,-28.903,1532.1567],[27.8541,-28.9097,1536.5085],[27.8585,-28.9104,1534.3032],[27.8594,-28.914,1533.337],[27.864,-28.9136,1531.5839],[27.8689,-28.9198,1536.1987],[27.8794,-28.9173,1533.3684],[27.8835,-28.9149,1533.1022],[27.8884,-28.9167,1535.0397],[27.8909,-28.9144,1534.2271],[27.8912,-28.9106,1541.6401],[27.8963,-28.9086,1540.1783],[27.8982,-28.9024,1546.697],[27.8978,-28.8976,1546.2617],[27.9001,-28.8941,1539.5349],[27.8978,-28.8903,1538.9611],[27.893,-28.8909,1536.376],[27.8878,-28.8884,1539.0366],[27.8931,-28.8792,1563.5272],[27.9,-28.8785,1542.0231],[27.9086,-28.8816,1541.4677],[27.92,-28.8775,1545.2869],[27.9201,-28.8719,1547.4863],[27.9158,-28.8662,1541.4612],[27.9187,-28.8603,1540.3838],[27.9211,-28.859,1546.7371],[27.9274,-28.8619,1537.9429],[27.9267,-28.8568,1541.4775],[27.9298,-28.8529,1541.345],[27.9385,-28.8523,1541.2334],[27.9384,-28.8483,1543.4666],[27.9483,-28.8525,1554.621],[27.9554,-28.8582,1550.5049],[27.9618,-28.8596,1545.4391],[27.9625,-28.8656,1545.7467],[27.9658,-28.871,1548.42],[27.9701,-28.8743,1546.3127],[27.984,-28.8769,1547.9962],[27.9906,-28.883,1550.7512],[27.9921,-28.8804,1547.3635],[27.9871,-28.877,1551.099],[27.9935,-28.8761,1548.6262],[27.994,-28.8727,1550.2406],[27.9958,-28.872,1549.0256],[27.9999,-28.8774,1548.0667],[28.0021,-28.8765,1550.7332],[28.0048,-28.8716,1550.8293],[28.0076,-28.8727,1565.8412],[28.0131,-28.8799,1551.897],[28.0184,-28.8757,1555.1914],[28.0247,-28.8741,1555.2424],[28.0289,-28.8791,1550.5836],[28.0303,-28.8766,1551.2207],[28.0286,-28.8735,1548.989],[28.0341,-28.8742,1558.0195],[28.0309,-28.8721,1554.7303],[28.0325,-28.8676,1554.6882],[28.028199999999998,-28.8667,1555.4238],[28.0303,-28.8649,1555.8263],[28.0297,-28.8598,1556.0234],[28.0257,-28.8624,1556.4872],[28.024,-28.8594,1561.6715],[28.0285,-28.8556,1557.2831],[28.0315,-28.856,1557.0405],[28.0361,-28.8499,1556.2798],[28.0405,-28.8506,1556.9346],[28.0413,-28.8463,1561.5983],[28.0447,-28.8455,1560.3226],[28.0478,-28.8417,1565.8162],[28.0515,-28.8441,1560.0624],[28.0545,-28.8414,1573.3101],[28.0543,-28.8348,1573.8921],[28.0501,-28.83,1597.1591],[28.052,-28.8266,1572.0928],[28.0508,-28.8181,1562.0271],[28.0591,-28.8144,1567.6166],[28.0749,-28.815,1572.5707],[28.0754,-28.8111,1566.4808],[28.0784,-28.8103,1562.8254],[28.0773,-28.8073,1562.4011],[28.0806,-28.8062,1564.2616],[28.0868,-28.7998,1567.408],[28.0856,-28.7941,1560.8461],[28.0827,-28.7932,1568.7579],[28.0893,-28.793,1588.4379],[28.0954,-28.7853,1574.98],[28.0946,-28.7834,1566.1741],[28.0978,-28.7819,1570.428],[28.0961,-28.7782,1567.8917],[28.1001,-28.7685,1569.4188],[28.1024,-28.766,1578.8577],[28.1082,-28.765,1580.8053],[28.1138,-28.7577,1600.7887],[28.12,-28.7575,1572.9174],[28.1191,-28.7416,1569.0242],[28.122,-28.7405,1571.722],[28.1251,-28.7451,1572.0294],[28.1282,-28.7468,1574.5463],[28.1309,-28.7458,1576.9731],[28.13,-28.7411,1590.3293],[28.1353,-28.7386,1574.5245],[28.1384,-28.7343,1590.3387],[28.1427,-28.738,1576.8074],[28.1433,-28.7294,1574.3961],[28.1467,-28.7276,1578.6456],[28.1505,-28.7227,1577.8879],[28.1551,-28.7312,1575.2449],[28.1577,-28.7308,1578.7416],[28.1553,-28.7239,1577.719],[28.1572,-28.7234,1583.546],[28.1596,-28.7258,1583.6497],[28.1607,-28.7225,1578.8116],[28.1553,-28.7191,1580.5912],[28.1624,-28.7179,1579.4698],[28.1598,-28.7152,1580.5063],[28.1662,-28.7127,1584.406],[28.1682,-28.7095,1584.3887],[28.167,-28.7055,1583.046],[28.1761,-28.7084,1586.1794],[28.184,-28.7088,1607.8879],[28.1815,-28.7014,1592.2932],[28.1852,-28.6969,1589.7223],[28.1831,-28.6939,1589.0116],[28.1902,-28.6968,1590.0297],[28.1905,-28.7056,1586.7002],[28.1964,-28.7112,1588.0514],[28.2103,-28.7073,1593.0126],[28.2138,-28.7024,1596.5621],[28.2179,-28.702,1594.8469],[28.2207,-28.7043,1597.96],[28.2288,-28.7023,1593.915],[28.2296,-28.6983,1605.34],[28.2335,-28.6951,1598.1884],[28.2414,-28.6967,1604.8151],[28.2433,-28.7026,1604.9094],[28.2478,-28.703,1600.9073],[28.2495,-28.7008,1603.2445],[28.253,-28.7016,1599.8854],[28.2576,-28.7003,1596.8793],[28.2582,-28.7062,1597.918],[28.2605,-28.7092,1595.7216],[28.2661,-28.7083,1599.4083],[28.2683,-28.7061,1600.3942],[28.2732,-28.7112,1601.9812],[28.2812,-28.7149,1603.8982],[28.2859,-28.7132,1603.0886],[28.2871,-28.7103,1601.2859],[28.2903,-28.7114,1605.8257],[28.2919,-28.7078,1605.1692],[28.295,-28.7077,1602.621],[28.2943,-28.7051,1604.3082],[28.2959,-28.7034,1602.7517],[28.2978,-28.7043,1607.6494],[28.2971,-28.7077,1601.9645],[28.299,-28.7072,1601.9645],[28.2992,-28.7048,1601.9832],[28.3018,-28.7062,1603.251],[28.3001,-28.7034,1604.0095],[28.3035,-28.7021,1605.2633],[28.3049,-28.6924,1616.8416],[28.3104,-28.6961,1612.8799],[28.3094,-28.6994,1609.3784],[28.3105,-28.7006,1608.7457],[28.317,-28.701,1617.7917],[28.3203,-28.7037,1609.197],[28.3288,-28.7058,1611.2145],[28.33,-28.7041,1619.0674],[28.3254,-28.7016,1617.5532],[28.3258,-28.7003,1613.1489],[28.3313,-28.6994,1624.1521],[28.3328,-28.6961,1617.7323],[28.3356,-28.6985,1626.8257],[28.3421,-28.6938,1615.4304],[28.344,-28.695,1615.0996],[28.3441,-28.6994,1615.3492],[28.3494,-28.6991,1619.646],[28.3496,-28.7034,1626.4099],[28.3554,-28.6951,1617.5098],[28.3573,-28.6957,1615.5688],[28.3568,-28.6922,1618.2461],[28.3603,-28.6918,1620.1438],[28.3609,-28.69,1625.8412],[28.3595,-28.6885,1618.593],[28.3643,-28.6878,1621.9333],[28.3637,-28.6857,1621.9253],[28.3672,-28.6864,1643.2114],[28.3672,-28.6838,1624.0845],[28.372,-28.6837,1625.0258],[28.3729,-28.6793,1628.1047],[28.3687,-28.675,1629.3093],[28.3706,-28.6737,1629.6603],[28.3703,-28.6704,1630.1431],[28.3659,-28.6654,1639.0391],[28.3722,-28.6658,1625.9686],[28.3757,-28.6606,1636.9197],[28.3852,-28.6566,1635.1833],[28.3871,-28.6529,1635.7167],[28.3889,-28.6537,1638.4011],[28.3873,-28.649,1643.5918],[28.3902,-28.6481,1651.8188],[28.3908,-28.644,1645.0669],[28.394,-28.6442,1658.0605],[28.396,-28.6465,1641.7493],[28.399,-28.6438,1645.0801],[28.4028,-28.6444,1649.8623],[28.4044,-28.6375,1652.0853],[28.4009,-28.6321,1650.5021],[28.403,-28.6276,1667.5525],[28.4009,-28.6251,1659.4316],[28.4019,-28.6243,1652.5569],[28.4095,-28.622,1651.46],[28.4132,-28.6274,1652.4093],[28.417,-28.6262,1679.2932],[28.4195,-28.6277,1657.2061],[28.4246,-28.6243,1684.4373],[28.4261,-28.6255,1655.5558],[28.4301,-28.6201,1676.476],[28.4371,-28.6204,1662.6997],[28.4376,-28.6218,1669.7816],[28.4412,-28.6181,1664.3477],[28.4426,-28.6201,1668.5642],[28.4451,-28.6154,1675.4661],[28.4466,-28.6195,1666.676],[28.4493,-28.6165,1667.2672],[28.4536,-28.6193,1669.8265],[28.4559,-28.6172,1710.0167],[28.4565,-28.6118,1673.2922],[28.4612,-28.6135,1678.999],[28.4592,-28.6108,1681.6151],[28.461,-28.6119,1674.2875],[28.4628,-28.6089,1677.8232],[28.4665,-28.6081,1677.7977],[28.4674,-28.6098,1685.9683],[28.4699,-28.6095,1678.8779],[28.47,-28.6073,1682.3488],[28.4724,-28.6053,1687.641],[28.4763,-28.6058,1693.9066],[28.4784,-28.6093,1683.4714],[28.4817,-28.6075,1684.2642],[28.4861,-28.6125,1690.1975],[28.4879,-28.6113,1693.1027],[28.4896,-28.6061,1717.0286],[28.4947,-28.6079,1694.1938],[28.4963,-28.6059,1701.9669],[28.4995,-28.6093,1697.4513],[28.5026,-28.6078,1701.4008],[28.5014,-28.6131,1702.4739],[28.5071,-28.6181,1817.4224],[28.5082,-28.6175,1756.8796],[28.506,-28.615,1729.0916],[28.5089,-28.6123,1740.5791],[28.5142,-28.6112,1725.8729],[28.5138,-28.6096,1725.8729],[28.5209,-28.6082,1735.1272],[28.5176,-28.607,1744.8586],[28.5181,-28.6027,1762.5648],[28.5212,-28.6035,1760.5853],[28.5241,-28.6012,1797.8638],[28.5284,-28.6059,1786.6995],[28.5285,-28.6098,1759.5974],[28.5303,-28.6103,1761.3789],[28.5325,-28.6096,1787.3989],[28.5318,-28.6072,1764.2859],[28.5361,-28.6079,1785.2959],[28.5403,-28.6025,1801.7306],[28.5429,-28.6068,1793.1292],[28.5464,-28.6071,1792.4491],[28.5485,-28.6096,1823.5872],[28.5518,-28.6056,1866.2117],[28.554,-28.6066,1813.5222],[28.5557,-28.6024,1829.1388],[28.5637,-28.605,1822.7493],[28.5668,-28.6077,1858.173],[28.567,-28.6104,1832.6025],[28.5681,-28.6084,1818.3741],[28.5725,-28.6073,1835.0574],[28.5757,-28.6102,1836.3572],[28.5784,-28.6038,1843.7817],[28.5837,-28.6038,1853.9725],[28.590699999999998,-28.6084,1867.0249],[28.5939,-28.6024,1867.4193],[28.604,-28.6007,1881.8329],[28.604,-28.5983,1878.848],[28.6062,-28.5981,1909.7407],[28.6074,-28.5954,1889.2327],[28.6128,-28.5975,1912.1321],[28.6135,-28.5939,1898.8167],[28.6168,-28.5909,1893.6053],[28.6172,-28.5879,1905.2825],[28.6193,-28.587,1902.5236],[28.6187,-28.5858,1900.2417],[28.622,-28.5806,1958.7513],[28.6287,-28.5808,1935.3813],[28.6324,-28.5826,1926.7993],[28.6326,-28.5789,1938.4977],[28.6351,-28.5788,1935.0933],[28.6366,-28.5756,1937.4116],[28.6388,-28.5778,1936.7395],[28.6395,-28.5754,1937.6277],[28.6447,-28.5753,1942.1194],[28.645,-28.5731,1943.7029],[28.6514,-28.5708,1970.1917],[28.6519,-28.5733,1955.6047],[28.6612,-28.5781,1971.2117],[28.6642,-28.5772,1983.1335],[28.674,-28.5861,2054.4644],[28.6817,-28.5896,2075.2671],[28.6859,-28.5991,2100.7266],[28.6921,-28.604,2142.9089],[28.6939,-28.6075,2178.3145],[28.6969,-28.6082,2217.8354],[28.6982,-28.6124,2244.8936],[28.7036,-28.6181,2320.7007],[28.6977,-28.6262,2498.1309],[28.6981,-28.631,2546.4937],[28.7009,-28.6366,2688.678],[28.6961,-28.6382,2921.0476],[28.6969,-28.6397,2969.9358],[28.6947,-28.6444,2969.6396],[28.6981,-28.6451,2965.2107],[28.7064,-28.6523,2963.3403],[28.7047,-28.6563,2893.5808],[28.7081,-28.6638,2918.2026],[28.7047,-28.6714,3030.7419],[28.7242,-28.6816,3134.3965],[28.7265,-28.6843,3127.6367],[28.7261,-28.6877,3145.3599],[28.73,-28.689,3116.9602],[28.7345,-28.6864,3109.8418],[28.7434,-28.6877,3090.6089],[28.7535,-28.6838,3111.0547],[28.7658,-28.6901,2911.2429],[28.7778,-28.7008,2958.4861],[28.7847,-28.7012,2975.7612],[28.7935,-28.699,2979.4453],[28.7992,-28.7073,2959.1609],[28.8062,-28.7099,2948.2065],[28.8069,-28.7176,2982.9517],[28.8117,-28.7207,2990.5652],[28.8033,-28.73,3082.1777],[28.8004,-28.7426,3099.4958],[28.8009,-28.7454,3100.467],[28.8042,-28.7474,3207.5613],[28.8039,-28.7592,3253.5913],[28.8075,-28.7643,3223.4856],[28.8085,-28.7715,3255.604],[28.8179,-28.7757,3256.8936],[28.8231,-28.772,3269.0605],[28.8243,-28.7671,3186.1125],[28.829,-28.7658,3173.7808],[28.8304,-28.7633,3226.0686],[28.8404,-28.7603,3129.9902],[28.8415,-28.7586,3143.687],[28.8524,-28.7596,3179.3296],[28.8576,-28.756,3177.552],[28.8686,-28.7606,3179.9612],[28.8736,-28.7707,3226.0715],[28.883,-28.7487,3002.2686],[28.8913,-28.7465,3051.0383],[28.8921,-28.7449,2909.0933],[28.9,-28.7032,2251.189],[28.8962,-28.6947,2216.3862],[28.8972,-28.6909,2191.2354],[28.8991,-28.6873,2177.4517],[28.9034,-28.6872,2137.2773],[28.9089,-28.6814,2060.5352],[28.922,-28.6637,2150.2205],[28.926,-28.6638,2136.1592],[28.9284,-28.6601,2197.8662],[28.9346,-28.6569,2034.7354],[28.9357,-28.6538,2002.2428],[28.9428,-28.6509,2070.76],[28.9447,-28.6387,1961.86],[28.9409,-28.6314,1973.1671],[28.9443,-28.6226,2057.0452],[28.9466,-28.6208,2075.3689],[28.9486,-28.6133,1949.1184],[28.9559,-28.6075,2073.8726],[28.966,-28.6053,1944.0486],[28.9613,-28.5972,2095.7725],[28.974,-28.5746,2284.0674],[29.0963,-28.5451,1866.7767],[29.135,-28.5663,1738.9611],[29.1615,-28.5421,1894.0406],[29.171,-28.53,1934.2775],[29.1787,-28.5427,1793.8099],[29.1964,-28.545,1787.4575],[29.2162,-28.5191,1889.4696],[29.1915,-28.4938,1869.4736],[29.229,-28.4563,1843.5167],[29.2488,-28.4249,2021.2703],[29.2615,-28.4337,1886.0714],[29.2685,-28.4319,1815.9746],[29.2901,-28.4379,1773.0728],[29.3226,-28.424,1831.6057],[29.3201,-28.4068,1808.7238],[29.3388,-28.3988,1997.2815],[29.3575,-28.388,1712.2362],[29.3734,-28.3719,1694.4805],[29.4143,-28.3759,1835.8569],[29.4277,-28.3393,1788.8467],[29.4381,-28.3321,1871.9723],[29.4376,-28.3211,1823.1554],[29.4587,-28.3104,1842.1471],[29.4793,-28.2907,1743.3143],[29.4829,-28.2722,1700.1167],[29.5099,-28.2654,1720.2786],[29.5506,-28.2472,1740.406],[29.5587,-28.2583,1758.4203],[29.6198,-28.2412,1784.822],[29.6244,-28.225,1860.8154],[29.6096,-28.215,1831.6213],[29.6263,-28.1857,1918.9664],[29.6628,-28.1772,1830.0269],[29.6633,-28.142,1892.2695],[29.6541,-28.1383,1904.6117],[29.6606,-28.1261,1876.7861],[29.6526,-28.0988,1853.6477],[29.6555,-28.09,1851.8206],[29.6318,-28.069,1916.6262],[29.6169,-28.0468,2096.9819],[29.6394,-28.0156,1858.6007],[29.6359,-27.9945,1932.9542],[29.6508,-27.9667,1959.9727],[29.6636,-27.9573,1988.0555],[29.6737,-27.9576,1965.2249],[29.6768,-27.9595,1985.8452],[29.6798,-27.9574,1987.1995],[29.6732,-27.9432,1983.335],[29.6646,-27.9418,1981.1649],[29.6576,-27.9374,1990.0684],[29.6632,-27.93,1980.4248],[29.6578,-27.9245,2000.7402],[29.6538,-27.9233,2008.5175],[29.6567,-27.9189,2003.9594],[29.6641,-27.9213,1972.1099],[29.6717,-27.917,1972.0055],[29.678,-27.9088,1962.7522],[29.682,-27.9068,1959.4634],[29.6903,-27.8957,1933.1227],[29.6869,-27.8907,1937.4037],[29.6827,-27.888,1938.6471],[29.683,-27.8836,1966.2935],[29.6859,-27.8831,1958.1313],[29.6872,-27.878,1917.0144],[29.685,-27.8675,1850.3888],[29.6896,-27.8644,1893.4521],[29.6871,-27.8585,1924.936],[29.699,-27.8598,1973.3784],[29.7028,-27.8566,1946.9016],[29.6969,-27.8437,1977.4945],[29.6931,-27.8393,2000.8611],[29.6938,-27.8323,1977.3085],[29.6963,-27.8291,1935.1589],[29.697,-27.8245,1850.2349],[29.7022,-27.8222,1871.965],[29.7038,-27.8189,1851.4441],[29.7095,-27.8157,1895.4788],[29.7134,-27.8181,1882.3865],[29.716,-27.8147,1911.5416],[29.7217,-27.8118,1897.3728],[29.7229,-27.8128,1897.3728],[29.7293,-27.812,1892.1252],[29.7313,-27.8081,1930.657],[29.7283,-27.801,1979.4069],[29.724,-27.7968,1963.8574],[29.7108,-27.7956,1982.6978],[29.7115,-27.7927,1973.9113],[29.7175,-27.7875,1958.9016],[29.7127,-27.7805,1960.8396],[29.709,-27.7799,1962.5364],[29.7078,-27.7752,1968.8547],[29.7108,-27.7717,1969.1902],[29.7035,-27.7667,1964.7792],[29.703,-27.7614,1967.4312],[29.7083,-27.7572,2006.7349],[29.7047,-27.7469,2137.5095],[29.7091,-27.7389,2011.1946],[29.7103,-27.7302,1960.1392],[29.7086,-27.7262,1960.8964],[29.71,-27.7222,1974.509],[29.7123,-27.7209,1973.4812],[29.7086,-27.7165,1975.8969],[29.709,-27.6985,2041.1757],[29.6997,-27.698,2018.6537],[29.6939,-27.6953,2037.4254],[29.6854,-27.6862,2057.5708],[29.6854,-27.6814,2003.2552],[29.6838,-27.6796,1975.1951],[29.6779,-27.6771,1996.5061],[29.6701,-27.6701,2048.5771],[29.6698,-27.6672,1960.2964],[29.6743,-27.66,1893.848],[29.6712,-27.6505,1864.1021],[29.678,-27.6389,1806.0697],[29.6844,-27.6377,1793.5863],[29.6979,-27.6408,1801.2607],[29.7121,-27.6306,1806.5881],[29.7148,-27.6319,1811.5726],[29.7183,-27.6295,1817.2533],[29.7206,-27.6268,1813.3589],[29.7196,-27.6257,1826.7643],[29.7229,-27.6188,1783.2512],[29.7281,-27.6167,1782.3032],[29.7312,-27.6177,1785.114],[29.7315,-27.613,1794.0913],[29.7348,-27.6071,1793.2538],[29.7402,-27.6056,1793.4341],[29.7489,-27.6137,1784.2474],[29.7522,-27.6051,1751.6013],[29.757,-27.604,1760.5814],[29.7589,-27.6015,1762.4343],[29.7707,-27.5956,1786.0729],[29.774,-27.5951,1798.5278],[29.7808,-27.5994,1794.7067],[29.7851,-27.5967,1794.1641],[29.7796,-27.5873,1785.8942],[29.7808,-27.5791,1829.5331],[29.7838,-27.5735,1913.8501],[29.7804,-27.5595,1785.6912],[29.7721,-27.5534,1794.196],[29.7711,-27.5464,1780.9634],[29.766,-27.5413,1796.6873],[29.7655,-27.5367,1776.3193],[29.7585,-27.5295,1818.1093],[29.7584,-27.5271,1826.584],[29.7449,-27.5255,1749.312],[29.7434,-27.5231,1767.3923],[29.736,-27.5196,1788.827],[29.7246,-27.5243,1797.0879],[29.7124,-27.5184,1799.2764],[29.7092,-27.5136,1795.2712],[29.7109,-27.5101,1788.1204],[29.7105,-27.4987,1750.0839],[29.7216,-27.4883,1749.7168],[29.725,-27.4894,1755.3046],[29.7319,-27.4879,1761.0631],[29.7143,-27.4804,1735.5831],[29.7032,-27.472,1803.2454],[29.7084,-27.4618,1769.176],[29.7169,-27.4649,1761.4138],[29.7352,-27.4508,1935.8824],[29.7587,-27.4426,2234.5369],[29.7446,-27.4326,1885.0098],[29.7325,-27.4309,1808.6331],[29.7214,-27.4328,1792.5486],[29.7197,-27.4383,1800.8245],[29.717,-27.4384,1793.0175],[29.7172,-27.4403,1803.2804],[29.7044,-27.4454,1757.7306],[29.6991,-27.4508,1757.9196],[29.6994,-27.4591,1748.3719],[29.7024,-27.4659,1737.2427],[29.6984,-27.4726,1734.5935],[29.6993,-27.4747,1734.3416],[29.6977,-27.4754,1756.5044],[29.6992,-27.4778,1735.5747],[29.7063,-27.4817,1723.2559],[29.7049,-27.4858,1714.1211],[29.7065,-27.4879,1712.1068],[29.7014,-27.4939,1713.7563],[29.6989,-27.4947,1710.6305],[29.6936,-27.4923,1715.1636],[29.6883,-27.4935,1695.8401],[29.6858,-27.4978,1698.4897],[29.681,-27.5001,1691.9998],[29.6795,-27.4968,1690.0519],[29.6741,-27.498,1692.2092],[29.6669,-27.4959,1688.4631],[29.6551,-27.4962,1698.5436],[29.6505,-27.4998,1687.1575],[29.6494,-27.5042,1687.1792],[29.6368,-27.5047,1689.4786],[29.6297,-27.5023,1694.666],[29.6255,-27.5057,1685.8519],[29.6189,-27.506,1686.3408],[29.6093,-27.4964,1683.9913],[29.6068,-27.4966,1683.9536],[29.604,-27.4942,1683.6121],[29.6049,-27.4854,1682.3931],[29.6018,-27.4816,1682.3369],[29.6039,-27.4802,1682.7141],[29.601,-27.4768,1682.2612],[29.6029,-27.4741,1682.4215],[29.6016,-27.4718,1681.6503],[29.5998,-27.4728,1681.6503],[29.6007,-27.4701,1683.0415],[29.5897,-27.4663,1681.4072],[29.589,-27.4632,1681.2712],[29.5845,-27.4644,1681.0779],[29.5836,-27.4623,1680.4569],[29.5846,-27.4619,1680.4569],[29.581,-27.4607,1680.3135],[29.58,-27.4584,1680.0992],[29.5781,-27.4596,1680.2769],[29.5767,-27.4569,1680.0601],[29.5787,-27.4565,1679.908],[29.5791,-27.4545,1680.2448],[29.5691,-27.4421,1683.3795],[29.5633,-27.4427,1679.1213],[29.5613,-27.4413,1677.7812],[29.5599,-27.4322,1673.9812],[29.5465,-27.4311,1667.5491],[29.55,-27.4241,1666.3022],[29.5425,-27.42,1665.8577],[29.5474,-27.4141,1663.1609],[29.552,-27.4136,1664.045],[29.5492,-27.4092,1661.9716],[29.5489,-27.4047,1660.1826],[29.552,-27.3988,1663.9519],[29.5435,-27.399,1654.795],[29.5416,-27.3915,1660.506],[29.5381,-27.387,1649.9124],[29.5271,-27.3941,1642.0073],[29.5257,-27.3863,1637.9852],[29.5298,-27.3864,1664.2318],[29.5304,-27.3828,1640.4822],[29.5271,-27.3783,1624.4772],[29.5239,-27.3772,1626.105],[29.5184,-27.3779,1625.05],[29.5222,-27.3828,1619.1624],[29.52,-27.3844,1617.3953],[29.5119,-27.3796,1614.0103],[29.5088,-27.3764,1612.0908],[29.5087,-27.3727,1608.7075],[29.5095,-27.3692,1607.3345],[29.5124,-27.3678,1608.2866],[29.5052,-27.365,1606.834],[29.5029,-27.3582,1602.8265],[29.4865,-27.3628,1598.7961],[29.4828,-27.36,1595.4634],[29.483,-27.3569,1595.786],[29.4871,-27.3506,1587.9399],[29.4848,-27.347,1593.4655],[29.4899,-27.3447,1587.0366],[29.4901,-27.3369,1584.5961],[29.4878,-27.3375,1587.302],[29.4865,-27.340699999999998,1586.5358],[29.4837,-27.3388,1585.6466],[29.4864,-27.3274,1581.793],[29.4833,-27.3281,1576.6304],[29.4826,-27.3322,1584.5894],[29.4807,-27.3328,1572.957],[29.4694,-27.3248,1568.6882],[29.4702,-27.3204,1564.4166],[29.4676,-27.3156,1576.5251],[29.4722,-27.3095,1547.7604],[29.4697,-27.3036,1551.3572],[29.4709,-27.3015,1543.3102],[29.4687,-27.3015,1543.5326],[29.47,-27.3003,1543.8718],[29.4687,-27.2987,1543.5179],[29.4663,-27.299,1542.7515],[29.4637,-27.2877,1541.5302],[29.4617,-27.2853,1542.2386],[29.4611,-27.2867,1541.3787],[29.4591,-27.2863,1545.9929],[29.4603,-27.2844,1543.2731],[29.4565,-27.2842,1541.1566],[29.4566,-27.2815,1541.5068],[29.4548,-27.2826,1546.144],[29.4552,-27.2796,1541.1483],[29.4533,-27.277,1540.4531],[29.4517,-27.2763,1540.4531],[29.4506,-27.2781,1540.3723],[29.4507,-27.2748,1540.079],[29.4483,-27.2754,1541.4991],[29.4481,-27.273,1543.701],[29.4434,-27.2669,1540.2739],[29.4395,-27.2677,1542.1781],[29.4364,-27.261,1539.5027],[29.4357,-27.2628,1538.7311],[29.4343,-27.2613,1538.3641],[29.432,-27.2622,1538.0417],[29.4282,-27.2539,1539.2106],[29.4248,-27.2547,1537.5015],[29.4265,-27.2563,1540.3992],[29.4233,-27.2576,1538.9655],[29.4213,-27.2566,1544.6877],[29.422,-27.254,1540.2429],[29.4194,-27.2554,1556.2147],[29.4151,-27.2505,1539.1115],[29.4107,-27.2523,1537.2483],[29.4043,-27.2523,1538.2283],[29.4015,-27.2496,1549.266],[29.4002,-27.2429,1536.8083],[29.3909,-27.2427,1542.0404],[29.3869,-27.2436,1539.2092],[29.3902,-27.2477,1541.3672],[29.3875,-27.2499,1539.6853],[29.3863,-27.2489,1535.3982],[29.389,-27.2475,1535.917],[29.3884,-27.246,1535.8923],[29.3845,-27.249,1537.1101],[29.3807,-27.2474,1547.4436],[29.3751,-27.251,1535.6665],[29.3698,-27.2515,1550.4631],[29.3619,-27.247,1535.0159],[29.3532,-27.2498,1537.3013],[29.3427,-27.2485,1537.3602],[29.3397,-27.252,1565.2307],[29.3408,-27.2604,1547.8036],[29.3392,-27.2637,1535.2501],[29.3312,-27.2634,1536.715],[29.3253,-27.2521,1532.9097],[29.3281,-27.2466,1533.3522],[29.3321,-27.2446,1532.4008],[29.3352,-27.2398,1535.7529],[29.3344,-27.2364,1532.616],[29.3382,-27.2351,1531.5824],[29.3361,-27.232,1531.0461],[29.3321,-27.2305,1544.3297],[29.3362,-27.2267,1531.3086],[29.3335,-27.2239,1531.1766],[29.3351,-27.2226,1530.0598],[29.3365,-27.2246,1531.1924],[29.3377,-27.2239,1530.3342],[29.3356,-27.2219,1530.0598],[29.3371,-27.2181,1529.8337],[29.3359,-27.2145,1530.6255],[29.3355,-27.2173,1531.1437],[29.3329,-27.217,1530.085],[29.3329,-27.2191,1529.5782],[29.3315,-27.2182,1531.4531],[29.3341,-27.2141,1529.6899],[29.3311,-27.213,1531.1216],[29.3312,-27.2103,1528.8573],[29.3351,-27.2074,1529.1124],[29.3308,-27.208,1528.4211],[29.3299,-27.2036,1557.4932],[29.3255,-27.2085,1529.0283],[29.3112,-27.2113,1529.8956],[29.312,-27.2141,1527.9656],[29.309,-27.2162,1527.8827],[29.3005,-27.2119,1527.9501],[29.3019,-27.2097,1527.2855],[29.2988,-27.2092,1527.6379],[29.2972,-27.2058,1527.4602],[29.298,-27.2041,1526.6821],[29.2954,-27.2031,1527.0472],[29.2957,-27.201,1527.0771],[29.2917,-27.1996,1526.806],[29.2887,-27.1965,1526.2739],[29.2876,-27.1927,1525.116],[29.2849,-27.1925,1525.2053],[29.2871,-27.1911,1525.2753],[29.2864,-27.1903,1525.4191],[29.2841,-27.1907,1525.182],[29.2839,-27.1936,1524.0188],[29.2819,-27.1921,1524.5127],[29.285,-27.195,1525.1644],[29.2819,-27.1996,1525.0588],[29.2807,-27.1989,1524.8806],[29.282,-27.195,1524.4202],[29.2767,-27.1943,1524.3107],[29.2732,-27.1956,1523.9156],[29.2747,-27.1927,1528.7212],[29.2722,-27.1916,1523.6213],[29.2719,-27.1962,1523.6555],[29.2682,-27.1983,1526.2823],[29.2683,-27.1961,1524.7328],[29.2708,-27.1958,1523.6555],[29.2694,-27.1929,1523.1675],[29.2703,-27.1893,1523.1545],[29.2657,-27.1916,1522.8291],[29.2682,-27.1849,1522.334],[29.2668,-27.184,1522.6605],[29.2658,-27.1868,1522.4073],[29.2633,-27.1874,1522.4548],[29.2602,-27.1838,1522.1688],[29.2629,-27.183,1523.2904],[29.2604,-27.1813,1522.2114],[29.2583,-27.1843,1522.282],[29.2563,-27.1946,1526.8152],[29.2535,-27.194,1522.8768],[29.2541,-27.1897,1523.1298],[29.2463,-27.192,1521.907],[29.2453,-27.1909,1521.6892],[29.2465,-27.1885,1523.4443],[29.2443,-27.1862,1523.1394],[29.2426,-27.1861,1520.6895],[29.2419,-27.1884,1520.1842],[29.2396,-27.1863,1521.0724],[29.2406,-27.1846,1520.5449],[29.2434,-27.1852,1520.6895],[29.2437,-27.1835,1524.4758],[29.2412,-27.1823,1520.8811],[29.2347,-27.1832,1524.8932],[29.2365,-27.1776,1521.2158],[29.2355,-27.1731,1522.9524],[29.2298,-27.1672,1518.915],[29.2307,-27.1604,1518.4786],[29.2281,-27.1611,1517.4832],[29.2286,-27.1568,1518.1866],[29.227,-27.1553,1524.0829],[29.2292,-27.151,1519.144],[29.2271,-27.1499,1519.3279],[29.2278,-27.1471,1518.4348],[29.2239,-27.1447,1519.106],[29.2158,-27.1476,1517.5555],[29.2097,-27.1424,1518.5474],[29.204,-27.1449,1518.2217],[29.195,-27.1402,1517.4276],[29.1927,-27.1371,1520.5173],[29.1926,-27.1403,1517.4767],[29.1897,-27.1409,1517.844],[29.1902,-27.1432,1518.2324],[29.1831,-27.1454,1516.8322],[29.1798,-27.1441,1516.4033],[29.1782,-27.1465,1516.3992],[29.1701,-27.1414,1515.7778],[29.1595,-27.1431,1515.7668],[29.1588,-27.1461,1514.9448],[29.1562,-27.1449,1515.6414],[29.1527,-27.146,1515.511],[29.151,-27.1519,1516.3818],[29.1474,-27.1491,1514.6321],[29.146,-27.1528,1514.7227],[29.1417,-27.1538,1515.2235],[29.1377,-27.1524,1514.0557],[29.1363,-27.1546,1514.6268],[29.138,-27.1584,1514.3225],[29.1372,-27.1612,1514.3076],[29.1334,-27.1626,1514.5781],[29.1321,-27.1602,1513.9507],[29.1316,-27.1624,1514.9904],[29.1296,-27.1628,1514.5073],[29.1296,-27.1684,1513.6713],[29.1269,-27.169,1513.9425],[29.1265,-27.1671,1513.1699],[29.1244,-27.1672,1513.1217],[29.121,-27.1716,1513.2662],[29.1171,-27.1725,1513.8225],[29.1137,-27.1632,1512.212],[29.1141,-27.1589,1513.5955],[29.1121,-27.1528,1512.7373],[29.1134,-27.1496,1512.1361],[29.1106,-27.1477,1511.4978],[29.1075,-27.1419,1511.5505],[29.1014,-27.1372,1511.5055],[29.1018,-27.1342,1511.2709],[29.1054,-27.1338,1511.0507],[29.104,-27.1303,1513.2749],[29.0992,-27.1269,1510.9304],[29.097,-27.1227,1511.3651],[29.0917,-27.1211,1510.4492],[29.0927,-27.1182,1509.137],[29.0888,-27.1185,1510.175],[29.0862,-27.116,1509.9265],[29.0886,-27.113,1509.7858],[29.0857,-27.1103,1509.3109],[29.0864,-27.1067,1509.3473],[29.0833,-27.1054,1508.8423],[29.0777,-27.0926,1508.6803],[29.0737,-27.0908,1508.3331],[29.0718,-27.0857,1509.8411],[29.0673,-27.0855,1507.688],[29.0647,-27.0837,1509.5632],[29.0619,-27.0853,1507.4937],[29.0557,-27.0813,1508.0367],[29.0557,-27.0787,1507.7725],[29.0609,-27.0785,1507.8971],[29.0621,-27.0755,1507.6418],[29.061,-27.0718,1507.2979],[29.0654,-27.0651,1506.9114],[29.0674,-27.0647,1506.0803],[29.0682,-27.0674,1506.3516],[29.0701,-27.0678,1506.9316],[29.072,-27.0659,1506.0408],[29.0708,-27.064,1506.4161],[29.0733,-27.065,1508.7651],[29.0742,-27.0635,1506.2356],[29.0708,-27.0601,1506.9148],[29.072,-27.0563,1505.4689],[29.0683,-27.055,1507.3704],[29.0618,-27.0489,1505.085],[29.0615,-27.046,1504.9938],[29.0649,-27.0428,1506.1445],[29.0533,-27.0335,1504.1753],[29.0536,-27.0299,1503.7195],[29.0597,-27.018,1504.6432],[29.0572,-27.0093,1502.1466],[29.0445,-27.004,1502.6357],[29.0388,-27.0048,1502.3217],[29.0388,-27.0225,1502.0593],[29.0352,-27.0273,1503.6869],[29.0312,-27.029,1505.4564],[29.0262,-27.0221,1502.5388],[29.0281,-27.0184,1502.2622],[29.027,-27.0164,1503.08],[29.0227,-27.0153,1503.9603],[29.0151,-27.01,1504.3787],[29.0017,-27.0506,1544.6198],[28.9965,-27.0797,1550.6753],[29.0034,-27.1093,1555.6301],[29.0055,-27.1097,1558.7559],[28.998,-27.1466,1568.9907],[29.0056,-27.1669,1587.0808],[29.0024,-27.167,1577.401],[29.004,-27.1802,1534.0283],[28.9973,-27.1823,1536.1379],[28.9787,-27.2063,1603.2173],[28.982,-27.2155,1614.3635],[28.9942,-27.2176,1603.812],[28.9819,-27.2357,1632.55],[29.0063,-27.2488,1556.6432],[29.003,-27.2533,1557.8538],[29.0027,-27.2611,1561.5485],[28.9795,-27.2561,1666.3995],[28.9788,-27.2541,1647.8022],[28.9674,-27.2573,1655.4602],[28.9643,-27.2619,1670.5481],[28.967,-27.28,1616.9299],[28.957,-27.2847,1643.9604],[28.9374,-27.2877,1685.407],[28.9169,-27.3458,1712.1007],[28.9274,-27.4025,1769.2587],[28.9228,-27.4199,1753.7518],[28.9128,-27.4131,1702.4454],[28.9001,-27.4074,1760.9364],[28.8912,-27.4075,1746.349],[28.8808,-27.4435,1681.1387],[28.8677,-27.4348,1667.1489],[28.8644,-27.4468,1654.4812],[28.8302,-27.4523,1646.2445],[28.8356,-27.4799,1666.7041],[28.8173,-27.4655,1630.075],[28.7855,-27.4625,1599.6141],[28.7711,-27.4839,1670.3446],[28.7739,-27.5315,1598.7424],[28.771,-27.5337,1596.7622],[28.7456,-27.5337,1522.2549],[28.7435,-27.5403,1517.3529],[28.7378,-27.5452,1522.4116],[28.7374,-27.5483,1517.6204],[28.7428,-27.5521,1516.8347],[28.7437,-27.5618,1521.6465],[28.7455,-27.5635,1516.2417],[28.7413,-27.5831,1520.9553],[28.7425,-27.5869,1518.6517],[28.737,-27.5917,1518.9308],[28.736,-27.5948,1522.6731],[28.7429,-27.599,1519.0413],[28.675,-27.5905,1658.3384],[28.6756,-27.5809,1704.4988],[28.6255,-27.6114,1664.9958],[28.6197,-27.606,1671.7798],[28.6172,-27.6075,1672.4658],[28.6028,-27.6025,1665.1074],[28.6201,-27.5896,1676.2419],[28.5975,-27.5624,1619.8737],[28.5915,-27.5721,1600.6691],[28.5775,-27.5645,1647.0282],[28.567,-27.5375,1565.9541],[28.5558,-27.5434,1555.6169],[28.5497,-27.5551,1564.8479],[28.5517,-27.5795,1629.7185],[28.5266,-27.5854,1637.9316],[28.5245,-27.5826,1633.1576],[28.5112,-27.5969,1617.109],[28.4857,-27.5716,1553.9183],[28.4671,-27.5627,1520.8989],[28.4669,-27.5599,1520.4708],[28.47,-27.5576,1522.5793],[28.4677,-27.541,1538.3374],[28.4748,-27.5328,1515.4709],[28.4474,-27.5132,1593.5009],[28.427,-27.5064,1648.8755],[28.4126,-27.5104,1675.9292],[28.3996,-27.5234,1728.6995],[28.3899,-27.5248,1715.4656],[28.3901,-27.5227,1702.7279],[28.3851,-27.521,1694.0286],[28.383,-27.518,1701.0652],[28.3746,-27.5153,1706.0898],[28.3643,-27.5294,1631.9757],[28.3512,-27.5295,1687.9478],[28.3469,-27.5364,1716.7507],[28.3073,-27.5541,1698.9307],[28.294,-27.5426,1759.8599],[28.2942,-27.5492,1759.5607],[28.2847,-27.5562,1761.9696],[28.2842,-27.5669,1733.4644],[28.2581,-27.5723,1732.2217],[28.2563,-27.5413,1699.3593],[28.2511,-27.5086,1660.7645],[28.2509,-27.4978,1647.0226],[28.2282,-27.4901,1611.0349],[28.2274,-27.4978,1619.2224],[28.2225,-27.4974,1617.5425],[28.2162,-27.4903,1642.5049],[28.2102,-27.4982,1633.0916],[28.1946,-27.4954,1655.3704],[28.1887,-27.4818,1722.7905],[28.1657,-27.4995,1714.3984],[28.155,-27.4989,1740.3022],[28.1378,-27.5208,1731.2893],[28.1305,-27.5191,1714.1755],[28.1317,-27.5204,1720.7593],[28.1048,-27.5333,1711.0083],[28.0614,-27.5752,1698.0948],[28.0569,-27.5642,1694.7141],[28.0078,-27.5638,1671.1333],[28.0143,-27.5825,1620.1042],[28.0058,-27.5812,1630.4091],[27.9994,-27.5932,1597.9817],[27.9869,-27.6042,1585.2278],[27.9856,-27.6097,1579.2417],[27.9825,-27.6121,1577.0813],[27.9912,-27.622,1569.4829],[27.9886,-27.6322,1592.5267],[27.949,-27.6378,1569.1931],[27.9481,-27.6355,1566.9476],[27.9198,-27.6426,1575.9937],[27.8819,-27.6385,1570.424],[27.8828,-27.6569,1557.7874],[27.8623,-27.6633,1607.8374],[27.8503,-27.67,1618.2277],[27.8426,-27.6693,1618.3615],[27.8381,-27.6726,1609.1454],[27.8415,-27.7205,1581.28],[27.8628,-27.7895,1579.6667],[27.8641,-27.8531,1543.441],[27.867,-27.8904,1530.5221],[27.8726,-27.9338,1540.6344],[27.823,-27.9337,1513.6851],[27.8108,-27.9503,1482.3223],[27.8041,-27.9442,1482.542],[27.8,-27.9443,1478.3442],[27.8009,-27.9403,1478.2675],[27.7979,-27.9381,1476.9135],[27.7985,-27.9347,1476.1208],[27.7938,-27.9343,1474.3016],[27.7931,-27.9319,1474.5283],[27.7883,-27.9308,1478.2559],[27.7904,-27.9292,1472.5946],[27.7884,-27.928,1479.0258],[27.7894,-27.9269,1472.4084],[27.7878,-27.9245,1480.3831],[27.7917,-27.9189,1474.0037],[27.7874,-27.9159,1468.0413],[27.7862,-27.9132,1467.3138],[27.7775,-27.9102,1463.3997],[27.7729,-27.9107,1462.8635],[27.7661,-27.9149,1463.8469],[27.765,-27.9113,1457.0925],[27.7635,-27.9107,1455.7841],[27.765,-27.909,1456.9202],[27.7586,-27.9048,1453.1864],[27.7529,-27.9126,1460.8105],[27.7541,-27.9183,1469.1505],[27.7377,-27.9282,1492.5198],[27.7273,-27.9591,1563.6521],[27.7181,-27.9562,1557.7866],[27.7047,-27.9836,1599.6591],[27.7193,-27.9829,1573.2289],[27.7187,-27.9848,1597.9752],[27.6954,-28.0026,1591.3445],[27.7035,-28.0404,1591.1035],[27.6851,-28.0464,1596.9258],[27.655,-28.0599,1585.7937],[27.689,-28.0962,1572.0522],[27.6932,-28.124,1553.0172],[27.6538,-28.1266,1571.0399],[27.6614,-28.1477,1538.0367],[27.6621,-28.1627,1500.3247],[27.6602,-28.1621,1503.9044],[27.6608,-28.1613,1503.9044],[27.6564,-28.1616,1515.2991],[27.6617,-28.1862,1471.5444],[27.6598,-28.1841,1472.627],[27.6458,-28.1922,1494.1726],[27.6277,-28.1711,1538.3939],[27.5963,-28.176,1571.5051],[27.6053,-28.2055,1509.3719],[27.6112,-28.2415,1517.5836],[27.6169,-28.2512,1494.7466],[27.605,-28.2664,1454.9532],[27.5958,-28.2595,1481.2312],[27.5695,-28.2842,1447.7256],[27.5696,-28.2825,1450.8469],[27.5442,-28.2731,1442.5852],[27.544,-28.2747,1439.1123],[27.5272,-28.267,1497.7295],[27.5107,-28.2743,1583.0111],[27.5048,-28.2708,1567.0211],[27.5031,-28.2491,1548.9607],[27.4832,-28.2488,1523.652],[27.4811,-28.2718,1501.3977],[27.4701,-28.2732,1453.6416],[27.4708,-28.2666,1492.8741],[27.4695,-28.2635,1487.2366],[27.4608,-28.2647,1481.5793],[27.4616,-28.2605,1474.9214],[27.4564,-28.248,1492.2091],[27.4497,-28.2478,1518.7599],[27.4452,-28.2387,1530.9871],[27.3908,-28.2395,1479.6982],[27.3879,-28.2141,1497.9646],[27.3439,-28.2267,1446.3773],[27.3262,-28.2265,1466.7795],[27.3197,-28.2685,1445.8208],[27.3058,-28.2627,1510.6494],[27.2768,-28.2828,1444.5995],[27.2468,-28.2687,1491.8774],[27.2491,-28.2622,1503.8103],[27.2294,-28.2406,1434.9918],[27.2166,-28.2534,1439.7391],[27.1935,-28.2576,1410.358],[27.1668,-28.2689,1388.7455],[27.1538,-28.2638,1366.3561],[27.1383,-28.2816,1367.0709],[27.1319,-28.2763,1373.9435],[27.1304,-28.2841,1374.1378],[27.1144,-28.2772,1355.4502],[27.1116,-28.2774,1349.7567],[27.1212,-28.2692,1371.0197],[27.1217,-28.2626,1356.4276],[27.1257,-28.2623,1339.1879],[27.1297,-28.2577,1339.7483],[27.1293,-28.2561,1344.0304],[27.1236,-28.2558,1339.9377],[27.1187,-28.259,1338.3248],[27.1047,-28.2779,1357.7732],[27.1014,-28.2781,1364.4562],[27.0893,-28.2711,1402.8174],[27.091,-28.2798,1376.958],[27.0909,-28.2936,1379.4324],[27.0654,-28.2964,1417.3282],[27.0661,-28.3419,1432.3679],[27.0372,-28.3989,1420.2382],[27.0709,-28.4155,1435.8993],[27.075,-28.4077,1419.8887],[27.1065,-28.4018,1419.7515],[27.1055,-28.4079,1401.3369],[27.1104,-28.4121,1409.8235],[27.1104,-28.4283,1438.0981],[27.0983,-28.4395,1421.6128],[27.1174,-28.4453,1436.6039],[27.1136,-28.4565,1452.8896],[27.1373,-28.4767,1549.1298],[27.1874,-28.4823,1473.1851],[27.1737,-28.5081,1449.4017],[27.1754,-28.5085,1449.4017],[27.1659,-28.5243,1452.1283],[27.1646,-28.5225,1444.0903],[27.1483,-28.5202,1420.5756],[27.1507,-28.5477,1428.4454],[27.1549,-28.5463,1430.95],[27.1567,-28.5583,1424.3132],[27.1724,-28.5623,1474.476],[27.1977,-28.5766,1442.8976],[27.2122,-28.578,1450.7725],[27.2087,-28.5969,1467.9233],[27.219,-28.5992,1467.6652],[27.214,-28.6158,1480.7485],[27.1929,-28.6247,1501.5095],[27.2127,-28.6265,1457.4197],[27.1901,-28.6676,1459.0574],[27.2026,-28.6762,1436.5228],[27.1926,-28.6977,1420.4246],[27.2087,-28.7056,1415.0372],[27.1966,-28.7335,1429.0635],[27.1985,-28.7342,1429.345],[27.1702,-28.7597,1423.6326],[27.1768,-28.7657,1439.2513],[27.1749,-28.7673,1437.981],[27.1782,-28.7737,1446.9604],[27.1863,-28.7754,1604.4629],[27.1917,-28.7796,1535.088],[27.199,-28.7794,1464.2512],[27.2006,-28.7817,1478.8223],[27.2099,-28.7719,1451.1962],[27.2146,-28.7742,1458.821],[27.1863,-28.8053,1414.8333],[27.1859,-28.8044,1414.4891],[27.1863,-28.8015,1413.8339],[27.1796,-28.7981,1420.0999],[27.1802,-28.7952,1411.5219],[27.1787,-28.7947,1415.3495],[27.1782,-28.7912,1414.8275],[27.1752,-28.7909,1412.174],[27.1742,-28.7874,1409.734],[27.1716,-28.7864,1409.2637],[27.1703,-28.7821,1409.803],[27.1666,-28.7812,1411.3162],[27.1648,-28.779,1406.989],[27.1599,-28.7791,1405.6331],[27.157,-28.7718,1404.9922],[27.1581,-28.7692,1408.035],[27.1517,-28.7602,1401.1904],[27.1527,-28.7529,1401.0425],[27.1553,-28.7516,1399.0452],[27.1539,-28.7476,1398.791],[27.1563,-28.7469,1398.5631],[27.1573,-28.7434,1398.5972],[27.1545,-28.7417,1397.6709],[27.1578,-28.7325,1396.1815],[27.1557,-28.7335,1395.3979],[27.1511,-28.7311,1394.8303],[27.151,-28.7259,1398.7733],[27.1496,-28.7252,1394.6394],[27.1074,-28.7683,1435.2371],[27.0999,-28.7567,1435.5773],[27.0776,-28.7677,1426.3334],[27.0618,-28.7615,1425.4126],[27.0463,-28.7699,1432.7502],[27.0419,-28.7626,1449.5518],[27.0333,-28.7607,1433.2278],[27.0302,-28.7562,1424.4111],[27.0297,-28.7439,1428.4749],[26.9754,-28.7518,1433.881],[26.9728,-28.746,1383.2047],[26.947,-28.7503,1408.451],[26.947,-28.7482,1403.2233],[26.9237,-28.7591,1374.3882],[26.9107,-28.7622,1397.7542],[26.9111,-28.7683,1404.9578],[26.8804,-28.8285,1446.608],[26.8537,-28.8863,1470.2777],[26.8181,-28.9271,1445.9999],[26.8927,-28.9341,1422.8126],[26.9135,-28.9177,1435.2407],[26.9463,-28.9397,1446.8749],[26.9406,-28.9646,1463.6827],[26.9547,-29.006,1473.4951],[26.9624,-29.0219,1513.7976],[26.9949,-29.0219,1500.4426],[27.0159,-29.0437,1576.1841],[27.0253,-29.0479,1573.7477],[27.0298,-29.0558,1610.5177],[27.0402,-29.0538,1573.5417],[27.0449,-29.0563,1570.063],[27.0513,-29.0706,1690.1682],[27.0412,-29.0858,1657.5006],[27.02,-29.0818,1576.8809],[26.9998,-29.1053,1644.8368],[27.0137,-29.1122,1625.3003],[27.0117,-29.1281,1612.0873],[26.9741,-29.14,1579.7877],[26.9629,-29.1478,1541.674],[26.9632,-29.1554,1548.4718],[26.9453,-29.1684,1674.6614],[26.9294,-29.1701,1629.8555],[26.9172,-29.1821,1691.0055],[26.9158,-29.1857,1671.958],[26.9192,-29.1952,1720.5457],[26.9244,-29.1998,1681.2065],[26.9218,-29.2063,1687.2325],[26.9163,-29.2084,1734.6967],[26.9174,-29.2198,1743.2571],[26.9359,-29.2377,1757.834],[26.9282,-29.2558,1841.7864],[26.9397,-29.2581,1854.0068],[26.9633,-29.2569,1657.0787],[26.9542,-29.2894,1584.8165],[26.9486,-29.2884,1565.6785],[26.9428,-29.3157,1581.7988],[26.9334,-29.3206,1565.6328],[26.9596,-29.347,1609.5936],[26.961,-29.3569,1602.7079],[26.9558,-29.3793,1589.179],[26.968,-29.3828,1608.3159],[26.9769,-29.3741,1609.7274],[27.0226,-29.3804,1549.0677],[27.0235,-29.3551,1565.8325],[27.0534,-29.3436,1600.4281],[27.069,-29.3662,1599.4849],[27.0856,-29.3857,1551.665],[27.0945,-29.3904,1554.1898],[27.082,-29.4066,1783.0049],[27.0768,-29.4163,1612.6588],[27.0744,-29.4271,1608.0471],[27.075,-29.433,1659.6732],[27.0676,-29.4416,1543.8195],[27.0362,-29.4163,1534.6278],[27.0221,-29.3983,1539.4698],[27.011,-29.3951,1548.6906],[26.9629,-29.428,1571.7891],[26.991,-29.4554,1529.1956],[27.0039,-29.4569,1536.3209],[26.9785,-29.4837,1559.104],[26.999,-29.5198,1596.4639],[27.0079,-29.5168,1601.5118],[27.016,-29.5275,1618.4039],[27.0607,-29.5228,1679.4198],[27.0688,-29.5435,1581.4636],[27.0814,-29.5592,1546.3275],[27.1115,-29.553,1451.4131],[27.1233,-29.5591,1506.011],[27.1274,-29.5747,1438.9861],[27.1351,-29.5734,1437.9235],[27.1407,-29.5754,1440.9966],[27.1524,-29.562,1438.752],[27.1584,-29.5596,1441.2666],[27.1651,-29.5625,1440.9084],[27.185,-29.5659,1441.7778],[27.1895,-29.5699,1444.6033],[27.1949,-29.5676,1446.6166],[27.2021,-29.5688,1442.5575],[27.2071,-29.5671,1443.2402],[27.2088,-29.5646,1440.0365],[27.206,-29.5605,1447.0345],[27.2068,-29.5578,1445.5317],[27.2214,-29.5497,1446.4784],[27.2208,-29.5452,1445.3762],[27.2255,-29.5435,1445.6825],[27.2272,-29.544,1451.7563],[27.2314,-29.5543,1447.5061],[27.2383,-29.5531,1447.178],[27.2451,-29.5543,1450.4285],[27.2559,-29.5475,1451.2136],[27.2549,-29.5368,1449.7351],[27.2573,-29.5333,1448.2588],[27.2628,-29.5333,1452.4141],[27.2768,-29.5263,1451.6956],[27.2831,-29.528,1449.6978],[27.2891,-29.5334,1451.1235],[27.3018,-29.5325,1452.8618],[27.3057,-29.5336,1458.1194]]]]}
,"properties": {"GID_2": "ZAF.2.4_1","GID_0": "ZAF","country": "SouthAfrica","GID_1": "ZAF.2_1","province": "FreeState","NL_NAME_1": "NA","county": "ThaboMofutsanyane","VARNAME_2": "NA","NL_NAME_2": "NA","TYPE_2": "DistrictMunicipality","ENGTYPE_2": "DistrictMunicipality","CC_2": "DC19","HASC_2": "ZA.FS.TM","name": "Thabo_Mofutsanyane.county","area_km2": 33318.19,"hist_schema_id": "Elevation0-9000","hist_area_km2": {"1350": 8.87,"1375": 145.86,"1400": 372.86,"1425": 683.85,"1450": 849.93,"1475": 987.51,"1500": 996.97,"1525": 1130.21,"1550": 1373.18,"1575": 1888.64,"1600": 2445.82,"1625": 2734.52,"1650": 3046.14,"1675": 3184.51,"1700": 2997.46,"1725": 2270.36,"1750": 1671.46,"1775": 1334.92,"1800": 1089.48,"1825": 819.0,"1850": 581.05,"1875": 460.07,"1900": 386.94,"1925": 343.49,"1950": 305.82,"1975": 268.19,"2000": 232.27,"2025": 185.91,"2050": 110.81,"2075": 71.57,"2100": 47.07,"2125": 38.69,"2150": 34.24,"2175": 28.28,"2200": 24.53,"2225": 19.38,"2250": 18.99,"2275": 17.03,"2300": 12.37,"2325": 10.99,"2350": 8.62,"2375": 7.02,"2400": 5.53,"2425": 5.19,"2450": 4.82,"2475": 3.94,"2500": 3.85,"2525": 3.87,"2550": 3.39,"2575": 2.75,"2600": 2.31,"2625": 1.9,"2650": 1.77,"2675": 1.66,"2700": 1.53,"2725": 1.39,"2750": 1.36,"2775": 1.1,"2800": 1.23,"2825": 1.39,"2850": 1.08,"2875": 2.01,"2900": 1.62,"2925": 2.19,"2950": 1.79,"2975": 1.84,"3000": 2.21,"3025": 2.27,"3050": 2.01,"3075": 1.97,"3100": 0.97,"3125": 1.06,"3150": 0.82,"3175": 0.74,"3200": 0.63,"3225": 0.65,"3250": 0.32}}}