{"type": "Feature","bbox": [26.4624,-26.1429,27.2082,-25.3582],"geometry": {"type": "MultiPolygon","coordinates": [[[[27.1835,-25.945,1554.0612],[27.1882,-25.9313,1591.2861],[27.1843,-25.9037,1485.8711],[27.1856,-25.9034,1485.8711],[27.1738,-25.8849,1403.9574],[27.1787,-25.8767,1329.9011],[27.1853,-25.8701,1456.3452],[27.2082,-25.8548,1397.8573],[27.1561,-25.8181,1430.7019],[27.1327,-25.8093,1450.3423],[27.1198,-25.7522,1240.6155],[27.1671,-25.7203,1586.0419],[27.1606,-25.7041,1644.3889],[27.1585,-25.6685,1553.7491],[27.1497,-25.6518,1432.845],[27.1262,-25.6185,1335.6658],[27.1341,-25.6143,1340.6096],[27.1162,-25.6083,1502.0375],[27.1164,-25.6016,1494.8536],[27.1017,-25.5974,1236.7346],[27.0881,-25.5748,1239.1246],[27.0956,-25.57,1267.4509],[27.0755,-25.5478,1356.639],[27.0669,-25.5332,1462.9202],[27.0497,-25.481,1273.9673],[27.0611,-25.4755,1167.0428],[27.0442,-25.4716,1131.3418],[27.0408,-25.4661,1108.6785],[27.0151,-25.4632,1081.9659],[27.0016,-25.3972,1220.2378],[27.0075,-25.3745,1097.6145],[26.9351,-25.3823,1148.6302],[26.9344,-25.3776,1153.3043],[26.8532,-25.3741,1116.507],[26.8515,-25.3582,1112.7579],[26.7605,-25.3592,1129.4354],[26.6875,-25.3936,1133.1445],[26.6695,-25.4439,1176.8766],[26.6487,-25.4476,1136.156],[26.6528,-25.5223,1281.7561],[26.6083,-25.5244,1349.619],[26.5947,-25.4699,1155.7999],[26.5354,-25.4697,1120.9835],[26.5376,-25.4864,1152.939],[26.5224,-25.4832,1151.0746],[26.516,-25.4791,1141.5808],[26.506,-25.5019,1242.8076],[26.5102,-25.5354,1371.2197],[26.5095,-25.578,1368.5095],[26.4978,-25.5643,1257.5979],[26.4776,-25.6005,1382.4863],[26.4939,-25.5955,1254.4832],[26.5131,-25.6004,1356.6599],[26.5112,-25.6552,1213.8638],[26.5034,-25.6841,1360.0929],[26.4847,-25.6775,1322.1034],[26.4765,-25.7243,1473.9525],[26.4624,-25.7454,1453.9421],[26.5095,-25.7561,1487.6572],[26.5204,-25.7553,1493.375],[26.5714,-25.7892,1520.9186],[26.58,-25.7827,1504.1421],[26.6437,-25.838,1565.491],[26.6435,-25.868,1572.3098],[26.6633,-25.8715,1564.0375],[26.6644,-25.8789,1579.474],[26.7031,-25.9283,1684.6577],[26.7075,-25.9224,1666.1624],[26.7493,-25.9261,1649.8584],[26.7515,-25.9308,1667.9214],[26.7606,-25.9354,1660.5391],[26.7705,-25.9523,1635.9797],[26.7636,-25.9911,1550.13],[26.8071,-26.084,1545.6846],[26.8479,-26.0597,1563.4404],[26.855,-26.059,1569.1865],[26.8562,-26.0676,1565.1943],[26.8654,-26.0688,1563.5107],[26.8667,-26.0613,1570.2101],[26.9174,-26.0711,1553.7726],[26.9321,-26.0316,1585.8927],[26.9784,-26.0551,1561.885],[26.9748,-26.0651,1571.7507],[27.0265,-26.0866,1616.3396],[27.0263,-26.0879,1616.3396],[27.0538,-26.1007,1605.5795],[27.0445,-26.1317,1551.8322],[27.0715,-26.0996,1600.2129],[27.0809,-26.0981,1599.4181],[27.0597,-26.1406,1544.7758],[27.0867,-26.1429,1532.1362],[27.0884,-26.114,1604.8774],[27.0927,-26.0961,1587.0629],[27.142,-26.1007,1549.7271],[27.1709,-26.0949,1491.5681],[27.1651,-25.9921,1508.4595],[27.1738,-25.9733,1553.475],[27.1835,-25.945,1554.0612]]]]}
,"properties": {"GID_3": "ZAF.7.1.1_1","GID_0": "ZAF","country": "SouthAfrica","GID_1": "ZAF.7_1","province": "NorthWest","NL_NAME_1": "NA","GID_2": "ZAF.7.1_1","county": "Bojanala","NL_NAME_2": "NA","city": "Kgetlengrivier","VARNAME_3": "NA","NL_NAME_3": "NA","TYPE_3": "LocalMunicipality","ENGTYPE_3": "LocalMunicipality","CC_3": "NW374","HASC_3": "NA","name": "Kgetlengrivier.city","area_km2": 3981.577,"hist_schema_id": "Elevation0-9000","hist_area_km2": {"1050": 34.999,"1075": 122.536,"1100": 176.714,"1125": 204.368,"1150": 157.121,"1175": 123.834,"1200": 129.503,"1225": 146.47,"1250": 155.078,"1275": 174.037,"1300": 173.385,"1325": 174.378,"1350": 172.655,"1375": 162.239,"1400": 157.529,"1425": 152.323,"1450": 123.471,"1475": 109.865,"1500": 138.383,"1525": 260.771,"1550": 350.728,"1575": 280.89,"1600": 207.502,"1625": 74.888,"1650": 16.535,"1675": 1.373}}}