{"type":"Feature","properties":{"GID_3":"ZAF.6.2.5_1","GID_0":"ZAF","country":"SouthAfrica","GID_1":"ZAF.6_1","province":"Mpumalanga","NL_NAME_1":"NA","GID_2":"ZAF.6.2_1","county":"GertSibande","NL_NAME_2":"NA","city":"Mkhondo","VARNAME_3":"NA","NL_NAME_3":"NA","TYPE_3":"LocalMunicipality","ENGTYPE_3":"LocalMunicipality","CC_3":"MP303","HASC_3":"NA","name":"Mkhondo.city"},
"geometry":{"type": "MultiPolygon","coordinates": [[[[30.7833,-27.3246,1045.009],[30.7845,-27.3242,1043.4139],[30.7855,-27.3192,1043.3809],[30.7804,-27.3169,1047.4509],[30.7786,-27.3144,1051.1442],[30.7889,-27.3128,1031.7117],[30.791,-27.3185,1024.0742],[30.7969,-27.3224,1013.1401],[30.7971,-27.3266,1024.637],[30.8041,-27.3243,998.9461],[30.8088,-27.3283,1003.3862],[30.8022,-27.3321,1001.6202],[30.8048,-27.3345,1002.595],[30.8114,-27.3324,1000.634],[30.8083,-27.3389,996.109],[30.8161,-27.3401,1005.0428],[30.8205,-27.3361,1000.2722],[30.8213,-27.3395,997.4047],[30.8282,-27.3433,989.9199],[30.8286,-27.3447,993.9338],[30.8233,-27.3458,990.3113],[30.8222,-27.3541,991.589],[30.8304,-27.35,989.82],[30.8378,-27.35,987.956],[30.8432,-27.3529,988.3555],[30.8448,-27.3517,995.6237],[30.8449,-27.3461,988.4114],[30.8499,-27.3433,989.189],[30.8543,-27.3444,983.3409],[30.8576,-27.3433,997.642],[30.8559,-27.337,981.7503],[30.8617,-27.3386,977.2339],[30.8618,-27.334,976.515],[30.8648,-27.3318,980.1606],[30.8637,-27.3195,976.2524],[30.8659,-27.3127,978.3575],[30.8752,-27.3143,974.0008],[30.8821,-27.3124,972.8119],[30.8841,-27.3088,977.3168],[30.8867,-27.3108,972.0137],[30.9023,-27.3081,979.3146],[30.9065,-27.3055,970.7543],[30.9097,-27.3054,969.6956],[30.9116,-27.3081,977.3893],[30.9155,-27.3054,970.8549],[30.9226,-27.3051,969.2174],[30.9245,-27.3114,966.0917],[30.921,-27.3187,991.3271],[30.9245,-27.3255,947.9985],[30.9233,-27.3305,946.3716],[30.9315,-27.3405,944.4356],[30.9393,-27.3466,928.6],[30.9382,-27.3568,898.4681],[30.9411,-27.3596,889.4366],[30.9405,-27.3658,873.2787],[30.9424,-27.3682,868.2864],[30.948,-27.3661,848.0316],[30.9554,-27.3597,831.5794],[30.9581,-27.3606,841.8725],[30.9599,-27.3641,820.6808],[30.9631,-27.3658,814.7347],[30.97,-27.3633,807.8326],[30.9774,-27.358,802.8799],[30.9815,-27.3592,802.7426],[30.9847,-27.3575,805.1502],[31.0026,-27.3588,798.007],[31.0055,-27.3511,776.442],[31.0084,-27.3488,771.8429],[31.0106,-27.3491,772.2509],[31.0139,-27.355,783.2142],[31.0205,-27.3606,753.8578],[31.0243,-27.3519,756.7456],[31.0309,-27.3463,742.0727],[31.0348,-27.3458,747.1113],[31.038,-27.3515,703.01],[31.044,-27.3533,710.5215],[31.0462,-27.3519,690.6534],[31.0484,-27.3451,683.5205],[31.0508,-27.3432,710.0943],[31.0652,-27.3383,673.4253],[31.0788,-27.3431,675.3405],[31.084,-27.3356,671.3943],[31.0988,-27.3298,646.4281],[31.1016,-27.3332,645.1224],[31.101,-27.3358,642.7002],[31.1409,-27.3627,1071.3105],[31.1659,-27.3685,861.8545],[31.2048,-27.3171,979.9731],[31.2748,-27.2429,902.6168],[31.1506,-27.2021,931.7006],[31.0613,-27.0963,1187.6685],[31.0218,-27.0678,1176.1912],[30.9848,-27.037,1253.9819],[30.9583,-26.9921,1302.5374],[30.9737,-26.9645,1314.8663],[30.9765,-26.9534,1310.9526],[30.9768,-26.9216,1146.5834],[30.9736,-26.9082,1068.2157],[30.943,-26.8882,1094.1613],[30.9407,-26.8839,1091.5775],[30.9372,-26.8831,1091.0962],[30.9252,-26.8718,1113.1516],[30.9074,-26.8599,1121.9949],[30.9069,-26.8549,1124.1661],[30.9023,-26.8518,1138.7007],[30.893,-26.8053,1307.9581],[30.8919,-26.7851,1178.4563],[30.89,-26.7876,1199.771],[30.8877,-26.7992,1263.9548],[30.8888,-26.802,1273.0986],[30.8873,-26.8036,1280.9307],[30.8249,-26.8404,1301.0095],[30.8132,-26.8445,1395.636],[30.8125,-26.8435,1395.636],[30.8027,-26.824,1413.3882],[30.7909,-26.7151,1441.7145],[30.7918,-26.5691,1519.0706],[30.8003,-26.5041,1501.9446],[30.7179,-26.4858,1488.3143],[30.7268,-26.5086,1476.9061],[30.6663,-26.5404,1504.2002],[30.6555,-26.5324,1567.8992],[30.6294,-26.5046,1528.5742],[30.6259,-26.5054,1545.3206],[30.6118,-26.5018,1549.5],[30.5929,-26.503,1550.149],[30.5816,-26.5092,1549.7258],[30.5805,-26.5056,1558.5259],[30.5611,-26.5057,1552.6088],[30.469,-26.5586,1621.5319],[30.5049,-26.604,1496.9099],[30.5016,-26.6077,1478.2509],[30.5252,-26.6258,1378.9657],[30.5497,-26.6404,1344.6376],[30.5952,-26.6369,1302.9103],[30.6147,-26.6442,1297.3906],[30.6152,-26.6508,1300.8665],[30.584,-26.6477,1289.7837],[30.5605,-26.6639,1450.3765],[30.5566,-26.6847,1337.7122],[30.5588,-26.6864,1325.3794],[30.5591,-26.6889,1320.3231],[30.5507,-26.6938,1337.8292],[30.5558,-26.6968,1333.563],[30.5539,-26.701,1344.2561],[30.5546,-26.7029,1352.7124],[30.5457,-26.6998,1340.5007],[30.5439,-26.7136,1382.5],[30.5336,-26.7209,1382.5],[30.5334,-26.7232,1382.5],[30.5287,-26.7214,1382.5],[30.5245,-26.7244,1382.5],[30.5165,-26.7238,1382.5],[30.517,-26.7271,1382.5],[30.5135,-26.73,1382.5],[30.5122,-26.7344,1382.5],[30.506,-26.7351,1382.5],[30.5015,-26.7292,1382.5],[30.4993,-26.7312,1382.5],[30.4993,-26.7355,1382.5],[30.496,-26.7333,1382.5],[30.4927,-26.7352,1382.5],[30.4907,-26.7424,1382.5],[30.4851,-26.7397,1382.5],[30.4838,-26.7413,1382.5],[30.4761,-26.7415,1382.5],[30.4721,-26.7452,1382.886],[30.4723,-26.7473,1383.1564],[30.4745,-26.7481,1384.876],[30.4748,-26.7512,1388.0376],[30.4716,-26.751,1396.9377],[30.4684,-26.7537,1390.703],[30.4664,-26.7517,1393.0084],[30.4643,-26.752,1391.401],[30.4592,-26.7569,1394.7908],[30.4491,-26.754,1395.0045],[30.4476,-26.7571,1395.8418],[30.4439,-26.7559,1396.7771],[30.4426,-26.7585,1397.605],[30.4396,-26.7558,1401.6348],[30.4351,-26.7561,1397.9109],[30.4361,-26.7538,1402.1454],[30.4332,-26.7507,1403.2343],[30.4329,-26.7562,1399.5898],[30.4314,-26.7581,1404.9346],[30.4233,-26.7585,1399.9958],[30.4217,-26.7552,1401.5148],[30.4234,-26.7537,1398.3093],[30.4187,-26.754,1403.6793],[30.416,-26.752,1399.1201],[30.4136,-26.7547,1399.3237],[30.4145,-26.7575,1408.1897],[30.4102,-26.7608,1402.0361],[30.4096,-26.7596,1402.0361],[30.4076,-26.7603,1408.6948],[30.4063,-26.7642,1404.6466],[30.4042,-26.7634,1404.1669],[30.4028,-26.7595,1428.74],[30.4018,-26.7605,1403.4712],[30.4011,-26.7593,1406.1764],[30.3985,-26.7664,1409.5386],[30.3658,-26.7712,1417.1885],[30.3659,-26.7741,1412.78],[30.3404,-26.7749,1441.6724],[30.3228,-26.8242,1449.8787],[30.2508,-26.8248,1730.7587],[30.2437,-26.8598,1709.3058],[30.2719,-26.9509,1555.2708],[30.2673,-26.974,1721.9927],[30.2708,-26.9734,1713.5518],[30.2711,-27.0095,1672.8373],[30.2947,-27.0215,1675.3296],[30.2957,-27.0162,1576.1803],[30.3342,-26.9906,1471.0984],[30.3607,-26.97,1442.7577],[30.3826,-26.9873,1370.0057],[30.3995,-27.0215,1396.2449],[30.3937,-27.0602,1320.8447],[30.3988,-27.0653,1317.8615],[30.3875,-27.0737,1320.6945],[30.3806,-27.117,1304.8113],[30.3617,-27.1266,1347.0015],[30.352,-27.1194,1328.2474],[30.3155,-27.1463,1382.8768],[30.3389,-27.1593,1329.5886],[30.3281,-27.1839,1472.3468],[30.353,-27.1924,1352.8298],[30.3676,-27.1999,1453.2484],[30.3851,-27.2189,1461.1578],[30.3948,-27.2196,1439.0425],[30.399,-27.2071,1437.644],[30.4177,-27.2118,1573.2234],[30.4485,-27.2072,2251.9448],[30.4889,-27.1765,1882.0643],[30.4997,-27.1709,1785.2988],[30.5339,-27.1691,1924.8989],[30.5435,-27.1745,2065.8071],[30.5512,-27.1746,2070.1382],[30.5669,-27.1695,1821.845],[30.5296,-27.2381,1411.3997],[30.5244,-27.2362,1497.2224],[30.5253,-27.2554,1431.1738],[30.5023,-27.2836,1620.5551],[30.5281,-27.2927,1585.5758],[30.5271,-27.3158,1762.8434],[30.5408,-27.3216,1650.5461],[30.5462,-27.3258,1691.0135],[30.5511,-27.3255,1705.1016],[30.5577,-27.3276,1721.1089],[30.5871,-27.3231,1626.6222],[30.6606,-27.2879,1334.7247],[30.7068,-27.2833,1087.1074],[30.7131,-27.2861,1087.5688],[30.7186,-27.284,1087.0348],[30.7179,-27.2872,1089.505],[30.7209,-27.2911,1086.3411],[30.7249,-27.2896,1086.5524],[30.7261,-27.2936,1084.6559],[30.7251,-27.2956,1089.1377],[30.7287,-27.2995,1086.6107],[30.7344,-27.2952,1086.16],[30.7405,-27.2946,1081.6259],[30.7412,-27.298,1079.5787],[30.7439,-27.3006,1086.4462],[30.7419,-27.3032,1072.6096],[30.7433,-27.3061,1074.677],[30.751,-27.2988,1072.7236],[30.7556,-27.3046,1073.9155],[30.7583,-27.3044,1090.469],[30.7629,-27.3076,1076.78],[30.76,-27.3136,1080.0374],[30.7628,-27.3145,1066.5085],[30.7662,-27.3193,1066.9277],[30.769,-27.319,1065.0896],[30.7708,-27.3263,1067.5217],[30.7742,-27.3243,1059.7023],[30.7833,-27.3246,1045.009]]]]}}