{"type":"Feature","properties":{"GID_3":"ZAF.6.2.6_1","GID_0":"ZAF","country":"SouthAfrica","GID_1":"ZAF.6_1","province":"Mpumalanga","NL_NAME_1":"NA","GID_2":"ZAF.6.2_1","county":"GertSibande","NL_NAME_2":"NA","city":"Msukaligwa","VARNAME_3":"NA","NL_NAME_3":"NA","TYPE_3":"LocalMunicipality","ENGTYPE_3":"LocalMunicipality","CC_3":"MP302","HASC_3":"NA","name":"Msukaligwa.city"},
"geometry":{"type": "MultiPolygon","coordinates": [[[[29.8435,-26.7823,1634.78],[29.843,-26.7995,1579.9602],[29.846,-26.7978,1589.8958],[29.8519,-26.798,1575.2811],[29.8514,-26.8006,1575.8289],[29.859,-26.8042,1582.592],[29.8658,-26.8098,1577.1781],[29.863,-26.8133,1578.1479],[29.8643,-26.8139,1578.1479],[29.8709,-26.8075,1576.6543],[29.8692,-26.8009,1576.528],[29.8707,-26.7995,1575.8585],[29.8672,-26.7885,1580.3898],[29.8697,-26.7853,1581.6714],[29.8738,-26.7866,1576.2964],[29.8747,-26.7908,1578.8466],[29.8807,-26.789,1578.3846],[29.882,-26.7929,1577.2571],[29.8842,-26.7876,1577.8815],[29.8878,-26.7868,1577.4231],[29.8881,-26.785,1577.9817],[29.8856,-26.784,1579.3987],[29.8875,-26.7828,1579.7601],[29.8911,-26.7868,1577.6979],[29.8899,-26.788,1577.4546],[29.8923,-26.7888,1577.7201],[29.893,-26.7924,1579.9712],[29.8994,-26.7963,1596.1301],[29.9008,-26.7959,1579.5032],[29.9025,-26.7877,1581.1644],[29.9045,-26.7866,1583.2074],[29.9128,-26.7968,1579.653],[29.9139,-26.7853,1583.7025],[29.9184,-26.7908,1578.9161],[29.9218,-26.7892,1580.1143],[29.9211,-26.7866,1584.1699],[29.9193,-26.787,1577.8655],[29.9201,-26.7843,1583.3375],[29.9171,-26.7826,1581.4762],[29.9187,-26.7817,1583.5852],[29.9188,-26.7793,1579.1804],[29.9235,-26.7771,1581.552],[29.9228,-26.7706,1580.135],[29.9261,-26.7643,1590.5066],[29.929,-26.7653,1578.8198],[29.9351,-26.7642,1579.2943],[29.9347,-26.766,1579.093],[29.9371,-26.7631,1584.3838],[29.9638,-26.7707,1597.8367],[29.9948,-26.6977,1645.059],[30.0459,-26.7182,1609.9955],[30.053,-26.7087,1593.1484],[30.1112,-26.7363,1662.6958],[30.1279,-26.7289,1699.196],[30.1529,-26.7722,1665.9038],[30.1278,-26.7855,1619.7429],[30.1379,-26.8348,1601.1769],[30.167,-26.835,1601.2532],[30.1742,-26.8598,1692.1433],[30.2022,-26.8588,1654.3116],[30.189,-26.817,1621.5616],[30.2508,-26.8248,1730.7587],[30.3228,-26.8242,1449.8787],[30.3404,-26.7749,1441.6724],[30.3659,-26.7741,1412.78],[30.3658,-26.7712,1417.1885],[30.3985,-26.7664,1409.5386],[30.4011,-26.7593,1406.1764],[30.4018,-26.7605,1403.4712],[30.4028,-26.7595,1428.74],[30.4042,-26.7634,1404.1669],[30.4063,-26.7642,1404.6466],[30.4076,-26.7603,1408.6948],[30.4096,-26.7596,1402.0361],[30.4102,-26.7608,1402.0361],[30.4145,-26.7575,1408.1897],[30.4136,-26.7547,1399.3237],[30.416,-26.752,1399.1201],[30.4187,-26.754,1403.6793],[30.4234,-26.7537,1398.3093],[30.4217,-26.7552,1401.5148],[30.4233,-26.7585,1399.9958],[30.4314,-26.7581,1404.9346],[30.4329,-26.7562,1399.5898],[30.4332,-26.7507,1403.2343],[30.4361,-26.7538,1402.1454],[30.4351,-26.7561,1397.9109],[30.4396,-26.7558,1401.6348],[30.4426,-26.7585,1397.605],[30.4439,-26.7559,1396.7771],[30.4476,-26.7571,1395.8418],[30.4491,-26.754,1395.0045],[30.4592,-26.7569,1394.7908],[30.4643,-26.752,1391.401],[30.4664,-26.7517,1393.0084],[30.4684,-26.7537,1390.703],[30.4716,-26.751,1396.9377],[30.4748,-26.7512,1388.0376],[30.4745,-26.7481,1384.876],[30.4723,-26.7473,1383.1564],[30.4721,-26.7452,1382.886],[30.4761,-26.7415,1382.5],[30.4838,-26.7413,1382.5],[30.4851,-26.7397,1382.5],[30.4907,-26.7424,1382.5],[30.4927,-26.7352,1382.5],[30.496,-26.7333,1382.5],[30.4993,-26.7355,1382.5],[30.4993,-26.7312,1382.5],[30.5015,-26.7292,1382.5],[30.506,-26.7351,1382.5],[30.5129,-26.7341,1382.5],[30.5135,-26.73,1382.5],[30.517,-26.727,1382.5],[30.5165,-26.7238,1382.5],[30.5245,-26.7244,1382.5],[30.5287,-26.7214,1382.5],[30.5334,-26.7232,1382.5],[30.5336,-26.7209,1382.5],[30.5439,-26.7136,1382.5],[30.5457,-26.6998,1340.5007],[30.5546,-26.7029,1352.7124],[30.5539,-26.701,1344.2561],[30.5558,-26.6968,1333.563],[30.5507,-26.6938,1337.8292],[30.5591,-26.6889,1320.3231],[30.5588,-26.6864,1325.3794],[30.5566,-26.6847,1337.7122],[30.5605,-26.6639,1450.3765],[30.584,-26.6477,1289.7837],[30.6152,-26.6508,1300.8665],[30.6147,-26.6442,1297.3906],[30.5952,-26.6369,1302.9103],[30.5497,-26.6404,1344.6376],[30.5252,-26.6258,1378.9657],[30.5016,-26.6077,1478.2509],[30.5049,-26.604,1496.9099],[30.469,-26.5586,1621.5319],[30.5611,-26.5057,1552.6088],[30.5805,-26.5056,1558.5259],[30.5816,-26.5092,1549.7258],[30.5929,-26.503,1550.149],[30.6118,-26.5018,1549.5],[30.6259,-26.5054,1545.3206],[30.6294,-26.5046,1528.5742],[30.6555,-26.5324,1567.8992],[30.6663,-26.5404,1504.2002],[30.7268,-26.5086,1476.9061],[30.7179,-26.4858,1488.3143],[30.7144,-26.4854,1475.5796],[30.6987,-26.4446,1560.873],[30.7033,-26.4433,1548.6255],[30.719,-26.4144,1562.5806],[30.7682,-26.413,1568.1666],[30.7487,-26.3745,1560.6736],[30.7328,-26.3664,1605.7461],[30.7555,-26.3328,1574.6562],[30.7277,-26.3122,1604.1484],[30.6886,-26.3061,1667.6721],[30.6107,-26.3169,1639.5361],[30.621,-26.2646,1477.1926],[30.6242,-26.2638,1474.5662],[30.6267,-26.2661,1475.0264],[30.6242,-26.2588,1531.6837],[30.5928,-26.208,1769.7924],[30.5744,-26.2127,1697.0657],[30.5755,-26.2142,1718.0402],[30.574,-26.215,1723.0603],[30.5651,-26.2154,1734.5691],[30.5543,-26.2188,1736.7936],[30.5541,-26.2178,1733.795],[30.4939,-26.233,1785.0728],[30.3908,-26.1783,1798.4056],[30.358,-26.1707,1753.4733],[30.35,-26.1879,1697.917],[30.36,-26.2062,1690.094],[30.3435,-26.2214,1702.5935],[30.3218,-26.1837,1747.0347],[30.2286,-26.218,1731.7728],[30.2095,-26.2201,1736.0391],[30.2082,-26.2015,1734.6147],[30.1772,-26.2497,1775.6631],[30.1563,-26.2581,1759.2263],[30.1523,-26.2149,1744.7899],[30.0619,-26.2096,1700.506],[30.0489,-26.1924,1680.5648],[29.9981,-26.2179,1710.0948],[29.9691,-26.2434,1700.1133],[29.9411,-26.2166,1669.2567],[29.9006,-26.221,1693.0181],[29.8991,-26.2169,1700.6763],[29.8447,-26.2216,1731.5785],[29.836,-26.2458,1744.9469],[29.8047,-26.1895,1714.1829],[29.7588,-26.2254,1690.257],[29.7154,-26.2038,1715.4619],[29.7051,-26.2281,1653.8818],[29.6975,-26.2276,1639.8347],[29.6974,-26.2316,1640.938],[29.6676,-26.2446,1638.6372],[29.6492,-26.2423,1632.1768],[29.5943,-26.2398,1627.9646],[29.5909,-26.2404,1629.1838],[29.5858,-26.2534,1613.5789],[29.5403,-26.2539,1633.7418],[29.5422,-26.2764,1645.1544],[29.5296,-26.2688,1641.4463],[29.5167,-26.2809,1588.7565],[29.527,-26.288,1585.5839],[29.5231,-26.3015,1601.4929],[29.4703,-26.3032,1630.0229],[29.4731,-26.335,1653.8643],[29.4687,-26.3525,1658.442],[29.534,-26.3528,1608.1096],[29.5079,-26.3866,1658.595],[29.5468,-26.4104,1667.7557],[29.5662,-26.4428,1702.1405],[29.6034,-26.435,1718.484],[29.6066,-26.4458,1714.0591],[29.6255,-26.4632,1724.1423],[29.6291,-26.4815,1725.8901],[29.6192,-26.5291,1700.0298],[29.6396,-26.5297,1700.6438],[29.6418,-26.5808,1731.3538],[29.6404,-26.6279,1704.6049],[29.7042,-26.6499,1660.1406],[29.7419,-26.6447,1628.8878],[29.7422,-26.6563,1614.6656],[29.7992,-26.6547,1635.0874],[29.8226,-26.6694,1634.2477],[29.8699,-26.6502,1626.1055],[29.8443,-26.7566,1612.9388],[29.8435,-26.7823,1634.78]]]]}}