{"type": "Feature","bbox": [19.8804,-34.4523,21.0103,-33.622],"geometry": {"type": "MultiPolygon","coordinates": [[[[20.3244,-33.9496,1575.7731],[20.2344,-33.8979,1061.3068],[20.2225,-33.9128,483.6143],[20.2269,-33.9139,450.3855],[20.2584,-33.9417,280.7572],[20.2832,-33.9574,240.8968],[20.2803,-33.9538,325.6766],[20.2843,-33.9544,379.5546],[20.2909,-33.9609,483.4285],[20.2969,-33.964,385.4586],[20.328,-33.973,412.3872],[20.3178,-33.9936,187.9152],[20.3242,-34.0018,179.5261],[20.3138,-34.0017,264.3229],[20.3071,-34.0056,228.7702],[20.3041,-34.014,209.3194],[20.3046,-34.0228,136.3581],[20.3071,-34.0294,156.0951],[20.2959,-34.0363,107.2826],[20.2908,-34.0419,123.8],[20.2792,-34.0396,81.7004],[20.284,-34.0414,78.2572],[20.2865,-34.0511,97.0274],[20.2945,-34.0504,126.9756],[20.2989,-34.0603,129.5932],[20.2858,-34.065,74.0248],[20.2856,-34.07,75.1141],[20.2873,-34.0719,76.2838],[20.2861,-34.0789,75.7536],[20.2901,-34.0801,77.2409],[20.3024,-34.0762,80.7544],[20.3057,-34.0773,72.7981],[20.2913,-34.0913,115.0525],[20.2701,-34.0902,99.7006],[20.2727,-34.1062,109.4855],[20.2497,-34.1061,135.9045],[20.2468,-34.1173,186.6473],[20.2218,-34.1111,181.3781],[20.2244,-34.1023,136.9366],[20.2291,-34.1007,158.1717],[20.23,-34.0952,211.4801],[20.2031,-34.0884,302.2285],[20.1974,-34.1005,221.0076],[20.1873,-34.102,216.7063],[20.1877,-34.0974,302.6526],[20.1405,-34.0854,99.9649],[20.1413,-34.084,100.565],[20.1376,-34.0824,101.327],[20.1493,-34.0766,108.1212],[20.15,-34.0784,170.757],[20.2022,-34.0786,138.632],[20.2049,-34.0655,99.8113],[20.2003,-34.053,141.1271],[20.1925,-34.0462,168.7956],[20.1961,-34.04,171.9891],[20.1859,-34.0359,195.0307],[20.1778,-34.0298,219.2241],[20.1724,-34.0398,178.9125],[20.1615,-34.0409,146.5604],[20.1517,-34.0446,142.8982],[20.1425,-34.0559,184.7453],[20.1417,-34.0592,255.4281],[20.0808,-34.0646,197.6521],[20.0328,-34.0597,640.6639],[20.0085,-34.0639,615.822],[20.0108,-34.0915,339.3532],[19.9924,-34.1051,290.8757],[19.9896,-34.1153,212.0035],[20.0029,-34.1284,125.2948],[19.9953,-34.1312,127.4729],[19.9811,-34.1326,127.861],[19.9862,-34.1404,123.8908],[19.9879,-34.147,166.2261],[19.9848,-34.1574,159.3304],[19.9798,-34.1663,159.2082],[19.965699999999998,-34.1763,223.0219],[19.9383,-34.1728,145.8097],[19.9374,-34.1819,169.2028],[19.9325,-34.181,156.3785],[19.9347,-34.1713,142.7884],[19.9313,-34.1625,154.1409],[19.9281,-34.1716,172.8491],[19.8932,-34.1748,176.8014],[19.8914,-34.1925,243.0484],[19.9059,-34.1936,210.5684],[19.9009,-34.2147,294.6286],[19.8899,-34.207,288.9641],[19.889,-34.2156,278.6871],[19.8804,-34.2201,288.5941],[19.9177,-34.2383,288.9351],[19.94,-34.2396,252.4584],[19.9778,-34.2132,282.1545],[20.011,-34.2206,276.8452],[20.0324,-34.2036,267.5757],[20.0635,-34.217,273.0027],[20.0655,-34.2413,232.0292],[20.0948,-34.2506,226.2472],[20.1113,-34.2427,212.4619],[20.134,-34.2504,204.6785],[20.1486,-34.2712,213.0175],[20.175,-34.2793,158.1143],[20.1772,-34.2752,177.4398],[20.2119,-34.2883,227.1726],[20.2449,-34.2889,187.6405],[20.2621,-34.2742,283.1497],[20.2913,-34.2763,188.288],[20.2827,-34.302,284.7899],[20.2675,-34.3136,184.6048],[20.2818,-34.338,131.8724],[20.2857,-34.3371,152.5751],[20.2863,-34.3451,163.7524],[20.2637,-34.375,106.361],[20.2715,-34.375,107.845],[20.2891,-34.4178,149.1534],[20.3307,-34.3986,137.6636],[20.3573,-34.3884,113.7452],[20.392,-34.4263,171.3538],[20.4198,-34.4186,192.2205],[20.4186,-34.4268,97.3283],[20.4547,-34.417,179.5024],[20.5085,-34.4195,168.7529],[20.5,-34.4061,197.0113],[20.4848,-34.4013,190.9709],[20.4834,-34.373,123.2481],[20.5111,-34.3713,160.0065],[20.5178,-34.3732,138.2003],[20.5194,-34.3658,180.7968],[20.528199999999998,-34.3646,244.1217],[20.5271,-34.3614,289.5492],[20.5317,-34.3605,287.7236],[20.5611,-34.3633,298.4903],[20.6026,-34.3798,264.0689],[20.6009,-34.3826,357.6893],[20.6593,-34.3992,205.8719],[20.6829,-34.3888,90.3267],[20.6878,-34.4176,399.3586],[20.7118,-34.4127,283.1658],[20.7629,-34.4172,296.0648],[20.7741,-34.4235,174.349],[20.775,-34.4265,143.6815],[20.7821,-34.4242,103.4401],[20.8168,-34.4289,99.6587],[20.8181,-34.443,181.4699],[20.8718,-34.4523,0.5989],[20.871,-34.4493,0.0],[20.8721,-34.4479,0.0],[20.8707,-34.4465,0.0],[20.8718,-34.4379,0.0],[20.8682,-34.4351,28.6349],[20.8682,-34.4318,6.9616],[20.8701,-34.4315,0.0],[20.8701,-34.4301,0.0],[20.8676,-34.4263,2.3666],[20.8607,-34.4251,10.8374],[20.8568,-34.4218,0.0],[20.8568,-34.419,0.0],[20.8543,-34.416,0.0],[20.8549,-34.4101,0.0],[20.8512,-34.4101,0.0],[20.8535,-34.3989,0.0],[20.85,-34.4034,0.0],[20.82,-34.4013,0.0],[20.8105,-34.4028,0.0],[20.8014,-34.4081,0.0],[20.7954,-34.4072,0.0],[20.7666,-34.3946,0.0],[20.75,-34.392,0.0],[20.7346,-34.3875,0.0],[20.7216,-34.379,0.0],[20.7066,-34.364,0.0],[20.6907,-34.3587,0.0],[20.6874,-34.3539,0.0],[20.6875,-34.3473,0.0],[20.6856,-34.3465,0.0],[20.6688,-34.3498,0.0],[20.6558,-34.3485,0.2912],[20.6477,-34.3549,2.2933],[20.6419,-34.3555,0.3975],[20.6359,-34.3533,0.696],[20.6294,-34.3449,2.0581],[20.6224,-34.3436,0.0],[20.6085,-34.3467,1.3248],[20.6029,-34.352,0.652],[20.5977,-34.3519,1.1884],[20.5963,-34.348,0.0],[20.6042,-34.3348,0.9348],[20.6046,-34.3245,20.4207],[20.6084,-34.321,5.6607],[20.6196,-34.3185,3.0765],[20.6221,-34.3165,4.7048],[20.6223,-34.3133,0.0],[20.6178,-34.3027,15.4081],[20.6136,-34.3016,0.4559],[20.6022,-34.305,0.0],[20.5914,-34.3043,3.1477],[20.5891,-34.298,34.6428],[20.5828,-34.2947,3.5537],[20.5788,-34.2952,1.3541],[20.5736,-34.3012,1.2763],[20.5682,-34.3042,4.6324],[20.5656,-34.3028,1.4743],[20.5656,-34.2993,0.5],[20.5726,-34.283,26.0908],[20.5747,-34.2834,30.3285],[20.5994,-34.2729,62.2325],[20.6377,-34.2429,170.6509],[20.6392,-34.2343,148.0071],[20.6528,-34.2236,154.1595],[20.6928,-34.2024,181.1488],[20.6996,-34.2132,223.8812],[20.7189,-34.1955,194.529],[20.6969,-34.1843,172.595],[20.6865,-34.1874,160.0477],[20.6649,-34.1885,154.0049],[20.6543,-34.1714,141.2826],[20.6453,-34.1755,100.5022],[20.6497,-34.1491,192.8581],[20.6562,-34.1448,218.5203],[20.6421,-34.1353,181.9007],[20.6475,-34.126,175.299],[20.6487,-34.1194,202.6023],[20.6474,-34.1092,177.6447],[20.6393,-34.0976,242.9863],[20.6401,-34.086,216.1429],[20.6605,-34.089,288.0915],[20.6873,-34.0874,248.1536],[20.691,-34.0891,260.1469],[20.693,-34.1008,257.2285],[20.7043,-34.0909,241.8576],[20.7032,-34.0881,230.1621],[20.7209,-34.0925,264.6657],[20.7335,-34.0933,279.6191],[20.7543,-34.0973,197.414],[20.7404,-34.0713,309.1942],[20.7476,-34.0667,360.3992],[20.7286,-34.0575,345.3617],[20.7227,-34.0368,228.1732],[20.7101,-34.0402,270.9495],[20.6999,-34.0397,328.1314],[20.694,-34.0068,157.3792],[20.7107,-34.0102,143.2189],[20.7119,-34.0123,155.0506],[20.71,-34.0165,214.5824],[20.7128,-34.0179,183.3616],[20.7296,-34.0181,231.7778],[20.7281,-34.0066,141.2294],[20.7321,-33.9989,212.875],[20.729,-33.9884,375.5503],[20.7178,-33.9865,195.1522],[20.7153,-33.9884,183.8048],[20.7052,-33.9902,163.0343],[20.7083,-33.9851,211.7473],[20.7064,-33.9826,205.9227],[20.7073,-33.9802,209.8418],[20.7008,-33.9782,252.1753],[20.6995,-33.9763,242.1187],[20.6947,-33.976,217.891],[20.7024,-33.9677,240.3571],[20.7021,-33.9609,260.4473],[20.707,-33.9591,274.6819],[20.7073,-33.9551,284.6491],[20.8066,-33.9464,1056.1326],[20.8164,-33.9402,1131.3137],[20.8191,-33.9405,1105.1658],[20.8195,-33.9469,714.8643],[20.8272,-33.9615,400.3475],[20.8267,-33.9658,354.0269],[20.8296,-33.9652,363.0356],[20.8331,-33.9675,344.9799],[20.8342,-33.9717,313.5569],[20.8411,-33.9732,318.6108],[20.8419,-33.9648,451.5645],[20.8456,-33.9628,520.3618],[20.8539,-33.9632,692.8312],[20.8678,-33.955,970.8613],[20.8782,-33.964,391.8288],[20.9215,-33.9528,688.332],[20.9364,-33.9612,734.9629],[20.934,-33.9476,1260.5889],[20.9386,-33.925,1159.656],[20.9524,-33.9018,736.7577],[20.9238,-33.8893,723.4695],[20.9361,-33.8792,505.5634],[20.9568,-33.8063,491.3712],[20.9656,-33.8043,472.418],[21.0103,-33.7566,378.6599],[20.9806,-33.7396,357.4497],[20.965699999999998,-33.7426,337.9407],[20.9341,-33.7246,368.9147],[20.9388,-33.6998,510.4133],[20.8799,-33.6926,467.5436],[20.885,-33.7174,508.8414],[20.8003,-33.715,573.8123],[20.8095,-33.6985,452.6268],[20.8072,-33.6898,442.0438],[20.7756,-33.6917,514.9557],[20.7378,-33.6592,417.0976],[20.7189,-33.6406,438.6609],[20.666,-33.622,607.9998],[20.6455,-33.6362,607.1833],[20.5862,-33.6672,645.4331],[20.5816,-33.6221,714.933],[20.5033,-33.637,693.8564],[20.5352,-33.6607,632.3482],[20.5039,-33.682,821.6732],[20.4692,-33.682,852.3441],[20.4728,-33.7292,843.9562],[20.4479,-33.774,879.2733],[20.5145,-33.8026,757.1481],[20.4805,-33.8228,884.4339],[20.4684,-33.8183,930.3782],[20.4682,-33.8134,856.1802],[20.4502,-33.8068,1030.8899],[20.4437,-33.8101,1049.9413],[20.4266,-33.811,1042.0022],[20.4415,-33.8198,923.4065],[20.4354,-33.8264,1000.8821],[20.4417,-33.8371,978.1335],[20.4425,-33.8579,818.8969],[20.4608,-33.8764,788.1437],[20.4683,-33.8803,761.423],[20.4699,-33.8897,780.8879],[20.4695,-33.8957,763.9043],[20.4602,-33.9063,681.3814],[20.436,-33.9577,1608.7183],[20.3244,-33.9496,1575.7731]]]]}
,"properties": {"GID_3": "ZAF.9.5.3_1","GID_0": "ZAF","country": "SouthAfrica","GID_1": "ZAF.9_1","province": "WesternCape","NL_NAME_1": "NA","GID_2": "ZAF.9.5_1","county": "Overberg","NL_NAME_2": "NA","city": "Swellendam","VARNAME_3": "NA","NL_NAME_3": "NA","TYPE_3": "LocalMunicipality","ENGTYPE_3": "LocalMunicipality","CC_3": "WC034","HASC_3": "NA","name": "Swellendam.city","area_km2": 3837.076,"hist_schema_id": "Elevation0-9000","hist_area_km2": {"0": 19.169,"25": 39.683,"50": 113.037,"75": 198.939,"100": 259.324,"125": 291.954,"150": 303.27,"175": 299.204,"200": 249.07,"225": 181.09,"250": 121.349,"275": 81.706,"300": 41.078,"325": 14.948,"350": 24.529,"375": 49.019,"400": 57.967,"425": 67.722,"450": 75.32,"475": 81.406,"500": 89.467,"525": 94.438,"550": 79.535,"575": 72.66,"600": 67.074,"625": 60.764,"650": 58.043,"675": 66.778,"700": 78.382,"725": 77.373,"750": 71.992,"775": 63.509,"800": 48.1,"825": 40.684,"850": 35.54,"875": 31.591,"900": 28.949,"925": 20.316,"950": 17.813,"975": 16.985,"1000": 15.047,"1025": 13.868,"1050": 13.092,"1075": 11.685,"1100": 10.646,"1125": 10.101,"1150": 8.956,"1175": 8.552,"1200": 7.725,"1225": 6.634,"1250": 6.704,"1275": 6.036,"1300": 5.419,"1325": 4.627,"1350": 3.483,"1375": 3.008,"1400": 2.339,"1425": 2.322,"1450": 1.794,"1475": 1.671,"1500": 1.266,"1525": 0.792,"1550": 0.598,"1575": 0.405,"1600": 0.123,"1625": 0.176,"1650": 0.106,"1675": 0.106}}}