{"type":"Feature","properties":{"GID_3":"ZAF.4.6.3_1","GID_0":"ZAF","country":"SouthAfrica","GID_1":"ZAF.4_1","province":"KwaZulu-Natal","NL_NAME_1":"NA","GID_2":"ZAF.4.6_1","county":"Umgungundlovu","NL_NAME_2":"NA","city":"Mpofana","VARNAME_3":"NA","NL_NAME_3":"NA","TYPE_3":"LocalMunicipality","ENGTYPE_3":"LocalMunicipality","CC_3":"KZN223","HASC_3":"NA","name":"Mpofana.city"},
"geometry":{"type": "MultiPolygon","coordinates": [[[[30.1527,-29.2455,1619.6322],[30.1674,-29.2535,1659.995],[30.1683,-29.2557,1655.2273],[30.2082,-29.2516,1665.204],[30.205,-29.3049,1643.1244],[30.2214,-29.2921,1575.0164],[30.2329,-29.293,1580.0399],[30.2502,-29.3036,1661.932],[30.2763,-29.3092,1656.0723],[30.2867,-29.3045,1669.8782],[30.3026,-29.2649,1536.4226],[30.3063,-29.24,1553.4088],[30.3345,-29.2355,1541.6962],[30.3276,-29.2139,1489.5247],[30.314,-29.2193,1422.3269],[30.3115,-29.2094,1437.8635],[30.315,-29.2065,1400.7698],[30.3157,-29.1969,1356.2299],[30.3174,-29.1981,1360.1833],[30.3216,-29.196,1388.2456],[30.3223,-29.1853,1424.5651],[30.3513,-29.1395,1511.0176],[30.3636,-29.123,1438.6382],[30.3659,-29.0997,1261.4827],[30.3741,-29.0685,1160.4574],[30.3596,-29.0415,876.8065],[30.3678,-29.0404,874.9339],[30.3639,-29.0342,859.4498],[30.3597,-29.0329,852.6993],[30.3588,-29.0307,907.3943],[30.3374,-29.0311,1168.5435],[30.3495,-29.0172,1027.6421],[30.3507,-29.0107,885.8582],[30.3447,-29.0077,937.8048],[30.3474,-28.9987,979.5649],[30.3668,-28.9971,855.7579],[30.367,-28.9958,834.6057],[30.3626,-28.9945,867.324],[30.3602,-28.9918,869.4434],[30.3602,-28.9891,875.5396],[30.3617,-28.9869,856.153],[30.3701,-28.9831,863.1215],[30.3404,-28.9718,1025.6718],[30.3214,-28.9387,1262.1396],[30.2875,-28.9149,1254.8936],[30.2237,-28.9457,1520.8198],[30.2314,-28.9642,1380.2141],[30.2302,-28.979,1413.9988],[30.2296,-28.984,1519.8228],[30.2185,-28.9982,1676.0522],[30.2151,-28.9806,1476.5763],[30.1977,-28.9801,1500.5803],[30.187,-28.9594,1483.1029],[30.1737,-28.9776,1474.1987],[30.155,-28.9793,1172.9193],[30.1501,-28.9956,1421.7998],[30.0862,-28.9665,1148.8728],[30.0718,-29.0119,1281.9052],[30.0503,-29.0272,1348.5127],[30.0634,-29.056,1567.1736],[30.028,-29.0593,1509.6846],[30.0258,-29.0896,1610.2637],[29.9857,-29.0863,1531.5458],[29.9623,-29.0997,1523.9745],[29.9498,-29.1312,1586.5491],[29.9269,-29.1218,1687.7079],[29.8998,-29.15,1649.6455],[29.8923,-29.1617,1655.6917],[29.8731,-29.183,1692.5936],[29.8685,-29.1978,1725.2391],[29.8549,-29.2181,1567.5692],[29.8291,-29.2198,1596.4426],[29.8001,-29.2171,1541.3181],[29.7972,-29.1882,1577.0789],[29.787,-29.1974,1524.2816],[29.7806,-29.1928,1526.5839],[29.7557,-29.2069,1599.8441],[29.7306,-29.227,1633.8345],[29.7648,-29.2173,1533.8671],[29.768,-29.2207,1532.6543],[29.7535,-29.2421,1598.5625],[29.7538,-29.2833,1629.1716],[29.7037,-29.2951,1687.7267],[29.6922,-29.3013,1790.0591],[29.6857,-29.3025,1847.3999],[29.6844,-29.3008,1876.4187],[29.6867,-29.2985,1903.5332],[29.6789,-29.2959,1857.9126],[29.6722,-29.2981,1914.2953],[29.6521,-29.2971,1869.3542],[29.6442,-29.2934,1852.7057],[29.6318,-29.2915,1787.8049],[29.631,-29.2856,1642.792],[29.628,-29.2854,1693.0065],[29.6361,-29.2789,1750.0568],[29.6387,-29.2726,1771.4426],[29.6459,-29.2706,1775.8484],[29.6511,-29.2628,1782.274],[29.6681,-29.2573,1595.3744],[29.6661,-29.2549,1643.5662],[29.6552,-29.256,1894.3383],[29.6303,-29.2688,1912.2307],[29.6097,-29.2486,1656.101],[29.5698,-29.2904,1829.2758],[29.5786,-29.2991,1758.9824],[29.5786,-29.3355,2053.9321],[29.5591,-29.3375,2203.9404],[29.5401,-29.3513,2290.4194],[29.5221,-29.3301,2282.3806],[29.5152,-29.3261,2191.2014],[29.5068,-29.3398,2412.1968],[29.5148,-29.342,2524.4751],[29.5255,-29.3605,2520.698],[29.5268,-29.3714,2480.3809],[29.5548,-29.369,2295.4214],[29.6133,-29.4085,2182.7998],[29.6385,-29.3999,2144.458],[29.6766,-29.4154,2074.4414],[29.6899,-29.4028,2103.3713],[29.7106,-29.3922,1718.8789],[29.7423,-29.3879,1636.2214],[29.7645,-29.3804,1722.2473],[29.7637,-29.3704,1850.5753],[29.7962,-29.3664,1799.9316],[29.8417,-29.358,1722.7427],[29.8536,-29.3502,1764.4304],[29.8634,-29.3405,1738.4263],[29.8925,-29.3525,1443.5],[29.8937,-29.344,1448.2366],[29.8968,-29.3444,1436.3918],[29.9056,-29.3393,1434.8597],[29.909,-29.3335,1420.5],[29.9143,-29.3302,1420.5],[29.9162,-29.3325,1420.5],[29.9178,-29.3409,1420.5],[29.9208,-29.3396,1433.9865],[29.9222,-29.3356,1425.0179],[29.9273,-29.3363,1426.1157],[29.9262,-29.3326,1421.7225],[29.9285,-29.3321,1420.5],[29.9318,-29.328,1420.5],[29.9307,-29.3191,1420.5],[29.9318,-29.3178,1420.5],[29.9336,-29.3192,1420.5],[29.9358,-29.3162,1420.5],[29.9415,-29.3206,1420.5],[29.9449,-29.3212,1420.5],[29.9495,-29.326,1420.5],[29.9554,-29.3274,1420.5],[29.9571,-29.3267,1420.5],[29.9591,-29.3208,1426.9893],[29.965,-29.3227,1420.5],[29.9946,-29.3482,1455.0151],[30.0056,-29.3385,1489.4238],[30.0118,-29.2967,1583.3596],[30.0235,-29.2951,1554.9249],[30.0481,-29.2646,1553.1383],[30.0566,-29.2879,1567.3113],[30.0747,-29.2753,1599.4199],[30.0917,-29.2667,1544.6039],[30.1125,-29.2592,1568.4924],[30.1227,-29.2451,1721.4078],[30.1448,-29.2469,1596.6323],[30.1527,-29.2455,1619.6322]]]]}}