{"type":"Feature","properties":{"featurecla":"Reservoir","scalerank":7,"name":"Bloemhof Dam","name_abb":"Bloemhof Dam","name_alt":"Oppermansdrif Dam","note":null,"delta":null,"dam_name":"Bloemhofdam (Oppermansdrift)","year":1970,"admin":null,"min_zoom":5.7,"min_label":6.7},
"geometry":{"type": "Polygon","coordinates": [[[26.093470515272941,-27.6071202490987,1246.2129],[26.087877596857425,-27.599761145920411,1240.6147],[26.080518493679136,-27.607414613225842,1226.5],[26.058441184144272,-27.623899004345219,1253.9259],[26.053731358110156,-27.630375015142107,1251.3833],[26.051082080965983,-27.638028482447538,1249.1062],[26.033125869210949,-27.675412726593237,1249.5918],[26.022528760634202,-27.667464895160691,1241.3119],[26.018702026981487,-27.65480723769403,1247.9081],[26.019585119362887,-27.623899004345219,1258.2603],[26.013992200947371,-27.617128629421188,1255.2384],[26.000157086972195,-27.611830075132815,1254.1636],[25.955708103775322,-27.603587879573126,1236.8596],[25.932747701859029,-27.590341493852208,1241.731],[25.917146403121052,-27.585926031945235,1236.9716],[25.903311289145876,-27.586809124326606,1234.65],[25.891831088187729,-27.590047129725065,1229.9038],[25.880645251356725,-27.591224586233579,1226.5211],[25.868870686271464,-27.585926031945235,1230.7834],[25.864455224364491,-27.577683836385546,1232.0649],[25.86268903960169,-27.565909271300256,1229.6055],[25.859745398330375,-27.555606526850653,1226.5],[25.852091931024972,-27.55119106494368,1226.5],[25.793807833852895,-27.561493809393284,1234.3671],[25.699905677297892,-27.602410423064583,1226.5],[25.661932704897907,-27.626548281489391,1234.1586],[25.629552650913411,-27.656279058329687,1226.5],[25.614834444556834,-27.6889534764413,1238.4309],[25.618072449955292,-27.713680063120364,1241.969],[25.630141379167696,-27.725748992332768,1240.9031],[25.648980683304103,-27.729575725985484,1226.5],[25.674001634110311,-27.7298700901126,1237.4756],[25.686659291576973,-27.731930639002542,1234.9148],[25.695490215390919,-27.736640465036629,1234.9084],[25.711091514128896,-27.750475579011834,1234.7837],[25.745237752876164,-27.770786703783898,1233.1913],[25.749358850656023,-27.777262714580814,1234.1147],[25.753774312562996,-27.786976730776161,1233.8145],[25.757601046215683,-27.798456931734279,1234.7966],[25.759072866851369,-27.808759676183882,1240.4],[25.7631939646312,-27.814941322853656,1232.4819],[25.782621997021892,-27.82612715968466,1240.0718],[25.791158556708695,-27.848498833346667,1245.7347],[25.801166937031184,-27.840845366041236,1230.5603],[25.81088095322653,-27.826715887938917,1240.5182],[25.814118958624988,-27.819356784760629,1231.2609],[25.823832974820334,-27.815530051107913,1229.1516],[25.8450271919738,-27.811997681582341,1247.2412],[25.855035572296288,-27.80522730665831,1235.2935],[25.835607539905595,-27.804049850149795,1266.9912],[25.815590779260646,-27.796985111098621,1244.6418],[25.800578208776926,-27.786682366649018,1231.4503],[25.794396562107153,-27.7743190733095,1227.6244],[25.788509279564522,-27.757245953935865,1252.2996],[25.77496852971646,-27.735757372655229,1263.502],[25.759661595105626,-27.717212432645937,1263.1522],[25.749358850656023,-27.709558965340534,1245.9136],[25.744354660494764,-27.70161113390796,1247.0603],[25.711091514128896,-27.665404346270776,1246.6973],[25.704321139204865,-27.65480723769403,1244.5985],[25.716684432544383,-27.6489199551514,1240.5387],[25.780561448131976,-27.660988884363803,1240.3976],[25.770258703682345,-27.643915764990169,1239.4052],[25.756717953834311,-27.63479047704908,1239.5959],[25.750536307164538,-27.625959553235134,1239.4653],[25.762605236376942,-27.6097695262429,1240.4856],[25.781150176386234,-27.598289325284753,1253.2039],[25.802050029412584,-27.594462591632038,1243.7483],[25.822655518311791,-27.597406232903353,1242.3677],[25.842083550702483,-27.606531520844442,1229.3693],[25.849737018007914,-27.613596259895587,1226.5],[25.856213028804802,-27.621838455455276,1226.5],[25.864160860237348,-27.629197558633564,1233.0527],[25.876229789449752,-27.633613020540565,1247.6804],[25.886532533899356,-27.63390738466768,1244.8743],[25.893302908823387,-27.631552471650622,1241.3147],[25.899190191366017,-27.628314466252192,1238.6814],[25.906843658671448,-27.626842645616534,1243.2488],[25.926566055189284,-27.630080651014964,1244.3315],[25.948643364724148,-27.644210129117283,1232.6847],[25.96130102219081,-27.647448134515741,1231.1582],[25.996330353319479,-27.661283248490918,1226.5],[26.0122260161846,-27.722805351061453,1226.5],[26.050198988584583,-27.736640465036629,1231.7609],[26.073453754627991,-27.7325193672568,1253.3397],[26.086111412094652,-27.720744802171538,1247.6853],[26.08993814574734,-27.703082954543618,1251.21],[26.087877596857425,-27.68159437326301,1226.5],[26.083167770823337,-27.673057813576207,1232.0168],[26.07580866764502,-27.664226889762233,1240.0413],[26.072276298119448,-27.654512873566915,1230.9034],[26.077869216534964,-27.643915764990169,1235.3516],[26.084050863204709,-27.638028482447538,1226.5],[26.089055053365968,-27.631258107523507,1244.9221],[26.09258742289154,-27.623310276090933,1250.2539],[26.094647971781455,-27.613301895768473,1247.3762],[26.094353607654341,-27.612418803387072,1246.261],[26.093470515272941,-27.6071202490987,1246.2129]]]}}