{"type":"Feature","properties":{"GID_1":"ZAF.7_1","GID_0":"ZAF","country":"SouthAfrica","province":"NorthWest","VARNAME_1":"North-West|Noordwes","NL_NAME_1":"NA","TYPE_1":"Provinsie","ENGTYPE_1":"Province","CC_1":"NW","HASC_1":"ZA.NW","ISO_1":"NA","name":"North_West.province"},
"geometry":{"type": "MultiPolygon","coordinates": [[[[24.6202,-27.9527,1047.6089],[24.6198,-27.9509,1050.155],[24.6231,-27.9484,1047.5775],[24.627,-27.9419,1048.1542],[24.6265,-27.938,1047.8188],[24.6288,-27.9353,1048.036],[24.6257,-27.9287,1048.134],[24.6222,-27.9269,1048.459],[24.6184,-27.9213,1048.7384],[24.6173,-27.9155,1048.7867],[24.6115,-27.91,1049.0739],[24.6069,-27.9085,1050.0951],[24.6071,-27.9012,1050.3547],[24.606,-27.901,1050.3547],[24.6071,-27.8984,1049.845],[24.6116,-27.8977,1051.1732],[24.6133,-27.9016,1051.6051],[24.6191,-27.9049,1051.2153],[24.6301,-27.9029,1051.0262],[24.6322,-27.8991,1052.3467],[24.6325,-27.8914,1051.8647],[24.6413,-27.8876,1051.8904],[24.6451,-27.8875,1052.5973],[24.6494,-27.8817,1052.6487],[24.6519,-27.8768,1052.6187],[24.6521,-27.8697,1052.619],[24.6563,-27.8634,1052.8651],[24.6564,-27.8554,1053.4969],[24.6583,-27.8527,1053.4473],[24.6651,-27.8531,1055.3634],[24.6715,-27.8499,1053.7865],[24.6784,-27.8505,1054.1941],[24.6813,-27.8491,1055.4058],[24.6889,-27.8504,1054.9147],[24.6904,-27.8525,1055.0895],[24.6912,-27.8504,1055.1901],[24.6968,-27.8474,1055.8602],[24.6949,-27.8426,1056.35],[24.6884,-27.8391,1056.9237],[24.6881,-27.8365,1056.6669],[24.6908,-27.8327,1056.6816],[24.6993,-27.8283,1056.9573],[24.6587,-27.7909,1136.1326],[24.6618,-27.7848,1100.7992],[24.6692,-27.7863,1089.2163],[24.6731,-27.7828,1086.5911],[24.6757,-27.7699,1085.9772],[24.6704,-27.7616,1092.502],[24.6805,-27.7393,1079.936],[24.6937,-27.7356,1073.4746],[24.6955,-27.7183,1067.6301],[24.6812,-27.7034,1067.3108],[24.6752,-27.6934,1069.1582],[24.6728,-27.686,1068.3091],[24.6746,-27.6812,1068.312],[24.6834,-27.6804,1071.8313],[24.686,-27.6784,1069.77],[24.6842,-27.6737,1069.9497],[24.6787,-27.6691,1070.1927],[24.6784,-27.6665,1070.2557],[24.6918,-27.6541,1070.8467],[24.6923,-27.6452,1073.0134],[24.7621,-27.6332,1118.1812],[24.7568,-27.6096,1110.1084],[24.7843,-27.6046,1144.7451],[24.7843,-27.6093,1145.2452],[24.7825,-27.6109,1147.7594],[24.7807,-27.6184,1148.7374],[24.7822,-27.633,1148.8281],[24.7866,-27.6432,1150.6565],[24.7938,-27.646,1149.9393],[24.7977,-27.6562,1149.2422],[24.7952,-27.6633,1151.2975],[24.7953,-27.6734,1155.7271],[24.7938,-27.6767,1157.5474],[24.7949,-27.682,1156.896],[24.792,-27.6869,1156.2969],[24.797,-27.693,1154.0327],[24.7966,-27.6982,1152.1229],[24.8012,-27.7018,1168.2332],[24.8545,-27.6956,1277.2902],[24.8857,-27.6945,1267.4513],[24.9732,-27.6826,1295.6744],[24.9997,-27.6808,1285.129],[25.0348,-27.6931,1266.3204],[25.0479,-27.6997,1262.4651],[24.8469,-27.9112,1156.876],[24.8615,-27.9083,1164.5858],[24.8571,-27.9161,1164.2725],[24.857,-27.9189,1167.751],[24.8598,-27.9213,1167.4386],[24.8577,-27.9202,1166.59],[24.8574,-27.9253,1165.3977],[24.8517,-27.9261,1160.7581],[24.8456,-27.9237,1159.8018],[24.8298,-27.9313,1151.8973],[24.9506,-28.1132,1187.5],[24.9653,-28.095,1187.5],[24.9703,-28.0838,1188.0],[24.9748,-28.0804,1188.0],[24.9848,-28.0796,1188.3884],[24.9993,-28.0819,1188.0],[25.0098,-28.0767,1188.0],[25.0201,-28.0774,1188.0],[25.0377,-28.0682,1189.2417],[25.0591,-28.0707,1188.5],[25.0732,-28.0667,1190.4043],[25.0769,-28.0484,1188.5],[25.1049,-28.0167,1189.2878],[25.1074,-28.0119,1189.0],[25.1064,-28.0068,1192.6757],[25.1025,-28.0009,1189.0],[25.0951,-27.9918,1190.7461],[25.0903,-27.9886,1189.0],[25.0906,-27.984,1189.0],[25.0968,-27.9769,1189.8926],[25.1113,-27.9702,1189.0],[25.1173,-27.9606,1189.0],[25.131,-27.9506,1189.0],[25.1328,-27.9436,1192.0503],[25.1309,-27.9298,1189.5604],[25.132,-27.927,1192.9298],[25.1371,-27.9234,1192.5892],[25.1506,-27.9286,1190.5775],[25.1606,-27.9271,1190.4305],[25.1657,-27.9214,1190.4728],[25.1721,-27.9185,1189.9618],[25.1851,-27.9089,1189.5518],[25.193,-27.8933,1192.8069],[25.1977,-27.8885,1194.7192],[25.2067,-27.884,1196.0123],[25.2282,-27.8785,1203.0137],[25.2521,-27.867,1200.5],[25.2575,-27.8602,1202.3511],[25.2577,-27.8551,1204.5826],[25.2422,-27.8437,1207.3049],[25.2382,-27.8375,1202.0],[25.2384,-27.8344,1204.3973],[25.2441,-27.8292,1204.7855],[25.2536,-27.8262,1210.1909],[25.2606,-27.822,1206.2561],[25.2695,-27.8013,1205.2562],[25.2751,-27.7963,1209.1292],[25.3015,-27.7932,1208.722],[25.3151,-27.7957,1206.177],[25.333,-27.7905,1205.0],[25.3374,-27.7935,1210.0946],[25.3404,-27.793,1211.7615],[25.3448,-27.7849,1210.6113],[25.3486,-27.772,1207.0078],[25.364,-27.7505,1206.994],[25.3796,-27.7424,1207.6677],[25.3945,-27.7287,1210.8279],[25.4125,-27.7222,1210.6213],[25.424,-27.7156,1206.0],[25.4404,-27.7169,1210.5144],[25.458,-27.7109,1208.7604],[25.4653,-27.7096,1211.3345],[25.4693,-27.7106,1208.2982],[25.4733,-27.7068,1210.6992],[25.4747,-27.6989,1211.5498],[25.4809,-27.6925,1209.6251],[25.4879,-27.6919,1212.1199],[25.4948,-27.6939,1207.9626],[25.5132,-27.6948,1212.0985],[25.5558,-27.6867,1212.4297],[25.5724,-27.6775,1208.9214],[25.5847,-27.6587,1210.6232],[25.590699999999998,-27.6552,1210.121],[25.5966,-27.6551,1210.157],[25.6034,-27.6598,1218.6582],[25.6104,-27.66,1211.9456],[25.6185,-27.6693,1226.5],[25.6275,-27.6672,1226.5],[25.6308,-27.668,1226.5],[25.6323,-27.6698,1226.5],[25.633,-27.6761,1226.5],[25.6415,-27.6864,1226.5],[25.6576,-27.6948,1226.5],[25.6647,-27.6938,1226.5],[25.6717,-27.6886,1226.5],[25.6785,-27.677,1226.5],[25.6767,-27.6592,1226.5],[25.6796,-27.6489,1226.5],[25.6784,-27.6408,1226.5],[25.6755,-27.6349,1226.5],[25.6789,-27.6296,1226.5],[25.6852,-27.6262,1226.5],[25.7099,-27.6245,1226.5],[25.7279,-27.609,1226.5],[25.7375,-27.6089,1226.5],[25.7495,-27.5998,1226.5],[25.764,-27.596,1226.5],[25.7814,-27.5841,1226.5],[25.7882,-27.583,1226.5],[25.7986,-27.5844,1226.5],[25.8048,-27.5831,1226.5],[25.8147,-27.5728,1226.5],[25.8274,-27.5667,1226.5],[25.8328,-27.567,1226.5],[25.835,-27.5785,1226.5],[25.8452,-27.5901,1226.5],[25.8467,-27.5949,1226.5],[25.8436,-27.601,1226.5],[25.8448,-27.6077,1226.5],[25.8526,-27.621,1226.5],[25.8581,-27.6238,1226.5],[25.8724,-27.628,1226.5],[25.8913,-27.6261,1226.5],[25.8983,-27.6225,1227.4731],[25.8951,-27.6147,1226.5],[25.8957,-27.61,1226.5],[25.9097,-27.6104,1226.5],[25.9157,-27.6057,1226.5],[25.9243,-27.6035,1226.5],[25.932,-27.6064,1226.5],[25.9403,-27.6149,1226.5],[25.9473,-27.6329,1226.5],[25.9681,-27.625,1226.5],[25.9819,-27.6272,1226.5],[25.9801,-27.6335,1226.5],[25.9806,-27.6371,1226.5],[25.9827,-27.6391,1226.5],[25.9921,-27.6412,1226.5],[26.0008,-27.6476,1226.5],[26.0049,-27.6522,1226.5],[26.008,-27.6604,1226.5],[26.0077,-27.6773,1226.5],[26.0107,-27.6898,1226.5],[26.003,-27.7023,1227.1848],[26.0032,-27.708,1226.5],[26.0127,-27.7223,1226.5],[26.0208,-27.7283,1226.5],[26.025,-27.7339,1227.0804],[26.0354,-27.7366,1226.5],[26.0477,-27.7255,1226.5],[26.0625,-27.7207,1227.1552],[26.0709,-27.715,1229.1012],[26.0922,-27.6966,1226.5],[26.0945,-27.6917,1226.5],[26.0948,-27.6846,1232.0497],[26.0928,-27.6824,1226.5],[26.0678,-27.6808,1226.5],[26.0547,-27.6692,1228.3696],[26.0637,-27.6602,1226.5],[26.0799,-27.6534,1227.9036],[26.0862,-27.648,1228.2754],[26.0858,-27.6428,1226.5],[26.0749,-27.6205,1226.5],[26.0845,-27.5951,1226.5],[26.0882,-27.5939,1226.5],[26.1061,-27.5956,1227.0],[26.1133,-27.5933,1227.0],[26.1245,-27.5806,1228.583],[26.1221,-27.5724,1235.1646],[26.1238,-27.5669,1227.7124],[26.134,-27.5585,1227.0],[26.1403,-27.5576,1228.4506],[26.1451,-27.5626,1231.0427],[26.1536,-27.564,1228.4504],[26.1631,-27.5517,1228.6227],[26.168,-27.538,1230.1487],[26.1701,-27.5361,1228.6056],[26.1861,-27.5315,1231.3556],[26.2018,-27.5168,1230.8456],[26.2222,-27.5145,1230.8239],[26.229,-27.5121,1228.0],[26.2312,-27.4954,1232.421],[26.2208,-27.4833,1229.1272],[26.2199,-27.4744,1231.6978],[26.2339,-27.4542,1228.0],[26.2397,-27.4354,1231.7085],[26.2423,-27.4314,1228.2986],[26.245,-27.4299,1229.9636],[26.2529,-27.4295,1230.0808],[26.2602,-27.4199,1229.906],[26.2646,-27.4164,1229.656],[26.2695,-27.4168,1231.4351],[26.2761,-27.4211,1229.5785],[26.2862,-27.4222,1229.72],[26.291,-27.4167,1231.1428],[26.2956,-27.4158,1228.5],[26.3099,-27.4183,1230.4686],[26.3136,-27.4224,1230.3219],[26.3168,-27.4314,1232.578],[26.3211,-27.4334,1233.4055],[26.3241,-27.4329,1230.9971],[26.3266,-27.4292,1229.5],[26.3279,-27.42,1234.8212],[26.3272,-27.4058,1230.0],[26.3354,-27.3984,1232.8676],[26.3396,-27.3894,1238.7032],[26.3457,-27.3853,1234.0699],[26.3616,-27.3893,1237.8157],[26.3724,-27.3838,1243.5021],[26.3802,-27.3884,1240.3531],[26.388,-27.3895,1245.1881],[26.3943,-27.394,1239.6667],[26.4165,-27.4027,1240.8762],[26.4231,-27.4069,1237.0],[26.435,-27.3988,1238.8982],[26.4452,-27.3881,1240.9333],[26.4519,-27.3857,1240.3621],[26.4589,-27.3866,1240.8647],[26.4683,-27.3912,1242.8276],[26.4976,-27.3957,1237.75],[26.5052,-27.3983,1244.6287],[26.5104,-27.3962,1239.6378],[26.5138,-27.3903,1238.0],[26.5142,-27.3868,1240.4218],[26.5128,-27.3848,1244.5618],[26.4995,-27.3797,1238.0],[26.4847,-27.3799,1239.0897],[26.4763,-27.3718,1240.0974],[26.462,-27.3657,1238.5],[26.4464,-27.3497,1264.9631],[26.4472,-27.344,1242.3799],[26.4555,-27.3374,1244.644],[26.4582,-27.3262,1240.0872],[26.4738,-27.3123,1243.782],[26.4755,-27.3083,1239.5],[26.4814,-27.3067,1242.7383],[26.4848,-27.3091,1244.1195],[26.4849,-27.3135,1241.2705],[26.4791,-27.3189,1242.9653],[26.4808,-27.3232,1243.1609],[26.4849,-27.3239,1240.0],[26.4934,-27.3191,1240.0],[26.4939,-27.3083,1240.0],[26.4883,-27.2963,1248.3486],[26.4885,-27.2861,1240.5],[26.4889,-27.2833,1240.5],[26.4962,-27.2738,1245.8837],[26.4972,-27.2678,1243.0],[26.4946,-27.2591,1249.4307],[26.4888,-27.2506,1246.5269],[26.4768,-27.2446,1249.9841],[26.4639,-27.2298,1247.6923],[26.4547,-27.2228,1247.5],[26.4437,-27.2174,1248.125],[26.4377,-27.21,1252.1207],[26.4328,-27.1901,1252.0814],[26.4272,-27.1852,1251.0],[26.4243,-27.1775,1253.1996],[26.4202,-27.1725,1260.718],[26.4201,-27.1684,1260.3003],[26.4255,-27.1536,1255.0],[26.4289,-27.1502,1256.3724],[26.4407,-27.15,1257.2891],[26.4592,-27.158,1260.3958],[26.4731,-27.1542,1261.8438],[26.4763,-27.1485,1259.4568],[26.4781,-27.1373,1259.4264],[26.4836,-27.131,1260.8325],[26.4874,-27.13,1261.4946],[26.4984,-27.1329,1264.1023],[26.507,-27.1272,1262.5],[26.5142,-27.1189,1264.0],[26.5221,-27.1037,1264.0],[26.5242,-27.0959,1265.9371],[26.5287,-27.091,1268.8367],[26.5385,-27.0903,1270.2322],[26.549,-27.0986,1269.2277],[26.5684,-27.1026,1268.0],[26.5835,-27.108,1272.8777],[26.5869,-27.1034,1274.2526],[26.5881,-27.0954,1271.0319],[26.5938,-27.0793,1270.5],[26.5923,-27.0706,1270.5],[26.5897,-27.0667,1271.0],[26.5833,-27.0631,1272.7889],[26.5809,-27.0583,1275.6858],[26.5814,-27.0544,1273.0144],[26.5926,-27.0378,1277.2964],[26.6135,-27.0271,1279.4294],[26.6189,-27.0036,1274.0],[26.6361,-27.0034,1277.733],[26.646,-27.0004,1276.2084],[26.6589,-26.9938,1277.0],[26.6688,-26.9946,1284.6466],[26.6728,-26.9964,1287.209],[26.6763,-27.0008,1282.7048],[26.6765,-27.0102,1280.0],[26.6789,-27.0146,1281.8761],[26.6842,-27.0176,1284.3589],[26.6887,-27.018,1285.3481],[26.6966,-27.0139,1282.5117],[26.7006,-27.0086,1289.9839],[26.7064,-26.988,1284.3191],[26.711,-26.978,1287.3748],[26.7155,-26.9739,1282.0],[26.7411,-26.9649,1286.3475],[26.7496,-26.9651,1287.3854],[26.7552,-26.9619,1287.1761],[26.7615,-26.9525,1288.8711],[26.7667,-26.9481,1287.688],[26.7896,-26.9429,1282.5],[26.805,-26.932,1285.7845],[26.8098,-26.9317,1284.4988],[26.8117,-26.9342,1285.915],[26.8094,-26.9472,1290.5592],[26.8114,-26.9513,1286.5015],[26.8183,-26.9532,1285.2538],[26.8306,-26.9493,1285.3162],[26.8424,-26.9421,1286.1807],[26.8485,-26.9402,1283.7668],[26.858,-26.922,1289.3274],[26.8635,-26.9189,1283.0],[26.8682,-26.9196,1284.2825],[26.8743,-26.9238,1285.3523],[26.8755,-26.9263,1284.0957],[26.8748,-26.9301,1290.6731],[26.8804,-26.9349,1287.5968],[26.8961,-26.9351,1286.1985],[26.9076,-26.9445,1289.5696],[26.9097,-26.9525,1294.0563],[26.909,-26.9613,1293.9241],[26.9169,-26.9725,1292.0],[26.92,-26.9735,1293.2188],[26.9231,-26.969,1293.1128],[26.925,-26.9573,1292.0],[26.9233,-26.9434,1292.0],[26.9246,-26.9303,1296.3191],[26.9202,-26.906,1298.8055],[26.9272,-26.8871,1292.7675],[26.9404,-26.8715,1296.6897],[26.951,-26.8749,1295.5001],[26.9513,-26.8783,1296.4915],[26.9472,-26.892,1297.7122],[26.9561,-26.9002,1293.4714],[26.9748,-26.9121,1293.281],[27.0052,-26.9254,1293.0441],[27.0139,-26.9321,1294.5231],[27.028199999999998,-26.9359,1294.0],[27.04,-26.9382,1297.7168],[27.0506,-26.9367,1294.5],[27.0646,-26.9373,1295.0],[27.0734,-26.9348,1299.5306],[27.0868,-26.9385,1298.4562],[27.0949,-26.931,1301.124],[27.113,-26.9263,1302.2308],[27.1435,-26.9419,1298.5],[27.1537,-26.937,1301.9166],[27.1618,-26.9259,1301.5],[27.1647,-26.9241,1312.4106],[27.1701,-26.923,1306.5024],[27.1764,-26.9249,1304.4359],[27.1813,-26.9274,1303.875],[27.1829,-26.9304,1304.9729],[27.1818,-26.9407,1307.0278],[27.1832,-26.9503,1310.9332],[27.1815,-26.9577,1309.8218],[27.1752,-26.9636,1309.125],[27.174,-26.9685,1309.75],[27.1901,-26.9775,1315.7927],[27.2033,-26.9805,1313.6132],[27.2079,-26.9799,1313.5],[27.2121,-26.9762,1314.5],[27.2111,-26.9624,1319.3046],[27.2175,-26.9461,1324.6832],[27.2295,-26.939,1318.855],[27.2344,-26.9274,1321.8759],[27.2416,-26.9187,1318.8761],[27.2469,-26.9144,1320.5582],[27.255,-26.9126,1318.063],[27.2621,-26.9082,1332.3287],[27.2704,-26.8915,1327.7861],[27.278199999999998,-26.8881,1316.5],[27.2821,-26.8836,1318.2429],[27.2898,-26.8794,1317.406],[27.2921,-26.8694,1320.27],[27.2995,-26.8631,1333.076],[27.301,-26.8605,1320.812],[27.3004,-26.8563,1320.2119],[27.3037,-26.8541,1324.7338],[27.3154,-26.8526,1323.451],[27.3328,-26.8542,1324.2788],[27.3402,-26.8609,1326.8959],[27.3395,-26.8685,1324.0],[27.340699999999998,-26.872,1326.0558],[27.3553,-26.8824,1327.9563],[27.3608,-26.8843,1331.1957],[27.3651,-26.891,1328.5],[27.3684,-26.8917,1330.5659],[27.3678,-26.8956,1334.4939],[27.3709,-26.9042,1329.5],[27.3766,-26.9049,1335.0002],[27.3808,-26.9009,1332.939],[27.3845,-26.9005,1337.2599],[27.389,-26.9039,1336.9402],[27.3913,-26.9138,1349.5957],[27.3975,-26.9152,1352.2117],[27.4003,-26.9222,1352.4678],[27.4075,-26.9258,1356.2368],[27.4143,-26.9257,1370.8699],[27.4186,-26.9239,1371.0137],[27.44,-26.8995,1370.2308],[27.4442,-26.9004,1365.4091],[27.4552,-26.8906,1377.9594],[27.4713,-26.8868,1382.7712],[27.476,-26.8835,1386.145],[27.4809,-26.8634,1388.5],[27.4875,-26.8494,1391.1746],[27.491,-26.8466,1393.5273],[27.4997,-26.845,1394.73],[27.5117,-26.8365,1392.9558],[27.5108,-26.8255,1396.3798],[27.5182,-26.8102,1399.8181],[27.5153,-26.804,1394.5],[27.5059,-26.7948,1401.7098],[27.5056,-26.792,1398.6752],[27.5094,-26.7858,1403.4814],[27.5195,-26.7819,1400.7413],[27.5296,-26.7848,1399.2841],[27.5378,-26.7851,1398.0],[27.5498,-26.7752,1414.6506],[27.5557,-26.7732,1405.2574],[27.5699,-26.7812,1405.8359],[27.5818,-26.7737,1402.3539],[27.5823,-26.7679,1401.5],[27.5702,-26.7551,1402.5],[27.5697,-26.7478,1403.0],[27.5795,-26.7449,1410.9003],[27.5904,-26.7384,1406.6616],[27.5888,-26.7357,1431.7606],[27.5814,-26.731,1444.2992],[27.5891,-26.7241,1456.9739],[27.6022,-26.7229,1441.0083],[27.6028,-26.6924,1523.7415],[27.5742,-26.7158,1435.9105],[27.5742,-26.6841,1589.5878],[27.5702,-26.6836,1604.5844],[27.5691,-26.6472,1499.1606],[27.5065,-26.6462,1445.2256],[27.4548,-26.6303,1438.2335],[27.4347,-26.6318,1425.2566],[27.4258,-26.6495,1409.6362],[27.3783,-26.6107,1389.7351],[27.3854,-26.6043,1393.5317],[27.3658,-26.5738,1408.1537],[27.3386,-26.5717,1379.2317],[27.3389,-26.5781,1376.8665],[27.3315,-26.5903,1372.28],[27.3442,-26.6131,1381.6736],[27.2991,-26.6221,1361.6697],[27.2969,-26.6203,1360.5414],[27.2933,-26.6223,1359.8534],[27.2862,-26.6214,1361.496],[27.2842,-26.6222,1361.1394],[27.2855,-26.625,1357.6479],[27.2797,-26.6258,1357.4784],[27.2793,-26.6245,1359.5935],[27.2789,-26.6265,1356.573],[27.2768,-26.6259,1356.6687],[27.2769,-26.629,1355.469],[27.2731,-26.6322,1355.3971],[27.2718,-26.6304,1355.1901],[27.2683,-26.6329,1353.8215],[27.2671,-26.6306,1354.0869],[27.2617,-26.6335,1353.2866],[27.2605,-26.6315,1352.2333],[27.2574,-26.6308,1352.0541],[27.2575,-26.632,1351.0397],[27.2537,-26.6325,1351.6467],[27.2512,-26.6347,1350.1829],[27.2494,-26.6341,1350.3225],[27.2488,-26.636,1349.4884],[27.2474,-26.6344,1349.6139],[27.2419,-26.6365,1348.912],[27.235,-26.6186,1378.2864],[27.2332,-26.5955,1393.1603],[27.2345,-26.5949,1397.4995],[27.2284,-26.5711,1407.8915],[27.1826,-26.5746,1557.7754],[27.1826,-26.5631,1483.792],[27.1745,-26.5492,1463.0203],[27.1671,-26.5514,1455.5103],[27.1588,-26.5254,1493.2244],[27.1563,-26.5243,1471.6904],[27.1786,-26.521,1456.947],[27.1882,-26.5258,1469.6418],[27.1828,-26.5203,1464.2904],[27.2125,-26.5148,1593.3629],[27.2314,-26.5055,1609.9104],[27.2238,-26.4518,1546.4259],[27.2248,-26.444,1527.1558],[27.188,-26.3779,1460.8429],[27.2348,-26.3383,1488.1581],[27.2748,-26.3143,1517.2743],[27.2993,-26.3045,1496.0912],[27.3301,-26.2818,1524.8071],[27.3084,-26.2252,1532.6445],[27.2914,-26.1446,1560.4008],[27.3583,-26.1546,1575.0657],[27.3617,-26.1157,1599.6279],[27.4194,-26.1175,1562.1724],[27.4224,-26.0892,1597.9056],[27.4252,-26.0894,1593.6136],[27.4314,-26.0523,1587.9537],[27.4352,-26.027,1532.858],[27.434,-26.0225,1514.6366],[27.4357,-26.0226,1513.054],[27.4389,-26.0143,1548.0135],[27.4498,-26.0163,1531.3214],[27.457,-25.9818,1540.7271],[27.4536,-25.9202,1469.1182],[27.4633,-25.9215,1454.4919],[27.457,-25.8883,1473.8423],[27.47,-25.8881,1463.272],[27.4619,-25.8676,1776.1158],[27.4975,-25.8596,1707.9077],[27.5002,-25.8613,1715.8962],[27.5133,-25.8603,1799.5585],[27.5323,-25.85,1705.3772],[27.5336,-25.8521,1724.3008],[27.5474,-25.8514,1701.8506],[27.546,-25.8462,1794.8007],[27.5599,-25.8428,1784.5549],[27.5746,-25.836,1764.8308],[27.5983,-25.8196,1625.9224],[27.5993,-25.8127,1562.5923],[27.6056,-25.8082,1580.134],[27.6436,-25.7959,1664.9641],[27.6466,-25.8141,1307.587],[27.6418,-25.8114,1319.0562],[27.6411,-25.8128,1319.0562],[27.6455,-25.8198,1286.3267],[27.6488,-25.835,1255.824],[27.6471,-25.8406,1242.2313],[27.6504,-25.8427,1235.0746],[27.6497,-25.8435,1230.7787],[27.6546,-25.8453,1230.2455],[27.6639,-25.84,1226.8115],[27.6849,-25.8754,1542.4753],[27.7046,-25.8683,1579.7156],[27.7303,-25.8552,1456.6143],[27.7358,-25.8553,1461.6412],[27.7427,-25.8502,1443.4706],[27.7446,-25.8946,1481.3904],[27.791,-25.8747,1408.6896],[27.8315,-25.8602,1549.434],[27.844,-25.8489,1459.7629],[27.8518,-25.8464,1496.6194],[27.8482,-25.8393,1429.2283],[27.8587,-25.8188,1293.0768],[27.8917,-25.8229,1234.4253],[27.8901,-25.8298,1279.3643],[27.8853,-25.8354,1352.46],[27.8844,-25.8388,1341.9843],[27.8835,-25.8457,1350.7676],[27.8847,-25.8517,1358.145],[27.8826,-25.8619,1414.5594],[27.8982,-25.8597,1368.9429],[27.9005,-25.8408,1302.3518],[27.9395,-25.8368,1269.7627],[27.9258,-25.8241,1304.3606],[27.9401,-25.8197,1414.6418],[27.9602,-25.816,1491.0203],[27.9572,-25.8005,1310.7737],[27.9636,-25.7991,1363.5343],[27.9622,-25.7919,1389.1753],[27.9632,-25.7871,1305.6167],[27.9546,-25.7869,1257.3928],[27.9493,-25.7598,1351.7007],[27.9527,-25.7596,1354.8535],[27.9558,-25.7566,1415.0756],[27.9732,-25.7568,1422.9508],[27.9795,-25.7514,1447.3115],[27.9482,-25.6952,1575.4894],[27.9575,-25.6937,1579.7479],[27.9538,-25.6729,1322.6753],[27.9519,-25.6713,1319.3354],[27.9523,-25.6536,1269.3972],[27.9573,-25.6477,1250.519],[27.9571,-25.6436,1243.6838],[27.9652,-25.6454,1254.4489],[27.9649,-25.6348,1285.9045],[27.9806,-25.6328,1366.8726],[27.9722,-25.5979,1226.6377],[27.9576,-25.5926,1213.3674],[27.9815,-25.5427,1235.4814],[28.0306,-25.5584,1199.2283],[28.0495,-25.5596,1216.4949],[28.0524,-25.5358,1271.1144],[28.0244,-25.5307,1167.6539],[27.9924,-25.518,1238.9093],[28.0075,-25.4841,1129.3004],[28.0119,-25.4805,1110.3134],[28.0359,-25.4706,1161.1721],[27.9917,-25.4245,1131.2686],[27.9697,-25.4391,1087.3077],[27.9604,-25.4273,1078.6703],[27.9582,-25.4263,1075.275],[27.9456,-25.4067,1064.0156],[27.9708,-25.3629,1070.1451],[28.0004,-25.3594,1064.6896],[28.0447,-25.4017,1102.5331],[28.0555,-25.4,1100.9191],[28.0834,-25.3848,1092.2902],[28.108,-25.367,1082.6528],[28.1107,-25.3789,1091.8843],[28.1767,-25.3659,1093.5044],[28.1768,-25.3286,1066.1274],[28.2015,-25.3237,1063.651],[28.2283,-25.3542,1082.2572],[28.2826,-25.3426,1060.479],[28.2834,-25.3381,1061.4097],[28.2895,-25.3383,1067.7415],[28.2896,-25.3412,1067.6851],[28.2981,-25.3393,1073.1198],[28.2982,-25.2932,1055.8541],[28.2598,-25.2387,1047.3221],[28.2463,-25.2129,1042.9185],[28.2112,-25.1981,1037.6553],[28.1695,-25.2094,1033.6831],[28.1357,-25.2056,1023.6177],[28.129,-25.1457,1017.8536],[28.0944,-25.1485,1027.0637],[28.0839,-25.1004,1083.5385],[28.1179,-25.0981,1082.3951],[28.1539,-25.0868,1079.974],[28.1751,-25.1136,1030.7778],[28.1738,-25.12,1032.0435],[28.1983,-25.1276,1048.9996],[28.215,-25.1282,1064.6544],[28.2171,-25.1229,1069.8569],[28.2171,-25.113,1066.2085],[28.2598,-25.0504,1061.6968],[28.1587,-25.0206,1107.0024],[28.1252,-25.0048,1120.7861],[28.12,-24.9795,1103.6392],[28.0801,-24.9795,1092.467],[28.0378,-24.9838,1082.0386],[28.037,-24.9853,1084.2793],[28.0178,-24.9741,1057.0403],[27.9976,-24.9735,1043.4056],[27.9836,-24.9578,1056.3074],[27.9752,-24.965699999999998,1046.3279],[27.955,-24.9702,1036.8042],[27.9465,-25.0012,1025.5266],[27.9129,-24.9911,1051.8848],[27.8867,-24.9883,1069.5817],[27.8331,-24.9735,1157.1812],[27.8217,-24.9746,1164.8651],[27.7889,-24.9665,1127.7942],[27.7591,-24.9689,1109.0708],[27.7388,-24.9831,1133.0902],[27.6873,-24.9944,1058.2402],[27.6847,-24.9858,1052.9425],[27.6286,-24.9737,1146.1681],[27.5975,-24.9849,1014.8673],[27.594,-25.0294,1008.4968],[27.5678,-25.0594,1201.4777],[27.5598,-25.0773,1232.5352],[27.5654,-25.0797,1044.4824],[27.5653,-25.0827,1036.8116],[27.5436,-25.0959,945.9973],[27.5428,-25.098,943.8389],[27.5323,-25.0944,956.373],[27.5339,-25.0833,996.1863],[27.5212,-25.0797,942.6392],[27.5212,-25.076,943.0264],[27.498,-25.0732,988.7766],[27.4869,-25.0784,1126.234],[27.4818,-25.0671,1023.843],[27.4313,-25.0821,1074.4253],[27.4246,-25.0689,1071.7811],[27.3825,-25.08,1125.8624],[27.337,-25.0878,1122.7061],[27.3136,-25.0421,1085.832],[27.2719,-25.0367,1042.8265],[27.2236,-25.0674,1055.688],[27.2317,-25.0361,1044.8972],[27.2035,-25.0332,1027.9099],[27.2091,-24.9956,1004.7948],[27.2261,-24.9639,1001.4678],[27.1834,-24.9485,1011.1043],[27.1541,-24.979,1031.6758],[27.1439,-24.9462,1012.5939],[27.1012,-24.9,1023.1591],[27.0412,-24.887,1066.0476],[27.0263,-24.7186,1067.561],[26.9759,-24.7207,1053.3055],[26.9807,-24.7758,1100.9968],[26.9426,-24.7763,1107.4757],[26.9433,-24.7814,1114.5471],[26.7795,-24.8377,1092.3114],[26.7513,-24.883,1096.6473],[26.7051,-24.857,1103.9502],[26.6993,-24.8673,1138.1487],[26.622,-24.8099,1030.9932],[26.601,-24.8158,1045.8368],[26.5665,-24.8199,1106.429],[26.5286,-24.8138,1121.6119],[26.4583,-24.8095,933.486],[26.4613,-24.8001,934.3211],[26.4616,-24.7953,931.3709],[26.4595,-24.7905,932.3525],[26.454,-24.7888,931.0762],[26.4483,-24.7921,931.1399],[26.4446,-24.7908,930.4816],[26.4354,-24.7829,931.5158],[26.4259,-24.7709,929.3276],[26.4296,-24.7654,929.0511],[26.4269,-24.7579,928.3528],[26.4282,-24.7538,928.7001],[26.4182,-24.729,926.6656],[26.4226,-24.7206,925.7121],[26.4197,-24.716,925.8019],[26.4272,-24.6967,923.5491],[26.4213,-24.6916,922.3243],[26.4228,-24.6817,918.3557],[26.4218,-24.6708,917.9166],[26.427,-24.6652,917.3152],[26.4275,-24.6578,916.7859],[26.4083,-24.6503,915.5581],[26.4088,-24.6461,915.8329],[26.3933,-24.6366,982.4174],[26.187,-24.6875,1176.2866],[26.0074,-24.7243,1112.3762],[25.9644,-24.7494,1161.6992],[25.9171,-24.7455,1192.0587],[25.9114,-24.7537,1186.4355],[25.8583,-24.7572,1059.4041],[25.8483,-24.755,995.3153],[25.8512,-24.7624,998.5],[25.8515,-24.7745,1001.3849],[25.8442,-24.7803,1007.3424],[25.8424,-24.7903,1005.1154],[25.8632,-24.8085,1011.2655],[25.8585,-24.8216,1014.6093],[25.8593,-24.8262,1014.894],[25.8623,-24.827,1014.9633],[25.8673,-24.8235,1014.585],[25.8695,-24.827,1017.1245],[25.8733,-24.8291,1016.9263],[25.8749,-24.839,1018.4294],[25.8739,-24.8464,1017.56],[25.8768,-24.852,1018.273],[25.8762,-24.8561,1018.9551],[25.8814,-24.859,1020.8838],[25.8829,-24.8759,1022.4414],[25.8855,-24.881,1023.8741],[25.8888,-24.8825,1022.985],[25.8848,-24.8877,1023.2789],[25.88,-24.8866,1024.5962],[25.8766,-24.8883,1029.5671],[25.8764,-24.8977,1027.5406],[25.8806,-24.9026,1026.1968],[25.874,-24.9035,1027.0354],[25.8726,-24.9053,1027.9614],[25.8818,-24.9142,1031.627],[25.8782,-24.9174,1029.8844],[25.8725,-24.9189,1031.0493],[25.8707,-24.9213,1036.1993],[25.8608,-24.9243,1032.246],[25.8618,-24.9261,1032.6694],[25.8409,-24.9803,1041.8134],[25.7291,-25.2569,1335.1411],[25.6998,-25.291,1278.4847],[25.6882,-25.376,1375.2826],[25.6598,-25.4744,1377.4735],[25.5809,-25.6388,1273.1263],[25.5775,-25.6387,1269.7867],[25.5667,-25.6474,1265.2559],[25.5576,-25.6498,1261.1868],[25.5344,-25.6656,1251.3717],[25.5311,-25.67,1249.4899],[25.5275,-25.671,1249.0541],[25.513,-25.6847,1244.1709],[25.5071,-25.686,1240.2515],[25.5001,-25.6907,1236.9973],[25.4885,-25.6888,1233.1427],[25.4853,-25.694,1231.1199],[25.48,-25.696,1228.8027],[25.4695,-25.6959,1225.839],[25.4549,-25.7102,1218.8212],[25.4516,-25.7102,1218.1541],[25.446,-25.7138,1216.3867],[25.4238,-25.7314,1207.4403],[25.4073,-25.7385,1202.2217],[25.387,-25.7442,1198.6089],[25.3782,-25.7503,1196.7092],[25.3717,-25.7525,1195.0507],[25.3668,-25.7579,1194.2064],[25.3516,-25.7617,1191.4756],[25.347,-25.7666,1189.8358],[25.3348,-25.7709,1187.5381],[25.3287,-25.7698,1186.1797],[25.3195,-25.7728,1183.8975],[25.3159,-25.7724,1183.1505],[25.3111,-25.7689,1180.9421],[25.2994,-25.7657,1178.8862],[25.2852,-25.7654,1175.2799],[25.2748,-25.768,1173.2551],[25.2648,-25.7665,1171.3486],[25.2614,-25.7686,1169.876],[25.2523,-25.7675,1168.7739],[25.2485,-25.7656,1168.269],[25.2239,-25.7635,1161.3256],[25.2198,-25.7659,1160.3706],[25.2156,-25.7632,1159.4822],[25.2091,-25.7626,1158.9901],[25.2069,-25.7596,1158.1921],[25.2035,-25.7584,1158.1899],[25.1922,-25.7625,1158.204],[25.1836,-25.7628,1163.7384],[25.1761,-25.7662,1156.6326],[25.1726,-25.7662,1157.2429],[25.1687,-25.7655,1154.9832],[25.1611,-25.7596,1154.6738],[25.1484,-25.7596,1155.8195],[25.1437,-25.7564,1153.4156],[25.1349,-25.7577,1154.2979],[25.1271,-25.7627,1152.8149],[25.1214,-25.7638,1150.6547],[25.1087,-25.7544,1149.0206],[25.1099,-25.7487,1150.1333],[25.1022,-25.748,1147.2938],[25.1021,-25.7461,1148.6494],[25.1052,-25.7425,1147.5725],[25.1043,-25.7411,1149.1816],[25.0993,-25.7425,1147.9187],[25.087,-25.7409,1147.5707],[25.0843,-25.7384,1143.2246],[25.0809,-25.7304,1142.9041],[25.0769,-25.7313,1140.9531],[25.0716,-25.7363,1140.2205],[25.0617,-25.7355,1144.2991],[25.0539,-25.7313,1136.7662],[25.0516,-25.7261,1136.6841],[25.0375,-25.7222,1132.4868],[25.0229,-25.731,1134.9645],[25.0185,-25.7304,1129.9709],[25.0147,-25.7255,1130.6311],[25.0006,-25.7296,1130.0796],[24.9998,-25.7312,1127.0079],[25.0038,-25.7358,1127.1794],[25.0036,-25.7387,1126.8096],[24.9897,-25.7454,1127.387],[24.9839,-25.7543,1125.0911],[24.9753,-25.7539,1124.1282],[24.9667,-25.7661,1122.4094],[24.9615,-25.7661,1122.236],[24.9544,-25.7603,1120.2881],[24.9518,-25.7623,1119.639],[24.9538,-25.7683,1118.9731],[24.9511,-25.7691,1123.3801],[24.9514,-25.7717,1118.8813],[24.9458,-25.7746,1118.5079],[24.9338,-25.7766,1116.262],[24.9278,-25.7877,1116.3423],[24.9203,-25.79,1114.8185],[24.9158,-25.7844,1114.5989],[24.9128,-25.7844,1113.6987],[24.9131,-25.7975,1112.4235],[24.9078,-25.7984,1111.7891],[24.9047,-25.8026,1111.67],[24.8976,-25.8026,1111.7478],[24.8963,-25.8059,1111.5447],[24.8989,-25.8093,1110.9059],[24.8969,-25.8108,1110.877],[24.8857,-25.8071,1110.3173],[24.8753,-25.8091,1109.7799],[24.8696,-25.8054,1108.5168],[24.8443,-25.8092,1106.6799],[24.8335,-25.8153,1106.2319],[24.8246,-25.8117,1105.1863],[24.8184,-25.817,1104.2415],[24.8162,-25.8161,1106.0468],[24.8156,-25.8116,1105.3468],[24.8132,-25.8103,1105.2235],[24.8111,-25.8128,1106.4484],[24.8105,-25.8184,1103.1746],[24.8026,-25.8187,1102.9402],[24.7947,-25.8253,1102.2394],[24.7875,-25.8175,1102.3571],[24.7837,-25.8172,1101.5396],[24.7784,-25.8197,1101.8169],[24.7674,-25.8128,1105.4326],[24.7617,-25.811,1101.4849],[24.7559,-25.8114,1103.0244],[24.752,-25.8145,1101.3717],[24.7481,-25.8141,1100.2437],[24.7418,-25.8124,1099.3402],[24.7367,-25.8076,1098.0886],[24.729,-25.804,1099.95],[24.7116,-25.8058,1097.3795],[24.6966,-25.8113,1099.9094],[24.6859,-25.8233,1100.6157],[24.6819,-25.8237,1094.6621],[24.679,-25.8192,1096.55],[24.6757,-25.8179,1104.8778],[24.6643,-25.8183,1093.9316],[24.6402,-25.8076,1092.8715],[24.6089,-25.8006,1091.6785],[24.5989,-25.7936,1089.4874],[24.5894,-25.7898,1089.3186],[24.5781,-25.7774,1087.5664],[24.5694,-25.7727,1086.2747],[24.5615,-25.7709,1087.1671],[24.5505,-25.7727,1085.5588],[24.5443,-25.772,1084.7693],[24.4908,-25.7512,1083.4758],[24.4719,-25.7472,1080.0667],[24.4706,-25.746,1079.7272],[24.4705,-25.7397,1080.803],[24.4674,-25.7375,1079.3142],[24.4647,-25.7381,1079.0625],[24.463,-25.7426,1080.283],[24.4587,-25.7431,1079.4646],[24.4467,-25.7336,1077.8245],[24.4443,-25.7345,1079.027],[24.4439,-25.7393,1077.792],[24.4414,-25.7409,1077.439],[24.4354,-25.7342,1077.1516],[24.4329,-25.734,1077.0454],[24.4324,-25.7458,1077.3516],[24.426,-25.7515,1079.9851],[24.4109,-25.7458,1075.1473],[24.4054,-25.7471,1075.3013],[24.4038,-25.7603,1078.5436],[24.4013,-25.7624,1075.5295],[24.3973,-25.7619,1074.6454],[24.3924,-25.7549,1075.4138],[24.3867,-25.7577,1073.385],[24.3808,-25.7649,1074.3093],[24.3725,-25.7633,1073.9148],[24.3645,-25.7592,1072.9736],[24.3592,-25.7589,1072.3766],[24.3539,-25.7563,1074.2517],[24.3502,-25.75,1076.6254],[24.3392,-25.7455,1072.3105],[24.333,-25.7374,1071.0732],[24.3242,-25.7317,1070.4163],[24.3224,-25.7247,1070.0863],[24.3237,-25.7197,1073.8564],[24.3279,-25.7144,1069.795],[24.3264,-25.7109,1070.5793],[24.3224,-25.7106,1070.2468],[24.3149,-25.714,1069.0114],[24.3008,-25.7142,1069.5554],[24.2884,-25.7262,1068.8514],[24.2857,-25.7267,1069.5548],[24.2793,-25.7187,1067.6008],[24.2783,-25.7143,1066.155],[24.2832,-25.7094,1067.0446],[24.291,-25.7068,1068.2449],[24.2907,-25.6985,1069.4496],[24.2884,-25.6943,1067.0671],[24.2847,-25.6932,1068.1324],[24.2787,-25.6967,1064.4989],[24.2731,-25.7052,1065.6486],[24.2702,-25.7067,1066.4039],[24.2659,-25.7082,1066.9],[24.2609,-25.7073,1064.8058],[24.2589,-25.7027,1063.5707],[24.2607,-25.6919,1063.3152],[24.2473,-25.6848,1063.4495],[24.2516,-25.6746,1061.0886],[24.2474,-25.6721,1062.1094],[24.242,-25.6731,1065.6058],[24.2366,-25.67,1066.2147],[24.2338,-25.6626,1060.4912],[24.2265,-25.6558,1064.7236],[24.2278,-25.6474,1060.6147],[24.2268,-25.644,1060.4319],[24.2151,-25.6442,1059.9001],[24.2074,-25.6322,1058.3615],[24.2001,-25.6292,1059.7878],[24.1951,-25.6218,1056.8789],[24.1918,-25.6204,1057.349],[24.1845,-25.6212,1057.3218],[24.1795,-25.6268,1056.8516],[24.1708,-25.6311,1057.8671],[24.1595,-25.6301,1056.7866],[24.1569,-25.6254,1057.1125],[24.1623,-25.6183,1055.3284],[24.1631,-25.6152,1057.3813],[24.1606,-25.6106,1055.3428],[24.1571,-25.6082,1056.3105],[24.1527,-25.6085,1054.5406],[24.1406,-25.6142,1054.9229],[24.139,-25.6164,1055.3862],[24.1407,-25.6252,1059.2415],[24.1386,-25.6281,1056.0977],[24.1264,-25.6278,1054.2595],[24.115,-25.6317,1054.0496],[24.1043,-25.6304,1053.2155],[24.0929,-25.6352,1052.3853],[24.0858,-25.6434,1053.295],[24.0808,-25.641,1055.8629],[24.0776,-25.6308,1051.1587],[24.0738,-25.6297,1052.2076],[24.0677,-25.631,1050.8866],[24.0643,-25.6352,1053.0403],[24.0677,-25.6443,1051.0002],[24.0672,-25.6484,1050.2157],[24.0657,-25.6504,1050.5743],[24.0607,-25.6516,1050.7173],[24.0515,-25.6509,1049.3661],[24.0423,-25.645,1049.7397],[24.0357,-25.6369,1049.5778],[24.0299,-25.6343,1048.3218],[24.0267,-25.6364,1054.1497],[24.0274,-25.6423,1050.5397],[24.0258,-25.6447,1048.8103],[24.0171,-25.6457,1047.8242],[24.009,-25.6508,1047.5306],[24.0052,-25.6513,1049.7874],[24.0029,-25.6484,1047.8174],[24.003,-25.6346,1047.4207],[24.0123,-25.6287,1044.967],[24.012,-25.6245,1046.8137],[24.0037,-25.6202,1045.1433],[23.9838,-25.6216,1044.5791],[23.9774,-25.6161,1045.0546],[23.972,-25.6148,1045.1401],[23.966,-25.6153,1043.1711],[23.961,-25.6233,1043.2637],[23.9529,-25.6216,1042.9736],[23.9508,-25.6228,1043.3376],[23.9522,-25.6334,1042.1604],[23.9485,-25.6377,1042.6355],[23.9357,-25.6369,1041.0168],[23.9286,-25.6382,1041.5812],[23.9185,-25.6295,1042.9103],[23.9034,-25.6268,1045.6654],[23.9016,-25.6224,1045.5724],[23.907,-25.6055,1038.8247],[23.9025,-25.602,1039.4177],[23.8882,-25.5986,1038.1719],[23.8828,-25.5949,1040.1987],[23.8807,-25.5914,1038.5154],[23.8822,-25.5819,1037.3356],[23.8802,-25.5774,1038.1649],[23.8678,-25.572,1039.0834],[23.8562,-25.5728,1037.4473],[23.8445,-25.5708,1037.4695],[23.8397,-25.5679,1036.6157],[23.8376,-25.5643,1036.8192],[23.8381,-25.5617,1039.0072],[23.8421,-25.5573,1039.4668],[23.8435,-25.5525,1035.9358],[23.8364,-25.5419,1034.7893],[23.8306,-25.5415,1038.1053],[23.8245,-25.5484,1034.4463],[23.8205,-25.5506,1034.8462],[23.8161,-25.5502,1034.8771],[23.8092,-25.5459,1037.4255],[23.8055,-25.54,1035.1343],[23.8049,-25.5332,1036.0867],[23.8079,-25.5278,1032.8127],[23.8146,-25.5239,1034.6438],[23.8212,-25.5171,1034.3105],[23.8218,-25.5138,1033.2349],[23.8201,-25.512,1032.751],[23.812,-25.5087,1032.4994],[23.8044,-25.5084,1032.8885],[23.7921,-25.5123,1031.8682],[23.7855,-25.5125,1031.4728],[23.7764,-25.5037,1030.9548],[23.7629,-25.5032,1035.5441],[23.7611,-25.5004,1034.8259],[23.7635,-25.4899,1038.0974],[23.7605,-25.4866,1034.6758],[23.7532,-25.4837,1033.5767],[23.7514,-25.4816,1036.9294],[23.7522,-25.4769,1030.9149],[23.7575,-25.4721,1030.579],[23.758,-25.4687,1029.0172],[23.748,-25.4624,1028.8174],[23.7339,-25.4585,1029.1185],[23.729,-25.4464,1028.4045],[23.7222,-25.4462,1030.0012],[23.7093,-25.4599,1028.3085],[23.7025,-25.4624,1027.7438],[23.7011,-25.4601,1031.4375],[23.7019,-25.4512,1031.7616],[23.6963,-25.4456,1027.4164],[23.6896,-25.4437,1026.6986],[23.6796,-25.4474,1026.682],[23.672,-25.4459,1026.7338],[23.6667,-25.442,1030.0947],[23.6678,-25.4353,1026.8868],[23.6765,-25.4274,1024.8865],[23.6684,-25.4161,1027.238],[23.6595,-25.4154,1023.678],[23.6576,-25.4185,1029.019],[23.6574,-25.4271,1025.3673],[23.654,-25.4306,1025.3311],[23.6444,-25.4329,1026.7435],[23.6375,-25.4316,1025.019],[23.634,-25.4254,1023.4034],[23.6327,-25.4109,1030.8345],[23.6285,-25.4074,1023.6999],[23.6152,-25.4055,1022.2802],[23.6109,-25.4021,1023.7955],[23.6127,-25.3976,1025.949],[23.6182,-25.3937,1021.6655],[23.6203,-25.3899,1021.1926],[23.6192,-25.3864,1024.9773],[23.616,-25.3839,1022.364],[23.6066,-25.3817,1021.4635],[23.6026,-25.3846,1020.1385],[23.5988,-25.3951,1020.4631],[23.5949,-25.3969,1020.9041],[23.5893,-25.3965,1021.1039],[23.5861,-25.3948,1024.064],[23.5844,-25.3916,1024.457],[23.5844,-25.3756,1018.8301],[23.5674,-25.3699,1019.5992],[23.5573,-25.3717,1018.7013],[23.5562,-25.3666,1020.9628],[23.5614,-25.3577,1019.7441],[23.5596,-25.3547,1021.5591],[23.5484,-25.3521,1017.678],[23.5341,-25.3525,1016.5552],[23.5291,-25.3434,1016.7709],[23.524,-25.3401,1016.1845],[23.5016,-25.352,1015.3947],[23.4983,-25.3527,1015.1663],[23.4962,-25.3516,1018.3952],[23.4966,-25.3429,1014.5293],[23.5004,-25.3319,1020.3682],[23.4943,-25.3179,1025.1216],[23.4829,-25.3104,1015.3756],[23.4784,-25.2985,1012.6473],[23.4723,-25.2982,1014.4557],[23.4646,-25.301,1015.7458],[23.461,-25.3005,1013.465],[23.4581,-25.2977,1016.3193],[23.4579,-25.2943,1014.6497],[23.4681,-25.2802,1012.9186],[23.4658,-25.2768,1011.5428],[23.4483,-25.2749,1011.8815],[23.4422,-25.277,1010.6757],[23.4336,-25.2946,1011.9733],[23.4235,-25.3092,1010.5975],[23.4199,-25.3137,1013.2885],[23.4143,-25.3158,1012.6486],[23.4112,-25.315,1014.2851],[23.4035,-25.3072,1010.0624],[23.384,-25.3035,1009.3459],[23.3684,-25.3034,1016.6459],[23.3622,-25.2878,1007.8164],[23.3556,-25.2851,1008.4289],[23.3386,-25.2869,1007.8734],[23.3241,-25.2924,1006.641],[23.3197,-25.2896,1006.9375],[23.3155,-25.2827,1016.3701],[23.3113,-25.2818,1005.9688],[23.3089,-25.2828,1009.4807],[23.304,-25.2911,1006.2598],[23.295,-25.2941,1006.0082],[23.2897,-25.2911,1007.1512],[23.2849,-25.2796,1004.6238],[23.278,-25.2741,1005.1512],[23.26,-25.2797,1007.7544],[23.2476,-25.2754,1003.2653],[23.2346,-25.2808,1004.1826],[23.2176,-25.2739,1002.136],[23.212,-25.2734,1002.4879],[23.2066,-25.2762,1002.2886],[23.1943,-25.2769,1001.5743],[23.1875,-25.279,1002.0851],[23.1731,-25.2897,1000.4486],[23.1696,-25.2997,1009.1662],[23.1656,-25.3039,1000.4905],[23.148,-25.3032,1000.1683],[23.1426,-25.3082,1004.5847],[23.1388,-25.3148,1000.3711],[23.1345,-25.3174,999.6157],[23.1285,-25.3164,999.1222],[23.1136,-25.3036,998.9638],[23.1069,-25.3044,998.6886],[23.0978,-25.3112,998.2172],[23.0884,-25.3136,998.7205],[23.0879,-25.325,997.6678],[23.0843,-25.3296,998.562],[23.0787,-25.332,998.0903],[23.0664,-25.3296,998.4828],[23.0597,-25.326,995.8126],[23.0544,-25.3186,1000.15],[23.0561,-25.3119,998.3008],[23.062,-25.3034,996.9396],[23.0616,-25.2949,996.4612],[23.0584,-25.2899,994.3149],[23.0516,-25.2908,997.7463],[23.0448,-25.3014,1001.422],[23.0314,-25.3128,993.4808],[23.028199999999998,-25.3125,995.3664],[23.0278,-25.3102,1001.3151],[23.0155,-25.299,992.4844],[23.011,-25.2972,992.2593],[23.0078,-25.2982,992.3121],[23.0061,-25.3025,991.8979],[23.0066,-25.3081,991.1263],[23.0134,-25.3296,993.0302],[23.0113,-25.3359,990.4127],[23.0033,-25.3399,991.2405],[22.9881,-25.3381,990.1887],[22.9779,-25.3399,989.7087],[22.9727,-25.3472,991.3286],[22.9746,-25.3524,992.0717],[22.9737,-25.3587,989.7454],[22.9762,-25.3642,993.4453],[22.9764,-25.3707,992.5987],[22.97,-25.3811,986.571],[22.9309,-25.4064,988.8433],[22.9191,-25.4122,985.0365],[22.91,-25.4223,984.3377],[22.8986,-25.4551,983.4666],[22.8857,-25.4684,983.2329],[22.8881,-25.4771,982.6046],[22.9007,-25.4813,982.2948],[22.9004,-25.4869,981.8497],[22.8941,-25.4887,982.5822],[22.8825,-25.4839,981.7585],[22.8638,-25.4796,981.0364],[22.8515,-25.4841,986.0645],[22.8464,-25.4902,980.6562],[22.8477,-25.4966,980.7727],[22.8573,-25.5028,979.318],[22.8603,-25.507,982.6832],[22.852,-25.521,988.5174],[22.8535,-25.5335,978.5506],[22.8526,-25.5355,982.0065],[22.8401,-25.5447,977.9789],[22.8267,-25.5723,976.9852],[22.8148,-25.5788,979.7737],[22.8141,-25.5824,978.2924],[22.8182,-25.5863,980.253],[22.8264,-25.5895,985.3423],[22.8474,-25.6056,976.3649],[22.8535,-25.6116,976.2242],[22.8534,-25.6152,976.5355],[22.8478,-25.6214,976.2895],[22.8306,-25.6209,978.3251],[22.8044,-25.6299,974.5468],[22.8004,-25.6328,975.4796],[22.7995,-25.6352,975.3333],[22.8018,-25.6414,975.3323],[22.8083,-25.6509,974.9155],[22.8161,-25.6552,974.5261],[22.8277,-25.6551,973.6454],[22.8302,-25.6578,973.9645],[22.8303,-25.6624,973.1536],[22.8215,-25.6774,972.3207],[22.8215,-25.6905,973.1749],[22.7999,-25.7231,974.395],[22.7934,-25.7271,971.5574],[22.7732,-25.7302,970.8751],[22.7693,-25.7328,974.0422],[22.7663,-25.7398,971.0356],[22.7651,-25.7479,969.4849],[22.7634,-25.781,975.1904],[22.7593,-25.7887,969.2375],[22.7546,-25.7901,969.0629],[22.7385,-25.7878,972.0105],[22.7346,-25.7937,969.3517],[22.7382,-25.7983,968.239],[22.7511,-25.8062,967.3863],[22.7768,-25.8147,966.8629],[22.7801,-25.8187,970.1971],[22.7817,-25.8244,968.6838],[22.7814,-25.8288,967.0344],[22.7789,-25.8333,965.9037],[22.7719,-25.8411,967.2136],[22.7587,-25.8494,966.7858],[22.736,-25.8565,965.5289],[22.7349,-25.8623,970.4432],[22.7412,-25.8759,967.9305],[22.7381,-25.8818,965.8674],[22.7239,-25.8868,965.3087],[22.7173,-25.8875,965.3389],[22.7134,-25.8899,963.2314],[22.712,-25.893,965.0491],[22.7126,-25.8993,963.347],[22.7182,-25.9056,963.3662],[22.7229,-25.9084,964.1812],[22.7449,-25.9134,964.2118],[22.7492,-25.918,963.6356],[22.7484,-25.9227,962.6936],[22.736,-25.9306,964.7095],[22.7286,-25.9389,970.6275],[22.7239,-25.9501,960.7545],[22.7232,-25.9579,963.0052],[22.7288,-25.9701,964.4684],[22.7294,-25.9754,964.3885],[22.7246,-25.9995,963.6579],[22.7253,-26.0145,959.0085],[22.7211,-26.0186,962.0652],[22.7084,-26.0203,959.3627],[22.6955,-26.0182,958.4613],[22.6788,-26.0131,958.8832],[22.6688,-26.0142,959.226],[22.6649,-26.0195,961.1518],[22.6638,-26.0249,958.3657],[22.6717,-26.0432,957.2565],[22.6703,-26.0576,956.6545],[22.6731,-26.0737,956.7043],[22.6496,-26.0868,956.26],[22.6375,-26.090699999999998,956.8922],[22.6295,-26.0972,958.5096],[22.6291,-26.1026,955.6608],[22.637,-26.1131,954.3584],[22.6369,-26.1163,955.6096],[22.6307,-26.1226,955.0891],[22.7029,-26.1199,983.6502],[22.7088,-26.4109,1005.6791],[22.7447,-26.4247,1014.4515],[22.8032,-26.4537,1021.8562],[22.8419,-26.3933,1027.3452],[22.8484,-26.3759,1029.545],[22.8808,-26.2624,1031.5073],[22.8993,-26.2136,1032.3301],[22.9071,-26.1459,1029.2582],[22.9811,-26.1526,1041.7793],[22.987,-26.09,1037.5159],[23.0648,-26.0991,1055.2355],[23.0881,-26.0436,1053.3829],[23.0883,-25.999,1046.6438],[23.0869,-25.9826,1043.2279],[23.3206,-25.9928,1055.2852],[23.3874,-26.0062,1082.4434],[23.3539,-26.0895,1059.2424],[23.3069,-26.0703,1033.774],[23.2321,-26.0527,1107.3409],[23.2158,-26.1157,1113.843],[23.2519,-26.1138,1101.6189],[23.311,-26.1418,1055.9048],[23.2647,-26.2045,1057.2537],[23.2217,-26.2713,1034.6619],[23.282,-26.3395,1064.9402],[23.2664,-26.4854,1056.7241],[23.463,-26.5311,1090.7054],[23.5837,-26.6171,1139.8032],[23.5471,-26.6583,1101.2887],[23.4871,-26.7397,1150.9729],[23.5209,-26.7555,1157.9143],[23.5689,-26.7749,1169.957],[23.6153,-26.79,1180.7686],[23.6465,-26.8075,1190.6022],[23.7251,-26.8291,1205.7173],[23.7607,-26.8409,1209.972],[23.8532,-26.8901,1241.6843],[23.8695,-26.8568,1244.8444],[23.9169,-26.8579,1253.0172],[23.9628,-26.8983,1276.343],[23.9704,-26.8942,1280.6951],[24.001,-26.9433,1297.3716],[24.026,-26.9993,1337.6957],[24.0375,-27.0537,1338.1901],[23.976,-27.0793,1342.4666],[23.9736,-27.0964,1291.2927],[23.9156,-27.2141,1384.5598],[23.9101,-27.2251,1388.8292],[23.8983,-27.2355,1392.5142],[23.8965,-27.2527,1395.3749],[23.9412,-27.2764,1412.3156],[23.9502,-27.2828,1414.6863],[23.9529,-27.2815,1415.2765],[24.0149,-27.3237,1441.8986],[24.0639,-27.3532,1456.2434],[24.0724,-27.3556,1456.4553],[24.0863,-27.3535,1455.2946],[24.0575,-27.4294,1466.799],[24.0522,-27.4627,1465.8923],[24.0553,-27.5079,1472.2528],[24.0492,-27.5586,1488.5265],[24.0506,-27.6027,1451.9398],[24.1186,-27.6217,1424.7668],[24.1051,-27.6515,1435.1294],[24.0933,-27.7049,1424.0906],[24.111,-27.739,1415.229],[24.4053,-27.6812,1354.2231],[24.4468,-27.7029,1348.1558],[24.4088,-27.7611,1346.9451],[24.4526,-27.7825,1321.1603],[24.4274,-27.8405,1314.9419],[24.4099,-27.8428,1327.3474],[24.3605,-27.9107,1309.7704],[24.3926,-27.9415,1255.5208],[24.41,-27.9233,1252.5677],[24.4673,-27.9806,1186.4658],[24.4682,-27.9967,1154.4386],[24.4587,-28.0128,1156.0262],[24.4445,-28.0319,1151.928],[24.4655,-28.0358,1117.3207],[24.5346,-28.0921,1041.0],[24.5526,-28.0784,1041.0],[24.5599,-28.0747,1041.0],[24.5637,-28.07,1041.0],[24.5632,-28.0569,1041.0],[24.5577,-28.0445,1041.0],[24.5595,-28.0388,1041.0],[24.5664,-28.0348,1041.0],[24.5788,-28.0326,1042.2131],[24.5887,-28.0279,1041.3081],[24.5919,-28.0313,1043.6035],[24.5941,-28.0287,1043.4589],[24.6037,-28.029,1043.6514],[24.608,-28.0262,1043.6171],[24.6089,-28.0273,1044.1279],[24.6143,-28.0225,1045.8778],[24.6141,-28.0204,1044.0107],[24.6086,-28.015,1045.6544],[24.6082,-28.0117,1044.6771],[24.617,-28.008,1044.657],[24.6166,-28.0065,1044.5652],[24.6209,-28.0012,1044.6804],[24.6232,-28.0017,1044.9105],[24.6248,-27.9992,1044.788],[24.6282,-27.9998,1046.1196],[24.6273,-27.9971,1045.1547],[24.6294,-27.9945,1045.2911],[24.6273,-27.9909,1045.4734],[24.625,-27.9907,1045.7539],[24.6245,-27.9873,1045.4749],[24.6219,-27.9841,1045.8918],[24.6209,-27.9786,1046.431],[24.6231,-27.9765,1046.1239],[24.6208,-27.9749,1046.4202],[24.6227,-27.974,1045.9038],[24.6219,-27.972,1047.8403],[24.6256,-27.9672,1046.7621],[24.6265,-27.963,1046.8243],[24.6223,-27.9613,1046.8553],[24.6202,-27.9527,1047.6089]]]]}}