{"type":"Feature","properties":{"featurecla":"River","scalerank":7,"rivernum":450,"dissolve":"450River","name":"Marico","name_alt":null,"note":null,"min_zoom":6.0,"strokeweig":0.2,"name_en":"Marico","min_label":7.0},
"geometry":{"type": "LineString","coordinates": [[26.431054687500023,-24.982256768755889,970.8696],[26.431054687500023,-24.982256768755889,970.8696],[26.431054687500023,-24.982256768755889,970.8696],[26.431054687500023,-24.982256768755889,970.8696],[26.431054687500023,-24.982256768755889,970.8696],[26.442626953125,-24.970538018755889,961.452],[26.4462890625,-24.947295831255886,956.0],[26.444726562500023,-24.89617278438088,956.0],[26.446533203125,-24.881182550005889,956.0],[26.455175781250006,-24.85759856563088,941.3633],[26.458398437500023,-24.845049737505889,963.0582],[26.457421875000023,-24.83196380000588,960.9266],[26.447265625,-24.81853606563088,955.8414],[26.438378906250023,-24.78606536250588,934.768],[26.41015625,-24.74163176875588,934.3079],[26.40380859375,-24.714678643755889,939.1554],[26.40380859375,-24.63274505000588,930.0398]]}}