{"type":"Feature","properties":{"featurecla":"Lake Centerline","scalerank":4,"rivernum":101,"dissolve":"101Lake Centerline","name":"Vaal1","name_alt":null,"note":null,"min_zoom":4.0,"strokeweig":0.25,"name_en":"Vaal","min_label":5.0},
"geometry":{"type": "LineString","coordinates": [[26.0908203125,-27.60344817500588,1241.5751],[26.088769531250023,-27.605987237505886,1234.7064],[26.08154296875,-27.610870050005886,1233.6703],[26.0791015625,-27.61321380000588,1232.3291],[26.055273437500006,-27.652666925005889,1237.2915],[26.05322265625,-27.657745050005886,1233.65],[26.052441406250011,-27.66326262813088,1229.0372],[26.0537109375,-27.66838958125588,1229.1887],[26.055566406250023,-27.67327239375588,1257.7107],[26.066796875000023,-27.691241143755889,1249.5211],[26.06884765625,-27.695830987505886,1246.2432],[26.069433593750006,-27.701495050005889,1239.1194],[26.068261718750023,-27.70647551875588,1232.9868],[26.065185546875,-27.71087005000588,1227.5],[26.060937500000023,-27.71379973750588,1227.0],[26.0556640625,-27.71624114375588,1230.6111],[26.049218750000023,-27.71819426875588,1230.5503],[26.041748046875,-27.719073175005889,1229.0194],[26.032128906250023,-27.719073175005889,1229.6321],[26.024658203125,-27.716631768755889,1232.2925],[26.01904296875,-27.71209075313088,1237.0573],[26.013769531250006,-27.70330169063088,1236.448],[26.011816406250006,-27.69573333125588,1237.4746],[26.009765625,-27.68206145625588,1226.5],[26.005126953125,-27.665557550005886,1226.5],[26.000878906250023,-27.64275481563088,1226.5],[25.99951171875,-27.63933684688088,1226.5],[25.994140625,-27.63616301875588,1226.5],[25.984082031250011,-27.63298919063088,1226.5],[25.915625,-27.62029387813088,1241.2354],[25.9033203125,-27.619659112505886,1234.0281],[25.880859375,-27.621416925005889,1226.5],[25.874267578125,-27.62102630000588,1226.5],[25.865820312500006,-27.61785247188088,1226.5],[25.856542968750006,-27.612139581255889,1226.5],[25.842041015625,-27.59832122188088,1226.5],[25.830322265625,-27.58391692500588,1233.0804],[25.8203125,-27.57903411250588,1232.1527],[25.7984375,-27.58074309688088,1226.5],[25.69384765625,-27.63445403438088,1235.5706],[25.666894531250023,-27.653155206255889,1230.3088],[25.66259765625,-27.65960051875588,1226.5],[25.654541015625,-27.668975518755886,1226.5],[25.647070312500006,-27.672393487505886,1226.5],[25.640234375,-27.67327239375588,1226.5],[25.622314453125,-27.668487237505886,1226.5]]}}