{"type": "Feature","id": "1201","bbox": [22.62086,-28.09958,28.2937,-24.62237],"geometry": {"type": "Polygon","coordinates": [[[26.404,-24.63276,925.3895],[26.38162,-24.6295,961.1771],[26.36354,-24.62806,939.5569],[26.34452,-24.62403,946.3303],[26.32571,-24.62237,952.6411],[26.27879,-24.62847,958.9261],[26.16591,-24.66085,1021.8528],[26.01358,-24.70454,1029.1937],[25.98113,-24.72634,1030.9009],[25.96604,-24.73358,1076.6517],[25.91468,-24.73182,1014.29],[25.88171,-24.74216,1010.9707],[25.87406,-24.7434,1006.5159],[25.86837,-24.74815,1011.2645],[25.86693,-24.77265,1014.3953],[25.87726,-24.84572,1021.4575],[25.87675,-24.88603,1036.6041],[25.8662,-24.91817,1106.9482],[25.83706,-24.97915,1042.5603],[25.8352,-25.01635,1048.7009],[25.80492,-25.06483,1095.3655],[25.7829,-25.13138,1156.8419],[25.69546,-25.30998,1274.2267],[25.66353,-25.44,1370.2736],[25.65284,-25.46332,1370.3336],[25.60886,-25.55927,1331.4282],[25.58725,-25.61952,1296.506],[25.45842,-25.71119,1224.3143],[25.38649,-25.74354,1198.6089],[25.17782,-25.76328,1160.0551],[25.13596,-25.75657,1154.2979],[25.09028,-25.74365,1147.0776],[25.05173,-25.73786,1146.0354],[25.01328,-25.74303,1149.2067],[24.96791,-25.76287,1123.3851],[24.90838,-25.80411,1126.0051],[24.88854,-25.81165,1129.4287],[24.8289,-25.82602,1133.9805],[24.79862,-25.82922,1111.953],[24.77071,-25.82261,1121.4709],[24.73795,-25.81589,1119.0311],[24.66498,-25.82333,1110.9562],[24.62964,-25.8161,1095.5229],[24.57672,-25.78333,1098.068],[24.50085,-25.75785,1085.1403],[24.45673,-25.74303,1082.423],[24.43678,-25.7453,1088.3109],[24.41673,-25.75305,1082.0715],[24.38924,-25.75946,1080.3927],[24.33891,-25.75181,1081.4153],[24.29674,-25.72349,1076.095],[24.2277,-25.64898,1059.5769],[24.18346,-25.62593,1060.0769],[24.13096,-25.62624,1061.3077],[24.02709,-25.65177,1064.1676],[24.0057,-25.65466,1061.4069],[24.00425,-25.64991,1047.8586],[24.00962,-25.64133,1058.9387],[24.00869,-25.63316,1054.906],[23.99826,-25.62531,1057.7018],[23.98802,-25.61952,1055.2665],[23.97645,-25.61756,1046.96],[23.92477,-25.62924,1057.0811],[23.90575,-25.61849,1048.6875],[23.89067,-25.59885,1039.2175],[23.8454,-25.56908,1043.7683],[23.80747,-25.52361,1043.7383],[23.79858,-25.51854,1047.2922],[23.77832,-25.51255,1045.6562],[23.76902,-25.50738,1038.2352],[23.7623,-25.49849,1030.6824],[23.75207,-25.47762,1030.9149],[23.74266,-25.46997,1043.1743],[23.68675,-25.45436,1036.0656],[23.67424,-25.44258,1036.1812],[23.6667,-25.43266,1038.2444],[23.56107,-25.35731,1019.7441],[23.53585,-25.34326,1032.4587],[23.50661,-25.33096,1031.5149],[23.49658,-25.32424,1014.3079],[23.48346,-25.31153,1015.4814],[23.46816,-25.29024,1030.4882],[23.45927,-25.28218,1028.6478],[23.4449,-25.27815,1023.7662],[23.43199,-25.28032,1036.3459],[23.39922,-25.29138,1027.3274],[23.38145,-25.29262,1028.3503],[23.36594,-25.28931,1020.2459],[23.32036,-25.27339,1021.8835],[23.26569,-25.26399,1019.0288],[23.21608,-25.26719,1015.3557],[23.16854,-25.28001,1013.364],[23.0934,-25.31246,999.1866],[23.08389,-25.31969,1011.3488],[23.0717,-25.326,1011.6185],[23.0655,-25.32083,1011.1677],[23.06116,-25.3107,1007.3527],[23.05454,-25.30254,1012.5209],[23.03067,-25.29944,1002.2297],[23.007,-25.31081,991.1235],[22.96803,-25.34688,1003.5463],[22.96256,-25.35576,1007.1695],[22.96028,-25.36434,1003.093],[22.95615,-25.37209,1005.4381],[22.94478,-25.37871,1005.1792],[22.93093,-25.38429,1006.5504],[22.92049,-25.39049,1007.2338],[22.91191,-25.39907,1005.4517],[22.90365,-25.41137,1000.5492],[22.88763,-25.45023,999.0342],[22.87677,-25.46201,993.8349],[22.85135,-25.47131,993.8337],[22.84463,-25.48113,987.9288],[22.82468,-25.54304,993.7367],[22.81683,-25.55844,990.2606],[22.81404,-25.5666,989.0344],[22.81342,-25.57508,983.5458],[22.81921,-25.5849,980.1207],[22.82871,-25.59554,988.3738],[22.83337,-25.60608,991.28],[22.82437,-25.6158,989.8642],[22.81083,-25.62531,985.7389],[22.80959,-25.63327,991.8251],[22.81342,-25.64195,989.1558],[22.81497,-25.6528,984.8882],[22.8128,-25.66706,989.537],[22.81021,-25.6774,988.5585],[22.80443,-25.68722,988.0323],[22.75978,-25.73486,985.7543],[22.74645,-25.75533,986.2206],[22.74045,-25.77703,985.4567],[22.74117,-25.79088,980.7375],[22.745,-25.79408,983.8762],[22.75089,-25.79605,989.1033],[22.75792,-25.80597,983.724],[22.76412,-25.82033,982.4347],[22.76546,-25.82654,983.0264],[22.75471,-25.84338,980.6414],[22.73952,-25.85847,978.5153],[22.71947,-25.87429,976.9781],[22.70883,-25.89103,979.0718],[22.72164,-25.90901,967.0091],[22.72681,-25.92162,979.5894],[22.72722,-25.94395,961.7222],[22.72422,-25.96751,973.8],[22.71937,-25.98425,976.8439],[22.71048,-25.99686,971.6124],[22.70066,-26.00327,975.1125],[22.67224,-26.01288,959.885],[22.66159,-26.02094,967.4894],[22.66211,-26.02983,970.0579],[22.66583,-26.03986,970.2548],[22.665,-26.05143,973.365],[22.62325,-26.10931,968.1051],[22.62086,-26.11153,968.0211],[22.6248,-26.11153,970.4182],[22.69431,-26.11494,979.7635],[22.70237,-26.41322,1004.991],[22.68919,-26.428,1001.9647],[22.68376,-26.44769,1002.024],[22.68252,-26.47399,1001.5963],[22.68671,-26.49828,1002.5874],[22.68795,-26.50107,1003.8235],[22.69632,-26.55058,1000.5636],[22.70438,-26.5653,998.2046],[22.71492,-26.57212,975.89],[22.73963,-26.57409,998.7886],[22.75296,-26.57316,1002.41],[22.76614,-26.57083,1004.3123],[22.79425,-26.57114,1006.3932],[22.80789,-26.57398,1008.2981],[22.82618,-26.57579,1007.7966],[22.84153,-26.58396,1006.1699],[22.85383,-26.59471,1016.1033],[22.86654,-26.59884,1012.228],[22.89848,-26.60194,1004.8091],[22.91806,-26.60907,1012.0777],[22.92861,-26.61884,1019.614],[22.93667,-26.62799,1025.3157],[22.94101,-26.6345,1029.161],[22.94736,-26.63197,1022.7759],[22.96369,-26.63042,1021.9529],[23.03103,-26.67284,1049.483],[23.03537,-26.68674,1053.7878],[23.02622,-26.72343,1053.7761],[23.02591,-26.74328,1059.8665],[23.0301,-26.77837,1075.1335],[23.02669,-26.79955,1078.7716],[23.01144,-26.82002,1085.1503],[23.00524,-26.83872,1115.068],[23.004,-26.852,1107.627],[23.03847,-26.95386,1171.0503],[23.06746,-26.99287,1144.4893],[23.07366,-26.9997,1104.5863],[23.07356,-27.00057,1104.5863],[23.07242,-27.00249,1103.0914],[23.0686,-27.00781,1098.7098],[23.05552,-27.01478,1090.2402],[23.01098,-27.03044,1056.3889],[22.99796,-27.04651,1047.3303],[22.99051,-27.07271,1046.8014],[22.98819,-27.1046,1044.3113],[22.98896,-27.12465,1024.1086],[22.99284,-27.15095,1046.0009],[23.00524,-27.18041,1066.22],[23.0163,-27.19415,1071.5902],[23.03289,-27.20578,1079.2472],[23.08131,-27.21178,1152.2828],[23.12239,-27.24356,1196.4287],[23.21195,-27.33404,1272.96],[23.23179,-27.34577,1319.0199],[23.25277,-27.35027,1247.4739],[23.30088,-27.35296,1275.1597],[23.32848,-27.35978,1297.3147],[23.34806,-27.36913,1314.3302],[23.40532,-27.41099,1314.9325],[23.41679,-27.41486,1312.3125],[23.42377,-27.41378,1310.2058],[23.44857,-27.41641,1314.347],[23.47002,-27.43249,1329.459],[23.47715,-27.44391,1335.1798],[23.48149,-27.45347,1341.1174],[23.48304,-27.46509,1342.7957],[23.571,-27.47486,1390.2627],[23.60066,-27.48339,1411.9744],[23.64195,-27.50659,1434.7767],[23.68303,-27.52375,1447.4147],[23.72634,-27.53692,1466.448],[23.75088,-27.53382,1464.0374],[23.7729,-27.5132,1469.1782],[23.78344,-27.49842,1461.3621],[23.787,-27.49548,1458.5486],[23.80085,-27.48907,1454.5002],[23.82225,-27.4885,1458.6261],[23.85697,-27.49222,1465.5715],[23.87702,-27.49098,1462.3093],[23.89113,-27.48365,1466.4075],[23.89687,-27.47414,1467.652],[23.89377,-27.46297,1467.0914],[23.87749,-27.45217,1458.3904],[23.87454,-27.44034,1456.6819],[23.87888,-27.42659,1454.345],[23.89284,-27.41502,1455.7755],[23.91051,-27.41016,1455.8546],[23.94203,-27.4159,1463.368],[23.97697,-27.41729,1465.1514],[23.98162,-27.40892,1465.382],[23.97557,-27.3853,1460.9939],[23.97325,-27.37042,1453.0262],[23.97495,-27.3466,1442.3448],[23.98363,-27.33223,1436.0559],[23.98735,-27.32402,1433.7657],[23.99061,-27.31239,1430.1677],[24.0134,-27.33621,1442.1154],[24.03887,-27.37244,1456.0862],[24.03624,-27.47471,1465.1786],[24.03298,-27.49341,1471.9631],[24.03221,-27.50897,1477.7705],[24.03732,-27.52716,1488.4919],[24.04337,-27.58524,1466.2673],[24.07019,-27.63082,1449.9032],[24.07035,-27.69211,1435.564],[24.09784,-27.74709,1416.8752],[24.40753,-27.68436,1354.1277],[24.41265,-27.70146,1353.4622],[24.42247,-27.72125,1350.8774],[24.42929,-27.79009,1334.924],[24.42448,-27.81334,1307.4863],[24.4158,-27.82936,1319.2615],[24.38428,-27.85783,1313.8402],[24.37343,-27.87628,1309.2163],[24.36258,-27.89887,1303.3887],[24.36893,-27.91917,1278.8213],[24.38025,-27.93044,1263.9897],[24.40505,-27.93556,1244.3638],[24.41994,-27.94517,1221.9883],[24.44712,-27.97721,1168.8546],[24.44929,-27.99762,1187.5023],[24.44355,-28.00811,1151.1589],[24.43782,-28.02294,1187.0801],[24.43844,-28.03756,1145.6578],[24.51972,-28.09958,1041.0],[24.54597,-28.07493,1041.0],[24.55512,-28.06056,1044.5286],[24.55776,-28.0525,1041.0],[24.56318,-28.0402,1042.6488],[24.57124,-28.03167,1041.0],[24.61129,-28.0001,1049.1476],[24.61843,-27.97995,1049.0221],[24.6206,-27.96832,1051.2325],[24.62122,-27.96155,1048.9839],[24.61889,-27.93612,1053.0974],[24.61765,-27.92972,1058.3801],[24.62122,-27.90429,1051.205],[24.63811,-27.88569,1054.7031],[24.64793,-27.86559,1058.6564],[24.65413,-27.8599,1054.4937],[24.66204,-27.8568,1059.9412],[24.67289,-27.85386,1056.0112],[24.67956,-27.84827,1055.4058],[24.68498,-27.84026,1060.6908],[24.69134,-27.82641,1062.3481],[24.69305,-27.81732,1071.3806],[24.69274,-27.80125,1075.4094],[24.69403,-27.78978,1066.1716],[24.701,-27.76714,1073.0979],[24.7024,-27.75572,1062.4597],[24.69992,-27.73087,1065.5271],[24.69775,-27.72601,1068.0052],[24.69413,-27.72218,1068.9156],[24.6839,-27.71748,1070.1389],[24.67925,-27.71474,1075.2338],[24.6763,-27.71035,1074.9426],[24.67088,-27.69107,1073.283],[24.66948,-27.68017,1071.3257],[24.67134,-27.67175,1073.5156],[24.68126,-27.65371,1071.1637],[24.6825,-27.64653,1072.9091],[24.68126,-27.64079,1074.2456],[24.67878,-27.63392,1075.9471],[24.67692,-27.62493,1075.6492],[24.67708,-27.60731,1080.9443],[24.6794,-27.59676,1083.0342],[24.68452,-27.58633,1077.8958],[24.68979,-27.58292,1079.1125],[24.69651,-27.581,1080.4011],[24.71108,-27.581,1082.8821],[24.73821,-27.5854,1089.1903],[24.74317,-27.58555,1089.8927],[24.75718,-27.60018,1110.8347],[24.76601,-27.62958,1120.2064],[24.77702,-27.65051,1135.8197],[24.78028,-27.66766,1135.1577],[24.78927,-27.68069,1141.6804],[24.8149,-27.6872,1246.7634],[24.97205,-27.68549,1294.5962],[24.99148,-27.6872,1287.446],[25.0031,-27.69045,1278.4971],[25.01365,-27.6948,1270.0537],[25.02667,-27.70771,1260.7621],[24.84203,-27.906,1151.4907],[24.82451,-27.90905,1142.0129],[24.93236,-28.09663,1207.6953],[24.94016,-28.09896,1200.79],[24.94895,-28.09818,1195.5803],[24.96275,-28.09074,1193.187],[24.98512,-28.0725,1193.5133],[24.9937,-28.07074,1194.5321],[25.00512,-28.07007,1193.7881],[25.01349,-28.06821,1194.2683],[25.01499,-28.0679,1195.6028],[25.02352,-28.05529,1199.7544],[25.03334,-28.05575,1199.278],[25.04476,-28.05824,1196.9388],[25.05339,-28.05824,1196.2366],[25.06682,-28.04743,1197.7997],[25.08129,-28.03012,1194.3038],[25.10181,-27.99741,1198.6172],[25.10165,-27.99106,1196.9218],[25.09855,-27.98532,1199.105],[25.09783,-27.97793,1194.6622],[25.12408,-27.93535,1200.3019],[25.12909,-27.9291,1195.2327],[25.13932,-27.92424,1190.3362],[25.15007,-27.92227,1195.1827],[25.17379,-27.92227,1199.3473],[25.17875,-27.91902,1199.928],[25.18929,-27.90445,1191.1733],[25.19426,-27.90119,1204.9653],[25.20857,-27.89406,1212.3993],[25.225,-27.87763,1199.9844],[25.2389,-27.85928,1219.8423],[25.24578,-27.84657,1207.4817],[25.24066,-27.83127,1202.5],[25.24061,-27.8229,1217.7958],[25.24888,-27.81928,1217.062],[25.25306,-27.81623,1217.6508],[25.2697,-27.79505,1213.8225],[25.28014,-27.78745,1216.7866],[25.29043,-27.78575,1215.6064],[25.30143,-27.78626,1213.8579],[25.31404,-27.78513,1214.6456],[25.32681,-27.78146,1213.8174],[25.33378,-27.77768,1215.1697],[25.40623,-27.71965,1212.6774],[25.42143,-27.7104,1216.4856],[25.4854,-27.69511,1218.606],[25.49134,-27.68813,1213.8799],[25.49646,-27.68358,1216.2045],[25.50245,-27.68146,1215.9298],[25.50866,-27.68265,1215.7061],[25.51796,-27.68777,1215.6321],[25.52292,-27.6889,1216.5626],[25.53408,-27.68673,1216.7759],[25.55139,-27.67743,1220.6477],[25.55739,-27.67526,1218.0553],[25.56281,-27.67237,1218.0442],[25.57397,-27.65888,1228.5728],[25.58095,-27.6548,1226.6968],[25.59185,-27.6548,1213.312],[25.60302,-27.65795,1210.8484],[25.62255,-27.66844,1226.5],[25.63433,-27.67128,1226.5],[25.64038,-27.67325,1226.5],[25.64735,-27.67237,1226.5],[25.65469,-27.66891,1226.5],[25.66275,-27.6596,1226.5],[25.6671,-27.65299,1230.3088],[25.69407,-27.63439,1235.958],[25.79866,-27.58069,1226.5],[25.82057,-27.57888,1232.1527],[25.8305,-27.58385,1233.0804],[25.84228,-27.59832,1226.5],[25.8567,-27.61201,1226.5],[25.866,-27.61769,1226.5],[25.87442,-27.62095,1226.5],[25.88109,-27.62136,1226.5],[25.90357,-27.61955,1226.5],[25.91581,-27.62023,1241.2354],[25.98429,-27.63289,1226.5],[25.99436,-27.63609,1226.5],[25.99979,-27.63924,1226.5],[26.00103,-27.64276,1226.5],[26.00537,-27.66549,1226.5],[26.01002,-27.68193,1226.5],[26.01204,-27.69557,1237.4746],[26.01405,-27.70317,1236.448],[26.01917,-27.71205,1236.8779],[26.0249,-27.71645,1232.2925],[26.03234,-27.71893,1229.6321],[26.04196,-27.71903,1228.9988],[26.04945,-27.71815,1230.5503],[26.05596,-27.71624,1230.6111],[26.06123,-27.71376,1227.0],[26.06542,-27.71071,1227.5],[26.06836,-27.70647,1232.9868],[26.0696,-27.70141,1239.1194],[26.06898,-27.69583,1246.2432],[26.06697,-27.69107,1249.5211],[26.05581,-27.67325,1257.7107],[26.05394,-27.66829,1229.1887],[26.0527,-27.66317,1229.0372],[26.05348,-27.65764,1233.65],[26.0555,-27.65252,1237.2915],[26.07937,-27.61309,1232.3291],[26.0817,-27.61077,1233.6703],[26.08852,-27.60204,1240.8071],[26.10159,-27.58633,1234.756],[26.19109,-27.51078,1261.7938],[26.19714,-27.50866,1254.5989],[26.21342,-27.50525,1241.1685],[26.21843,-27.50333,1243.6689],[26.22685,-27.49486,1234.4387],[26.22856,-27.48923,1234.5591],[26.22711,-27.48287,1238.4805],[26.22587,-27.47259,1236.0415],[26.23244,-27.44654,1237.3551],[26.24959,-27.42597,1238.24],[26.27372,-27.41254,1239.4124],[26.30096,-27.40773,1254.6853],[26.30747,-27.41083,1249.2192],[26.31662,-27.41703,1242.9171],[26.32478,-27.42132,1239.7704],[26.3283,-27.41858,1233.8293],[26.32959,-27.41683,1233.889],[26.33884,-27.39781,1237.3418],[26.34953,-27.38965,1245.0062],[26.36219,-27.3868,1241.9917],[26.39036,-27.38727,1249.561],[26.40943,-27.39285,1252.2344],[26.50844,-27.39378,1247.9851],[26.51325,-27.39068,1238.0],[26.5103,-27.38324,1239.4125],[26.50286,-27.37786,1249.9684],[26.49288,-27.37471,1248.3668],[26.48281,-27.37363,1249.7919],[26.45728,-27.36763,1258.4648],[26.45015,-27.3529,1247.6501],[26.45599,-27.33404,1243.0847],[26.46917,-27.31559,1241.2827],[26.47748,-27.31099,1250.6479],[26.4826,-27.3128,1247.1934],[26.48524,-27.31084,1239.5],[26.48591,-27.25379,1254.2181],[26.46777,-27.23224,1252.2781],[26.43309,-27.2048,1251.3259],[26.41113,-27.17684,1271.9368],[26.43129,-27.1539,1271.4467],[26.48968,-27.1386,1280.3623],[26.5058,-27.12718,1266.4055],[26.53185,-27.0985,1290.0758],[26.54394,-27.09809,1275.3715],[26.56787,-27.1061,1282.644],[26.58244,-27.09478,1284.8214],[26.58368,-27.08264,1289.621],[26.58042,-27.06853,1288.783],[26.58151,-27.05148,1273.543],[26.58787,-27.04145,1272.0],[26.61525,-27.01391,1276.3351],[26.62931,-27.00367,1275.1705],[26.64492,-26.99933,1284.3284],[26.65856,-27.00228,1294.2979],[26.66967,-27.0074,1309.2111],[26.67773,-27.00988,1285.5115],[26.67949,-27.01277,1284.5088],[26.68672,-27.01701,1284.9042],[26.69458,-27.01696,1289.999],[26.6982,-27.00677,1288.1132],[26.69897,-26.99949,1288.875],[26.70109,-26.99189,1288.1519],[26.70424,-26.98476,1289.7104],[26.70843,-26.97918,1289.223],[26.73747,-26.95551,1294.4983],[26.75494,-26.94564,1305.2158],[26.77757,-26.93965,1290.7665],[26.78837,-26.93066,1304.7317],[26.7938,-26.92797,1302.7738],[26.80832,-26.93913,1293.7209],[26.81752,-26.94337,1292.0415],[26.82403,-26.93453,1291.618],[26.83638,-26.9244,1311.6453],[26.85757,-26.91298,1303.5658],[26.86253,-26.91505,1294.7817],[26.89343,-26.94037,1299.5602],[26.91792,-26.95525,1302.269],[26.91415,-26.88993,1319.3444],[26.91792,-26.87397,1312.2207],[26.93265,-26.86487,1310.8838],[26.94588,-26.87567,1298.9684],[26.96634,-26.90745,1294.3579],[26.99962,-26.92316,1292.0],[27.04391,-26.9288,1316.0161],[27.14215,-26.92688,1332.5029],[27.15915,-26.92223,1388.7356],[27.16778,-26.92115,1317.0967],[27.17801,-26.9244,1315.9595],[27.17806,-26.93246,1333.1801],[27.17388,-26.94254,1359.2563],[27.17119,-26.95184,1371.8638],[27.1807,-26.96047,1318.6263],[27.20245,-26.95195,1393.927],[27.24152,-26.92554,1333.7927],[27.28338,-26.88099,1331.3093],[27.30751,-26.86239,1428.354],[27.33614,-26.85841,1329.6047],[27.34937,-26.86394,1382.4243],[27.38125,-26.89154,1366.3456],[27.39407,-26.89552,1359.1892],[27.40756,-26.89443,1384.7338],[27.46947,-26.87991,1381.7092],[27.48027,-26.87397,1389.5841],[27.51076,-26.83242,1403.5302],[27.51386,-26.82198,1397.899],[27.51442,-26.80162,1394.875],[27.51944,-26.78069,1406.5732],[27.53303,-26.76958,1544.0219],[27.54093,-26.76782,1437.9171],[27.55008,-26.6377,1486.7229],[27.54714,-26.61295,1502.4764],[27.56031,-26.58696,1579.1154],[27.57602,-26.573,1544.9446],[27.58083,-26.51673,1494.1812],[27.58517,-26.50433,1520.7908],[27.58734,-26.50029,1523.0547],[27.59091,-26.49942,1523.9891],[27.59478,-26.49507,1526.5432],[27.60532,-26.49006,1530.6921],[27.61096,-26.4588,1545.6821],[27.52171,-26.4574,1566.8677],[27.51179,-26.44981,1585.0034],[27.49923,-26.44443,1545.8914],[27.49422,-26.43673,1580.8033],[27.49065,-26.43239,1596.5547],[27.47453,-26.41937,1728.6085],[27.35211,-26.4528,1609.9775],[27.33376,-26.47079,1531.7925],[27.28555,-26.49037,1513.3147],[27.27294,-26.4975,1514.007],[27.26038,-26.50184,1531.1626],[27.22643,-26.50892,1621.3928],[27.21853,-26.50324,1551.7856],[27.21382,-26.50184,1537.2808],[27.21429,-26.49874,1516.3168],[27.21413,-26.49507,1502.5764],[27.21026,-26.47973,1517.431],[27.20499,-26.46567,1566.083],[27.16871,-26.40159,1447.1998],[27.22018,-26.35989,1465.8798],[27.30756,-26.30325,1499.788],[27.27263,-26.16543,1553.0891],[27.33469,-26.15975,1574.292],[27.35102,-26.13923,1580.49],[27.38482,-26.12843,1591.757],[27.40952,-26.09903,1599.8208],[27.43355,-25.99986,1576.1815],[27.45934,-25.88529,1481.3461],[27.52559,-25.84375,1659.6313],[27.60842,-25.81537,1406.7095],[27.62506,-25.83537,1282.5042],[27.65157,-25.84881,1248.1305],[27.67266,-25.86581,1269.8042],[27.70992,-25.86416,1508.4087],[27.72764,-25.87842,1467.1479],[27.80536,-25.86602,1397.8738],[27.87564,-25.853,1383.8599],[27.89135,-25.84064,1328.8143],[27.92422,-25.83036,1358.0499],[27.94282,-25.80685,1324.5284],[27.94737,-25.78664,1264.6738],[27.94623,-25.76835,1248.2461],[27.94422,-25.75677,1340.3981],[27.94654,-25.75181,1260.7625],[27.94747,-25.75021,1240.3237],[27.95388,-25.74778,1219.687],[27.96287,-25.74148,1212.2301],[27.96396,-25.73414,1209.1041],[27.96117,-25.72127,1239.7079],[27.95652,-25.70959,1267.1049],[27.92484,-25.64071,1227.363],[28.00039,-25.62541,1266.6785],[28.02571,-25.60986,1272.8417],[28.04974,-25.58898,1220.5797],[28.07615,-25.55374,1286.6479],[28.08204,-25.52774,1267.1381],[28.08142,-25.51121,1224.3885],[28.07863,-25.50309,1217.8209],[28.07739,-25.50067,1212.848],[28.06416,-25.44506,1170.7122],[28.06374,-25.42749,1137.7882],[28.07243,-25.41287,1119.9954],[28.0977,-25.40191,1106.3218],[28.1179,-25.39964,1122.0917],[28.12751,-25.40377,1123.016],[28.12689,-25.41447,1129.3389],[28.11645,-25.42558,1137.8899],[28.11676,-25.43886,1157.0964],[28.12302,-25.4463,1156.2368],[28.13992,-25.44573,1145.5415],[28.14984,-25.44057,1140.3479],[28.16302,-25.43628,1127.3862],[28.21686,-25.43287,1166.1678],[28.24265,-25.42589,1133.2606],[28.28358,-25.39948,1089.394],[28.2937,-25.31711,1064.2365],[28.23087,-25.2258,1047.2528],[28.21547,-25.21717,1045.9089],[28.19423,-25.20823,1039.9874],[28.16069,-25.21309,1033.7163],[28.13992,-25.21004,1026.7892],[28.12751,-25.20017,1016.3918],[28.11863,-25.17712,1013.6997],[28.10638,-25.16301,1015.927],[28.08405,-25.14911,1037.8933],[28.08049,-25.12958,1049.8425],[28.08731,-25.11568,1058.3528],[28.10979,-25.10808,1062.6216],[28.12441,-25.10978,1060.4531],[28.14519,-25.11966,1038.3052],[28.16317,-25.13035,1025.7678],[28.17733,-25.13449,1035.2219],[28.19888,-25.13361,1049.2961],[28.21159,-25.12446,1063.0681],[28.21841,-25.10498,1062.646],[28.22198,-25.07759,1050.5688],[28.2071,-25.05837,1044.4314],[28.17733,-25.04131,1087.1897],[28.09816,-25.00938,1117.8823],[28.06323,-25.00018,1112.5164],[28.01377,-24.99708,1066.3157],[27.96582,-24.98509,1029.8346],[27.94344,-24.98747,1030.3541],[27.92995,-24.99429,1036.4514],[27.92499,-24.99806,1033.7261],[27.92391,-24.99987,1033.324],[27.9236,-25.00049,1033.324],[27.92251,-25.00132,1033.3103],[27.91678,-25.00318,1037.7528],[27.90623,-25.00328,1051.9323],[27.7571,-24.98685,1118.5593],[27.74004,-24.98969,1133.045],[27.72526,-24.99615,1091.7198],[27.72061,-24.99878,1089.5126],[27.70837,-25.00736,1124.3147],[27.66759,-24.97078,1019.8327],[27.64382,-24.97517,1116.5325],[27.62243,-24.97589,987.2336],[27.60083,-24.98395,1023.4708],[27.59091,-24.98979,990.2444],[27.58718,-24.99682,974.0522],[27.58687,-24.99899,965.4302],[27.58687,-25.00008,966.1107],[27.58765,-25.00659,988.5928],[27.58687,-25.02028,992.386],[27.58129,-25.04044,1102.5521],[27.54574,-25.09278,963.9503],[27.53442,-25.10152,1046.5625],[27.52621,-25.1042,1014.097],[27.5197,-25.10343,967.9131],[27.51396,-25.10172,975.3357],[27.50962,-25.09873,985.4678],[27.50652,-25.09459,993.6307],[27.5045,-25.08963,1015.0756],[27.49809,-25.06369,989.1727],[27.48786,-25.05573,996.4202],[27.44259,-25.06209,1056.9176],[27.36653,-25.05904,1100.2933],[27.28943,-25.00669,1036.0538],[27.18251,-24.99093,1018.6714],[27.16979,-24.98137,1024.1118],[27.16189,-24.96876,1026.7938],[27.14742,-24.93832,1009.3492],[27.11471,-24.90732,1008.5447],[27.07962,-24.88758,1043.6199],[27.05543,-24.84975,1103.1412],[27.04298,-24.74924,1098.1609],[27.03554,-24.73063,1076.9962],[27.02298,-24.72397,1072.875],[27.00748,-24.728,1074.4961],[26.99735,-24.73668,1079.0662],[26.98665,-24.76159,1090.1423],[26.94433,-24.78955,1121.6514],[26.82899,-24.83528,1171.1697],[26.76801,-24.86618,1098.5629],[26.75282,-24.86944,1095.7686],[26.72739,-24.86654,1097.2048],[26.70781,-24.8622,1117.6077],[26.68192,-24.85089,1075.0636],[26.65039,-24.83321,1041.6919],[26.62636,-24.82737,1040.47],[26.45542,-24.81234,934.7776],[26.44488,-24.80882,963.83],[26.43862,-24.78593,934.768],[26.41036,-24.74149,934.3079],[26.404,-24.71456,936.4347],[26.404,-24.63276,925.3895]]]}
,"properties": {"ISO3166-1-Alpha-3": "ZAF","country": "South Africa","fill": "#F00","name": "North West","area_km2": 116550.03,"hist_schema_id": "Elevation0-9000","hist_area_km2": {"925": 20.67,"950": 216.9,"975": 995.28,"1000": 3327.17,"1025": 5755.52,"1050": 6472.91,"1075": 6149.9,"1100": 5899.88,"1125": 6138.22,"1150": 5141.02,"1175": 4683.24,"1200": 4196.84,"1225": 4809.47,"1250": 5471.07,"1275": 5806.08,"1300": 6198.27,"1325": 6170.0,"1350": 6765.94,"1375": 6581.24,"1400": 4452.54,"1425": 4392.62,"1450": 3635.08,"1475": 2873.81,"1500": 3544.93,"1525": 3372.14,"1550": 1637.71,"1575": 949.24,"1600": 529.97,"1625": 207.9,"1650": 87.8,"1675": 37.14,"1700": 17.51,"1725": 8.71,"1750": 2.84}}}