{"type":"Feature","properties":{"GID_3":"ZAF.4.6.1_1","GID_0":"ZAF","country":"SouthAfrica","GID_1":"ZAF.4_1","province":"KwaZulu-Natal","NL_NAME_1":"NA","GID_2":"ZAF.4.6_1","county":"Umgungundlovu","NL_NAME_2":"NA","city":"Impendle","VARNAME_3":"NA","NL_NAME_3":"NA","TYPE_3":"LocalMunicipality","ENGTYPE_3":"LocalMunicipality","CC_3":"KZN224","HASC_3":"NA","name":"Impendle.city"},
"geometry":{"type": "MultiPolygon","coordinates": [[[[29.8663,-29.6557,1581.1552],[29.8711,-29.6383,1658.912],[29.883,-29.6259,1615.9335],[29.9119,-29.634,1719.4858],[29.9157,-29.6524,1607.4507],[29.9032,-29.6717,1542.2896],[29.9059,-29.6874,1511.2932],[29.9123,-29.7028,1452.2405],[29.9366,-29.7167,1519.1746],[29.9469,-29.7035,1607.8977],[29.9761,-29.7179,1362.7633],[30.0158,-29.729,1176.2914],[30.0241,-29.7101,1351.9802],[30.0399,-29.7202,1415.6606],[30.0692,-29.724,1598.574],[30.0694,-29.701,1407.9937],[30.0865,-29.6951,1468.2233],[30.0772,-29.6706,1416.9611],[30.1061,-29.6297,1522.9673],[30.1073,-29.6237,1586.6633],[30.0897,-29.6237,1574.0718],[30.0805,-29.6132,1643.8531],[30.0845,-29.5986,1647.9558],[30.0471,-29.6024,1765.2737],[30.0176,-29.5898,1673.6012],[30.0131,-29.5692,1563.2701],[30.0119,-29.5446,1278.5848],[30.008,-29.5414,1264.7047],[30.0062,-29.5364,1247.4082],[29.9911,-29.5355,1482.1826],[29.9885,-29.5421,1490.7656],[29.9538,-29.5465,1836.2026],[29.9528,-29.5423,1897.1311],[29.9189,-29.5336,1824.0814],[29.872,-29.487,1860.8903],[29.8722,-29.4581,1839.4717],[29.8672,-29.4534,1747.4342],[29.8663,-29.4499,1790.5734],[29.8607,-29.45,1801.3376],[29.8554,-29.4577,1805.1949],[29.8216,-29.4567,2045.7405],[29.8093,-29.4361,1775.5009],[29.7784,-29.4424,1727.3179],[29.7756,-29.4464,1771.541],[29.7679,-29.4335,1795.7394],[29.7399,-29.4314,1804.8698],[29.7363,-29.4307,1908.0527],[29.7315,-29.427,1936.2533],[29.7187,-29.4264,1985.9287],[29.7139,-29.4287,1979.4783],[29.6958,-29.4274,1892.5267],[29.6899,-29.4028,2103.3713],[29.6766,-29.4154,2074.4414],[29.6385,-29.3999,2144.458],[29.6133,-29.4085,2182.7998],[29.5548,-29.369,2295.4214],[29.5268,-29.3714,2480.3809],[29.5255,-29.3605,2520.698],[29.5148,-29.342,2524.4751],[29.5068,-29.3398,2412.1968],[29.4812,-29.3467,3261.5342],[29.4717,-29.3447,3175.9146],[29.4672,-29.3486,3181.3601],[29.4618,-29.3483,3107.3052],[29.4593,-29.3437,3257.5051],[29.4555,-29.3412,3224.6655],[29.4417,-29.3455,3284.5867],[29.4433,-29.3514,3209.6357],[29.4416,-29.3578,3126.6138],[29.4446,-29.3649,2937.9651],[29.4489,-29.3684,2895.5527],[29.4483,-29.3713,2891.9175],[29.4461,-29.3725,2897.3572],[29.447,-29.3763,2879.7529],[29.4364,-29.3861,2919.9297],[29.4373,-29.3944,2814.1443],[29.4359,-29.3961,3002.5991],[29.4195,-29.3968,3197.0999],[29.4185,-29.4063,3209.1987],[29.4226,-29.4141,3289.2324],[29.42,-29.4166,3234.2566],[29.4105,-29.4171,3230.4956],[29.4066,-29.4207,3244.4658],[29.4023,-29.4297,2946.2417],[29.4019,-29.4339,2881.5449],[29.3996,-29.4358,2846.9756],[29.4034,-29.4445,2900.2693],[29.4,-29.4451,2855.2097],[29.4004,-29.447,2835.2109],[29.3974,-29.4471,2856.6196],[29.3936,-29.4513,2848.1682],[29.3885,-29.4518,2888.6135],[29.3876,-29.4557,2981.0127],[29.3771,-29.4548,3026.3699],[29.3731,-29.4632,2814.9932],[29.3679,-29.4639,2829.2756],[29.3644,-29.4666,2926.3677],[29.3631,-29.4702,2968.5771],[29.3459,-29.4652,3116.2126],[29.3404,-29.4684,2849.8157],[29.3394,-29.4722,2853.6108],[29.3278,-29.4707,2863.0161],[29.3258,-29.4742,2906.7954],[29.3211,-29.4757,2882.7686],[29.3197,-29.4779,2871.5625],[29.3238,-29.4869,2985.1548],[29.316,-29.4881,2903.6233],[29.3099,-29.4862,2997.79],[29.3071,-29.4829,3140.2595],[29.3005,-29.4863,3251.3123],[29.2966,-29.4865,3300.7886],[29.2932,-29.4904,3232.8042],[29.2998,-29.4989,3248.9409],[29.3101,-29.4966,2623.3682],[29.3333,-29.5068,2158.5938],[29.3639,-29.5172,1895.489],[29.3699,-29.516,1906.0151],[29.384,-29.5257,1731.9064],[29.3995,-29.5249,1714.6906],[29.4049,-29.5298,1672.8917],[29.421,-29.5347,1543.4252],[29.4339,-29.5325,1490.1305],[29.431,-29.5362,1552.5701],[29.4328,-29.5422,1678.2878],[29.437,-29.5476,1518.4136],[29.4407,-29.5449,1575.8783],[29.4547,-29.5431,1534.7622],[29.4497,-29.56,1725.4923],[29.4773,-29.572,1783.0211],[29.475,-29.5777,1950.449],[29.4937,-29.5869,1614.1307],[29.5169,-29.5784,1319.843],[29.5196,-29.5756,1323.665],[29.5258,-29.5758,1306.2434],[29.5258,-29.5716,1356.3353],[29.5203,-29.57,1338.6552],[29.5162,-29.5662,1380.3195],[29.523,-29.5666,1425.7947],[29.529,-29.5637,1490.4165],[29.5348,-29.5633,1382.1539],[29.5448,-29.5719,1401.7512],[29.5566,-29.5616,1625.8348],[29.5636,-29.5744,1519.4425],[29.5732,-29.5755,1649.7085],[29.5769,-29.5837,1457.4154],[29.5929,-29.5774,1556.6813],[29.5903,-29.5891,1369.1711],[29.5764,-29.5891,1381.6067],[29.5659,-29.5968,1251.3237],[29.5608,-29.5975,1261.485],[29.5579,-29.602,1309.8898],[29.5607,-29.6045,1288.5627],[29.568,-29.6067,1339.7166],[29.563,-29.639,1524.6017],[29.5566,-29.6394,1562.8992],[29.5545,-29.6526,1466.7905],[29.5658,-29.656,1510.3676],[29.5924,-29.6554,1436.0385],[29.5937,-29.6738,1621.533],[29.6032,-29.6781,1555.4985],[29.6126,-29.6706,1392.834],[29.615,-29.6703,1393.5247],[29.618,-29.6726,1392.7223],[29.6211,-29.6713,1385.4885],[29.6251,-29.6733,1387.9473],[29.6298,-29.6715,1381.2686],[29.634,-29.6734,1383.1017],[29.638,-29.6705,1377.4711],[29.6374,-29.669,1467.5675],[29.65,-29.6712,1430.8031],[29.6556,-29.674,1353.952],[29.6559,-29.6666,1366.9562],[29.6606,-29.6713,1358.1667],[29.6604,-29.6701,1344.845],[29.6621,-29.6711,1345.9561],[29.664,-29.67,1344.5535],[29.6787,-29.6722,1368.1896],[29.6872,-29.6756,1580.6082],[29.7272,-29.6776,1507.4653],[29.7357,-29.6694,1455.4297],[29.7354,-29.6632,1265.9613],[29.7315,-29.6607,1305.1826],[29.7304,-29.6575,1248.7393],[29.7352,-29.657,1276.4785],[29.7417,-29.6536,1260.391],[29.7397,-29.6502,1216.3416],[29.7398,-29.6445,1181.2001],[29.7438,-29.6356,1144.701],[29.7517,-29.637,1122.8223],[29.7533,-29.635,1120.1211],[29.7556,-29.6408,1114.255],[29.767,-29.6423,1129.2592],[29.7672,-29.6489,1110.1765],[29.784,-29.6584,1092.1061],[29.7836,-29.6607,1096.2047],[29.7785,-29.6653,1137.9551],[29.7792,-29.6665,1101.127],[29.7833,-29.6674,1116.085],[29.8042,-29.6593,1504.4812],[29.8319,-29.673,1388.7426],[29.8515,-29.6787,1471.4409],[29.8696,-29.6871,1393.8989],[29.8663,-29.6557,1581.1552]]]]}}