{"type": "Feature","bbox": [24.4651,-26.9677,26.8071,-24.6366],"geometry": {"type": "MultiPolygon","coordinates": [[[[25.1715,-26.6398,1365.2885],[25.1743,-26.6529,1366.4594],[25.1787,-26.6625,1368.1976],[25.1688,-26.6766,1361.4612],[25.1526,-26.7077,1348.9279],[25.1476,-26.714,1345.7825],[25.1418,-26.7426,1334.9384],[25.1343,-26.7607,1327.0538],[25.1331,-26.7718,1321.7102],[25.1237,-26.7927,1313.7761],[25.1109,-26.8081,1310.062],[25.1078,-26.8192,1307.1058],[25.0994,-26.8355,1302.2933],[25.0963,-26.8736,1289.423],[25.0938,-26.8846,1285.329],[25.0984,-26.8906,1285.6843],[25.1804,-26.8687,1332.6765],[25.2255,-26.8324,1357.1675],[25.2575,-26.8022,1372.4518],[25.3208,-26.8863,1369.2117],[25.3985,-26.8553,1354.8358],[25.4926,-26.9179,1328.0796],[25.4834,-26.9203,1327.4865],[25.5693,-26.9363,1380.1884],[25.6045,-26.9065,1372.6782],[25.6305,-26.8585,1371.4875],[25.6109,-26.9231,1375.998],[25.6658,-26.8991,1393.2529],[25.6656,-26.9669,1404.3365],[25.6778,-26.9677,1407.5344],[25.6919,-26.9416,1415.7793],[25.7625,-26.9151,1427.8297],[25.8097,-26.9012,1452.5828],[25.8333,-26.9362,1463.095],[25.8938,-26.8984,1487.8234],[25.891,-26.8752,1478.7676],[25.9137,-26.9068,1492.8152],[25.9863,-26.8753,1507.014],[26.0042,-26.8552,1528.7693],[26.0125,-26.8604,1534.2856],[26.0109,-26.8625,1532.9792],[26.0189,-26.8667,1532.7925],[26.0239,-26.8595,1528.7474],[26.0287,-26.8615,1527.7935],[26.0291,-26.8588,1525.9329],[26.0362,-26.8615,1524.2717],[26.042,-26.845,1511.9148],[26.0482,-26.8456,1527.1516],[26.0488,-26.8395,1534.4419],[26.0561,-26.8343,1523.1816],[26.0683,-26.8647,1537.6125],[26.0768,-26.8623,1537.8958],[26.1022,-26.8197,1539.5061],[26.1151,-26.771,1534.3754],[26.1458,-26.7642,1541.6876],[26.143,-26.7534,1544.9677],[26.1472,-26.7518,1545.5848],[26.1458,-26.7481,1546.6409],[26.1563,-26.7437,1549.5502],[26.1619,-26.7521,1548.4868],[26.1595,-26.7461,1549.3304],[26.189,-26.7338,1559.7346],[26.1854,-26.7106,1559.6987],[26.2331,-26.701,1588.4556],[26.2364,-26.7061,1592.9817],[26.2497,-26.7001,1606.9568],[26.261,-26.7004,1605.6494],[26.2603,-26.6993,1608.5615],[26.2724,-26.6914,1630.5267],[26.2635,-26.6835,1600.7708],[26.2674,-26.6812,1599.7303],[26.251,-26.6457,1558.8712],[26.2758,-26.6446,1572.3857],[26.2481,-26.5873,1563.1693],[26.3337,-26.5552,1539.5437],[26.3294,-26.5462,1543.6411],[26.3847,-26.4999,1515.1304],[26.4056,-26.4964,1491.1316],[26.4786,-26.4791,1402.0413],[26.4584,-26.4351,1440.8948],[26.5007,-26.4166,1391.7523],[26.4837,-26.3864,1407.4432],[26.5183,-26.3675,1434.0725],[26.5228,-26.3551,1451.3857],[26.5716,-26.3344,1457.3281],[26.5783,-26.3377,1447.7546],[26.5807,-26.3359,1455.3364],[26.555,-26.3259,1465.9213],[26.553,-26.314,1481.5225],[26.5587,-26.3098,1496.6331],[26.5347,-26.2642,1504.1074],[26.5714,-26.252,1515.1316],[26.5861,-26.2452,1516.6807],[26.5458,-26.1727,1514.0139],[26.6296,-26.1361,1523.2568],[26.6177,-26.0649,1513.355],[26.7092,-26.0476,1594.611],[26.7331,-26.1016,1510.983],[26.8071,-26.084,1545.6846],[26.7636,-25.9911,1550.13],[26.7705,-25.9523,1635.9797],[26.7606,-25.9354,1660.5391],[26.7515,-25.9308,1667.9214],[26.7493,-25.9261,1649.8584],[26.7075,-25.9224,1666.1624],[26.7031,-25.9283,1684.6577],[26.6644,-25.8789,1579.474],[26.6633,-25.8715,1564.0375],[26.6435,-25.868,1572.3098],[26.6437,-25.838,1565.491],[26.58,-25.7827,1504.1421],[26.5714,-25.7892,1520.9186],[26.5204,-25.7553,1493.375],[26.5095,-25.7561,1487.6572],[26.4624,-25.7454,1453.9421],[26.4765,-25.7243,1473.9525],[26.4847,-25.6775,1322.1034],[26.5034,-25.6841,1360.0929],[26.5112,-25.6552,1213.8638],[26.5131,-25.6004,1356.6599],[26.4939,-25.5955,1254.4832],[26.4776,-25.6005,1382.4863],[26.4978,-25.5643,1257.5979],[26.5095,-25.578,1368.5095],[26.5102,-25.5354,1371.2197],[26.506,-25.5019,1242.8076],[26.4621,-25.4878,1150.9243],[26.4405,-25.5108,1340.8982],[26.4355,-25.5112,1302.2565],[26.425,-25.4917,1185.1147],[26.4193,-25.4776,1121.5861],[26.417,-25.4544,1074.2517],[26.4269,-25.4474,1072.9875],[26.4266,-25.4187,1048.4187],[26.4394,-25.3844,1059.2909],[26.4456,-25.3724,1056.7776],[26.4444,-25.3361,1043.9515],[26.4631,-25.3354,1043.8624],[26.466,-25.2907,1019.3451],[26.405,-25.2858,1005.1714],[26.4046,-25.282,1004.3416],[26.4066,-25.2819,1003.5961],[26.4047,-25.2784,1001.2504],[26.4072,-25.2752,1000.1564],[26.4061,-25.2724,1001.2313],[26.4074,-25.271,1000.6749],[26.4053,-25.2714,999.0761],[26.4071,-25.2674,1001.3608],[26.406,-25.2657,999.3929],[26.411,-25.2672,1000.462],[26.4115,-25.2622,997.0082],[26.4144,-25.2602,1004.1405],[26.4135,-25.2585,999.4066],[26.4119,-25.2599,996.9947],[26.4122,-25.2567,998.621],[26.409,-25.2544,996.5464],[26.4118,-25.2529,998.1165],[26.4053,-25.2505,995.9982],[26.41,-25.2457,995.1714],[26.4091,-25.241,993.9297],[26.4118,-25.2404,996.2735],[26.4098,-25.2383,994.7149],[26.4137,-25.239,995.9518],[26.4136,-25.2372,994.8995],[26.4163,-25.2377,993.775],[26.4162,-25.2352,993.3361],[26.4175,-25.2353,995.373],[26.4098,-25.2303,993.0847],[26.4024,-25.2181,991.8735],[26.4047,-25.2134,992.2327],[26.4056,-25.215,992.3472],[26.4071,-25.2141,992.1507],[26.4049,-25.211,990.9003],[26.4066,-25.2108,992.178],[26.407,-25.208,991.4725],[26.4086,-25.2094,990.8632],[26.411,-25.2074,990.7516],[26.4112,-25.2112,990.0002],[26.4132,-25.2091,989.3347],[26.4123,-25.2069,990.1877],[26.4159,-25.2049,989.5574],[26.4109,-25.2025,988.2875],[26.4105,-25.1997,988.079],[26.414,-25.1984,988.1054],[26.4133,-25.1969,987.507],[26.4147,-25.1958,987.3445],[26.4181,-25.1971,987.9164],[26.4165,-25.1946,987.7791],[26.42,-25.1936,987.2476],[26.4185,-25.1844,997.0529],[26.4227,-25.1325,993.085],[26.4113,-25.0846,987.9483],[26.4058,-25.088,993.335],[26.3923,-25.0726,973.7189],[26.385,-25.0593,977.533],[26.4182,-25.0467,967.8587],[26.4174,-25.0418,967.2921],[26.4201,-25.0419,965.3458],[26.421,-25.0394,965.0692],[26.4257,-25.0364,964.8894],[26.422,-25.0286,962.2025],[26.4226,-25.0228,961.9775],[26.4249,-25.0194,961.6711],[26.4237,-25.0074,960.4348],[26.4317,-25.0015,959.3069],[26.4321,-24.9972,959.8938],[26.4299,-24.994,960.061],[26.4312,-24.9896,961.8149],[26.4352,-24.9892,959.0829],[26.4409,-24.992,958.1671],[26.4482,-24.9846,956.8775],[26.4508,-24.9788,956.2441],[26.4445,-24.9676,956.0],[26.455,-24.955,956.0],[26.4551,-24.9529,956.0],[26.4517,-24.9492,956.0],[26.4465,-24.9498,956.0],[26.4438,-24.9478,956.0],[26.4422,-24.9412,956.0],[26.4425,-24.9341,956.0],[26.4513,-24.9129,956.0],[26.4495,-24.8985,956.0],[26.454,-24.8797,956.0],[26.4538,-24.8668,944.6073],[26.4497,-24.8622,941.4977],[26.4542,-24.8587,940.9158],[26.455,-24.8542,946.5636],[26.468,-24.8571,939.5857],[26.4726,-24.85,938.4422],[26.4738,-24.8449,937.9227],[26.484,-24.8479,939.3374],[26.4883,-24.8405,938.8846],[26.4804,-24.8304,936.0212],[26.4773,-24.8231,935.8348],[26.4662,-24.8204,935.1991],[26.4591,-24.815,933.8015],[26.4583,-24.8095,933.486],[26.4616,-24.7955,931.3709],[26.4595,-24.7905,932.3525],[26.454,-24.7888,931.0762],[26.4483,-24.7921,931.1399],[26.4446,-24.7908,930.4816],[26.4354,-24.7829,931.5158],[26.426,-24.7712,929.3276],[26.4296,-24.7654,929.0511],[26.4269,-24.7579,928.3528],[26.4282,-24.7538,928.7001],[26.4182,-24.729,926.6656],[26.4226,-24.7206,925.7121],[26.4197,-24.716,925.8019],[26.4272,-24.6967,923.5491],[26.4213,-24.6916,922.3243],[26.4228,-24.6817,918.3557],[26.4217,-24.6711,917.9166],[26.427,-24.6652,917.3152],[26.4269,-24.6572,916.7859],[26.4083,-24.6503,915.5581],[26.4088,-24.6461,915.8329],[26.3933,-24.6366,982.4174],[26.187,-24.6875,1176.2866],[26.0074,-24.7243,1112.3762],[25.9644,-24.7494,1161.6992],[25.9171,-24.7455,1192.0587],[25.9114,-24.7537,1186.4355],[25.8583,-24.7572,1059.4041],[25.8483,-24.755,995.3153],[25.8512,-24.7624,998.5],[25.8515,-24.7745,1001.3849],[25.8442,-24.7803,1007.3424],[25.8424,-24.7903,1005.1154],[25.8632,-24.8085,1011.2655],[25.8585,-24.8216,1014.6093],[25.8593,-24.8262,1014.894],[25.8623,-24.827,1014.9633],[25.8673,-24.8235,1014.585],[25.8695,-24.827,1017.1245],[25.8733,-24.8291,1016.9263],[25.8749,-24.839,1018.4294],[25.8739,-24.8464,1017.56],[25.8768,-24.852,1018.273],[25.8762,-24.8561,1018.9551],[25.8814,-24.859,1020.8838],[25.8829,-24.8759,1022.4414],[25.8855,-24.881,1023.8741],[25.8888,-24.8825,1022.985],[25.8848,-24.8877,1023.2789],[25.88,-24.8866,1024.5962],[25.8766,-24.8883,1029.5671],[25.8764,-24.8977,1027.5406],[25.8806,-24.9026,1026.1968],[25.874,-24.9035,1027.0354],[25.8726,-24.9053,1027.9614],[25.8818,-24.9142,1031.627],[25.8782,-24.9174,1029.8844],[25.8725,-24.9189,1031.0493],[25.8707,-24.9213,1036.1993],[25.8608,-24.9243,1032.246],[25.8618,-24.9261,1032.6694],[25.8409,-24.9803,1041.8134],[25.7291,-25.2569,1335.1411],[25.6998,-25.291,1278.4847],[25.6882,-25.376,1375.2826],[25.6808,-25.404,1370.2343],[25.6598,-25.4744,1377.4735],[25.6308,-25.5334,1348.4762],[25.6298,-25.5378,1344.512],[25.5809,-25.6388,1273.1263],[25.5775,-25.6387,1269.7867],[25.5667,-25.6474,1265.2559],[25.5576,-25.6498,1261.1868],[25.5344,-25.6656,1251.3717],[25.5311,-25.67,1249.4899],[25.5275,-25.671,1249.0541],[25.513,-25.6847,1244.1709],[25.5071,-25.686,1240.2515],[25.5001,-25.6907,1236.9973],[25.4885,-25.6888,1233.1427],[25.4853,-25.694,1231.1199],[25.48,-25.696,1228.8027],[25.4695,-25.6959,1225.839],[25.4549,-25.7102,1218.8212],[25.4516,-25.7102,1218.1541],[25.446,-25.7138,1216.3867],[25.4209,-25.7329,1206.77],[25.4073,-25.7385,1202.2217],[25.3864,-25.7445,1198.6089],[25.3782,-25.7503,1196.7092],[25.3717,-25.7525,1195.0507],[25.3668,-25.7579,1194.2064],[25.3516,-25.7617,1191.4756],[25.347,-25.7666,1189.8358],[25.3421,-25.7689,1188.9349],[25.3341,-25.771,1187.5381],[25.3287,-25.7698,1186.1797],[25.3195,-25.7728,1183.8975],[25.2994,-25.7657,1178.8862],[25.2852,-25.7654,1175.2799],[25.2748,-25.768,1173.2551],[25.2648,-25.7665,1171.3486],[25.2614,-25.7686,1169.876],[25.2523,-25.7675,1168.7739],[25.2485,-25.7656,1168.269],[25.2239,-25.7635,1161.3256],[25.2198,-25.7659,1160.3706],[25.2156,-25.7632,1159.4822],[25.2091,-25.7626,1158.9901],[25.2069,-25.7596,1158.1921],[25.2035,-25.7584,1158.1899],[25.1922,-25.7625,1158.204],[25.1836,-25.7628,1163.7384],[25.1756,-25.7663,1156.689],[25.1687,-25.7655,1154.9832],[25.1611,-25.7596,1154.6738],[25.1484,-25.7596,1155.8195],[25.1437,-25.7564,1153.4156],[25.1349,-25.7577,1154.2979],[25.1271,-25.7627,1152.8149],[25.1214,-25.7638,1150.6547],[25.1087,-25.7544,1149.0206],[25.1099,-25.7487,1150.1333],[25.1022,-25.748,1147.2938],[25.1021,-25.7461,1148.6494],[25.1052,-25.7425,1147.5725],[25.1043,-25.7411,1149.1816],[25.0993,-25.7425,1147.9187],[25.087,-25.7409,1147.5707],[25.0843,-25.7384,1143.2246],[25.0809,-25.7304,1142.9041],[25.0769,-25.7313,1140.9531],[25.0711,-25.7363,1140.2205],[25.0611,-25.7353,1144.2991],[25.0539,-25.7313,1136.7662],[25.0516,-25.7261,1136.6841],[25.0375,-25.7222,1132.4868],[25.0213,-25.7313,1131.4839],[25.0181,-25.73,1129.9709],[25.0164,-25.7262,1130.3801],[25.0131,-25.7256,1130.6311],[25.0001,-25.7299,1127.6906],[25.0038,-25.7358,1127.1794],[25.0036,-25.7387,1126.8096],[24.9897,-25.7454,1127.387],[24.9839,-25.7543,1125.0911],[24.9753,-25.7539,1124.1282],[24.9667,-25.7661,1122.4094],[24.9615,-25.7661,1122.236],[24.9544,-25.7603,1120.2881],[24.9518,-25.7623,1119.639],[24.9538,-25.7683,1118.9731],[24.9511,-25.7691,1123.3801],[24.9514,-25.7717,1118.8813],[24.9458,-25.7746,1118.5079],[24.9338,-25.7766,1116.262],[24.9278,-25.7877,1116.3423],[24.9203,-25.79,1114.8185],[24.9158,-25.7844,1114.5989],[24.9128,-25.7844,1113.6987],[24.9131,-25.7975,1112.4235],[24.9078,-25.7984,1111.7891],[24.9047,-25.8026,1111.67],[24.8976,-25.8026,1111.7478],[24.8962,-25.8054,1111.5447],[24.8988,-25.8088,1110.9059],[24.8981,-25.8102,1111.4747],[24.8947,-25.8107,1110.6672],[24.8857,-25.8071,1110.3173],[24.8753,-25.8091,1109.7799],[24.8696,-25.8054,1108.5168],[24.8614,-25.8076,1108.9358],[24.8569,-25.8064,1108.3818],[24.8443,-25.8092,1106.6799],[24.8343,-25.8152,1106.8831],[24.8246,-25.8117,1105.1863],[24.8184,-25.817,1104.2415],[24.8162,-25.8161,1106.0468],[24.8156,-25.8116,1105.3468],[24.8132,-25.8103,1105.2235],[24.8111,-25.8128,1106.4484],[24.8105,-25.8184,1103.1746],[24.8026,-25.8187,1102.9402],[24.7947,-25.8253,1102.2394],[24.7875,-25.8175,1102.3571],[24.7837,-25.8172,1101.5396],[24.7784,-25.8197,1101.8169],[24.7674,-25.8128,1105.4326],[24.7617,-25.811,1101.4849],[24.7559,-25.8114,1103.0244],[24.752,-25.8145,1101.3717],[24.7481,-25.8141,1100.2437],[24.7418,-25.8124,1099.3402],[24.7367,-25.8076,1098.0886],[24.729,-25.804,1099.95],[24.7116,-25.8058,1097.3795],[24.6966,-25.8113,1099.9094],[24.6859,-25.8233,1100.6157],[24.6819,-25.8237,1094.6621],[24.679,-25.8192,1096.55],[24.6757,-25.8179,1104.8778],[24.6643,-25.8183,1093.9316],[24.6402,-25.8076,1092.8715],[24.6089,-25.8006,1091.6785],[24.5989,-25.7936,1089.4874],[24.5894,-25.7898,1089.3186],[24.5781,-25.7774,1087.5664],[24.5694,-25.7727,1086.2747],[24.5615,-25.7709,1087.1671],[24.5505,-25.7727,1085.5588],[24.5443,-25.772,1084.7693],[24.4848,-25.7499,1084.177],[24.4651,-25.7902,1111.5413],[24.667,-25.9212,1132.3342],[24.6392,-25.9343,1137.7871],[24.6539,-25.9593,1144.5961],[24.7101,-26.012,1161.5605],[24.7339,-26.0396,1169.2294],[24.7452,-26.063,1174.5325],[24.7625,-26.0933,1158.691],[24.8041,-26.1583,1212.4843],[24.8171,-26.1988,1231.8193],[24.7642,-26.2052,1208.9993],[24.7892,-26.2437,1238.5841],[24.8048,-26.2769,1257.8835],[24.8317,-26.327,1267.1361],[24.8476,-26.3681,1258.4404],[24.8358,-26.3707,1261.9841],[24.8336,-26.3829,1268.0732],[24.8523,-26.3813,1273.7874],[24.8578,-26.395,1285.8892],[24.9007,-26.3634,1260.1787],[24.9302,-26.4206,1302.1954],[24.9661,-26.4044,1290.5656],[24.9912,-26.3909,1296.3456],[25.0259,-26.4478,1317.4408],[25.0455,-26.4364,1300.626],[25.0701,-26.4862,1366.422],[25.0407,-26.5014,1354.8856],[25.0662,-26.5503,1357.5128],[25.0957,-26.5356,1370.271],[25.1697,-26.5199,1359.9016],[25.177,-26.559,1369.2771],[25.1688,-26.5635,1370.0715],[25.1696,-26.5844,1373.0216],[25.1628,-26.6047,1370.0724],[25.1715,-26.6398,1365.2885]]]]}
,"properties": {"GID_2": "ZAF.7.4_1","GID_0": "ZAF","country": "SouthAfrica","GID_1": "ZAF.7_1","province": "NorthWest","NL_NAME_1": "NA","county": "NgakaModiriMolema","VARNAME_2": "NA","NL_NAME_2": "NA","TYPE_2": "DistrictMunicipality","ENGTYPE_2": "DistrictMunicipality","CC_2": "DC38","HASC_2": "ZA.NW.MM","name": "Ngaka_Modiri_Molema.county","area_km2": 28258.43,"hist_schema_id": "Elevation0-9000","hist_area_km2": {"925": 34.96,"950": 97.99,"975": 222.03,"1000": 397.55,"1025": 644.6,"1050": 716.02,"1075": 722.43,"1100": 714.22,"1125": 771.85,"1150": 862.05,"1175": 991.78,"1200": 1212.15,"1225": 1291.38,"1250": 1280.92,"1275": 1080.23,"1300": 923.86,"1325": 874.42,"1350": 1860.23,"1375": 2797.16,"1400": 1776.76,"1425": 1845.19,"1450": 1290.41,"1475": 1411.11,"1500": 1887.91,"1525": 1626.72,"1550": 498.83,"1575": 281.35,"1600": 107.41,"1625": 19.75,"1650": 8.14,"1675": 6.69,"1700": 1.98,"1725": 0.36}}}