{"type": "Feature","bbox": [24.7977,-29.0902,27.4718,-27.1044],"geometry": {"type": "MultiPolygon","coordinates": [[[[26.8656,-27.5878,1311.9546],[26.8416,-27.5845,1304.4927],[26.8185,-27.5856,1312.319],[26.7758,-27.5754,1309.267],[26.7633,-27.5643,1311.0718],[26.7537,-27.514,1279.5027],[26.7662,-27.5182,1283.2964],[26.7649,-27.5095,1281.877],[26.766,-27.5091,1281.877],[26.7712,-27.5105,1279.1824],[26.7686,-27.5158,1279.6628],[26.7897,-27.5108,1285.0295],[26.7931,-27.515,1283.3995],[26.7735,-27.4565,1337.4971],[26.7899,-27.4477,1355.3223],[26.7568,-27.4356,1335.2859],[26.7463,-27.3953,1327.7551],[26.699,-27.4008,1278.2107],[26.696,-27.3498,1318.1906],[26.738,-27.3449,1327.2379],[26.7577,-27.3482,1317.6671],[26.7544,-27.3303,1328.5469],[26.7513,-27.3317,1329.902],[26.7434,-27.3173,1320.6346],[26.75,-27.3141,1322.021],[26.7432,-27.3037,1314.1165],[26.7613,-27.2988,1326.244],[26.7568,-27.2835,1316.8716],[26.7396,-27.2882,1310.9116],[26.7344,-27.2743,1306.1608],[26.7159,-27.2806,1301.4741],[26.7099,-27.2682,1294.0602],[26.7229,-27.264,1302.8253],[26.7276,-27.2308,1308.2075],[26.7373,-27.2241,1316.0222],[26.7374,-27.2135,1337.4998],[26.7032,-27.2188,1309.8036],[26.6831,-27.1903,1319.9259],[26.6452,-27.1909,1323.4241],[26.6353,-27.1716,1335.8214],[26.5754,-27.1833,1323.3385],[26.5561,-27.1598,1311.6309],[26.5622,-27.1598,1313.2347],[26.5216,-27.1044,1264.0],[26.5142,-27.1189,1264.0],[26.5029,-27.1307,1262.9248],[26.4979,-27.1329,1264.1023],[26.4874,-27.13,1261.4946],[26.4829,-27.1317,1263.7023],[26.4781,-27.1373,1259.4264],[26.4763,-27.1485,1259.4568],[26.4731,-27.1542,1261.8438],[26.4592,-27.158,1260.3958],[26.4407,-27.15,1257.2891],[26.4286,-27.1503,1259.3015],[26.4253,-27.154,1255.0],[26.4198,-27.1705,1259.2081],[26.4272,-27.1852,1251.0],[26.4326,-27.1896,1252.7148],[26.4347,-27.1949,1254.2247],[26.4358,-27.2051,1253.9011],[26.4426,-27.2163,1252.2288],[26.4614,-27.2276,1248.1814],[26.4768,-27.2446,1249.9841],[26.4888,-27.2506,1246.5269],[26.4946,-27.2591,1249.4307],[26.4972,-27.2678,1243.0],[26.4962,-27.2738,1245.8837],[26.4889,-27.2833,1240.5],[26.4885,-27.2861,1240.5],[26.4883,-27.2963,1248.3486],[26.4939,-27.3083,1240.0],[26.4934,-27.3191,1240.0],[26.4849,-27.3239,1240.0],[26.4808,-27.3232,1243.1609],[26.4791,-27.3189,1242.9653],[26.4849,-27.3135,1241.2705],[26.4848,-27.3091,1244.1195],[26.4814,-27.3067,1242.7383],[26.4755,-27.3083,1239.5],[26.4738,-27.3123,1243.782],[26.4582,-27.3262,1240.0872],[26.4555,-27.3374,1244.644],[26.4472,-27.344,1242.3799],[26.4464,-27.3497,1264.9631],[26.462,-27.3657,1238.5],[26.4763,-27.3718,1240.0974],[26.4847,-27.3799,1239.0897],[26.4995,-27.3797,1238.0],[26.5128,-27.3848,1244.5618],[26.5142,-27.3874,1240.4218],[26.5111,-27.3953,1245.3395],[26.5081,-27.3981,1242.8069],[26.5052,-27.3983,1244.6287],[26.4976,-27.3957,1237.75],[26.4683,-27.3912,1242.8276],[26.4589,-27.3866,1240.8647],[26.4519,-27.3857,1240.3621],[26.4452,-27.3881,1240.9333],[26.435,-27.3988,1238.8982],[26.4231,-27.4069,1237.0],[26.4165,-27.4027,1240.8762],[26.3943,-27.394,1239.6667],[26.388,-27.3895,1245.1881],[26.3802,-27.3884,1240.3531],[26.3724,-27.3838,1243.5021],[26.3616,-27.3893,1237.8157],[26.3457,-27.3853,1234.0699],[26.3396,-27.3894,1238.7032],[26.3354,-27.3984,1232.8676],[26.3272,-27.4058,1230.0],[26.3279,-27.42,1234.8212],[26.3266,-27.4292,1229.5],[26.3241,-27.4329,1230.9971],[26.3211,-27.4334,1233.4055],[26.3168,-27.4314,1232.578],[26.3136,-27.4224,1230.3219],[26.3099,-27.4183,1230.4686],[26.2956,-27.4158,1228.5],[26.291,-27.4167,1231.1428],[26.2862,-27.4222,1229.72],[26.2761,-27.4211,1229.5785],[26.2695,-27.4168,1231.4351],[26.2646,-27.4164,1229.656],[26.2602,-27.4199,1229.906],[26.2529,-27.4295,1230.0808],[26.245,-27.4299,1229.9636],[26.2423,-27.4314,1228.2986],[26.2397,-27.4354,1231.7085],[26.2339,-27.4542,1228.0],[26.2199,-27.4744,1231.6978],[26.2208,-27.4833,1229.1272],[26.2312,-27.4954,1232.421],[26.229,-27.5121,1228.0],[26.2222,-27.5145,1230.8239],[26.2018,-27.5168,1230.8456],[26.1861,-27.5315,1231.3556],[26.1701,-27.5361,1228.6056],[26.168,-27.538,1230.1487],[26.1631,-27.5517,1228.6227],[26.1536,-27.564,1228.4504],[26.1451,-27.5626,1231.0427],[26.1403,-27.5576,1228.4506],[26.134,-27.5585,1227.0],[26.1238,-27.5669,1227.7124],[26.1221,-27.5724,1235.1646],[26.1245,-27.5806,1228.583],[26.1133,-27.5933,1227.0],[26.1061,-27.5956,1227.0],[26.0882,-27.5939,1226.5],[26.0845,-27.5951,1226.5],[26.0749,-27.6205,1226.5],[26.0858,-27.6428,1226.5],[26.0862,-27.648,1228.2754],[26.0799,-27.6534,1227.9036],[26.0637,-27.6602,1226.5],[26.0547,-27.6692,1228.3696],[26.0678,-27.6808,1226.5],[26.0928,-27.6824,1226.5],[26.0948,-27.6846,1232.0497],[26.0945,-27.6917,1226.5],[26.0922,-27.6966,1226.5],[26.0709,-27.715,1229.1012],[26.0625,-27.7207,1227.1552],[26.0477,-27.7255,1226.5],[26.0354,-27.7366,1226.5],[26.025,-27.7339,1227.0804],[26.0208,-27.7283,1226.5],[26.0127,-27.7223,1226.5],[26.0032,-27.708,1226.5],[26.003,-27.7023,1227.1848],[26.0107,-27.6898,1226.5],[26.0077,-27.6773,1226.5],[26.008,-27.6604,1226.5],[26.0049,-27.6522,1226.5],[26.0008,-27.6476,1226.5],[25.9921,-27.6412,1226.5],[25.9827,-27.6391,1226.5],[25.9806,-27.6371,1226.5],[25.9801,-27.6335,1226.5],[25.9819,-27.6272,1226.5],[25.9681,-27.625,1226.5],[25.9473,-27.6329,1226.5],[25.9403,-27.6149,1226.5],[25.932,-27.6064,1226.5],[25.9243,-27.6035,1226.5],[25.9157,-27.6057,1226.5],[25.9097,-27.6104,1226.5],[25.8957,-27.61,1226.5],[25.8951,-27.6147,1226.5],[25.8983,-27.6225,1227.4731],[25.8913,-27.6261,1226.5],[25.8724,-27.628,1226.5],[25.8581,-27.6238,1226.5],[25.8526,-27.621,1226.5],[25.8458,-27.61,1226.5],[25.8435,-27.6039,1226.5],[25.8464,-27.5929,1226.5],[25.835,-27.5785,1226.5],[25.833,-27.5676,1226.5],[25.8302,-27.5662,1226.5],[25.8147,-27.5728,1226.5],[25.8048,-27.5831,1226.5],[25.7986,-27.5844,1226.5],[25.7882,-27.583,1226.5],[25.7814,-27.5841,1226.5],[25.764,-27.596,1226.5],[25.7495,-27.5998,1226.5],[25.7375,-27.6089,1226.5],[25.7279,-27.609,1226.5],[25.7099,-27.6245,1226.5],[25.6852,-27.6262,1226.5],[25.6789,-27.6296,1226.5],[25.6755,-27.6349,1226.5],[25.6784,-27.6408,1226.5],[25.6796,-27.6489,1226.5],[25.6767,-27.6592,1226.5],[25.6785,-27.677,1226.5],[25.6717,-27.6886,1226.5],[25.6647,-27.6938,1226.5],[25.6576,-27.6948,1226.5],[25.6415,-27.6864,1226.5],[25.633,-27.6761,1226.5],[25.6323,-27.6698,1226.5],[25.6308,-27.668,1226.5],[25.6275,-27.6672,1226.5],[25.6185,-27.6693,1226.5],[25.6104,-27.66,1211.9456],[25.6034,-27.6598,1218.6582],[25.5966,-27.6551,1210.157],[25.590699999999998,-27.6552,1210.121],[25.5847,-27.6587,1210.6232],[25.5724,-27.6775,1208.9214],[25.5558,-27.6867,1212.4297],[25.5132,-27.6948,1212.0985],[25.4948,-27.6939,1207.9626],[25.4879,-27.6919,1212.1199],[25.4809,-27.6925,1209.6251],[25.4747,-27.6989,1211.5498],[25.4733,-27.7068,1210.6992],[25.4693,-27.7106,1208.2982],[25.4653,-27.7096,1211.3345],[25.458,-27.7109,1208.7604],[25.4404,-27.7169,1210.5144],[25.424,-27.7156,1206.0],[25.4125,-27.7222,1210.6213],[25.3945,-27.7287,1210.8279],[25.3796,-27.7424,1207.6677],[25.364,-27.7505,1206.994],[25.3486,-27.772,1207.0078],[25.3448,-27.7849,1210.6113],[25.3404,-27.793,1211.7615],[25.3374,-27.7935,1210.0946],[25.333,-27.7905,1205.0],[25.3151,-27.7957,1206.177],[25.3015,-27.7932,1208.722],[25.2799,-27.7949,1208.2659],[25.2744,-27.7967,1209.1292],[25.2695,-27.8013,1205.2562],[25.2606,-27.822,1206.2561],[25.2536,-27.8262,1210.1909],[25.2441,-27.8292,1204.7855],[25.2384,-27.8344,1204.3973],[25.2382,-27.8375,1202.0],[25.2422,-27.8437,1207.3049],[25.2577,-27.8551,1204.5826],[25.2575,-27.8602,1202.3511],[25.2541,-27.8651,1206.8877],[25.2497,-27.8687,1201.8418],[25.2282,-27.8785,1203.0137],[25.2067,-27.884,1196.0123],[25.1977,-27.8885,1194.7192],[25.193,-27.8933,1192.8069],[25.1851,-27.9089,1189.5518],[25.1721,-27.9185,1189.9618],[25.1657,-27.9214,1190.4728],[25.1606,-27.9271,1190.4305],[25.1506,-27.9286,1190.5775],[25.1387,-27.9236,1190.3362],[25.1335,-27.9253,1189.4723],[25.1309,-27.9291,1189.0],[25.1328,-27.9433,1192.0503],[25.131,-27.9506,1189.0],[25.1173,-27.9606,1189.0],[25.1113,-27.9702,1189.0],[25.0968,-27.9769,1189.8926],[25.0906,-27.984,1189.0],[25.0903,-27.9886,1189.0],[25.0951,-27.9918,1190.7461],[25.1025,-28.0009,1189.0],[25.1064,-28.0068,1192.6757],[25.1074,-28.0119,1189.0],[25.1049,-28.0167,1189.2878],[25.0769,-28.0484,1188.5],[25.0739,-28.0659,1188.5],[25.0702,-28.0685,1188.5],[25.0591,-28.0707,1188.5],[25.0385,-28.0681,1189.2417],[25.0281,-28.0735,1188.6108],[24.9646,-28.2507,1296.9343],[24.9267,-28.2469,1241.4027],[24.9053,-28.2748,1248.684],[24.8705,-28.2704,1220.088],[24.8903,-28.3102,1236.3884],[24.9376,-28.3249,1183.5444],[24.8868,-28.465,1154.5983],[24.8813,-28.4632,1147.7273],[24.8469,-28.5038,1155.2119],[24.8678,-28.5171,1166.5392],[24.8277,-28.627,1229.3425],[24.9018,-28.648,1298.3285],[24.8018,-28.8283,1155.2842],[24.7977,-28.8538,1142.5554],[24.811,-28.9131,1197.8868],[24.8692,-28.8947,1216.8248],[24.9593,-28.9449,1146.037],[24.9745,-28.9485,1152.9824],[24.9827,-28.9445,1155.5154],[24.9925,-28.903199999999998,1161.4944],[25.0059,-28.9081,1160.7589],[25.0878,-28.9062,1182.0164],[25.0856,-28.9076,1187.2203],[25.1141,-28.9654,1160.5172],[25.1165,-28.9641,1157.7737],[25.1229,-28.9647,1160.2394],[25.1317,-28.9628,1161.0385],[25.1399,-28.9532,1159.4843],[25.1456,-28.949,1159.553],[25.1489,-28.9435,1162.0408],[25.1582,-28.9475,1162.2069],[25.1661,-28.9481,1162.3257],[25.1707,-28.9472,1163.0376],[25.1764,-28.9433,1163.8428],[25.1813,-28.936,1164.521],[25.1843,-28.936,1163.9819],[25.1881,-28.9383,1163.0223],[25.1927,-28.9377,1165.1495],[25.2002,-28.9254,1164.4259],[25.206,-28.9225,1165.5317],[25.2053,-28.912,1166.1011],[25.2025,-28.9072,1170.78],[25.2064,-28.9028,1167.8851],[25.2109,-28.9017,1170.4424],[25.2235,-28.8943,1169.2289],[25.2302,-28.9009,1169.2673],[25.2423,-28.9075,1171.3359],[25.2507,-28.9031,1173.1295],[25.2602,-28.9037,1173.3345],[25.2641,-28.9024,1174.5555],[25.2663,-28.9001,1175.4277],[25.2674,-28.894,1172.8932],[25.2704,-28.8924,1175.6346],[25.2728,-28.893,1175.0699],[25.2822,-28.902,1176.0784],[25.2935,-28.8933,1177.6031],[25.2955,-28.8947,1177.1394],[25.2966,-28.9012,1177.483],[25.2999,-28.9019,1178.1666],[25.3036,-28.8998,1179.9958],[25.3059,-28.8947,1177.5718],[25.3104,-28.8926,1178.6497],[25.3125,-28.8929,1179.6299],[25.3162,-28.8982,1177.5981],[25.3199,-28.8987,1179.0869],[25.3302,-28.8984,1181.6361],[25.3361,-28.8945,1178.8052],[25.3442,-28.8975,1181.6034],[25.347,-28.9009,1180.2719],[25.3515,-28.8999,1179.7085],[25.3594,-28.9081,1182.8148],[25.3627,-28.9089,1180.7245],[25.3694,-28.9068,1181.7124],[25.3771,-28.9135,1182.6604],[25.3816,-28.9134,1183.1418],[25.3907,-28.917,1183.6071],[25.4012,-28.9161,1184.1719],[25.4066,-28.9172,1185.8424],[25.4165,-28.9109,1184.02],[25.4177,-28.8968,1186.2286],[25.442,-28.8968,1188.0135],[25.4482,-28.9004,1188.2908],[25.4504,-28.9002,1188.7412],[25.4703,-28.8884,1189.9639],[25.476,-28.882,1191.0093],[25.4855,-28.8832,1192.7135],[25.4944,-28.8764,1191.5227],[25.5112,-28.8694,1192.948],[25.5138,-28.8643,1192.4082],[25.515,-28.8564,1196.0981],[25.5288,-28.8525,1198.1807],[25.5347,-28.8547,1198.905],[25.5388,-28.8584,1197.1921],[25.5413,-28.865,1199.4613],[25.5394,-28.871,1198.5072],[25.5463,-28.8722,1201.0569],[25.5503,-28.8802,1199.0867],[25.5535,-28.8822,1199.2313],[25.5567,-28.8822,1201.3979],[25.5607,-28.878,1200.4835],[25.567,-28.8808,1199.4691],[25.5723,-28.8748,1201.745],[25.5778,-28.8761,1203.4065],[25.5819,-28.8807,1200.6331],[25.5889,-28.883,1205.0093],[25.5914,-28.8809,1202.4939],[25.5935,-28.8708,1201.4272],[25.5993,-28.8747,1206.2435],[25.601,-28.8804,1204.4829],[25.6137,-28.8833,1207.6027],[25.616,-28.8914,1203.9059],[25.622,-28.8964,1208.3909],[25.626,-28.894,1206.4178],[25.6292,-28.8871,1203.1011],[25.636,-28.8859,1207.3262],[25.6385,-28.8871,1207.4628],[25.641,-28.8916,1210.6484],[25.6497,-28.8875,1208.6511],[25.6545,-28.8913,1213.1827],[25.6604,-28.8925,1208.2882],[25.6606,-28.8891,1208.9625],[25.6632,-28.8892,1209.5924],[25.6676,-28.8927,1213.7075],[25.672,-28.9004,1210.4358],[25.6806,-28.8958,1211.0634],[25.6897,-28.8999,1213.9136],[25.6922,-28.9039,1213.6841],[25.6959,-28.9061,1212.2017],[25.7003,-28.9072,1211.9312],[25.7045,-28.9054,1212.0881],[25.7054,-28.9092,1211.033],[25.7119,-28.9056,1213.4547],[25.7233,-28.9087,1213.4875],[25.7384,-28.903199999999998,1218.3804],[25.7435,-28.9042,1216.4392],[25.7456,-28.9067,1216.0956],[25.7485,-28.9075,1216.9219],[25.7514,-28.906,1220.3727],[25.7519,-28.899,1216.7322],[25.7557,-28.8989,1218.3411],[25.7647,-28.9043,1216.9391],[25.769,-28.8944,1217.9791],[25.7846,-28.8946,1222.9355],[25.7956,-28.8868,1221.0013],[25.7982,-28.8875,1220.6849],[25.8017,-28.8925,1222.1495],[25.8046,-28.8939,1219.6774],[25.8089,-28.8535,1228.4292],[25.8563,-28.8676,1254.6576],[25.8541,-28.8157,1254.9695],[25.8644,-28.7812,1252.8539],[25.8703,-28.7841,1260.9214],[25.8745,-28.7663,1233.4503],[25.8787,-28.7601,1233.3314],[25.9079,-28.774,1259.3844],[25.912,-28.7615,1253.6194],[25.9308,-28.7711,1267.6855],[25.9427,-28.7601,1275.7976],[25.9463,-28.762,1277.202],[25.921,-28.8099,1291.2443],[25.9265,-28.8264,1279.203],[25.977,-28.8049,1288.4446],[25.9808,-28.854,1271.6913],[25.9865,-28.876,1248.0],[25.9913,-28.8736,1248.0],[25.9946,-28.8696,1248.0],[26.0093,-28.8685,1248.0],[26.0137,-28.8631,1248.0],[26.0137,-28.8573,1248.0],[26.0156,-28.8543,1248.106],[26.0198,-28.8533,1248.0],[26.0248,-28.8549,1248.5184],[26.0279,-28.8535,1248.0],[26.031,-28.8439,1248.3536],[26.0365,-28.8399,1248.4377],[26.0332,-28.8299,1250.8101],[26.0382,-28.8261,1251.2535],[26.0427,-28.8281,1251.2885],[26.0483,-28.8268,1249.4321],[26.0494,-28.8206,1249.1367],[26.0554,-28.8183,1250.5391],[26.0567,-28.8146,1249.3986],[26.0625,-28.8173,1252.3496],[26.0601,-28.8219,1253.9449],[26.0679,-28.8237,1250.7283],[26.0735,-28.8165,1252.8506],[26.074,-28.813,1250.5759],[26.0788,-28.8087,1253.2091],[26.0843,-28.8122,1253.243],[26.0884,-28.8192,1251.1265],[26.0901,-28.8194,1252.0652],[26.0955,-28.8096,1256.6652],[26.0955,-28.8054,1253.9009],[26.0997,-28.8038,1253.262],[26.1108,-28.8072,1253.6208],[26.125,-28.8055,1255.1741],[26.1282,-28.8111,1256.7496],[26.1268,-28.8143,1256.3625],[26.128,-28.8159,1257.2546],[26.1335,-28.8146,1259.7544],[26.1393,-28.8106,1258.7183],[26.1464,-28.8096,1258.5554],[26.1496,-28.8115,1259.08],[26.1497,-28.8162,1259.6122],[26.1404,-28.8237,1265.2991],[26.1476,-28.8243,1260.5159],[26.153,-28.8287,1262.0525],[26.1556,-28.8502,1262.631],[26.1581,-28.8489,1261.7444],[26.1591,-28.8457,1262.8724],[26.1609,-28.8456,1262.8724],[26.1638,-28.8478,1262.0297],[26.1636,-28.8526,1262.8032],[26.1653,-28.8546,1262.9369],[26.1722,-28.8534,1262.259],[26.1749,-28.8444,1266.2063],[26.1775,-28.8486,1265.084],[26.178,-28.8535,1262.8479],[26.1843,-28.8528,1264.8636],[26.1866,-28.8509,1263.2312],[26.1877,-28.8461,1269.3291],[26.1948,-28.8432,1266.1533],[26.1954,-28.8461,1267.0741],[26.1918,-28.8513,1271.146],[26.1947,-28.8541,1269.0315],[26.2017,-28.8566,1272.1772],[26.1989,-28.8608,1270.0753],[26.1995,-28.8623,1269.4109],[26.2075,-28.8624,1269.8972],[26.2071,-28.868,1271.4463],[26.2166,-28.8731,1272.6805],[26.2255,-28.8722,1268.9132],[26.2257,-28.8803,1274.1727],[26.2306,-28.8827,1271.5111],[26.2346,-28.881,1273.6282],[26.241,-28.8872,1273.5067],[26.2502,-28.8987,1271.2113],[26.2556,-28.9021,1270.4814],[26.2547,-28.9067,1272.55],[26.2595,-28.9088,1274.8455],[26.2637,-28.9139,1272.2833],[26.2678,-28.9146,1272.7557],[26.2616,-28.9264,1278.1537],[26.2623,-28.9289,1279.1648],[26.2793,-28.9399,1280.4208],[26.2836,-28.9405,1277.1113],[26.2917,-28.9371,1276.394],[26.2974,-28.9418,1277.2941],[26.3032,-28.9419,1279.2997],[26.335,-28.9012,1329.6245],[26.362,-28.9194,1342.7388],[26.362,-28.941,1342.6528],[26.3657,-28.9419,1347.0959],[26.3532,-28.9597,1286.3679],[26.3617,-28.9639,1282.9933],[26.3658,-28.9624,1283.8313],[26.3699,-28.9646,1285.1497],[26.3779,-28.9697,1287.2977],[26.3791,-28.9732,1287.8313],[26.3834,-28.9775,1287.9343],[26.3961,-28.9796,1288.6162],[26.3968,-28.9848,1287.3872],[26.399,-28.9864,1289.8809],[26.4017,-28.9859,1289.3529],[26.4031,-28.9892,1290.0295],[26.4309,-28.991,1324.8865],[26.4346,-28.9633,1311.2065],[26.4719,-28.948,1371.1953],[26.4965,-28.9731,1314.3525],[26.4989,-28.9739,1320.996],[26.4985,-28.9766,1324.8921],[26.5019,-28.9758,1320.3156],[26.5057,-28.9796,1325.0909],[26.5105,-28.9805,1325.1046],[26.5141,-28.979,1333.9468],[26.5144,-28.9818,1348.8621],[26.5173,-28.9831,1348.855],[26.5249,-29.0012,1402.8418],[26.5469,-28.9827,1388.1879],[26.5479,-28.9755,1375.8254],[26.5669,-28.9681,1423.6692],[26.5651,-28.9852,1395.094],[26.5751,-28.986,1401.4055],[26.5799,-28.9842,1405.905],[26.5843,-28.9883,1406.9152],[26.5881,-28.9893,1409.0544],[26.605,-29.0078,1441.0077],[26.6176,-29.0062,1443.3967],[26.6343,-29.0597,1422.301],[26.6373,-29.0585,1406.558],[26.6426,-29.0685,1411.0793],[26.6607,-29.0767,1368.1189],[26.6665,-29.0893,1363.5377],[26.6934,-29.0657,1402.0958],[26.7164,-29.0724,1430.7332],[26.7079,-29.0872,1400.1875],[26.718,-29.0902,1477.7513],[26.7218,-29.082,1549.2114],[26.7277,-29.0788,1505.5142],[26.7272,-29.0738,1619.1545],[26.7392,-29.0619,1666.41],[26.7371,-29.0585,1495.9242],[26.7426,-29.0553,1460.3176],[26.7514,-29.0532,1463.8209],[26.7512,-29.0387,1452.5624],[26.779,-29.0158,1469.7798],[26.7776,-29.0134,1469.853],[26.7567,-29.0061,1472.0887],[26.7527,-29.003,1452.6062],[26.8537,-28.8863,1470.2777],[26.8804,-28.8285,1446.608],[26.9111,-28.7683,1404.9578],[26.9107,-28.7622,1397.7542],[26.9237,-28.7591,1374.3882],[26.947,-28.7482,1403.2233],[26.947,-28.7503,1408.451],[26.9728,-28.746,1383.2047],[26.9754,-28.7518,1433.881],[27.0297,-28.7439,1428.4749],[27.0302,-28.7562,1424.4111],[27.0333,-28.7607,1433.2278],[27.0419,-28.7626,1449.5518],[27.0463,-28.7699,1432.7502],[27.0618,-28.7615,1425.4126],[27.0776,-28.7677,1426.3334],[27.0999,-28.7567,1435.5773],[27.1074,-28.7683,1435.2371],[27.1496,-28.7252,1394.6394],[27.151,-28.7259,1398.7733],[27.1511,-28.7311,1394.8303],[27.1557,-28.7335,1395.3979],[27.1578,-28.7325,1396.1815],[27.1545,-28.7417,1397.6709],[27.1573,-28.7434,1398.5972],[27.1563,-28.7469,1398.5631],[27.1539,-28.7476,1398.791],[27.1553,-28.7516,1399.0452],[27.1527,-28.7529,1401.0425],[27.1517,-28.7602,1401.1904],[27.1581,-28.7692,1408.035],[27.157,-28.7718,1404.9922],[27.1599,-28.7791,1405.6331],[27.1648,-28.779,1406.989],[27.1666,-28.7812,1411.3162],[27.1703,-28.7821,1409.803],[27.1716,-28.7864,1409.2637],[27.1742,-28.7874,1409.734],[27.1752,-28.7909,1412.174],[27.1782,-28.7912,1414.8275],[27.1787,-28.7947,1415.3495],[27.1802,-28.7952,1411.5219],[27.1796,-28.7981,1420.0999],[27.1863,-28.8015,1413.8339],[27.1863,-28.8053,1414.8333],[27.2146,-28.7742,1458.821],[27.2099,-28.7719,1451.1962],[27.2006,-28.7817,1478.8223],[27.199,-28.7794,1464.2512],[27.1917,-28.7796,1535.088],[27.1863,-28.7754,1604.4629],[27.1782,-28.7737,1446.9604],[27.1749,-28.7673,1437.981],[27.1768,-28.7657,1439.2513],[27.1702,-28.7597,1423.6326],[27.1985,-28.7342,1429.345],[27.1966,-28.7335,1429.0635],[27.2087,-28.7056,1415.0372],[27.1926,-28.6977,1420.4246],[27.2026,-28.6762,1436.5228],[27.1901,-28.6676,1459.0574],[27.2127,-28.6265,1457.4197],[27.1929,-28.6247,1501.5095],[27.214,-28.6158,1480.7485],[27.219,-28.5992,1467.6652],[27.2087,-28.5969,1467.9233],[27.2122,-28.578,1450.7725],[27.1977,-28.5766,1442.8976],[27.1724,-28.5623,1474.476],[27.1567,-28.5583,1424.3132],[27.1549,-28.5463,1430.95],[27.1507,-28.5477,1428.4454],[27.1483,-28.5202,1420.5756],[27.1646,-28.5225,1444.0903],[27.1659,-28.5243,1452.1283],[27.1754,-28.5085,1449.4017],[27.1737,-28.5081,1449.4017],[27.1874,-28.4823,1473.1851],[27.1373,-28.4767,1549.1298],[27.1136,-28.4565,1452.8896],[27.1174,-28.4453,1436.6039],[27.0983,-28.4395,1421.6128],[27.1104,-28.4283,1438.0981],[27.1104,-28.4121,1409.8235],[27.1055,-28.4079,1401.3369],[27.1065,-28.4018,1419.7515],[27.075,-28.4077,1419.8887],[27.0709,-28.4155,1435.8993],[27.0372,-28.3989,1420.2382],[27.0661,-28.3419,1432.3679],[27.0654,-28.2964,1417.3282],[27.0909,-28.2936,1379.4324],[27.091,-28.2798,1376.958],[27.0893,-28.2711,1402.8174],[27.1014,-28.2781,1364.4562],[27.1047,-28.2779,1357.7732],[27.1187,-28.259,1338.3248],[27.1236,-28.2558,1339.9377],[27.1299,-28.257,1339.7483],[27.1252,-28.2627,1339.1879],[27.1217,-28.2626,1356.4276],[27.1212,-28.2692,1371.0197],[27.1116,-28.2774,1349.7567],[27.1144,-28.2772,1355.4502],[27.1304,-28.2841,1374.1378],[27.1319,-28.2763,1373.9435],[27.1383,-28.2816,1367.0709],[27.1538,-28.2638,1366.3561],[27.1668,-28.2689,1388.7455],[27.1935,-28.2576,1410.358],[27.2166,-28.2534,1439.7391],[27.2294,-28.2406,1434.9918],[27.2491,-28.2622,1503.8103],[27.2468,-28.2687,1491.8774],[27.2768,-28.2828,1444.5995],[27.3058,-28.2627,1510.6494],[27.3197,-28.2685,1445.8208],[27.3262,-28.2265,1466.7795],[27.3439,-28.2267,1446.3773],[27.3879,-28.2141,1497.9646],[27.3833,-28.1901,1525.8051],[27.3701,-28.1703,1463.1373],[27.3867,-28.1588,1474.0658],[27.4068,-28.105,1506.9929],[27.4275,-28.1077,1509.8049],[27.4718,-28.1071,1534.9863],[27.4338,-28.0498,1525.4946],[27.4345,-28.0401,1505.3489],[27.423,-28.037,1516.6182],[27.4263,-28.0231,1522.9187],[27.4056,-28.0261,1524.1418],[27.4023,-28.0136,1482.4934],[27.3736,-28.0196,1498.4233],[27.3779,-28.0058,1509.212],[27.3634,-28.0015,1518.4996],[27.3658,-27.9452,1453.2732],[27.359,-27.9325,1457.5759],[27.3351,-27.9454,1454.707],[27.3008,-27.9607,1483.0898],[27.2926,-27.9381,1474.5439],[27.2922,-27.923,1465.3816],[27.2386,-27.9086,1463.2205],[27.2152,-27.9151,1438.6874],[27.1928,-27.8997,1423.8488],[27.1938,-27.9045,1417.6951],[27.1873,-27.9061,1419.6991],[27.1796,-27.9222,1428.7083],[27.1786,-27.9085,1409.0557],[27.1716,-27.911,1405.4396],[27.1728,-27.9347,1441.3141],[27.1578,-27.9333,1430.4631],[27.1594,-27.9151,1404.0649],[27.1409,-27.9227,1400.0758],[27.0938,-27.8859,1450.8829],[27.0757,-27.8905,1453.658],[27.0566,-27.8574,1419.9027],[27.0525,-27.8593,1425.9421],[27.0409,-27.8091,1386.1115],[27.0772,-27.7892,1410.2148],[27.0449,-27.749,1374.9492],[27.0168,-27.7271,1356.5105],[27.0308,-27.7168,1351.5813],[27.0201,-27.707,1344.844],[27.0015,-27.715699999999998,1349.5684],[26.9892,-27.7062,1346.2793],[26.9699,-27.6945,1331.2706],[27.0062,-27.6655,1349.8615],[26.9941,-27.6552,1333.323],[26.9745,-27.6429,1342.8057],[27.0163,-27.5982,1395.2466],[26.9663,-27.5625,1375.0699],[26.9633,-27.5492,1379.5627],[26.9453,-27.5595,1361.7441],[26.9335,-27.5578,1357.48],[26.9491,-27.5303,1362.54],[26.9501,-27.5225,1341.2466],[26.9227,-27.5161,1341.8083],[26.9229,-27.5228,1343.6608],[26.8894,-27.5226,1351.0905],[26.8704,-27.5338,1337.0193],[26.8854,-27.5759,1330.6757],[26.8739,-27.5896,1313.4594],[26.8656,-27.5878,1311.9546]]]]}
,"properties": {"GID_2": "ZAF.2.2_1","GID_0": "ZAF","country": "SouthAfrica","GID_1": "ZAF.2_1","province": "FreeState","NL_NAME_1": "NA","county": "Lejweleputswa","VARNAME_2": "NA","NL_NAME_2": "NA","TYPE_2": "DistrictMunicipality","ENGTYPE_2": "DistrictMunicipality","CC_2": "DC18","HASC_2": "ZA.FS.LE","name": "Lejweleputswa.county","area_km2": 31977.69,"hist_schema_id": "Elevation0-9000","hist_area_km2": {"1150": 94.86,"1175": 423.58,"1200": 1034.89,"1225": 2145.46,"1250": 3601.02,"1275": 5811.22,"1300": 5529.46,"1325": 3630.27,"1350": 2529.74,"1375": 2016.85,"1400": 1596.72,"1425": 1362.28,"1450": 1139.81,"1475": 662.22,"1500": 288.78,"1525": 93.46,"1550": 13.2,"1575": 3.51}}}