{"type": "Feature","bbox": [30.4447,-28.5526,32.0501,-27.2432],"geometry": {"type": "MultiPolygon","coordinates": [[[[30.9397,-28.3506,1157.8784],[30.961,-28.3409,1346.3442],[30.9654,-28.4063,1241.0366],[30.9967,-28.3928,1598.731],[30.9902,-28.4,1329.3291],[30.9912,-28.4153,1178.9854],[30.9973,-28.4225,1150.1886],[31.0075,-28.4233,1135.1077],[31.0106,-28.4221,1126.626],[31.0181,-28.4258,1119.1857],[31.0193,-28.4304,1110.6729],[31.0218,-28.4316,1114.0325],[31.0205,-28.4335,1100.7977],[31.0244,-28.4361,1069.0979],[31.0261,-28.4356,1105.3801],[31.0278,-28.4391,1057.8411],[31.0233,-28.4431,1062.4062],[31.024,-28.4521,1038.0936],[31.0264,-28.4511,1084.6589],[31.03,-28.4535,1031.9241],[31.036,-28.4547,1020.8233],[31.0399,-28.4579,1018.5554],[31.0433,-28.4569,1027.2369],[31.0499,-28.4611,1011.755],[31.054,-28.4615,1006.3337],[31.0611,-28.4714,994.5037],[31.0641,-28.4721,996.111],[31.0651,-28.4789,988.3807],[31.0674,-28.479,991.7161],[31.0694,-28.4814,992.7291],[31.069,-28.4829,992.7291],[31.0644,-28.4844,1000.6584],[31.0629,-28.4879,981.642],[31.0672,-28.4914,977.3315],[31.0742,-28.493,975.0446],[31.0781,-28.4922,986.3408],[31.0811,-28.4962,971.42],[31.0816,-28.4994,975.313],[31.0737,-28.4987,968.1688],[31.0754,-28.5018,964.0849],[31.073,-28.5031,962.6728],[31.0741,-28.5051,965.554],[31.0823,-28.5049,958.3625],[31.086,-28.5001,969.8596],[31.0888,-28.5045,953.0187],[31.0924,-28.5028,969.3454],[31.101,-28.5026,946.5475],[31.1125,-28.5097,937.1998],[31.1208,-28.5087,946.615],[31.1216,-28.5108,940.1783],[31.1181,-28.5119,938.5884],[31.1166,-28.5189,925.0712],[31.1068,-28.5241,911.0576],[31.105,-28.5226,910.7466],[31.1027,-28.5246,921.7477],[31.1036,-28.5279,931.7841],[31.1064,-28.5281,916.3981],[31.1073,-28.5314,925.3507],[31.1117,-28.5308,907.6094],[31.1182,-28.5353,910.7711],[31.1223,-28.5361,895.3759],[31.1223,-28.538,898.8913],[31.1298,-28.5382,891.0709],[31.1301,-28.5418,919.5096],[31.1339,-28.541,904.7267],[31.1355,-28.5426,885.6662],[31.137,-28.5413,886.7798],[31.1408,-28.5439,883.9105],[31.15,-28.5437,878.5168],[31.1519,-28.5426,882.4647],[31.1504,-28.5408,885.319],[31.1525,-28.5398,876.1187],[31.1536,-28.5419,882.0941],[31.162,-28.5442,873.0026],[31.1585,-28.5481,870.9022],[31.1603,-28.5505,876.3794],[31.1586,-28.5518,873.9351],[31.1612,-28.5526,907.8389],[31.1696,-28.5478,987.0319],[31.1721,-28.5428,1035.8818],[31.1843,-28.5369,1065.3254],[31.1873,-28.5273,1139.0308],[31.1859,-28.5216,1173.5323],[31.1876,-28.5129,1220.3857],[31.1904,-28.511,1188.6005],[31.1991,-28.513,1182.1144],[31.2039,-28.5159,1195.9232],[31.2074,-28.5137,1178.6176],[31.1895,-28.4994,1117.5101],[31.2198,-28.477,1005.5582],[31.2227,-28.4791,1074.6815],[31.2491,-28.4622,840.8436],[31.2755,-28.4832,972.9845],[31.3013,-28.4601,803.7051],[31.3089,-28.4699,1009.4518],[31.3295,-28.4492,863.27],[31.3279,-28.4406,806.0388],[31.3319,-28.4314,826.1871],[31.329,-28.4241,794.366],[31.3289,-28.4159,767.6116],[31.3332,-28.4082,737.7136],[31.3437,-28.4008,662.531],[31.3494,-28.3892,622.9727],[31.3585,-28.3939,621.4446],[31.386,-28.4263,650.4516],[31.4109,-28.4586,835.0156],[31.4455,-28.4772,417.8754],[31.4761,-28.4695,322.4234],[31.5044,-28.472,388.1083],[31.501,-28.4557,329.5281],[31.4954,-28.4427,270.5744],[31.4937,-28.4338,266.5234],[31.5077,-28.4232,270.1113],[31.5128,-28.4217,259.9928],[31.5173,-28.4229,263.6352],[31.5158,-28.4298,257.5676],[31.5191,-28.4352,268.9174],[31.5259,-28.4359,253.071],[31.5313,-28.4335,250.721],[31.541,-28.416,259.784],[31.553,-28.4098,289.5668],[31.5515,-28.4062,271.0729],[31.5418,-28.4015,252.9146],[31.5345,-28.3914,235.4633],[31.5355,-28.387,234.4412],[31.5424,-28.3833,228.4991],[31.5529,-28.3832,234.2185],[31.5594,-28.3903,258.1519],[31.5638,-28.3863,245.6434],[31.567,-28.3762,239.2783],[31.5776,-28.3747,214.4022],[31.5858,-28.3782,211.3829],[31.5941,-28.3907,211.6819],[31.5966,-28.392,227.3362],[31.5991,-28.3881,207.1198],[31.5979,-28.3742,202.2671],[31.6005,-28.3728,241.8223],[31.6043,-28.3734,203.2778],[31.611,-28.3779,198.8868],[31.6101,-28.3805,199.8595],[31.6118,-28.3874,214.3359],[31.6097,-28.3988,194.3343],[31.6267,-28.4078,180.4958],[31.6401,-28.4047,223.3556],[31.6414,-28.4013,207.0177],[31.6379,-28.3941,215.0714],[31.643,-28.3891,170.5271],[31.6495,-28.3858,175.3062],[31.6558,-28.3879,193.2037],[31.6597,-28.3943,166.6365],[31.6682,-28.4022,163.1927],[31.6756,-28.3998,179.1318],[31.6777,-28.3955,170.9413],[31.681,-28.3932,159.5822],[31.6924,-28.3942,178.7834],[31.6931,-28.391,204.6031],[31.6832,-28.3828,152.8719],[31.6826,-28.3786,154.2875],[31.6865,-28.3762,177.2822],[31.6926,-28.3764,180.4672],[31.7021,-28.3715,153.6944],[31.7022,-28.3611,225.9538],[31.6977,-28.3589,234.0528],[31.7069,-28.3389,341.8726],[31.7133,-28.3162,446.7505],[31.7199,-28.3135,489.1109],[31.7223,-28.3094,482.0656],[31.7196,-28.3029,521.3763],[31.7198,-28.2993,528.3078],[31.7004,-28.27,428.292],[31.7031,-28.2273,417.0206],[31.733,-28.2184,157.5651],[31.7385,-28.2207,128.9408],[31.7403,-28.2316,131.0661],[31.746,-28.233,139.0123],[31.7538,-28.2225,129.9699],[31.7711,-28.2173,133.0104],[31.7783,-28.2063,119.0212],[31.7827,-28.2093,116.993],[31.7823,-28.2157,116.5706],[31.7911,-28.2196,128.9323],[31.8062,-28.2176,119.1895],[31.8088,-28.216,119.1879],[31.8131,-28.2196,134.513],[31.8162,-28.2143,124.2887],[31.8183,-28.2049,124.8065],[31.815,-28.2032,124.751],[31.8051,-28.2034,134.7447],[31.8002,-28.1991,126.7632],[31.7998,-28.1955,127.0571],[31.8056,-28.1929,139.2527],[31.8072,-28.1889,130.0141],[31.7942,-28.1807,135.5603],[31.7984,-28.177,135.4995],[31.7908,-28.1645,142.4005],[31.7925,-28.1612,143.5323],[31.8016,-28.153199999999998,151.2885],[31.7948,-28.146,149.7585],[31.793,-28.1385,157.935],[31.7947,-28.137,155.2183],[31.7996,-28.1381,165.6255],[31.8034,-28.1365,156.04],[31.8043,-28.1318,156.3025],[31.8022,-28.1272,158.7633],[31.8025,-28.1213,163.8581],[31.8114,-28.1173,165.1927],[31.8137,-28.1145,170.0425],[31.8143,-28.111,201.6195],[31.8069,-28.1092,168.0938],[31.8068,-28.1061,171.4026],[31.8197,-28.0911,184.8107],[31.8152,-28.0871,185.301],[31.8218,-28.0766,203.7692],[31.8231,-28.0701,222.8907],[31.8209,-28.0655,233.2609],[31.8262,-28.0656,238.3319],[31.8192,-28.038,249.6373],[31.8304,-28.0293,309.5064],[31.8447,-28.0279,521.8124],[31.8465,-28.0262,539.2393],[31.8502,-28.0263,550.1652],[31.8744,-28.0369,481.0212],[31.8797,-28.0322,449.7159],[31.8867,-28.0295,438.6251],[31.8928,-28.036,376.6015],[31.8965,-28.0366,369.1797],[31.8981,-28.0355,363.6781],[31.8972,-28.0326,378.2382],[31.9002,-28.0324,342.1006],[31.9008,-28.031,345.2195],[31.9046,-28.0314,334.1932],[31.9047,-28.0266,311.6285],[31.9092,-28.025,297.7186],[31.912,-28.0277,287.1294],[31.916,-28.0264,289.8809],[31.921,-28.0277,340.4414],[31.9228,-28.0354,304.3414],[31.9296,-28.0343,318.9362],[31.926,-28.0382,290.6395],[31.9263,-28.0397,319.2293],[31.9395,-28.0483,251.9666],[31.9449,-28.0492,246.328],[31.9439,-28.0456,251.2625],[31.9421,-28.0458,250.3408],[31.9415,-28.0385,258.428],[31.939,-28.0389,257.4618],[31.9401,-28.0348,258.3374],[31.9454,-28.0324,263.4909],[31.9461,-28.0278,275.3735],[31.9441,-28.0258,273.4068],[31.9465,-28.0251,273.8119],[31.9468,-28.0184,276.6835],[31.9494,-28.0166,277.8444],[31.9472,-28.0161,282.3801],[31.9482,-28.0133,286.7767],[31.9442,-28.0103,299.1976],[31.9465,-28.0091,293.2849],[31.9466,-28.0059,294.7112],[31.9485,-28.0061,294.9448],[31.9483,-28.0038,294.951],[31.951,-28.0008,298.5204],[31.9457,-27.9997,307.4194],[31.9429,-27.996,345.271],[31.9438,-27.9937,335.7927],[31.9398,-27.9879,357.5969],[31.937,-27.9762,416.9435],[31.94,-27.9701,416.5114],[31.948,-27.9667,513.2903],[31.9472,-27.9641,552.4195],[31.9526,-27.9582,514.4257],[31.9527,-27.9503,470.0131],[31.9564,-27.9432,433.8416],[31.9543,-27.9371,401.2273],[31.9613,-27.9314,389.1495],[31.9655,-27.9309,380.0894],[31.969,-27.931,374.6096],[31.9781,-27.9367,357.0893],[31.9803,-27.9367,354.3892],[31.9848,-27.9314,346.0004],[31.9848,-27.9284,336.326],[31.991,-27.9258,336.2212],[31.9935,-27.9282,325.0463],[31.993,-27.9311,321.8231],[32.0004,-27.9337,313.1783],[32.0023,-27.9318,310.838],[32.0029,-27.9328,310.838],[32.0061,-27.9306,311.5593],[32.0081,-27.9314,306.5182],[32.0112,-27.93,308.5169],[32.0152,-27.9314,298.3456],[32.0228,-27.9301,288.1388],[32.0234,-27.9329,289.1147],[32.0257,-27.9328,285.0623],[32.0246,-27.931,282.8658],[32.0318,-27.9291,276.1823],[31.9962,-27.8853,664.5643],[31.9513,-27.6192,135.0509],[31.9531,-27.6186,133.8574],[31.9561,-27.6119,145.646],[31.9571,-27.6045,130.8408],[31.9554,-27.5969,133.6297],[31.9573,-27.593,125.9717],[31.9803,-27.5966,125.2302],[31.9879,-27.5794,123.4669],[31.9963,-27.5818,116.1098],[32.0061,-27.5915,119.9181],[32.014,-27.5943,113.0196],[32.0238,-27.5928,109.922],[32.0374,-27.5871,107.3773],[32.0406,-27.5897,108.172],[32.0417,-27.5949,106.8587],[32.0501,-27.5838,504.4133],[32.0427,-27.5552,623.3044],[32.0449,-27.5532,616.7393],[32.0377,-27.5458,566.313],[32.0315,-27.5422,458.3775],[32.0276,-27.5258,471.4312],[32.0293,-27.5242,526.5394],[32.0238,-27.5149,458.5294],[32.0207,-27.5128,523.2969],[32.0182,-27.5056,545.2585],[32.0195,-27.5026,565.5642],[32.0159,-27.4968,541.7903],[32.0135,-27.4755,525.6256],[32.015,-27.4601,410.4532],[32.0102,-27.4569,398.0535],[32.0056,-27.4205,643.5292],[32.0047,-27.4013,574.5182],[31.9998,-27.3836,611.9872],[31.991,-27.3851,470.7019],[31.9891,-27.3822,611.1298],[31.9909,-27.3731,663.093],[31.9851,-27.3696,653.7323],[31.9885,-27.3602,678.9818],[31.9867,-27.3505,720.2416],[31.9904,-27.3435,718.2745],[31.9895,-27.3286,630.6031],[31.9848,-27.3175,716.0941],[31.4937,-27.3152,984.7741],[31.2743,-27.2432,909.6456],[31.2048,-27.3171,979.9731],[31.1659,-27.3685,861.8545],[31.1409,-27.3627,1071.3105],[31.101,-27.3358,642.7002],[31.1016,-27.3332,645.1224],[31.0988,-27.3298,646.4281],[31.084,-27.3356,671.3943],[31.0788,-27.3431,675.3405],[31.0652,-27.3383,673.4253],[31.0508,-27.3432,710.0943],[31.0484,-27.3451,683.5205],[31.0462,-27.3519,690.6534],[31.044,-27.3533,710.5215],[31.038,-27.3515,703.01],[31.0348,-27.3458,747.1113],[31.0309,-27.3463,742.0727],[31.0243,-27.3519,756.7456],[31.0205,-27.3606,753.8578],[31.0139,-27.355,783.2142],[31.0106,-27.3491,772.2509],[31.0084,-27.3488,771.8429],[31.0055,-27.3511,776.442],[31.0026,-27.3588,798.007],[30.9847,-27.3575,805.1502],[30.9815,-27.3592,802.7426],[30.9774,-27.358,802.8799],[30.97,-27.3633,807.8326],[30.9631,-27.3658,814.7347],[30.9599,-27.3641,820.6808],[30.9581,-27.3606,841.8725],[30.9554,-27.3597,831.5794],[30.948,-27.3661,848.0316],[30.9424,-27.3682,868.2864],[30.9405,-27.3658,873.2787],[30.9411,-27.3596,889.4366],[30.9382,-27.3568,898.4681],[30.9393,-27.3466,928.6],[30.9315,-27.3405,944.4356],[30.9233,-27.3305,946.3716],[30.9245,-27.3255,947.9985],[30.921,-27.3182,991.3271],[30.9245,-27.3113,966.0917],[30.9238,-27.306,969.1285],[30.9222,-27.305,969.2174],[30.9155,-27.3054,970.8549],[30.9116,-27.3081,977.3893],[30.9097,-27.3054,969.6956],[30.9065,-27.3055,970.7543],[30.9023,-27.3081,979.3146],[30.8867,-27.3108,972.0137],[30.8841,-27.3088,977.3168],[30.8821,-27.3124,972.8119],[30.8752,-27.3143,974.0008],[30.8659,-27.3127,978.3575],[30.8637,-27.3195,976.2524],[30.8648,-27.3318,980.1606],[30.8618,-27.334,976.515],[30.8613,-27.3391,977.2339],[30.8559,-27.337,981.7503],[30.8576,-27.3433,997.642],[30.8543,-27.3444,983.3409],[30.8499,-27.3433,989.189],[30.8449,-27.3461,988.4114],[30.8437,-27.3527,988.3555],[30.8414,-27.3529,991.6047],[30.8378,-27.35,987.956],[30.8302,-27.35,989.82],[30.8223,-27.3542,991.589],[30.8233,-27.3458,990.3113],[30.8286,-27.3447,993.9338],[30.8282,-27.3433,989.9199],[30.8213,-27.3395,997.4047],[30.8205,-27.3361,1000.2722],[30.8161,-27.3401,1005.0428],[30.8083,-27.3389,996.109],[30.8114,-27.3324,1000.634],[30.8048,-27.3345,1002.595],[30.8022,-27.3321,1001.6202],[30.8088,-27.3283,1003.3862],[30.8041,-27.3243,998.9461],[30.7971,-27.3266,1024.637],[30.7969,-27.3224,1013.1401],[30.791,-27.3185,1024.0742],[30.7889,-27.3128,1031.7117],[30.7786,-27.3144,1051.1442],[30.7804,-27.3169,1047.4509],[30.7855,-27.3192,1043.3809],[30.7844,-27.3243,1043.4139],[30.7742,-27.3243,1059.7023],[30.771,-27.3264,1067.5217],[30.769,-27.319,1065.0896],[30.7662,-27.3193,1066.9277],[30.7628,-27.3145,1066.5085],[30.76,-27.3136,1080.0374],[30.7627,-27.3074,1076.78],[30.7583,-27.3044,1090.469],[30.7556,-27.3046,1073.9155],[30.7508,-27.2987,1072.7236],[30.7432,-27.3061,1074.677],[30.7419,-27.3032,1072.6096],[30.7439,-27.3006,1086.4462],[30.7404,-27.2946,1081.6259],[30.7344,-27.2952,1086.16],[30.7283,-27.2993,1086.6107],[30.7251,-27.2956,1089.1377],[30.7261,-27.2936,1084.6559],[30.7249,-27.2896,1086.5524],[30.7207,-27.2909,1086.3411],[30.7179,-27.2872,1089.505],[30.7188,-27.2845,1087.0348],[30.7176,-27.2838,1087.0348],[30.7132,-27.2861,1087.5688],[30.7068,-27.2833,1087.1074],[30.6606,-27.2879,1334.7247],[30.5877,-27.323,1605.4944],[30.563,-27.327,1684.5986],[30.5466,-27.3259,1691.0135],[30.5408,-27.3216,1650.5461],[30.5257,-27.3151,1762.8434],[30.4977,-27.3124,1683.9519],[30.475,-27.3195,1807.9928],[30.4663,-27.3243,1689.1992],[30.4659,-27.3263,1724.588],[30.4621,-27.3252,1847.55],[30.4583,-27.3267,1857.1582],[30.4538,-27.3251,1909.4203],[30.4491,-27.3267,1874.9679],[30.4447,-27.3575,1262.7731],[30.4494,-27.3589,1255.5925],[30.4541,-27.3538,1239.3962],[30.4549,-27.3503,1241.6628],[30.4577,-27.3513,1235.1129],[30.4651,-27.3493,1226.4373],[30.4634,-27.3467,1231.4893],[30.4679,-27.3467,1220.7725],[30.472,-27.3429,1247.678],[30.4811,-27.3433,1210.324],[30.4863,-27.357,1394.9608],[30.4778,-27.3721,1456.8849],[30.5004,-27.3906,1262.0095],[30.4821,-27.4131,1439.066],[30.4829,-27.4156,1447.0365],[30.4936,-27.4121,1412.3031],[30.5162,-27.4284,1445.314],[30.5096,-27.4566,1409.4529],[30.5206,-27.4693,1428.4512],[30.543,-27.482,1752.2385],[30.5868,-27.4998,1761.3635],[30.5925,-27.5325,1604.6614],[30.6134,-27.5525,1510.798],[30.6152,-27.5608,1350.9303],[30.6418,-27.6015,1503.0867],[30.6247,-27.6284,1491.9033],[30.615,-27.636,1528.3076],[30.6676,-27.6449,1312.9786],[30.6624,-27.6993,1350.7487],[30.6686,-27.6971,1318.1987],[30.6749,-27.698,1300.637],[30.6771,-27.7004,1294.7034],[30.6756,-27.7078,1277.4985],[30.6807,-27.7094,1249.5698],[30.6804,-27.7129,1228.2007],[30.6855,-27.7148,1222.3479],[30.6908,-27.7134,1215.4954],[30.6917,-27.7166,1214.1691],[30.6892,-27.7199,1218.1626],[30.6933,-27.7222,1196.9265],[30.6953,-27.7288,1190.8114],[30.6932,-27.7331,1187.5171],[30.6945,-27.7382,1186.5884],[30.6936,-27.7415,1179.9788],[30.6999,-27.7457,1176.9771],[30.6948,-27.7484,1179.0775],[30.6789,-27.7478,1192.2894],[30.6735,-27.7532,1208.3124],[30.6665,-27.7502,1207.3827],[30.6575,-27.7518,1223.7478],[30.6527,-27.7497,1255.8551],[30.653,-27.7476,1238.1509],[30.6506,-27.7448,1242.042],[30.6469,-27.7462,1266.9733],[30.6371,-27.7465,1274.959],[30.6294,-27.7421,1301.7449],[30.6283,-27.7397,1317.4568],[30.6207,-27.7443,1296.4307],[30.6163,-27.7518,1241.7507],[30.6183,-27.7593,1227.6957],[30.6264,-27.7735,1222.71],[30.6304,-27.7759,1212.2887],[30.6305,-27.7843,1210.0082],[30.6332,-27.7884,1204.8335],[30.6294,-27.8103,1196.9379],[30.6176,-27.8195,1196.0239],[30.615,-27.8244,1194.2156],[30.6122,-27.8249,1193.5],[30.6123,-27.8276,1192.516],[30.6082,-27.8299,1190.8344],[30.603,-27.8283,1195.0676],[30.6011,-27.8314,1190.8975],[30.6016,-27.8345,1187.896],[30.5994,-27.8343,1187.7826],[30.596,-27.838,1187.7172],[30.5966,-27.8433,1188.3237],[30.5931,-27.8463,1185.7867],[30.5928,-27.8502,1185.7822],[30.5942,-27.8507,1186.0056],[30.5932,-27.8538,1186.1045],[30.5904,-27.8538,1185.0718],[30.5904,-27.858,1189.0371],[30.5865,-27.8606,1184.8363],[30.5917,-27.862,1188.1906],[30.593,-27.8646,1184.4905],[30.5922,-27.8671,1184.2703],[30.5878,-27.8654,1183.9664],[30.5875,-27.8633,1184.9082],[30.5866,-27.8649,1184.0657],[30.5834,-27.8645,1184.9379],[30.5833,-27.8664,1183.746],[30.5849,-27.8664,1183.746],[30.5836,-27.8676,1183.746],[30.5818,-27.8671,1184.0723],[30.5831,-27.8682,1185.7166],[30.5858,-27.8684,1183.7975],[30.5864,-27.8729,1183.12],[30.5881,-27.8723,1183.1758],[30.5869,-27.8757,1183.0872],[30.59,-27.875,1183.374],[30.5914,-27.877,1182.6038],[30.5894,-27.8779,1182.6038],[30.591,-27.8803,1182.7551],[30.5858,-27.8825,1182.1709],[30.5889,-27.8859,1182.7271],[30.5886,-27.889,1183.329],[30.5816,-27.8885,1183.6185],[30.5802,-27.8898,1183.2654],[30.582,-27.8918,1182.6522],[30.5802,-27.8938,1182.2678],[30.5815,-27.8943,1184.3772],[30.5805,-27.901,1183.0743],[30.5823,-27.9029,1182.1641],[30.5858,-27.9027,1185.6353],[30.5828,-27.9055,1182.2961],[30.584,-27.9057,1182.1702],[30.5838,-27.9104,1182.0],[30.5814,-27.9114,1182.229],[30.5827,-27.9134,1182.0],[30.5815,-27.9156,1182.0],[30.5839,-27.9165,1182.7494],[30.5815,-27.9207,1182.0],[30.5826,-27.9215,1182.3019],[30.5789,-27.9247,1182.0],[30.58,-27.9268,1182.0],[30.5811,-27.9257,1182.0],[30.5825,-27.9312,1181.5922],[30.5851,-27.9308,1182.5414],[30.5904,-27.9333,1179.7068],[30.5989,-27.9293,1186.3636],[30.604,-27.9315,1179.864],[30.6021,-27.9336,1179.0946],[30.6088,-27.9316,1180.6581],[30.6166,-27.9352,1183.2617],[30.6236,-27.9324,1185.162],[30.6244,-27.9336,1186.5333],[30.6282,-27.932,1187.8315],[30.6388,-27.9321,1194.9604],[30.6397,-27.9351,1193.7234],[30.646,-27.9399,1199.7842],[30.6581,-27.9457,1210.5266],[30.6595,-27.9491,1219.3081],[30.6657,-27.9493,1221.2843],[30.666,-27.952,1231.339],[30.6725,-27.9565,1263.8185],[30.6735,-27.9664,1353.668],[30.6775,-27.9621,1281.5388],[30.6845,-27.9712,1213.9513],[30.685,-27.9859,1163.2986],[30.6719,-27.985,1228.1912],[30.6128,-28.0352,1238.0574],[30.6292,-28.0518,1233.626],[30.632,-28.0613,1236.5984],[30.6399,-28.0747,1201.7006],[30.6423,-28.0764,1204.1465],[30.6449,-28.084,1215.967],[30.6524,-28.0904,1251.3293],[30.6555,-28.0959,1334.9982],[30.6626,-28.0977,1393.8118],[30.6684,-28.1024,1513.0337],[30.6606,-28.1025,1478.1626],[30.6316,-28.1399,1342.5332],[30.6321,-28.1429,1318.5249],[30.6348,-28.1455,1278.1709],[30.6418,-28.1457,1238.3191],[30.6483,-28.1408,1168.0381],[30.6671,-28.1357,1115.3538],[30.6731,-28.1364,1113.3757],[30.6838,-28.1311,1096.1155],[30.6862,-28.1313,1090.8922],[30.6875,-28.1291,1092.7783],[30.6919,-28.1318,1085.7578],[30.7021,-28.1283,1074.8408],[30.7225,-28.1302,1065.0011],[30.7295,-28.1276,1059.7407],[30.7339,-28.1226,1055.2045],[30.7385,-28.1287,1051.7188],[30.746,-28.1293,1060.5161],[30.7476,-28.1322,1042.0293],[30.7464,-28.1339,1040.9855],[30.7496,-28.1355,1040.1013],[30.7558,-28.1344,1035.8361],[30.7614,-28.136,1035.8833],[30.7657,-28.1353,1032.0308],[30.771,-28.1366,1028.9482],[30.774,-28.1396,1041.4507],[30.7772,-28.1381,1028.5771],[30.7822,-28.1383,1024.0657],[30.79,-28.1415,1024.0718],[30.8001,-28.1341,1007.138],[30.8045,-28.1328,1005.6531],[30.8073,-28.1292,1004.2607],[30.8129,-28.1279,1009.4044],[30.8131,-28.131,1000.2077],[30.8153,-28.1323,998.4852],[30.8234,-28.1233,992.375],[30.8286,-28.1283,993.5785],[30.8374,-28.1283,988.85],[30.8405,-28.1309,991.4428],[30.844,-28.1259,991.6968],[30.8474,-28.1285,983.7975],[30.8461,-28.1303,984.3018],[30.848,-28.1304,983.314],[30.8541,-28.1247,976.7761],[30.8595,-28.1235,983.5422],[30.8652,-28.1163,968.5864],[30.867,-28.1185,975.4924],[30.8717,-28.12,970.4351],[30.8719,-28.1223,967.5322],[30.8746,-28.1242,966.3009],[30.8739,-28.1274,963.892],[30.8787,-28.1273,966.4581],[30.8757,-28.1308,965.6608],[30.8787,-28.1326,963.0277],[30.8791,-28.1369,962.3212],[30.8834,-28.1389,962.5156],[30.8827,-28.142,956.9389],[30.8771,-28.1418,954.3293],[30.8788,-28.1443,954.8006],[30.8775,-28.1473,951.8215],[30.882,-28.1478,958.867],[30.8857,-28.1505,954.4166],[30.8871,-28.1493,952.87],[30.8852,-28.1469,947.8265],[30.8871,-28.1453,950.3024],[30.8903,-28.1479,953.1609],[30.8902,-28.1511,943.4187],[30.8939,-28.1497,945.9553],[30.8956,-28.1534,939.1175],[30.8992,-28.1558,932.7397],[30.8997,-28.1574,932.9802],[30.8955,-28.1584,926.3948],[30.8957,-28.1598,929.0082],[30.9052,-28.166,926.0814],[30.9097,-28.1662,930.9979],[30.914,-28.1702,916.942],[30.9251,-28.1708,915.3052],[30.9319,-28.1687,909.9003],[30.9382,-28.1715,908.1053],[30.9419,-28.1706,907.6985],[30.9425,-28.1675,903.6677],[30.9359,-28.155,896.9626],[30.9381,-28.1497,896.5573],[30.9433,-28.1475,888.175],[30.9436,-28.1448,883.805],[30.9462,-28.1434,874.4521],[30.9506,-28.1436,873.5571],[30.9717,-28.1686,893.5405],[30.9941,-28.1541,939.9868],[31.0116,-28.1912,807.3777],[31.0177,-28.184,883.2585],[31.0476,-28.2001,902.8065],[31.0268,-28.2306,886.6172],[31.0015,-28.2602,1007.8975],[30.9704,-28.2889,1110.3596],[30.9422,-28.3123,1059.1653],[30.9287,-28.3385,1095.3699],[30.9207,-28.3592,1209.6136],[30.9397,-28.3506,1157.8784]]]]}
,"properties": {"GID_2": "ZAF.4.11_1","GID_0": "ZAF","country": "SouthAfrica","GID_1": "ZAF.4_1","province": "KwaZulu-Natal","NL_NAME_1": "NA","county": "Zululand","VARNAME_2": "NA","NL_NAME_2": "NA","TYPE_2": "DistrictMunicipality","ENGTYPE_2": "DistrictMunicipality","CC_2": "DC26","HASC_2": "ZA.NL.ZU","name": "Zululand.county","area_km2": 14822.48,"hist_schema_id": "Elevation0-9000","hist_area_km2": {"100": 0.38,"125": 135.66,"150": 117.21,"175": 127.39,"200": 148.43,"225": 168.28,"250": 220.99,"275": 272.8,"300": 292.08,"325": 295.98,"350": 307.93,"375": 317.02,"400": 321.06,"425": 321.46,"450": 317.2,"475": 319.67,"500": 326.39,"525": 336.07,"550": 322.7,"575": 318.85,"600": 323.58,"625": 310.6,"650": 298.46,"675": 286.79,"700": 276.85,"725": 273.65,"750": 284.16,"775": 275.19,"800": 269.81,"825": 274.14,"850": 282.25,"875": 279.2,"900": 291.68,"925": 315.61,"950": 325.92,"975": 349.92,"1000": 382.55,"1025": 379.5,"1050": 379.91,"1075": 386.12,"1100": 407.81,"1125": 422.5,"1150": 403.38,"1175": 362.8,"1200": 320.53,"1225": 301.24,"1250": 266.52,"1275": 226.27,"1300": 204.47,"1325": 159.52,"1350": 121.96,"1375": 99.41,"1400": 71.11,"1425": 54.38,"1450": 38.29,"1475": 29.56,"1500": 23.48,"1525": 20.81,"1550": 15.51,"1575": 11.36,"1600": 10.82,"1625": 4.96,"1650": 2.76,"1675": 2.41,"1700": 1.96,"1725": 2.3,"1750": 1.22,"1775": 1.15,"1800": 0.36}}}