{"type":"Feature","properties":{"GID_3":"ZAF.1.8.4_1","GID_0":"ZAF","country":"SouthAfrica","GID_1":"ZAF.1_1","province":"EasternCape","NL_NAME_1":"NA","GID_2":"ZAF.1.8_1","county":"O.R.Tambo","NL_NAME_2":"NA","city":"Nyandeni","VARNAME_3":"NA","NL_NAME_3":"NA","TYPE_3":"LocalMunicipality","ENGTYPE_3":"LocalMunicipality","CC_3":"EC155","HASC_3":"NA","name":"Nyandeni.city"},
"geometry":{"type": "MultiPolygon","coordinates": [[[[29.2151,-31.9301,0.6727],[29.2207,-31.9307,0.0],[29.2276,-31.9254,0.0],[29.2288,-31.9196,0.0],[29.2332,-31.9157,3.0681],[29.2351,-31.916,0.1928],[29.2354,-31.9118,0.0],[29.2399,-31.9085,0.0],[29.2399,-31.9068,0.0],[29.2443,-31.9051,0.0],[29.2457,-31.9007,1.464],[29.2479,-31.901,0.0],[29.2465,-31.8962,0.0],[29.2443,-31.8962,0.0],[29.2454,-31.894,3.3051],[29.2479,-31.8949,0.0],[29.2493,-31.8932,0.0],[29.2463,-31.889,0.7204],[29.2479,-31.8885,3.3963],[29.2488,-31.8901,0.0],[29.2521,-31.8879,18.1076],[29.261,-31.8862,1.4401],[29.2649,-31.8815,0.0],[29.2635,-31.8801,0.0903],[29.2646,-31.8749,0.0],[29.2635,-31.8699,0.0],[29.2665,-31.8679,0.0],[29.2654,-31.8632,4.5175],[29.2699,-31.8593,5.3887],[29.2726,-31.8529,2.1952],[29.2709,-31.851,0.8526],[29.2651,-31.8501,5.4559],[29.2732,-31.8504,1.7906],[29.2718,-31.8582,1.4224],[29.2724,-31.8599,0.0],[29.2751,-31.8596,0.0],[29.286,-31.8482,0.0],[29.2874,-31.8443,7.0577],[29.2943,-31.8399,0.0],[29.2965,-31.8338,5.6412],[29.3046,-31.8296,0.0],[29.3051,-31.8274,2.9791],[29.3029,-31.8265,0.771],[29.3068,-31.8268,0.0],[29.3099,-31.8251,0.0],[29.314,-31.819,0.0],[29.3176,-31.8168,0.0],[29.3165,-31.8146,0.0],[29.3243,-31.8096,0.0],[29.324,-31.8082,0.0],[29.3204,-31.8085,7.606],[29.3154,-31.8046,7.3553],[29.3062,-31.8022,0.7266],[29.3048,-31.7971,3.7925],[29.2959,-31.7954,14.6911],[29.2976,-31.7919,32.0937],[29.3023,-31.7898,52.4893],[29.3004,-31.7882,21.4361],[29.3006,-31.7858,40.1237],[29.2994,-31.7862,40.1237],[29.299,-31.7895,22.042],[29.2966,-31.7905,28.1424],[29.2955,-31.7865,27.1411],[29.2847,-31.7857,47.0476],[29.283,-31.7884,85.1348],[29.2715,-31.7845,45.9501],[29.27,-31.7764,82.0282],[29.2731,-31.7724,122.9321],[29.272,-31.7706,83.9486],[29.2638,-31.773,74.4237],[29.2638,-31.7796,161.4519],[29.2561,-31.7775,84.9911],[29.2547,-31.7757,95.4327],[29.2559,-31.7743,87.0424],[29.2544,-31.773,87.0424],[29.2545,-31.7692,97.2048],[29.2578,-31.7665,98.8835],[29.2537,-31.7633,123.7462],[29.2527,-31.7569,119.4626],[29.2488,-31.7574,133.6564],[29.2505,-31.7538,160.7699],[29.2488,-31.7525,138.9877],[29.2526,-31.7454,156.4486],[29.2493,-31.7421,179.819],[29.2542,-31.7351,242.1835],[29.254,-31.7326,202.0993],[29.2577,-31.733,233.5138],[29.2533,-31.7292,260.1511],[29.2538,-31.7243,353.0175],[29.2568,-31.7211,347.3312],[29.2479,-31.7091,410.9818],[29.2466,-31.6866,461.733],[29.2497,-31.6803,303.6154],[29.2606,-31.6718,251.325],[29.2652,-31.6631,215.087],[29.2684,-31.661,193.9035],[29.2697,-31.6578,182.174],[29.272,-31.6573,198.1396],[29.2707,-31.6557,185.5207],[29.2744,-31.6527,168.9031],[29.2734,-31.6513,168.9031],[29.271,-31.6517,169.2929],[29.2704,-31.6471,159.6667],[29.2718,-31.646,158.1588],[29.2752,-31.6469,169.6365],[29.2763,-31.6438,153.8172],[29.275,-31.6419,156.5995],[29.2781,-31.6386,150.938],[29.272,-31.635,174.6174],[29.2771,-31.6279,175.0406],[29.2755,-31.6251,163.0955],[29.2734,-31.6249,158.2852],[29.2679,-31.6118,273.7751],[29.2641,-31.5969,279.5266],[29.2643,-31.5918,262.829],[29.2625,-31.5902,269.4692],[29.2633,-31.5875,286.2955],[29.2599,-31.5838,325.1365],[29.2667,-31.5804,313.7247],[29.267,-31.5785,327.8652],[29.2744,-31.5712,329.92],[29.2761,-31.564,322.6364],[29.2831,-31.5598,142.0181],[29.2831,-31.5544,156.5443],[29.2855,-31.5548,170.1695],[29.2868,-31.5528,162.2922],[29.2846,-31.5511,189.7548],[29.2851,-31.548,192.1437],[29.2905,-31.5474,206.7438],[29.2949,-31.5377,294.9425],[29.2912,-31.533,316.0011],[29.2882,-31.5323,339.1494],[29.2867,-31.5271,360.4993],[29.2962,-31.5112,704.2027],[29.2917,-31.5001,435.6319],[29.2889,-31.4848,257.16],[29.2861,-31.4813,232.9067],[29.2878,-31.48,218.4319],[29.2873,-31.4761,218.3216],[29.2957,-31.4717,192.4148],[29.2948,-31.4689,182.1658],[29.2913,-31.4673,175.3049],[29.2925,-31.463,151.2632],[29.2891,-31.4605,142.2247],[29.2899,-31.4573,143.0823],[29.2868,-31.4526,156.3096],[29.2883,-31.451,120.402],[29.2871,-31.4477,126.0578],[29.2908,-31.4458,95.6131],[29.2908,-31.4419,82.503],[29.2799,-31.4446,135.9803],[29.2771,-31.4436,89.5152],[29.2716,-31.4403,86.6904],[29.2663,-31.4325,97.3088],[29.2638,-31.4256,104.1119],[29.2689,-31.4149,91.0],[29.2726,-31.4105,93.5019],[29.2863,-31.4067,100.0025],[29.3,-31.3926,127.3534],[29.2969,-31.3909,110.2829],[29.2908,-31.3913,110.0567],[29.2615,-31.3972,113.2501],[29.2532,-31.4006,125.9932],[29.2471,-31.4096,120.0465],[29.2428,-31.4108,113.0384],[29.233,-31.3987,116.2769],[29.2288,-31.3967,120.7038],[29.2325,-31.3894,121.8313],[29.241,-31.3818,121.5155],[29.2398,-31.3765,126.2032],[29.2325,-31.3736,124.5081],[29.2129,-31.3764,138.4728],[29.2049,-31.3732,135.3842],[29.2047,-31.3699,134.1523],[29.2093,-31.3654,134.4471],[29.2187,-31.3664,200.68],[29.23,-31.3647,184.8677],[29.233,-31.3609,141.8115],[29.2318,-31.3522,141.6216],[29.2285,-31.3491,144.7888],[29.2218,-31.3478,166.9912],[29.2045,-31.3497,179.2835],[29.1979,-31.3459,155.4519],[29.1959,-31.3401,151.7892],[29.1971,-31.3338,152.576],[29.2077,-31.3282,155.2927],[29.2202,-31.3248,166.9149],[29.2269,-31.3186,179.1448],[29.2278,-31.3132,175.8287],[29.2248,-31.3063,202.882],[29.2269,-31.303,166.0596],[29.2269,-31.2991,171.4863],[29.2246,-31.2975,171.1036],[29.2043,-31.2957,192.1163],[29.1969,-31.28,179.5008],[29.1906,-31.2747,182.069],[29.1803,-31.2702,191.9146],[29.1747,-31.2716,194.3082],[29.1734,-31.2745,226.0412],[29.1743,-31.2768,209.6154],[29.1779,-31.2808,216.0289],[29.1923,-31.2849,243.4681],[29.193,-31.2907,204.0567],[29.1887,-31.2936,217.0385],[29.1734,-31.293,214.4447],[29.1625,-31.2982,220.4104],[29.1605,-31.3008,219.2771],[29.1668,-31.305,251.1213],[29.1662,-31.3077,243.6702],[29.1556,-31.3193,234.3409],[29.1496,-31.3209,264.1317],[29.1315,-31.3229,302.704],[29.1266,-31.3217,255.3261],[29.1233,-31.3153,270.0772],[29.1275,-31.3043,255.1173],[29.127,-31.3013,260.3818],[29.1246,-31.2997,262.6554],[29.1058,-31.3036,268.7492],[29.1044,-31.3063,271.4481],[29.1061,-31.3094,318.1934],[29.1063,-31.316,341.7229],[29.1044,-31.3189,302.3683],[29.1015,-31.3191,276.4395],[29.0982,-31.3166,281.4188],[29.0951,-31.307,340.7393],[29.0991,-31.3049,335.0632],[29.1005,-31.3011,356.7831],[29.0952,-31.2985,295.8007],[29.0826,-31.3058,303.9407],[29.083,-31.3128,304.582],[29.0764,-31.3125,339.4982],[29.0727,-31.3139,328.32],[29.0745,-31.3192,313.6792],[29.0718,-31.3223,319.7487],[29.0429,-31.3221,338.9152],[29.0375,-31.3148,343.6115],[29.0209,-31.3121,390.0193],[29.0147,-31.3133,354.4061],[29.0088,-31.3111,362.1244],[29.0091,-31.3087,371.2479],[29.0184,-31.307,370.8782],[29.0233,-31.3022,384.3353],[29.027,-31.2958,406.978],[29.0245,-31.2928,394.0268],[29.0209,-31.2922,391.5422],[29.014,-31.2957,392.2862],[29.0011,-31.2955,429.8694],[28.9952,-31.3007,398.6802],[28.9893,-31.2995,403.8348],[28.9882,-31.2975,452.4057],[28.9892,-31.2956,409.3542],[28.9984,-31.2914,437.7299],[29.0011,-31.2882,493.5702],[29.0014,-31.2858,514.8521],[28.9961,-31.2844,451.1508],[28.9801,-31.2861,453.079],[28.9663,-31.2984,987.4371],[28.937,-31.3109,928.7363],[28.926,-31.3173,1050.5818],[28.9049,-31.3199,1108.6384],[28.8908,-31.315,1122.9945],[28.8853,-31.3216,1133.0247],[28.8782,-31.323,1111.3555],[28.8761,-31.3286,1078.0621],[28.8745,-31.3282,1077.0775],[28.8724,-31.3315,1060.897],[28.8774,-31.3395,1042.1526],[28.881,-31.3402,1021.1022],[28.8808,-31.3473,954.0776],[28.8783,-31.3494,923.2626],[28.8803,-31.355,958.0855],[28.8783,-31.3559,978.4169],[28.8786,-31.3602,1022.7928],[28.8748,-31.3689,1048.1646],[28.8738,-31.3757,1070.9922],[28.8495,-31.3978,1089.061],[28.8495,-31.4011,1098.235],[28.8604,-31.4144,1104.0142],[28.8624,-31.4209,1083.1458],[28.8572,-31.4418,997.3254],[28.8534,-31.4431,1005.0394],[28.8457,-31.4421,960.5236],[28.845,-31.4447,929.2596],[28.8496,-31.446,974.5281],[28.8509,-31.4492,1000.8777],[28.853,-31.4482,991.759],[28.8507,-31.4571,984.2139],[28.857,-31.4634,932.3448],[28.8598,-31.481,954.0137],[28.8566,-31.4804,957.9185],[28.8449,-31.484,881.28],[28.8299,-31.4816,872.7418],[28.8159,-31.4882,797.8633],[28.8162,-31.485,798.9354],[28.8106,-31.4825,831.7738],[28.7858,-31.4849,767.0513],[28.7811,-31.4796,740.082],[28.7708,-31.4766,707.7913],[28.7674,-31.4784,698.8832],[28.7666,-31.4821,699.3157],[28.756,-31.4869,696.7936],[28.7547,-31.486,693.1681],[28.7616,-31.4967,744.6591],[28.7691,-31.5025,806.4114],[28.7731,-31.5018,778.1331],[28.7759,-31.4991,749.855],[28.7829,-31.5042,833.8802],[28.7849,-31.5041,871.0242],[28.7831,-31.4997,866.0712],[28.7839,-31.4975,864.1891],[28.7872,-31.4971,884.1735],[28.8028,-31.487,862.2025],[28.8083,-31.4949,849.1306],[28.8078,-31.4979,850.1464],[28.7992,-31.4985,804.8524],[28.791,-31.5013,855.5881],[28.7894,-31.5035,876.1761],[28.7958,-31.5054,875.1202],[28.7949,-31.5071,853.245],[28.7973,-31.5082,813.4866],[28.8129,-31.5075,761.0773],[28.8139,-31.5091,748.2805],[28.8135,-31.5112,754.6205],[28.8104,-31.5125,742.6697],[28.8156,-31.5166,740.8856],[28.8153,-31.5188,738.4762],[28.8129,-31.5195,733.339],[28.813,-31.5207,730.4777],[28.8056,-31.5212,752.3291],[28.8003,-31.5237,720.1774],[28.8022,-31.5257,721.7578],[28.8022,-31.5297,717.5065],[28.799,-31.5321,714.2152],[28.793,-31.5328,710.5521],[28.7931,-31.5356,711.403],[28.7893,-31.5411,701.6566],[28.7905,-31.5424,701.4106],[28.7887,-31.5445,718.0459],[28.7941,-31.5522,695.9222],[28.799,-31.5543,693.4304],[28.7976,-31.5564,691.48],[28.7993,-31.5574,690.8391],[28.8039,-31.5558,697.0661],[28.8068,-31.5575,697.658],[28.8078,-31.5602,684.3397],[28.8135,-31.5592,686.079],[28.817,-31.5622,689.0399],[28.8189,-31.573,674.6624],[28.8152,-31.5744,688.6904],[28.8174,-31.5766,664.431],[28.8169,-31.5793,662.7967],[28.8188,-31.5821,653.8373],[28.8145,-31.5872,679.1001],[28.8169,-31.5923,647.9676],[28.8168,-31.5987,645.0],[28.8182,-31.601,619.163],[28.823,-31.6028,614.3353],[28.8217,-31.6079,639.6246],[28.8235,-31.6117,653.1978],[28.8283,-31.6103,627.6329],[28.8319,-31.6055,615.7219],[28.8342,-31.6065,647.0682],[28.8361,-31.6112,595.4283],[28.8333,-31.6171,592.6094],[28.8379,-31.6262,587.0415],[28.8339,-31.6337,582.7498],[28.8255,-31.6304,585.5617],[28.8185,-31.632,576.3356],[28.818,-31.6342,576.569],[28.8215,-31.6418,605.8282],[28.8266,-31.6418,567.3207],[28.835,-31.6452,586.2397],[28.8334,-31.6509,570.0012],[28.8273,-31.6556,560.2444],[28.8402,-31.6562,576.8009],[28.8434,-31.6607,568.0724],[28.8393,-31.6641,551.6055],[28.8298,-31.6659,585.0043],[28.8201,-31.6727,549.2989],[28.8193,-31.6809,550.4163],[28.8207,-31.6866,549.6698],[28.8114,-31.6858,575.0299],[28.8114,-31.69,554.035],[28.8147,-31.69,538.8916],[28.8244,-31.6957,536.1318],[28.8274,-31.6933,535.3165],[28.8393,-31.6953,539.4162],[28.8541,-31.6946,538.2968],[28.8561,-31.6934,530.9305],[28.8564,-31.6875,530.2265],[28.8533,-31.6836,528.2382],[28.8543,-31.6815,540.6313],[28.8584,-31.6796,528.1276],[28.8747,-31.6801,531.734],[28.8793,-31.6787,525.3528],[28.8834,-31.6817,527.6171],[28.8848,-31.6878,479.3298],[28.8892,-31.6899,464.5862],[28.8939,-31.6961,498.0239],[28.8922,-31.6989,457.942],[28.8876,-31.7003,454.5188],[28.8748,-31.6995,502.2504],[28.8729,-31.7022,470.5552],[28.874,-31.7054,443.1929],[28.8845,-31.7084,437.2542],[28.8901,-31.7132,440.9531],[28.894,-31.7072,450.5932],[28.8981,-31.7049,430.2527],[28.9071,-31.7077,452.2975],[28.9079,-31.7115,420.2531],[28.9061,-31.7201,414.269],[28.903,-31.7241,421.8454],[28.8974,-31.7265,448.4889],[28.8871,-31.7271,410.5269],[28.8853,-31.7291,541.7188],[28.8882,-31.7328,404.5328],[28.9007,-31.7386,399.5357],[28.9038,-31.7427,397.5352],[28.9092,-31.7451,397.934],[28.9092,-31.7469,409.111],[28.9049,-31.7494,394.4439],[28.8997,-31.7482,393.0661],[28.8886,-31.75,392.514],[28.8868,-31.755,401.7357],[28.8887,-31.7579,388.238],[28.9015,-31.7603,396.3331],[28.916,-31.7511,414.7699],[28.9181,-31.7518,382.214],[28.9206,-31.7567,432.5097],[28.9143,-31.7629,376.1096],[28.9028,-31.7677,378.8332],[28.9009,-31.7715,406.3444],[28.8953,-31.7646,367.3052],[28.8915,-31.7666,429.4912],[28.8922,-31.7724,369.5782],[28.8966,-31.7767,378.5242],[28.8965,-31.7799,376.383],[28.8896,-31.787,358.7073],[28.8826,-31.789,359.0792],[28.8842,-31.7915,400.8712],[28.8926,-31.7899,358.4238],[28.896,-31.7916,398.4045],[28.8926,-31.8017,347.5808],[28.8866,-31.8085,347.932],[28.8857,-31.8132,346.0884],[28.8872,-31.8162,346.509],[28.9081,-31.8182,351.4423],[28.9123,-31.8169,335.6697],[28.9151,-31.8112,329.4223],[28.9144,-31.8055,377.5029],[28.8998,-31.7976,335.9336],[28.8995,-31.7945,313.7182],[28.9003,-31.7909,310.7812],[28.9025,-31.7892,318.5087],[28.9093,-31.7886,307.4509],[28.9159,-31.79,314.863],[28.9195,-31.7925,300.583],[28.9219,-31.7996,327.3134],[28.9307,-31.8049,282.0995],[28.9279,-31.8197,320.0531],[28.9312,-31.8205,298.0193],[28.9334,-31.8182,275.0562],[28.9394,-31.8174,274.3687],[28.9396,-31.8295,252.0631],[28.944,-31.8331,275.799],[28.9523,-31.8348,248.2449],[28.9541,-31.8327,238.4341],[28.9545,-31.825,250.7524],[28.9577,-31.8223,235.5598],[28.9625,-31.8213,239.8875],[28.9744,-31.8229,227.5645],[28.9857,-31.8199,221.2517],[28.9941,-31.8244,215.9659],[28.9965,-31.8298,213.3694],[28.9943,-31.8361,209.7337],[28.9867,-31.8353,199.6844],[28.983,-31.8382,205.9194],[28.9814,-31.8436,188.509],[28.983,-31.8491,184.8224],[28.989,-31.8521,172.1491],[28.9957,-31.8516,187.754],[29.0064,-31.8463,158.62],[29.0089,-31.8398,167.2982],[29.0136,-31.8382,151.1312],[29.0171,-31.8431,169.5482],[29.017,-31.8459,158.743],[29.0068,-31.86,152.9502],[29.0028,-31.8594,180.2098],[28.9969,-31.8635,136.6568],[28.9972,-31.8719,132.1693],[29.0004,-31.8754,122.521],[29.0052,-31.8752,160.333],[29.0147,-31.8679,169.2241],[29.0262,-31.8646,117.1863],[29.0344,-31.872,133.5331],[29.0361,-31.8852,99.4324],[29.038,-31.8859,100.8622],[29.0422,-31.8839,143.0148],[29.0448,-31.879,113.9327],[29.0438,-31.8713,89.533],[29.0568,-31.8697,87.0296],[29.0726,-31.8726,80.1927],[29.0812,-31.8676,140.3967],[29.0852,-31.8719,71.3873],[29.0883,-31.8797,73.9033],[29.0864,-31.8814,126.2752],[29.0806,-31.8785,66.3359],[29.0758,-31.8787,74.0275],[29.0662,-31.8912,74.0714],[29.0682,-31.8929,58.5578],[29.0748,-31.8934,59.1464],[29.0782,-31.8999,54.7587],[29.0844,-31.9041,51.9684],[29.0891,-31.8993,51.7844],[29.0891,-31.8915,65.5961],[29.0944,-31.8852,43.2475],[29.0965,-31.8791,40.6022],[29.0987,-31.877,41.7838],[29.1023,-31.8765,41.3458],[29.1123,-31.8843,97.8618],[29.1109,-31.8873,35.746],[29.1027,-31.8927,67.2363],[29.1043,-31.8955,30.2548],[29.1132,-31.9018,43.8987],[29.1166,-31.9174,19.9295],[29.1195,-31.9195,18.8941],[29.1215,-31.9189,18.9058],[29.1223,-31.9165,92.7649],[29.1188,-31.9132,21.9628],[29.1226,-31.9039,13.7575],[29.1264,-31.9038,36.3042],[29.1283,-31.9067,15.8387],[29.1293,-31.9153,38.8168],[29.1377,-31.9217,4.728],[29.1339,-31.9291,18.8609],[29.135,-31.9339,3.121],[29.1378,-31.936,8.3069],[29.1513,-31.939,13.8546],[29.1537,-31.9363,16.8931],[29.1564,-31.9259,3.8833],[29.1559,-31.9208,5.3458],[29.1577,-31.9198,2.1559],[29.1703,-31.9257,0.9066],[29.1764,-31.9331,2.8687],[29.1776,-31.9379,0.3142],[29.1835,-31.9449,2.114],[29.1843,-31.9484,2.4929],[29.1887,-31.949,3.332],[29.1968,-31.9465,1.911],[29.2024,-31.9485,0.0],[29.2038,-31.9465,0.0],[29.209,-31.9465,0.0],[29.209,-31.9443,9.2423],[29.2174,-31.9426,0.8447],[29.2201,-31.9396,0.0],[29.2188,-31.936,0.0],[29.215699999999998,-31.9374,13.3974],[29.2149,-31.9324,0.0],[29.2049,-31.9274,4.6961],[29.2113,-31.9262,19.1642],[29.2151,-31.9301,0.6727]]]]}}