{"type":"Feature","properties":{"GID_3":"ZAF.4.11.4_1","GID_0":"ZAF","country":"SouthAfrica","GID_1":"ZAF.4_1","province":"KwaZulu-Natal","NL_NAME_1":"NA","GID_2":"ZAF.4.11_1","county":"Zululand","NL_NAME_2":"NA","city":"Ulundi","VARNAME_3":"NA","NL_NAME_3":"NA","TYPE_3":"LocalMunicipality","ENGTYPE_3":"LocalMunicipality","CC_3":"KZN266","HASC_3":"NA","name":"Ulundi.city"},
"geometry":{"type": "MultiPolygon","coordinates": [[[[31.3585,-28.3939,621.4446],[31.386,-28.4263,650.4516],[31.4109,-28.4586,835.0156],[31.4455,-28.4772,417.8754],[31.4761,-28.4695,322.4234],[31.5044,-28.472,388.1083],[31.501,-28.4557,329.5281],[31.4954,-28.4427,270.5744],[31.4937,-28.4338,266.5234],[31.5077,-28.4232,270.1113],[31.514,-28.4217,260.1107],[31.5174,-28.4232,255.5],[31.5157,-28.4287,257.3539],[31.5173,-28.4337,259.0721],[31.5207,-28.436,253.229],[31.5273,-28.4356,253.071],[31.5322,-28.4324,250.0542],[31.541,-28.416,259.784],[31.5524,-28.411,241.7941],[31.5517,-28.4064,245.7192],[31.5422,-28.4018,241.9499],[31.5346,-28.3917,235.4633],[31.5349,-28.3877,234.4412],[31.5392,-28.3845,246.6554],[31.5527,-28.3831,234.2185],[31.5594,-28.3903,258.1519],[31.5638,-28.3863,245.6434],[31.567,-28.3762,239.2783],[31.5776,-28.3747,214.4022],[31.5858,-28.3782,211.3829],[31.5941,-28.3907,211.6819],[31.5966,-28.392,227.3362],[31.5991,-28.3881,207.1198],[31.5979,-28.3742,202.2671],[31.6005,-28.3728,241.8223],[31.6043,-28.3734,203.2778],[31.611,-28.3779,198.8868],[31.6101,-28.3805,199.8595],[31.6118,-28.3874,214.3359],[31.6097,-28.3988,194.3343],[31.6267,-28.4078,180.4958],[31.6401,-28.4047,223.3556],[31.6414,-28.4013,207.0177],[31.6379,-28.3941,215.0714],[31.643,-28.3891,170.5271],[31.6495,-28.3858,175.3062],[31.6558,-28.3879,193.2037],[31.6597,-28.3943,166.6365],[31.6682,-28.4022,163.1927],[31.6756,-28.3998,179.1318],[31.6777,-28.3955,170.9413],[31.681,-28.3932,159.5822],[31.6919,-28.3946,163.1724],[31.6931,-28.391,204.6031],[31.6832,-28.3828,152.8719],[31.6826,-28.3786,154.2875],[31.6865,-28.3762,177.2822],[31.6926,-28.3764,180.4672],[31.7021,-28.3715,153.6944],[31.7022,-28.3611,225.9538],[31.6977,-28.3589,234.0528],[31.7069,-28.3389,341.8726],[31.7133,-28.3162,446.7505],[31.7199,-28.3135,489.1109],[31.7223,-28.3094,482.0656],[31.7196,-28.3029,521.3763],[31.7198,-28.2993,528.3078],[31.7004,-28.27,428.292],[31.7031,-28.2273,417.0206],[31.7334,-28.2185,157.5651],[31.731,-28.2155,143.5627],[31.7332,-28.2113,142.8877],[31.7393,-28.2065,133.3587],[31.7424,-28.1971,133.5724],[31.7414,-28.192,134.5619],[31.734,-28.1908,142.1219],[31.7319,-28.194,138.2935],[31.7307,-28.2013,138.6549],[31.7275,-28.2049,149.1681],[31.7225,-28.2074,141.4519],[31.7168,-28.2064,178.3869],[31.7158,-28.2036,146.2951],[31.7193,-28.1954,152.4161],[31.7185,-28.1893,149.2225],[31.7159,-28.1841,146.7805],[31.7127,-28.1836,151.665],[31.7051,-28.1922,156.0576],[31.7028,-28.1924,149.066],[31.6985,-28.1754,161.3711],[31.6938,-28.1686,154.5952],[31.6914,-28.1683,154.7549],[31.6837,-28.1735,158.7765],[31.6742,-28.1763,164.6383],[31.6756,-28.1825,158.316],[31.682,-28.1918,170.5846],[31.6781,-28.1989,163.0952],[31.674,-28.2025,179.1943],[31.6698,-28.2015,163.7738],[31.6685,-28.1945,173.5134],[31.666,-28.1934,166.009],[31.6591,-28.1992,170.881],[31.6558,-28.2079,190.8563],[31.6503,-28.2071,168.7454],[31.6434,-28.2027,174.3168],[31.6347,-28.2111,178.4023],[31.6319,-28.2109,173.3903],[31.6298,-28.2089,180.7095],[31.63,-28.2031,176.7007],[31.6382,-28.198,176.8923],[31.6375,-28.1935,174.5361],[31.6454,-28.1861,176.2356],[31.6436,-28.1789,178.0145],[31.6484,-28.1715,184.0218],[31.6449,-28.1597,194.1738],[31.6457,-28.1541,180.9912],[31.6441,-28.1465,184.0634],[31.6406,-28.1439,189.5299],[31.6339,-28.1459,187.1365],[31.6295,-28.1441,190.8912],[31.6196,-28.1449,193.399],[31.6159,-28.1433,206.8084],[31.6148,-28.1391,193.3969],[31.6211,-28.1259,199.8882],[31.6208,-28.1157,261.9235],[31.616,-28.1151,199.1901],[31.6066,-28.1247,211.9854],[31.6012,-28.1247,225.7161],[31.5956,-28.1155,203.4382],[31.5865,-28.1127,211.6352],[31.5878,-28.0996,226.0121],[31.5865,-28.0984,209.7469],[31.5615,-28.1203,314.5585],[31.5579,-28.143,530.1067],[31.5309,-28.133,253.6843],[31.5252,-28.1296,255.6021],[31.5218,-28.1312,258.2226],[31.5221,-28.1343,257.9442],[31.5267,-28.1352,257.6332],[31.5266,-28.1375,258.9657],[31.5238,-28.1391,262.413],[31.5176,-28.1339,266.5369],[31.5117,-28.1389,268.4981],[31.5063,-28.1374,274.3066],[31.51,-28.1301,277.6651],[31.5044,-28.1275,303.8505],[31.4996,-28.1183,341.2516],[31.5013,-28.0954,388.463],[31.5032,-28.0883,352.1224],[31.4993,-28.0765,467.3557],[31.4959,-28.0548,281.4507],[31.4968,-28.0457,276.3589],[31.4959,-28.0441,298.4858],[31.4952,-28.0455,276.3589],[31.4885,-28.0433,294.7816],[31.4892,-28.0387,303.161],[31.4866,-28.0366,303.8181],[31.4778,-28.0374,336.5449],[31.4738,-28.0326,365.8824],[31.465,-28.0301,439.3767],[31.4625,-28.0271,549.2087],[31.4562,-28.0241,653.0628],[31.466,-28.0251,570.8704],[31.4795,-28.0149,593.1331],[31.5009,-28.0088,287.0163],[31.5017,-28.0062,286.2987],[31.5047,-28.005,283.7265],[31.5049,-28.0015,284.6139],[31.5006,-28.0014,303.735],[31.496,-27.9964,314.2325],[31.4977,-27.9925,290.9244],[31.4999,-27.9918,288.9383],[31.4995,-27.9901,290.9917],[31.4964,-27.9893,301.0251],[31.4917,-27.9947,300.1886],[31.4862,-27.9926,296.0282],[31.4836,-27.9828,303.683],[31.4797,-27.9801,314.6888],[31.4855,-27.9765,306.241],[31.485,-27.974,316.7855],[31.4763,-27.9762,305.4609],[31.4754,-27.9751,305.6274],[31.4778,-27.965,310.5184],[31.4868,-27.9619,333.621],[31.4905,-27.9568,339.9318],[31.49,-27.9479,362.1614],[31.4951,-27.9496,368.3306],[31.5,-27.9487,367.7406],[31.5024,-27.9465,369.093],[31.5019,-27.9428,377.372],[31.5045,-27.9424,374.5261],[31.5023,-27.9403,381.2803],[31.505,-27.9342,386.3994],[31.5025,-27.9349,389.3511],[31.4981,-27.9308,398.4483],[31.4957,-27.9309,398.4716],[31.492,-27.934,401.1027],[31.4901,-27.9309,406.6715],[31.4944,-27.9258,409.7341],[31.4906,-27.9231,424.0149],[31.49,-27.9195,411.6062],[31.4935,-27.9119,416.3594],[31.4885,-27.9113,422.7558],[31.4872,-27.9143,422.9356],[31.4864,-27.9077,434.9746],[31.4831,-27.9066,438.5743],[31.4781,-27.9098,441.7906],[31.4766,-27.9128,441.399],[31.4751,-27.9114,445.1553],[31.4772,-27.9082,450.0938],[31.4756,-27.9071,454.2599],[31.4769,-27.9045,470.9438],[31.4706,-27.9033,468.7487],[31.4735,-27.8988,468.3826],[31.4718,-27.8968,491.571],[31.4754,-27.896,474.5538],[31.475,-27.8935,479.1743],[31.4796,-27.8912,491.3087],[31.4798,-27.8881,500.6898],[31.4829,-27.8889,489.7424],[31.4868,-27.8866,506.7171],[31.4847,-27.8835,497.8684],[31.4869,-27.8828,503.51],[31.4856,-27.8805,511.0118],[31.4887,-27.8745,544.8313],[31.4864,-27.873,550.1725],[31.4883,-27.8702,526.178],[31.4855,-27.8712,529.6335],[31.4834,-27.8692,544.0308],[31.487,-27.8682,541.0455],[31.4889,-27.8577,617.8488],[31.3451,-27.9701,1236.7954],[31.3317,-28.0219,490.9971],[31.3278,-28.0141,486.0965],[31.3255,-28.0136,475.153],[31.3204,-28.0161,479.0081],[31.3077,-28.0374,894.793],[31.2649,-28.0422,900.1318],[31.2671,-28.0333,935.9829],[31.218,-28.0217,935.8425],[31.1812,-28.0222,674.6379],[31.1763,-28.0443,721.4257],[31.1694,-28.0406,751.2527],[31.172,-28.0287,713.1281],[31.159,-28.0272,688.7539],[31.1569,-28.0321,693.4823],[31.1517,-28.0303,697.0285],[31.1509,-28.0253,701.5054],[31.1552,-28.0004,733.6018],[31.1517,-28.0042,747.9233],[31.1451,-28.0073,773.4407],[31.1421,-28.0331,736.9971],[31.101,-28.0264,790.3896],[31.1001,-28.0342,786.4123],[31.066,-28.024,1039.3993],[31.0663,-28.02,1067.2131],[31.0286,-28.0096,998.0548],[31.0275,-28.0131,995.9747],[30.9942,-27.9966,1007.0063],[30.9869,-28.0569,952.5139],[30.9653,-28.0909,942.7931],[31.0034,-28.1083,953.7188],[30.9713,-28.132,923.785],[30.9505,-28.1436,873.5571],[30.9717,-28.1686,893.5405],[30.9941,-28.1541,939.9868],[31.0116,-28.1912,807.3777],[31.0177,-28.184,883.2585],[31.0476,-28.2001,902.8065],[31.0268,-28.2306,886.6172],[31.0015,-28.2602,1007.8975],[30.9704,-28.2889,1110.3596],[30.9422,-28.3123,1059.1653],[30.9287,-28.3385,1095.3699],[30.9207,-28.3592,1209.6136],[30.961,-28.3409,1346.3442],[30.9654,-28.4063,1241.0366],[30.9967,-28.3928,1598.731],[30.9902,-28.4,1329.3291],[30.9912,-28.4153,1178.9854],[30.9973,-28.4225,1150.1886],[31.0075,-28.4233,1135.1077],[31.0106,-28.4221,1126.626],[31.0181,-28.4258,1119.1857],[31.0193,-28.4304,1110.6729],[31.0218,-28.4316,1114.0325],[31.0205,-28.4335,1100.7977],[31.0244,-28.4361,1069.0979],[31.0261,-28.4356,1105.3801],[31.0278,-28.4391,1057.8411],[31.0233,-28.4431,1062.4062],[31.024,-28.4521,1038.0936],[31.0264,-28.4511,1084.6589],[31.03,-28.4535,1031.9241],[31.036,-28.4547,1020.8233],[31.0399,-28.4579,1018.5554],[31.0433,-28.4569,1027.2369],[31.0499,-28.4611,1011.755],[31.054,-28.4615,1006.3337],[31.0611,-28.4714,994.5037],[31.0641,-28.4721,996.111],[31.0651,-28.4789,988.3807],[31.0674,-28.479,991.7161],[31.0694,-28.4814,992.7291],[31.069,-28.4829,992.7291],[31.0644,-28.4844,1000.6584],[31.0629,-28.4879,981.642],[31.0672,-28.4914,977.3315],[31.0742,-28.493,975.0446],[31.0781,-28.4922,986.3408],[31.0811,-28.4962,971.42],[31.0816,-28.4994,975.313],[31.0737,-28.4987,968.1688],[31.0754,-28.5018,964.0849],[31.073,-28.5031,962.6728],[31.0741,-28.5051,965.554],[31.0823,-28.5049,958.3625],[31.086,-28.5001,969.8596],[31.0888,-28.5045,953.0187],[31.0924,-28.5028,969.3454],[31.101,-28.5026,946.5475],[31.1125,-28.5097,937.1998],[31.1214,-28.5093,946.615],[31.1214,-28.5109,940.1783],[31.1181,-28.5119,938.5884],[31.1165,-28.5191,925.0712],[31.1068,-28.5241,911.0576],[31.1053,-28.5225,910.7466],[31.1028,-28.5243,931.1613],[31.1036,-28.5279,931.7841],[31.1064,-28.5281,916.3981],[31.1073,-28.5314,925.3507],[31.1119,-28.5309,907.6094],[31.1182,-28.5353,910.7711],[31.1224,-28.5362,897.928],[31.1223,-28.538,898.8913],[31.1298,-28.5382,891.0709],[31.1299,-28.5417,919.5096],[31.1339,-28.541,904.7267],[31.1355,-28.5426,885.6662],[31.137,-28.5413,886.7798],[31.1408,-28.5439,883.9105],[31.15,-28.5437,878.5168],[31.1519,-28.5426,882.4647],[31.1504,-28.5408,885.319],[31.1525,-28.5398,876.1187],[31.1536,-28.5419,882.0941],[31.162,-28.5442,873.0026],[31.1585,-28.5481,870.9022],[31.1603,-28.5505,876.3794],[31.1586,-28.5518,873.9351],[31.1612,-28.5526,907.8389],[31.1696,-28.5478,987.0319],[31.1721,-28.5428,1035.8818],[31.1843,-28.5369,1065.3254],[31.1873,-28.5273,1139.0308],[31.1859,-28.5216,1173.5323],[31.1876,-28.5129,1220.3857],[31.1904,-28.511,1188.6005],[31.1991,-28.513,1182.1144],[31.2039,-28.5159,1195.9232],[31.2074,-28.5137,1178.6176],[31.1895,-28.4994,1117.5101],[31.2198,-28.477,1005.5582],[31.2227,-28.4791,1074.6815],[31.2491,-28.4622,840.8436],[31.2755,-28.4832,972.9845],[31.3013,-28.4601,803.7051],[31.3089,-28.4699,1009.4518],[31.3295,-28.4492,863.27],[31.3279,-28.4406,806.0388],[31.3319,-28.4314,826.1871],[31.329,-28.4241,794.366],[31.3289,-28.4159,767.6116],[31.3332,-28.4082,737.7136],[31.3414,-28.4036,671.0014],[31.3494,-28.3892,622.9727],[31.3585,-28.3939,621.4446]]]]}}