{"type":"Feature","properties":{"GID_3":"ZAF.4.1.1_1","GID_0":"ZAF","country":"SouthAfrica","GID_1":"ZAF.4_1","province":"KwaZulu-Natal","NL_NAME_1":"NA","GID_2":"ZAF.4.1_1","county":"Amajuba","NL_NAME_2":"NA","city":"Dannhauser","VARNAME_3":"NA","NL_NAME_3":"NA","TYPE_3":"LocalMunicipality","ENGTYPE_3":"LocalMunicipality","CC_3":"KZN254","HASC_3":"NA","name":"Dannhauser.city"},
"geometry":{"type": "MultiPolygon","coordinates": [[[[30.1901,-28.0956,1349.9171],[30.1934,-28.0795,1305.9207],[30.1977,-28.0715,1277.2478],[30.2385,-28.0731,1234.2438],[30.2558,-28.0779,1237.3853],[30.2709,-28.0557,1283.9005],[30.2794,-28.0511,1436.301],[30.2792,-28.0494,1416.944],[30.2841,-28.0419,1392.2729],[30.2553,-28.0352,1482.3833],[30.2469,-28.0095,1464.7745],[30.2453,-27.9953,1308.5991],[30.2584,-27.9787,1236.1802],[30.2823,-27.9825,1209.2731],[30.3053,-27.9761,1157.5721],[30.3161,-27.9641,1147.8883],[30.3148,-27.9609,1146.9756],[30.3087,-27.9612,1145.0256],[30.296,-27.9584,1145.5896],[30.2918,-27.9506,1149.8086],[30.283,-27.946,1147.1921],[30.2826,-27.9338,1146.4598],[30.2803,-27.9268,1149.0641],[30.2776,-27.9247,1147.4282],[30.2736,-27.9258,1148.6274],[30.2721,-27.924,1150.3391],[30.2735,-27.9198,1148.4608],[30.2817,-27.9104,1148.9375],[30.2898,-27.9062,1148.2966],[30.3012,-27.9063,1149.9375],[30.3034,-27.894,1149.1675],[30.3071,-27.891,1149.3021],[30.3075,-27.8883,1153.1155],[30.3024,-27.8745,1152.3164],[30.2987,-27.8735,1150.4095],[30.2932,-27.8747,1153.295],[30.2907,-27.8727,1150.1818],[30.2891,-27.8693,1152.5699],[30.2902,-27.8588,1151.7036],[30.282,-27.8446,1151.8971],[30.278,-27.8404,1154.6582],[30.2821,-27.8389,1154.1294],[30.2889,-27.843,1163.6187],[30.2938,-27.8395,1153.6342],[30.292,-27.8336,1154.2974],[30.2928,-27.8272,1153.9948],[30.2877,-27.8255,1154.3713],[30.2813,-27.8156,1157.4075],[30.2756,-27.8122,1156.3082],[30.2703,-27.811,1160.6925],[30.2605,-27.8138,1156.4055],[30.2592,-27.8128,1155.3685],[30.2598,-27.8083,1157.9399],[30.2565,-27.8055,1156.9127],[30.2409,-27.8039,1159.9924],[30.2241,-27.7989,1161.1875],[30.2124,-27.8025,1160.8853],[30.2078,-27.802,1162.7837],[30.2016,-27.812,1163.6028],[30.1974,-27.8154,1162.2561],[30.1942,-27.8151,1162.5916],[30.1924,-27.813,1162.3752],[30.1937,-27.8086,1161.3331],[30.2086,-27.7884,1163.3977],[30.1708,-27.7894,1201.8748],[30.1621,-27.8054,1195.1902],[30.1501,-27.798,1219.7612],[30.1086,-27.7973,1231.7277],[30.1196,-27.8206,1214.0789],[30.1018,-27.8176,1240.3588],[30.1018,-27.8212,1224.6292],[30.0567,-27.8226,1321.4365],[30.0745,-27.8742,1282.7054],[30.0768,-27.8717,1265.4536],[30.084,-27.8794,1270.1251],[30.0618,-27.8885,1368.7561],[30.0196,-27.8962,1285.0696],[30.0024,-27.8787,1221.5762],[29.9897,-27.8931,1214.631],[30.001,-27.8993,1244.9019],[30.0058,-27.9154,1234.0393],[29.9885,-27.9387,1239.0642],[29.9612,-27.9327,1239.5647],[29.9607,-27.9296,1204.3639],[29.9563,-27.9288,1199.4034],[29.9545,-27.933,1215.2148],[29.9429,-27.9378,1218.3865],[29.9507,-27.9439,1228.0894],[29.9525,-27.95,1226.874],[29.9517,-27.9523,1233.3997],[29.9465,-27.9538,1243.0],[29.9436,-27.9501,1243.0],[29.9363,-27.9548,1243.0],[29.936,-27.959,1243.0],[29.9393,-27.9642,1243.0],[29.9425,-27.9641,1243.0],[29.9416,-27.9672,1243.0],[29.9318,-27.9669,1243.0],[29.9302,-27.9702,1243.0],[29.917,-27.9832,1243.0],[29.9143,-27.9886,1243.0],[29.9067,-27.9896,1243.0],[29.9071,-27.9927,1243.0],[29.9045,-27.9956,1243.0],[29.9023,-27.996,1243.0],[29.896,-27.9914,1243.9912],[29.8906,-27.9929,1248.7559],[29.8912,-27.9943,1243.6714],[29.8867,-28.0048,1243.0],[29.8808,-27.9973,1245.0865],[29.88,-27.9999,1243.0],[29.8759,-28.0014,1243.0],[29.8671,-27.9986,1246.7197],[29.8712,-28.0038,1243.3115],[29.8684,-28.009,1243.0],[29.8626,-28.0113,1243.0],[29.8626,-28.0061,1244.8035],[29.8577,-28.0065,1243.0],[29.849,-28.0164,1243.0],[29.8466,-28.0156,1243.915],[29.8469,-28.0129,1254.36],[29.8431,-28.0102,1243.0],[29.845,-28.008,1249.6738],[29.8435,-28.0072,1247.127],[29.8407,-27.9893,1297.6575],[29.8324,-27.9921,1308.384],[29.7605,-27.9835,1285.7634],[29.7603,-27.9601,1453.2988],[29.7502,-27.9456,1542.6943],[29.7402,-27.96,1542.6743],[29.7522,-27.9626,1574.0983],[29.7439,-27.9964,1293.4724],[29.7204,-28.0097,1499.929],[29.7169,-27.9897,1519.6951],[29.7067,-27.9702,1715.9248],[29.6958,-27.9711,1897.8506],[29.6866,-27.967,1887.5942],[29.6737,-27.9576,1965.2249],[29.6636,-27.9573,1988.0555],[29.6508,-27.9667,1959.9727],[29.6359,-27.9945,1932.9542],[29.6394,-28.0156,1858.6007],[29.6169,-28.0468,2096.9819],[29.6318,-28.069,1916.6262],[29.6555,-28.09,1851.8206],[29.6526,-28.0988,1853.6477],[29.6606,-28.1261,1876.7861],[29.6541,-28.1383,1904.6117],[29.6633,-28.142,1892.2695],[29.6709,-28.1387,1745.9713],[29.6695,-28.1345,1695.0773],[29.677,-28.1283,1755.6487],[29.6845,-28.1282,1727.9834],[29.6851,-28.1218,1512.2224],[29.7276,-28.1257,1676.8755],[29.7387,-28.131,1515.3243],[29.7415,-28.1366,1655.1837],[29.7398,-28.1411,1698.6306],[29.765,-28.1583,1581.3846],[29.7746,-28.1427,1563.6595],[29.7883,-28.0984,1524.5223],[29.7968,-28.1014,1606.16],[29.8158,-28.0988,1490.1782],[29.8461,-28.0906,1483.5674],[29.8514,-28.1074,1569.1892],[29.8824,-28.1192,1435.4611],[29.9007,-28.098,1358.9419],[29.9003,-28.0846,1354.0037],[29.9146,-28.0828,1301.7188],[29.9209,-28.078,1298.1232],[29.926,-28.0776,1306.1849],[29.9258,-28.0759,1310.9811],[29.9381,-28.0745,1278.9281],[29.9375,-28.0997,1301.1265],[29.941,-28.1315,1603.7898],[29.9371,-28.1445,1660.3058],[29.9959,-28.1898,1650.2916],[30.0156,-28.1531,1361.8396],[30.0484,-28.1653,1351.6931],[30.0723,-28.1649,1352.5909],[30.1321,-28.1774,1379.8615],[30.1292,-28.1536,1349.6476],[30.1182,-28.1533,1318.3044],[30.1238,-28.1294,1368.9899],[30.1413,-28.1346,1345.098],[30.1461,-28.1465,1358.6193],[30.1581,-28.1449,1368.3236],[30.1619,-28.1566,1343.0786],[30.1657,-28.1616,1281.9641],[30.1842,-28.1615,1261.887],[30.1809,-28.146,1346.8301],[30.1918,-28.1166,1508.2854],[30.1889,-28.1088,1563.585],[30.1909,-28.1063,1575.2886],[30.2013,-28.1033,1574.2401],[30.201,-28.099,1421.536],[30.1901,-28.0956,1349.9171]]]]}}