{"type":"Feature","properties":{"GID_3":"ZAF.2.1.1_1","GID_0":"ZAF","country":"SouthAfrica","GID_1":"ZAF.2_1","province":"FreeState","NL_NAME_1":"NA","GID_2":"ZAF.2.1_1","county":"FezileDabi","NL_NAME_2":"NA","city":"Mafube","VARNAME_3":"NA","NL_NAME_3":"NA","TYPE_3":"LocalMunicipality","ENGTYPE_3":"LocalMunicipality","CC_3":"FS205","HASC_3":"NA","name":"Mafube.city"},
"geometry":{"type": "MultiPolygon","coordinates": [[[[28.6754,-27.5811,1704.4988],[28.675,-27.5905,1658.3384],[28.7429,-27.599,1519.0413],[28.736,-27.5948,1522.6731],[28.737,-27.5917,1518.9308],[28.7425,-27.5869,1518.6517],[28.7413,-27.5831,1520.9553],[28.7455,-27.5635,1516.2417],[28.7437,-27.5618,1521.6465],[28.7428,-27.5521,1516.8347],[28.7374,-27.5483,1517.6204],[28.7378,-27.5452,1522.4116],[28.7435,-27.5403,1517.3529],[28.7456,-27.5337,1522.2549],[28.771,-27.5337,1596.7622],[28.7739,-27.5315,1598.7424],[28.7711,-27.4839,1670.3446],[28.7855,-27.4625,1599.6141],[28.8173,-27.4655,1630.075],[28.8356,-27.4799,1666.7041],[28.8302,-27.4523,1646.2445],[28.8644,-27.4468,1654.4812],[28.8677,-27.4348,1667.1489],[28.8808,-27.4435,1681.1387],[28.8912,-27.4075,1746.349],[28.9001,-27.4074,1760.9364],[28.9128,-27.4131,1702.4454],[28.9228,-27.4199,1753.7518],[28.9274,-27.4025,1769.2587],[28.9169,-27.3458,1712.1007],[28.9374,-27.2877,1685.407],[28.957,-27.2847,1643.9604],[28.967,-27.28,1616.9299],[28.9643,-27.2619,1670.5481],[28.9674,-27.2573,1655.4602],[28.9788,-27.2541,1647.8022],[28.9795,-27.2561,1666.3995],[29.0027,-27.2611,1561.5485],[29.003,-27.2533,1557.8538],[29.0063,-27.2488,1556.6432],[28.9819,-27.2357,1632.55],[28.9942,-27.2176,1603.812],[28.982,-27.2155,1614.3635],[28.9787,-27.2063,1603.2173],[28.9973,-27.1823,1536.1379],[29.004,-27.1802,1534.0283],[29.0024,-27.167,1577.401],[29.0056,-27.1669,1587.0808],[28.998,-27.1466,1568.9907],[29.0055,-27.1097,1558.7559],[29.0034,-27.1093,1555.6301],[28.9965,-27.0797,1550.6753],[29.0017,-27.0506,1544.6198],[29.0151,-27.01,1504.3787],[29.0101,-27.0066,1501.2006],[28.9935,-27.0032,1502.4779],[28.9737,-26.9927,1501.2711],[28.9675,-26.9915,1499.7814],[28.9661,-26.9949,1502.2136],[28.9615,-26.9989,1502.1769],[28.9543,-27.0117,1500.6133],[28.9412,-27.0155,1500.21],[28.9346,-27.0154,1499.8779],[28.9289,-27.0147,1498.8254],[28.9204,-27.0111,1505.7087],[28.9128,-27.018,1506.8843],[28.9075,-27.0201,1500.5796],[28.9042,-27.0198,1501.3473],[28.8936,-27.0134,1504.8647],[28.8853,-27.0248,1505.7528],[28.8939,-27.0265,1496.3065],[28.898,-27.0296,1501.1748],[28.8991,-27.0347,1496.9918],[28.8962,-27.0427,1500.5938],[28.9004,-27.0481,1501.7815],[28.8963,-27.0539,1498.8303],[28.8886,-27.0593,1496.5925],[28.8799,-27.0552,1497.3925],[28.8699,-27.0316,1493.9547],[28.8645,-27.0305,1496.1837],[28.8579,-27.0249,1495.9817],[28.8522,-27.0273,1495.3462],[28.8436,-27.0391,1493.8879],[28.839,-27.0416,1499.3379],[28.8344,-27.0417,1497.615],[28.8259,-27.037,1492.9106],[28.814,-27.0426,1493.932],[28.8108,-27.0383,1499.6205],[28.8117,-27.0334,1493.0452],[28.8098,-27.0193,1495.1592],[28.8049,-27.0115,1495.5206],[28.8013,-27.0126,1492.3145],[28.802,-27.0172,1491.7457],[28.7978,-27.0264,1495.4336],[28.795,-27.0289,1499.7349],[28.7922,-27.0254,1491.4449],[28.7738,-27.019,1490.9011],[28.7768,-27.0091,1492.5231],[28.7707,-27.003,1492.8823],[28.7639,-27.0019,1492.8672],[28.7552,-26.9974,1492.3723],[28.7437,-27.0034,1494.7394],[28.7365,-27.0017,1491.7456],[28.7311,-26.9955,1490.6886],[28.7254,-26.9846,1490.1403],[28.715699999999998,-26.9791,1488.9636],[28.7138,-26.9716,1488.76],[28.7109,-26.9692,1494.4274],[28.7062,-26.9687,1501.3896],[28.7,-26.9757,1490.2454],[28.6834,-26.9752,1490.4033],[28.6614,-26.9608,1491.8447],[28.6545,-26.9602,1490.9735],[28.6455,-26.9527,1489.2354],[28.6369,-26.955,1487.3053],[28.6345,-26.962,1488.1797],[28.6215,-26.9688,1490.6777],[28.605,-26.9932,1486.8519],[28.6059,-26.9944,1487.4979],[28.6097,-26.9938,1487.7235],[28.6172,-27.0002,1487.397],[28.6233,-26.9951,1487.6742],[28.633,-26.9909,1490.6913],[28.6458,-26.9924,1487.614],[28.6535,-26.9953,1487.3275],[28.6558,-26.9986,1486.7256],[28.6513,-27.0094,1486.8203],[28.649,-27.0109,1486.6923],[28.6473,-27.0166,1487.8931],[28.6444,-27.0203,1485.6958],[28.6394,-27.0199,1486.1396],[28.6255,-27.0107,1485.5378],[28.6083,-27.0082,1486.7031],[28.6089,-27.0207,1485.8085],[28.5933,-27.0238,1488.8585],[28.5833,-27.0378,1484.7642],[28.5762,-27.0392,1485.9086],[28.569,-27.035,1485.025],[28.5608,-27.0394,1484.6423],[28.5592,-27.0411,1493.094],[28.5607,-27.0479,1488.301],[28.5599,-27.0542,1487.1769],[28.5546,-27.0604,1484.882],[28.5344,-27.067,1483.5745],[28.5327,-27.0638,1488.5292],[28.5364,-27.056,1484.4487],[28.5457,-27.0529,1484.5634],[28.5497,-27.045,1485.262],[28.5495,-27.0413,1486.3552],[28.5429,-27.0347,1483.2952],[28.5385,-27.0337,1483.7909],[28.5308,-27.0271,1484.3676],[28.5276,-27.018,1483.6206],[28.5036,-27.008,1483.0],[28.5043,-27.0021,1488.715],[28.5109,-26.9928,1483.0],[28.5096,-26.9866,1485.5005],[28.5005,-26.9778,1485.1873],[28.4924,-26.9756,1483.0],[28.4858,-26.9711,1483.0],[28.4791,-26.9517,1483.0],[28.4761,-26.9502,1483.0],[28.4703,-26.9567,1483.0],[28.4761,-26.9615,1484.6534],[28.4702,-26.9728,1483.0],[28.4725,-26.9797,1483.0],[28.4676,-26.9828,1483.3228],[28.4645,-26.9829,1483.765],[28.4616,-26.9774,1491.8732],[28.4613,-26.9723,1483.0],[28.4514,-26.9638,1483.0],[28.4438,-26.9603,1483.0],[28.4366,-26.9646,1484.1924],[28.4365,-26.9669,1485.5961],[28.4502,-26.9776,1483.0],[28.4514,-26.9811,1483.0],[28.4325,-27.0049,1483.0],[28.4202,-27.0126,1483.0],[28.4161,-27.0117,1483.0],[28.4133,-27.0069,1483.0],[28.383,-27.0171,1544.6128],[28.384,-27.0194,1546.1479],[28.3537,-27.0251,1483.0],[28.356,-27.0311,1483.0],[28.3529,-27.0378,1483.0],[28.3541,-27.0412,1483.0],[28.3142,-27.0362,1483.0],[28.2943,-27.0528,1483.0],[28.2924,-27.0616,1483.0],[28.2955,-27.0728,1483.0],[28.2975,-27.076,1483.0],[28.3127,-27.0828,1483.0],[28.3159,-27.0912,1483.0],[28.311,-27.0991,1483.0],[28.3013,-27.1037,1483.0],[28.2978,-27.1108,1483.0],[28.2925,-27.1113,1483.3752],[28.2897,-27.1138,1483.0],[28.2885,-27.1177,1490.2085],[28.2898,-27.1224,1488.95],[28.2836,-27.1291,1487.9124],[28.2843,-27.1326,1485.3297],[28.2796,-27.1326,1491.0598],[28.2778,-27.1376,1486.8126],[28.2728,-27.1434,1487.4308],[28.2741,-27.1463,1487.1213],[28.2768,-27.1467,1487.6191],[28.2735,-27.1491,1488.0955],[28.2758,-27.1513,1488.8658],[28.2716,-27.1502,1487.958],[28.2704,-27.1563,1490.3047],[28.268,-27.1565,1489.9637],[28.266,-27.159,1489.7295],[28.2675,-27.1612,1489.9003],[28.2703,-27.1603,1490.4296],[28.269,-27.163,1491.0806],[28.2702,-27.1652,1491.144],[28.2671,-27.165,1491.2518],[28.2684,-27.1686,1491.6332],[28.2672,-27.1702,1491.2883],[28.265,-27.1695,1491.7771],[28.2643,-27.1712,1491.7102],[28.2657,-27.173,1492.457],[28.2613,-27.174,1504.9774],[28.2653,-27.1793,1493.2491],[28.2673,-27.1796,1493.5328],[28.2639,-27.1828,1494.1604],[28.2643,-27.1864,1494.2921],[28.268,-27.1904,1493.6659],[28.2661,-27.1914,1495.2699],[28.2638,-27.1896,1494.7317],[28.2647,-27.1916,1495.2699],[28.2624,-27.1947,1496.0687],[28.2871,-27.2041,1525.8079],[28.2526,-27.246,1548.8684],[28.264,-27.2562,1544.553],[28.2518,-27.2694,1560.3391],[28.2274,-27.2876,1551.9529],[28.2591,-27.3279,1587.6189],[28.2635,-27.3468,1585.0308],[28.2899,-27.3561,1556.4009],[28.2892,-27.3587,1557.5662],[28.288,-27.3572,1561.386],[28.2869,-27.3589,1557.4608],[28.2833,-27.3595,1566.7083],[28.2836,-27.3628,1562.0605],[28.2807,-27.3639,1559.7563],[28.2796,-27.3692,1560.8992],[28.2836,-27.3714,1562.2263],[28.2819,-27.3777,1562.6342],[28.2827,-27.379,1563.3656],[28.2812,-27.3793,1562.182],[28.2832,-27.3804,1562.8757],[28.2797,-27.3896,1573.3772],[28.2826,-27.3969,1572.5679],[28.2846,-27.3982,1568.704],[28.2837,-27.3999,1569.2959],[28.2852,-27.4006,1569.0646],[28.285,-27.403,1569.9406],[28.2808,-27.4058,1570.5801],[28.2809,-27.4106,1571.9883],[28.2834,-27.4151,1573.2139],[28.2668,-27.4182,1620.0909],[28.2579,-27.4571,1612.696],[28.2507,-27.4791,1627.7845],[28.2511,-27.5086,1660.7645],[28.2563,-27.5413,1699.3593],[28.2581,-27.5723,1732.2217],[28.2842,-27.5669,1733.4644],[28.2847,-27.5562,1761.9696],[28.2942,-27.5492,1759.5607],[28.294,-27.5426,1759.8599],[28.3073,-27.5541,1698.9307],[28.3469,-27.5364,1716.7507],[28.3512,-27.5295,1687.9478],[28.3643,-27.5294,1631.9757],[28.3746,-27.5153,1706.0898],[28.383,-27.518,1701.0652],[28.3851,-27.521,1694.0286],[28.3901,-27.5227,1702.7279],[28.3899,-27.5248,1715.4656],[28.3996,-27.5234,1728.6995],[28.4126,-27.5104,1675.9292],[28.427,-27.5064,1648.8755],[28.4474,-27.5132,1593.5009],[28.4748,-27.5328,1515.4709],[28.4677,-27.541,1538.3374],[28.47,-27.5576,1522.5793],[28.4669,-27.5599,1520.4708],[28.4671,-27.5627,1520.8989],[28.4857,-27.5716,1553.9183],[28.5112,-27.5969,1617.109],[28.5245,-27.5826,1633.1576],[28.5266,-27.5854,1637.9316],[28.5517,-27.5795,1629.7185],[28.5497,-27.5551,1564.8479],[28.5558,-27.5434,1555.6169],[28.567,-27.5375,1565.9541],[28.5775,-27.5645,1647.0282],[28.5915,-27.5721,1600.6691],[28.5975,-27.5624,1619.8737],[28.6201,-27.5896,1676.2419],[28.6028,-27.6025,1665.1074],[28.6172,-27.6075,1672.4658],[28.6197,-27.606,1671.7798],[28.6255,-27.6114,1664.9958],[28.6754,-27.5811,1704.4988]]]]}}