{"type": "Feature","bbox": [31.9814,-28.5202,32.5599,-28.0396],"geometry": {"type": "MultiPolygon","coordinates": [[[[32.4157,-28.4107,1.5742],[32.4185,-28.4082,1.7401],[32.4176,-28.4037,3.4565],[32.4226,-28.3915,0.1692],[32.4232,-28.3818,0.9314],[32.426,-28.3796,1.406],[32.4368,-28.3546,9.5848],[32.4782,-28.294,21.9431],[32.489,-28.2724,0.0],[32.4949,-28.2646,0.0],[32.5343,-28.1938,0.0],[32.554,-28.1501,4.3637],[32.5599,-28.1268,-2.7773],[32.5588,-28.1247,-0.6952],[32.5228,-28.1194,15.3029],[32.5145,-28.1153,13.1739],[32.5005,-28.1188,16.52],[32.4898,-28.1157,11.358],[32.4791,-28.1113,2.9801],[32.4732,-28.0978,-0.3507],[32.4594,-28.0958,-0.1866],[32.4435,-28.1096,-0.0096],[32.4144,-28.0844,40.185],[32.391,-28.0917,34.0759],[32.3809,-28.0993,-0.0946],[32.3814,-28.0905,-2.0],[32.3745,-28.094,-0.1289],[32.372,-28.093,0.0884],[32.3712,-28.0897,-0.0488],[32.3746,-28.0799,2.064],[32.3803,-28.0703,-0.2801],[32.3753,-28.0705,-0.1953],[32.3676,-28.0681,-0.1336],[32.3652,-28.0645,-0.6105],[32.3521,-28.055,2.6003],[32.3501,-28.0507,0.1564],[32.3477,-28.0512,-0.0472],[32.3462,-28.0538,1.7053],[32.3451,-28.0506,0.8067],[32.3485,-28.0478,1.0995],[32.3577,-28.0502,-1.7822],[32.3615,-28.0431,-0.5175],[32.3649,-28.0426,0.2475],[32.3676,-28.0446,-2.0],[32.3695,-28.0434,-2.0],[32.3596,-28.0396,0.7286],[32.3485,-28.04,7.8773],[32.3439,-28.044,2.1854],[32.3397,-28.0531,3.3072],[32.3409,-28.0589,3.256],[32.3436,-28.0597,2.995],[32.3442,-28.0617,2.4193],[32.3367,-28.0825,3.7359],[32.3293,-28.0872,6.2467],[32.3369,-28.0897,4.8456],[32.3365,-28.093,5.6276],[32.3393,-28.1,5.4205],[32.3322,-28.1035,6.5019],[32.3282,-28.1091,7.6714],[32.3223,-28.1138,9.2514],[32.3243,-28.1215,11.1926],[32.3214,-28.1253,9.559],[32.311,-28.1293,10.5517],[32.3089,-28.1276,11.918],[32.3088,-28.1218,11.2439],[32.3066,-28.1218,11.6991],[32.3045,-28.1292,12.3068],[32.3059,-28.1488,21.0261],[32.2981,-28.1529,15.6034],[32.2899,-28.1524,17.2553],[32.2866,-28.1502,16.7972],[32.2779,-28.1495,18.4071],[32.2675,-28.1459,22.5814],[32.266,-28.1433,27.4197],[32.2671,-28.134,23.4232],[32.2636,-28.1305,21.5142],[32.2508,-28.1342,23.1854],[32.2379,-28.1285,27.9074],[32.226,-28.1344,30.1386],[32.2182,-28.1406,33.854],[32.2098,-28.1258,71.5017],[32.204,-28.1239,60.9645],[32.2,-28.1253,50.0649],[32.1928,-28.1354,52.3002],[32.1898,-28.1432,83.3389],[32.1837,-28.1406,57.0325],[32.1804,-28.1334,59.3719],[32.158,-28.1383,112.9399],[32.1546,-28.1426,96.0859],[32.1505,-28.1418,111.1454],[32.1637,-28.1252,117.4052],[32.1575,-28.1139,87.8891],[32.1471,-28.1181,114.9785],[32.1467,-28.1124,101.3655],[32.1383,-28.1109,80.6468],[32.1373,-28.1142,101.4347],[32.121,-28.1172,105.9365],[32.1082,-28.133,451.2283],[32.0284,-28.2202,301.2134],[31.9817,-28.3474,142.4175],[31.9814,-28.3504,57.7695],[31.9933,-28.3606,40.5],[32.0138,-28.3619,38.875],[32.0174,-28.3701,45.8185],[32.0249,-28.381,36.5],[32.0248,-28.3837,41.9306],[32.0225,-28.3856,37.1831],[32.0113,-28.3802,35.4204],[32.0038,-28.3796,37.3277],[31.9954,-28.3808,37.9807],[31.9896,-28.3845,33.5],[31.9901,-28.3876,33.0],[31.9936,-28.391,33.3036],[32.0047,-28.3961,32.5612],[32.0137,-28.4082,30.5155],[32.0204,-28.411,31.8696],[32.0248,-28.41,30.4469],[32.0313,-28.3993,27.8812],[32.0346,-28.3972,27.6923],[32.0461,-28.4051,27.5644],[32.0521,-28.4175,23.5],[32.0558,-28.4179,27.3593],[32.0641,-28.4136,23.8863],[32.0669,-28.4144,27.5438],[32.0676,-28.419,27.1117],[32.0587,-28.4265,29.4259],[32.0611,-28.4392,26.9067],[32.0545,-28.4484,24.635],[32.0561,-28.455,33.4539],[32.0585,-28.4568,62.816],[32.0694,-28.4564,28.2299],[32.0781,-28.4487,21.2254],[32.0899,-28.448,30.0698],[32.1111,-28.4362,17.9834],[32.1245,-28.4417,16.7566],[32.133,-28.4482,23.0191],[32.1358,-28.4574,15.0426],[32.1381,-28.4597,17.5971],[32.1444,-28.4585,15.7693],[32.1504,-28.4506,16.6625],[32.1596,-28.4453,17.8782],[32.1757,-28.4507,17.1667],[32.2122,-28.459,17.4918],[32.2349,-28.4548,16.5664],[32.2313,-28.4719,18.759],[32.234,-28.4723,14.3178],[32.2297,-28.4941,10.4103],[32.2413,-28.4936,10.0191],[32.2457,-28.4918,8.5146],[32.2523,-28.4927,8.2869],[32.257,-28.489,7.4784],[32.2613,-28.4883,7.3458],[32.2637,-28.4942,6.8023],[32.2744,-28.5024,5.9005],[32.288,-28.5099,6.9171],[32.2952,-28.5107,8.705],[32.3043,-28.5181,6.5636],[32.3115,-28.5202,6.0647],[32.3155,-28.5181,4.2815],[32.3164,-28.5126,3.5297],[32.3245,-28.5093,4.1483],[32.3372,-28.4939,3.2653],[32.3656,-28.4852,2.7784],[32.3802,-28.4848,1.6274],[32.3884,-28.4803,1.9634],[32.3932,-28.4727,1.9621],[32.4154,-28.4765,-0.2403],[32.4193,-28.4482,0.0],[32.4268,-28.4246,10.6476],[32.4274,-28.4157,0.0],[32.4263,-28.4085,38.0049],[32.4218,-28.4035,2.0081],[32.4115,-28.4207,5.998],[32.4124,-28.4318,4.7272],[32.4113,-28.4324,4.7272],[32.4096,-28.4218,3.5567],[32.4135,-28.4124,2.8529],[32.4157,-28.4107,1.5742]]]]}
,"properties": {"GID_3": "ZAF.4.7.3_1","GID_0": "ZAF","country": "SouthAfrica","GID_1": "ZAF.4_1","province": "KwaZulu-Natal","NL_NAME_1": "NA","GID_2": "ZAF.4.7_1","county": "Umkhanyakude","NL_NAME_2": "NA","city": "Mtubatuba","VARNAME_3": "NA","NL_NAME_3": "NA","TYPE_3": "LocalMunicipality","ENGTYPE_3": "LocalMunicipality","CC_3": "KZN275","HASC_3": "NA","name": "Mtubatuba.city","area_km2": 1738.959,"hist_schema_id": "Elevation0-9000","hist_area_km2": {"0": 358.307,"25": 292.22,"50": 348.901,"75": 229.704,"100": 147.964,"125": 141.151,"150": 94.084,"175": 54.96,"200": 31.185,"225": 19.21,"250": 10.167,"275": 4.673,"300": 2.654,"325": 1.851,"350": 0.729,"375": 0.561,"400": 0.337,"425": 0.15,"450": 0.15}}}