{"type": "Feature","bbox": [29.0147,-30.6717,30.4455,-29.4966],"geometry": {"type": "MultiPolygon","coordinates": [[[[29.1408,-30.5933,1611.7852],[29.146,-30.5952,1657.0587],[29.1353,-30.6051,1810.5496],[29.1681,-30.6131,1283.4346],[29.168,-30.6176,1283.6912],[29.173,-30.6243,1274.569],[29.1807,-30.6189,1267.8625],[29.1854,-30.6186,1264.1868],[29.1854,-30.6213,1278.9644],[29.1808,-30.6236,1265.2052],[29.1778,-30.6287,1258.4963],[29.1825,-30.6412,1250.528],[29.1856,-30.6404,1246.3857],[29.1919,-30.6348,1241.3179],[29.1979,-30.6344,1240.2324],[29.1987,-30.632,1234.5431],[29.1955,-30.6283,1229.0785],[29.1952,-30.6245,1237.1898],[29.2046,-30.6202,1217.1775],[29.2111,-30.6215,1252.021],[29.218,-30.6185,1209.8645],[29.2202,-30.6208,1207.1187],[29.2284,-30.6197,1430.7747],[29.2613,-30.6212,1586.881],[29.2773,-30.6373,1588.269],[29.3035,-30.6394,1838.5016],[29.3198,-30.645,1656.2654],[29.3225,-30.6445,1558.4526],[29.3456,-30.6717,1666.5428],[29.3728,-30.649,1326.8586],[29.3855,-30.6501,1371.6166],[29.4013,-30.6394,1503.8805],[29.443,-30.639,1861.2871],[29.4686,-30.6242,1655.5488],[29.5124,-30.6182,1670.9657],[29.5243,-30.6412,1682.5266],[29.5713,-30.6558,2087.1128],[29.5863,-30.6171,2244.6033],[29.6407,-30.562,1911.9216],[29.6477,-30.5494,1809.9282],[29.6457,-30.5272,1516.0393],[29.6527,-30.5231,1461.6829],[29.6697,-30.5196,1468.0522],[29.695,-30.5194,1556.078],[29.7042,-30.5225,1459.8733],[29.7109,-30.5161,1403.9448],[29.7245,-30.5127,1200.2482],[29.7287,-30.5175,1180.823],[29.7396,-30.5182,1172.5746],[29.7512,-30.516,1146.2117],[29.7636,-30.5113,1154.7415],[29.7822,-30.5105,1173.8417],[29.7877,-30.5179,1206.3936],[29.7953,-30.5187,1196.0895],[29.8133,-30.5351,1143.2385],[29.8198,-30.532,1116.7798],[29.8348,-30.5428,1071.8882],[29.855,-30.5448,1026.6252],[29.8575,-30.5587,998.745],[29.8712,-30.557,954.5467],[29.8938,-30.5607,889.2385],[29.9207,-30.5495,859.7552],[29.9486,-30.5842,994.1071],[29.9535,-30.586,1008.5269],[29.9561,-30.5832,978.7175],[29.9542,-30.5658,923.0305],[29.9644,-30.5592,923.7048],[29.9678,-30.5511,923.3878],[29.9767,-30.5542,881.8831],[29.9932,-30.5428,882.9178],[29.996,-30.5376,867.2352],[29.9966,-30.5361,862.459],[29.9894,-30.5286,851.3048],[30.0011,-30.5225,801.7891],[29.9968,-30.5142,865.1111],[30.0028,-30.5117,844.9583],[30.0012,-30.5065,818.2491],[30.0016,-30.4937,764.3828],[30.0088,-30.4829,769.5039],[30.023,-30.4717,792.5411],[30.057,-30.4674,360.7909],[30.0525,-30.4608,410.0614],[30.0533,-30.4528,405.3857],[30.0472,-30.4488,401.3031],[30.04,-30.4403,412.3112],[30.0449,-30.4318,430.0062],[30.0482,-30.4306,421.5046],[30.0536,-30.4323,424.9864],[30.0532,-30.4371,430.956],[30.0585,-30.4398,432.1524],[30.0586,-30.4443,435.0981],[30.0603,-30.4461,461.1821],[30.0707,-30.4459,473.52],[30.0736,-30.4472,456.5973],[30.0796,-30.4426,483.2853],[30.0791,-30.437,487.5368],[30.0821,-30.4308,480.6024],[30.1006,-30.4167,490.5655],[30.1062,-30.4179,522.4011],[30.1122,-30.4246,507.9519],[30.1155,-30.4258,500.4009],[30.1176,-30.4249,501.0365],[30.1194,-30.4125,506.1393],[30.1148,-30.4051,509.1769],[30.1145,-30.402,516.8789],[30.2038,-30.4029,835.3991],[30.2088,-30.3899,825.9791],[30.2303,-30.3829,633.8904],[30.2397,-30.374,712.6573],[30.246,-30.3703,725.9678],[30.2499,-30.3725,763.6269],[30.2576,-30.3619,833.1332],[30.2708,-30.3691,916.371],[30.2841,-30.3725,846.5328],[30.2838,-30.3745,800.3967],[30.2945,-30.3761,841.7391],[30.2958,-30.3687,994.3453],[30.3036,-30.3574,813.399],[30.3041,-30.3522,841.4359],[30.3073,-30.3522,817.261],[30.3419,-30.3023,843.4014],[30.3658,-30.2483,676.7465],[30.3808,-30.2506,723.0038],[30.3773,-30.2223,703.2917],[30.3877,-30.2014,491.6608],[30.3896,-30.2002,458.7708],[30.3918,-30.201,458.9646],[30.3968,-30.206,444.8661],[30.398,-30.2034,445.5681],[30.4014,-30.2108,434.8475],[30.4038,-30.2115,433.1986],[30.4164,-30.1983,411.7574],[30.4137,-30.1888,515.9708],[30.4242,-30.1862,436.0562],[30.4297,-30.1869,418.2101],[30.4285,-30.1846,425.4529],[30.4314,-30.1797,397.0056],[30.4338,-30.1811,405.5373],[30.4332,-30.1831,396.5186],[30.4345,-30.1836,396.5186],[30.4412,-30.1778,386.6409],[30.4398,-30.1752,381.408],[30.4413,-30.1753,394.4588],[30.4416,-30.1729,408.4531],[30.4379,-30.1721,395.6321],[30.4372,-30.1691,443.8111],[30.4301,-30.168,424.9358],[30.4275,-30.165,439.0013],[30.4266,-30.1617,448.737],[30.4249,-30.1612,454.7368],[30.4246,-30.1574,478.0862],[30.42,-30.1535,496.6698],[30.4207,-30.1478,591.7736],[30.4167,-30.1429,613.1257],[30.4455,-30.0844,197.1478],[30.4398,-30.082,191.5592],[30.4367,-30.0915,195.6334],[30.4311,-30.0928,201.4325],[30.428,-30.0793,206.588],[30.4243,-30.0766,206.3364],[30.4223,-30.0782,204.1579],[30.4219,-30.0848,208.3439],[30.4244,-30.0926,211.1975],[30.422,-30.0966,229.5526],[30.4133,-30.0922,228.8103],[30.4074,-30.0918,218.2425],[30.4005,-30.0959,229.9871],[30.399,-30.1013,236.9081],[30.3966,-30.1023,223.1296],[30.3857,-30.0942,257.8203],[30.3735,-30.0924,234.8756],[30.3742,-30.0872,245.3524],[30.3822,-30.0851,265.9184],[30.3823,-30.078,241.9903],[30.3729,-30.0744,247.4157],[30.3701,-30.0711,300.1435],[30.364,-30.0725,249.6858],[30.3579,-30.0706,323.2184],[30.3583,-30.0683,279.0639],[30.3646,-30.0639,256.9905],[30.3658,-30.0613,275.7777],[30.3629,-30.0602,260.6638],[30.3559,-30.0621,287.993],[30.352,-30.0586,288.6077],[30.3518,-30.0556,272.7152],[30.3561,-30.0479,272.703],[30.3557,-30.0392,274.0909],[30.3513,-30.0364,277.6468],[30.3474,-30.0372,290.4024],[30.3484,-30.0469,286.8583],[30.3463,-30.0488,285.3415],[30.3409,-30.0487,289.1833],[30.338,-30.0468,345.5777],[30.3341,-30.0404,306.7957],[30.3328,-30.0347,304.2377],[30.3277,-30.0322,297.9991],[30.3226,-30.0348,320.4282],[30.3215,-30.0433,302.9366],[30.3172,-30.0459,302.965],[30.315,-30.0412,306.4359],[30.3167,-30.0359,340.3262],[30.3101,-30.0305,315.191],[30.3134,-30.0235,321.9736],[30.3133,-30.0205,332.1781],[30.3052,-30.0146,338.0376],[30.2996,-30.014,345.875],[30.2902,-30.0187,331.516],[30.2845,-30.0144,365.9268],[30.2829,-30.0056,332.1279],[30.2771,-30.0041,353.352],[30.2728,-30.008,346.8162],[30.2729,-30.0104,344.9293],[30.277,-30.0154,375.8489],[30.2764,-30.0195,350.7182],[30.2739,-30.0219,358.892],[30.262,-30.0115,358.0115],[30.2572,-30.0111,392.3942],[30.2511,-30.0142,357.4751],[30.249,-30.0107,368.6992],[30.2426,-30.0078,362.6514],[30.2376,-30.0087,362.4259],[30.2349,-30.0123,363.5531],[30.2214,-30.0108,378.9087],[30.2159,-30.0162,373.1337],[30.2124,-30.0173,376.1146],[30.1965,-30.0122,382.4226],[30.1952,-30.008,383.3138],[30.1891,-30.0028,394.0035],[30.1721,-30.0015,416.0972],[30.1645,-29.9988,401.7923],[30.1614,-29.9886,411.4443],[30.1503,-29.9822,413.4599],[30.1347,-29.9798,430.0452],[30.1251,-29.982,436.4424],[30.1149,-29.9778,475.1292],[30.1089,-29.977,445.9606],[30.103,-29.9728,477.545],[30.1056,-29.9687,462.673],[30.1102,-29.969,459.1326],[30.1135,-29.9667,490.3807],[30.1143,-29.9617,513.6685],[30.1107,-29.9571,478.0477],[30.1185,-29.9509,476.0298],[30.119,-29.9487,474.134],[30.105,-29.9461,484.3462],[30.1061,-29.942,539.9756],[30.104,-29.9403,516.5873],[30.1008,-29.9422,492.7283],[30.0961,-29.9494,506.5262],[30.0928,-29.9498,507.3543],[30.0881,-29.9478,510.4025],[30.0863,-29.9433,509.9483],[30.0876,-29.939,509.9838],[30.0911,-29.9352,512.3246],[30.084,-29.9281,534.9826],[30.0832,-29.9252,523.2924],[30.0841,-29.9225,568.2457],[30.0889,-29.9189,538.7683],[30.0995,-29.9154,537.882],[30.1009,-29.9115,540.649],[30.0886,-29.904,567.2795],[30.0831,-29.9064,595.1266],[30.0811,-29.9055,559.7039],[30.0781,-29.9079,632.5474],[30.0701,-29.9026,879.9442],[30.0679,-29.895,571.5997],[30.0632,-29.8983,591.5487],[30.0611,-29.8974,581.2991],[30.0607,-29.8902,602.6743],[30.0662,-29.8853,590.8977],[30.0636,-29.8725,600.4298],[30.068,-29.8649,603.2531],[30.0669,-29.8597,609.3671],[30.064,-29.8594,623.1478],[30.0616,-29.8664,646.6168],[30.0553,-29.8702,634.4645],[30.0371,-29.8671,645.4474],[30.0361,-29.8633,671.5466],[30.038,-29.8528,718.8389],[30.0362,-29.8474,704.179],[30.0394,-29.8459,792.1753],[30.049,-29.8351,1249.1146],[30.0454,-29.83,1370.219],[30.0466,-29.8193,1410.6161],[30.0534,-29.8048,1409.5283],[30.0609,-29.8038,1294.4058],[30.0785,-29.7801,1359.7458],[30.0706,-29.7655,1440.8241],[30.0884,-29.7601,1405.074],[30.0924,-29.7473,1444.4373],[30.1001,-29.7208,1455.147],[30.0888,-29.7064,1465.3342],[30.0865,-29.6951,1468.2233],[30.0694,-29.701,1407.9937],[30.0692,-29.724,1598.574],[30.0399,-29.7202,1415.6606],[30.0241,-29.7101,1351.9802],[30.0158,-29.729,1176.2914],[29.9761,-29.7179,1362.7633],[29.9469,-29.7035,1607.8977],[29.9366,-29.7167,1519.1746],[29.9123,-29.7028,1452.2405],[29.9059,-29.6874,1511.2932],[29.9032,-29.6717,1542.2896],[29.9157,-29.6524,1607.4507],[29.9119,-29.634,1719.4858],[29.883,-29.6259,1615.9335],[29.8711,-29.6383,1658.912],[29.8663,-29.6557,1581.1552],[29.8696,-29.6871,1393.8989],[29.8515,-29.6787,1471.4409],[29.8319,-29.673,1388.7426],[29.8042,-29.6593,1504.4812],[29.7833,-29.6674,1116.085],[29.7792,-29.6665,1101.127],[29.7785,-29.6653,1137.9551],[29.7836,-29.6607,1096.2047],[29.784,-29.6584,1092.1061],[29.7672,-29.6489,1110.1765],[29.767,-29.6423,1129.2592],[29.7556,-29.6408,1114.255],[29.7533,-29.635,1120.1211],[29.7517,-29.637,1122.8223],[29.7438,-29.6356,1144.701],[29.7398,-29.6445,1181.2001],[29.7397,-29.6502,1216.3416],[29.7417,-29.6536,1260.391],[29.7352,-29.657,1276.4785],[29.7304,-29.6575,1248.7393],[29.7315,-29.6607,1305.1826],[29.7354,-29.6632,1265.9613],[29.7357,-29.6694,1455.4297],[29.7272,-29.6776,1507.4653],[29.6872,-29.6756,1580.6082],[29.6787,-29.6722,1368.1896],[29.664,-29.67,1344.5535],[29.6621,-29.6711,1345.9561],[29.6604,-29.6701,1344.845],[29.6606,-29.6713,1358.1667],[29.6559,-29.6666,1366.9562],[29.6556,-29.674,1353.952],[29.65,-29.6712,1430.8031],[29.6374,-29.669,1467.5675],[29.638,-29.6705,1377.4711],[29.634,-29.6734,1383.1017],[29.6298,-29.6715,1381.2686],[29.6251,-29.6733,1387.9473],[29.6211,-29.6713,1385.4885],[29.618,-29.6726,1392.7223],[29.615,-29.6703,1393.5247],[29.6126,-29.6706,1392.834],[29.6032,-29.6781,1555.4985],[29.5937,-29.6738,1621.533],[29.5924,-29.6554,1436.0385],[29.5658,-29.656,1510.3676],[29.5545,-29.6526,1466.7905],[29.5566,-29.6394,1562.8992],[29.563,-29.639,1524.6017],[29.568,-29.6067,1339.7166],[29.5607,-29.6045,1288.5627],[29.5579,-29.602,1309.8898],[29.5608,-29.5975,1261.485],[29.5659,-29.5968,1251.3237],[29.5764,-29.5891,1381.6067],[29.5903,-29.5891,1369.1711],[29.5929,-29.5774,1556.6813],[29.5769,-29.5837,1457.4154],[29.5732,-29.5755,1649.7085],[29.5636,-29.5744,1519.4425],[29.5566,-29.5616,1625.8348],[29.5448,-29.5719,1401.7512],[29.5348,-29.5633,1382.1539],[29.529,-29.5637,1490.4165],[29.523,-29.5666,1425.7947],[29.5162,-29.5662,1380.3195],[29.5203,-29.57,1338.6552],[29.5258,-29.5716,1356.3353],[29.5258,-29.5758,1306.2434],[29.5196,-29.5756,1323.665],[29.5169,-29.5784,1319.843],[29.4937,-29.5869,1614.1307],[29.475,-29.5777,1950.449],[29.4773,-29.572,1783.0211],[29.4497,-29.56,1725.4923],[29.4547,-29.5431,1534.7622],[29.4407,-29.5449,1575.8783],[29.437,-29.5476,1518.4136],[29.4328,-29.5422,1678.2878],[29.431,-29.5362,1552.5701],[29.4339,-29.5325,1490.1305],[29.421,-29.5347,1543.4252],[29.4049,-29.5298,1672.8917],[29.3995,-29.5249,1714.6906],[29.384,-29.5257,1731.9064],[29.3699,-29.516,1906.0151],[29.3639,-29.5172,1895.489],[29.3333,-29.5068,2158.5938],[29.3101,-29.4966,2623.3682],[29.2998,-29.4989,3248.9409],[29.3041,-29.5034,3283.7422],[29.305,-29.5098,3250.4419],[29.3069,-29.5102,3184.8193],[29.3056,-29.5165,3278.8066],[29.2997,-29.5192,3296.4675],[29.2932,-29.5172,3356.8174],[29.2972,-29.5223,3219.1011],[29.3031,-29.5262,3177.8696],[29.3071,-29.5337,3078.5261],[29.313,-29.5369,3048.7502],[29.3127,-29.5458,3076.5771],[29.3069,-29.5494,3149.2544],[29.3056,-29.5543,3249.1262],[29.3148,-29.5585,3086.8762],[29.3165,-29.5625,3060.8628],[29.3205,-29.5631,3068.1355],[29.3212,-29.5661,3024.2576],[29.3241,-29.567,3027.6929],[29.3251,-29.5698,3030.988],[29.3197,-29.5814,2896.7844],[29.3162,-29.5832,2769.0007],[29.3097,-29.5846,2778.4199],[29.3049,-29.5832,2901.6445],[29.2975,-29.5854,2878.7798],[29.2852,-29.5845,2872.051],[29.2856,-29.59,2920.4248],[29.2925,-29.6008,3042.6992],[29.2931,-29.6088,3045.752],[29.2911,-29.6132,3178.1653],[29.2924,-29.6163,3177.8032],[29.2827,-29.6214,3157.6514],[29.2871,-29.6277,3083.3376],[29.2826,-29.6423,2887.0125],[29.2778,-29.6448,2821.8931],[29.269,-29.6429,2884.1821],[29.2647,-29.639,2856.7939],[29.2552,-29.6421,2823.7437],[29.2402,-29.6425,2859.9526],[29.235,-29.6397,2832.616],[29.2303,-29.6429,2819.1836],[29.2296,-29.6465,2783.7561],[29.227,-29.6451,2845.1677],[29.2219,-29.648,2942.0417],[29.218,-29.6474,2942.8723],[29.2144,-29.655,2819.1543],[29.2114,-29.6551,2820.886],[29.2086,-29.6598,2822.4417],[29.2001,-29.6599,2900.7434],[29.1911,-29.6707,3042.3357],[29.1879,-29.6715,3042.8384],[29.1828,-29.6681,3052.5957],[29.1795,-29.6751,2903.981],[29.1762,-29.6772,2839.103],[29.1715,-29.6789,2872.8687],[29.1626,-29.677,2895.8896],[29.1597,-29.6828,2928.0801],[29.1636,-29.6887,2982.8787],[29.1616,-29.6911,3021.752],[29.1627,-29.6924,3083.1094],[29.1622,-29.6973,3058.1238],[29.1591,-29.7017,2996.2275],[29.1607,-29.7068,2972.1965],[29.1507,-29.7085,3027.7192],[29.1495,-29.7122,3100.9846],[29.1465,-29.7135,3166.7339],[29.1452,-29.7164,3237.5115],[29.1516,-29.7336,3063.7803],[29.1488,-29.7349,3083.5205],[29.1499,-29.7369,3093.624],[29.1465,-29.7385,3150.7029],[29.146,-29.741,3196.8105],[29.136,-29.7391,3253.0901],[29.1358,-29.7439,3113.5247],[29.1379,-29.7485,3054.3145],[29.1407,-29.7503,3044.8462],[29.14,-29.7591,2983.7378],[29.1338,-29.7612,3043.9431],[29.1348,-29.7651,3009.3022],[29.1285,-29.7643,3072.9309],[29.1236,-29.7674,3263.2537],[29.1311,-29.7732,3110.9749],[29.1294,-29.7766,3111.3467],[29.1294,-29.7893,2953.0205],[29.1249,-29.7952,2872.5713],[29.1237,-29.8073,2658.3372],[29.1272,-29.8123,2533.4629],[29.1325,-29.8148,2521.7695],[29.1294,-29.8189,2559.3066],[29.1317,-29.8256,2622.958],[29.1288,-29.8316,2549.0891],[29.1183,-29.8334,2758.28],[29.1137,-29.8414,2839.9954],[29.1101,-29.8441,2983.5808],[29.1024,-29.8453,2949.9487],[29.1014,-29.8486,2947.3335],[29.1119,-29.8542,2567.8286],[29.1159,-29.8535,2502.4326],[29.1318,-29.8599,2472.6226],[29.1373,-29.8602,2416.7456],[29.139,-29.8612,2369.7595],[29.1393,-29.8643,2411.7947],[29.1454,-29.8682,2407.6462],[29.1412,-29.875,2472.0422],[29.1418,-29.8776,2485.6377],[29.1459,-29.8789,2431.5796],[29.1489,-29.8839,2391.2317],[29.1543,-29.885,2364.4619],[29.1605,-29.8828,2361.105],[29.1626,-29.8836,2364.0674],[29.1636,-29.893,2369.9226],[29.1609,-29.8955,2374.6978],[29.1616,-29.9031,2449.4563],[29.1582,-29.906,2470.9895],[29.1684,-29.912,2509.9512],[29.1696,-29.9161,2475.9753],[29.1621,-29.9214,2429.5791],[29.158,-29.9219,2427.6094],[29.1554,-29.9258,2448.4302],[29.1486,-29.925,2423.8442],[29.1376,-29.9293,2490.7068],[29.1256,-29.9302,2415.1577],[29.1222,-29.933,2422.6665],[29.1186,-29.9331,2392.572],[29.115,-29.9369,2383.1484],[29.1114,-29.9357,2438.1006],[29.109,-29.937,2422.4192],[29.1091,-29.9423,2395.0811],[29.1064,-29.9443,2429.0315],[29.1045,-29.9548,2482.6328],[29.1025,-29.9571,2486.1445],[29.1041,-29.9591,2494.9814],[29.1037,-29.967,2507.1594],[29.0838,-29.9531,2552.3899],[29.0671,-29.9724,2531.1113],[29.0509,-29.9822,2477.4675],[29.0446,-29.9821,2460.7544],[29.0418,-29.985,2478.0657],[29.0387,-29.9841,2457.564],[29.034,-29.986,2430.3721],[29.0322,-29.9876,2420.0059],[29.0334,-29.9923,2377.1372],[29.03,-29.9972,2376.5532],[29.0243,-29.9992,2396.9026],[29.0202,-29.9967,2381.9167],[29.0147,-30.0018,2444.009],[29.045,-30.013,2351.8459],[29.0678,-30.044,2273.6904],[29.0901,-30.0567,2153.7537],[29.1073,-30.0785,2005.7651],[29.1119,-30.0972,1628.3739],[29.1137,-30.0963,1588.4943],[29.1172,-30.1002,1587.5657],[29.1212,-30.0988,1581.7664],[29.1187,-30.1029,1583.5952],[29.1196,-30.1054,1582.6489],[29.1174,-30.1054,1586.3416],[29.1145,-30.1023,1596.5507],[29.1123,-30.1056,1585.6138],[29.1152,-30.1078,1586.6068],[29.1148,-30.1106,1577.332],[29.1186,-30.1094,1596.5684],[29.12,-30.1106,1568.9655],[29.1153,-30.1144,1578.7788],[29.1194,-30.1222,1547.4102],[29.1158,-30.1248,1553.156],[29.1177,-30.1259,1543.4724],[29.1154,-30.1328,1549.9668],[29.1163,-30.1364,1535.813],[29.1188,-30.1385,1537.1504],[29.1163,-30.1421,1532.7415],[29.1215,-30.1435,1530.0737],[29.1206,-30.1512,1509.8577],[29.118,-30.1528,1509.0598],[29.1139,-30.1518,1510.5063],[29.1104,-30.1538,1506.454],[29.1134,-30.1576,1503.4462],[29.1204,-30.1604,1503.3271],[29.1171,-30.1633,1507.1558],[29.1139,-30.1621,1505.3044],[29.1131,-30.1682,1515.6385],[29.1103,-30.1683,1497.6345],[29.1067,-30.1721,1490.7451],[29.1068,-30.1762,1489.6211],[29.1041,-30.1753,1490.6927],[29.1026,-30.1771,1490.1259],[29.1038,-30.1807,1490.7211],[29.1099,-30.1838,1492.2903],[29.1132,-30.1904,1490.6257],[29.1174,-30.1898,1484.6753],[29.1221,-30.192,1485.0286],[29.1208,-30.1943,1482.5281],[29.1141,-30.1939,1487.5012],[29.1108,-30.1969,1483.1665],[29.1124,-30.2096,1494.0125],[29.1197,-30.2059,1485.2803],[29.1216,-30.2073,1477.6594],[29.1215,-30.2099,1497.2407],[29.1271,-30.2112,1494.3726],[29.1323,-30.2149,1473.5073],[29.1318,-30.2166,1489.6212],[29.1241,-30.2179,1495.2593],[29.1224,-30.222,1472.3344],[29.1282,-30.2242,1466.2351],[29.1302,-30.2266,1472.7852],[29.1297,-30.2337,1464.6937],[29.126,-30.2387,1458.6477],[29.1292,-30.2396,1456.7284],[29.1289,-30.2478,1451.7045],[29.133,-30.2497,1460.4423],[29.1319,-30.2516,1451.248],[29.1355,-30.2562,1450.2296],[29.136,-30.2612,1449.5963],[29.1373,-30.2624,1449.5983],[29.1411,-30.2617,1459.1625],[29.1518,-30.2567,1455.3699],[29.1538,-30.262,1446.8563],[29.1518,-30.2647,1445.6989],[29.1565,-30.2648,1446.0701],[29.1556,-30.2619,1446.522],[29.1627,-30.2636,1444.9409],[29.1621,-30.2663,1444.0344],[29.156,-30.2685,1444.5989],[29.161,-30.2707,1443.9863],[29.1593,-30.2743,1443.406],[29.1618,-30.2723,1443.4867],[29.1632,-30.2738,1442.5629],[29.1612,-30.2759,1442.5809],[29.1579,-30.2744,1443.4015],[29.1568,-30.2756,1442.1572],[29.1579,-30.277,1443.347],[29.1558,-30.2775,1442.6825],[29.1674,-30.2816,1452.2291],[29.1742,-30.2808,1445.7787],[29.1757,-30.2828,1449.6528],[29.1726,-30.2834,1450.4233],[29.1881,-30.2887,1463.2203],[29.2275,-30.2974,1469.1974],[29.2334,-30.3063,1492.5768],[29.2547,-30.3048,1535.5654],[29.2315,-30.2691,1449.6864],[29.2368,-30.2669,1449.7925],[29.2622,-30.2784,1483.1565],[29.3019,-30.3201,1973.8564],[29.2987,-30.3343,1951.1742],[29.2919,-30.3456,2090.5117],[29.2988,-30.3532,2153.2332],[29.305,-30.3799,2182.478],[29.2771,-30.3762,1932.3643],[29.2824,-30.3957,2140.5684],[29.2382,-30.4049,1762.0242],[29.2276,-30.4103,1858.7583],[29.2273,-30.4263,1885.9938],[29.2185,-30.4212,1758.9662],[29.1968,-30.4344,1633.3152],[29.1984,-30.4623,1667.6935],[29.1878,-30.4842,1631.4711],[29.1773,-30.5157,1503.1471],[29.1504,-30.5104,1516.375],[29.1402,-30.5338,1369.1597],[29.1448,-30.531,1389.9825],[29.1466,-30.5316,1365.4373],[29.1455,-30.5327,1365.4373],[29.1476,-30.5412,1363.0115],[29.1531,-30.547,1369.2104],[29.1518,-30.5486,1361.8313],[29.1528,-30.5546,1380.2563],[29.1556,-30.5554,1367.2391],[29.1577,-30.5538,1384.9908],[29.1614,-30.547,1361.7117],[29.1579,-30.5476,1359.2698],[29.1578,-30.5451,1358.5614],[29.1599,-30.5447,1359.4393],[29.1611,-30.5418,1358.5083],[29.1653,-30.5436,1358.6299],[29.1663,-30.5414,1357.3541],[29.1631,-30.5396,1358.6716],[29.1651,-30.538,1357.2616],[29.1738,-30.5518,1370.4161],[29.163,-30.5582,1356.954],[29.162,-30.5601,1357.4402],[29.1515,-30.5604,1382.545],[29.1153,-30.5796,1636.6368],[29.1238,-30.5871,1722.8872],[29.1408,-30.5933,1611.7852]]]]}
,"properties": {"GID_2": "ZAF.4.4_1","GID_0": "ZAF","country": "SouthAfrica","GID_1": "ZAF.4_1","province": "KwaZulu-Natal","NL_NAME_1": "NA","county": "Sisonke","VARNAME_2": "NA","NL_NAME_2": "NA","TYPE_2": "DistrictMunicipality","ENGTYPE_2": "DistrictMunicipality","CC_2": "DC43","HASC_2": "ZA.NL.SS","name": "Sisonke.county","area_km2": 10559.378,"hist_schema_id": "Elevation0-9000","hist_area_km2": {"200": 0.807,"225": 2.165,"250": 2.568,"275": 3.541,"300": 3.266,"325": 3.798,"350": 4.863,"375": 6.551,"400": 8.605,"425": 11.281,"450": 12.82,"475": 15.751,"500": 19.89,"525": 26.076,"550": 32.924,"575": 40.485,"600": 48.76,"625": 59.253,"650": 61.523,"675": 68.901,"700": 78.159,"725": 100.904,"750": 132.43,"775": 136.861,"800": 140.518,"825": 142.921,"850": 147.618,"875": 151.978,"900": 159.952,"925": 171.355,"950": 184.448,"975": 184.711,"1000": 165.759,"1025": 165.066,"1050": 161.922,"1075": 159.272,"1100": 164.683,"1125": 183.896,"1150": 194.218,"1175": 203.901,"1200": 211.941,"1225": 220.369,"1250": 209.647,"1275": 198.704,"1300": 191.633,"1325": 184.436,"1350": 186.542,"1375": 184.579,"1400": 183.002,"1425": 197.635,"1450": 231.123,"1475": 265.661,"1500": 323.293,"1525": 349.808,"1550": 316.89,"1575": 300.886,"1600": 293.44,"1625": 285.957,"1650": 276.024,"1675": 293.125,"1700": 247.137,"1725": 210.52,"1750": 177.086,"1775": 155.473,"1800": 133.062,"1825": 110.971,"1850": 100.008,"1875": 85.207,"1900": 80.302,"1925": 76.924,"1950": 70.141,"1975": 62.268,"2000": 50.49,"2025": 43.218,"2050": 39.829,"2075": 39.962,"2100": 37.9,"2125": 33.114,"2150": 28.58,"2175": 26.69,"2200": 24.025,"2225": 24.631,"2250": 21.271,"2275": 19.967,"2300": 19.472,"2325": 18.791,"2350": 19.12,"2375": 16.965,"2400": 13.528,"2425": 12.351,"2450": 11.467,"2475": 10.16,"2500": 7.363,"2525": 5.524,"2550": 4.311,"2575": 3.408,"2600": 3.298,"2625": 3.058,"2650": 2.985,"2675": 2.708,"2700": 2.837,"2725": 2.284,"2750": 2.34,"2775": 2.395,"2800": 1.898,"2825": 2.395,"2850": 2.469,"2875": 2.414,"2900": 3.096,"2925": 2.654,"2950": 2.266,"2975": 1.75,"3000": 1.474,"3025": 1.455,"3050": 1.161,"3075": 0.976,"3100": 0.664,"3125": 0.553,"3150": 0.461,"3175": 0.387,"3200": 0.276,"3225": 0.24,"3250": 0.203,"3275": 0.111,"3300": 0.185}}}