{"type": "Feature","bbox": [30.0772,-29.752,30.5439,-29.5174],"geometry": {"type": "MultiPolygon","coordinates": [[[[30.0948,-29.739,1395.0693],[30.0923,-29.7473,1444.4373],[30.1137,-29.752,1509.7759],[30.1534,-29.7214,1532.2223],[30.1875,-29.724,1464.408],[30.2007,-29.7273,1502.8628],[30.2253,-29.7284,1358.8342],[30.241,-29.7315,1136.4615],[30.2852,-29.7227,1271.8578],[30.2948,-29.723,1220.6997],[30.3391,-29.7244,1025.0593],[30.3593,-29.7278,1003.4773],[30.3724,-29.7268,1010.8103],[30.3843,-29.7289,883.9297],[30.3823,-29.7311,897.868],[30.3857,-29.7323,910.8446],[30.3848,-29.7345,916.4236],[30.391,-29.7366,906.2067],[30.3976,-29.7425,925.9515],[30.3995,-29.7486,915.1302],[30.4044,-29.7467,914.4931],[30.4112,-29.7476,903.7594],[30.4165,-29.7442,889.012],[30.4172,-29.7343,858.9328],[30.4263,-29.7363,916.2217],[30.4245,-29.7303,888.2139],[30.4277,-29.7287,906.7101],[30.4285,-29.7299,918.6841],[30.4445,-29.7277,873.2866],[30.4441,-29.7306,861.2703],[30.4545,-29.7309,846.2854],[30.463,-29.7291,839.6567],[30.4715,-29.7248,831.6591],[30.4765,-29.7248,822.2418],[30.4873,-29.7198,824.8024],[30.4897,-29.7202,825.9574],[30.491,-29.7236,814.5594],[30.493,-29.7243,812.6708],[30.4919,-29.7229,817.9324],[30.4977,-29.7195,809.607],[30.4954,-29.7139,822.3851],[30.497,-29.7082,808.0639],[30.4954,-29.7055,793.9074],[30.466,-29.6722,647.9038],[30.4832,-29.6465,577.6815],[30.48,-29.6443,606.7609],[30.481,-29.6402,590.1151],[30.476,-29.6394,567.8517],[30.4762,-29.6303,564.5421],[30.4774,-29.6289,559.2815],[30.492,-29.6256,671.059],[30.5439,-29.629,650.9726],[30.5408,-29.6182,454.9014],[30.5358,-29.6174,448.8878],[30.5283,-29.6125,468.5679],[30.521,-29.6127,483.5337],[30.5198,-29.6052,503.5042],[30.5157,-29.5989,530.8516],[30.5124,-29.6003,495.542],[30.5098,-29.6037,510.0609],[30.5046,-29.6038,500.9854],[30.4885,-29.598,511.876],[30.4849,-29.5988,510.1703],[30.4811,-29.5954,675.9003],[30.4838,-29.5876,737.4928],[30.4702,-29.5846,677.2208],[30.4583,-29.5871,699.3605],[30.4592,-29.5798,800.6758],[30.4522,-29.5762,831.8423],[30.4545,-29.5744,830.5623],[30.4569,-29.5755,827.4254],[30.4541,-29.5702,851.0429],[30.451,-29.5689,860.9808],[30.4522,-29.5665,836.8875],[30.4506,-29.5637,853.6099],[30.4445,-29.5657,834.9175],[30.4441,-29.5637,845.4829],[30.4483,-29.5592,930.9166],[30.4458,-29.557,917.3315],[30.445,-29.5504,890.4371],[30.4406,-29.5432,896.0994],[30.4317,-29.5434,914.6766],[30.4324,-29.5228,852.9348],[30.4194,-29.5174,758.0134],[30.4142,-29.5261,773.5251],[30.4118,-29.5374,852.1079],[30.4091,-29.5377,866.7147],[30.4092,-29.5395,874.4107],[30.3917,-29.5365,954.7949],[30.3826,-29.5413,880.5396],[30.3849,-29.5455,812.7588],[30.3805,-29.5495,835.7789],[30.3801,-29.5519,804.9519],[30.3647,-29.5429,1102.8708],[30.3304,-29.5498,1106.5457],[30.3125,-29.5611,1038.2666],[30.3162,-29.5671,988.2319],[30.3172,-29.5721,1019.027],[30.3284,-29.5768,971.3342],[30.3358,-29.5872,981.3613],[30.3337,-29.5889,972.0185],[30.3293,-29.5871,964.8239],[30.3248,-29.5876,965.0835],[30.3216,-29.5927,954.5767],[30.311,-29.5823,921.7346],[30.3076,-29.5819,914.7487],[30.306,-29.5844,911.7792],[30.2992,-29.5862,1053.8245],[30.3041,-29.6014,1044.3269],[30.2861,-29.6013,1119.3552],[30.2879,-29.5872,1158.6708],[30.2795,-29.5933,1108.5477],[30.278,-29.5912,1127.6956],[30.2834,-29.5841,1201.282],[30.2809,-29.5824,1235.1385],[30.2584,-29.58,1363.8069],[30.2527,-29.5918,1447.168],[30.2281,-29.5888,1409.8246],[30.2223,-29.5981,1381.1638],[30.1976,-29.5941,1395.2733],[30.1895,-29.5977,1399.843],[30.18,-29.6116,1394.3639],[30.1639,-29.609,1393.1288],[30.156,-29.62,1477.9989],[30.1382,-29.6328,1486.4026],[30.1231,-29.6345,1473.8992],[30.1181,-29.6398,1475.5134],[30.1061,-29.6297,1522.9673],[30.0772,-29.6706,1416.9611],[30.0865,-29.6951,1468.2233],[30.0888,-29.7064,1465.3342],[30.1001,-29.7208,1455.147],[30.0948,-29.739,1395.0693]]]]}
,"properties": {"GID_3": "ZAF.4.6.5_1","GID_0": "ZAF","country": "SouthAfrica","GID_1": "ZAF.4_1","province": "KwaZulu-Natal","NL_NAME_1": "NA","GID_2": "ZAF.4.6_1","county": "Umgungundlovu","NL_NAME_2": "NA","city": "TheMsunduzi","VARNAME_3": "NA","NL_NAME_3": "NA","TYPE_3": "LocalMunicipality","ENGTYPE_3": "LocalMunicipality","CC_3": "KZN225","HASC_3": "NA","name": "The_Msunduzi.city","area_km2": 634.5794,"hist_schema_id": "Elevation0-9000","hist_area_km2": {"450": 0.1106,"475": 0.5714,"500": 1.3272,"525": 2.4885,"550": 2.986,"575": 4.442,"600": 9.9349,"625": 26.7639,"650": 32.4762,"675": 30.7051,"700": 32.7122,"725": 30.8676,"750": 29.9996,"775": 29.2982,"800": 28.3761,"825": 25.4266,"850": 24.6519,"875": 20.1009,"900": 17.152,"925": 13.4865,"950": 11.7367,"975": 11.0185,"1000": 12.05,"1025": 11.8666,"1050": 11.4979,"1075": 10.5756,"1100": 11.9397,"1125": 13.7818,"1150": 14.1128,"1175": 16.4517,"1200": 14.1293,"1225": 12.8759,"1250": 13.2068,"1275": 15.3248,"1300": 17.0568,"1325": 16.6332,"1350": 15.9527,"1375": 13.4481,"1400": 11.1266,"1425": 7.7369,"1450": 5.3794,"1475": 2.2296,"1500": 0.4421,"1525": 0.0553,"1550": 0.0368,"1575": 0.0368}}}