{"type": "Feature","bbox": [23.1632,-34.111,23.7033,-33.7821],"geometry": {"type": "MultiPolygon","coordinates": [[[[23.3993,-34.0037,1.7117],[23.4007,-33.9968,0.0],[23.404,-34.0135,3.0059],[23.3993,-34.0182,0.1256],[23.399,-34.0262,0.0],[23.3915,-34.0318,0.5785],[23.3868,-34.0387,1.4662],[23.394,-34.0324,2.1258],[23.3949,-34.0304,0.5118],[23.4138,-34.0182,2.2488],[23.449,-34.0051,4.4239],[23.4693,-34.0026,25.1875],[23.4718,-34.0035,0.0],[23.4726,-34.0024,10.4442],[23.4785,-34.0035,0.0],[23.4813,-34.0018,8.1719],[23.4857,-34.004,0.0],[23.4874,-34.0026,16.8876],[23.4935,-34.004,0.0],[23.5001,-34.0007,2.8776],[23.5149,-34.0021,0.0],[23.5165,-34.0004,9.727],[23.5187,-34.0032,0.0],[23.5196,-34.0018,0.0],[23.5232,-34.0024,0.0],[23.5254,-34.0004,0.0],[23.5285,-34.0004,0.0],[23.536,-33.9893,38.3681],[23.5379,-33.9907,9.0813],[23.5449,-33.9901,0.0],[23.5482,-33.989,0.0],[23.5468,-33.9879,2.4101],[23.5499,-33.9845,7.6109],[23.5668,-33.9813,0.0],[23.5626,-33.9751,0.0],[23.5643,-33.9726,9.6654],[23.5671,-33.9785,0.0],[23.5718,-33.9815,0.0],[23.576,-33.9821,0.0],[23.576,-33.9843,0.0],[23.5779,-33.9849,0.0],[23.590699999999998,-33.9837,9.2682],[23.6038,-33.9801,1.2944],[23.6107,-33.9813,0.0],[23.6157,-33.979,3.8877],[23.6185,-33.9813,0.0],[23.6296,-33.9815,0.0],[23.6346,-33.9832,0.0],[23.6469,-33.981,3.945],[23.6475,-33.9772,26.694],[23.6454,-33.9758,46.8546],[23.6474,-33.9727,49.2274],[23.6444,-33.9638,88.8365],[23.6459,-33.9624,39.9032],[23.6409,-33.9548,72.6825],[23.6377,-33.9552,74.1066],[23.6346,-33.952,89.6564],[23.636,-33.9433,123.0615],[23.6351,-33.94,120.3266],[23.6385,-33.9372,128.582],[23.637,-33.9347,116.6763],[23.6406,-33.9332,253.899],[23.6399,-33.931,218.707],[23.6432,-33.9319,164.1065],[23.6447,-33.9307,209.6139],[23.6439,-33.9275,198.4251],[23.64,-33.9242,262.2729],[23.6432,-33.9223,258.4451],[23.6428,-33.9198,276.7454],[23.6374,-33.913,261.991],[23.6399,-33.9097,275.2938],[23.6523,-33.9096,326.3776],[23.6568,-33.9069,285.8661],[23.6577,-33.9049,283.0818],[23.655,-33.9037,290.7705],[23.6569,-33.9022,317.4205],[23.6497,-33.8989,335.5349],[23.6476,-33.8967,365.1198],[23.6488,-33.8945,394.456],[23.6474,-33.8928,390.3791],[23.6516,-33.8927,371.5045],[23.6559,-33.8868,395.5769],[23.658,-33.8877,393.7539],[23.6666,-33.8847,420.1198],[23.6692,-33.8854,459.0551],[23.671,-33.8835,446.726],[23.683,-33.884,485.6746],[23.6881,-33.8789,593.9024],[23.6943,-33.868,963.8948],[23.7006,-33.8674,1336.0996],[23.7033,-33.8641,1559.9653],[23.6203,-33.8432,1361.8075],[23.6081,-33.8329,1245.543],[23.562,-33.8289,1192.7241],[23.554,-33.7964,953.5518],[23.5574,-33.7934,882.9922],[23.5188,-33.7821,891.1888],[23.5179,-33.7856,990.0314],[23.488,-33.7915,1146.9363],[23.4891,-33.8075,1397.4746],[23.4681,-33.8075,1305.2169],[23.4542,-33.8032,1441.7334],[23.4277,-33.7991,1433.801],[23.417,-33.7947,1483.1555],[23.395,-33.7926,1531.998],[23.3255,-33.7991,1415.8616],[23.3344,-33.8566,661.5981],[23.2839,-33.8438,401.5732],[23.2888,-33.8658,550.5453],[23.2794,-33.8771,302.1777],[23.229,-33.8783,196.0489],[23.2385,-33.8946,329.6068],[23.2485,-33.8995,298.7438],[23.2225,-33.9086,706.936],[23.2209,-33.9288,339.2555],[23.2411,-33.973,241.717],[23.2107,-33.9629,247.1495],[23.1845,-33.9814,387.7271],[23.1687,-34.0062,377.0312],[23.1785,-34.0457,254.1457],[23.1632,-34.0802,161.9057],[23.1641,-34.0835,0.0],[23.1671,-34.0829,67.4461],[23.1688,-34.0863,0.0],[23.1715,-34.0868,0.0],[23.1757,-34.0854,13.45],[23.1763,-34.0874,0.0],[23.1812,-34.0843,11.6266],[23.1893,-34.086,0.0],[23.1993,-34.0846,0.0],[23.201,-34.0868,0.0],[23.2087,-34.0865,0.0],[23.2104,-34.0893,4.3871],[23.2132,-34.0893,25.8024],[23.2138,-34.0907,1.0778],[23.2251,-34.0871,9.2956],[23.239,-34.0901,7.3259],[23.2415,-34.0929,17.1239],[23.2471,-34.0921,13.7782],[23.2496,-34.0946,0.0],[23.2579,-34.0918,11.2737],[23.2663,-34.0954,34.3513],[23.2679,-34.099,0.0],[23.2712,-34.1004,0.0],[23.2796,-34.0988,8.1281],[23.2849,-34.1018,0.0],[23.2929,-34.1001,51.3935],[23.2938,-34.1021,4.3008],[23.3046,-34.1015,1.2126],[23.3076,-34.1035,0.0],[23.3157,-34.1035,0.0],[23.3221,-34.0999,0.0],[23.3304,-34.1029,34.2216],[23.3363,-34.101,24.5817],[23.3424,-34.1021,0.0],[23.3457,-34.101,9.2082],[23.3521,-34.1057,1.3727],[23.3549,-34.1046,1.9956],[23.3571,-34.1065,0.1851],[23.3649,-34.1051,1.21],[23.3701,-34.1012,20.9805],[23.3826,-34.1021,0.9135],[23.3854,-34.1043,22.7043],[23.399,-34.1076,25.7091],[23.4054,-34.111,16.9319],[23.4112,-34.1093,15.8457],[23.4126,-34.1071,0.0],[23.4076,-34.1063,79.3579],[23.3979,-34.1004,0.0],[23.3826,-34.1004,11.7887],[23.3807,-34.0988,0.0],[23.3754,-34.0985,13.1115],[23.3712,-34.0868,0.0],[23.3718,-34.0771,0.0],[23.3785,-34.0618,1.1074],[23.381,-34.0607,1.826],[23.3796,-34.0601,1.826],[23.3768,-34.0621,4.7172],[23.374,-34.0615,2.6517],[23.3779,-34.0596,0.0],[23.3804,-34.0543,0.9066],[23.3771,-34.0512,0.0],[23.3796,-34.046,0.0],[23.3765,-34.049,0.0],[23.374,-34.049,4.3587],[23.3721,-34.0479,1.9329],[23.3721,-34.0457,3.4597],[23.376,-34.044,1.7146],[23.3854,-34.0326,0.4396],[23.3929,-34.0271,0.0],[23.3932,-34.0224,-0.027],[23.3913,-34.0201,4.0256],[23.3932,-34.0135,-0.0758],[23.3913,-34.0107,2.7006],[23.3949,-34.009,0.1865],[23.3937,-34.0207,0.2021],[23.3954,-34.021,0.2021],[23.3993,-34.0037,1.7117]]],
[[[23.4015,-34.0149,0.0704],[23.4026,-34.0074,0.99],[23.4007,-34.0046,2.1769],[23.3971,-34.0149,0.0],[23.3982,-34.0168,0.0],[23.4015,-34.0149,0.0704]]]]}
,"properties": {"GID_3": "ZAF.9.4.1_1","GID_0": "ZAF","country": "SouthAfrica","GID_1": "ZAF.9_1","province": "WesternCape","NL_NAME_1": "NA","GID_2": "ZAF.9.4_1","county": "Eden","NL_NAME_2": "NA","city": "Bitou","VARNAME_3": "NA","NL_NAME_3": "NA","TYPE_3": "LocalMunicipality","ENGTYPE_3": "LocalMunicipality","CC_3": "WC047","HASC_3": "NA","name": "Bitou.city","area_km2": 990.3756,"hist_schema_id": "Elevation0-9000","hist_area_km2": {"0": 24.5672,"25": 19.6297,"50": 20.9479,"75": 25.9561,"100": 31.7399,"125": 34.3793,"150": 39.1606,"175": 47.6871,"200": 60.6477,"225": 92.9886,"250": 72.868,"275": 39.1644,"300": 28.2686,"325": 30.6989,"350": 32.0578,"375": 30.7441,"400": 29.094,"425": 30.5569,"450": 29.0801,"475": 26.5636,"500": 23.7123,"525": 20.6321,"550": 18.4848,"575": 16.5838,"600": 16.038,"625": 13.8901,"650": 13.433,"675": 12.7289,"700": 11.6375,"725": 10.4231,"750": 9.0149,"775": 8.4341,"800": 7.3427,"825": 6.6913,"850": 5.8815,"875": 4.649,"900": 4.4027,"925": 4.491,"950": 3.7866,"975": 3.8749,"1000": 3.276,"1025": 2.959,"1050": 3.012,"1075": 2.8711,"1100": 2.6068,"1125": 2.325,"1150": 1.9905,"1175": 1.3739,"1200": 1.1097,"1225": 1.3211,"1250": 0.8631,"1275": 0.8455,"1300": 0.7047,"1325": 0.4052,"1350": 0.5638,"1375": 0.3347,"1400": 0.229,"1425": 0.141,"1450": 0.2114,"1475": 0.1057,"1500": 0.0881,"1525": 0.0529,"1550": 0.0176,"1575": 0.0176,"1600": 0.0176}}}