{"type":"Feature","properties":{"GID_3":"ZAF.4.5.5_1","GID_0":"ZAF","country":"SouthAfrica","GID_1":"ZAF.4_1","province":"KwaZulu-Natal","NL_NAME_1":"NA","GID_2":"ZAF.4.5_1","county":"Ugu","NL_NAME_2":"NA","city":"Umzumbe","VARNAME_3":"NA","NL_NAME_3":"NA","TYPE_3":"LocalMunicipality","ENGTYPE_3":"LocalMunicipality","CC_3":"KZN213","HASC_3":"NA","name":"Umzumbe.city"},
"geometry":{"type": "MultiPolygon","coordinates": [[[[30.3432,-30.6447,40.2367],[30.3446,-30.6453,32.6423],[30.3588,-30.6375,333.6531],[30.3541,-30.626,425.075],[30.3548,-30.6162,441.1033],[30.3535,-30.6075,480.9303],[30.3561,-30.6017,451.5152],[30.3429,-30.5859,401.0381],[30.3478,-30.5787,530.6318],[30.3688,-30.606,423.956],[30.3615,-30.6164,430.5838],[30.3805,-30.6247,350.504],[30.3987,-30.629,315.9467],[30.4127,-30.6089,304.9959],[30.4284,-30.607,222.1279],[30.4273,-30.5779,58.7815],[30.4311,-30.5751,58.5333],[30.4364,-30.5766,57.3124],[30.4414,-30.5818,67.0126],[30.4505,-30.5794,68.378],[30.4548,-30.5858,44.3263],[30.4711,-30.583,43.5043],[30.4723,-30.5845,61.8176],[30.472,-30.5913,52.7243],[30.4753,-30.5938,32.9363],[30.4818,-30.5932,61.6723],[30.4864,-30.5849,19.8168],[30.4909,-30.5867,24.3623],[30.4948,-30.5928,18.4042],[30.5015,-30.5893,18.659],[30.5086,-30.5919,11.2935],[30.5123,-30.5746,152.9066],[30.5075,-30.5395,163.2017],[30.5297,-30.5456,112.7076],[30.5297,-30.5408,85.0583],[30.5311,-30.5418,110.6071],[30.5357,-30.5406,78.541],[30.5361,-30.5374,92.1541],[30.542,-30.5404,68.5988],[30.5429,-30.5379,69.1109],[30.5457,-30.5402,57.9034],[30.5495,-30.5388,55.5896],[30.5501,-30.5412,55.8311],[30.5528,-30.5428,59.5211],[30.5524,-30.5444,40.5833],[30.5548,-30.5442,55.0975],[30.5562,-30.5465,58.9807],[30.5593,-30.5455,32.4385],[30.5617,-30.5467,40.619],[30.5628,-30.544,29.1583],[30.5653,-30.5475,22.0447],[30.5635,-30.5497,40.3802],[30.5661,-30.5495,16.526],[30.5688,-30.5467,22.7592],[30.5719,-30.5473,19.426],[30.5714,-30.5499,21.7358],[30.5747,-30.5483,9.2677],[30.5751,-30.5522,8.2585],[30.5777,-30.5544,36.7844],[30.5778,-30.5562,24.4572],[30.5763,-30.556,6.9497],[30.5777,-30.5587,8.3788],[30.5803,-30.559,7.6986],[30.5845,-30.5565,2.2929],[30.5837,-30.561,0.0],[30.5899,-30.5554,0.0],[30.5926,-30.5496,3.4331],[30.5965,-30.5457,2.0005],[30.6063,-30.5399,0.0],[30.609,-30.5346,0.0],[30.6076,-30.5312,3.8632],[30.6112,-30.5271,0.0],[30.6101,-30.5249,0.0],[30.6118,-30.5226,10.8946],[30.6179,-30.5174,7.6814],[30.6213,-30.5171,0.0],[30.6251,-30.5129,0.0],[30.6249,-30.5076,1.0925],[30.6282,-30.5057,2.7767],[30.6293,-30.503,3.1207],[30.609,-30.4886,90.0268],[30.6017,-30.4995,68.0991],[30.5887,-30.4925,142.4618],[30.6026,-30.4732,10.2637],[30.5952,-30.4699,123.2617],[30.5931,-30.465,24.7099],[30.5905,-30.4643,17.3247],[30.5822,-30.417,219.6872],[30.5822,-30.4033,83.6814],[30.5761,-30.4039,92.6514],[30.5682,-30.414,92.5244],[30.5649,-30.4126,93.7432],[30.5627,-30.4086,96.3033],[30.5652,-30.403,120.2705],[30.5643,-30.4006,99.1629],[30.5214,-30.4151,420.2806],[30.5272,-30.3859,387.4451],[30.5057,-30.3761,388.2651],[30.5035,-30.3627,432.7266],[30.5041,-30.3567,484.3386],[30.4998,-30.3584,504.8231],[30.4901,-30.335,451.0286],[30.4837,-30.327,423.0755],[30.4618,-30.3225,447.1457],[30.4582,-30.3262,499.2372],[30.4575,-30.3166,562.6447],[30.4558,-30.3256,460.9164],[30.4493,-30.3261,492.3975],[30.4437,-30.323,593.4919],[30.4017,-30.3168,758.1693],[30.4094,-30.3296,628.7465],[30.3907,-30.3366,744.8947],[30.3822,-30.3326,794.3658],[30.3693,-30.3426,630.1952],[30.3573,-30.3428,665.9304],[30.3539,-30.3365,611.1701],[30.3519,-30.3364,588.2232],[30.3512,-30.3326,611.0244],[30.3538,-30.3329,631.4073],[30.3568,-30.3279,616.0789],[30.3542,-30.3253,634.834],[30.3494,-30.3261,598.3972],[30.3507,-30.3233,640.2903],[30.3464,-30.3219,641.8538],[30.3417,-30.3267,703.4877],[30.3241,-30.3279,627.9415],[30.3073,-30.3522,817.261],[30.3041,-30.3522,841.4359],[30.3036,-30.3574,813.399],[30.2958,-30.3687,994.3453],[30.2945,-30.3761,841.7391],[30.2838,-30.3745,800.3967],[30.2841,-30.3725,846.5328],[30.2708,-30.3691,916.371],[30.2576,-30.3619,833.1332],[30.2499,-30.3725,763.6269],[30.246,-30.3703,725.9678],[30.2397,-30.374,712.6573],[30.2303,-30.3829,633.8904],[30.2088,-30.3899,825.9791],[30.2038,-30.4029,835.3991],[30.1145,-30.402,516.8789],[30.1148,-30.4051,509.1769],[30.1194,-30.4125,506.1393],[30.1176,-30.4249,501.0365],[30.1155,-30.4258,500.4009],[30.1122,-30.4246,507.9519],[30.1062,-30.4179,522.4011],[30.1006,-30.4167,490.5655],[30.0821,-30.4308,480.6024],[30.0791,-30.437,487.5368],[30.0796,-30.4426,483.2853],[30.0738,-30.4471,456.5973],[30.0601,-30.446,461.1821],[30.0586,-30.4443,435.0981],[30.0585,-30.4398,432.1524],[30.0532,-30.4371,430.956],[30.0532,-30.432,424.9864],[30.0476,-30.4307,420.2459],[30.0428,-30.4337,430.8572],[30.04,-30.4403,412.3112],[30.0472,-30.4488,401.3031],[30.0533,-30.4528,405.3857],[30.0525,-30.4608,410.0614],[30.0571,-30.4676,360.7909],[30.0522,-30.4788,346.3689],[30.0461,-30.4831,338.4547],[30.0426,-30.4926,350.5394],[30.0385,-30.496,335.8868],[30.036,-30.5021,344.1899],[30.0416,-30.5133,348.8094],[30.0445,-30.5136,366.6958],[30.0455,-30.5123,324.6371],[30.0457,-30.5001,322.0358],[30.0519,-30.4992,320.6773],[30.056,-30.4931,318.3808],[30.0676,-30.4904,304.2678],[30.0781,-30.4835,298.7428],[30.0834,-30.4824,299.4176],[30.0916,-30.4849,307.0082],[30.1103,-30.4844,296.9319],[30.1143,-30.4873,301.7267],[30.1144,-30.4904,291.5095],[30.1128,-30.4924,282.4363],[30.1047,-30.4922,277.2178],[30.0937,-30.4886,271.4776],[30.0849,-30.4929,292.5154],[30.0779,-30.5,303.3313],[30.0718,-30.5034,260.8906],[30.0712,-30.5058,267.0722],[30.0754,-30.5112,260.0293],[30.0932,-30.5113,260.4308],[30.0997,-30.5161,257.2842],[30.0996,-30.5193,247.7336],[30.0962,-30.5256,240.2448],[30.0899,-30.5271,231.1601],[30.0787,-30.5344,235.6678],[30.0793,-30.5426,259.7694],[30.0841,-30.5464,228.7502],[30.0885,-30.5477,220.7287],[30.0945,-30.5425,229.328],[30.1024,-30.5415,219.3343],[30.1091,-30.547,210.9847],[30.1149,-30.5571,206.8203],[30.1228,-30.5617,204.7845],[30.1341,-30.5653,204.9368],[30.1376,-30.565,204.8718],[30.1422,-30.5595,198.0233],[30.1449,-30.5528,222.5779],[30.1496,-30.55,196.7822],[30.1554,-30.5482,197.1775],[30.1608,-30.549,199.353],[30.162,-30.5505,203.1663],[30.1609,-30.5565,189.9749],[30.1571,-30.5634,238.2975],[30.1585,-30.5762,183.7745],[30.1698,-30.5789,185.03],[30.1725,-30.5817,183.758],[30.1617,-30.5881,177.1476],[30.157,-30.602,205.2153],[30.1568,-30.6075,179.6539],[30.1495,-30.6074,175.5326],[30.1388,-30.618,202.0232],[30.1334,-30.629,167.2518],[30.134,-30.6373,166.0594],[30.1384,-30.6345,180.2968],[30.1478,-30.6211,175.0693],[30.1576,-30.6202,188.0704],[30.1701,-30.6126,198.3253],[30.1761,-30.6258,167.7137],[30.1788,-30.6274,159.5885],[30.1858,-30.627,159.1993],[30.1877,-30.6216,160.5807],[30.1916,-30.6194,182.9698],[30.1939,-30.6201,156.2479],[30.1993,-30.6294,155.0695],[30.1966,-30.6384,155.2418],[30.1976,-30.6439,154.5115],[30.1966,-30.6498,151.5371],[30.1996,-30.6535,159.994],[30.2183,-30.6554,156.7966],[30.2425,-30.6462,145.9936],[30.2486,-30.6412,139.3882],[30.251,-30.637,131.099],[30.2512,-30.6346,128.7589],[30.2325,-30.6177,124.3976],[30.2328,-30.6137,142.8141],[30.2367,-30.6106,121.2612],[30.2395,-30.6122,117.6384],[30.2446,-30.6224,121.2167],[30.2483,-30.6257,112.2592],[30.2527,-30.6265,151.5253],[30.26,-30.6235,107.1339],[30.2647,-30.6246,105.565],[30.2724,-30.6367,110.0254],[30.2779,-30.6418,113.043],[30.2818,-30.6423,88.9307],[30.2945,-30.6382,82.212],[30.3121,-30.6241,64.7808],[30.3194,-30.6217,64.1015],[30.3345,-30.6246,50.7777],[30.3351,-30.6278,50.3273],[30.3314,-30.6288,66.7648],[30.331,-30.6311,67.8013],[30.3384,-30.6415,40.7505],[30.3432,-30.6447,40.2367]]]]}}