{"type":"Feature","properties":{"featurecla":"Range/mtn","name":"DRAKENSBERG","namealt":null,"region":"Africa","subregion":null,"min_label":4.0,"max_label":8.0,"scalerank":3},
"geometry":{"type": "Polygon","coordinates": [[[31.796618040539016,-27.108063415148692,373.9794],[31.595469597271261,-26.906914971880937,385.3794],[31.582286003521261,-26.311578057818394,399.7181],[31.542491081646205,-25.703057550005909,299.228],[31.621958855083761,-25.240044854693409,320.9999],[30.973643425396261,-24.446221612505923,573.8857],[30.642954948833705,-23.943536065630909,529.4665],[30.603282097271205,-23.520196221880909,494.5476],[31.026621941021205,-22.766167901568451,424.1591],[31.264781120708705,-22.567681573443423,441.1187],[31.132456901958761,-22.382500909380951,293.2948],[30.576792839458705,-22.422173760943451,413.9729],[29.756602409771261,-22.81902434688088,755.3376],[29.888926628521205,-23.229180596880951,988.1268],[29.835948112896261,-23.599541925005909,1158.9576],[29.637583855083761,-24.089043878130894,1302.6617],[29.902110222271261,-24.274224542193465,989.8349],[29.835948112896261,-24.896050714068394,1399.8425],[30.007945183208705,-25.279717706255909,1816.752],[30.140269401958705,-25.676568292193423,1690.2986],[30.378428581646205,-26.258599542193437,1689.5337],[30.140269401958705,-27.078912042193394,1696.333],[29.849253776958705,-27.330254815630937,1694.901],[29.320078972271261,-27.80645110469338,1879.0088],[29.134776237896233,-28.256280206255951,1666.3186],[28.38074791758379,-28.375298760943451,1713.0835],[28.036875847271205,-28.467950128130909,1808.472],[27.891368034771233,-28.970635675005909,1602.5959],[27.454722526958761,-29.565972589068465,1664.4575],[27.256358269146261,-29.684991143755965,1599.9606],[27.018199089458733,-29.936333917193423,1551.4958],[27.176890495708733,-30.399346612505923,1537.1853],[27.216563347271233,-30.756524346880951,1772.0131],[26.753550651958733,-30.941827081255951,1595.2694],[26.211192253521233,-30.941827081255951,1553.0679],[25.549693230083705,-31.021172784380951,1458.6799],[25.333293967968785,-31.009459479347484,1406.0571],[25.060313347271261,-30.99468352656838,1497.7522],[24.451670769146233,-31.33867766719338,1452.7587],[24.337040129602684,-31.44873831446283,1484.2419],[24.12098229258379,-31.656182550005909,1778.2249],[23.843150261333761,-31.814873956255909,1313.6093],[23.622136206539921,-31.98983279471058,1236.1383],[23.525645378521233,-32.066216729693451,1212.7229],[23.73731530039629,-32.251519464068465,1126.6851],[23.980036713771455,-32.258237534966526,1052.6736],[24.213633659771233,-32.264703057818394,871.6035],[24.557505730083733,-32.344048760943394,695.4263],[24.832640130119159,-32.430950886324837,778.11],[24.864684942995268,-32.441072348221354,840.3488],[25.060313347271261,-32.502862237505923,972.6828],[25.08668053477129,-32.740899346880923,697.9377],[25.179331901958761,-32.926202081255923,542.2487],[25.139659050396261,-33.203912042193423,245.2677],[25.523326042583761,-33.323052667193451,591.5812],[26.184702995708761,-33.442071221880951,411.0919],[26.356700066021205,-33.508233331255923,326.9125],[26.710671147844295,-33.410590019788927,312.9724],[27.124034050396233,-33.29656340938088,182.69],[27.798716667583761,-32.87322356563088,271.4438],[28.274912956646205,-32.516045831255937,371.5656],[28.737925651958705,-32.105889581255951,182.1804],[29.18775475352129,-31.656182550005909,469.8947],[29.532854544219362,-31.298227025477985,518.7413],[29.544932487896205,-31.285699151568423,637.0394],[30.113780144146205,-30.690484307818409,583.1436],[30.219615105083705,-30.320000909380923,1046.7764],[30.510630730083705,-30.055474542193437,566.1859],[30.881114128521205,-29.737969659380923,378.9295],[31.145640495708705,-29.274956964068409,469.928],[31.341401761098695,-29.079128794623315,213.9453],[31.502818230083705,-28.917657159380951,356.342],[31.615328543431332,-28.778012637469047,267.9231],[31.886485222271205,-28.441460870318423,140.6821],[32.336314323833705,-27.700616143755894,37.893],[32.145096206925672,-27.48211715547346,106.8898],[31.965830925396205,-27.277276300005894,222.3803],[31.796618040539016,-27.108063415148692,373.9794]]]}}