{"type":"Feature","properties":{"featurecla":"Plateau","name":"Great Karroo","namealt":null,"region":"Africa","subregion":null,"min_label":5.4,"max_label":10.0,"scalerank":5},
"geometry":{"type": "Polygon","coordinates": [[[23.459870265553434,-31.868142696868205,1156.8165],[23.177256706646233,-31.951714776568394,1207.7965],[22.648081901958733,-32.048638604693423,1715.6879],[21.907237175396205,-32.092828057818465,1394.0055],[20.92835533945879,-32.031060479693394,1214.2816],[20.161021355083761,-31.95159270625588,1166.4098],[20.133764703449742,-31.815073255264139,1280.1554],[19.728892448833761,-31.471001885943437,991.2701],[19.17322838633379,-31.616509698443409,745.5887],[19.226206901958761,-32.053033135943437,319.6792],[19.530528191021261,-32.688042901568394,1028.5918],[19.834727409771233,-33.495049737505909,1264.5374],[20.16541588633379,-33.574395440630909,923.8433],[21.038584831646261,-33.60088469844338,437.269],[21.951426628521261,-33.508233331255923,462.0042],[22.77161705820879,-33.587579034380923,979.1622],[23.882823112896261,-33.362725518755951,707.0026],[25.08668053477129,-32.780694268755937,721.5219],[24.864684942995268,-32.441072348221354,840.3488],[24.832640130119159,-32.430950886324837,778.11],[23.988658073833733,-32.264703057818394,1130.2117],[23.980036713771455,-32.258237534966526,1052.6736],[23.73731530039629,-32.251519464068465,1126.6851],[23.525645378521233,-32.066216729693451,1212.7229],[23.622136206539921,-31.98983279471058,1236.1383],[23.459870265553434,-31.868142696868205,1156.8165]]]}}