{"type":"Feature","properties":{"featurecla":"Range/mtn","name":"Lebombo Mts.","namealt":null,"region":"Africa","subregion":null,"min_label":6.0,"max_label":11.0,"scalerank":6},
"geometry":{"type": "Polygon","coordinates": [[[31.796618040539016,-27.108063415148692,373.9794],[31.965830925396205,-27.277276300005894,222.3803],[32.145096206925672,-27.48211715547346,106.8898],[32.190806511333705,-27.396416925005923,72.9012],[32.270152214458705,-26.734917901568394,55.4081],[32.296641472271205,-26.033746026568451,11.5105],[32.349497917583705,-25.80889251094338,65.9288],[32.230479362896205,-25.279717706255909,76.3427],[32.203990105083761,-24.710870050005923,200.25],[32.137827995708761,-24.194878839068465,254.9639],[31.992320183208705,-23.692193292193451,142.455],[31.807139519146205,-23.427666925005894,206.2475],[31.727793816021205,-23.877373956255937,389.6839],[31.754161003521261,-24.565362237505937,337.7046],[31.886485222271205,-25.200372003130909,244.6791],[31.873301628521205,-25.650079034380951,225.9404],[31.780650261333761,-26.113091729693451,229.4211],[31.793955925396205,-27.092095635943423,280.7102],[31.796618040539016,-27.108063415148692,373.9794]]]}}