{"type":"Feature","properties":{"featurecla":"Plateau","name":"Northern Karroo","namealt":null,"region":"Africa","subregion":null,"min_label":5.4,"max_label":10.0,"scalerank":5},
"geometry":{"type": "Polygon","coordinates": [[[23.459870265553434,-31.868142696868205,1156.8165],[23.803477409771261,-31.766534112505923,1290.4989],[24.32374108164629,-31.457818292193409,1494.9646],[24.337040129602684,-31.44873831446283,1484.2419],[24.451670769146233,-31.33867766719338,1452.7587],[25.060313347271261,-30.99468352656838,1497.7522],[25.333293967968785,-31.009459479347484,1406.0571],[25.338023308208761,-31.007989190630923,1396.1782],[25.867198112896233,-30.946221612505951,1440.791],[26.308116081646261,-30.858086846880937,1407.1699],[26.34351647227129,-30.53167083125588,1448.1031],[26.065684441021261,-30.53167083125588,1259.5585],[25.41749108164629,-30.624322198443423,1247.683],[24.729502800396261,-29.976006768755923,1170.6287],[23.61829674570879,-29.102959893755951,965.5],[22.81128990977129,-29.684991143755965,941.1132],[22.711648984290349,-29.585350218275025,959.835],[22.23365319102129,-29.173516534380937,928.3094],[21.972567328641617,-28.846268562626207,868.2504],[21.533413707129853,-28.407114941114529,841.3098],[21.4679105945892,-28.42349587048534,872.9612],[21.05176842539629,-28.73247649531838,740.9841],[20.77382954035528,-28.73247649531838,733.4744],[20.59315026133379,-28.750176690630937,648.6036],[20.569079563832361,-28.73247649531838,671.9622],[20.535899284771261,-28.73247649531838,649.4061],[19.953868034771261,-28.401788018755923,923.0269],[19.239390495708761,-28.904473565630937,379.0141],[18.97486412852129,-28.877984307818451,311.6774],[18.313365105083761,-28.891289971880909,235.6136],[17.524058464458733,-28.741387628130923,347.9874],[18.229624870708761,-29.640923760943451,1073.9421],[18.406016472271233,-30.29363372188088,1038.2507],[19.19983971445879,-30.487603448443465,754.5048],[19.825938347271205,-30.637505792193451,965.9007],[19.96705162852129,-31.078545831255909,1108.0419],[20.090586784771233,-31.598809503130951,1210.0865],[20.133764703449742,-31.815073255264139,1280.1554],[20.161021355083761,-31.95159270625588,1166.4098],[20.92835533945879,-32.031060479693394,1214.2816],[21.907237175396205,-32.092828057818465,1394.0055],[22.648081901958733,-32.048638604693423,1715.6879],[23.177256706646233,-31.951714776568394,1207.7965],[23.459870265553434,-31.868142696868205,1156.8165]]]}}