{"type": "Feature","bbox": [25.409444185260696,-26.88701751094338,28.896739128521233,-24.484262662536565],"geometry": {"type": "Polygon","coordinates": [[[25.424795190061872,-24.484262662536565,1133.311],[25.409444185260696,-24.997920016735307,1205.0806],[25.516612175396233,-25.015069268755894,1147.2073],[25.715098503521233,-25.378960870318465,1364.7693],[26.15821373789629,-25.88164641719338,1509.5474],[26.991709831646261,-26.106499932818437,1574.1047],[27.143809441021261,-26.238824151568394,1465.2849],[27.931040886333733,-26.569512628130951,1511.5979],[28.354258659771205,-26.867242120318437,1516.9945],[28.823985222271261,-26.88701751094338,1579.9088],[28.896739128521233,-26.615899346880894,1625.7833],[28.81067955820879,-25.974175714068394,1478.5759],[28.493174675396261,-25.531060479693451,1295.9364],[27.864878776958761,-25.061455987505937,1061.8784],[26.865977409771233,-24.690972589068451,1020.5856],[26.032603386333761,-24.532281182818451,968.0868],[25.424795190061872,-24.484262662536565,1133.311]]]}
,"properties": {"featurecla": "Range/mtn","name": "Witwatersrand","namealt": null,"region": "Africa","subregion": null,"min_label": 6.0,"max_label": 11.0,"scalerank": 6,"area_km2": 48855.1,"hist_schema_id": "Elevation0-9000","hist_area_km2": {"900": 4.45,"925": 108.22,"950": 441.2,"975": 1171.74,"1000": 2151.78,"1025": 2909.93,"1050": 3230.07,"1075": 3039.85,"1100": 2904.13,"1125": 2568.08,"1150": 1997.8,"1175": 1588.59,"1200": 1379.4,"1225": 1196.58,"1250": 1043.26,"1275": 941.11,"1300": 853.4,"1325": 757.32,"1350": 710.65,"1375": 699.2,"1400": 726.44,"1425": 838.16,"1450": 813.48,"1475": 1079.28,"1500": 1403.26,"1525": 2125.15,"1550": 2624.06,"1575": 2601.19,"1600": 2270.63,"1625": 1895.56,"1650": 1273.38,"1675": 675.49,"1700": 366.01,"1725": 245.3,"1750": 122.65,"1775": 57.8,"1800": 19.39,"1825": 9.91,"1850": 5.79,"1875": 4.14,"1900": 1.29}}}