{"type": "Feature","bbox": [28.1795,-26.676,28.8613,-26.1722],"geometry": {"type": "MultiPolygon","coordinates": [[[[28.2517,-26.6255,1478.4933],[28.2598,-26.6215,1479.8051],[28.2817,-26.676,1534.5981],[28.3373,-26.6615,1492.5408],[28.3514,-26.6641,1489.704],[28.3536,-26.6611,1493.5232],[28.3558,-26.6616,1491.8544],[28.3602,-26.6588,1493.7322],[28.3708,-26.6481,1498.1621],[28.3815,-26.6461,1501.8793],[28.3848,-26.6436,1502.5597],[28.383,-26.6411,1505.4094],[28.3838,-26.6399,1502.7905],[28.3936,-26.636,1507.5563],[28.4001,-26.655,1607.9921],[28.415,-26.6562,1672.1094],[28.422,-26.6547,1691.9683],[28.4438,-26.6544,1688.2029],[28.4431,-26.6392,1643.9014],[28.4903,-26.6353,1658.8091],[28.4798,-26.6175,1546.8822],[28.4831,-26.6187,1541.8068],[28.4873,-26.6086,1541.7234],[28.4909,-26.6106,1543.6752],[28.4984,-26.604,1549.676],[28.5076,-26.6038,1545.6561],[28.5063,-26.5965,1557.8435],[28.5089,-26.5938,1550.1155],[28.5054,-26.5897,1552.6865],[28.5278,-26.5906,1594.8501],[28.533,-26.5779,1673.4583],[28.5285,-26.5649,1675.6882],[28.526,-26.5625,1578.1682],[28.5242,-26.5285,1734.8585],[28.5277,-26.5022,1800.5898],[28.5332,-26.5009,1768.0679],[28.5375,-26.5033,1720.1139],[28.5418,-26.501,1751.9723],[28.5406,-26.5036,1696.5006],[28.5437,-26.507,1681.6989],[28.5738,-26.5161,1617.5084],[28.569,-26.525,1622.8994],[28.5772,-26.5268,1594.5825],[28.58,-26.518,1611.6442],[28.5867,-26.52,1602.8774],[28.5849,-26.5386,1614.3438],[28.6381,-26.5473,1649.1484],[28.6312,-26.5246,1650.8939],[28.6416,-26.5076,1596.9955],[28.6499,-26.5111,1597.1666],[28.6502,-26.5079,1598.7389],[28.6534,-26.5087,1597.5223],[28.6618,-26.5059,1600.6617],[28.6889,-26.5131,1631.9128],[28.7639,-26.518,1649.1124],[28.7659,-26.4715,1631.4041],[28.7803,-26.4505,1638.1836],[28.7865,-26.4492,1639.4449],[28.7838,-26.4381,1655.043],[28.7899,-26.4265,1663.9924],[28.8,-26.424,1651.8077],[28.7991,-26.4212,1660.4954],[28.8055,-26.4222,1648.4325],[28.8321,-26.4078,1681.5762],[28.8613,-26.3986,1685.3751],[28.8503,-26.367,1628.4857],[28.8384,-26.340699999999998,1599.59],[28.8178,-26.3457,1638.0272],[28.8051,-26.3066,1631.6313],[28.7789,-26.3169,1645.4865],[28.7536,-26.3207,1651.49],[28.7394,-26.3245,1643.5028],[28.7101,-26.3412,1640.1895],[28.6727,-26.3209,1655.701],[28.6728,-26.3117,1639.1514],[28.6269,-26.2924,1617.3829],[28.6223,-26.2484,1636.3892],[28.5305,-26.2253,1613.5417],[28.5343,-26.1722,1631.7723],[28.5271,-26.1787,1626.1859],[28.5136,-26.2214,1590.4836],[28.5182,-26.2742,1569.3113],[28.5196,-26.3251,1563.0071],[28.5228,-26.3262,1565.663],[28.5225,-26.3286,1564.7079],[28.525,-26.3323,1564.0026],[28.5142,-26.3465,1561.4771],[28.5167,-26.3539,1561.9603],[28.5152,-26.357,1566.2937],[28.5174,-26.3581,1567.3337],[28.5179,-26.362,1567.9321],[28.5154,-26.364,1563.0261],[28.5077,-26.3805,1565.7634],[28.5095,-26.3839,1568.0142],[28.5143,-26.4324,1571.0345],[28.5195,-26.4382,1586.1914],[28.5257,-26.4408,1600.6997],[28.5221,-26.4427,1593.7407],[28.5243,-26.4447,1603.3171],[28.5164,-26.4479,1595.4155],[28.5172,-26.4531,1604.4258],[28.5231,-26.4656,1628.1328],[28.5008,-26.4644,1604.3682],[28.5003,-26.4568,1592.3429],[28.4972,-26.4566,1581.1899],[28.497,-26.453,1577.54],[28.5,-26.4532,1580.3838],[28.4991,-26.4393,1565.877],[28.4714,-26.4399,1545.3239],[28.4636,-26.4381,1539.6637],[28.4634,-26.443,1551.2002],[28.4577,-26.4376,1538.3864],[28.4575,-26.4392,1537.2623],[28.4531,-26.4395,1536.4773],[28.4515,-26.4412,1535.9849],[28.4147,-26.4228,1572.9878],[28.4071,-26.4304,1598.6307],[28.3808,-26.4472,1541.6521],[28.3718,-26.4354,1547.9015],[28.4067,-26.4088,1604.2593],[28.3998,-26.4022,1625.6237],[28.4017,-26.4005,1619.7273],[28.3941,-26.3977,1638.5161],[28.3868,-26.4039,1633.9353],[28.3813,-26.3943,1596.5127],[28.385,-26.39,1609.1337],[28.3827,-26.3857,1630.5947],[28.3737,-26.3945,1586.3831],[28.3703,-26.3936,1576.4407],[28.3549,-26.407,1567.9407],[28.309,-26.3679,1562.3955],[28.2936,-26.3843,1584.7634],[28.2863,-26.3674,1559.0908],[28.274,-26.3587,1535.9877],[28.2621,-26.3635,1532.4573],[28.2597,-26.3672,1530.187],[28.2486,-26.3706,1527.6232],[28.2509,-26.3728,1528.3787],[28.2442,-26.3766,1530.0286],[28.2646,-26.4088,1584.5841],[28.2711,-26.4137,1569.2183],[28.2638,-26.435,1556.078],[28.2234,-26.4324,1535.5558],[28.1988,-26.4636,1606.147],[28.2177,-26.4713,1615.239],[28.2252,-26.4726,1612.9192],[28.2258,-26.4798,1641.3402],[28.2286,-26.4851,1681.5349],[28.2372,-26.494,1707.4755],[28.2438,-26.4956,1709.4276],[28.2491,-26.4921,1686.9056],[28.2714,-26.503,1702.6768],[28.2839,-26.4807,1759.9604],[28.2888,-26.4823,1814.0895],[28.2964,-26.4781,1825.894],[28.3159,-26.4899,1736.384],[28.3238,-26.483,1732.9185],[28.3386,-26.4967,1635.8485],[28.3211,-26.5025,1598.635],[28.3128,-26.4978,1648.0679],[28.3084,-26.4994,1693.2019],[28.3042,-26.5039,1676.22],[28.3073,-26.5082,1628.9324],[28.294,-26.5174,1634.6235],[28.2962,-26.5269,1609.5811],[28.2912,-26.5313,1609.3229],[28.2983,-26.5366,1583.234],[28.2836,-26.5436,1591.4254],[28.2841,-26.5456,1575.9326],[28.2738,-26.5487,1530.4392],[28.2719,-26.5508,1544.3398],[28.2667,-26.5487,1553.2886],[28.2672,-26.5452,1537.0906],[28.2602,-26.5456,1548.1357],[28.2595,-26.5481,1570.1464],[28.2223,-26.5462,1611.6672],[28.2156,-26.5523,1636.501],[28.2063,-26.5562,1634.936],[28.2041,-26.5702,1598.1062],[28.1795,-26.5794,1573.1299],[28.1987,-26.6097,1604.385],[28.2194,-26.6363,1498.2021],[28.218,-26.6391,1502.9729],[28.2249,-26.6499,1463.1094],[28.2268,-26.6489,1467.2516],[28.2273,-26.6444,1463.8584],[28.2304,-26.6442,1463.6686],[28.2297,-26.6381,1465.5979],[28.2347,-26.6359,1465.7964],[28.2355,-26.6307,1472.5433],[28.2448,-26.6293,1477.5248],[28.2517,-26.6255,1478.4933]]]]}
,"properties": {"GID_3": "ZAF.3.3.2_1","GID_0": "ZAF","country": "SouthAfrica","GID_1": "ZAF.3_1","province": "Gauteng","NL_NAME_1": "NA","GID_2": "ZAF.3.3_1","county": "Ekurhuleni","NL_NAME_2": "NA","city": "Lesedi","VARNAME_3": "NA","NL_NAME_3": "NA","TYPE_3": "LocalMunicipality","ENGTYPE_3": "LocalMunicipality","CC_3": "GT423","HASC_3": "NA","name": "Lesedi.city","area_km2": 1486.736,"hist_schema_id": "Elevation0-9000","hist_area_km2": {"1450": 0.038,"1475": 18.349,"1500": 45.46,"1525": 85.487,"1550": 116.524,"1575": 199.337,"1600": 253.373,"1625": 354.974,"1650": 243.744,"1675": 102.746,"1700": 31.019,"1725": 16.182,"1750": 8.746,"1775": 6.601,"1800": 3.017,"1825": 0.987,"1850": 0.152}}}