{"type":"Feature","properties":{"GID_3":"ZAF.8.4.7_1","GID_0":"ZAF","country":"SouthAfrica","GID_1":"ZAF.8_1","province":"NorthernCape","NL_NAME_1":"NA","GID_2":"ZAF.8.4_1","county":"PixleykaSeme","NL_NAME_2":"NA","city":"Ubuntu","VARNAME_3":"NA","NL_NAME_3":"NA","TYPE_3":"LocalMunicipality","ENGTYPE_3":"LocalMunicipality","CC_3":"NC071","HASC_3":"NA","name":"Ubuntu.city"},
"geometry":{"type": "MultiPolygon","coordinates": [[[[24.4703,-31.7065,2075.168],[24.5063,-31.7068,2038.8083],[24.5141,-31.705,2035.5847],[24.5173,-31.6446,2013.1226],[24.523,-31.6037,1840.7146],[24.5039,-31.5684,1738.8201],[24.5245,-31.5454,1678.4871],[24.533,-31.5098,1542.0477],[24.5194,-31.4979,1531.7209],[24.5413,-31.4868,1564.6115],[24.5588,-31.4818,1555.3594],[24.5676,-31.4272,1493.8247],[24.5672,-31.4186,1470.384],[24.4788,-31.4317,1453.1655],[24.4864,-31.4775,1515.7446],[24.4457,-31.4786,1476.9567],[24.4009,-31.4436,1876.3734],[24.3949,-31.4436,1793.3804],[24.408,-31.4261,1798.9823],[24.4011,-31.418,1750.6399],[24.3875,-31.3868,1463.3798],[24.3408,-31.3726,1466.033],[24.3214,-31.3636,1452.5909],[24.3225,-31.3526,1455.9189],[24.3281,-31.3327,1452.0227],[24.3226,-31.3177,1437.6641],[24.2929,-31.3127,1456.4395],[24.2656,-31.324,1467.2549],[24.2713,-31.2756,1450.5477],[24.2372,-31.2737,1463.8176],[24.2329,-31.2533,1459.3644],[24.2349,-31.218,1479.5974],[24.1523,-31.1803,1590.7548],[24.1603,-31.1726,1558.0383],[24.1706,-31.1535,1475.6865],[24.1433,-31.1304,1450.9285],[24.1231,-31.1051,1430.205],[24.1354,-31.0427,1413.0049],[24.1161,-31.0224,1378.8137],[24.0532,-30.9772,1411.1548],[24.0217,-30.9674,1334.8187],[23.9156,-30.99,1371.5117],[23.9502,-30.9722,1341.4971],[23.988,-30.9115,1298.5457],[23.9885,-30.9047,1301.9196],[23.9827,-30.9091,1289.994],[23.9676,-30.8975,1301.8782],[23.9696,-30.8771,1353.9138],[23.9386,-30.8906,1373.0526],[23.8604,-30.8649,1298.2225],[23.8206,-30.8868,1630.0826],[23.813,-30.8966,1400.0696],[23.8111,-30.9104,1456.5085],[23.7937,-30.9107,1334.9187],[23.7614,-30.9058,1372.1631],[23.7115,-30.9656,1494.0442],[23.7032,-30.9442,1415.0149],[23.6791,-30.9169,1421.1885],[23.6579,-30.8972,1526.5172],[23.6509,-30.9038,1546.8303],[23.5977,-30.9418,1291.6111],[23.5888,-31.0035,1266.479],[23.556,-31.0084,1281.6171],[23.5135,-30.9506,1212.3232],[23.4618,-30.9909,1260.6455],[23.4017,-31.0341,1203.9243],[23.3255,-30.954,1325.5132],[23.2253,-30.9537,1151.0439],[23.198,-30.9247,1229.9614],[23.175,-30.893,1367.8059],[23.1648,-30.8626,1524.7419],[23.1573,-30.8553,1323.3738],[23.1463,-30.8483,1291.2435],[23.1094,-30.8282,1469.2913],[23.0562,-30.8823,1264.7693],[23.0084,-30.8842,1208.1243],[22.9862,-30.8832,1201.5013],[22.9888,-30.8715,1194.1478],[22.8969,-30.8563,1180.0936],[22.8911,-30.8637,1181.5625],[22.8966,-30.8797,1182.499],[22.7819,-30.9476,1224.6722],[22.7393,-30.9258,1232.4011],[22.7526,-30.9514,1233.5203],[22.6901,-30.9755,1261.7828],[22.665,-30.9542,1278.9574],[22.5808,-30.9687,1348.5393],[22.5731,-30.9804,1378.0327],[22.5606,-30.9807,1421.4919],[22.5291,-30.9852,1434.8912],[22.5248,-30.9677,1393.9087],[22.5179,-30.9704,1621.1528],[22.5101,-30.9678,1580.3828],[22.4972,-30.98,1660.344],[22.4634,-31.007,1416.5657],[22.5013,-31.0575,1468.3464],[22.4976,-31.0958,1426.9275],[22.4824,-31.1087,1468.0663],[22.4732,-31.1163,1535.5573],[22.4435,-31.131,1528.3208],[22.3185,-31.1429,1494.1134],[22.2666,-31.1658,1397.9761],[22.252,-31.19,1439.845],[22.2145,-31.2163,1362.5249],[22.1843,-31.1934,1350.5164],[22.1875,-31.1689,1371.0901],[22.1214,-31.148,1367.3127],[22.1052,-31.1562,1320.7958],[22.0863,-31.1485,1349.6521],[22.077,-31.1343,1333.8425],[22.0875,-31.1005,1334.9861],[22.0822,-31.0515,1334.0421],[22.0032,-31.0124,1336.6956],[21.9827,-31.0326,1346.491],[21.9497,-31.0129,1341.2159],[21.9183,-31.0435,1302.571],[21.8459,-31.0641,1284.7389],[21.7952,-31.0601,1334.9497],[21.7379,-31.0645,1272.9047],[21.7001,-31.0635,1284.6881],[21.7034,-31.078,1269.2827],[21.6707,-31.0976,1290.0935],[21.688,-31.127,1294.6025],[21.7022,-31.1648,1277.416],[21.6938,-31.1701,1273.4841],[21.6219,-31.1514,1330.3933],[21.6082,-31.1973,1328.8833],[21.6148,-31.2499,1344.3201],[21.6692,-31.2619,1316.2189],[21.7261,-31.2638,1287.0715],[21.7624,-31.2714,1264.9875],[21.7473,-31.3158,1274.5867],[21.796,-31.3163,1232.9],[21.8137,-31.3334,1267.8289],[21.8228,-31.3535,1229.9016],[21.8145,-31.3978,1252.5599],[21.8802,-31.3995,1320.845],[21.9298,-31.4181,1297.4507],[21.9378,-31.4259,1245.2753],[21.9328,-31.4342,1253.6603],[21.8499,-31.4564,1292.4641],[21.8655,-31.4973,1287.4697],[21.9199,-31.4912,1295.0068],[21.9448,-31.4726,1281.9888],[21.9533,-31.4707,1273.0936],[21.962,-31.5122,1253.4198],[21.9879,-31.5581,1283.8501],[22.0005,-31.5662,1281.2717],[22.0117,-31.5905,1314.5674],[21.9497,-31.601,1257.6763],[21.9323,-31.6243,1262.7014],[21.9287,-31.6213,1261.1619],[21.9155,-31.6457,1281.621],[21.9441,-31.6822,1280.7255],[21.9854,-31.6959,1338.3173],[21.9868,-31.7199,1362.9891],[22.0496,-31.77,1330.3302],[22.1161,-31.7584,1409.6511],[22.1797,-31.7817,1377.9779],[22.1879,-31.7814,1369.0132],[22.204,-31.764,1415.7312],[22.2374,-31.703,1502.4028],[22.2499,-31.6647,1481.967],[22.2601,-31.6625,1492.2722],[22.2729,-31.5925,1384.5254],[22.3123,-31.5835,1399.4791],[22.3551,-31.6054,1392.3341],[22.4333,-31.6382,1475.5813],[22.4958,-31.6703,1479.0452],[22.5648,-31.6779,1571.9749],[22.5661,-31.7132,1553.0571],[22.6191,-31.7246,1584.8445],[22.6094,-31.7398,1569.045],[22.5783,-31.8055,1453.806],[22.6149,-31.8229,1454.0287],[22.6307,-31.8235,1715.9133],[22.6318,-31.8234,1715.9133],[22.6312,-31.8197,1732.4775],[22.6328,-31.8162,1772.7441],[22.635,-31.815,1779.0543],[22.6414,-31.8163,1793.3346],[22.6449,-31.8144,1705.3494],[22.6475,-31.8196,1780.7904],[22.6515,-31.8217,1755.4705],[22.7351,-31.7994,1321.3251],[22.7575,-31.8275,1370.4976],[22.7769,-31.8569,1358.5654],[22.8253,-31.8377,1358.2081],[22.859,-31.8183,1311.0581],[22.8747,-31.8616,1310.1007],[22.902,-31.8758,1479.0935],[22.9538,-31.863,1119.828],[22.9758,-31.8608,1304.3679],[23.0387,-31.8775,1311.9172],[23.0674,-31.8907,1135.9917],[23.0523,-31.9103,1096.6769],[23.0526,-31.9398,1094.5103],[23.0587,-31.9548,1348.5374],[23.0709,-31.9538,1171.4548],[23.0876,-31.9723,1454.2814],[23.0985,-31.9777,1373.0183],[23.1043,-31.9606,1310.0138],[23.1188,-31.9601,1165.4221],[23.1395,-31.9515,1308.1165],[23.1448,-31.9431,1362.7627],[23.1519,-31.9398,1528.7805],[23.1712,-31.9181,1556.8846],[23.2304,-31.8757,1497.3561],[23.225,-31.854,1316.0416],[23.2624,-31.8154,1349.2024],[23.2634,-31.7783,1477.4335],[23.2661,-31.7732,1459.4363],[23.3024,-31.7301,1271.4429],[23.3451,-31.7109,1228.1423],[23.3871,-31.7148,1205.2902],[23.4071,-31.7138,1188.8723],[23.4017,-31.6996,1199.2678],[23.4165,-31.6722,1238.0656],[23.4231,-31.6821,1281.2046],[23.4961,-31.7027,1185.8556],[23.5239,-31.7053,1176.6714],[23.5355,-31.6918,1191.3496],[23.5745,-31.6892,1234.818],[23.5945,-31.6623,1356.7019],[23.6191,-31.6494,1361.7665],[23.6395,-31.6601,1503.5571],[23.6887,-31.6496,1629.4742],[23.7151,-31.647,1453.8799],[23.7345,-31.6546,1460.0839],[23.7565,-31.6957,1467.3779],[23.7775,-31.6971,1397.431],[23.8157,-31.7142,1363.9945],[23.8416,-31.7151,1398.9652],[23.8476,-31.7292,1311.3788],[23.8085,-31.7637,1368.209],[23.8372,-31.7679,1368.658],[23.8293,-31.7803,1330.6938],[23.8379,-31.7833,1350.2046],[23.8786,-31.8337,1375.3915],[23.894,-31.8368,1616.3617],[23.9159,-31.822,1572.5077],[23.9179,-31.7954,1604.9609],[23.9487,-31.7733,1502.4407],[23.9513,-31.7495,1590.2087],[23.9665,-31.7154,1645.2194],[23.9631,-31.7067,1641.674],[24.0468,-31.7067,1830.5918],[24.0291,-31.722,1893.5333],[24.0285,-31.7302,1665.155],[24.0431,-31.7673,1578.692],[24.0561,-31.776,1625.6514],[24.0709,-31.8071,1704.504],[24.1022,-31.7926,1932.2883],[24.1525,-31.7886,1790.2791],[24.1474,-31.7673,1743.4369],[24.1616,-31.7402,1968.1346],[24.226,-31.7474,1804.9862],[24.2402,-31.752,1628.8665],[24.2484,-31.7604,1587.1815],[24.2682,-31.7667,1623.9646],[24.2688,-31.7559,1800.5361],[24.285,-31.7652,1965.8099],[24.3016,-31.7583,1945.5553],[24.3153,-31.7501,2029.6655],[24.3224,-31.7418,1935.5333],[24.3247,-31.7241,1887.2975],[24.340699999999998,-31.7138,1966.6567],[24.4233,-31.7116,1953.0288],[24.4126,-31.6885,2007.6428],[24.4412,-31.7126,2028.0349],[24.4703,-31.7065,2075.168]]]]}}