{"type":"Feature","properties":{"GID_3":"ZAF.8.4.3_1","GID_0":"ZAF","country":"SouthAfrica","GID_1":"ZAF.8_1","province":"NorthernCape","NL_NAME_1":"NA","GID_2":"ZAF.8.4_1","county":"PixleykaSeme","NL_NAME_2":"NA","city":"Renosterberg","VARNAME_3":"NA","NL_NAME_3":"NA","TYPE_3":"LocalMunicipality","ENGTYPE_3":"LocalMunicipality","CC_3":"NC075","HASC_3":"NA","name":"Renosterberg.city"},
"geometry":{"type": "MultiPolygon","coordinates": [[[[24.8382,-30.1184,1169.0],[24.8364,-30.1151,1169.0],[24.8385,-30.0952,1169.0],[24.8329,-30.0923,1169.0],[24.826,-30.0852,1169.0],[24.8178,-30.0821,1169.0],[24.8141,-30.0679,1169.0],[24.8029,-30.0598,1169.0],[24.7972,-30.0501,1169.0],[24.7962,-30.0455,1169.0],[24.7985,-30.0339,1169.0],[24.8073,-30.0264,1169.0],[24.8081,-30.023,1169.0],[24.8037,-30.0118,1169.0],[24.794,-29.999,1169.0],[24.7738,-29.9938,1169.0],[24.7568,-29.9928,1169.0],[24.7502,-29.9895,1169.0],[24.7237,-29.9922,1099.5577],[24.7124,-29.9887,1097.0007],[24.7036,-29.9837,1094.6857],[24.6956,-29.9827,1093.0],[24.6744,-29.9756,1095.3298],[24.6713,-29.9715,1100.1095],[24.6695,-29.9611,1097.957],[24.6628,-29.9422,1096.6405],[24.6679,-29.9091,1093.5059],[24.6651,-29.902,1096.0593],[24.6593,-29.8992,1091.6909],[24.6527,-29.8988,1089.0],[24.6498,-29.9016,1091.7758],[24.6495,-29.9069,1097.0471],[24.6453,-29.9113,1091.2598],[24.6072,-29.9109,1088.6642],[24.5841,-29.8962,1085.5],[24.5642,-29.8777,1085.0],[24.5551,-29.8626,1085.5588],[24.5507,-29.8492,1084.8013],[24.547,-29.8449,1085.5972],[24.5395,-29.8423,1084.5],[24.5253,-29.8454,1084.5227],[24.5103,-29.8415,1083.5],[24.5024,-29.8361,1083.0],[24.5034,-29.8241,1086.2094],[24.4977,-29.816,1082.375],[24.4875,-29.813,1086.3744],[24.47,-29.8118,1084.2112],[24.4536,-29.8677,1177.7534],[24.4236,-29.8864,1170.4619],[24.4029,-29.9162,1173.3883],[24.3774,-29.8878,1146.413],[24.2983,-29.8972,1116.3164],[24.282,-29.9348,1151.0925],[24.2906,-29.9666,1176.2233],[24.2788,-29.9643,1178.4937],[24.272,-29.9753,1198.4552],[24.2614,-29.9815,1185.5723],[24.2439,-29.9752,1185.7515],[24.1959,-30.0024,1174.1147],[24.1364,-30.0005,1257.0582],[24.1136,-30.01,1225.7727],[24.097,-30.0058,1212.4497],[24.0565,-30.0037,1130.8696],[24.0294,-30.0209,1128.6208],[24.0293,-30.037,1163.2729],[24.0386,-30.0913,1169.0686],[24.0382,-30.0983,1178.1343],[24.0151,-30.0829,1165.4258],[24.0052,-30.0817,1163.3899],[23.9929,-30.1127,1152.5142],[23.9623,-30.1171,1149.1649],[23.9458,-30.1045,1144.4031],[23.9387,-30.1224,1186.0557],[23.9258,-30.1441,1208.8555],[23.9417,-30.1904,1230.7834],[23.9393,-30.2103,1206.0543],[23.8421,-30.1951,1144.1619],[23.9563,-30.2366,1231.9896],[23.905,-30.2807,1224.1542],[23.9237,-30.2752,1230.321],[23.9317,-30.278199999999998,1222.4995],[24.0189,-30.34,1244.54],[24.0476,-30.3335,1274.528],[24.0767,-30.331,1281.1694],[24.1193,-30.3467,1297.6102],[24.1229,-30.3573,1308.5461],[24.1083,-30.3731,1314.9423],[24.1775,-30.4038,1346.1725],[24.2031,-30.4107,1372.7777],[24.2314,-30.4302,1445.0396],[24.2778,-30.4497,1473.1357],[24.2819,-30.4679,1512.5884],[24.2526,-30.5122,1601.522],[24.2916,-30.5467,1554.5575],[24.2773,-30.5642,1558.0825],[24.2743,-30.5839,1499.3593],[24.2997,-30.5995,1524.8969],[24.3781,-30.6206,1452.0392],[24.4146,-30.6613,1473.9795],[24.4524,-30.6584,1463.5046],[24.4696,-30.6724,1452.0675],[24.5119,-30.7115,1413.1797],[24.5401,-30.7305,1411.9541],[24.5535,-30.7217,1406.054],[24.5527,-30.7361,1401.3682],[24.5626,-30.7283,1424.4199],[24.5697,-30.7021,1424.8972],[24.5867,-30.7026,1435.9651],[24.6094,-30.7504,1405.7327],[24.6115,-30.76,1405.1331],[24.6184,-30.7521,1428.6906],[24.6356,-30.7444,1397.4913],[24.6463,-30.7531,1407.8995],[24.6565,-30.6946,1376.2068],[24.6743,-30.6512,1377.0594],[24.6801,-30.6254,1396.6246],[24.6789,-30.6241,1418.782],[24.6964,-30.6046,1416.5249],[24.6957,-30.5943,1430.6654],[24.6989,-30.585,1403.5365],[24.7092,-30.5751,1418.7507],[24.7096,-30.5684,1428.5582],[24.7139,-30.5642,1398.1804],[24.7147,-30.56,1400.9104],[24.7243,-30.5414,1363.9531],[24.7276,-30.5263,1361.5515],[24.7525,-30.5231,1347.3435],[24.7513,-30.5053,1361.7234],[24.7597,-30.484,1413.5211],[24.7571,-30.4561,1378.9756],[24.7648,-30.4414,1371.0432],[24.7398,-30.4368,1373.9644],[24.7335,-30.4253,1427.6748],[24.7275,-30.421,1422.089],[24.727,-30.4047,1379.0477],[24.7482,-30.4055,1401.9402],[24.7623,-30.414,1392.3644],[24.7863,-30.4154,1369.984],[24.8015,-30.3822,1420.4779],[24.8416,-30.3636,1376.4363],[24.8476,-30.356,1363.4099],[24.8592,-30.3055,1332.6079],[24.8661,-30.2976,1321.9664],[24.8711,-30.2882,1305.6191],[24.8711,-30.2819,1321.0177],[24.8796,-30.2707,1313.9424],[24.9048,-30.2745,1276.8258],[24.921,-30.2717,1215.9277],[24.9068,-30.2521,1255.4985],[24.9114,-30.2474,1228.7041],[24.9267,-30.2405,1218.4705],[24.9502,-30.2248,1169.0],[24.9461,-30.2253,1169.0],[24.9426,-30.2215,1169.0],[24.934,-30.2175,1169.0],[24.9302,-30.2069,1169.0],[24.9251,-30.2007,1169.0],[24.9203,-30.2008,1169.0],[24.9104,-30.2097,1169.0],[24.901,-30.2078,1169.0],[24.8957,-30.1964,1169.0],[24.8952,-30.1842,1169.0],[24.8816,-30.1733,1169.0],[24.8804,-30.1589,1169.0],[24.8758,-30.1443,1169.0],[24.8706,-30.1336,1169.0],[24.8673,-30.1307,1169.0],[24.8442,-30.1235,1169.0],[24.8382,-30.1184,1169.0]]]]}}