{"type": "Feature","bbox": [23.2278,-30.2103,24.47,-29.073],"geometry": {"type": "MultiPolygon","coordinates": [[[[23.842,-30.195,1146.1465],[23.9393,-30.2103,1206.0543],[23.9417,-30.1904,1230.7834],[23.9258,-30.1441,1208.8555],[23.9387,-30.1224,1186.0557],[23.9458,-30.1045,1144.4031],[23.9623,-30.1171,1149.1649],[23.9929,-30.1127,1152.5142],[24.0052,-30.0817,1163.3899],[24.0151,-30.0829,1165.4258],[24.0382,-30.0983,1178.1343],[24.0386,-30.0913,1169.0686],[24.0293,-30.037,1163.2729],[24.0294,-30.0209,1128.6208],[24.0565,-30.0037,1130.8696],[24.097,-30.0058,1212.4497],[24.1136,-30.01,1225.7727],[24.1364,-30.0005,1257.0582],[24.1959,-30.0024,1174.1147],[24.2439,-29.9752,1185.7515],[24.2614,-29.9815,1185.5723],[24.272,-29.9753,1198.4552],[24.2788,-29.9643,1178.4937],[24.2906,-29.9666,1176.2233],[24.282,-29.9348,1151.0925],[24.2983,-29.8972,1116.3164],[24.3774,-29.8878,1146.413],[24.4029,-29.9162,1173.3883],[24.4236,-29.8864,1170.4619],[24.4536,-29.8677,1177.7534],[24.47,-29.8118,1084.2112],[24.4549,-29.8109,1082.6013],[24.4475,-29.8151,1091.2339],[24.44,-29.8154,1080.734],[24.4351,-29.8059,1083.4178],[24.4246,-29.8012,1081.2263],[24.4105,-29.7894,1078.7358],[24.4022,-29.7741,1078.884],[24.3879,-29.7539,1078.1293],[24.3763,-29.7273,1074.0],[24.3678,-29.7205,1073.5],[24.3545,-29.7131,1072.5],[24.3498,-29.7059,1073.0957],[24.3487,-29.7018,1073.6519],[24.3536,-29.6647,1070.5],[24.3522,-29.6587,1070.0],[24.3466,-29.6559,1071.1516],[24.3366,-29.6568,1071.0693],[24.3181,-29.6525,1073.1194],[24.3045,-29.6612,1071.7618],[24.2985,-29.6611,1069.9268],[24.2934,-29.6531,1067.5],[24.2725,-29.6327,1069.7817],[24.2593,-29.6276,1062.1239],[24.2538,-29.6232,1060.2821],[24.2486,-29.6162,1061.2095],[24.2399,-29.6152,1055.5],[24.2731,-29.5811,1086.1118],[24.2718,-29.57,1096.6449],[24.2628,-29.5702,1097.0461],[24.2111,-29.5491,1138.8342],[24.1952,-29.5224,1151.9928],[24.1432,-29.5385,1106.6993],[24.0827,-29.5153,1101.0465],[24.0451,-29.5035,1116.5281],[24.0127,-29.5186,1038.7471],[24.0075,-29.5112,1041.08],[23.9788,-29.4993,1034.0],[23.9764,-29.4969,1033.5],[23.9747,-29.4899,1035.8153],[23.9699,-29.4862,1032.1406],[23.9564,-29.4831,1027.0],[23.9431,-29.4843,1023.75],[23.9355,-29.4807,1025.2034],[23.9269,-29.4683,1022.6506],[23.9179,-29.4606,1022.4485],[23.916,-29.4542,1020.9673],[23.9174,-29.4386,1017.4379],[23.9231,-29.4278,1016.0089],[23.9305,-29.4191,1026.4238],[23.9321,-29.4145,1015.4596],[23.9316,-29.3981,1015.9453],[23.9291,-29.3893,1009.454],[23.9249,-29.387,1009.1191],[23.9207,-29.3781,1019.3909],[23.9037,-29.358,1013.8187],[23.8874,-29.3354,1007.9739],[23.8873,-29.3279,1004.353],[23.884,-29.3259,999.334],[23.8833,-29.3232,1003.3268],[23.8857,-29.3204,1017.3721],[23.8869,-29.3137,1000.4137],[23.8819,-29.3007,998.2017],[23.8717,-29.2964,1003.3107],[23.8657,-29.2877,996.8697],[23.8607,-29.2856,995.447],[23.8397,-29.2866,989.7655],[23.8249,-29.2897,990.2473],[23.8144,-29.2868,986.2073],[23.789,-29.2896,991.2772],[23.7801,-29.2864,1001.2765],[23.7744,-29.2712,986.0259],[23.7742,-29.2658,991.2954],[23.7788,-29.2438,982.75],[23.7851,-29.2329,983.9243],[23.7852,-29.2246,982.0],[23.7742,-29.2141,986.5137],[23.7662,-29.2004,983.4888],[23.7584,-29.1956,981.92],[23.7497,-29.1934,982.0093],[23.7237,-29.1966,981.6783],[23.7148,-29.194,981.2512],[23.7104,-29.1884,985.6721],[23.6994,-29.1643,978.125],[23.692,-29.1605,978.553],[23.6889,-29.1553,977.25],[23.6924,-29.1384,976.0],[23.7014,-29.1271,976.9229],[23.7006,-29.1191,974.9711],[23.7045,-29.111,982.1486],[23.7039,-29.1063,971.6096],[23.6914,-29.1049,971.3974],[23.6394,-29.074,968.5],[23.6299,-29.073,968.7043],[23.6179,-29.0804,967.0],[23.6145,-29.0862,966.75],[23.6171,-29.0979,966.0],[23.6238,-29.1133,969.0651],[23.6238,-29.1167,968.9529],[23.6182,-29.1261,965.3538],[23.618,-29.129,968.3169],[23.6062,-29.1392,965.6592],[23.5901,-29.1576,963.9703],[23.5731,-29.1847,968.5303],[23.5639,-29.1907,957.0],[23.5568,-29.1999,959.7289],[23.5472,-29.2058,958.1639],[23.5048,-29.2141,957.2338],[23.5017,-29.2178,957.1829],[23.5006,-29.2236,970.7324],[23.4972,-29.2262,956.0],[23.4881,-29.2406,957.2596],[23.5145,-29.3059,1039.5618],[23.4473,-29.3146,1028.6396],[23.4438,-29.3226,1029.0653],[23.4193,-29.3046,1040.967],[23.409,-29.3458,1059.3973],[23.3627,-29.392,1079.9521],[23.3601,-29.4152,1071.9359],[23.3645,-29.4527,1065.6503],[23.3041,-29.4724,1035.6443],[23.2792,-29.4761,1077.4189],[23.2278,-29.5374,1078.6198],[23.2322,-29.5714,1061.0382],[23.2315,-29.6042,1046.5686],[23.2331,-29.6387,1038.4427],[23.2558,-29.6253,1068.5022],[23.2999,-29.6513,1045.8927],[23.2908,-29.7008,1036.9514],[23.3419,-29.731,1060.7131],[23.2829,-29.7907,1022.5275],[23.2938,-29.809,1023.4501],[23.3399,-29.8188,1032.0022],[23.3249,-29.8434,1047.4722],[23.3453,-29.8964,1075.0554],[23.29,-29.9005,1024.7065],[23.2395,-29.902,1019.6284],[23.2917,-29.9685,1036.4822],[23.2598,-30.017,1004.7021],[23.2961,-29.994,1027.6621],[23.3258,-30.0289,1068.8868],[23.3529,-30.0661,1024.9296],[23.371,-30.0737,1028.7179],[23.3774,-30.0607,1025.6248],[23.4337,-30.0616,1034.5397],[23.45,-30.1195,1115.5309],[23.473,-30.0741,1050.4817],[23.4742,-30.054,1041.8582],[23.4804,-30.0573,1043.079],[23.4978,-30.0586,1044.6635],[23.505,-30.0653,1046.5464],[23.506,-30.069,1046.6216],[23.5114,-30.0709,1047.4827],[23.5133,-30.0737,1048.1603],[23.5228,-30.0771,1049.345],[23.5233,-30.0799,1050.2673],[23.5333,-30.0882,1051.4351],[23.5363,-30.1088,1131.5862],[23.5569,-30.1021,1055.6738],[23.6054,-30.1122,1105.6553],[23.6425,-30.1444,1123.1958],[23.6628,-30.108,1115.7695],[23.6861,-30.0901,1095.8511],[23.714,-30.1202,1145.1525],[23.7763,-30.103,1100.3939],[23.7899,-30.1403,1197.0625],[23.8206,-30.1412,1168.3134],[23.842,-30.195,1146.1465]]]]}
,"properties": {"GID_3": "ZAF.8.4.6_1","GID_0": "ZAF","country": "SouthAfrica","GID_1": "ZAF.8_1","province": "NorthernCape","NL_NAME_1": "NA","GID_2": "ZAF.8.4_1","county": "PixleykaSeme","NL_NAME_2": "NA","city": "Thembelihle","VARNAME_3": "NA","NL_NAME_3": "NA","TYPE_3": "LocalMunicipality","ENGTYPE_3": "LocalMunicipality","CC_3": "NC076","HASC_3": "NA","name": "Thembelihle.city","area_km2": 8032.971,"hist_schema_id": "Elevation0-9000","hist_area_km2": {"950": 1.758,"975": 28.924,"1000": 105.77,"1025": 380.138,"1050": 631.09,"1075": 1016.26,"1100": 1629.404,"1125": 1349.389,"1150": 1242.444,"1175": 993.655,"1200": 494.394,"1225": 116.975,"1250": 32.02,"1275": 8.632,"1300": 2.098}}}