{"type": "Feature","bbox": [25.3235,-28.5889,26.4682,-27.5664],"geometry": {"type": "MultiPolygon","coordinates": [[[[26.2185,-28.5077,1357.9882],[26.2118,-28.5063,1353.0278],[26.2191,-28.4688,1386.2465],[26.2457,-28.4897,1394.2188],[26.2551,-28.4862,1411.3997],[26.288,-28.4686,1400.0315],[26.3202,-28.4197,1379.9509],[26.3547,-28.4051,1369.8213],[26.3855,-28.3946,1363.3289],[26.4224,-28.4268,1312.8536],[26.4296,-28.4356,1337.9531],[26.4358,-28.4357,1340.8672],[26.4301,-28.4034,1342.7137],[26.4235,-28.4042,1351.7561],[26.4025,-28.3876,1362.2419],[26.4263,-28.3779,1357.9102],[26.433,-28.3769,1369.7823],[26.4098,-28.3742,1374.9302],[26.4128,-28.3613,1365.9045],[26.4263,-28.3633,1348.994],[26.4348,-28.369,1348.6896],[26.4422,-28.3376,1335.6476],[26.4185,-28.3339,1356.9037],[26.4168,-28.3417,1354.0647],[26.4057,-28.3361,1368.641],[26.4081,-28.3254,1375.5134],[26.42,-28.3269,1358.7402],[26.4231,-28.3127,1346.3934],[26.4071,-28.3125,1368.1259],[26.4054,-28.292,1341.4404],[26.396,-28.2917,1346.1678],[26.4062,-28.274,1326.9092],[26.4086,-28.2595,1315.5325],[26.425,-28.2614,1313.4016],[26.427,-28.2673,1316.8917],[26.4455,-28.2624,1307.1095],[26.4415,-28.2508,1301.5332],[26.4231,-28.2557,1307.5133],[26.4203,-28.2475,1304.861],[26.411,-28.2454,1305.5496],[26.417,-28.2298,1301.5643],[26.4363,-28.2356,1300.2979],[26.4436,-28.2314,1295.9875],[26.4438,-28.2244,1294.9893],[26.4559,-28.2185,1271.3425],[26.4566,-28.2238,1271.6593],[26.4654,-28.2187,1271.4635],[26.4682,-28.2134,1270.9834],[26.4653,-28.2117,1270.6498],[26.4615,-28.2125,1271.3671],[26.4628,-28.2081,1271.8613],[26.4557,-28.2028,1271.3754],[26.4562,-28.1937,1270.004],[26.4546,-28.1922,1269.0927],[26.4505,-28.1922,1268.7407],[26.4489,-28.1871,1267.9456],[26.4423,-28.1836,1268.45],[26.4459,-28.1757,1268.1794],[26.4441,-28.1721,1268.6626],[26.4394,-28.1692,1268.3374],[26.4461,-28.1664,1269.6879],[26.4222,-28.1534,1266.5674],[26.4217,-28.1488,1266.1195],[26.4172,-28.1431,1266.0143],[26.4118,-28.1318,1266.1425],[26.4156,-28.1283,1265.6759],[26.4226,-28.1261,1268.7646],[26.4083,-28.1239,1264.8341],[26.4176,-28.1179,1265.5295],[26.4167,-28.1134,1264.7517],[26.4198,-28.1098,1264.5164],[26.4164,-28.1072,1265.027],[26.4118,-28.1079,1263.5083],[26.4095,-28.1058,1264.2223],[26.4134,-28.1014,1263.5306],[26.4172,-28.1007,1265.1511],[26.4164,-28.0966,1264.3087],[26.4116,-28.0979,1264.3098],[26.41,-28.0963,1264.6414],[26.4121,-28.0937,1265.7865],[26.4142,-28.0947,1265.5831],[26.4145,-28.0918,1265.0404],[26.4118,-28.0909,1265.5536],[26.4101,-28.0925,1264.0598],[26.406,-28.0908,1264.8657],[26.4067,-28.0874,1263.0754],[26.4103,-28.0848,1263.2576],[26.4099,-28.0781,1266.0098],[26.4081,-28.0748,1263.6744],[26.4056,-28.0739,1264.2673],[26.4056,-28.0755,1265.3259],[26.3848,-28.0778,1261.7164],[26.3817,-28.0866,1262.2225],[26.376,-28.0905,1273.4883],[26.3739,-28.0884,1275.8322],[26.368,-28.087,1273.1134],[26.3658,-28.0914,1278.0508],[26.3667,-28.0891,1275.2957],[26.3609,-28.0891,1276.1307],[26.3654,-28.0792,1268.6952],[26.3624,-28.079,1269.222],[26.3584,-28.0868,1275.8193],[26.3547,-28.086,1275.8323],[26.359,-28.0788,1269.355],[26.3476,-28.0751,1264.0963],[26.3339,-28.0958,1289.4536],[26.3434,-28.0619,1259.7319],[26.337,-28.0603,1260.266],[26.3344,-28.0523,1260.1006],[26.3254,-28.0492,1259.3699],[26.3251,-28.055,1259.5726],[26.3236,-28.0553,1260.5737],[26.32,-28.0531,1259.6646],[26.3193,-28.0498,1260.5228],[26.3117,-28.0462,1258.5472],[26.2957,-28.0437,1258.5227],[26.2993,-28.0305,1257.3173],[26.2843,-28.0327,1256.4576],[26.2763,-28.0278,1256.8589],[26.2769,-28.0247,1258.1741],[26.2733,-28.024,1256.5967],[26.2707,-28.0291,1256.4572],[26.2687,-28.0296,1257.9502],[26.2663,-28.0261,1256.636],[26.2578,-28.0243,1256.3549],[26.2554,-28.0221,1256.1796],[26.2403,-28.0248,1255.505],[26.2403,-28.0193,1255.2083],[26.2295,-28.0205,1254.8181],[26.2234,-28.0144,1254.6698],[26.2197,-28.0155,1253.92],[26.215,-28.0112,1254.342],[26.2064,-28.0122,1254.1125],[26.1987,-28.0041,1253.0266],[26.1969,-28.0041,1252.7451],[26.1953,-28.0073,1252.5974],[26.1893,-28.0032,1252.9597],[26.1882,-28.0013,1252.207],[26.2007,-27.9597,1269.7236],[26.1832,-27.9419,1271.1589],[26.2122,-27.9083,1271.1261],[26.2068,-27.9021,1273.24],[26.2216,-27.8879,1290.569],[26.2174,-27.8831,1288.7947],[26.1629,-27.8603,1269.1248],[26.1409,-27.8867,1267.7804],[26.1228,-27.8753,1269.6989],[26.131,-27.8575,1267.074],[26.1455,-27.8409,1269.9701],[26.1255,-27.8186,1268.3055],[26.1076,-27.7626,1257.5718],[26.0901,-27.7281,1240.9504],[26.0758,-27.7106,1226.5],[26.0625,-27.7207,1227.1552],[26.0477,-27.7255,1226.5],[26.0354,-27.7366,1226.5],[26.025,-27.7339,1227.0804],[26.0208,-27.7283,1226.5],[26.0127,-27.7223,1226.5],[26.0027,-27.7066,1226.5],[26.003,-27.7023,1227.1848],[26.0107,-27.6893,1226.5],[26.0077,-27.6773,1226.5],[26.0086,-27.6633,1226.5],[26.0053,-27.653,1226.5],[25.9931,-27.6417,1226.5],[25.9819,-27.6385,1226.5],[25.98,-27.6338,1226.5],[25.9819,-27.6272,1226.5],[25.9681,-27.625,1226.5],[25.9473,-27.6329,1226.5],[25.9403,-27.6149,1226.5],[25.932,-27.6064,1226.5],[25.9243,-27.6035,1226.5],[25.9157,-27.6057,1226.5],[25.9097,-27.6104,1226.5],[25.8957,-27.61,1226.5],[25.8951,-27.6147,1226.5],[25.8983,-27.6225,1227.4731],[25.8913,-27.6261,1226.5],[25.8724,-27.628,1226.5],[25.8581,-27.6238,1226.5],[25.8526,-27.621,1226.5],[25.8458,-27.61,1226.5],[25.8435,-27.6039,1226.5],[25.8467,-27.5953,1226.5],[25.8462,-27.5923,1226.5],[25.835,-27.5785,1226.5],[25.8328,-27.567,1226.5],[25.8285,-27.5664,1226.5],[25.8147,-27.5728,1226.5],[25.8048,-27.5831,1226.5],[25.7986,-27.5844,1226.5],[25.7882,-27.583,1226.5],[25.7814,-27.5841,1226.5],[25.764,-27.596,1226.5],[25.7495,-27.5998,1226.5],[25.7375,-27.6089,1226.5],[25.7279,-27.609,1226.5],[25.7099,-27.6245,1226.5],[25.6852,-27.6262,1226.5],[25.6789,-27.6296,1226.5],[25.6755,-27.6349,1226.5],[25.6784,-27.6408,1226.5],[25.6796,-27.6489,1226.5],[25.6767,-27.6592,1226.5],[25.6785,-27.677,1226.5],[25.6717,-27.6886,1226.5],[25.6647,-27.6938,1226.5],[25.6576,-27.6948,1226.5],[25.6415,-27.6864,1226.5],[25.633,-27.6761,1226.5],[25.6323,-27.6698,1226.5],[25.6308,-27.668,1226.5],[25.6275,-27.6672,1226.5],[25.6185,-27.6693,1226.5],[25.6104,-27.66,1211.9456],[25.6034,-27.6598,1218.6582],[25.5966,-27.6551,1210.157],[25.590699999999998,-27.6552,1210.121],[25.5847,-27.6587,1210.6232],[25.5724,-27.6775,1208.9214],[25.5558,-27.6867,1212.4297],[25.5132,-27.6948,1212.0985],[25.4948,-27.6939,1207.9626],[25.4879,-27.6919,1212.1199],[25.4809,-27.6925,1209.6251],[25.4747,-27.6989,1211.5498],[25.4733,-27.7068,1210.6992],[25.4693,-27.7106,1208.2982],[25.4653,-27.7096,1211.3345],[25.458,-27.7109,1208.7604],[25.4404,-27.7169,1210.5144],[25.424,-27.7156,1206.0],[25.4125,-27.7222,1210.6213],[25.3945,-27.7287,1210.8279],[25.3796,-27.7424,1207.6677],[25.364,-27.7505,1206.994],[25.3486,-27.772,1207.0078],[25.3448,-27.7849,1210.6113],[25.3408,-27.7926,1207.1162],[25.3374,-27.7935,1210.0946],[25.333,-27.7905,1205.0],[25.3235,-27.7938,1207.8475],[25.3492,-27.8502,1267.8215],[25.3978,-27.896,1273.2104],[25.4347,-27.9115,1274.2399],[25.4195,-27.9191,1276.3842],[25.4704,-27.952,1277.6875],[25.4688,-27.9607,1276.6382],[25.5068,-27.9598,1288.7834],[25.5175,-27.9864,1273.625],[25.6261,-28.0388,1293.5361],[25.6289,-28.0531,1301.2777],[25.5864,-28.1057,1305.4492],[25.6378,-28.1199,1309.3672],[25.6597,-28.1356,1320.3677],[25.6469,-28.1426,1321.9205],[25.707,-28.1278,1343.6912],[25.7337,-28.1782,1346.7885],[25.6878,-28.2142,1352.1343],[25.741,-28.2433,1317.8052],[25.752,-28.2404,1330.0974],[25.7641,-28.2531,1325.205],[25.7424,-28.2901,1300.2433],[25.7068,-28.2775,1294.915],[25.7204,-28.3295,1294.0146],[25.7083,-28.3333,1285.3778],[25.7257,-28.346,1268.5],[25.7233,-28.3612,1283.9457],[25.7254,-28.3697,1279.6313],[25.7313,-28.3708,1283.8423],[25.7484,-28.3952,1286.9658],[25.7649,-28.4148,1312.7024],[25.8067,-28.4493,1334.4351],[25.8242,-28.4538,1328.0795],[25.8434,-28.4799,1293.342],[25.8661,-28.4886,1312.5386],[25.8901,-28.4921,1283.2191],[25.9011,-28.4979,1308.3086],[25.8986,-28.5012,1290.9514],[25.9445,-28.5271,1317.6802],[25.9541,-28.5092,1342.0498],[25.9951,-28.4974,1357.4504],[25.9999,-28.5059,1374.3621],[26.0331,-28.5058,1350.7336],[26.0358,-28.5305,1332.6158],[26.0595,-28.5098,1329.8181],[26.0634,-28.541,1308.9271],[26.0379,-28.549,1314.0957],[26.0336,-28.5863,1300.4161],[26.0693,-28.5812,1318.1921],[26.0813,-28.5889,1323.5547],[26.0873,-28.5788,1321.1276],[26.1479,-28.5579,1337.6147],[26.153199999999998,-28.5399,1340.8333],[26.1663,-28.5465,1330.2382],[26.1835,-28.5232,1339.9093],[26.2011,-28.5309,1336.9141],[26.2185,-28.5077,1357.9882]]]]}
,"properties": {"GID_3": "ZAF.2.2.5_1","GID_0": "ZAF","country": "SouthAfrica","GID_1": "ZAF.2_1","province": "FreeState","NL_NAME_1": "NA","GID_2": "ZAF.2.2_1","county": "Lejweleputswa","NL_NAME_2": "NA","city": "Tswelopele","VARNAME_3": "NA","NL_NAME_3": "NA","TYPE_3": "LocalMunicipality","ENGTYPE_3": "LocalMunicipality","CC_3": "FS183","HASC_3": "NA","name": "Tswelopele.city","area_km2": 6533.744,"hist_schema_id": "Elevation0-9000","hist_area_km2": {"1200": 2.346,"1225": 338.253,"1250": 1114.647,"1275": 1615.096,"1300": 1360.696,"1325": 1041.272,"1350": 657.629,"1375": 351.664,"1400": 51.656,"1425": 0.466}}}