{"type":"Feature","properties":{"GID_3":"ZAF.8.2.1_1","GID_0":"ZAF","country":"SouthAfrica","GID_1":"ZAF.8_1","province":"NorthernCape","NL_NAME_1":"NA","GID_2":"ZAF.8.2_1","county":"JohnTaoloGaetsewe","NL_NAME_2":"NA","city":"Ga-Segonyana","VARNAME_3":"NA","NL_NAME_3":"NA","TYPE_3":"LocalMunicipality","ENGTYPE_3":"LocalMunicipality","CC_3":"NC452","HASC_3":"NA","name":"Ga-Segonyana.city"},
"geometry":{"type": "MultiPolygon","coordinates": [[[[23.7151,-27.8186,1523.9202],[23.8787,-27.7843,1478.5315],[24.111,-27.739,1415.229],[24.0933,-27.7049,1424.0906],[24.1051,-27.6515,1435.1294],[24.1186,-27.6217,1424.7668],[24.0506,-27.6027,1451.9398],[24.0492,-27.5586,1488.5265],[24.0553,-27.5079,1472.2528],[24.0522,-27.4627,1465.8923],[24.0575,-27.4294,1466.799],[24.0863,-27.3535,1455.2946],[24.0724,-27.3556,1456.4553],[24.0639,-27.3532,1456.2434],[24.0149,-27.3237,1441.8986],[23.987,-27.3646,1452.0739],[24.0005,-27.3708,1454.4965],[23.9921,-27.3927,1462.9696],[24.0019,-27.42,1466.9333],[23.9745,-27.408,1464.8003],[23.973,-27.4201,1464.8705],[23.9366,-27.4108,1460.7185],[23.918,-27.3931,1457.947],[23.8842,-27.4487,1459.4033],[23.896,-27.4629,1466.4883],[23.935,-27.4757,1484.6747],[23.9215,-27.4943,1476.087],[23.9016,-27.4959,1473.7413],[23.9041,-27.491,1472.4196],[23.873,-27.4702,1460.5497],[23.8629,-27.4894,1464.6138],[23.8146,-27.4788,1451.7324],[23.7671,-27.5532,1489.5933],[23.7251,-27.5306,1467.0966],[23.6715,-27.5161,1444.752],[23.6314,-27.4943,1435.5419],[23.6108,-27.4724,1421.1082],[23.6087,-27.4286,1390.0724],[23.583,-27.3807,1347.7203],[23.5676,-27.3815,1343.5581],[23.5651,-27.3353,1315.5402],[23.5257,-27.3421,1315.882],[23.4777,-27.2916,1278.2346],[23.3955,-27.3002,1258.2798],[23.3322,-27.2523,1219.4583],[23.2903,-27.2163,1196.1621],[23.1781,-27.1358,1118.615],[23.1541,-27.1572,1118.2537],[23.1169,-27.2011,1300.6373],[23.1324,-27.237,1241.4734],[23.1583,-27.2549,1231.1831],[23.1839,-27.2925,1347.7235],[23.2293,-27.3418,1320.6091],[23.2504,-27.3608,1267.2225],[23.2885,-27.368,1289.4972],[23.3136,-27.3519,1403.2938],[23.3272,-27.3675,1316.5261],[23.355,-27.3762,1310.0242],[23.3438,-27.387,1524.6274],[23.342,-27.4152,1590.6123],[23.3727,-27.4645,1359.9672],[23.3433,-27.4776,1476.585],[23.3074,-27.5147,1434.5139],[23.2649,-27.5191,1295.6046],[23.2741,-27.6613,1315.0837],[23.2886,-27.7142,1443.7743],[23.1603,-27.7285,1338.0891],[23.109,-27.7961,1241.3191],[23.0855,-27.8448,1252.9652],[23.0985,-27.8916,1268.2402],[23.1118,-27.9628,1304.7643],[23.2203,-27.9543,1312.246],[23.2668,-27.9466,1391.9375],[23.3044,-27.9365,1411.6895],[23.3496,-27.9019,1361.9907],[23.362,-27.9422,1391.6731],[23.4165,-27.9158,1425.9573],[23.4439,-27.9552,1492.0299],[23.5555,-27.8975,1842.5104],[23.6441,-27.8335,1544.4741],[23.7151,-27.8186,1523.9202]]]]}}