{"type":"Feature","properties":{"GID_3":"ZAF.1.6.2_1","GID_0":"ZAF","country":"SouthAfrica","GID_1":"ZAF.1_1","province":"EasternCape","NL_NAME_1":"NA","GID_2":"ZAF.1.6_1","county":"JoeGqabi","NL_NAME_2":"NA","city":"Gariep","VARNAME_3":"NA","NL_NAME_3":"NA","TYPE_3":"LocalMunicipality","ENGTYPE_3":"LocalMunicipality","CC_3":"EC144","HASC_3":"NA","name":"Gariep.city"},
"geometry":{"type": "MultiPolygon","coordinates": [[[[26.6661,-31.2044,1889.2651],[26.7334,-31.1704,1935.4263],[26.7397,-31.1143,1832.7302],[26.7666,-31.117,1902.8337],[26.775,-31.1032,1837.7703],[26.7642,-31.0823,1842.261],[26.7402,-31.0793,1844.3289],[26.7187,-31.0888,1874.6583],[26.6883,-31.0903,1906.353],[26.685,-31.0764,1997.0106],[26.6861,-31.0634,1955.692],[26.715699999999998,-31.046,1812.8046],[26.708,-31.028,1732.8223],[26.6631,-31.0196,1791.3798],[26.6522,-30.9983,1876.6995],[26.6446,-30.9928,1662.9491],[26.6369,-30.9784,1617.0808],[26.655,-30.9529,1994.7042],[26.6567,-30.9389,1638.4839],[26.6465,-30.9331,1692.684],[26.6189,-30.9454,1475.104],[26.6064,-30.9387,1463.6831],[26.6049,-30.9229,1464.0303],[26.6136,-30.9182,1478.4387],[26.6088,-30.9126,1494.4917],[26.604,-30.9173,1475.873],[26.5973,-30.8847,1607.1711],[26.5655,-30.8769,1466.286],[26.5627,-30.832,1511.9249],[26.5581,-30.8268,1482.1078],[26.5888,-30.8157,1725.0227],[26.5658,-30.7971,1886.833],[26.5025,-30.7993,1420.3379],[26.4685,-30.8021,1349.6614],[26.4615,-30.7838,1340.8284],[26.4213,-30.7767,1316.6909],[26.4329,-30.7611,1314.8478],[26.4316,-30.7565,1311.5159],[26.4328,-30.7497,1313.4462],[26.4395,-30.748,1314.7759],[26.4521,-30.7274,1308.2662],[26.4425,-30.7176,1307.1776],[26.4405,-30.7109,1306.2803],[26.4328,-30.7099,1305.2555],[26.4308,-30.7083,1303.0579],[26.4308,-30.7068,1307.2302],[26.4338,-30.7053,1304.9033],[26.448,-30.7078,1306.1702],[26.4516,-30.707,1321.0985],[26.4529,-30.7051,1301.066],[26.4519,-30.7028,1310.3063],[26.4449,-30.7012,1303.0361],[26.4403,-30.6975,1298.6866],[26.4393,-30.6938,1307.8181],[26.435,-30.6889,1292.4048],[26.4365,-30.6812,1295.1272],[26.4413,-30.6771,1291.2418],[26.4494,-30.6761,1288.6639],[26.4499,-30.6743,1290.4666],[26.4578,-30.6691,1288.8446],[26.4738,-30.6676,1287.8358],[26.4732,-30.6602,1289.4487],[26.4649,-30.6503,1285.0471],[26.4738,-30.6348,1284.0481],[26.4861,-30.6352,1283.006],[26.487,-30.6341,1283.8416],[26.4852,-30.6304,1278.5],[26.4809,-30.6271,1279.6045],[26.4806,-30.6231,1278.0],[26.49,-30.6,1280.4987],[26.4894,-30.5938,1278.0433],[26.4873,-30.5916,1277.0],[26.4789,-30.5893,1277.5012],[26.4606,-30.5783,1273.0],[26.4501,-30.5697,1271.0],[26.4293,-30.5655,1269.5],[26.4179,-30.5664,1270.8203],[26.4016,-30.5716,1269.0],[26.3956,-30.5778,1270.1667],[26.3897,-30.5815,1272.0786],[26.3719,-30.5818,1268.0],[26.3616,-30.5928,1267.0],[26.356,-30.595,1267.0],[26.344,-30.5937,1266.5],[26.3164,-30.5825,1269.0974],[26.3092,-30.584,1266.395],[26.2913,-30.5917,1264.5],[26.2815,-30.5901,1264.0],[26.2768,-30.5866,1264.0],[26.2804,-30.5814,1269.022],[26.2805,-30.5781,1275.6416],[26.2696,-30.5715,1269.2023],[26.2653,-30.5663,1263.0],[26.2651,-30.5494,1265.1307],[26.2631,-30.543,1262.5],[26.2563,-30.5394,1264.0347],[26.2298,-30.5354,1262.3972],[26.2186,-30.5317,1263.1196],[26.2063,-30.5336,1261.5],[26.1987,-30.5323,1263.3595],[26.1938,-30.528,1261.5],[26.1962,-30.5114,1263.2025],[26.1933,-30.5029,1261.7498],[26.1802,-30.4918,1261.5483],[26.1725,-30.4873,1261.6517],[26.1631,-30.4835,1260.0],[26.1531,-30.4834,1260.0],[26.1471,-30.4846,1260.0],[26.1401,-30.4887,1263.8901],[26.133,-30.4952,1260.8318],[26.1301,-30.5001,1262.1628],[26.1301,-30.5049,1261.528],[26.1319,-30.5074,1262.8372],[26.1367,-30.5098,1261.4854],[26.1435,-30.5104,1261.298],[26.1487,-30.5175,1262.4294],[26.1493,-30.5359,1262.0608],[26.1421,-30.5402,1260.4395],[26.1341,-30.5406,1259.0],[26.1182,-30.5354,1261.2172],[26.1084,-30.5214,1258.5],[26.0974,-30.5165,1258.9163],[26.0696,-30.5235,1258.0],[26.052,-30.5227,1258.0],[26.0295,-30.5321,1258.9365],[25.9991,-30.5369,1258.0],[25.977,-30.5382,1258.0],[25.9552,-30.5471,1258.0],[25.9438,-30.5569,1258.0],[25.9406,-30.5649,1258.0],[25.9413,-30.5796,1258.0],[25.9377,-30.5836,1258.0],[25.931,-30.585,1258.0],[25.923,-30.5813,1258.0],[25.9227,-30.579,1258.0],[25.9268,-30.5713,1258.0],[25.9238,-30.5644,1258.0],[25.9027,-30.5428,1258.0],[25.8952,-30.5406,1258.0],[25.8849,-30.5442,1258.0],[25.873,-30.5574,1258.0],[25.8718,-30.5622,1258.0],[25.8748,-30.5728,1258.0],[25.892,-30.5968,1258.0],[25.8932,-30.6045,1258.0],[25.891,-30.6103,1258.0],[25.8873,-30.6122,1258.0],[25.8724,-30.6107,1258.0],[25.8606,-30.6129,1258.0],[25.8562,-30.6175,1258.0],[25.8512,-30.6293,1258.0],[25.8467,-30.6336,1258.0],[25.8338,-30.6324,1258.0],[25.819,-30.635,1258.0],[25.8003,-30.6347,1258.0],[25.793,-30.6371,1258.0],[25.7831,-30.6452,1258.0],[25.7808,-30.649,1258.0],[25.7791,-30.6566,1258.0],[25.7789,-30.6759,1258.0],[25.7769,-30.6816,1258.0],[25.7715,-30.686,1258.0],[25.7642,-30.6885,1258.0],[25.7568,-30.6875,1258.0],[25.7498,-30.6825,1258.0],[25.7166,-30.6825,1258.0],[25.7006,-30.6796,1258.0],[25.6932,-30.6761,1258.0],[25.6797,-30.6662,1258.0],[25.6801,-30.6598,1258.0],[25.6854,-30.6506,1258.0],[25.6853,-30.6471,1258.0],[25.6755,-30.6401,1258.0],[25.6716,-30.6409,1258.0],[25.654,-30.6524,1258.0],[25.6417,-30.6577,1258.0],[25.6298,-30.6593,1258.0],[25.6137,-30.656,1258.0],[25.6101,-30.653,1258.0],[25.6094,-30.6498,1258.0],[25.6229,-30.6324,1258.0],[25.6248,-30.6243,1258.0],[25.6185,-30.6205,1258.0],[25.613,-30.6135,1258.0],[25.6031,-30.5944,1258.0],[25.5954,-30.5901,1258.0],[25.5896,-30.5916,1258.0],[25.5746,-30.6088,1258.0],[25.564,-30.6158,1258.0],[25.5563,-30.6166,1258.0],[25.5385,-30.6134,1258.0],[25.5256,-30.6139,1258.0],[25.5169,-30.617,1258.0],[25.5037,-30.625,1200.8928],[25.4878,-30.6292,1196.4496],[25.4746,-30.635,1214.2603],[25.4682,-30.6326,1193.457],[25.4671,-30.6243,1193.4626],[25.4625,-30.6281,1267.5371],[25.4565,-30.637,1234.1599],[25.4585,-30.6574,1337.2618],[25.4604,-30.6608,1330.8794],[25.4713,-30.6667,1373.6936],[25.4697,-30.6688,1371.2648],[25.4719,-30.6729,1346.7124],[25.4633,-30.6777,1294.4294],[25.4602,-30.6833,1317.7456],[25.4638,-30.6894,1323.0811],[25.4665,-30.7098,1361.4369],[25.4625,-30.7155,1418.9847],[25.4624,-30.7221,1350.4558],[25.4739,-30.7231,1431.483],[25.4764,-30.7282,1403.8873],[25.4772,-30.7385,1409.2241],[25.4739,-30.7437,1383.6884],[25.4799,-30.7598,1372.3005],[25.4802,-30.7789,1564.3147],[25.4864,-30.7845,1576.1497],[25.505,-30.7836,1341.8887],[25.5084,-30.7888,1355.2605],[25.5249,-30.7964,1341.1456],[25.5479,-30.7898,1315.4014],[25.5493,-30.791,1314.1473],[25.5216,-30.8332,1646.0088],[25.4852,-30.8498,1579.6438],[25.4713,-30.8698,1565.897],[25.5006,-30.888,1554.3239],[25.5084,-30.8982,1492.8271],[25.5165,-30.9026,1452.4563],[25.5178,-30.9015,1469.8131],[25.514,-30.9215,1508.8706],[25.5104,-30.9284,1503.6636],[25.5046,-30.933,1450.573],[25.5083,-30.9422,1418.8153],[25.5064,-30.9503,1425.7302],[25.511,-30.9557,1421.6273],[25.4931,-30.9677,1474.0555],[25.475,-30.9839,1471.2437],[25.4758,-30.9912,1478.9155],[25.4848,-31.0063,1475.2864],[25.5016,-31.0074,1491.2051],[25.4867,-31.0369,1537.8043],[25.4638,-31.0547,1610.9819],[25.4532,-31.0542,1554.201],[25.4388,-31.0615,1686.9421],[25.4543,-31.0793,1752.4609],[25.4464,-31.1002,1582.3335],[25.4156,-31.1344,1625.426],[25.3982,-31.1307,1699.9844],[25.3919,-31.1384,1541.8835],[25.3846,-31.151,1557.4521],[25.3778,-31.1989,1505.3514],[25.3825,-31.2045,1495.1744],[25.3862,-31.2178,1522.6426],[25.3898,-31.2128,1502.4637],[25.3988,-31.211,1495.5022],[25.4336,-31.2291,1407.4381],[25.4398,-31.2307,1385.7473],[25.4407,-31.2315,1396.2241],[25.4326,-31.2361,1367.9366],[25.439,-31.2414,1387.4945],[25.4386,-31.2466,1368.9492],[25.4403,-31.2466,1355.4731],[25.4484,-31.2562,1390.2953],[25.4646,-31.2565,1554.1987],[25.4749,-31.2492,1609.5115],[25.4708,-31.245,1589.141],[25.4794,-31.2372,1607.0967],[25.4972,-31.2346,1869.2723],[25.4941,-31.2431,1541.4534],[25.5207,-31.2682,1361.5457],[25.5575,-31.278,1640.4288],[25.5354,-31.2964,1344.1205],[25.5155,-31.3168,1286.1884],[25.4974,-31.3203,1267.2885],[25.4744,-31.3132,1357.4111],[25.4436,-31.3343,1341.7816],[25.4635,-31.352,1233.387],[25.5121,-31.346,1254.686],[25.5645,-31.3585,1288.3816],[25.583,-31.3449,1331.9495],[25.5917,-31.4189,1276.5544],[25.582,-31.4409,1207.2866],[25.5893,-31.4853,1196.411],[25.617,-31.4739,1169.9421],[25.6347,-31.48,1168.2219],[25.6323,-31.4778,1170.9137],[25.6327,-31.4741,1170.2502],[25.6483,-31.4649,1175.5032],[25.6471,-31.4644,1176.2664],[25.6494,-31.4625,1177.8903],[25.6485,-31.4584,1178.6304],[25.6512,-31.4539,1182.3845],[25.6513,-31.4488,1183.7761],[25.6657,-31.461,1183.5336],[25.6917,-31.4581,1193.129],[25.7061,-31.4751,1199.8622],[25.7234,-31.4731,1206.1416],[25.7332,-31.4551,1212.6793],[25.7687,-31.4462,1238.2704],[25.7687,-31.4441,1240.4214],[25.8139,-31.4622,1248.2305],[25.8124,-31.4671,1245.7861],[25.8152,-31.4627,1248.2305],[25.823,-31.4659,1253.749],[25.8426,-31.4606,1292.9271],[25.8566,-31.4537,1288.6172],[25.8742,-31.458,1452.1385],[25.887,-31.4637,1466.0486],[25.9205,-31.4722,1369.4777],[25.9231,-31.4675,1423.8187],[25.966,-31.4768,1366.6722],[25.9914,-31.4354,1719.0931],[25.9877,-31.4237,1896.9248],[26.0015,-31.4104,1778.7834],[26.0055,-31.3819,1727.7699],[25.9992,-31.3349,1964.1454],[26.0142,-31.3267,1913.4855],[26.0332,-31.3322,1996.6561],[26.1218,-31.2937,1552.6843],[26.1346,-31.2515,1683.6885],[26.1615,-31.2663,1539.5378],[26.2034,-31.2772,1551.7794],[26.237,-31.2243,1567.4976],[26.2989,-31.2169,1554.4236],[26.2975,-31.2332,1527.6044],[26.3028,-31.2328,1536.0071],[26.3009,-31.235,1530.8109],[26.3167,-31.2444,1622.8754],[26.3361,-31.2494,1629.4742],[26.3408,-31.2428,1702.4987],[26.3397,-31.2323,1804.6289],[26.3479,-31.2164,1600.0779],[26.3582,-31.2223,1521.5121],[26.362,-31.2163,1519.968],[26.3619,-31.2133,1513.6953],[26.3573,-31.2118,1522.9698],[26.3563,-31.2096,1518.0593],[26.3587,-31.1961,1509.0807],[26.368,-31.192,1512.6694],[26.3686,-31.186,1511.4458],[26.371,-31.1837,1516.8523],[26.3793,-31.1883,1630.3369],[26.4263,-31.1847,1531.1558],[26.4126,-31.2066,1685.9504],[26.4203,-31.213,1710.3687],[26.4271,-31.223,1702.6931],[26.521,-31.2073,1972.9055],[26.532,-31.2078,2021.3154],[26.5287,-31.2263,1951.4729],[26.5538,-31.2326,1955.2996],[26.558,-31.2385,1925.4397],[26.5773,-31.2197,1736.4016],[26.602,-31.2266,1973.1329],[26.6287,-31.2294,1932.1365],[26.6441,-31.2166,1924.3179],[26.6661,-31.2044,1889.2651]]]]}}