{"type":"Feature","properties":{"GID_2":"ZAF.7.3_1","GID_0":"ZAF","country":"SouthAfrica","GID_1":"ZAF.7_1","province":"NorthWest","NL_NAME_1":"NA","county":"DrRuthSegomotsiMompati","VARNAME_2":"NA","NL_NAME_2":"NA","TYPE_2":"DistrictMunicipality","ENGTYPE_2":"DistrictMunicipality","CC_2":"DC39","HASC_2":"ZA.NW.RM","name":"Dr_Ruth_Segomotsi_Mompati.county"},
"geometry":{"type": "MultiPolygon","coordinates": [[[[25.1326,-27.9361,1195.9291],[25.1309,-27.9291,1189.0],[25.1353,-27.924,1190.1714],[25.1404,-27.924,1190.3362],[25.1506,-27.9286,1190.5775],[25.1606,-27.9271,1190.4305],[25.1657,-27.9214,1190.4728],[25.1721,-27.9185,1189.9618],[25.1851,-27.9089,1189.5518],[25.193,-27.8933,1192.8069],[25.1977,-27.8885,1194.7192],[25.2067,-27.884,1196.0123],[25.2282,-27.8785,1203.0137],[25.2497,-27.8687,1201.8418],[25.2541,-27.8651,1206.8877],[25.2575,-27.8602,1202.3511],[25.2577,-27.8551,1204.5826],[25.2422,-27.8437,1207.3049],[25.2382,-27.8375,1202.0],[25.2384,-27.8344,1204.3973],[25.2441,-27.8292,1204.7855],[25.2536,-27.8262,1210.1909],[25.2606,-27.822,1206.2561],[25.2688,-27.8025,1205.2562],[25.2726,-27.798,1212.7208],[25.2787,-27.7951,1208.2659],[25.3015,-27.7932,1208.722],[25.3151,-27.7957,1206.177],[25.333,-27.7905,1205.0],[25.3374,-27.7935,1210.0946],[25.3404,-27.793,1211.7615],[25.3448,-27.7849,1210.6113],[25.3486,-27.772,1207.0078],[25.364,-27.7505,1206.994],[25.3796,-27.7424,1207.6677],[25.3945,-27.7287,1210.8279],[25.4125,-27.7222,1210.6213],[25.424,-27.7156,1206.0],[25.4404,-27.7169,1210.5144],[25.458,-27.7109,1208.7604],[25.4653,-27.7096,1211.3345],[25.4693,-27.7106,1208.2982],[25.4733,-27.7068,1210.6992],[25.4747,-27.6989,1211.5498],[25.4809,-27.6925,1209.6251],[25.4879,-27.6919,1212.1199],[25.4948,-27.6939,1207.9626],[25.5132,-27.6948,1212.0985],[25.5558,-27.6867,1212.4297],[25.5724,-27.6775,1208.9214],[25.5847,-27.6587,1210.6232],[25.5919,-27.6549,1213.312],[25.5977,-27.6555,1209.9106],[25.6034,-27.6598,1218.6582],[25.6104,-27.66,1211.9456],[25.6185,-27.6693,1226.5],[25.6275,-27.6672,1226.5],[25.6308,-27.668,1226.5],[25.6323,-27.6698,1226.5],[25.633,-27.6761,1226.5],[25.6415,-27.6864,1226.5],[25.6574,-27.6947,1226.5],[25.6639,-27.6942,1226.5],[25.6717,-27.6886,1226.5],[25.6785,-27.677,1226.5],[25.6767,-27.6592,1226.5],[25.6796,-27.6489,1226.5],[25.6784,-27.6408,1226.5],[25.6755,-27.6349,1226.5],[25.6789,-27.6296,1226.5],[25.6852,-27.6262,1226.5],[25.7099,-27.6245,1226.5],[25.7279,-27.609,1226.5],[25.7375,-27.6089,1226.5],[25.7495,-27.5998,1226.5],[25.764,-27.596,1226.5],[25.7814,-27.5841,1226.5],[25.7882,-27.583,1226.5],[25.7986,-27.5844,1226.5],[25.8048,-27.5831,1226.5],[25.8147,-27.5728,1226.5],[25.8302,-27.5662,1226.5],[25.8348,-27.5118,1258.8647],[25.7537,-27.5345,1256.9673],[25.743,-27.4861,1269.1433],[25.7383,-27.4842,1270.6912],[25.7387,-27.4692,1274.5348],[25.805,-27.4464,1284.0566],[25.797,-27.3906,1298.5382],[25.7681,-27.3941,1299.0891],[25.7214,-27.3793,1307.9298],[25.7023,-27.375,1310.993],[25.7596,-27.3633,1309.9617],[25.761,-27.3675,1308.7729],[25.8248,-27.363,1306.4181],[25.806,-27.2906,1338.6379],[25.7776,-27.2549,1340.4438],[25.7723,-27.2093,1351.1322],[25.7016,-27.2232,1344.4998],[25.6803,-27.1622,1378.4006],[25.6437,-27.1719,1388.4319],[25.6479,-27.1808,1387.4384],[25.6341,-27.1863,1385.5193],[25.6286,-27.176,1387.0618],[25.6101,-27.1763,1369.0264],[25.6163,-27.1429,1388.6436],[25.6616,-27.1095,1410.4669],[25.6871,-27.098,1413.8502],[25.6831,-27.0735,1401.9958],[25.6571,-27.0335,1371.2422],[25.6322,-26.9886,1394.1038],[25.6446,-26.9845,1396.009],[25.6371,-26.9712,1400.355],[25.646,-26.9614,1404.6168],[25.6656,-26.9627,1405.1208],[25.6658,-26.8991,1393.2529],[25.6109,-26.9231,1375.998],[25.6305,-26.8585,1371.4875],[25.6045,-26.9065,1372.6782],[25.5693,-26.9363,1380.1884],[25.4834,-26.9203,1327.4865],[25.4926,-26.9179,1328.0796],[25.3985,-26.8553,1354.8358],[25.3208,-26.8863,1369.2117],[25.2575,-26.8022,1372.4518],[25.2255,-26.8324,1357.1675],[25.1804,-26.8687,1332.6765],[25.0984,-26.8906,1285.6843],[25.0938,-26.8846,1285.329],[25.0963,-26.8736,1289.423],[25.0994,-26.8355,1302.2933],[25.1078,-26.8192,1307.1058],[25.1109,-26.8081,1310.062],[25.1237,-26.7927,1313.7761],[25.1331,-26.7718,1321.7102],[25.1343,-26.7607,1327.0538],[25.1418,-26.7426,1334.9384],[25.1476,-26.714,1345.7825],[25.1526,-26.7077,1348.9279],[25.1688,-26.6766,1361.4612],[25.1787,-26.6625,1368.1976],[25.1743,-26.6529,1366.4594],[25.1628,-26.6047,1370.0724],[25.1696,-26.5844,1373.0216],[25.1688,-26.5635,1370.0715],[25.177,-26.559,1369.2771],[25.1697,-26.5199,1359.9016],[25.0957,-26.5356,1370.271],[25.0662,-26.5503,1357.5128],[25.0407,-26.5014,1354.8856],[25.0701,-26.4862,1366.422],[25.0455,-26.4364,1300.626],[25.0259,-26.4478,1317.4408],[24.9912,-26.3909,1296.3456],[24.9661,-26.4044,1290.5656],[24.9302,-26.4206,1302.1954],[24.9007,-26.3634,1260.1787],[24.8578,-26.395,1285.8892],[24.8523,-26.3813,1273.7874],[24.8336,-26.3829,1268.0732],[24.8358,-26.3707,1261.9841],[24.8476,-26.3681,1258.4404],[24.8317,-26.327,1267.1361],[24.8048,-26.2769,1257.8835],[24.7892,-26.2437,1238.5841],[24.7642,-26.2052,1208.9993],[24.8171,-26.1988,1231.8193],[24.8041,-26.1583,1212.4843],[24.7625,-26.0933,1158.691],[24.7452,-26.063,1174.5325],[24.7339,-26.0396,1169.2294],[24.7101,-26.012,1161.5605],[24.6539,-25.9593,1144.5961],[24.6392,-25.9343,1137.7871],[24.667,-25.9212,1132.3342],[24.4651,-25.7902,1111.5413],[24.4853,-25.7494,1081.1333],[24.4719,-25.7472,1080.0667],[24.4706,-25.746,1079.7272],[24.4708,-25.7403,1080.803],[24.4687,-25.7381,1081.1577],[24.4651,-25.7379,1082.173],[24.463,-25.7426,1080.283],[24.4595,-25.7432,1078.7656],[24.4543,-25.7406,1079.4534],[24.4481,-25.7339,1078.1702],[24.4446,-25.734,1079.027],[24.4439,-25.7393,1077.792],[24.4414,-25.7409,1077.439],[24.4354,-25.7342,1077.1516],[24.4333,-25.7339,1077.0454],[24.4322,-25.7354,1077.0697],[24.4326,-25.7452,1077.3516],[24.4296,-25.7495,1078.4861],[24.4236,-25.7515,1079.2433],[24.4119,-25.7461,1075.1473],[24.4072,-25.746,1076.6482],[24.4044,-25.7491,1078.1931],[24.4035,-25.761,1078.5436],[24.4003,-25.7626,1075.5295],[24.3966,-25.7613,1074.6454],[24.3924,-25.7549,1075.4138],[24.3867,-25.7577,1073.385],[24.3808,-25.7649,1074.3093],[24.3564,-25.7579,1072.6025],[24.3502,-25.75,1076.6254],[24.3394,-25.7456,1072.3105],[24.333,-25.7374,1071.0732],[24.3242,-25.7317,1070.4163],[24.3224,-25.7247,1070.0863],[24.3237,-25.7197,1073.8564],[24.3279,-25.7144,1069.795],[24.3264,-25.7109,1070.5793],[24.3224,-25.7106,1070.2468],[24.3149,-25.714,1069.0114],[24.3008,-25.7142,1069.5554],[24.2884,-25.7262,1068.8514],[24.2857,-25.7267,1069.5548],[24.2793,-25.7187,1067.6008],[24.2783,-25.7143,1066.155],[24.2832,-25.7094,1067.0446],[24.291,-25.7068,1068.2449],[24.2907,-25.6985,1069.4496],[24.2884,-25.6943,1067.0671],[24.2847,-25.6932,1068.1324],[24.2787,-25.6967,1064.4989],[24.2731,-25.7052,1065.6486],[24.2702,-25.7067,1066.4039],[24.2659,-25.7082,1066.9],[24.2609,-25.7073,1064.8058],[24.2589,-25.7027,1063.5707],[24.2607,-25.6919,1063.3152],[24.2473,-25.6848,1063.4495],[24.2516,-25.6746,1061.0886],[24.2474,-25.6721,1062.1094],[24.242,-25.6731,1065.6058],[24.2366,-25.67,1066.2147],[24.2338,-25.6626,1060.4912],[24.2265,-25.6558,1064.7236],[24.2278,-25.6474,1060.6147],[24.2268,-25.644,1060.4319],[24.2151,-25.6442,1059.9001],[24.2074,-25.6322,1058.3615],[24.2001,-25.6292,1059.7878],[24.1951,-25.6218,1056.8789],[24.1918,-25.6204,1057.349],[24.1845,-25.6212,1057.3218],[24.1795,-25.6268,1056.8516],[24.1708,-25.6311,1057.8671],[24.1595,-25.6301,1056.7866],[24.1569,-25.6254,1057.1125],[24.1623,-25.6183,1055.3284],[24.1631,-25.6152,1057.3813],[24.1606,-25.6106,1055.3428],[24.1571,-25.6082,1056.3105],[24.1527,-25.6085,1054.5406],[24.1406,-25.6142,1054.9229],[24.139,-25.6164,1055.3862],[24.1407,-25.6252,1059.2415],[24.1386,-25.6281,1056.0977],[24.1264,-25.6278,1054.2595],[24.115,-25.6317,1054.0496],[24.1043,-25.6304,1053.2155],[24.0929,-25.6352,1052.3853],[24.0858,-25.6434,1053.295],[24.0808,-25.641,1055.8629],[24.0776,-25.6308,1051.1587],[24.0738,-25.6297,1052.2076],[24.0677,-25.631,1050.8866],[24.0643,-25.6352,1053.0403],[24.0677,-25.6443,1051.0002],[24.0672,-25.6484,1050.2157],[24.0657,-25.6504,1050.5743],[24.0586,-25.6519,1050.2454],[24.0515,-25.6509,1049.3661],[24.0423,-25.645,1049.7397],[24.0357,-25.6369,1049.5778],[24.0299,-25.6343,1048.3218],[24.0267,-25.6364,1054.1497],[24.0274,-25.6423,1050.5397],[24.0258,-25.6447,1048.8103],[24.0171,-25.6457,1047.8242],[24.009,-25.6508,1047.5306],[24.0052,-25.6513,1049.7874],[24.0029,-25.6484,1047.8174],[24.003,-25.6346,1047.4207],[24.0123,-25.6287,1044.967],[24.012,-25.6245,1046.8137],[24.0037,-25.6202,1045.1433],[23.9838,-25.6216,1044.5791],[23.9774,-25.6161,1045.0546],[23.9726,-25.6148,1045.1401],[23.966,-25.6153,1043.1711],[23.961,-25.6233,1043.2637],[23.9529,-25.6216,1042.9736],[23.9508,-25.6228,1043.3376],[23.9522,-25.6334,1042.1604],[23.95,-25.6367,1044.3826],[23.9462,-25.6384,1043.006],[23.9357,-25.6369,1041.0168],[23.9286,-25.6382,1041.5812],[23.9185,-25.6295,1042.9103],[23.9045,-25.6275,1041.5764],[23.9016,-25.6224,1045.5724],[23.907,-25.6055,1038.8247],[23.9025,-25.602,1039.4177],[23.8882,-25.5986,1038.1719],[23.8828,-25.5949,1040.1987],[23.8807,-25.5914,1038.5154],[23.8822,-25.5819,1037.3356],[23.8802,-25.5774,1038.1649],[23.8678,-25.572,1039.0834],[23.8562,-25.5728,1037.4473],[23.8445,-25.5708,1037.4695],[23.8397,-25.5679,1036.6157],[23.8376,-25.5643,1036.8192],[23.8381,-25.5617,1039.0072],[23.8421,-25.5573,1039.4668],[23.8434,-25.552,1035.9358],[23.8352,-25.5411,1035.3882],[23.8306,-25.5415,1038.1053],[23.8245,-25.5484,1034.4463],[23.8205,-25.5506,1034.8462],[23.8161,-25.5502,1034.8771],[23.8085,-25.5452,1034.2762],[23.8055,-25.54,1035.1343],[23.8049,-25.5332,1036.0867],[23.8079,-25.5278,1032.8127],[23.8146,-25.5239,1034.6438],[23.8212,-25.5171,1034.3105],[23.821,-25.5129,1032.751],[23.8166,-25.5098,1033.6537],[23.8067,-25.5084,1032.874],[23.7994,-25.5092,1031.6226],[23.7921,-25.5123,1031.8682],[23.7855,-25.5125,1031.4728],[23.7764,-25.5037,1030.9548],[23.7629,-25.5032,1035.5441],[23.7611,-25.5004,1034.8259],[23.7635,-25.4899,1038.0974],[23.7605,-25.4866,1034.6758],[23.7532,-25.4837,1033.5767],[23.7514,-25.4816,1036.9294],[23.7522,-25.4769,1030.9149],[23.7575,-25.4721,1030.579],[23.758,-25.4687,1029.0172],[23.748,-25.4624,1028.8174],[23.7339,-25.4585,1029.1185],[23.729,-25.4464,1028.4045],[23.7222,-25.4462,1030.0012],[23.7093,-25.4599,1028.3085],[23.7025,-25.4624,1027.7438],[23.7011,-25.4601,1031.4375],[23.7019,-25.4512,1031.7616],[23.6963,-25.4456,1027.4164],[23.6896,-25.4437,1026.6986],[23.6796,-25.4474,1026.682],[23.672,-25.4459,1026.7338],[23.6667,-25.442,1030.0947],[23.6678,-25.4353,1026.8868],[23.6765,-25.4274,1024.8865],[23.6684,-25.4161,1027.238],[23.6595,-25.4154,1023.678],[23.6576,-25.4185,1029.019],[23.6574,-25.4271,1025.3673],[23.654,-25.4306,1025.3311],[23.6444,-25.4329,1026.7435],[23.6375,-25.4316,1025.019],[23.634,-25.4254,1023.4034],[23.6327,-25.4109,1030.8345],[23.6285,-25.4074,1023.6999],[23.6152,-25.4055,1022.2802],[23.6109,-25.4021,1023.7955],[23.6127,-25.3976,1025.949],[23.6182,-25.3937,1021.6655],[23.6203,-25.3899,1021.1926],[23.6192,-25.3864,1024.9773],[23.616,-25.3839,1022.364],[23.6066,-25.3817,1021.4635],[23.6026,-25.3846,1020.1385],[23.5988,-25.3951,1020.4631],[23.5949,-25.3969,1020.9041],[23.5893,-25.3965,1021.1039],[23.5861,-25.3948,1024.064],[23.5844,-25.3916,1024.457],[23.5844,-25.3756,1018.8301],[23.5674,-25.3699,1019.5992],[23.5573,-25.3717,1018.7013],[23.5562,-25.3666,1020.9628],[23.5614,-25.3577,1019.7441],[23.5596,-25.3547,1021.5591],[23.5484,-25.3521,1017.678],[23.5341,-25.3525,1016.5552],[23.5291,-25.3434,1016.7709],[23.524,-25.3401,1016.1845],[23.5016,-25.352,1015.3947],[23.4983,-25.3527,1015.1663],[23.4962,-25.3516,1018.3952],[23.4966,-25.3429,1014.5293],[23.5004,-25.3319,1020.3682],[23.4943,-25.3179,1025.1216],[23.4829,-25.3104,1015.3756],[23.4784,-25.2985,1012.6473],[23.4723,-25.2982,1014.4557],[23.4646,-25.301,1015.7458],[23.461,-25.3005,1013.465],[23.4581,-25.2977,1016.3193],[23.4579,-25.2943,1014.6497],[23.4681,-25.2802,1012.9186],[23.4658,-25.2768,1011.5428],[23.4483,-25.2749,1011.8815],[23.4422,-25.277,1010.6757],[23.4336,-25.2946,1011.9733],[23.4235,-25.3092,1010.5975],[23.4199,-25.3137,1013.2885],[23.4143,-25.3158,1012.6486],[23.4112,-25.315,1014.2851],[23.4035,-25.3072,1010.0624],[23.384,-25.3035,1009.3459],[23.3684,-25.3034,1016.6459],[23.3622,-25.2878,1007.8164],[23.3556,-25.2851,1008.4289],[23.3386,-25.2869,1007.8734],[23.3241,-25.2924,1006.641],[23.3197,-25.2896,1006.9375],[23.3155,-25.2827,1016.3701],[23.3113,-25.2818,1005.9688],[23.3089,-25.2828,1009.4807],[23.304,-25.2911,1006.2598],[23.295,-25.2941,1006.0082],[23.2897,-25.2911,1007.1512],[23.2849,-25.2796,1004.6238],[23.278,-25.2741,1005.1512],[23.26,-25.2797,1007.7544],[23.2476,-25.2754,1003.2653],[23.2346,-25.2808,1004.1826],[23.2176,-25.2739,1002.136],[23.212,-25.2734,1002.4879],[23.2066,-25.2762,1002.2886],[23.1943,-25.2769,1001.5743],[23.1875,-25.279,1002.0851],[23.1731,-25.2897,1000.4486],[23.1696,-25.2997,1009.1662],[23.1656,-25.3039,1000.4905],[23.148,-25.3032,1000.1683],[23.1426,-25.3082,1004.5847],[23.1388,-25.3148,1000.3711],[23.1345,-25.3174,999.6157],[23.1285,-25.3164,999.1222],[23.1136,-25.3036,998.9638],[23.1069,-25.3044,998.6886],[23.0978,-25.3112,998.2172],[23.0884,-25.3136,998.7205],[23.0879,-25.325,997.6678],[23.0843,-25.3296,998.562],[23.0787,-25.332,998.0903],[23.0664,-25.3296,998.4828],[23.0597,-25.326,995.8126],[23.0544,-25.3186,1000.15],[23.0561,-25.3119,998.3008],[23.062,-25.3034,996.9396],[23.0616,-25.2949,996.4612],[23.0584,-25.2899,994.3149],[23.0516,-25.2908,997.7463],[23.0448,-25.3014,1001.422],[23.0314,-25.3128,993.4808],[23.028199999999998,-25.3125,995.3664],[23.0278,-25.3102,1001.3151],[23.0155,-25.299,992.4844],[23.011,-25.2972,992.2593],[23.0078,-25.2982,992.3121],[23.0061,-25.3025,991.8979],[23.0066,-25.3081,991.1263],[23.0134,-25.3296,993.0302],[23.0113,-25.3359,990.4127],[23.0033,-25.3399,991.2405],[22.9881,-25.3381,990.1887],[22.9779,-25.3399,989.7087],[22.9727,-25.3472,991.3286],[22.9746,-25.3524,992.0717],[22.9737,-25.3587,989.7454],[22.9762,-25.3642,993.4453],[22.9764,-25.3707,992.5987],[22.97,-25.3811,986.571],[22.9309,-25.4064,988.8433],[22.9191,-25.4122,985.0365],[22.91,-25.4223,984.3377],[22.8986,-25.4551,983.4666],[22.8857,-25.4684,983.2329],[22.8881,-25.4771,982.6046],[22.9007,-25.4813,982.2948],[22.9004,-25.4869,981.8497],[22.8941,-25.4887,982.5822],[22.8825,-25.4839,981.7585],[22.8638,-25.4796,981.0364],[22.8515,-25.4841,986.0645],[22.8464,-25.4902,980.6562],[22.8477,-25.4966,980.7727],[22.8573,-25.5028,979.318],[22.8603,-25.507,982.6832],[22.852,-25.521,988.5174],[22.8535,-25.5335,978.5506],[22.8526,-25.5355,982.0065],[22.8401,-25.5447,977.9789],[22.8267,-25.5723,976.9852],[22.8148,-25.5788,979.7737],[22.8141,-25.5824,978.2924],[22.8182,-25.5863,980.253],[22.8264,-25.5895,985.3423],[22.8474,-25.6056,976.3649],[22.8535,-25.6116,976.2242],[22.8534,-25.6152,976.5355],[22.8478,-25.6214,976.2895],[22.8306,-25.6209,978.3251],[22.8044,-25.6299,974.5468],[22.8004,-25.6328,975.4796],[22.7995,-25.6352,975.3333],[22.8018,-25.6414,975.3323],[22.8083,-25.6509,974.9155],[22.8161,-25.6552,974.5261],[22.8277,-25.6551,973.6454],[22.8302,-25.6578,973.9645],[22.8303,-25.6624,973.1536],[22.8215,-25.6774,972.3207],[22.8215,-25.6905,973.1749],[22.7999,-25.7231,974.395],[22.7934,-25.7271,971.5574],[22.7732,-25.7302,970.8751],[22.7693,-25.7328,974.0422],[22.7663,-25.7398,971.0356],[22.7651,-25.7479,969.4849],[22.7634,-25.781,975.1904],[22.7593,-25.7887,969.2375],[22.7546,-25.7901,969.0629],[22.7385,-25.7878,972.0105],[22.7346,-25.7937,969.3517],[22.7382,-25.7983,968.239],[22.7511,-25.8062,967.3863],[22.7768,-25.8147,966.8629],[22.7801,-25.8187,970.1971],[22.7817,-25.8244,968.6838],[22.7814,-25.8288,967.0344],[22.7789,-25.8333,965.9037],[22.7719,-25.8411,967.2136],[22.7587,-25.8494,966.7858],[22.736,-25.8565,965.5289],[22.7349,-25.8623,970.4432],[22.7412,-25.8759,967.9305],[22.7381,-25.8818,965.8674],[22.7239,-25.8868,965.3087],[22.7173,-25.8875,965.3389],[22.7134,-25.8899,963.2314],[22.712,-25.893,965.0491],[22.7126,-25.8993,963.347],[22.7182,-25.9056,963.3662],[22.7229,-25.9084,964.1812],[22.7449,-25.9134,964.2118],[22.7492,-25.918,963.6356],[22.7484,-25.9227,962.6936],[22.736,-25.9306,964.7095],[22.7286,-25.9389,970.6275],[22.7239,-25.9501,960.7545],[22.7232,-25.9579,963.0052],[22.7288,-25.9701,964.4684],[22.7294,-25.9754,964.3885],[22.7246,-25.9995,963.6579],[22.7253,-26.0145,959.0085],[22.7211,-26.0186,962.0652],[22.7084,-26.0203,959.3627],[22.6955,-26.0182,958.4613],[22.6788,-26.0131,958.8832],[22.6688,-26.0142,959.226],[22.6649,-26.0195,961.1518],[22.6638,-26.0249,958.3657],[22.6717,-26.0432,957.2565],[22.6703,-26.0576,956.6545],[22.6731,-26.0737,956.7043],[22.6496,-26.0868,956.26],[22.6375,-26.090699999999998,956.8922],[22.6295,-26.0972,958.5096],[22.6291,-26.1026,955.6608],[22.637,-26.1131,954.3584],[22.6369,-26.1163,955.6096],[22.6307,-26.1226,955.0891],[22.7029,-26.1199,983.6502],[22.7088,-26.4109,1005.6791],[22.7447,-26.4247,1014.4515],[22.8032,-26.4537,1021.8562],[22.8419,-26.3933,1027.3452],[22.8484,-26.3759,1029.545],[22.8808,-26.2624,1031.5073],[22.8993,-26.2136,1032.3301],[22.9071,-26.1459,1029.2582],[22.9811,-26.1526,1041.7793],[22.987,-26.09,1037.5159],[23.0648,-26.0991,1055.2355],[23.0881,-26.0436,1053.3829],[23.0883,-25.999,1046.6438],[23.0869,-25.9826,1043.2279],[23.3206,-25.9928,1055.2852],[23.3874,-26.0062,1082.4434],[23.3539,-26.0895,1059.2424],[23.3069,-26.0703,1033.774],[23.2321,-26.0527,1107.3409],[23.2158,-26.1157,1113.843],[23.2519,-26.1138,1101.6189],[23.311,-26.1418,1055.9048],[23.2647,-26.2045,1057.2537],[23.2217,-26.2713,1034.6619],[23.282,-26.3395,1064.9402],[23.2664,-26.4854,1056.7241],[23.463,-26.5311,1090.7054],[23.5837,-26.6171,1139.8032],[23.5471,-26.6583,1101.2887],[23.4871,-26.7397,1150.9729],[23.5209,-26.7555,1157.9143],[23.5689,-26.7749,1169.957],[23.6153,-26.79,1180.7686],[23.6465,-26.8075,1190.6022],[23.7251,-26.8291,1205.7173],[23.7607,-26.8409,1209.972],[23.8532,-26.8901,1241.6843],[23.8695,-26.8568,1244.8444],[23.9169,-26.8579,1253.0172],[23.9628,-26.8983,1276.343],[23.9704,-26.8942,1280.6951],[24.001,-26.9433,1297.3716],[24.026,-26.9993,1337.6957],[24.0375,-27.0537,1338.1901],[23.976,-27.0793,1342.4666],[23.9736,-27.0964,1291.2927],[23.9156,-27.2141,1384.5598],[23.9101,-27.2251,1388.8292],[23.8983,-27.2355,1392.5142],[23.8965,-27.2527,1395.3749],[23.9412,-27.2764,1412.3156],[23.9502,-27.2828,1414.6863],[23.9529,-27.2815,1415.2765],[24.0149,-27.3237,1441.8986],[24.0639,-27.3532,1456.2434],[24.0724,-27.3556,1456.4553],[24.0863,-27.3535,1455.2946],[24.0575,-27.4294,1466.799],[24.0522,-27.4627,1465.8923],[24.0553,-27.5079,1472.2528],[24.0492,-27.5586,1488.5265],[24.0506,-27.6027,1451.9398],[24.1186,-27.6217,1424.7668],[24.1051,-27.6515,1435.1294],[24.0933,-27.7049,1424.0906],[24.111,-27.739,1415.229],[24.4053,-27.6812,1354.2231],[24.4468,-27.7029,1348.1558],[24.4088,-27.7611,1346.9451],[24.4526,-27.7825,1321.1603],[24.4274,-27.8405,1314.9419],[24.4099,-27.8428,1327.3474],[24.3605,-27.9107,1309.7704],[24.3926,-27.9415,1255.5208],[24.41,-27.9233,1252.5677],[24.4673,-27.9806,1186.4658],[24.4682,-27.9967,1154.4386],[24.4587,-28.0128,1156.0262],[24.4445,-28.0319,1151.928],[24.4655,-28.0358,1117.3207],[24.5346,-28.0921,1041.0],[24.5526,-28.0784,1041.0],[24.5599,-28.0747,1041.0],[24.5637,-28.07,1041.0],[24.5632,-28.0569,1041.0],[24.5577,-28.0445,1041.0],[24.5595,-28.0388,1041.0],[24.5664,-28.0348,1041.0],[24.5788,-28.0326,1042.2131],[24.5887,-28.0279,1041.3081],[24.5919,-28.0313,1043.6035],[24.5941,-28.0287,1043.4589],[24.6031,-28.0292,1043.6332],[24.608,-28.0262,1043.6171],[24.6089,-28.0273,1044.1279],[24.6144,-28.0224,1045.8778],[24.6141,-28.0204,1044.0107],[24.6086,-28.015,1045.6544],[24.6082,-28.0117,1044.6771],[24.617,-28.008,1044.657],[24.6166,-28.0065,1044.5652],[24.6209,-28.0012,1044.6804],[24.6232,-28.0017,1044.9105],[24.6248,-27.9992,1044.788],[24.6283,-27.9995,1045.5751],[24.6273,-27.9971,1045.1547],[24.6294,-27.9943,1045.2911],[24.6273,-27.9909,1045.4734],[24.6249,-27.9906,1045.7539],[24.6209,-27.9788,1046.431],[24.6231,-27.9765,1046.1239],[24.6208,-27.9749,1046.4202],[24.6227,-27.974,1045.9038],[24.6219,-27.972,1047.8403],[24.6256,-27.9672,1046.7621],[24.6265,-27.963,1046.8243],[24.6222,-27.9611,1046.8533],[24.6198,-27.9512,1050.155],[24.627,-27.9419,1048.1542],[24.6265,-27.938,1047.8188],[24.6288,-27.9353,1048.036],[24.6257,-27.9287,1048.134],[24.6222,-27.9269,1048.459],[24.6184,-27.9213,1048.7384],[24.6173,-27.9155,1048.7867],[24.6115,-27.91,1049.0739],[24.6069,-27.9085,1050.0951],[24.6071,-27.9012,1050.3547],[24.606,-27.901,1050.3547],[24.6071,-27.8984,1049.845],[24.6116,-27.8977,1051.1732],[24.6133,-27.9016,1051.6051],[24.6191,-27.9049,1051.2153],[24.6301,-27.9029,1051.0262],[24.6322,-27.8991,1052.3467],[24.6325,-27.8914,1051.8647],[24.6413,-27.8876,1051.8904],[24.6451,-27.8875,1052.5973],[24.6494,-27.8817,1052.6487],[24.6519,-27.8768,1052.6187],[24.6521,-27.8697,1052.619],[24.6563,-27.8634,1052.8651],[24.6564,-27.8554,1053.4969],[24.6583,-27.8527,1053.4473],[24.6651,-27.8531,1055.3634],[24.6715,-27.8499,1053.7865],[24.6784,-27.8505,1054.1941],[24.6813,-27.8491,1055.4058],[24.6889,-27.8504,1054.9147],[24.6904,-27.8525,1055.0895],[24.6912,-27.8504,1055.1901],[24.6968,-27.8476,1055.8602],[24.6949,-27.8426,1056.35],[24.6884,-27.8391,1056.9237],[24.6881,-27.8365,1056.6669],[24.6908,-27.8327,1056.6816],[24.6993,-27.8283,1056.9573],[24.6587,-27.7909,1136.1326],[24.6618,-27.7848,1100.7992],[24.6692,-27.7863,1089.2163],[24.6731,-27.7828,1086.5911],[24.6757,-27.7699,1085.9772],[24.6704,-27.7616,1092.502],[24.6805,-27.7393,1079.936],[24.6937,-27.7356,1073.4746],[24.6955,-27.7183,1067.6301],[24.6812,-27.7034,1067.3108],[24.6752,-27.6934,1069.1582],[24.6728,-27.686,1068.3091],[24.6746,-27.6812,1068.312],[24.6834,-27.6804,1071.8313],[24.686,-27.6784,1069.77],[24.6842,-27.6737,1069.9497],[24.6787,-27.6691,1070.1927],[24.6784,-27.6665,1070.2557],[24.6918,-27.6541,1070.8467],[24.6923,-27.6452,1073.0134],[24.7621,-27.6332,1118.1812],[24.7568,-27.6096,1110.1084],[24.7843,-27.6046,1144.7451],[24.7843,-27.6093,1145.2452],[24.7825,-27.6109,1147.7594],[24.7807,-27.6184,1148.7374],[24.7822,-27.633,1148.8281],[24.7866,-27.6432,1150.6565],[24.7938,-27.646,1149.9393],[24.7977,-27.6562,1149.2422],[24.7952,-27.6633,1151.2975],[24.7953,-27.6734,1155.7271],[24.7938,-27.6767,1157.5474],[24.7949,-27.682,1156.896],[24.792,-27.6869,1156.2969],[24.797,-27.693,1154.0327],[24.7966,-27.6982,1152.1229],[24.8012,-27.7018,1168.2332],[24.8545,-27.6956,1277.2902],[24.8857,-27.6945,1267.4513],[24.9732,-27.6826,1295.6744],[24.9997,-27.6808,1285.129],[25.0348,-27.6931,1266.3204],[25.0479,-27.6997,1262.4651],[24.8469,-27.9112,1156.876],[24.8615,-27.9083,1164.5858],[24.8571,-27.9161,1164.2725],[24.857,-27.9189,1167.751],[24.8598,-27.9213,1167.4386],[24.8577,-27.9202,1166.59],[24.8574,-27.9253,1165.3977],[24.8517,-27.9261,1160.7581],[24.8456,-27.9237,1159.8018],[24.8298,-27.9313,1151.8973],[24.9506,-28.1132,1187.5],[24.9653,-28.095,1187.5],[24.9703,-28.0838,1188.0],[24.9748,-28.0804,1188.0],[24.9848,-28.0796,1188.3884],[24.9993,-28.0819,1188.0],[25.0098,-28.0767,1188.0],[25.0201,-28.0774,1188.0],[25.0377,-28.0682,1189.2417],[25.0591,-28.0707,1188.5],[25.0732,-28.0667,1190.4043],[25.0769,-28.0484,1188.5],[25.1049,-28.0167,1189.2878],[25.1074,-28.0119,1189.0],[25.1064,-28.0068,1192.6757],[25.1025,-28.0009,1189.0],[25.0951,-27.9918,1190.7461],[25.0903,-27.9886,1189.0],[25.0906,-27.984,1189.0],[25.0968,-27.9769,1189.8926],[25.1113,-27.9702,1189.0],[25.1173,-27.9606,1189.0],[25.131,-27.9506,1189.0],[25.1327,-27.9456,1192.3164],[25.1326,-27.9361,1195.9291]]]]}}