{"type":"Feature","properties":{"featurecla":"River","scalerank":8,"rivernum":860,"dissolve":"860River","name":"Molopo2","name_alt":null,"note":null,"min_zoom":7.0,"strokeweig":0.25,"name_en":"Molopo","min_label":8.0},
"geometry":{"type": "LineString","coordinates": [[20.33935546875,-27.544463800005886,823.4998],[20.362548828125,-27.58318450313088,818.1891],[20.432763671875023,-27.62590911250588,829.0424],[20.463134765625,-27.654815362505886,843.0914],[20.473876953125,-27.679717706255886,825.5027],[20.47705078125,-27.706866143755889,810.218],[20.468994140625,-27.79143645625588,809.3591],[20.471093750000023,-27.81536223750588,810.0349],[20.483300781250023,-27.865557550005889,800.688],[20.48486328125,-27.88054778438088,799.9037],[20.484375,-27.910967706255889,804.6665],[20.486718750000023,-27.925811456255886,795.939],[20.49267578125,-27.939483331255886,804.5532],[20.517236328125023,-27.975127862505886,812.3933],[20.545800781250023,-28.048663018755889,804.7428],[20.5517578125,-28.097686456255886,807.2391],[20.549560546875,-28.195635675005889,827.4352],[20.570068359375,-28.240069268755889,781.4873],[20.572900390625023,-28.262237237505886,778.4988],[20.56591796875,-28.297393487505886,760.0298],[20.55419921875,-28.33196380000588,754.0997],[20.542724609375,-28.352373956255889,770.3391],[20.530908203125023,-28.359209893755889,752.993],[20.521484375,-28.35857512813088,746.5363],[20.512939453125,-28.35637786250588,734.8593],[20.503808593750023,-28.35857512813088,729.5441],[20.497314453125,-28.36565520625588,725.958],[20.481103515625023,-28.39788176875588,769.1653],[20.468994140625,-28.44963958125588,695.9583],[20.45751953125,-28.461748956255889,691.5471],[20.428125,-28.464873956255886,694.0252],[20.419921875,-28.463702081255889,695.6038],[20.403710937500023,-28.459307550005889,693.4875],[20.39453125,-28.458526300005886,672.5775],[20.384765625,-28.46087005000588,673.413],[20.365625,-28.468584893755889,662.0408],[20.35498046875,-28.46892669063088,670.5761],[20.313720703125,-28.465166925005889,722.5013],[20.27685546875,-28.470538018755889,633.0588],[20.24267578125,-28.48626067500588,474.3035],[20.209375,-28.51384856563088,453.7357]]}}