{"type":"Feature","properties":{"featurecla":"River","scalerank":4,"rivernum":101,"dissolve":"101River","name":"Vaal6","name_alt":null,"note":null,"min_zoom":4.0,"strokeweig":0.25,"name_en":"Vaal","min_label":5.0},
"geometry":{"type": "LineString","coordinates": [[25.622314453125,-27.668487237505886,1226.5],[25.602783203125,-27.658038018755889,1210.8484],[25.591699218750023,-27.654815362505886,1213.312],[25.580761718750011,-27.654815362505886,1226.8994],[25.57373046875,-27.659014581255889,1228.5728],[25.562597656250006,-27.672393487505886,1218.0442],[25.55712890625,-27.675323175005886,1218.0553],[25.55126953125,-27.677569268755889,1220.6477],[25.533789062500006,-27.686846612505889,1216.7759],[25.522705078125,-27.688995050005886,1216.5626],[25.517675781250006,-27.687823175005889,1215.6321],[25.508398437500006,-27.682647393755886,1215.7061],[25.502197265625,-27.68157317500588,1215.9298],[25.496191406250006,-27.683623956255886,1216.2045],[25.4912109375,-27.688311456255889,1213.8799],[25.485253906250023,-27.69524505000588,1218.606],[25.421142578125,-27.710479425005886,1216.4856],[25.406005859375,-27.71965911250588,1212.6774],[25.33359375,-27.77776458125588,1215.1697],[25.326562500000023,-27.781573175005889,1213.8174],[25.313867187500023,-27.785186456255886,1214.6456],[25.30126953125,-27.78630950313088,1213.8579],[25.290136718750006,-27.78582122188088,1215.6064],[25.279882812500006,-27.78753020625588,1216.7866],[25.26953125,-27.79509856563088,1213.8225],[25.252832031250023,-27.81633880000588,1216.4602],[25.248779296875,-27.819366143755886,1217.062],[25.240332031250006,-27.823077081255889,1216.0176],[25.240478515625,-27.831377862505889,1202.5],[25.24560546875,-27.84661223750588,1207.4817],[25.238671875000023,-27.859405206255886,1219.8423],[25.224853515625,-27.87761809688088,1199.9844],[25.208251953125,-27.894073175005886,1210.9423],[25.194042968750011,-27.90129973750588,1206.9415],[25.1890625,-27.904620050005889,1191.8213],[25.178613281250023,-27.91912200313088,1199.928],[25.173583984375,-27.922393487505886,1199.3473],[25.149804687500023,-27.922393487505886,1195.1827],[25.13916015625,-27.92424895625588,1190.3362],[25.12890625,-27.929229425005886,1195.2327],[25.123925781250023,-27.935381768755889,1201.6118],[25.09765625,-27.97795989375588,1194.6622],[25.098388671875,-27.985381768755886,1199.105],[25.101464843750023,-27.99114348750588,1196.9218],[25.1015625,-27.99749114375588,1198.6172],[25.0810546875,-28.03020598750588,1194.3038],[25.066650390625,-28.04753997188088,1197.7997],[25.05322265625,-28.05828215938088,1196.2366],[25.04453125,-28.05828215938088,1196.9388],[25.033105468750023,-28.05584075313088,1199.278],[25.023339843750023,-28.05535247188088,1199.7544],[25.014746093750006,-28.06804778438088,1194.2683],[25.0048828125,-28.070147393755889,1193.7881],[24.993554687500023,-28.07073333125588,1194.5321],[24.98486328125,-28.072588800005889,1193.5133],[24.9625,-28.09075286250588,1193.187],[24.94873046875,-28.09832122188088,1195.5803],[24.9296875,-28.099932550005889,1206.3694],[24.9234375,-28.099932550005889,1207.4512],[24.885986328125,-28.084991143755886,1190.8726],[24.868554687500023,-28.08294036250588,1191.5157],[24.84765625,-28.086260675005889,1196.5791],[24.840234375000023,-28.09002044063088,1196.7997],[24.83544921875,-28.09441497188088,1195.6003],[24.829345703125,-28.09832122188088,1189.9821],[24.80625,-28.101104425005886,1181.8401],[24.801367187500006,-28.104034112505886,1181.1575],[24.798583984375,-28.108428643755886,1178.0444],[24.78125,-28.125518487505886,1179.1919],[24.752099609375023,-28.17498137813088,1173.0492],[24.747802734375,-28.17864348750588,1202.1211],[24.734375,-28.18743255000588,1147.5717],[24.731689453125,-28.192413018755886,1150.8904],[24.733056640625023,-28.22161223750588,1159.7567],[24.731689453125,-28.23015715938088,1154.3308],[24.719873046875023,-28.249346612505889,1126.1217],[24.704345703125,-28.26506926875588,1127.4491],[24.692041015625023,-28.28240325313088,1122.8529],[24.690087890625023,-28.305987237505889,1132.8105],[24.694238281250023,-28.312823175005889,1137.5216],[24.710351562500023,-28.329424737505889,1134.2383],[24.714257812500023,-28.33269622188088,1118.4614],[24.72314453125,-28.33587005000588,1107.5513],[24.7216796875,-28.343584893755889,1117.923],[24.70703125,-28.36541106563088,1128.2029],[24.702783203125023,-28.36858489375588,1115.3248],[24.699121093750023,-28.37371184688088,1127.49],[24.697509765625,-28.38445403438088,1108.036],[24.69921875,-28.39177825313088,1109.8121],[24.710595703125023,-28.42205169063088,1117.0959],[24.713134765625,-28.440752862505889,1113.4496],[24.710107421875023,-28.452666925005886,1106.3083],[24.69873046875,-28.45964934688088,1105.0768],[24.676513671875,-28.463702081255889,1124.375],[24.698876953125023,-28.487334893755886,1107.9504],[24.70068359375,-28.49675872188088,1105.2994],[24.683837890625,-28.50457122188088,1107.4193],[24.66552734375,-28.504717706255889,1100.823],[24.65283203125,-28.49773528438088,1102.7239],[24.641845703125,-28.489092706255889,1106.4865],[24.628662109375,-28.48406340938088,1105.5715],[24.602685546875023,-28.493194268755886,1116.1943],[24.595458984375,-28.51970794063088,1101.1522],[24.600732421875023,-28.582842706255889,1103.1129],[24.594384765625023,-28.59539153438088,1103.4564],[24.58056640625,-28.60051848750588,1101.5784],[24.566650390625,-28.59685637813088,1093.3711],[24.560449218750023,-28.582842706255889,1101.2878],[24.5654296875,-28.55242278438088,1095.4521],[24.561279296875,-28.542510675005886,1094.3986],[24.543212890625,-28.53875090938088,1111.2467],[24.498681640625023,-28.546221612505889,1136.1206],[24.488037109375,-28.54924895625588,1103.156],[24.474853515625,-28.564483331255886,1128.1318],[24.464990234375023,-28.579424737505889,1128.1957],[24.45361328125,-28.59197356563088,1113.5891],[24.436181640625023,-28.600127862505886,1119.3798],[24.408837890625023,-28.573077081255889,1102.1725],[24.400390625,-28.55632903438088,1042.1262],[24.395898437500023,-28.53191497188088,1071.9272],[24.3974609375,-28.50017669063088,1051.9738],[24.395898437500023,-28.49089934688088,1056.2905],[24.390283203125023,-28.47869231563088,1038.5697],[24.385986328125,-28.47527434688088,1037.6401],[24.379785156250023,-28.474639581255886,1045.203],[24.327050781250023,-28.456084893755886,1012.9176],[24.316650390625,-28.448565362505889,1047.6791],[24.292236328125,-28.42205169063088,1020.9502],[24.275292968750023,-28.41179778438088,1019.1409],[24.266357421875,-28.416338800005889,1008.667],[24.258544921875,-28.427276300005886,1014.8167],[24.2451171875,-28.436358331255889,1013.53],[24.249755859375,-28.46062590938088,1017.5588],[24.229394531250023,-28.48430755000588,1018.0779],[24.183007812500023,-28.51824309688088,1018.1486],[24.148339843750023,-28.564288018755889,1079.5056],[24.142578125,-28.57634856563088,1004.3256],[24.136132812500023,-28.58245208125588,1029.963],[24.094140625000023,-28.606963800005886,1042.5594],[24.074951171875,-28.62835051875588,1050.8176],[24.064208984375,-28.644073175005886,1022.0212],[24.059472656250023,-28.658233331255886,1009.8085],[24.0615234375,-28.67498137813088,999.8082],[24.065087890625023,-28.68987395625588,1002.5876],[24.065820312500023,-28.70354583125588,1008.5923],[24.059472656250023,-28.71624114375588,1007.3469],[24.0478515625,-28.722686456255886,1006.4492],[24.034423828125,-28.725616143755886,1027.3649],[24.023583984375023,-28.73162200313088,1046.0331],[24.019189453125023,-28.747588800005886,1021.0293],[24.020751953125,-28.77971770625588,1008.1207],[24.024804687500023,-28.792510675005886,1000.8654],[24.03271484375,-28.80559661250588,993.5],[24.018310546875,-28.817413018755886,1005.0079],[24.004638671875,-28.823760675005886,997.4939],[23.993066406250023,-28.831377862505889,1020.6331],[23.984277343750023,-28.847198175005886,1027.4172],[23.995849609375,-28.853350518755889,1005.9813],[23.999755859375,-28.860186456255889,995.2878],[23.998681640625023,-28.87761809688088,999.3278],[23.995361328125,-28.88128020625588,1007.1239],[23.987939453125023,-28.88201262813088,1005.0344],[23.979638671875023,-28.88054778438088,999.5254],[23.96435546875,-28.872588800005886,1011.4818],[23.959228515625,-28.87957122188088,1009.7725],[23.957275390625,-28.88982512813088,996.1409],[23.95703125,-28.89495208125588,990.5],[23.960693359375,-28.91961028438088,999.9213],[23.969970703125,-28.94329192500588,999.4758],[23.967529296875,-28.961455987505886,995.4562],[23.9365234375,-28.97014739375588,994.7194],[23.92333984375,-28.96721770625588,998.5541],[23.909912109375,-28.96087005000588,992.4615],[23.896875,-28.95671965938088,994.2903],[23.885009765625,-28.96013762813088,994.6268],[23.879541015625023,-28.97014739375588,991.5915],[23.87255859375,-29.000811456255889,997.1766],[23.86767578125,-29.01165130000588,994.7628],[23.849023437500023,-29.02556731563088,994.1873],[23.8203125,-29.038897393755889,1018.3746],[23.789453125000023,-29.04534270625588,984.6371],[23.764550781250023,-29.03899505000588,995.4691],[23.738183593750023,-29.056963800005889,993.7954],[23.73046875,-29.05950286250588,987.7716],[23.718652343750023,-29.05779387813088,994.1095],[23.710839843750023,-29.05291106563088,980.9595],[23.705078125,-29.04802825313088,995.3947],[23.700097656250023,-29.04583098750588,1001.0267],[23.655517578125,-29.046416925005886,1007.4905],[23.635498046875,-29.054229425005886,995.8588],[23.628076171875023,-29.073077081255889,968.7043]]}}