{"type":"Feature","properties":{"featurecla":"River","scalerank":8,"rivernum":861,"dissolve":"861River","name":"Auob1","name_alt":null,"note":null,"min_zoom":7.0,"strokeweig":0.2,"name_en":"Auob","min_label":8.0},
"geometry":{"type": "LineString","coordinates": [[20.0,-25.78118255000588,954.2924],[20.151123046875,-25.90813567500588,954.6238],[20.210205078125,-25.94353606563088,933.0737],[20.383056640625,-26.018389581255889,922.5479],[20.432519531250023,-26.049834893755886,918.1102],[20.479638671875023,-26.08879973750588,914.3624],[20.531884765625023,-26.153838800005886,900.6044],[20.568115234375,-26.229815362505889,898.3708],[20.61767578125,-26.43962981563088,877.8887],[20.604638671875023,-26.493194268755886,889.2029],[20.601806640625,-26.52214934688088,880.8757],[20.604638671875023,-26.547686456255889,880.285],[20.61083984375,-26.559893487505889,863.9863],[20.627197265625,-26.58074309688088,862.9929],[20.6318359375,-26.59514739375588,863.2008],[20.630126953125,-26.618194268755886,865.7669],[20.6083984375,-26.68596770625588,871.3542],[20.608642578125,-26.71599700313088,867.1176],[20.614160156250023,-26.75310637813088,872.4123],[20.624267578125,-26.789385675005889,855.4868],[20.63818359375,-26.81682708125588,865.3619],[20.644287109375,-26.82439544063088,853.2628],[20.650048828125023,-26.82952239375588,852.7509],[20.665185546875023,-26.83904387813088,851.8022],[20.674951171875023,-26.85003020625588,861.4439],[20.685205078125023,-26.88176848750588,857.4434],[20.6923828125,-26.895830987505889,853.8825]]}}