{"type": "Feature","bbox": [24.4393,-34.2174,25.2637,-33.6109],"geometry": {"type": "MultiPolygon","coordinates": [[[[24.8729,-34.1176,11.2361],[24.8857,-34.1107,0.0],[24.8988,-34.0946,1.3823],[24.9068,-34.0885,0.0],[24.9054,-34.0862,0.0],[24.8965,-34.0857,0.0],[24.8965,-34.0843,0.0],[24.901,-34.0826,0.9551],[24.911,-34.0865,0.0],[24.9207,-34.0807,0.0],[24.9221,-34.0776,1.2216],[24.9218,-34.0687,0.6294],[24.9263,-34.0621,1.7979],[24.924,-34.056,3.0182],[24.9254,-34.051,3.6851],[24.9285,-34.0474,1.8203],[24.9301,-34.0401,8.2953],[24.9321,-34.0396,0.0],[24.9315,-34.0349,0.0],[24.9346,-34.0337,0.0],[24.9321,-34.0265,0.0],[24.929,-34.0235,2.3358],[24.9296,-34.0143,3.1272],[24.9429,-34.0015,0.6823],[24.969,-33.9879,0.9048],[24.9979,-33.9779,1.5598],[25.0315,-33.9704,0.1735],[25.0896,-33.964,1.6205],[25.1563,-33.9635,0.0],[25.1929,-33.9665,0.0],[25.2231,-33.9712,6.2667],[25.2222,-33.9708,2.1673],[25.2215,-33.9708,2.1673],[25.2204,-33.967,0.0],[25.2121,-33.9644,50.1432],[25.2139,-33.9606,127.2595],[25.221,-33.9617,9.9783],[25.2278,-33.9536,35.6018],[25.2269,-33.9469,86.6736],[25.225,-33.9466,86.6736],[25.2244,-33.9394,155.3067],[25.215699999999998,-33.9345,167.4897],[25.2087,-33.9217,214.7988],[25.2058,-33.9214,221.6814],[25.1956,-33.9252,60.037],[25.1923,-33.922,91.4913],[25.1923,-33.9192,106.1595],[25.1959,-33.9105,103.2819],[25.1994,-33.9074,109.5643],[25.1987,-33.905,126.2368],[25.2013,-33.8981,163.5054],[25.2059,-33.8932,180.2552],[25.209,-33.8865,197.4393],[25.2124,-33.8838,222.7141],[25.2637,-33.8868,550.9508],[25.2187,-33.8764,472.1392],[25.2469,-33.8631,441.2169],[25.2259,-33.852,309.11],[25.2279,-33.8502,339.4002],[25.2261,-33.8484,323.6069],[25.235,-33.8369,477.9731],[25.2031,-33.8216,595.3644],[25.1812,-33.8188,550.9001],[25.1526,-33.8078,356.4643],[25.113,-33.798,599.3224],[25.088,-33.7979,723.7482],[25.0814,-33.7867,693.805],[25.053,-33.7755,795.0156],[25.036,-33.7653,750.1783],[25.0335,-33.755,776.602],[25.025,-33.7489,838.3371],[24.9941,-33.7344,967.5261],[24.9755,-33.7165,799.3898],[24.9422,-33.6996,1047.912],[24.9086,-33.689,717.9612],[24.8909,-33.6744,879.0582],[24.868,-33.6673,826.2882],[24.8295,-33.6426,763.1891],[24.8301,-33.6287,611.5234],[24.7293,-33.6109,690.6102],[24.7307,-33.6204,764.1705],[24.7139,-33.6343,519.857],[24.6711,-33.6307,590.4238],[24.6706,-33.6356,557.3027],[24.5984,-33.6572,192.0407],[24.5632,-33.6343,693.8926],[24.5353,-33.6629,232.773],[24.5462,-33.6894,622.4406],[24.538,-33.6961,507.9551],[24.5367,-33.7265,632.684],[24.5253,-33.7262,625.7552],[24.5053,-33.7441,738.3915],[24.4996,-33.7785,681.1246],[24.5106,-33.7861,715.1511],[24.5438,-33.7738,516.7911],[24.5779,-33.7912,598.7956],[24.625,-33.7986,530.8096],[24.6619,-33.8073,522.9277],[24.6325,-33.8744,416.2175],[24.5935,-33.8618,356.4915],[24.5773,-33.8985,541.8123],[24.5727,-33.8875,626.7441],[24.5649,-33.9021,482.1741],[24.5512,-33.897,497.4181],[24.5491,-33.8997,496.537],[24.5177,-33.8876,601.8867],[24.4942,-33.9319,357.321],[24.4967,-33.9448,215.8871],[24.4946,-33.951,189.9126],[24.5427,-33.9661,208.7477],[24.5347,-33.984,243.4013],[24.6204,-34.0138,181.6579],[24.6047,-34.047,92.0984],[24.622,-34.0498,118.5686],[24.6037,-34.0548,135.0308],[24.6078,-34.0611,153.7979],[24.5811,-34.0783,206.7668],[24.5706,-34.0632,182.0861],[24.5239,-34.0404,205.7771],[24.4932,-34.0427,453.5275],[24.5237,-34.0857,159.3952],[24.5149,-34.1108,108.2938],[24.4618,-34.0978,109.6399],[24.454,-34.1063,27.0146],[24.4578,-34.1084,44.6012],[24.446,-34.1418,36.9762],[24.445,-34.1436,3.9708],[24.443,-34.1423,10.1205],[24.4399,-34.1399,1.1142],[24.4404,-34.1375,9.354],[24.4393,-34.1399,1.1142],[24.4396,-34.1415,0.0],[24.4593,-34.1512,1.925],[24.464,-34.1562,0.0],[24.4787,-34.1646,0.0],[24.5129,-34.1735,0.0],[24.5207,-34.1707,0.054],[24.534,-34.1757,0.0],[24.5515,-34.176,-0.1707],[24.5918,-34.189,0.0],[24.5974,-34.1888,0.0],[24.6082,-34.1918,0.0],[24.6076,-34.1832,0.0],[24.6149,-34.1757,1.1691],[24.6218,-34.1732,0.897],[24.6421,-34.1715,1.9662],[24.6621,-34.176,10.3931],[24.6957,-34.1918,0.0],[24.715699999999998,-34.1949,0.0],[24.7174,-34.1904,2.1096],[24.7232,-34.1876,3.4201],[24.7343,-34.1862,11.2207],[24.7385,-34.1893,0.0],[24.7693,-34.1999,0.0],[24.7768,-34.199,0.2913],[24.7793,-34.2015,0.0],[24.7857,-34.2015,0.0],[24.7918,-34.1982,0.0],[24.7949,-34.1982,0.0],[24.799,-34.2012,0.0],[24.8035,-34.2015,0.0],[24.8088,-34.2057,0.0],[24.8257,-34.211,6.6813],[24.8326,-34.2174,0.0],[24.8332,-34.2146,0.0],[24.839,-34.2154,0.0],[24.8385,-34.2118,0.0],[24.8401,-34.211,0.0],[24.834,-34.2057,0.0],[24.834,-34.2032,0.0],[24.8415,-34.1957,6.104],[24.8493,-34.1929,7.2162],[24.861,-34.1949,0.0],[24.8638,-34.1968,0.0],[24.8696,-34.1954,0.0],[24.8593,-34.1888,0.0],[24.854,-34.1832,0.5255],[24.8426,-34.1774,0.0],[24.8326,-34.1674,3.0628],[24.8337,-34.1613,8.2618],[24.8399,-34.151,0.8979],[24.8404,-34.1468,0.0],[24.8382,-34.1449,0.0],[24.8393,-34.1418,0.0],[24.8412,-34.1424,0.0],[24.8499,-34.1387,1.3057],[24.8596,-34.1276,1.7396],[24.8729,-34.1176,11.2361]]]]}
,"properties": {"GID_3": "ZAF.1.4.6_1","GID_0": "ZAF","country": "SouthAfrica","GID_1": "ZAF.1_1","province": "EasternCape","NL_NAME_1": "NA","GID_2": "ZAF.1.4_1","county": "Cacadu","NL_NAME_2": "NA","city": "Kouga","VARNAME_3": "NA","NL_NAME_3": "NA","TYPE_3": "LocalMunicipality","ENGTYPE_3": "LocalMunicipality","CC_3": "EC108","HASC_3": "NA","name": "Kouga.city","area_km2": 2675.196,"hist_schema_id": "Elevation0-9000","hist_area_km2": {"0": 110.458,"25": 142.001,"50": 176.147,"75": 209.16,"100": 200.419,"125": 172.925,"150": 157.959,"175": 151.171,"200": 158.579,"225": 150.764,"250": 107.14,"275": 88.596,"300": 82.98,"325": 82.453,"350": 78.667,"375": 75.921,"400": 73.14,"425": 70.345,"450": 67.114,"475": 64.728,"500": 54.413,"525": 42.614,"550": 34.78,"575": 28.176,"600": 22.797,"625": 16.559,"650": 12.733,"675": 11.623,"700": 9.296,"725": 6.791,"750": 5.221,"775": 3.563,"800": 2.31,"825": 1.199,"850": 1.023,"875": 0.388,"900": 0.37,"925": 0.247,"950": 0.159,"975": 0.053,"1000": 0.106,"1025": 0.053,"1050": 0.053}}}