{"type":"Feature","properties":{"GID_2":"ZAF.3.2_1","GID_0":"ZAF","country":"SouthAfrica","GID_1":"ZAF.3_1","province":"Gauteng","NL_NAME_1":"NA","county":"CityofTshwane","VARNAME_2":"NA","NL_NAME_2":"NA","TYPE_2":"DistrictMunicipality","ENGTYPE_2":"DistrictMunicipality","CC_2":"TSH","HASC_2":"ZA.GT.TS","name":"Cityof_Tshwane.county"},
"geometry":{"type": "MultiPolygon","coordinates": [[[[28.2712,-25.925,1542.3738],[28.2694,-25.9158,1560.1165],[28.3195,-25.9137,1514.3958],[28.3381,-25.95,1574.7042],[28.3524,-25.9546,1582.7379],[28.4072,-25.9241,1573.6741],[28.4176,-25.9394,1578.1967],[28.4195,-25.9487,1550.3662],[28.4167,-25.9484,1549.1842],[28.4177,-25.9505,1552.5693],[28.446,-25.9649,1613.4487],[28.457,-25.9567,1616.4415],[28.468,-25.9633,1632.2654],[28.4627,-25.9744,1638.0576],[28.4517,-25.9864,1659.306],[28.4444,-25.9911,1660.8187],[28.4511,-25.9955,1666.5878],[28.4482,-25.9999,1664.7886],[28.4457,-26.0181,1642.3723],[28.4644,-26.0114,1666.2347],[28.4643,-26.0256,1642.4148],[28.4601,-26.0237,1645.3652],[28.4547,-26.0308,1630.6433],[28.4491,-26.0427,1628.2423],[28.4422,-26.0422,1626.587],[28.4405,-26.0477,1639.7932],[28.4687,-26.0781,1630.1613],[28.5158,-26.0585,1581.4004],[28.5308,-26.0616,1589.1638],[28.5386,-26.0478,1598.1165],[28.5789,-26.0596,1562.8827],[28.5867,-26.016,1539.1907],[28.591,-26.0025,1561.7325],[28.6323,-25.9708,1510.3308],[28.6527,-25.9743,1487.1128],[28.7108,-25.9906,1501.5925],[28.7575,-25.9906,1545.0604],[28.7579,-25.9837,1551.3909],[28.7624,-25.9831,1546.3005],[28.7739,-26.0137,1535.6116],[28.7939,-26.0046,1537.5439],[28.8329,-26.0048,1505.7949],[28.8648,-26.0013,1452.7549],[28.8673,-26.007,1453.0421],[28.885,-25.9744,1513.5593],[28.8852,-25.9714,1518.1599],[28.8833,-25.9714,1517.1105],[28.8825,-25.9698,1512.8762],[28.8795,-25.9252,1429.9817],[28.889,-25.8803,1447.8713],[28.8839,-25.8783,1436.5209],[28.8868,-25.8714,1449.011],[28.9382,-25.8886,1549.2202],[28.9504,-25.8374,1551.6729],[28.9433,-25.8244,1480.1958],[28.9382,-25.8233,1500.3746],[28.9576,-25.7746,1448.1257],[28.9813,-25.7425,1350.0485],[28.9507,-25.7283,1405.1477],[28.9688,-25.6733,1352.8721],[29.0646,-25.6424,1560.248],[29.0565,-25.6326,1524.537],[29.0661,-25.6305,1518.6494],[29.0642,-25.6207,1349.0653],[29.04,-25.6175,1453.1716],[29.0456,-25.5808,1243.0344],[29.042,-25.5733,1278.1433],[29.0343,-25.5634,1323.1147],[29.0684,-25.5523,1248.5698],[29.0869,-25.5486,1202.5187],[29.0984,-25.5377,1234.4933],[29.0914,-25.5306,1301.1926],[29.08,-25.4946,1462.3619],[29.0774,-25.4962,1446.8688],[29.0787,-25.4996,1413.4529],[29.0587,-25.5272,1234.2681],[29.0482,-25.5202,1253.73],[29.0474,-25.517,1257.5815],[29.0422,-25.521,1262.9933],[29.036,-25.5213,1284.1631],[29.0137,-25.5132,1360.7089],[29.019,-25.5278,1413.3502],[29.0106,-25.5332,1360.4094],[29.0067,-25.5376,1358.4523],[28.9932,-25.5425,1329.031],[28.9881,-25.5395,1354.6414],[28.9869,-25.5402,1349.7576],[29.0078,-25.5742,1246.5859],[28.9465,-25.5998,1624.7455],[28.9152,-25.558,1383.0764],[28.9101,-25.5245,1430.3088],[28.8582,-25.5691,1501.1733],[28.8741,-25.5271,1443.2012],[28.8699,-25.5247,1443.4504],[28.8518,-25.5018,1360.6699],[28.8219,-25.5224,1431.7354],[28.7971,-25.542,1488.1505],[28.8085,-25.5732,1503.4114],[28.8431,-25.5664,1512.9442],[28.8584,-25.6348,1363.0272],[28.8629,-25.6355,1361.4984],[28.872,-25.6416,1359.2899],[28.8693,-25.6581,1393.7377],[28.8457,-25.6523,1382.5674],[28.8416,-25.6545,1387.9808],[28.8355,-25.6456,1379.3531],[28.836,-25.6374,1371.9175],[28.8115,-25.643,1381.7113],[28.81,-25.6591,1420.141],[28.8229,-25.6589,1388.5105],[28.847,-25.6824,1487.8167],[28.8193,-25.6951,1443.1589],[28.8082,-25.689,1412.0679],[28.7927,-25.7024,1454.692],[28.7793,-25.7019,1489.7267],[28.7693,-25.6988,1489.9418],[28.7681,-25.7009,1493.9215],[28.7653,-25.7006,1491.9684],[28.7649,-25.7036,1501.4138],[28.7572,-25.7059,1496.6562],[28.7574,-25.6953,1481.3092],[28.7528,-25.6939,1491.8165],[28.759,-25.678,1451.542],[28.7663,-25.647,1421.4012],[28.7382,-25.6339,1461.3406],[28.7239,-25.6318,1470.7167],[28.7221,-25.6442,1506.5077],[28.7088,-25.6828,1507.4701],[28.6838,-25.6754,1467.9746],[28.6727,-25.665,1435.4285],[28.6747,-25.6588,1437.5992],[28.6425,-25.5899,1427.0248],[28.6473,-25.5856,1462.4158],[28.6455,-25.5858,1459.4897],[28.635,-25.5592,1399.6643],[28.6267,-25.5312,1371.1902],[28.6257,-25.5231,1361.2886],[28.634,-25.5199,1379.917],[28.6321,-25.4884,1271.6382],[28.621,-25.4707,1251.1144],[28.6154,-25.4679,1249.675],[28.6208,-25.4632,1248.407],[28.6295,-25.4594,1241.5413],[28.6253,-25.4476,1241.51],[28.6198,-25.4114,1283.8563],[28.6389,-25.394,1289.4829],[28.6226,-25.3337,1219.6377],[28.6332,-25.3315,1233.0223],[28.6413,-25.3276,1211.9967],[28.6792,-25.303,1229.2178],[28.6956,-25.2945,1348.0072],[28.7329,-25.2827,1225.8896],[28.7396,-25.2885,1228.6077],[28.7324,-25.2692,1238.4305],[28.7638,-25.2211,1261.1262],[28.7791,-25.2308,1295.5961],[28.7846,-25.2287,1246.6497],[28.7754,-25.1838,979.2057],[28.7765,-25.1837,979.2057],[28.7574,-25.1499,949.1472],[28.7592,-25.1497,949.1703],[28.7446,-25.1096,971.5077],[28.7101,-25.1161,975.3374],[28.6683,-25.1385,979.7917],[28.6159,-25.1516,1003.2106],[28.6381,-25.1839,977.3893],[28.6381,-25.1866,976.2468],[28.6553,-25.2135,985.9887],[28.6786,-25.2108,987.8907],[28.6791,-25.212,987.8859],[28.6768,-25.2171,991.0802],[28.6799,-25.2202,995.5546],[28.6756,-25.227,1000.3626],[28.6757,-25.2347,1008.7713],[28.6691,-25.2414,1014.3054],[28.6712,-25.2477,1017.4661],[28.6643,-25.2518,1052.9321],[28.6593,-25.2348,1007.1438],[28.6326,-25.28,1055.7605],[28.6313,-25.2802,1056.0458],[28.6044,-25.2521,1029.344],[28.6047,-25.2535,1031.4563],[28.6029,-25.2542,1033.8601],[28.5948,-25.2494,1047.2666],[28.5637,-25.2494,1092.5542],[28.5643,-25.2521,1126.0602],[28.5133,-25.2561,1132.7595],[28.5012,-25.2654,1076.6293],[28.5036,-25.3088,1158.9054],[28.4393,-25.3102,1082.0006],[28.4337,-25.3224,1103.2545],[28.3826,-25.3211,1097.0343],[28.3792,-25.2921,1087.4193],[28.2982,-25.3104,1058.1809],[28.2981,-25.3393,1073.1198],[28.2896,-25.3412,1067.6851],[28.2895,-25.3383,1067.7415],[28.2834,-25.3381,1061.4097],[28.2826,-25.3426,1060.479],[28.2283,-25.3542,1082.2572],[28.2015,-25.3237,1063.651],[28.1768,-25.3286,1066.1274],[28.1767,-25.3659,1093.5044],[28.1107,-25.3789,1091.8843],[28.108,-25.367,1082.6528],[28.0834,-25.3848,1092.2902],[28.0555,-25.4,1100.9191],[28.0447,-25.4017,1102.5331],[28.0004,-25.3594,1064.6896],[27.9708,-25.3629,1070.1451],[27.9456,-25.4067,1064.0156],[27.9582,-25.4263,1075.275],[27.9604,-25.4273,1078.6703],[27.9697,-25.4391,1087.3077],[27.9917,-25.4245,1131.2686],[28.0359,-25.4706,1161.1721],[28.0119,-25.4805,1110.3134],[28.0075,-25.4841,1129.3004],[27.9924,-25.518,1238.9093],[28.0244,-25.5307,1167.6539],[28.0524,-25.5358,1271.1144],[28.0495,-25.5596,1216.4949],[28.0306,-25.5584,1199.2283],[27.9815,-25.5427,1235.4814],[27.9576,-25.5926,1213.3674],[27.9722,-25.5979,1226.6377],[27.9806,-25.6328,1366.8726],[27.9649,-25.6348,1285.9045],[27.9652,-25.6454,1254.4489],[27.9571,-25.6437,1243.6838],[27.9573,-25.6477,1250.519],[27.9523,-25.6535,1269.3972],[27.9519,-25.6713,1319.3354],[27.9538,-25.6729,1322.6753],[27.9575,-25.6937,1579.7479],[27.9482,-25.6952,1575.4894],[27.9795,-25.7514,1447.3115],[27.9732,-25.7568,1422.9508],[27.9558,-25.7566,1415.0756],[27.9527,-25.7596,1354.8535],[27.9493,-25.7598,1351.7007],[27.9546,-25.7869,1257.3928],[27.9632,-25.7871,1305.6167],[27.9622,-25.7919,1389.1753],[27.9636,-25.7991,1363.5343],[27.9572,-25.8005,1310.7737],[27.9602,-25.816,1491.0203],[27.9401,-25.8197,1414.6418],[27.9258,-25.8241,1304.3606],[27.9395,-25.8368,1269.7627],[27.9005,-25.8408,1302.3518],[27.8982,-25.8597,1368.9429],[27.8995,-25.8828,1312.782],[27.8904,-25.8839,1322.2214],[27.8938,-25.9057,1307.6125],[27.901,-25.9053,1287.4875],[27.9011,-25.9079,1286.7972],[27.9225,-25.9176,1341.0049],[27.9467,-25.9149,1289.2966],[27.9467,-25.908,1298.0333],[27.9493,-25.9079,1281.6968],[27.9502,-25.9062,1277.759],[27.9623,-25.9072,1328.8605],[27.9629,-25.9105,1314.788],[27.9669,-25.9109,1327.7753],[27.984,-25.9028,1339.1949],[27.9879,-25.934,1405.1029],[28.0299,-25.9111,1488.3765],[28.0392,-25.9264,1492.8757],[28.0457,-25.9315,1511.2482],[28.0751,-25.9292,1556.1755],[28.0772,-25.9209,1558.1199],[28.0805,-25.9252,1549.056],[28.0902,-25.9243,1504.3955],[28.0908,-25.9274,1500.1742],[28.1055,-25.9249,1523.4026],[28.1102,-25.9449,1502.2853],[28.181,-25.9195,1533.8279],[28.185,-25.9034,1495.9458],[28.2384,-25.9227,1464.8265],[28.2712,-25.925,1542.3738]]]]}}