{"type":"Feature","properties":{"GID_3":"ZAF.2.5.1_1","GID_0":"ZAF","country":"SouthAfrica","GID_1":"ZAF.2_1","province":"FreeState","NL_NAME_1":"NA","GID_2":"ZAF.2.5_1","county":"Xhariep","NL_NAME_2":"NA","city":"Kopanong","VARNAME_3":"NA","NL_NAME_3":"NA","TYPE_3":"LocalMunicipality","ENGTYPE_3":"LocalMunicipality","CC_3":"FS162","HASC_3":"NA","name":"Kopanong.city"},
"geometry":{"type": "MultiPolygon","coordinates": [[[[26.2799,-30.5774,1263.5],[26.2806,-30.5784,1275.6416],[26.2845,-30.5518,1431.679],[26.3002,-30.5397,1426.0862],[26.3236,-30.5024,1363.5303],[26.2948,-30.4752,1503.7747],[26.2852,-30.454,1330.4445],[26.2791,-30.4535,1303.1163],[26.2772,-30.452,1269.5708],[26.2789,-30.4453,1266.8821],[26.277,-30.4373,1264.3524],[26.2714,-30.4368,1379.6382],[26.2603,-30.4285,1491.8173],[26.259,-30.4264,1507.7745],[26.255,-30.3872,1430.0842],[26.2406,-30.3711,1412.9441],[26.2232,-30.3655,1467.7632],[26.2144,-30.3434,1413.5112],[26.2022,-30.3349,1392.8359],[26.1816,-30.3338,1353.3267],[26.183,-30.3296,1354.2566],[26.165,-30.3261,1377.0183],[26.1534,-30.32,1381.246],[26.143,-30.3078,1405.1412],[26.1444,-30.3065,1405.1412],[26.144,-30.3024,1433.9888],[26.1518,-30.2963,1439.3287],[26.1537,-30.2876,1443.7815],[26.158,-30.2791,1443.5114],[26.1539,-30.2757,1453.3146],[26.1671,-30.2723,1463.2034],[26.1661,-30.245,1424.5498],[26.1595,-30.2119,1410.4355],[26.148,-30.1793,1476.3469],[26.1413,-30.1752,1491.01],[26.1448,-30.1663,1494.9144],[26.1581,-30.1534,1502.7596],[26.1446,-30.1503,1462.7585],[26.1494,-30.1477,1480.6284],[26.1507,-30.1417,1489.4501],[26.1552,-30.1364,1480.6313],[26.1861,-30.1085,1496.5844],[26.1871,-30.1009,1518.5723],[26.1957,-30.0948,1533.7037],[26.1971,-30.0917,1540.4463],[26.2007,-30.0903,1554.485],[26.2031,-30.0863,1522.9655],[26.2128,-30.0901,1510.4518],[26.225,-30.0804,1527.1008],[26.2291,-30.0864,1520.1394],[26.2329,-30.0829,1523.6724],[26.2374,-30.082,1525.1243],[26.2422,-30.0786,1526.3516],[26.2421,-30.0759,1531.8458],[26.246,-30.0745,1537.4099],[26.2566,-30.0581,1547.7509],[26.2549,-30.0575,1543.925],[26.2591,-30.0447,1552.4348],[26.2555,-30.0445,1556.5017],[26.2602,-30.0357,1551.666],[26.2541,-30.0257,1546.1102],[26.2527,-30.0162,1550.0992],[26.2439,-30.0025,1577.9731],[26.2299,-29.9713,1517.5109],[26.2193,-29.9713,1492.2465],[26.211,-29.9614,1470.9673],[26.2083,-29.9603,1466.2531],[26.209,-29.9549,1475.3501],[26.1914,-29.9388,1470.6289],[26.1988,-29.928,1519.0364],[26.2019,-29.9295,1546.5109],[26.2045,-29.9263,1552.5764],[26.212,-29.9245,1532.6682],[26.2153,-29.9199,1458.1589],[26.2302,-29.9145,1543.4258],[26.2339,-29.9087,1563.1727],[26.237,-29.908,1561.1431],[26.2389,-29.8941,1564.4763],[26.2422,-29.8919,1542.1475],[26.2427,-29.8892,1510.0332],[26.2497,-29.8872,1554.1429],[26.2474,-29.8855,1564.7119],[26.2494,-29.8813,1560.7834],[26.2525,-29.8796,1566.6088],[26.2238,-29.8665,1457.6929],[26.1976,-29.8575,1422.1388],[26.187,-29.8596,1396.4705],[26.1855,-29.8531,1392.5166],[26.1965,-29.8472,1422.6333],[26.1956,-29.8394,1429.4607],[26.2272,-29.8196,1407.2389],[26.2295,-29.8215,1407.3584],[26.2418,-29.8222,1493.4182],[26.2503,-29.8344,1482.666],[26.2926,-29.817,1434.2371],[26.3157,-29.8007,1622.2476],[26.3162,-29.7932,1595.4537],[26.3135,-29.7907,1606.3127],[26.3095,-29.7903,1577.7385],[26.3065,-29.7857,1588.9463],[26.3106,-29.7807,1638.1265],[26.3107,-29.7784,1641.0206],[26.3291,-29.7754,1634.2493],[26.3378,-29.7759,1606.0188],[26.3491,-29.7605,1698.7642],[26.3643,-29.7557,1620.8396],[26.3669,-29.7498,1650.499],[26.3704,-29.7471,1690.571],[26.3752,-29.7464,1612.4072],[26.3814,-29.7414,1646.0469],[26.386,-29.7416,1679.8607],[26.394,-29.7227,1729.3245],[26.3922,-29.7227,1752.0537],[26.3986,-29.701,1752.8126],[26.4096,-29.6934,1626.7041],[26.4237,-29.6936,1614.7913],[26.4243,-29.6612,1564.4685],[26.3811,-29.6206,1570.2163],[26.3823,-29.6161,1555.3879],[26.3641,-29.6126,1637.233],[26.36,-29.6141,1603.084],[26.2853,-29.5982,1464.7664],[26.2826,-29.5385,1485.8271],[26.2725,-29.541,1483.6423],[26.2841,-29.5251,1476.9261],[26.2753,-29.5227,1461.5521],[26.2554,-29.5137,1473.373],[26.259,-29.5089,1479.4321],[26.2437,-29.5017,1449.6033],[26.2502,-29.4937,1456.8828],[26.2242,-29.4796,1424.0339],[26.1634,-29.4678,1416.4446],[26.1422,-29.4565,1448.7711],[26.1354,-29.4773,1441.05],[26.1304,-29.4741,1435.0406],[26.1074,-29.4755,1404.0669],[26.107,-29.4704,1395.9474],[26.0919,-29.4645,1372.9459],[26.0936,-29.4786,1388.8322],[26.0909,-29.4767,1392.2113],[26.0778,-29.4797,1399.5609],[26.06,-29.4422,1356.0658],[26.0409,-29.4375,1350.3076],[26.0405,-29.4452,1349.5],[26.0377,-29.4442,1349.2714],[26.035,-29.4454,1347.3862],[26.0323,-29.4171,1389.3235],[25.9794,-29.4016,1411.3069],[25.9724,-29.3902,1407.6851],[25.966,-29.3911,1411.838],[25.9594,-29.3655,1372.3375],[25.9988,-29.3582,1363.8483],[26.0235,-29.3393,1375.6007],[26.0112,-29.3109,1349.3962],[26.0045,-29.3103,1344.0668],[25.9926,-29.2731,1320.4917],[25.9798,-29.2847,1324.5641],[25.9784,-29.2839,1324.761],[25.9662,-29.2927,1327.5854],[25.9434,-29.2968,1331.2281],[25.9149,-29.3061,1398.6259],[25.9118,-29.2999,1394.3281],[25.9132,-29.2858,1339.6277],[25.9055,-29.2543,1347.6239],[25.8636,-29.2521,1309.6619],[25.8599,-29.2603,1315.1594],[25.8456,-29.2355,1317.3438],[25.8415,-29.2323,1308.9598],[25.8076,-29.2601,1304.8982],[25.7917,-29.2567,1305.3726],[25.8012,-29.2329,1290.6135],[25.7824,-29.2242,1287.387],[25.7598,-29.2264,1290.2806],[25.7412,-29.226,1292.6786],[25.7412,-29.2343,1295.5846],[25.7067,-29.2389,1306.3179],[25.6855,-29.2267,1317.7589],[25.6113,-29.2237,1377.1909],[25.5629,-29.2061,1354.1901],[25.5396,-29.2561,1351.792],[25.5739,-29.2719,1358.3633],[25.5515,-29.2841,1377.6001],[25.5176,-29.2962,1378.7987],[25.5073,-29.2853,1386.8966],[25.4973,-29.2998,1381.5569],[25.4811,-29.3073,1365.1578],[25.4771,-29.282,1364.3464],[25.4581,-29.2852,1349.5396],[25.4583,-29.2922,1362.4426],[25.467,-29.3016,1359.1809],[25.4613,-29.3063,1351.4972],[25.4511,-29.3069,1338.0474],[25.4585,-29.335,1354.5354],[25.4633,-29.3331,1352.8389],[25.4609,-29.3404,1357.2605],[25.4802,-29.3609,1348.8923],[25.5265,-29.3419,1352.5077],[25.5145,-29.3965,1361.1348],[25.5401,-29.412,1403.6589],[25.5458,-29.4295,1347.1018],[25.49,-29.4342,1343.5991],[25.4966,-29.4561,1320.0073],[25.5111,-29.4531,1315.2347],[25.5146,-29.4748,1354.641],[25.5025,-29.484,1316.8368],[25.465699999999998,-29.4724,1332.2258],[25.4965,-29.5196,1304.1056],[25.5152,-29.5361,1247.9711],[25.5057,-29.5418,1246.6808],[25.4966,-29.5419,1246.2383],[25.4956,-29.5466,1244.9253],[25.4872,-29.5549,1244.6893],[25.4868,-29.5588,1245.8939],[25.4824,-29.5621,1245.7318],[25.4796,-29.5619,1243.8367],[25.4692,-29.5559,1243.1097],[25.4693,-29.55,1243.6461],[25.4665,-29.5485,1243.1859],[25.462,-29.5299,1300.5228],[25.4522,-29.5317,1306.8689],[25.4507,-29.5253,1308.4718],[25.4479,-29.5229,1311.8984],[25.4408,-29.5239,1319.9165],[25.4477,-29.5559,1243.822],[25.4408,-29.5656,1241.6031],[25.4442,-29.5699,1247.1024],[25.4578,-29.5799,1429.0632],[25.4605,-29.5847,1436.3092],[25.4275,-29.5955,1360.4475],[25.4236,-29.5993,1410.3556],[25.4303,-29.6015,1387.1553],[25.4216,-29.6047,1372.6296],[25.4195,-29.6091,1386.5338],[25.4106,-29.6076,1360.9136],[25.4007,-29.6154,1249.5931],[25.399,-29.6181,1242.1346],[25.402,-29.6181,1243.6505],[25.4028,-29.621,1247.7535],[25.4066,-29.6245,1241.2241],[25.3943,-29.638,1256.1548],[25.37,-29.6416,1272.6178],[25.3343,-29.6631,1495.7987],[25.3056,-29.6289,1290.46],[25.2906,-29.5942,1235.9434],[25.2866,-29.5938,1243.3696],[25.2828,-29.5975,1236.614],[25.2429,-29.5906,1280.9407],[25.2267,-29.6224,1283.4302],[25.2007,-29.625,1298.5051],[25.2007,-29.6106,1305.9011],[25.206,-29.5827,1309.3693],[25.2047,-29.5808,1311.4602],[25.1931,-29.5843,1365.9246],[25.1878,-29.5814,1404.8058],[25.1947,-29.508,1302.5709],[25.1825,-29.4927,1190.7388],[25.1773,-29.491,1186.723],[25.1803,-29.5018,1201.0846],[25.1783,-29.5093,1206.33],[25.1788,-29.5169,1214.9413],[25.1769,-29.5209,1218.6902],[25.1714,-29.5249,1227.4429],[25.1645,-29.5343,1243.2158],[25.0998,-29.5652,1330.6477],[25.0972,-29.558,1322.7505],[25.0887,-29.5611,1309.9923],[25.0745,-29.5465,1277.0532],[25.067,-29.5465,1269.4143],[25.0526,-29.601,1304.0889],[25.0329,-29.6148,1314.8997],[25.0259,-29.6165,1308.4841],[25.0281,-29.6254,1316.8523],[25.0133,-29.6355,1316.2666],[24.9949,-29.6241,1330.1324],[24.9729,-29.6253,1322.5933],[24.9538,-29.6474,1301.434],[24.9545,-29.7125,1328.527],[24.9559,-29.7128,1335.2939],[24.9527,-29.749,1377.5884],[24.9558,-29.788,1365.988],[24.9597,-29.7878,1380.5586],[24.9845,-29.8027,1337.4647],[24.9838,-29.8174,1300.4652],[24.9646,-29.8109,1306.4904],[24.9692,-29.8312,1280.2642],[24.9982,-29.8438,1310.3871],[24.9981,-29.8462,1315.9905],[24.9673,-29.8475,1281.7139],[24.9731,-29.8736,1304.7563],[24.9756,-29.9149,1322.8137],[24.9713,-29.9144,1323.0234],[24.9539,-29.9175,1383.8992],[24.9399,-29.916,1378.4308],[24.9382,-29.9219,1353.0558],[24.9112,-29.9209,1287.4797],[24.8988,-29.9229,1275.6667],[24.9024,-29.9387,1288.9008],[24.8792,-29.9381,1311.2732],[24.882,-29.9403,1323.6981],[24.8885,-29.9526,1346.0471],[24.8892,-29.9606,1319.6624],[24.8912,-29.9619,1327.4424],[24.8936,-29.9684,1319.8335],[24.9025,-29.9761,1389.145],[24.8813,-30.0119,1346.1584],[24.8702,-30.022,1345.6179],[24.8692,-30.0256,1353.8979],[24.8581,-30.0295,1333.9639],[24.8567,-30.0274,1312.7253],[24.8526,-30.028,1344.793],[24.8359,-30.034,1169.0],[24.7985,-30.0342,1169.0],[24.7964,-30.0476,1169.0],[24.8022,-30.0591,1169.0],[24.8141,-30.0679,1169.0],[24.8178,-30.0821,1169.0],[24.826,-30.0852,1169.0],[24.8329,-30.0923,1169.0],[24.8385,-30.0952,1169.0],[24.8364,-30.1151,1169.0],[24.8376,-30.1178,1169.0],[24.8442,-30.1235,1169.0],[24.8673,-30.1307,1169.0],[24.8711,-30.1345,1169.0],[24.8804,-30.1589,1169.0],[24.8816,-30.1733,1169.0],[24.8952,-30.1842,1169.0],[24.8957,-30.1964,1169.0],[24.9003,-30.207,1169.0],[24.9042,-30.2093,1169.0],[24.9104,-30.2097,1169.0],[24.9203,-30.2008,1169.0],[24.9251,-30.2007,1169.0],[24.9302,-30.2069,1169.0],[24.934,-30.2175,1169.0],[24.9426,-30.2215,1169.0],[24.9461,-30.2253,1169.0],[24.9542,-30.2261,1169.0],[24.9558,-30.2311,1169.0],[24.9553,-30.2386,1169.0],[24.9468,-30.2467,1169.0],[24.9465,-30.2518,1169.0],[24.9632,-30.2675,1169.0],[24.9761,-30.2733,1169.0],[24.9803,-30.2842,1169.0],[24.9863,-30.29,1169.0],[25.0028,-30.2935,1169.0],[25.0079,-30.2921,1169.0],[25.0233,-30.2835,1169.0],[25.0295,-30.2837,1169.0],[25.0344,-30.2862,1169.0],[25.0397,-30.3013,1169.0],[25.0459,-30.3111,1169.0],[25.0471,-30.3162,1169.0],[25.0466,-30.3229,1169.0],[25.0424,-30.3365,1169.0],[25.0355,-30.3449,1169.0],[25.0383,-30.3623,1169.0],[25.0427,-30.3635,1169.0],[25.0511,-30.3572,1169.0],[25.064,-30.3569,1169.0],[25.0716,-30.3594,1189.9473],[25.0809,-30.3669,1172.0211],[25.0961,-30.3732,1175.8496],[25.0989,-30.3782,1169.0],[25.1021,-30.3913,1173.6226],[25.1112,-30.4036,1192.4869],[25.1135,-30.4092,1215.327],[25.1256,-30.4202,1169.5],[25.1399,-30.4242,1169.5],[25.1467,-30.4329,1171.4739],[25.1577,-30.4426,1169.5],[25.1612,-30.4495,1170.0942],[25.1531,-30.4532,1169.5],[25.1527,-30.4593,1169.5],[25.1601,-30.4647,1169.5],[25.1671,-30.4737,1175.1243],[25.1837,-30.484,1179.4668],[25.1896,-30.4984,1174.0376],[25.203,-30.504,1171.7264],[25.21,-30.5051,1169.5],[25.2252,-30.5037,1169.6976],[25.2313,-30.4995,1174.2668],[25.2353,-30.4999,1169.5],[25.2395,-30.5046,1169.625],[25.2434,-30.5136,1170.7534],[25.2547,-30.519,1173.4728],[25.2617,-30.5259,1194.8101],[25.2706,-30.5387,1178.9084],[25.279,-30.5441,1172.625],[25.2838,-30.559,1177.0457],[25.3054,-30.5765,1178.9298],[25.3114,-30.5771,1178.0],[25.3237,-30.5724,1181.4208],[25.326,-30.5696,1185.769],[25.329,-30.5601,1180.5],[25.3361,-30.5574,1182.4937],[25.3418,-30.559,1181.0],[25.3504,-30.5643,1187.4583],[25.3572,-30.5636,1182.3658],[25.3636,-30.5581,1183.6794],[25.3723,-30.5584,1182.0],[25.3993,-30.5731,1192.9705],[25.4057,-30.5721,1184.0],[25.4177,-30.5775,1185.5],[25.42,-30.58,1188.1472],[25.4195,-30.5847,1191.1696],[25.4224,-30.5879,1203.5344],[25.456,-30.6112,1198.2185],[25.4663,-30.6227,1204.7812],[25.4675,-30.6313,1192.0],[25.4711,-30.6345,1204.2999],[25.4768,-30.6346,1210.032],[25.4878,-30.6292,1196.4496],[25.5022,-30.6255,1197.1012],[25.5201,-30.6155,1258.0],[25.528199999999998,-30.6133,1258.0],[25.5385,-30.6134,1258.0],[25.5563,-30.6166,1258.0],[25.564,-30.6158,1258.0],[25.5746,-30.6088,1258.0],[25.5901,-30.5911,1258.0],[25.5967,-30.5904,1258.0],[25.6031,-30.5944,1258.0],[25.609,-30.6072,1258.0],[25.617,-30.6189,1258.0],[25.6248,-30.6243,1258.0],[25.6229,-30.6324,1258.0],[25.61,-30.6482,1258.0],[25.6093,-30.6515,1258.0],[25.6119,-30.655,1258.0],[25.6241,-30.659,1258.0],[25.6417,-30.6577,1258.0],[25.654,-30.6524,1258.0],[25.6716,-30.6409,1258.0],[25.6755,-30.6401,1258.0],[25.6853,-30.6471,1258.0],[25.6854,-30.6506,1258.0],[25.6801,-30.6598,1258.0],[25.6797,-30.6662,1258.0],[25.6932,-30.6761,1258.0],[25.7006,-30.6796,1258.0],[25.7166,-30.6825,1258.0],[25.7498,-30.6825,1258.0],[25.7553,-30.6867,1258.0],[25.7616,-30.6887,1258.0],[25.7706,-30.6865,1258.0],[25.7769,-30.6816,1258.0],[25.7789,-30.6759,1258.0],[25.7791,-30.6566,1258.0],[25.7808,-30.649,1258.0],[25.7831,-30.6452,1258.0],[25.793,-30.6371,1258.0],[25.8003,-30.6347,1258.0],[25.819,-30.635,1258.0],[25.8338,-30.6324,1258.0],[25.8467,-30.6336,1258.0],[25.8512,-30.6293,1258.0],[25.8562,-30.6175,1258.0],[25.8606,-30.6129,1258.0],[25.8724,-30.6107,1258.0],[25.8873,-30.6122,1258.0],[25.891,-30.6103,1258.0],[25.8932,-30.6045,1258.0],[25.892,-30.5968,1258.0],[25.8748,-30.5728,1258.0],[25.8718,-30.5622,1258.0],[25.873,-30.5574,1258.0],[25.8849,-30.5442,1258.0],[25.8952,-30.5406,1258.0],[25.9027,-30.5428,1258.0],[25.9238,-30.5644,1258.0],[25.9268,-30.5713,1258.0],[25.9227,-30.579,1258.0],[25.923,-30.5813,1258.0],[25.931,-30.585,1258.0],[25.9377,-30.5836,1258.0],[25.9413,-30.5796,1258.0],[25.9406,-30.5649,1258.0],[25.9438,-30.5569,1258.0],[25.9552,-30.5471,1258.0],[25.977,-30.5382,1258.0],[25.9991,-30.5369,1258.0],[26.0295,-30.5321,1258.9365],[26.052,-30.5227,1258.0],[26.0696,-30.5235,1258.0],[26.0974,-30.5165,1258.9163],[26.1084,-30.5214,1258.5],[26.1182,-30.5354,1261.2172],[26.1341,-30.5406,1259.0],[26.1434,-30.5399,1260.723],[26.148,-30.5377,1262.4801],[26.1496,-30.535,1262.0608],[26.1487,-30.5175,1262.4294],[26.1435,-30.5104,1261.298],[26.1367,-30.5098,1261.4854],[26.1319,-30.5074,1262.8372],[26.1301,-30.5049,1261.528],[26.13,-30.501,1262.1628],[26.1365,-30.4917,1260.6738],[26.1492,-30.484,1260.0],[26.1648,-30.4841,1260.0],[26.1788,-30.4908,1260.5],[26.1911,-30.5005,1263.8225],[26.1944,-30.5043,1265.1501],[26.1962,-30.511,1263.605],[26.1938,-30.528,1261.5],[26.1987,-30.5323,1263.3595],[26.2063,-30.5336,1261.5],[26.2186,-30.5317,1263.1196],[26.2298,-30.5354,1262.3972],[26.2534,-30.5387,1265.0264],[26.2613,-30.5417,1270.8976],[26.2647,-30.5462,1267.9266],[26.2642,-30.56,1270.3026],[26.2655,-30.5668,1263.0],[26.27,-30.5718,1269.2023],[26.2799,-30.5774,1263.5]]]]}}