{"type": "Feature","bbox": [27.7107,-32.6751,28.6756,-32.0258],"geometry": {"type": "MultiPolygon","coordinates": [[[[28.3529,-32.6316,15.1337],[28.3532,-32.6318,15.1337],[28.3532,-32.6312,20.2585],[28.3529,-32.6312,20.2585],[28.3529,-32.6316,15.1337]]],
[[[28.6749,-32.4481,0.1078],[28.6751,-32.448,0.1078],[28.6751,-32.4479,0.1104],[28.6749,-32.4479,0.1104],[28.6749,-32.4481,0.1078]]],
[[[28.6755,-32.4472,0.1104],[28.6751,-32.4468,0.1104],[28.6756,-32.4486,0.1078],[28.6754,-32.4477,0.1104],[28.6755,-32.4472,0.1104]]],
[[[28.4324,-32.6304,0.0],[28.4337,-32.631,3.2318],[28.4376,-32.6279,14.1873],[28.4438,-32.6285,0.0],[28.4449,-32.6257,26.3229],[28.4488,-32.6263,0.0],[28.4546,-32.6224,10.8974],[28.4632,-32.6215,0.0],[28.4649,-32.6235,0.0],[28.465699999999998,-32.6215,0.6925],[28.4693,-32.6204,0.0],[28.4743,-32.6207,0.0],[28.4763,-32.6165,0.0],[28.4782,-32.6171,0.0],[28.4824,-32.614,0.0],[28.4837,-32.6099,0.0],[28.4904,-32.6085,2.1701],[28.4862,-32.5988,1.788],[28.4924,-32.6085,0.0],[28.4976,-32.6065,0.0],[28.4985,-32.6049,6.6536],[28.5026,-32.6043,14.4227],[28.5051,-32.6068,0.0],[28.5101,-32.6049,0.0],[28.5193,-32.5982,0.0],[28.5257,-32.5907,0.0],[28.5274,-32.5846,0.0],[28.524,-32.5849,7.6682],[28.5212,-32.5824,0.563],[28.524,-32.5807,0.6381],[28.5249,-32.5824,0.0],[28.5265,-32.5821,0.0],[28.5371,-32.5749,1.0382],[28.554,-32.5724,0.0],[28.5537,-32.5701,0.0],[28.5518,-32.5693,11.8638],[28.5524,-32.5662,0.0],[28.5543,-32.5651,0.0],[28.5537,-32.5621,1.5854],[28.556,-32.5615,0.0],[28.5529,-32.5563,0.0],[28.5546,-32.5515,0.0],[28.5601,-32.5474,16.2365],[28.5713,-32.5432,0.0],[28.5765,-32.5374,3.6755],[28.5785,-32.5307,1.2075],[28.5824,-32.5257,0.0],[28.5812,-32.5221,0.5],[28.5713,-32.5224,2.5],[28.571,-32.5213,2.5],[28.5899,-32.5201,0.0],[28.581,-32.5124,7.7006],[28.590699999999998,-32.5182,0.0],[28.5985,-32.5179,2.4146],[28.6035,-32.5146,0.0983],[28.6049,-32.5118,0.0],[28.6026,-32.5107,5.0681],[28.6024,-32.5076,5.946],[28.6043,-32.5065,0.0],[28.6032,-32.5013,27.7538],[28.6113,-32.4976,2.669],[28.6126,-32.4951,0.0],[28.6104,-32.491,0.75],[28.6074,-32.4915,10.2956],[28.6099,-32.4896,0.75],[28.6126,-32.4904,7.9384],[28.6132,-32.4929,7.2004],[28.6149,-32.4935,0.0],[28.6296,-32.4893,2.9294],[28.6321,-32.486,14.1874],[28.6357,-32.4874,0.0],[28.6368,-32.4835,1.7311],[28.6446,-32.4801,12.4942],[28.6463,-32.4832,0.0],[28.651,-32.484,0.0],[28.654,-32.4771,7.4548],[28.6585,-32.4796,0.0],[28.6563,-32.4762,7.7561],[28.6576,-32.4735,0.0],[28.6535,-32.4674,3.5496],[28.654,-32.4649,9.1356],[28.6554,-32.4646,0.0],[28.6574,-32.4588,0.0],[28.6654,-32.4535,0.0],[28.6701,-32.4529,0.0],[28.671,-32.4465,8.371],[28.6663,-32.4429,3.8028],[28.6356,-32.4358,27.5222],[28.6284,-32.4384,27.9441],[28.6237,-32.4332,10.8381],[28.6189,-32.4351,28.5824],[28.6101,-32.4348,53.5061],[28.6066,-32.4327,22.4331],[28.6042,-32.4274,138.5046],[28.6006,-32.4281,76.5375],[28.5957,-32.4266,58.8827],[28.5891,-32.4199,85.992],[28.5961,-32.4239,97.3942],[28.6011,-32.4225,98.0747],[28.6015,-32.4208,106.051],[28.5894,-32.4091,120.4319],[28.5911,-32.4064,121.3209],[28.596,-32.4052,174.623],[28.5969,-32.4033,123.7899],[28.5912,-32.4024,134.3535],[28.5844,-32.4083,160.4939],[28.5732,-32.4053,148.1269],[28.5728,-32.4014,151.2131],[28.5804,-32.4023,159.4587],[28.5811,-32.4003,191.2759],[28.576,-32.3898,165.3228],[28.5692,-32.3845,226.924],[28.5655,-32.389,173.9582],[28.5608,-32.3891,174.446],[28.5551,-32.392,182.944],[28.547,-32.3922,193.429],[28.5473,-32.3896,177.5161],[28.5457,-32.3878,197.1757],[28.547,-32.3855,189.0646],[28.5501,-32.3836,195.7548],[28.5584,-32.3825,192.9327],[28.5609,-32.3791,225.7881],[28.5595,-32.3749,194.1098],[28.5524,-32.3735,198.6095],[28.5531,-32.3701,216.0268],[28.5487,-32.3703,215.0644],[28.5562,-32.3537,213.4288],[28.5535,-32.3494,236.0255],[28.543,-32.3443,224.3344],[28.5441,-32.3415,233.6183],[28.5497,-32.338,230.8147],[28.5442,-32.3345,239.5498],[28.5447,-32.3262,289.8157],[28.5381,-32.3224,260.7432],[28.5284,-32.3249,293.1179],[28.5212,-32.323,290.0189],[28.5136,-32.316,280.9899],[28.5049,-32.3117,273.6971],[28.501,-32.3129,289.8798],[28.4998,-32.3155,274.761],[28.5036,-32.3188,280.9133],[28.5091,-32.3197,305.1932],[28.5109,-32.3214,299.3267],[28.5004,-32.3246,296.0429],[28.4966,-32.3282,345.681],[28.4932,-32.3259,297.9086],[28.4916,-32.3217,312.5775],[28.4972,-32.3157,310.3209],[28.49,-32.3171,363.7931],[28.4849,-32.3109,319.8283],[28.4755,-32.3188,430.8022],[28.4767,-32.3224,449.3979],[28.4737,-32.3253,482.1397],[28.4732,-32.3282,489.5215],[28.4698,-32.3291,489.3179],[28.4677,-32.3269,516.3593],[28.4636,-32.328,545.36],[28.4576,-32.3335,535.0171],[28.4454,-32.3363,619.5292],[28.4377,-32.3344,585.1282],[28.431,-32.3357,565.3171],[28.4164,-32.3234,546.4779],[28.3917,-32.3163,593.434],[28.3934,-32.3076,600.7711],[28.3919,-32.3044,619.9253],[28.3855,-32.2986,597.3943],[28.3707,-32.29,643.2212],[28.3673,-32.2853,620.6865],[28.3638,-32.271,628.6108],[28.3496,-32.2626,646.2344],[28.3366,-32.2579,647.2844],[28.3167,-32.2435,705.9771],[28.2829,-32.2456,690.6686],[28.2727,-32.248,671.4641],[28.2735,-32.2417,649.5709],[28.2814,-32.2333,673.0127],[28.2778,-32.2287,770.1415],[28.2747,-32.229,750.2592],[28.2703,-32.2254,668.3269],[28.278199999999998,-32.2222,737.6464],[28.2725,-32.2197,760.0221],[28.2708,-32.2147,753.0345],[28.2769,-32.2123,758.1155],[28.2832,-32.2163,786.8503],[28.2894,-32.2143,799.4659],[28.2887,-32.2097,792.1768],[28.2938,-32.201,857.8629],[28.2942,-32.1974,838.8545],[28.3043,-32.1883,862.0134],[28.3009,-32.1821,851.4382],[28.2961,-32.1777,847.5531],[28.2901,-32.1761,857.158],[28.2783,-32.1695,855.8584],[28.2706,-32.1711,855.1162],[28.2637,-32.1754,875.7743],[28.2556,-32.1743,881.6666],[28.2497,-32.1775,883.0991],[28.2484,-32.1767,883.0991],[28.2535,-32.1727,907.0386],[28.2518,-32.1665,897.1874],[28.248,-32.1625,885.8693],[28.2466,-32.1583,873.0563],[28.2516,-32.1282,908.7362],[28.2513,-32.1129,947.9291],[28.2498,-32.1059,938.8334],[28.2414,-32.0998,959.5066],[28.2429,-32.0884,995.1246],[28.2509,-32.0724,1014.1072],[28.2513,-32.0685,1011.5601],[28.2423,-32.0536,1041.3601],[28.239,-32.0519,1031.4515],[28.2354,-32.0524,1033.3735],[28.2312,-32.0574,1030.053],[28.2042,-32.0524,1027.1012],[28.1962,-32.0333,1078.8669],[28.1872,-32.0258,1074.1399],[28.178,-32.0304,1044.1384],[28.1645,-32.032,1090.688],[28.1598,-32.0357,1077.8345],[28.1563,-32.0554,1014.7542],[28.1466,-32.0563,986.357],[28.1365,-32.0617,995.6118],[28.1299,-32.0613,1003.5849],[28.1291,-32.0648,996.9816],[28.1267,-32.0633,1004.7889],[28.1255,-32.0592,977.0804],[28.1137,-32.0568,963.0289],[28.1134,-32.0549,968.084],[28.1088,-32.0559,969.0516],[28.0825,-32.0543,992.139],[28.0729,-32.0614,1000.0015],[28.0613,-32.0657,1039.5388],[28.0475,-32.057,1070.7629],[28.0472,-32.0537,1085.1346],[28.0167,-32.0424,1041.7722],[28.0147,-32.0379,1122.8445],[28.0109,-32.0357,1144.5973],[28.0071,-32.0389,1100.219],[27.9997,-32.0405,1114.9872],[27.9665,-32.0627,1124.7787],[27.9502,-32.0819,1186.0944],[27.9342,-32.0735,1050.6304],[27.9287,-32.0747,1044.5675],[27.9135,-32.0665,1021.3156],[27.908,-32.0661,1008.377],[27.9046,-32.0607,991.2338],[27.8962,-32.0584,995.7839],[27.8891,-32.0498,1006.2043],[27.8863,-32.0491,1031.5043],[27.8765,-32.0563,991.7838],[27.8869,-32.0584,1004.834],[27.8814,-32.0675,954.5627],[27.8809,-32.072,918.1819],[27.8783,-32.0711,924.6634],[27.8758,-32.0741,914.2118],[27.8657,-32.0755,912.1042],[27.864,-32.0784,908.5148],[27.8649,-32.0814,906.5464],[27.8711,-32.0842,914.0819],[27.8854,-32.1049,1033.429],[27.8857,-32.1114,1077.0],[27.8958,-32.1236,1136.2462],[27.8871,-32.1279,1089.9847],[27.876,-32.1282,1110.0957],[27.8583,-32.1331,1084.6229],[27.8497,-32.1268,1154.5474],[27.8289,-32.1182,1160.8965],[27.8413,-32.1114,1093.3367],[27.837,-32.1051,1065.4219],[27.8371,-32.1013,1052.4344],[27.8331,-32.0932,1069.6438],[27.8153,-32.0894,1040.5336],[27.8093,-32.0794,758.6323],[27.8016,-32.0808,747.5485],[27.7927,-32.0795,758.3506],[27.782,-32.0824,731.1945],[27.7847,-32.0865,747.7172],[27.7923,-32.0894,711.1829],[27.788,-32.0949,711.7513],[27.7923,-32.1012,692.0957],[27.7888,-32.1045,695.6926],[27.779,-32.1025,703.6003],[27.7747,-32.1051,680.2409],[27.7752,-32.1095,676.1623],[27.7819,-32.1148,669.9549],[27.7848,-32.1214,683.966],[27.7788,-32.1334,655.1753],[27.7825,-32.1353,658.9911],[27.7873,-32.1327,663.4044],[27.7924,-32.1329,706.3804],[27.8031,-32.1409,642.1935],[27.8165,-32.1472,633.113],[27.8195,-32.1459,629.4252],[27.8229,-32.14,624.0532],[27.8255,-32.1401,624.719],[27.8281,-32.1434,681.6873],[27.8287,-32.152,617.7689],[27.8263,-32.1568,639.4095],[27.8185,-32.1635,619.262],[27.8044,-32.1614,602.61],[27.8005,-32.1634,609.1227],[27.8072,-32.1704,594.1339],[27.8128,-32.183,582.2651],[27.8035,-32.1898,575.562],[27.7947,-32.2003,572.1628],[27.7928,-32.2052,580.9559],[27.7949,-32.2069,572.6305],[27.7944,-32.2102,565.8611],[27.7877,-32.2169,573.5811],[27.788,-32.2201,605.7504],[27.7952,-32.2243,560.3593],[27.7966,-32.2272,558.0294],[27.7848,-32.225,559.6519],[27.7789,-32.2157,571.8978],[27.7707,-32.2153,552.8851],[27.7617,-32.2113,547.3345],[27.7589,-32.2123,581.4312],[27.7578,-32.2188,550.1609],[27.7589,-32.2227,538.763],[27.7683,-32.2275,563.4822],[27.7717,-32.2368,546.3465],[27.7835,-32.2409,552.424],[27.7859,-32.2463,522.419],[27.7846,-32.2505,522.3163],[27.7803,-32.2537,520.4163],[27.765,-32.2588,519.4097],[27.764,-32.2607,531.9777],[27.7643,-32.2656,512.6638],[27.7679,-32.2699,559.6804],[27.7816,-32.2705,501.4474],[27.7864,-32.2725,498.3855],[27.7818,-32.2755,502.9095],[27.7672,-32.2763,494.1373],[27.7642,-32.2796,504.5304],[27.7631,-32.2844,480.7534],[27.7682,-32.2988,483.4485],[27.7649,-32.3086,465.2359],[27.7687,-32.3091,459.7756],[27.7738,-32.3058,483.1884],[27.7796,-32.3073,456.6305],[27.7824,-32.3098,444.5977],[27.7814,-32.3149,460.4265],[27.7783,-32.3175,436.4525],[27.7676,-32.3192,470.119],[27.7692,-32.3283,441.5258],[27.7655,-32.3275,559.9933],[27.7588,-32.332,356.5183],[27.7596,-32.3401,354.4461],[27.7564,-32.3455,396.3829],[27.7485,-32.3482,406.8671],[27.7322,-32.3388,344.9641],[27.7216,-32.3382,341.0154],[27.7189,-32.3401,345.3024],[27.7163,-32.3497,332.8298],[27.7107,-32.3576,341.4176],[27.7115,-32.3605,328.1004],[27.7143,-32.3626,351.5698],[27.7299,-32.367,349.2723],[27.7346,-32.3777,331.2535],[27.7512,-32.3993,312.7281],[27.7556,-32.409,307.4647],[27.764,-32.4179,306.9171],[27.7739,-32.4189,301.7162],[27.7859,-32.415,304.0023],[27.7882,-32.4131,300.7758],[27.7899,-32.4081,294.4816],[27.7968,-32.4036,338.8171],[27.8111,-32.4096,297.8054],[27.8137,-32.4089,311.774],[27.8146,-32.4067,285.8811],[27.8123,-32.402,281.6182],[27.8067,-32.3976,347.5616],[27.8006,-32.3969,281.5517],[27.7888,-32.3986,283.8377],[27.7768,-32.3965,280.216],[27.7682,-32.3891,284.8027],[27.7662,-32.3856,272.1207],[27.7659,-32.38,278.0329],[27.7714,-32.376,278.7084],[27.7831,-32.3741,271.2317],[27.799,-32.3798,303.055],[27.8137,-32.3814,257.2141],[27.8292,-32.3913,249.7133],[27.8266,-32.3985,244.5658],[27.8322,-32.4067,248.4939],[27.8409,-32.4093,240.2948],[27.8528,-32.4066,263.4331],[27.8595,-32.4141,236.2222],[27.8612,-32.4127,244.1878],[27.8613,-32.4084,267.6424],[27.8551,-32.4,244.6602],[27.8581,-32.3871,270.2252],[27.8638,-32.3806,248.4075],[27.8676,-32.3793,261.1214],[27.8783,-32.3811,250.1545],[27.8827,-32.3834,223.464],[27.8877,-32.3911,222.1656],[27.8964,-32.3951,219.1318],[27.9072,-32.4055,216.2681],[27.9139,-32.4156,216.9225],[27.9171,-32.4266,242.7516],[27.9229,-32.4323,217.1482],[27.9264,-32.4396,208.0212],[27.9248,-32.4417,238.2409],[27.9201,-32.4425,205.8603],[27.915,-32.4381,201.1639],[27.9121,-32.4375,249.66309999999999],[27.8919,-32.4426,224.0909],[27.8878,-32.4457,202.4402],[27.8874,-32.4495,220.6731],[27.889,-32.4532,222.9569],[27.8944,-32.4563,202.9906],[27.9035,-32.4564,190.0751],[27.9104,-32.462,187.6625],[27.9296,-32.4723,181.9756],[27.9413,-32.476,183.8516],[27.9472,-32.4761,184.6116],[27.9549,-32.4684,178.645],[27.9548,-32.4612,190.2948],[27.9567,-32.4587,174.9263],[27.962,-32.4593,199.7905],[27.9684,-32.4653,178.6794],[27.9697,-32.4703,171.8858],[27.9649,-32.4788,196.4745],[27.9566,-32.4842,167.0307],[27.9517,-32.4849,164.6566],[27.9467,-32.4897,227.6968],[27.9462,-32.4958,173.0123],[27.9556,-32.5065,158.5522],[27.9612,-32.5083,160.3792],[27.9729,-32.5073,153.8242],[27.9753,-32.5089,153.7541],[27.983,-32.5098,166.5166],[27.9895,-32.5081,159.8093],[27.9999,-32.5079,148.0],[28.0148,-32.5149,147.4501],[28.0198,-32.5158,142.9236],[28.0219,-32.5149,151.7874],[28.0249,-32.5087,196.5503],[28.0355,-32.5011,146.909],[28.0388,-32.4995,188.7398],[28.0428,-32.5,139.5479],[28.0455,-32.5016,135.0876],[28.0472,-32.5058,134.671],[28.0451,-32.5132,128.9744],[28.0473,-32.5256,131.745],[28.0467,-32.5343,139.0488],[28.0487,-32.5381,128.7989],[28.0535,-32.5397,149.6203],[28.0647,-32.5359,120.5469],[28.0792,-32.5215,119.5309],[28.0868,-32.5187,133.9177],[28.0922,-32.5189,124.7188],[28.1075,-32.5264,127.4653],[28.1292,-32.525,105.7722],[28.1317,-32.519,104.8932],[28.1184,-32.5037,92.9782],[28.1173,-32.5,105.6988],[28.1178,-32.497,151.2155],[28.1222,-32.4929,93.3111],[28.1295,-32.4927,93.9186],[28.1389,-32.5004,181.1921],[28.1445,-32.5079,97.8397],[28.1502,-32.527,83.7587],[28.1544,-32.535,96.4715],[28.1633,-32.5391,77.3423],[28.179,-32.5336,72.6185],[28.1924,-32.5369,230.5149],[28.1934,-32.5383,108.8111],[28.1946,-32.5447,79.5033],[28.1902,-32.554,66.0279],[28.1796,-32.5614,68.0926],[28.1697,-32.5656,60.6891],[28.169,-32.5692,60.9354],[28.1715,-32.5748,61.6897],[28.1869,-32.5774,79.9664],[28.1903,-32.5793,75.7147],[28.1935,-32.585,52.5577],[28.1987,-32.5861,63.6365],[28.2041,-32.5833,48.8294],[28.2106,-32.5743,61.2298],[28.2161,-32.5732,50.0846],[28.2229,-32.5782,44.5808],[28.2296,-32.591,42.274],[28.2394,-32.5998,36.1234],[28.246,-32.6155,32.5313],[28.2498,-32.6201,30.3981],[28.2562,-32.6206,46.7519],[28.2582,-32.613,17.6975],[28.2643,-32.606,19.9188],[28.2683,-32.602,18.0441],[28.2732,-32.6013,18.3838],[28.2879,-32.6038,15.6007],[28.2936,-32.6087,6.6816],[28.2954,-32.6226,8.8894],[28.316,-32.6418,6.0118],[28.3206,-32.6408,2.0458],[28.3211,-32.6391,2.2403],[28.316,-32.6366,4.7314],[28.3155,-32.6334,90.9092],[28.3227,-32.6281,2.8621],[28.3343,-32.6238,2.6959],[28.3488,-32.6239,2.3925],[28.3543,-32.631,20.2585],[28.3543,-32.6421,0.0],[28.3585,-32.6518,0.0],[28.3615,-32.666,2.4948],[28.3635,-32.6679,2.2632],[28.3701,-32.669,1.1346],[28.3835,-32.6751,0.0],[28.3868,-32.6746,0.0],[28.3882,-32.6726,9.1196],[28.394,-32.6729,0.0],[28.399,-32.6676,4.8253],[28.4001,-32.6624,0.125],[28.3976,-32.6615,5.6125],[28.3982,-32.6601,0.5],[28.4013,-32.6624,0.125],[28.4001,-32.6651,1.562],[28.4018,-32.6657,1.562],[28.4093,-32.6643,0.0],[28.4096,-32.6613,2.3962],[28.4185,-32.6568,0.0],[28.4171,-32.654,1.9787],[28.4185,-32.6521,0.0],[28.4212,-32.649,0.0],[28.4229,-32.6499,0.0],[28.4257,-32.6465,0.9881],[28.4282,-32.646,0.0],[28.4293,-32.6374,0.0],[28.4307,-32.6371,0.0],[28.4285,-32.6326,22.477],[28.431,-32.629,16.7011],[28.4324,-32.6304,0.0]]]]}
,"properties": {"GID_3": "ZAF.1.2.4_1","GID_0": "ZAF","country": "SouthAfrica","GID_1": "ZAF.1_1","province": "EasternCape","NL_NAME_1": "NA","GID_2": "ZAF.1.2_1","county": "Amathole","NL_NAME_2": "NA","city": "Mnquma","VARNAME_3": "NA","NL_NAME_3": "NA","TYPE_3": "LocalMunicipality","ENGTYPE_3": "LocalMunicipality","CC_3": "EC122","HASC_3": "NA","name": "Mnquma.city","area_km2": 3271.043,"hist_schema_id": "Elevation0-9000","hist_area_km2": {"0": 16.508,"25": 33.843,"50": 52.001,"75": 52.042,"100": 48.617,"125": 53.108,"150": 50.682,"175": 57.248,"200": 63.173,"225": 71.714,"250": 79.534,"275": 87.518,"300": 84.223,"325": 76.506,"350": 78.889,"375": 76.423,"400": 73.995,"425": 76.643,"450": 73.623,"475": 70.015,"500": 66.806,"525": 81.552,"550": 98.627,"575": 110.997,"600": 122.497,"625": 106.985,"650": 94.403,"675": 89.002,"700": 85.784,"725": 86.568,"750": 90.675,"775": 89.712,"800": 103.229,"825": 108.906,"850": 111.262,"875": 110.485,"900": 98.58,"925": 84.015,"950": 69.156,"975": 56.632,"1000": 50.167,"1025": 36.752,"1050": 21.904,"1075": 9.913,"1100": 5.495,"1125": 2.784,"1150": 1.203,"1175": 0.395,"1200": 0.252}}}