{"type": "Feature","bbox": [22.6424,-27.9879,23.3727,-27.3519],"geometry": {"type": "MultiPolygon","coordinates": [[[[22.722,-27.986,1291.9121],[22.7484,-27.987,1332.9978],[22.7728,-27.9841,1279.5203],[22.8274,-27.956,1226.4095],[22.8636,-27.9272,1220.6582],[22.9331,-27.888,1228.6387],[22.9632,-27.8958,1216.3945],[22.9916,-27.898,1223.5498],[23.0231,-27.858,1331.853],[23.0447,-27.8899,1226.3185],[23.0551,-27.8811,1228.1145],[23.0977,-27.8888,1265.2192],[23.0855,-27.8448,1252.9652],[23.109,-27.7961,1241.3191],[23.1603,-27.7285,1338.0891],[23.2886,-27.7142,1443.7743],[23.2741,-27.6613,1315.0837],[23.2649,-27.5191,1295.6046],[23.3074,-27.5147,1434.5139],[23.3433,-27.4776,1476.585],[23.3727,-27.4645,1359.9672],[23.342,-27.4152,1590.6123],[23.3438,-27.387,1524.6274],[23.355,-27.3762,1310.0242],[23.3272,-27.3675,1316.5261],[23.3136,-27.3519,1403.2938],[23.2718,-27.3785,1426.7306],[23.2757,-27.3979,1394.4506],[23.2294,-27.3991,1295.1895],[23.2205,-27.4035,1238.8584],[23.232,-27.4166,1268.1322],[23.2159,-27.4192,1233.4646],[23.1707,-27.4115,1184.0232],[23.123,-27.4065,1153.4471],[22.9955,-27.4074,1107.2717],[22.9957,-27.4128,1107.7648],[22.9877,-27.4123,1103.2449],[22.9898,-27.407,1103.405],[22.9186,-27.4017,1085.5427],[22.8374,-27.3904,1076.2229],[22.8223,-27.3947,1081.9709],[22.8304,-27.4131,1067.4692],[22.8349,-27.4433,1082.6445],[22.8488,-27.4588,1090.343],[22.8449,-27.4875,1087.2537],[22.8474,-27.5047,1091.3113],[22.8341,-27.5072,1090.8522],[22.8445,-27.5437,1095.6194],[22.7778,-27.5512,1121.4646],[22.7146,-27.5492,1138.3575],[22.7116,-27.6124,1155.7065],[22.7014,-27.6657,1191.1218],[22.6747,-27.6678,1196.5428],[22.7005,-27.687,1180.1573],[22.7663,-27.7508,1186.178],[22.8017,-27.7929,1202.1522],[22.8193,-27.8316,1202.6458],[22.7788,-27.8451,1217.652],[22.7395,-27.8507,1244.3691],[22.7887,-27.8902,1305.0438],[22.7967,-27.9111,1312.2878],[22.7644,-27.9338,1370.1528],[22.7274,-27.9304,1432.1223],[22.6424,-27.9397,1650.1686],[22.6496,-27.9698,1670.3384],[22.6448,-27.9879,1527.562],[22.674,-27.9844,1454.0461],[22.722,-27.986,1291.9121]]]]}
,"properties": {"GID_3": "ZAF.8.2.2_1","GID_0": "ZAF","country": "SouthAfrica","GID_1": "ZAF.8_1","province": "NorthernCape","NL_NAME_1": "NA","GID_2": "ZAF.8.2_1","county": "JohnTaoloGaetsewe","NL_NAME_2": "NA","city": "Gamagara","VARNAME_3": "NA","NL_NAME_3": "NA","TYPE_3": "LocalMunicipality","ENGTYPE_3": "LocalMunicipality","CC_3": "NC453","HASC_3": "NA","name": "Gamagara.city","area_km2": 2623.832,"hist_schema_id": "Elevation0-9000","hist_area_km2": {"1000": 0.094,"1025": 0.169,"1050": 0.695,"1075": 32.445,"1100": 162.471,"1125": 281.673,"1150": 364.504,"1175": 419.465,"1200": 404.007,"1225": 345.605,"1250": 165.425,"1275": 122.043,"1300": 105.179,"1325": 61.262,"1350": 26.14,"1375": 25.981,"1400": 24.139,"1425": 19.494,"1450": 16.992,"1475": 14.493,"1500": 10.753,"1525": 6.802,"1550": 5.167,"1575": 3.38,"1600": 2.045,"1625": 1.517,"1650": 1.311,"1675": 0.581}}}