{"type":"Feature","properties":{"GID_3":"ZAF.9.2.3_1","GID_0":"ZAF","country":"SouthAfrica","GID_1":"ZAF.9_1","province":"WesternCape","NL_NAME_1":"NA","GID_2":"ZAF.9.2_1","county":"CentralKaroo","NL_NAME_2":"NA","city":"PrinceAlbert","VARNAME_3":"NA","NL_NAME_3":"NA","TYPE_3":"LocalMunicipality","ENGTYPE_3":"LocalMunicipality","CC_3":"WC052","HASC_3":"NA","name":"Prince_Albert.city"},
"geometry":{"type": "MultiPolygon","coordinates": [[[[22.9509,-33.0382,945.4225],[22.9341,-33.0217,963.0685],[22.912,-33.0145,961.3164],[22.873,-33.0244,956.8131],[22.8775,-33.031,939.095],[22.8354,-33.0377,957.8983],[22.8003,-32.9853,1016.53],[22.7678,-32.9785,997.4322],[22.7831,-32.9306,983.0293],[22.6646,-32.9288,1082.6512],[22.5175,-32.8927,1087.4036],[22.5219,-32.864,1058.2295],[22.4557,-32.8765,1005.0552],[22.384,-32.8708,972.7221],[22.3213,-32.8206,812.0306],[22.3154,-32.7823,781.5281],[22.2993,-32.7569,728.1101],[22.3013,-32.7399,741.2397],[22.2173,-32.7441,690.217],[22.1914,-32.7906,706.7385],[22.1242,-32.7328,642.8911],[22.065,-32.7106,575.1959],[22.0557,-32.7149,574.1781],[22.012,-32.7242,594.4224],[22.0431,-32.6724,645.538],[22.0718,-32.6427,652.7051],[22.0366,-32.5997,630.1819],[22.0334,-32.5549,634.6606],[21.9938,-32.576,646.0399],[21.9459,-32.6098,649.7502],[21.9144,-32.6193,635.9507],[21.8765,-32.6255,630.1952],[21.8464,-32.636,650.1777],[21.7604,-32.6584,681.6282],[21.7484,-32.6376,710.4567],[21.7178,-32.6417,733.7889],[21.6828,-32.6844,741.0424],[21.6912,-32.7144,727.3124],[21.649,-32.7282,764.0161],[21.5771,-32.7595,709.2986],[21.5247,-32.7591,707.9767],[21.4798,-32.7866,615.5002],[21.4321,-32.7567,719.4414],[21.428,-32.7756,705.8151],[21.4456,-32.792,654.7099],[21.4281,-32.817,647.4116],[21.43,-32.849,699.1775],[21.4593,-32.883,602.4556],[21.4607,-32.8829,596.2013],[21.4642,-32.8881,550.7527],[21.4695,-32.8915,543.7894],[21.4713,-32.8968,543.9053],[21.4785,-32.9023,546.4773],[21.4815,-32.9113,571.6132],[21.4713,-32.9136,595.2414],[21.4574,-32.9275,608.8801],[21.3959,-32.9379,653.4708],[21.4259,-32.9702,618.1527],[21.4429,-33.0005,602.6686],[21.4585,-33.0113,560.8508],[21.4846,-33.014,486.9876],[21.4867,-33.0201,484.5803],[21.4984,-33.0289,482.1439],[21.5012,-33.0389,475.9818],[21.5072,-33.0443,474.0999],[21.5248,-33.0474,468.0769],[21.5458,-33.0562,462.6173],[21.5472,-33.0622,458.7282],[21.5441,-33.0755,461.5074],[21.5573,-33.0861,450.2839],[21.5668,-33.0884,450.3056],[21.5761,-33.0852,445.374],[21.5814,-33.0865,443.42],[21.5853,-33.0967,442.0266],[21.5782,-33.1059,438.70119999999997],[21.5778,-33.1154,435.8748],[21.6044,-33.1401,422.9818],[21.607,-33.1413,419.8786],[21.6373,-33.1413,480.899],[21.6289,-33.1627,439.4925],[21.6167,-33.1774,407.4741],[21.6207,-33.1795,407.5164],[21.6257,-33.1792,405.1735],[21.6278,-33.1916,398.4105],[21.6222,-33.1925,411.3419],[21.6135,-33.216,496.7262],[21.6373,-33.2139,396.2105],[21.6429,-33.2249,388.7436],[21.6386,-33.2353,385.7245],[21.6367,-33.2459,382.9734],[21.624,-33.2464,412.6717],[21.6318,-33.2694,481.0415],[21.6366,-33.2697,387.0179],[21.6335,-33.2735,376.0],[21.6324,-33.28,376.0],[21.6334,-33.2957,376.0],[21.6371,-33.3004,376.0],[21.6364,-33.3037,376.0],[21.6344,-33.3056,376.0],[21.629,-33.3054,493.2911],[21.551,-33.3408,1077.3629],[21.6115,-33.3347,1162.3618],[21.6356,-33.3586,565.8774],[21.6971,-33.3565,453.853],[21.6325,-33.3769,317.4639],[21.6119,-33.3968,989.0545],[21.68,-33.4048,1614.3022],[21.7079,-33.3964,1539.4313],[21.7472,-33.3971,1659.1401],[21.7926,-33.3899,1833.4032],[21.8272,-33.391,1920.9711],[21.8569,-33.3824,1963.3855],[21.9021,-33.365,1791.5322],[21.9629,-33.3662,1922.8257],[22.0058,-33.3555,1869.7909],[22.0509,-33.3515,1585.5992],[22.1453,-33.3354,1811.8025],[22.1822,-33.3217,1860.6348],[22.214,-33.315,1742.0223],[22.2887,-33.334,1808.4318],[22.3913,-33.3641,1802.9731],[22.4647,-33.4045,2064.8093],[22.5157,-33.4097,2020.9987],[22.5818,-33.4047,1634.4359],[22.6643,-33.4157,1988.6711],[22.7145,-33.4149,1984.5919],[22.7744,-33.4197,1726.3988],[22.7845,-33.4155,1518.6439],[22.7357,-33.3948,1250.6603],[22.7375,-33.379,1139.3157],[22.7393,-33.324,969.896],[22.7734,-33.3263,927.4442],[22.7739,-33.309,1282.9666],[22.7903,-33.3073,1240.9688],[22.8402,-33.2202,784.0733],[22.8772,-33.1869,795.798],[22.8923,-33.1416,814.6013],[22.9553,-33.0731,905.4634],[22.9578,-33.0451,951.9357],[22.9509,-33.0382,945.4225]]]]}}