{"type":"Feature","properties":{"GID_3":"ZAF.8.3.3_1","GID_0":"ZAF","country":"SouthAfrica","GID_1":"ZAF.8_1","province":"NorthernCape","NL_NAME_1":"NA","GID_2":"ZAF.8.3_1","county":"Namakwa","NL_NAME_2":"NA","city":"KarooHoogland","VARNAME_3":"NA","NL_NAME_3":"NA","TYPE_3":"LocalMunicipality","ENGTYPE_3":"LocalMunicipality","CC_3":"NC066","HASC_3":"NA","name":"Karoo_Hoogland.city"},
"geometry":{"type": "MultiPolygon","coordinates": [[[[20.2959,-32.8045,1098.1882],[20.2999,-32.805,1111.2205],[20.3417,-32.8578,1311.4968],[20.3572,-32.8641,1299.9163],[20.3639,-32.8859,1341.9805],[20.3639,-32.9108,1248.1226],[20.3801,-32.9019,1233.7751],[20.4386,-32.9401,1381.5736],[20.4993,-32.9416,1397.4866],[20.5612,-32.881,1108.804],[20.5921,-32.9265,1067.3016],[20.5901,-32.943,1137.896],[20.6219,-32.9431,1115.2439],[20.6496,-32.9337,1038.7651],[20.6503,-32.9323,1028.5359],[20.7312,-32.945,964.4393],[20.7442,-32.9129,922.0602],[20.7986,-32.8947,925.8068],[20.8324,-32.8174,1180.1996],[20.8303,-32.7846,1328.0375],[20.7922,-32.735,1191.3918],[20.7898,-32.7112,1265.2651],[20.8228,-32.6945,1374.1479],[20.8441,-32.6624,1677.349],[20.9628,-32.6393,1613.8965],[21.0373,-32.6491,1670.2384],[21.0603,-32.6555,1650.5007],[21.0945,-32.653,1672.8942],[21.157,-32.6289,1082.6528],[21.1401,-32.5898,1692.823],[21.1821,-32.5087,1222.6161],[21.1883,-32.5031,1187.0238],[21.1975,-32.4998,1268.4801],[21.2311,-32.4632,1675.6997],[21.2695,-32.4503,1789.4546],[21.2815,-32.4397,1768.1074],[21.303,-32.4024,1448.5283],[21.3015,-32.3773,1702.451],[21.3528,-32.3915,1646.6675],[21.4084,-32.3688,1607.2904],[21.4299,-32.3752,1499.9863],[21.4436,-32.3548,1486.2245],[21.4756,-32.3315,1578.032],[21.5191,-32.337,1595.6145],[21.5504,-32.3269,1310.4189],[21.5618,-32.3147,1481.9401],[21.549,-32.2908,1833.0488],[21.536,-32.2292,1624.9363],[21.5489,-32.2284,1493.7092],[21.5786,-32.2215,1502.3228],[21.5944,-32.2169,1509.8901],[21.6065,-32.2097,1409.8356],[21.6446,-32.2087,1358.4851],[21.6655,-32.2314,1685.687],[21.6738,-32.2433,1699.8137],[21.6917,-32.2486,1653.5713],[21.7114,-32.2248,1617.4097],[21.7359,-32.205,1605.4451],[21.746,-32.2252,1532.8815],[21.773,-32.2268,1322.3574],[21.7703,-32.2384,1443.9731],[21.7806,-32.2509,1567.1237],[21.8551,-32.2755,1451.0067],[21.8742,-32.2766,1552.1125],[21.9016,-32.2709,1350.0858],[21.9046,-32.2564,1216.8517],[21.9074,-32.2528,1134.6398],[21.9246,-32.262,911.0541],[21.9362,-32.2229,1415.1775],[21.9712,-32.2164,1599.0779],[21.9959,-32.203,1362.8032],[21.9995,-32.206,1280.8728],[22.0035,-32.1742,1370.0342],[22.0164,-32.1143,1412.2646],[22.0696,-32.0815,1414.5044],[22.0896,-32.1464,1532.7303],[22.1199,-32.077,1522.7838],[22.134,-32.0644,1558.4232],[22.0936,-32.0459,1509.8789],[22.0741,-32.0179,1423.8335],[22.095,-32.0011,1499.6077],[22.0892,-31.9743,1482.3125],[22.0713,-31.9393,1366.2985],[22.1004,-31.9243,1352.6687],[22.1017,-31.9005,1330.3813],[22.1005,-31.893,1327.5889],[22.0972,-31.8886,1343.1034],[22.0917,-31.8854,1323.0078],[22.084,-31.8757,1319.5576],[22.0843,-31.8688,1317.4778],[22.0824,-31.8685,1316.6375],[22.08,-31.8637,1315.7683],[22.0789,-31.8549,1313.1665],[22.1159,-31.8626,1517.6877],[22.1315,-31.8843,1530.7739],[22.1666,-31.8931,1563.6682],[22.1769,-31.8207,1346.0004],[22.1599,-31.8097,1357.1692],[22.2063,-31.7922,1399.1962],[22.204,-31.764,1415.7312],[22.1879,-31.7814,1369.0132],[22.1833,-31.7816,1379.806],[22.1797,-31.7817,1377.9779],[22.1161,-31.7584,1409.6511],[22.0496,-31.77,1330.3302],[21.9868,-31.7199,1362.9891],[21.9854,-31.6959,1338.3173],[21.9441,-31.6822,1280.7255],[21.9155,-31.6457,1281.621],[21.9287,-31.6213,1261.1619],[21.9323,-31.6243,1262.7014],[21.9497,-31.601,1257.6763],[22.0117,-31.5905,1314.5674],[22.0005,-31.5662,1281.2717],[21.9879,-31.5581,1283.8501],[21.962,-31.5122,1253.4198],[21.9533,-31.4707,1273.0936],[21.9448,-31.4726,1281.9888],[21.9199,-31.4912,1295.0068],[21.8655,-31.4973,1287.4697],[21.8499,-31.4564,1292.4641],[21.9328,-31.4342,1253.6603],[21.9378,-31.4259,1245.2753],[21.9298,-31.4181,1297.4507],[21.8802,-31.3995,1320.845],[21.8145,-31.3978,1252.5599],[21.8228,-31.3535,1229.9016],[21.8137,-31.3334,1267.8289],[21.796,-31.3163,1232.9],[21.7473,-31.3158,1274.5867],[21.7624,-31.2714,1264.9875],[21.7261,-31.2638,1287.0715],[21.6692,-31.2619,1316.2189],[21.6148,-31.2499,1344.3201],[21.6082,-31.1973,1328.8833],[21.6219,-31.1514,1330.3933],[21.6938,-31.1701,1273.4841],[21.7022,-31.1648,1277.416],[21.688,-31.127,1294.6025],[21.6707,-31.0976,1290.0935],[21.5881,-31.0619,1333.4548],[21.5672,-31.0969,1370.2275],[21.5098,-31.0572,1345.396],[21.5256,-31.0035,1339.3801],[21.483,-30.9939,1366.209],[21.4858,-30.9574,1415.3269],[21.4831,-30.9448,1394.3928],[21.502,-30.9148,1390.0878],[21.5034,-30.8881,1542.1776],[21.4842,-30.8906,1313.6095],[21.4696,-30.8752,1307.481],[21.4933,-30.8281,1371.5105],[21.4651,-30.8204,1404.3087],[21.4477,-30.7842,1396.9138],[21.4834,-30.7461,1301.0673],[21.4209,-30.7286,1096.981],[21.3815,-30.6992,1078.5308],[21.3753,-30.6889,1097.1127],[21.3364,-30.6383,1012.8649],[21.2709,-30.5895,977.2231],[21.3081,-30.5436,1012.7977],[21.2652,-30.4744,1012.1522],[21.2517,-30.3975,1011.2071],[21.2198,-30.3329,960.9902],[21.1944,-30.3384,1014.2332],[21.1085,-30.3356,1005.1993],[21.0743,-30.3325,996.7342],[21.0729,-30.3323,996.7342],[21.0749,-30.3026,1000.4813],[21.0772,-30.301,1000.1608],[21.0201,-30.3018,983.9593],[20.978,-30.3129,991.0774],[20.9775,-30.3156,990.9764],[20.8911,-30.3447,973.0375],[20.8522,-30.3438,977.0889],[20.8164,-30.327,973.4979],[20.7597,-30.2961,982.2672],[20.7281,-30.299,986.6417],[20.6623,-30.2874,953.3846],[20.581,-30.247,896.5693],[20.5791,-30.292,902.5054],[20.5602,-30.3667,905.1704],[20.5306,-30.4073,909.5884],[20.5193,-30.4419,910.6141],[20.5331,-30.4525,925.2955],[20.5142,-30.4758,917.1563],[20.4994,-30.5002,923.1557],[20.4777,-30.5064,919.6025],[20.4428,-30.5394,922.4729],[20.4554,-30.5909,926.8206],[20.4785,-30.6206,930.5742],[20.4553,-30.6627,937.53],[20.4455,-30.7177,940.3633],[20.4121,-30.7583,940.4241],[20.3832,-30.8153,944.1358],[20.4422,-30.88,963.1931],[20.4205,-30.8981,948.7827],[20.4593,-30.8989,1004.6497],[20.3899,-30.9568,971.0005],[20.3745,-31.009,1005.1774],[20.3786,-31.0269,1002.7504],[20.3665,-31.0415,989.2836],[20.3512,-31.0909,1011.9156],[20.389,-31.1546,996.3729],[20.3968,-31.1501,997.212],[20.4031,-31.1855,1000.6813],[20.4231,-31.1785,1009.1182],[20.4605,-31.1768,1056.6873],[20.5499,-31.2027,1040.6757],[20.5514,-31.1994,1040.0532],[20.559,-31.196,1033.1707],[20.589,-31.1923,1015.0565],[20.6263,-31.1879,999.557],[20.6315,-31.1927,1001.0436],[20.5793,-31.2263,1075.1631],[20.5515,-31.2354,1069.963],[20.5916,-31.3106,1273.7555],[20.5463,-31.3315,1269.9794],[20.5619,-31.3906,1226.147],[20.582,-31.3897,1242.5447],[20.5793,-31.4152,1172.076],[20.5277,-31.4249,1109.0742],[20.553,-31.4564,1115.3629],[20.5641,-31.4941,1186.6116],[20.6241,-31.5201,1096.592],[20.6102,-31.5363,1117.1699],[20.5847,-31.574,1080.2822],[20.5576,-31.6048,1125.4545],[20.6105,-31.6575,1129.9485],[20.5625,-31.7228,1177.4247],[20.5828,-31.7333,1235.9623],[20.6025,-31.7549,1159.4258],[20.621,-31.7658,1162.0979],[20.6484,-31.8445,1222.7114],[20.5593,-31.8527,1156.7825],[20.4756,-31.8406,1345.2583],[20.4747,-31.8062,1332.4426],[20.4349,-31.8051,1278.1619],[20.3719,-31.822,1079.3378],[20.3316,-31.8435,1165.8076],[20.3176,-31.8641,1214.1973],[20.3405,-31.8965,1189.3259],[20.3267,-31.9035,1182.2322],[20.2914,-31.9688,1276.8696],[20.2957,-31.9769,1343.5164],[20.2863,-32.0058,1486.441],[20.2801,-32.0124,1524.7161],[20.311,-32.0326,1511.1154],[20.2771,-32.0842,1604.6525],[20.2469,-32.0903,1557.436],[20.1889,-32.0876,1252.5125],[20.181,-32.114,1181.33],[20.1731,-32.091,1188.6265],[20.1647,-32.0874,1180.9147],[20.162,-32.1443,714.6986],[20.1381,-32.1803,1183.2509],[20.1506,-32.1866,594.2318],[20.181,-32.1845,1302.0106],[20.1664,-32.2275,1244.8777],[20.2408,-32.2242,1570.3475],[20.2463,-32.2526,1528.3007],[20.2542,-32.3108,1610.1226],[20.216,-32.3032,1459.7396],[20.1635,-32.351,498.7186],[20.1705,-32.3809,476.2451],[20.132,-32.4211,440.8178],[20.0796,-32.3973,424.9939],[20.0964,-32.4767,855.0518],[20.0968,-32.503,953.5342],[20.1228,-32.557,915.8279],[20.1147,-32.5702,1044.3839],[20.1369,-32.611,1086.4209],[20.1412,-32.6437,1044.1711],[20.1814,-32.6681,995.5238],[20.1917,-32.6858,1105.749],[20.1876,-32.7527,1161.5024],[20.219,-32.7847,1154.3724],[20.2573,-32.7997,1133.0911],[20.2959,-32.8045,1098.1882]]]]}}