{"type": "Feature","bbox": [24.724971688237787,-30.265522681224809,24.978124837571045,-29.966448728059021],"geometry": {"type": "Polygon","coordinates": [[[24.968116457248556,-30.221368062155051,1369.5555],[24.956047528036152,-30.204000578654302,1169.0],[24.94015186517106,-30.197230203730271,1169.0],[24.917780191509053,-30.19045982880624,1331.1888],[24.900707072135418,-30.173975437686863,1347.7838],[24.893936697211387,-30.151898128152,1222.9987],[24.90247325689819,-30.128348997981448,1330.5057],[24.89658597435556,-30.125110992582989,1205.0784],[24.8933479689571,-30.121284258930302,1264.4999],[24.890993055940072,-30.117457525277587,1296.3694],[24.869504474659436,-30.095380215742694,1310.4316],[24.858613001955575,-30.081545101767517,1172.6626],[24.83064840987808,-30.008542798238864,1217.0988],[24.813280926377303,-29.991175314738086,1201.6675],[24.788554339698237,-29.974102195364452,1169.0],[24.758234834603684,-29.966448728059021,1197.5443],[24.724971688237787,-29.97734020076291,1238.9385],[24.741750443484307,-29.982050026797026,1169.0],[24.762355932383514,-29.985288032195456,1228.0723],[24.781489600647092,-29.991469678865229,1171.1058],[24.793558529859467,-30.004716064586148,1173.3004],[24.795324714622268,-30.023849732849698,1216.4541],[24.786493790808322,-30.040628488096218,1242.5496],[24.770892492070345,-30.051519960800078,1201.5106],[24.75205318793391,-30.053286145562879,1183.0337],[24.764710845400572,-30.074774726843486,1180.8009],[24.773541769214518,-30.083016922403175,1171.9645],[24.786493790808322,-30.087432384310148,1340.0647],[24.802683817800556,-30.08507747129309,1206.1744],[24.813575290504446,-30.079778917004717,1169.0],[24.822700578445506,-30.08007328113186,1199.392],[24.834180779403653,-30.094202759234179,1169.0],[24.835358235912167,-30.1186349817861,1169.0],[24.828882225115279,-30.148365758626397,1361.0421],[24.827704768606765,-30.167499426889975,1345.5482],[24.844189159726113,-30.159257231330287,1169.0],[24.865972105133864,-30.151603764024856,1227.4304],[24.877157941964867,-30.16955997577989,1179.9116],[24.881279039744726,-30.197818931984528,1209.6333],[24.881867767998983,-30.221073698027936,1169.0],[24.8848114092703,-30.23049335009614,1177.8621],[24.891581784194329,-30.231082078350397,1223.2515],[24.899529615626875,-30.22637225231631,1218.1979],[24.905711262296649,-30.221073698027936,1279.675],[24.91336472960208,-30.217835692629478,1257.667],[24.920723832780368,-30.221662426282194,1257.4836],[24.933381490247029,-30.234908812003113,1182.7029],[24.937502588026859,-30.240501730418629,1258.8381],[24.944567327078033,-30.254925572648062,1169.0],[24.946922240095091,-30.257869213919378,1169.0],[24.956930620417552,-30.258163578046521,1169.0],[24.963995359468726,-30.259341034555035,1281.855],[24.970177006138471,-30.261401583444979,1189.2656],[24.978124837571045,-30.265522681224809,1206.2041],[24.975769924553987,-30.243739735817059,1329.7045],[24.968116457248556,-30.221368062155051,1369.5555]]]}
,"properties": {"featurecla": "Reservoir","scalerank": 8,"name": "Vanderkloof Dam","name_abb": "Vanderkloof Dam","name_alt": null,"note": null,"delta": null,"dam_name": null,"year": -99,"admin": null,"min_zoom": 6.0,"min_label": 7.0,"area_km2": 165.7817,"hist_schema_id": "Elevation0-9000","hist_area_km2": {"1150": 0.202,"1175": 87.7016,"1200": 19.0617,"1225": 13.5749,"1250": 9.6854,"1275": 6.9145,"1300": 5.3549,"1325": 6.5455,"1350": 10.6527,"1375": 4.0159,"1400": 2.0725}}}