{"type": "Feature","bbox": [25.505625353390997,-30.722964534787423,25.971898130767556,-30.525446205482069],"geometry": {"type": "Polygon","coordinates": [[[25.945994087579976,-30.548406607398334,1258.0],[25.938340620274545,-30.553410797559593,1258.0],[25.917440767248195,-30.530744759770442,1265.7822],[25.910376028197021,-30.525446205482069,1268.0966],[25.891242359933472,-30.527506754371984,1258.0],[25.874169240559837,-30.538103862948731,1258.0],[25.848853925626514,-30.559592444229338,1258.0],[25.86268903960169,-30.586085215671204,1258.0],[25.86268903960169,-30.595504867739407,1270.5044],[25.855035572296288,-30.608162525206069,1258.0],[25.848559561499371,-30.61081180235027,1258.0],[25.84178918657534,-30.608751253460326,1258.2241],[25.83678499641411,-30.609045617587469,1260.2761],[25.834724447524195,-30.618465269655673,1268.8591],[25.831192077998622,-30.62082018267273,1264.679],[25.813530230370702,-30.627001829342504,1277.1813],[25.807348583700957,-30.628473649978162,1342.3495],[25.809409132590872,-30.621997639181274,1265.4324],[25.81176404560793,-30.607868161078954,1258.0],[25.814118958624988,-30.601392150282038,1258.0],[25.803816214175356,-30.595504867739407,1258.0],[25.789392371945922,-30.580492297255688,1258.0],[25.780561448131976,-30.5740162864588,1258.437],[25.778206535114919,-30.602863970917696,1260.1859],[25.767903790665315,-30.638187666173508,1269.2791],[25.753774312562996,-30.660264975708373,1314.3135],[25.739056106206391,-30.649079138877369,1292.051],[25.733757551918018,-30.654083329038627,1267.1089],[25.730225182392445,-30.6558495138014,1273.3405],[25.727575905248273,-30.657910062691315,1267.5691],[25.724926628104072,-30.663208616979688,1258.0],[25.716978796671526,-30.6576156985642,1266.9014],[25.711091514128896,-30.655555149674285,1262.4688],[25.705498595713379,-30.6576156985642,1258.0],[25.697550764280834,-30.663208616979688,1265.4695],[25.688425476339745,-30.642897492207624,1258.0],[25.6787114601444,-30.630239834740962,1258.0],[25.663698889660708,-30.623469459816931,1258.0],[25.6395610312359,-30.621703275054131,1273.7864],[25.627492102023496,-30.615521628384357,1347.1594],[25.632496292184726,-30.601392150282038,1348.1262],[25.646331406159931,-30.586968308052604,1258.0],[25.659872156007992,-30.580786661382831,1258.0],[25.663404525533565,-30.578431748365773,1258.0],[25.663698889660708,-30.573427558204543,1259.5007],[25.662227069025022,-30.567540275661912,1258.0],[25.659872156007992,-30.563419177882054,1258.0],[25.654279237592476,-30.559298080102224,1259.4319],[25.651629960448304,-30.561064264864996,1258.0],[25.64956941155836,-30.566951547407626,1258.0],[25.643093400761472,-30.569306460424684,1258.0],[25.633968112820384,-30.578431748365773,1271.4309],[25.625725917260695,-30.580786661382831,1258.0],[25.611007710904119,-30.57902047662003,1258.0],[25.602471151217316,-30.576665563602972,1258.0],[25.595112048039027,-30.5740162864588,1258.0],[25.589519129623511,-30.568717732170427,1306.9158],[25.586575488352196,-30.561652993119282,1258.0],[25.581571298190966,-30.556060074703765,1258.0],[25.570679825487076,-30.553410797559593,1258.0],[25.560671445164616,-30.555176982322365,1258.0],[25.553017977859184,-30.559886808356481,1258.0],[25.550663064842126,-30.567540275661912,1258.0],[25.557139075639043,-30.577254291857258,1267.7878],[25.56096580929173,-30.585790851544061,1283.5513],[25.553606706113442,-30.590206313451034,1286.1637],[25.532412488959977,-30.594327411230893,1266.8612],[25.525053385781689,-30.593738682976635,1258.0],[25.516222461967715,-30.591678134086692,1258.0],[25.508863358789426,-30.593444318849492,1267.7786],[25.505625353390997,-30.604630155680496,1258.0],[25.506214081645254,-30.614638536002957,1258.0],[25.508274630535169,-30.621114546799873,1258.0],[25.512395728315028,-30.624941280452589,1258.0],[25.519166103239058,-30.628473649978162,1258.0],[25.534178673722749,-30.631417291249477,1258.0],[25.568030548342904,-30.627884921723904,1270.8619],[25.590990950259169,-30.629356742359562,1258.0],[25.599821874073115,-30.628179285851019,1311.8418],[25.606297884870031,-30.629945470613819,1308.6138],[25.608652797887061,-30.639070758554908,1258.0],[25.608652797887061,-30.683814105878923,1258.0],[25.616600629319635,-30.680281736353322,1269.4176],[25.624842824879323,-30.678221187463407,1259.1467],[25.642799036634358,-30.677043730954892,1258.0],[25.652218688702561,-30.679104279844807,1261.8214],[25.659872156007992,-30.683814105878923,1258.0],[25.66134397664365,-30.688523931913011,1258.0],[25.638972302981642,-30.69352812207427,1265.5527],[25.610124618522718,-30.707363236049446,1258.0],[25.595112048039027,-30.710306877320761,1259.7361],[25.608947162014204,-30.720903985897507,1258.0],[25.635439933456041,-30.722375806533165,1260.3702],[25.680772009034342,-30.717960344626192,1258.0],[25.719333709688584,-30.722964534787423,1258.0],[25.724926628104072,-30.721492714151765,1258.0],[25.729636454138188,-30.707068871922303,1258.0],[25.741116655096334,-30.701770317633958,1258.0],[25.754951769071511,-30.702064681761073,1300.1863],[25.766431970029657,-30.70353650239673,1271.9122],[25.777323442733518,-30.710306877320761,1258.0],[25.781150176386234,-30.71943216526185,1258.0],[25.784388181784692,-30.72031525764325,1258.0],[25.794396562107153,-30.70353650239673,1258.0],[25.797045839251354,-30.693233757947127,1267.5393],[25.799106388141269,-30.669390263649461,1301.804],[25.803816214175356,-30.659381883326972,1286.387],[25.817945692277675,-30.65172841602157,1258.0],[25.840906094193969,-30.664386073488231,1307.072],[25.852091931024972,-30.659381883326972,1258.0],[25.876229789449752,-30.621703275054131,1268.1755],[25.896540914221845,-30.627296193469618,1313.3325],[25.902722560891618,-30.604335791553353,1262.0033],[25.900073283747417,-30.559592444229338,1265.8658],[25.919206952010995,-30.565479726771969,1258.0],[25.935691343130344,-30.5740162864588,1266.6859],[25.951881370122607,-30.571955737568885,1259.6621],[25.971898130767556,-30.545462966127019,1258.2864],[25.953058826631121,-30.545757330254162,1258.0],[25.945994087579976,-30.548406607398334,1258.0]]]}
,"properties": {"featurecla": "Reservoir","scalerank": 8,"name": "Gariep Dam","name_abb": "Gariep Dam","name_alt": "Hendrik Verwoerd Dam","note": null,"delta": null,"dam_name": "Gariep Dam","year": 1971,"admin": null,"min_zoom": 6.0,"min_label": 7.0,"area_km2": 321.2332,"hist_schema_id": "Elevation0-9000","hist_area_km2": {"1250": 274.0898,"1275": 34.2465,"1300": 8.0813,"1325": 2.0795,"1350": 1.3863,"1375": 0.6567,"1400": 0.4013,"1425": 0.2918}}}