{"type":"Feature","properties":{"featurecla":"River","scalerank":8,"rivernum":775,"dissolve":"775River","name":"Great4","name_alt":null,"note":null,"min_zoom":7.0,"strokeweig":0.2,"name_en":"Great Kei","min_label":8.0},
"geometry":{"type": "LineString","coordinates": [[26.71533203125,-32.026397393755886,1076.9015],[26.729736328125,-32.029620050005889,1069.1771],[26.756103515625,-32.04363372188088,1044.3193],[26.777099609375,-32.04680755000588,1032.9526],[26.791406250000023,-32.053252862505886,1027.8146],[26.80908203125,-32.08147551875588,1007.3007],[26.828320312500011,-32.08782317500588,1008.087],[26.836181640625,-32.08489348750588,1000.1222],[26.840234375000023,-32.077471612505889,1005.1595],[26.841796875,-32.067705987505889,993.1319],[26.842041015625,-32.057452081255889,1019.4358],[26.845898437500011,-32.048663018755889,1080.0421],[26.855566406250006,-32.04656340938088,984.0457],[26.866943359375,-32.04729583125588,1041.9098],[26.876708984375,-32.04680755000588,1067.1047],[26.910742187500006,-32.03728606563088,976.3538],[26.92578125,-32.036651300005886,997.3276],[26.945068359375,-32.03997161250588,981.3088],[26.964599609375,-32.04680755000588,982.7139],[27.01328125,-32.074737237505886,970.1219],[27.019238281250011,-32.07317473750588,922.8623],[27.026123046875,-32.068194268755889,965.0223],[27.031494140625,-32.06731536250588,961.7402],[27.033789062500006,-32.077959893755889,922.2743],[27.035839843750011,-32.084014581255886,902.4182],[27.039453125000023,-32.09026458125588,916.989],[27.0400390625,-32.09807708125588,986.0684],[27.033789062500006,-32.108916925005886,966.354],[27.0625,-32.10833098750588,907.2532],[27.076074218750023,-32.11028411250588,912.7745],[27.08837890625,-32.115752862505886,881.3226],[27.105712890625,-32.113604425005889,886.3167],[27.133691406250023,-32.11907317500588,863.5475],[27.1474609375,-32.13128020625588,854.7687],[27.12255859375,-32.14983489375588,840.6294],[27.12255859375,-32.15667083125588,833.7349],[27.141210937500006,-32.163897393755889,824.7424],[27.16015625,-32.160674737505886,844.8193],[27.17919921875,-32.15374114375588,1014.9713],[27.1982421875,-32.14983489375588,806.3699],[27.212158203125,-32.152373956255886,777.3452],[27.220800781250006,-32.15837981563088,783.233],[27.228417968750023,-32.16545989375588,774.1164],[27.239160156250023,-32.170928643755886,756.5769],[27.24658203125,-32.17205169063088,789.119],[27.302441406250011,-32.171221612505889,916.1888],[27.36376953125,-32.16155364375588,736.4045],[27.384033203125,-32.16253020625588,658.0272],[27.402246093750023,-32.160674737505886,631.6354],[27.41796875,-32.14983489375588,615.8918],[27.429296875,-32.16057708125588,673.1245],[27.5,-32.170928643755886,613.266],[27.5009765625,-32.192901300005886,649.4121],[27.570898437500006,-32.19793059688088,637.2443],[27.58935546875,-32.22185637813088,534.9686],[27.593017578125,-32.23479583125588,516.8658],[27.603125,-32.24456145625588,566.7823],[27.6171875,-32.250811456255889,477.7439],[27.633056640625,-32.25286223750588,642.5118],[27.66552734375,-32.28337981563088,536.091],[27.671142578125,-32.29387786250588,560.47],[27.677978515625,-32.29387786250588,492.4274],[27.682373046875,-32.280791925005886,441.6302],[27.6890625,-32.27410247188088,491.1651],[27.695214843750023,-32.27654387813088,420.6077],[27.697998046875,-32.29045989375588,544.5468],[27.697851562500006,-32.305010675005889,678.902],[27.69921875,-32.317217706255889,725.0911],[27.704199218750006,-32.325518487505889,491.8965],[27.715576171875,-32.328643487505886,402.5711],[27.7333984375,-32.31829192500588,453.7737],[27.743896484375,-32.31707122188088,501.6291],[27.746337890625,-32.328643487505886,632.9381],[27.7392578125,-32.338702081255889,466.64],[27.726464843750023,-32.34392669063088,410.4832],[27.697998046875,-32.349151300005886,601.9734],[27.70361328125,-32.355303643755889,582.3533],[27.715576171875,-32.36565520625588,485.6703],[27.718994140625,-32.36956145625588,482.5374],[27.720800781250006,-32.37786223750588,493.0674],[27.7216796875,-32.39641692500588,474.8153],[27.725830078125,-32.40374114375588,508.6716],[27.740332031250006,-32.40935637813088,493.921],[27.762792968750006,-32.412139581255886,359.3006],[27.783789062500006,-32.410674737505886,337.3267],[27.794042968750006,-32.40374114375588,388.0221],[27.78564453125,-32.395049737505886,297.1292],[27.7685546875,-32.386748956255886,288.0119],[27.7607421875,-32.37859465938088,688.3172],[27.780371093750006,-32.36956145625588,439.4919],[27.7998046875,-32.37029387813088,452.5951],[27.818115234375,-32.37932708125588,487.6017],[27.8330078125,-32.393877862505889,381.9469],[27.841894531250006,-32.41057708125588,310.9805],[27.869873046875,-32.387041925005889,306.1123],[27.888671875,-32.381377862505886,354.4685],[27.897070312500006,-32.40032317500588,313.0955],[27.900488281250006,-32.40520598750588,315.694],[27.907128906250023,-32.411651300005886,249.9053],[27.911230468750006,-32.41936614375588,245.7604],[27.90771484375,-32.42766692500588,484.6579],[27.900390625,-32.431963800005889,295.2691],[27.883203125000023,-32.43596770625588,366.3995],[27.876708984375,-32.438506768755886,423.9828],[27.876708984375,-32.444659112505889,723.3059],[27.902734375000023,-32.45794036250588,201.0558],[27.915722656250011,-32.46257903438088,222.1235],[27.932031250000023,-32.465166925005889,263.7004],[27.960351562500023,-32.461944268755886,210.3975],[27.9658203125,-32.46404387813088,173.7629],[27.95556640625,-32.475127862505886,240.4703],[27.949804687500006,-32.493682550005886,216.4649],[27.973242187500006,-32.50457122188088,231.647],[28.007714843750023,-32.506670831255889,260.2425],[28.034423828125,-32.49871184688088,174.55]]}}