{"type":"Feature","properties":{"featurecla":"River","scalerank":9,"rivernum":1039,"dissolve":"1039River","name":"Gamtoos1","name_alt":null,"note":null,"min_zoom":7.1,"strokeweig":0.2,"name_en":"Gamtoos","min_label":8.1},
"geometry":{"type": "LineString","coordinates": [[23.0458984375,-32.468584893755889,863.1182],[23.042724609375,-32.491241143755886,856.2431],[23.0185546875,-32.55388762813088,839.2102],[23.01416015625,-32.57439544063088,832.9923],[23.01171875,-32.63958098750588,815.9411],[23.002685546875,-32.697588800005889,803.1111],[23.0048828125,-32.71843840938088,797.0845],[23.01513671875,-32.73699309688088,798.2442],[23.030029296875,-32.74871184688088,792.4226],[23.047021484375023,-32.758330987505886,788.2497],[23.062890625000023,-32.77019622188088,782.6927],[23.120996093750023,-32.84197356563088,765.1683],[23.151757812500023,-32.86467864375588,759.9077],[23.300927734375023,-32.94573333125588,739.299],[23.381982421875023,-32.978057550005886,723.7063],[23.422021484375023,-33.00017669063088,725.7885],[23.437255859375,-33.016436456255889,713.9619],[23.4560546875,-33.05095794063088,698.6038],[23.471337890625023,-33.062041925005886,702.8036],[23.494287109375023,-33.065752862505889,700.3105],[23.518310546875,-33.066241143755889,791.0803],[23.5400390625,-33.07170989375588,1111.0836],[23.555566406250023,-33.090362237505886,780.0229],[23.556884765625,-33.09856536250588,790.712],[23.5546875,-33.115752862505886,684.0508],[23.555322265625023,-33.12371184688088,825.9693],[23.558837890625,-33.13225676875588,1065.5488],[23.563720703125,-33.139483331255889,1093.4801],[23.587890625,-33.165557550005886,675.7783],[23.596923828125,-33.17180755000588,675.5652],[23.669677734375,-33.197784112505886,690.8188],[23.684814453125,-33.20061614375588,664.0869],[23.697998046875,-33.19915130000588,657.3002],[23.741357421875023,-33.186553643755886,815.4104],[23.8017578125,-33.176788018755886,603.4204],[23.86328125,-33.177080987505889,592.7797],[24.008203125000023,-33.204424737505889,551.5921],[24.03173828125,-33.206084893755886,547.988],[24.063134765625023,-33.21184661250588,531.8725],[24.066552734375023,-33.21404387813088,530.4764],[24.068359375,-33.21868255000588,524.0043],[24.070947265625023,-33.22332122188088,516.1037],[24.076806640625023,-33.22551848750588,517.9792],[24.083251953125,-33.22332122188088,516.1337],[24.09375,-33.21404387813088,530.8164],[24.100976562500023,-33.21184661250588,513.6516],[24.115625,-33.21282317500588,496.5599],[24.126611328125023,-33.215362237505886,499.5657],[24.148828125000023,-33.22551848750588,499.73],[24.197265625,-33.267120050005886,782.2361],[24.212158203125,-33.265948175005889,561.7368],[24.223388671875,-33.25847747188088,464.871],[24.233300781250023,-33.25335051875588,459.83],[24.2451171875,-33.25969817500588,484.6766],[24.26513671875,-33.253936456255886,475.1794],[24.28076171875,-33.262041925005889,481.0534],[24.294677734375,-33.273955987505886,448.2987],[24.3095703125,-33.280108331255889,449.537],[24.343164062500023,-33.280303643755886,440.1009],[24.354736328125,-33.28630950313088,465.9954],[24.361083984375,-33.301299737505886,430.9389],[24.355371093750023,-33.310577081255886,423.9853],[24.350244140625023,-33.324541925005889,419.8345],[24.347412109375,-33.34050872188088,417.0982],[24.348388671875,-33.364288018755886,410.486],[24.347900390625,-33.37102630000588,412.0417],[24.35,-33.37542083125588,422.4797],[24.357666015625,-33.376983331255886,407.1885],[24.366845703125023,-33.37493255000588,404.5325],[24.37353515625,-33.370440362505889,407.3762],[24.378320312500023,-33.365752862505886,402.985],[24.381591796875,-33.363311456255886,396.9039],[24.3994140625,-33.36101653438088,403.9263],[24.409423828125,-33.363799737505886,405.4965],[24.430566406250023,-33.389971612505889,409.8129],[24.447900390625023,-33.405791925005886,385.0373],[24.459375,-33.41423919063088,384.0115],[24.467529296875,-33.41790130000588,376.4424],[24.484375,-33.42009856563088,366.0182],[24.508056640625,-33.42937590938088,394.3495],[24.5224609375,-33.43157317500588,377.6606]]}}