{"type":"Feature","properties":{"featurecla":"River","scalerank":8,"rivernum":775,"dissolve":"775River","name":"Great3","name_alt":null,"note":null,"min_zoom":7.0,"strokeweig":0.15,"name_en":"Great Kei","min_label":8.0},
"geometry":{"type": "LineString","coordinates": [[26.46435546875,-32.16521575313088,1484.0662],[26.431396484375,-32.14128997188088,1320.4572],[26.427832031250006,-32.108916925005886,1287.4181],[26.444726562500023,-32.03655364375588,1259.7358],[26.446875,-32.030791925005886,1257.1443],[26.456152343750006,-32.017608331255886,1230.5533],[26.458398437500023,-32.009600518755889,1223.4709],[26.45654296875,-31.995147393755886,1220.3988],[26.454199218750006,-31.987139581255889,1233.3182],[26.455761718750011,-31.98064544063088,1250.667],[26.465917968750006,-31.97112395625588,1202.5654],[26.48388671875,-31.96428801875588,1191.3176],[26.550537109375,-31.97112395625588,1171.2684],[26.575878906250011,-31.96990325313088,1165.3722],[26.592041015625,-31.970733331255886,1152.8842],[26.60205078125,-31.98064544063088,1167.8801],[26.609277343750023,-32.00652434688088,1220.3857],[26.607666015625,-32.01604583125588,1159.5779],[26.602783203125,-32.01848723750588,1170.9655],[26.602783203125,-32.019854425005889,1165.5897],[26.615478515625,-32.026397393755886,1329.2458],[26.623632812500006,-32.02874114375588,1205.6415],[26.64697265625,-32.03093840938088,1136.9302],[26.6533203125,-32.02971770625588,1150.8153],[26.668847656250023,-32.022002862505886,1108.5197],[26.685791015625,-32.02166106563088,1093.7845],[26.71533203125,-32.026397393755886,1076.9015]]}}