{"type":"Feature","properties":{"featurecla":"River","scalerank":9,"rivernum":1039,"dissolve":"1039River","name":"Gamtoos2","name_alt":null,"note":null,"min_zoom":7.1,"strokeweig":0.25,"name_en":"Gamtoos","min_label":8.1},
"geometry":{"type": "LineString","coordinates": [[24.5224609375,-33.43157317500588,377.6606],[24.583984375,-33.42473723750588,348.5872],[24.588134765625,-33.42693450313088,347.0693],[24.593505859375,-33.43157317500588,345.9256],[24.60009765625,-33.43621184688088,343.3314],[24.608154296875,-33.43840911250588,345.4112],[24.616113281250023,-33.43621184688088,339.0296],[24.622705078125023,-33.43157317500588,337.7242],[24.6279296875,-33.42693450313088,335.6498],[24.631982421875023,-33.42473723750588,336.6015],[24.648681640625,-33.428252862505886,353.9064],[24.690087890625023,-33.45208098750588,341.5537],[24.685205078125023,-33.461748956255889,315.7451],[24.683837890625,-33.47087981563088,347.2369],[24.685693359375023,-33.479327081255889,338.3654],[24.690087890625023,-33.48626067500588,308.1928],[24.682031250000023,-33.487334893755886,302.1919],[24.662744140625023,-33.493682550005886,313.6141],[24.662744140625023,-33.499834893755889,360.0157],[24.669091796875023,-33.51531340938088,331.9165],[24.67333984375,-33.58928801875588,322.565],[24.656884765625023,-33.59758880000588,222.003],[24.662841796875,-33.617998956255889,206.6904],[24.676660156250023,-33.642608331255886,508.1829],[24.683837890625,-33.664385675005889,157.5517],[24.676513671875,-33.664385675005889,252.7028],[24.668359375000023,-33.651690362505889,200.6053],[24.656494140625,-33.64812590938088,249.731],[24.631982421875023,-33.650713800005889,326.8181],[24.620019531250023,-33.656084893755889,149.4753],[24.605859375000023,-33.679522393755889,250.3812],[24.59765625,-33.684893487505889,114.3067],[24.598291015625023,-33.68962981563088,219.7285],[24.611718750000023,-33.71599700313088,248.0643],[24.6201171875,-33.745440362505889,85.6994],[24.632958984375023,-33.75481536250588,197.855],[24.649658203125,-33.759307550005886,116.0188],[24.674072265625,-33.761553643755889,79.9516],[24.687646484375023,-33.76580169063088,77.9135],[24.69384765625,-33.76677825313088,75.7489],[24.702783203125023,-33.76262786250588,69.9884],[24.705322265625,-33.75335051875588,145.7554],[24.704345703125,-33.73943450313088,98.2522],[24.716796875,-33.729815362505889,81.1566],[24.724267578125023,-33.73162200313088,133.1671],[24.731835937500023,-33.740752862505886,159.0525],[24.745263671875023,-33.75310637813088,115.0165],[24.756738281250023,-33.75823333125588,52.0402],[24.7861328125,-33.76702239375588,45.4107],[24.799951171875023,-33.774248956255889,42.9151],[24.808691406250006,-33.783526300005889,109.3184],[24.827246093750006,-33.822100518755889,105.7414],[24.840429687500006,-33.798858331255886,22.3397],[24.855078125,-33.800616143755889,41.2824],[24.862548828125,-33.818194268755889,13.2329],[24.853906250000023,-33.84246184688088,82.1363],[24.862548828125,-33.847002862505889,58.5165],[24.866308593750006,-33.853350518755889,43.9039],[24.869238281250006,-33.861163018755889,32.6908],[24.875,-33.870440362505889,67.4386],[24.882080078125,-33.87761809688088,10.5741],[24.92529296875,-33.90300872188088,15.649],[24.94140625,-33.90569426875588,21.8595],[24.97802734375,-33.89714934688088,6.696],[24.975976562500023,-33.90178801875588,6.6485],[24.97314453125,-33.913604425005886,5.2308],[24.97119140625,-33.918291925005889,9.5489],[24.995214843750006,-33.912627862505886,5.4906],[25.003320312500023,-33.914385675005889,3.8606],[25.01220703125,-33.925127862505889,3.2416],[25.013769531250006,-33.933623956255886,3.5011],[25.012597656250023,-33.944170831255889,0.25],[25.0126953125,-33.95525481563088,3.3996],[25.01904296875,-33.96599700313088,0.9208]]}}