{"type":"Feature","properties":{"featurecla":"River","scalerank":8,"rivernum":775,"dissolve":"775River","name":"Great5","name_alt":null,"note":null,"min_zoom":7.0,"strokeweig":0.25,"name_en":"Great Kei","min_label":8.0},
"geometry":{"type": "LineString","coordinates": [[28.034423828125,-32.49871184688088,174.55],[28.050537109375,-32.52654387813088,314.0268],[28.06103515625,-32.53020598750588,230.4751],[28.082128906250006,-32.526690362505889,199.7966],[28.10009765625,-32.52141692500588,141.5094],[28.1109375,-32.51458098750588,305.2876],[28.114355468750006,-32.50335051875588,239.8494],[28.109960937500006,-32.48503997188088,421.4816],[28.18515625,-32.52971770625588,155.8373],[28.182519531250023,-32.536163018755886,75.7446],[28.171630859375,-32.546709893755889,312.8148],[28.1708984375,-32.55388762813088,222.8548],[28.177734375,-32.571319268755886,107.3097],[28.18515625,-32.57415130000588,183.1409],[28.20166015625,-32.575225518755886,252.73],[28.218017578125,-32.57927825313088,128.1771],[28.225488281250023,-32.59148528438088,128.4114],[28.228759765625,-32.601885675005889,296.8193],[28.236328125,-32.60637786250588,176.0077],[28.25341796875,-32.60857512813088,148.0113],[28.271582031250006,-32.603350518755889,58.2916],[28.27734375,-32.602373956255889,14.9919],[28.284423828125,-32.605010675005886,79.0513],[28.289306640625,-32.61809661250588,177.3853],[28.295019531250006,-32.622881768755889,8.8894],[28.308496093750023,-32.62517669063088,225.6646],[28.3203125,-32.62542083125588,134.2346],[28.33154296875,-32.627764581255889,64.3964],[28.343359375,-32.636553643755889,136.33],[28.347363281250011,-32.64788176875588,125.27],[28.34619140625,-32.66008880000588,94.8012],[28.3486328125,-32.670928643755886,93.2469],[28.36328125,-32.67815520625588,81.3783]]}}