{"type": "Feature","bbox": [16.4519,-32.945,25.5493,-24.7659],"geometry": {"type": "MultiPolygon","coordinates": [[[[20.2711,-32.8014,1053.3508],[20.2999,-32.805,1111.2205],[20.3417,-32.8578,1311.4968],[20.3572,-32.8641,1299.9163],[20.3639,-32.8859,1341.9805],[20.3639,-32.9108,1248.1226],[20.3801,-32.9019,1233.7751],[20.4386,-32.9401,1381.5736],[20.4993,-32.9416,1397.4866],[20.5612,-32.881,1108.804],[20.5921,-32.9265,1067.3016],[20.5901,-32.943,1137.896],[20.6219,-32.9431,1115.2439],[20.6496,-32.9337,1038.7651],[20.6503,-32.9323,1028.5359],[20.7312,-32.945,964.4393],[20.7442,-32.9129,922.0602],[20.7986,-32.8947,925.8068],[20.8324,-32.8174,1180.1996],[20.8303,-32.7846,1328.0375],[20.7922,-32.735,1191.3918],[20.7898,-32.7112,1265.2651],[20.8228,-32.6945,1374.1479],[20.8441,-32.6624,1677.349],[20.9628,-32.6393,1613.8965],[21.0373,-32.6491,1670.2384],[21.0603,-32.6555,1650.5007],[21.0945,-32.653,1672.8942],[21.157,-32.6289,1082.6528],[21.1401,-32.5898,1692.823],[21.1821,-32.5087,1222.6161],[21.1883,-32.5031,1187.0238],[21.1975,-32.4998,1268.4801],[21.2311,-32.4632,1675.6997],[21.2695,-32.4503,1789.4546],[21.2815,-32.4397,1768.1074],[21.303,-32.4024,1448.5283],[21.3015,-32.3773,1702.451],[21.3528,-32.3915,1646.6675],[21.4084,-32.3688,1607.2904],[21.4299,-32.3752,1499.9863],[21.4436,-32.3548,1486.2245],[21.4756,-32.3315,1578.032],[21.5191,-32.337,1595.6145],[21.5504,-32.3269,1310.4189],[21.5618,-32.3147,1481.9401],[21.549,-32.2908,1833.0488],[21.536,-32.2292,1624.9363],[21.5489,-32.2284,1493.7092],[21.5786,-32.2215,1502.3228],[21.5944,-32.2169,1509.8901],[21.6065,-32.2097,1409.8356],[21.6446,-32.2087,1358.4851],[21.6655,-32.2314,1685.687],[21.6738,-32.2433,1699.8137],[21.6917,-32.2486,1653.5713],[21.7114,-32.2248,1617.4097],[21.7359,-32.205,1605.4451],[21.746,-32.2252,1532.8815],[21.773,-32.2268,1322.3574],[21.7703,-32.2384,1443.9731],[21.7806,-32.2509,1567.1237],[21.8551,-32.2755,1451.0067],[21.8742,-32.2766,1552.1125],[21.9016,-32.2709,1350.0858],[21.9046,-32.2564,1216.8517],[21.9074,-32.2528,1134.6398],[21.9246,-32.262,911.0541],[21.9362,-32.2229,1415.1775],[21.9712,-32.2164,1599.0779],[21.9959,-32.203,1362.8032],[21.9995,-32.206,1280.8728],[22.0035,-32.1742,1370.0342],[22.0164,-32.1143,1412.2646],[22.0696,-32.0815,1414.5044],[22.0896,-32.1464,1532.7303],[22.1199,-32.077,1522.7838],[22.134,-32.0644,1558.4232],[22.0936,-32.0459,1509.8789],[22.0741,-32.0179,1423.8335],[22.095,-32.0011,1499.6077],[22.0892,-31.9743,1482.3125],[22.0713,-31.9393,1366.2985],[22.1004,-31.9243,1352.6687],[22.1017,-31.9005,1330.3813],[22.1005,-31.893,1327.5889],[22.0972,-31.8886,1343.1034],[22.0917,-31.8854,1323.0078],[22.084,-31.8757,1319.5576],[22.0843,-31.8688,1317.4778],[22.0824,-31.8685,1316.6375],[22.08,-31.8637,1315.7683],[22.0789,-31.8549,1313.1665],[22.1159,-31.8626,1517.6877],[22.1315,-31.8843,1530.7739],[22.1666,-31.8931,1563.6682],[22.1769,-31.8207,1346.0004],[22.1599,-31.8097,1357.1692],[22.2063,-31.7922,1399.1962],[22.204,-31.764,1415.7312],[22.2374,-31.703,1502.4028],[22.2499,-31.6647,1481.967],[22.2601,-31.6625,1492.2722],[22.2729,-31.5925,1384.5254],[22.3123,-31.5835,1399.4791],[22.3551,-31.6054,1392.3341],[22.4333,-31.6382,1475.5813],[22.4958,-31.6703,1479.0452],[22.5648,-31.6779,1571.9749],[22.5661,-31.7132,1553.0571],[22.6191,-31.7246,1584.8445],[22.6094,-31.7398,1569.045],[22.5783,-31.8055,1453.806],[22.6149,-31.8229,1454.0287],[22.6318,-31.8234,1715.9133],[22.6312,-31.8197,1732.4775],[22.6332,-31.8157,1772.7441],[22.6421,-31.8162,1742.4648],[22.6443,-31.8143,1704.7786],[22.6463,-31.8155,1768.6776],[22.6475,-31.8196,1780.7904],[22.6515,-31.8217,1755.4705],[22.7351,-31.7994,1321.3251],[22.7575,-31.8275,1370.4976],[22.7769,-31.8569,1358.5654],[22.8253,-31.8377,1358.2081],[22.859,-31.8183,1311.0581],[22.8747,-31.8616,1310.1007],[22.902,-31.8758,1479.0935],[22.9538,-31.863,1119.828],[22.9758,-31.8608,1304.3679],[23.0387,-31.8775,1311.9172],[23.0674,-31.8907,1135.9917],[23.0523,-31.9103,1096.6769],[23.0526,-31.9398,1094.5103],[23.0587,-31.9548,1348.5374],[23.0709,-31.9538,1171.4548],[23.0876,-31.9723,1454.2814],[23.0985,-31.9777,1373.0183],[23.1043,-31.9606,1310.0138],[23.1188,-31.9601,1165.4221],[23.1395,-31.9515,1308.1165],[23.1448,-31.9431,1362.7627],[23.1519,-31.9398,1528.7805],[23.1712,-31.9181,1556.8846],[23.2304,-31.8757,1497.3561],[23.225,-31.854,1316.0416],[23.2624,-31.8154,1349.2024],[23.2634,-31.7783,1477.4335],[23.2661,-31.7732,1459.4363],[23.3024,-31.7301,1271.4429],[23.3451,-31.7109,1228.1423],[23.3871,-31.7148,1205.2902],[23.4071,-31.7138,1188.8723],[23.4017,-31.6996,1199.2678],[23.4165,-31.6722,1238.0656],[23.4231,-31.6821,1281.2046],[23.4961,-31.7027,1185.8556],[23.5239,-31.7053,1176.6714],[23.5355,-31.6918,1191.3496],[23.5745,-31.6892,1234.818],[23.5945,-31.6623,1356.7019],[23.6191,-31.6494,1361.7665],[23.6395,-31.6601,1503.5571],[23.6887,-31.6496,1629.4742],[23.7151,-31.647,1453.8799],[23.7345,-31.6546,1460.0839],[23.7565,-31.6957,1467.3779],[23.7775,-31.6971,1397.431],[23.8157,-31.7142,1363.9945],[23.8416,-31.7151,1398.9652],[23.8476,-31.7292,1311.3788],[23.8085,-31.7637,1368.209],[23.8372,-31.7679,1368.658],[23.8293,-31.7803,1330.6938],[23.8379,-31.7833,1350.2046],[23.8786,-31.8337,1375.3915],[23.894,-31.8368,1616.3617],[23.9159,-31.822,1572.5077],[23.9179,-31.7954,1604.9609],[23.9487,-31.7733,1502.4407],[23.9513,-31.7495,1590.2087],[23.9665,-31.7154,1645.2194],[23.9631,-31.7067,1641.674],[24.0468,-31.7067,1830.5918],[24.0291,-31.722,1893.5333],[24.0285,-31.7302,1665.155],[24.0431,-31.7673,1578.692],[24.0561,-31.776,1625.6514],[24.0709,-31.8071,1704.504],[24.1022,-31.7926,1932.2883],[24.1525,-31.7886,1790.2791],[24.1474,-31.7673,1743.4369],[24.1616,-31.7402,1968.1346],[24.226,-31.7474,1804.9862],[24.2402,-31.752,1628.8665],[24.2484,-31.7604,1587.1815],[24.2682,-31.7667,1623.9646],[24.2688,-31.7559,1800.5361],[24.285,-31.7652,1965.8099],[24.3016,-31.7583,1945.5553],[24.3153,-31.7501,2029.6655],[24.3224,-31.7418,1935.5333],[24.3247,-31.7241,1887.2975],[24.340699999999998,-31.7138,1966.6567],[24.4233,-31.7116,1953.0288],[24.4126,-31.6885,2007.6428],[24.4412,-31.7126,2028.0349],[24.4699,-31.7065,2075.168],[24.5063,-31.7068,2038.8083],[24.5141,-31.705,2035.5847],[24.5173,-31.6446,2013.1226],[24.523,-31.6037,1840.7146],[24.5039,-31.5684,1738.8201],[24.5245,-31.5454,1678.4871],[24.533,-31.5098,1542.0477],[24.5194,-31.4979,1531.7209],[24.5413,-31.4868,1564.6115],[24.5588,-31.4818,1555.3594],[24.5676,-31.4272,1493.8247],[24.5672,-31.4186,1470.384],[24.5961,-31.3992,1438.4399],[24.665,-31.3837,1456.7511],[24.7048,-31.4006,1725.3347],[24.7106,-31.4095,1697.8529],[24.7243,-31.3999,1566.4132],[24.7887,-31.3895,1779.4895],[24.8255,-31.3565,1763.6152],[24.8461,-31.3656,1859.677],[24.8602,-31.374,1903.4856],[24.8629,-31.3736,1930.9722],[24.8613,-31.3563,1849.0549],[24.853,-31.3282,1772.8783],[24.8988,-31.3137,1679.495],[24.9002,-31.3167,1824.2861],[24.9234,-31.3135,1650.4396],[24.9336,-31.3204,1547.2137],[24.942,-31.3151,1630.5909],[24.9487,-31.2983,1617.0392],[24.9605,-31.2855,1505.4429],[25.0056,-31.2631,1633.8551],[25.0445,-31.2661,1750.8337],[25.0585,-31.2694,1760.9512],[25.0735,-31.2533,1606.781],[25.0844,-31.2623,1641.4702],[25.1008,-31.2595,1678.3296],[25.1152,-31.2463,1806.2477],[25.1307,-31.2394,1710.7781],[25.1527,-31.2431,1649.1681],[25.1552,-31.2311,1644.1982],[25.1705,-31.2392,1677.9944],[25.1771,-31.2346,1665.8903],[25.1791,-31.2222,1700.5833],[25.1924,-31.2134,1614.1019],[25.1984,-31.2155,1665.2009],[25.2048,-31.2151,1655.8621],[25.2096,-31.2048,1677.9592],[25.2043,-31.2017,1655.5734],[25.211,-31.1921,1688.2432],[25.2197,-31.1904,1678.2124],[25.2238,-31.1923,1644.1108],[25.225,-31.1952,1531.1958],[25.2693,-31.2144,1540.5261],[25.2682,-31.2208,1578.8851],[25.2849,-31.2234,1629.7771],[25.2906,-31.2135,1546.5774],[25.3544,-31.236,1544.4504],[25.3688,-31.226,1504.6309],[25.3862,-31.2178,1522.6426],[25.3825,-31.2045,1495.1744],[25.3778,-31.1989,1505.3514],[25.3846,-31.151,1557.4521],[25.3982,-31.1307,1699.9844],[25.4156,-31.1344,1625.426],[25.4464,-31.1002,1582.3335],[25.4543,-31.0793,1752.4609],[25.4388,-31.0615,1686.9421],[25.4532,-31.0542,1554.201],[25.4638,-31.0547,1610.9819],[25.4867,-31.0369,1537.8043],[25.5016,-31.0074,1491.2051],[25.4848,-31.0063,1475.2864],[25.4758,-30.9912,1478.9155],[25.475,-30.9839,1471.2437],[25.4931,-30.9677,1474.0555],[25.511,-30.9557,1421.6273],[25.5064,-30.9503,1425.7302],[25.5083,-30.9422,1418.8153],[25.5046,-30.933,1450.573],[25.5104,-30.9284,1503.6636],[25.514,-30.9215,1508.8706],[25.5178,-30.9015,1469.8131],[25.5165,-30.9026,1452.4563],[25.5084,-30.8982,1492.8271],[25.5006,-30.888,1554.3239],[25.4713,-30.8698,1565.897],[25.4852,-30.8498,1579.6438],[25.5216,-30.8332,1646.0088],[25.5493,-30.791,1314.1473],[25.5479,-30.7898,1315.4014],[25.5249,-30.7964,1341.1456],[25.5084,-30.7888,1355.2605],[25.505,-30.7836,1341.8887],[25.4864,-30.7845,1576.1497],[25.4802,-30.7789,1564.3147],[25.4799,-30.7598,1372.3005],[25.4739,-30.7437,1383.6884],[25.4772,-30.7385,1409.2241],[25.4764,-30.7282,1403.8873],[25.4739,-30.7231,1431.483],[25.4624,-30.7221,1350.4558],[25.4625,-30.7155,1418.9847],[25.4665,-30.7098,1361.4369],[25.4638,-30.6894,1323.0811],[25.4602,-30.6833,1317.7456],[25.4633,-30.6777,1294.4294],[25.4719,-30.6729,1346.7124],[25.4697,-30.6688,1371.2648],[25.4713,-30.6667,1373.6936],[25.4604,-30.6608,1330.8794],[25.4585,-30.6574,1337.2618],[25.4565,-30.637,1234.1599],[25.4625,-30.6281,1267.5371],[25.4671,-30.6242,1193.4626],[25.4536,-30.609,1190.0701],[25.4213,-30.587,1188.8788],[25.4195,-30.5847,1191.1696],[25.42,-30.58,1188.1472],[25.4187,-30.5782,1185.5],[25.4057,-30.5721,1184.0],[25.3993,-30.5731,1192.9705],[25.3766,-30.5599,1183.9327],[25.3676,-30.5578,1188.0415],[25.3627,-30.5585,1182.2301],[25.3572,-30.5636,1182.3658],[25.3517,-30.5643,1187.4583],[25.3396,-30.5581,1184.4869],[25.3328,-30.5579,1189.1936],[25.3284,-30.561,1180.5],[25.326,-30.5696,1185.769],[25.3237,-30.5724,1181.4208],[25.3114,-30.5771,1178.0],[25.3054,-30.5765,1178.9298],[25.2838,-30.559,1177.0457],[25.279,-30.5441,1172.625],[25.2706,-30.5387,1178.9084],[25.2617,-30.5259,1194.8101],[25.2547,-30.519,1173.4728],[25.2434,-30.5136,1170.7534],[25.2395,-30.5046,1169.625],[25.2353,-30.4999,1169.5],[25.2313,-30.4995,1174.2668],[25.2252,-30.5037,1169.6976],[25.21,-30.5051,1169.5],[25.203,-30.504,1171.7264],[25.1896,-30.4984,1174.0376],[25.1837,-30.484,1179.4668],[25.1671,-30.4737,1175.1243],[25.1601,-30.4647,1169.5],[25.1527,-30.4593,1169.5],[25.1531,-30.4532,1169.5],[25.1612,-30.4495,1170.0942],[25.1577,-30.4426,1169.5],[25.1467,-30.4329,1171.4739],[25.1399,-30.4242,1169.5],[25.1256,-30.4202,1169.5],[25.1135,-30.4092,1215.327],[25.1112,-30.4036,1192.4869],[25.1021,-30.3913,1173.6226],[25.0989,-30.3782,1169.0],[25.0951,-30.3722,1171.2736],[25.0854,-30.3692,1171.2212],[25.0779,-30.3653,1171.2063],[25.0716,-30.3594,1189.9473],[25.064,-30.3569,1169.0],[25.0511,-30.3572,1169.0],[25.043,-30.3634,1169.0],[25.0385,-30.3625,1169.0],[25.0355,-30.3449,1169.0],[25.0424,-30.3365,1169.0],[25.0466,-30.3229,1169.0],[25.0471,-30.3162,1169.0],[25.0459,-30.3111,1169.0],[25.0397,-30.3013,1169.0],[25.035,-30.2869,1170.6732],[25.0295,-30.2837,1169.0],[25.0233,-30.2835,1169.0],[25.0079,-30.2921,1169.0],[25.0028,-30.2935,1169.0],[24.9863,-30.29,1169.0],[24.9803,-30.2842,1169.0],[24.9761,-30.2733,1169.0],[24.9632,-30.2675,1169.0],[24.9465,-30.2518,1169.0],[24.9468,-30.2467,1169.0],[24.9553,-30.2386,1169.0],[24.9558,-30.2311,1169.0],[24.9542,-30.2261,1169.0],[24.9461,-30.2253,1169.0],[24.9426,-30.2215,1169.0],[24.934,-30.2175,1169.0],[24.9302,-30.2069,1169.0],[24.9251,-30.2007,1169.0],[24.9203,-30.2008,1169.0],[24.9104,-30.2097,1169.0],[24.903199999999998,-30.209,1169.0],[24.9,-30.2067,1169.0],[24.8957,-30.1964,1169.0],[24.8952,-30.1842,1169.0],[24.8816,-30.1733,1169.0],[24.8804,-30.1589,1169.0],[24.8711,-30.1345,1169.0],[24.8673,-30.1307,1169.0],[24.8442,-30.1235,1169.0],[24.8376,-30.1178,1169.0],[24.8364,-30.1151,1169.0],[24.8385,-30.0952,1169.0],[24.8329,-30.0923,1169.0],[24.826,-30.0852,1169.0],[24.8178,-30.0821,1169.0],[24.8141,-30.0679,1169.0],[24.8034,-30.0604,1169.0],[24.7978,-30.0516,1169.0],[24.7962,-30.0459,1169.0],[24.7985,-30.0339,1169.0],[24.8073,-30.0264,1169.0],[24.8081,-30.023,1169.0],[24.8037,-30.0118,1169.0],[24.794,-29.999,1169.0],[24.7738,-29.9938,1169.0],[24.7568,-29.9928,1169.0],[24.7502,-29.9895,1169.0],[24.7237,-29.9922,1099.5577],[24.7124,-29.9887,1097.0007],[24.7036,-29.9837,1094.6857],[24.6956,-29.9827,1093.0],[24.6744,-29.9756,1095.3298],[24.6713,-29.9715,1100.1095],[24.6695,-29.9611,1097.957],[24.6628,-29.9422,1096.6405],[24.6679,-29.9091,1093.5059],[24.6651,-29.902,1096.0593],[24.6593,-29.8992,1091.6909],[24.6527,-29.8988,1089.0],[24.6498,-29.9016,1091.7758],[24.6495,-29.9069,1097.0471],[24.6453,-29.9113,1091.2598],[24.6079,-29.9113,1091.0029],[24.5841,-29.8962,1085.5],[24.5642,-29.8777,1085.0],[24.5551,-29.8626,1085.5588],[24.5507,-29.8492,1084.8013],[24.547,-29.8449,1085.5972],[24.5395,-29.8423,1084.5],[24.5237,-29.8452,1085.0281],[24.5103,-29.8415,1083.5],[24.5026,-29.8365,1083.7203],[24.5018,-29.8332,1083.0],[24.5034,-29.8241,1086.2094],[24.4977,-29.816,1082.375],[24.4872,-29.813,1086.3744],[24.459,-29.8107,1081.0],[24.4535,-29.8111,1082.6013],[24.4472,-29.8151,1091.2339],[24.439,-29.8148,1080.734],[24.4351,-29.8059,1083.4178],[24.4246,-29.8012,1081.2263],[24.4105,-29.7894,1078.7358],[24.4022,-29.7741,1078.884],[24.3879,-29.7539,1078.1293],[24.3763,-29.7273,1074.0],[24.3678,-29.7205,1073.5],[24.3545,-29.7131,1072.5],[24.3489,-29.7032,1072.5574],[24.3535,-29.6619,1070.0],[24.3522,-29.6587,1070.0],[24.3466,-29.6559,1071.1516],[24.6619,-29.0792,1113.6951],[24.9018,-28.648,1298.3285],[24.8277,-28.627,1229.3425],[24.8678,-28.5171,1166.5392],[24.8469,-28.5038,1155.2119],[24.8813,-28.4632,1147.7273],[24.8868,-28.465,1154.5983],[24.9376,-28.3249,1183.5444],[24.8903,-28.3102,1236.3884],[24.8705,-28.2704,1220.088],[24.9053,-28.2748,1248.684],[24.9267,-28.2469,1241.4027],[24.9646,-28.2507,1296.9343],[25.0281,-28.0735,1188.6108],[25.0201,-28.0774,1188.0],[25.0098,-28.0767,1188.0],[24.9993,-28.0819,1188.0],[24.9848,-28.0796,1188.3884],[24.9734,-28.081,1188.8058],[24.9694,-28.085,1188.0],[24.9667,-28.0928,1188.0],[24.9595,-28.1035,1187.5],[24.9506,-28.1132,1187.5],[24.8298,-27.9313,1151.8973],[24.8456,-27.9237,1159.8018],[24.8517,-27.9261,1160.7581],[24.8574,-27.9253,1165.3977],[24.8577,-27.9202,1166.59],[24.8598,-27.9213,1167.4386],[24.857,-27.9189,1167.751],[24.8571,-27.9161,1164.2725],[24.8615,-27.9083,1164.5858],[24.8469,-27.9112,1156.876],[25.0479,-27.6997,1262.4651],[25.0348,-27.6931,1266.3204],[24.9997,-27.6808,1285.129],[24.9732,-27.6826,1295.6744],[24.8857,-27.6945,1267.4513],[24.8545,-27.6956,1277.2902],[24.8012,-27.7018,1168.2332],[24.7966,-27.6982,1152.1229],[24.797,-27.693,1154.0327],[24.792,-27.6869,1156.2969],[24.7949,-27.682,1156.896],[24.7938,-27.6767,1157.5474],[24.7953,-27.6734,1155.7271],[24.7952,-27.6633,1151.2975],[24.7977,-27.6562,1149.2422],[24.7938,-27.646,1149.9393],[24.7866,-27.6432,1150.6565],[24.7822,-27.633,1148.8281],[24.7807,-27.6184,1148.7374],[24.7825,-27.6109,1147.7594],[24.7843,-27.6093,1145.2452],[24.7843,-27.6046,1144.7451],[24.7568,-27.6096,1110.1084],[24.7621,-27.6332,1118.1812],[24.6923,-27.6452,1073.0134],[24.6918,-27.6541,1070.8467],[24.6782,-27.6669,1070.2557],[24.6787,-27.6691,1070.1927],[24.6845,-27.6741,1069.9497],[24.686,-27.6784,1069.77],[24.6834,-27.6804,1071.8313],[24.6746,-27.6812,1068.312],[24.6727,-27.6856,1068.3091],[24.6752,-27.6934,1069.1582],[24.6812,-27.7034,1067.3108],[24.6955,-27.7183,1067.6301],[24.6937,-27.7356,1073.4746],[24.6805,-27.7393,1079.936],[24.6704,-27.7616,1092.502],[24.6757,-27.7699,1085.9772],[24.6731,-27.7828,1086.5911],[24.6692,-27.7863,1089.2163],[24.6618,-27.7848,1100.7992],[24.6587,-27.7909,1136.1326],[24.6993,-27.8283,1056.9573],[24.6908,-27.8327,1056.6816],[24.6881,-27.8365,1056.6669],[24.6884,-27.8391,1056.9237],[24.6949,-27.8426,1056.35],[24.6968,-27.8476,1055.8602],[24.6912,-27.8504,1055.1901],[24.6904,-27.8525,1055.0895],[24.6889,-27.8504,1054.9147],[24.6813,-27.8491,1055.4058],[24.6784,-27.8505,1054.1941],[24.6715,-27.8499,1053.7865],[24.6651,-27.8531,1055.3634],[24.6583,-27.8527,1053.4473],[24.6564,-27.8554,1053.4969],[24.6563,-27.8634,1052.8651],[24.6521,-27.8697,1052.619],[24.6519,-27.8768,1052.6187],[24.6494,-27.8817,1052.6487],[24.6451,-27.8875,1052.5973],[24.6413,-27.8876,1051.8904],[24.6325,-27.8914,1051.8647],[24.6322,-27.8991,1052.3467],[24.6301,-27.9029,1051.0262],[24.6191,-27.9049,1051.2153],[24.6133,-27.9016,1051.6051],[24.6116,-27.8977,1051.1732],[24.6071,-27.8984,1049.845],[24.606,-27.901,1050.3547],[24.6071,-27.9012,1050.3547],[24.6069,-27.9085,1050.0951],[24.6115,-27.91,1049.0739],[24.6173,-27.9155,1048.7867],[24.6184,-27.9213,1048.7384],[24.6222,-27.9269,1048.459],[24.6257,-27.9287,1048.134],[24.6288,-27.9353,1048.036],[24.6265,-27.938,1047.8188],[24.627,-27.9419,1048.1542],[24.6198,-27.9512,1050.155],[24.6222,-27.9611,1046.8533],[24.6265,-27.963,1046.8243],[24.6256,-27.9672,1046.7621],[24.6219,-27.972,1047.8403],[24.6227,-27.974,1045.9038],[24.6208,-27.9749,1046.4202],[24.6231,-27.9765,1046.1239],[24.6209,-27.9788,1046.431],[24.6249,-27.9906,1045.7539],[24.6273,-27.9909,1045.4734],[24.6294,-27.9943,1045.2911],[24.6273,-27.9971,1045.1547],[24.6283,-27.9995,1045.5751],[24.6248,-27.9992,1044.788],[24.6232,-28.0017,1044.9105],[24.6209,-28.0012,1044.6804],[24.6166,-28.0065,1044.5652],[24.617,-28.008,1044.657],[24.6082,-28.0117,1044.6771],[24.6086,-28.015,1045.6544],[24.6141,-28.0204,1044.0107],[24.6144,-28.0224,1045.8778],[24.6089,-28.0273,1044.1279],[24.608,-28.0262,1043.6171],[24.6031,-28.0292,1043.6332],[24.5941,-28.0287,1043.4589],[24.5919,-28.0313,1043.6035],[24.5887,-28.0279,1041.3081],[24.5788,-28.0326,1042.2131],[24.5664,-28.0348,1041.0],[24.5595,-28.0388,1041.0],[24.5577,-28.0445,1041.0],[24.5632,-28.0569,1041.0],[24.5637,-28.07,1041.0],[24.5599,-28.0747,1041.0],[24.5526,-28.0784,1041.0],[24.5346,-28.0921,1041.0],[24.4655,-28.0358,1117.3207],[24.4445,-28.0319,1151.928],[24.4587,-28.0128,1156.0262],[24.4682,-27.9967,1154.4386],[24.4673,-27.9806,1186.4658],[24.41,-27.9233,1252.5677],[24.3926,-27.9415,1255.5208],[24.3605,-27.9107,1309.7704],[24.4099,-27.8428,1327.3474],[24.4274,-27.8405,1314.9419],[24.4526,-27.7825,1321.1603],[24.4088,-27.7611,1346.9451],[24.4468,-27.7029,1348.1558],[24.4053,-27.6812,1354.2231],[24.111,-27.739,1415.229],[24.0933,-27.7049,1424.0906],[24.1051,-27.6515,1435.1294],[24.1186,-27.6217,1424.7668],[24.0506,-27.6027,1451.9398],[24.0492,-27.5586,1488.5265],[24.0553,-27.5079,1472.2528],[24.0522,-27.4627,1465.8923],[24.0575,-27.4294,1466.799],[24.0863,-27.3535,1455.2946],[24.0724,-27.3556,1456.4553],[24.0639,-27.3532,1456.2434],[24.0149,-27.3237,1441.8986],[23.9529,-27.2815,1415.2765],[23.9502,-27.2828,1414.6863],[23.9412,-27.2764,1412.3156],[23.8965,-27.2527,1395.3749],[23.8983,-27.2355,1392.5142],[23.9101,-27.2251,1388.8292],[23.9156,-27.2141,1384.5598],[23.9736,-27.0964,1291.2927],[23.976,-27.0793,1342.4666],[24.0375,-27.0537,1338.1901],[24.026,-26.9993,1337.6957],[24.001,-26.9433,1297.3716],[23.9704,-26.8942,1280.6951],[23.9628,-26.8983,1276.343],[23.9169,-26.8579,1253.0172],[23.8695,-26.8568,1244.8444],[23.8532,-26.8901,1241.6843],[23.7607,-26.8409,1209.972],[23.7251,-26.8291,1205.7173],[23.6465,-26.8075,1190.6022],[23.6153,-26.79,1180.7686],[23.5689,-26.7749,1169.957],[23.5209,-26.7555,1157.9143],[23.4871,-26.7397,1150.9729],[23.5471,-26.6583,1101.2887],[23.5837,-26.6171,1139.8032],[23.463,-26.5311,1090.7054],[23.2664,-26.4854,1056.7241],[23.282,-26.3395,1064.9402],[23.2217,-26.2713,1034.6619],[23.2647,-26.2045,1057.2537],[23.311,-26.1418,1055.9048],[23.2519,-26.1138,1101.6189],[23.2158,-26.1157,1113.843],[23.2321,-26.0527,1107.3409],[23.3069,-26.0703,1033.774],[23.3539,-26.0895,1059.2424],[23.3874,-26.0062,1082.4434],[23.3206,-25.9928,1055.2852],[23.0869,-25.9826,1043.2279],[23.0883,-25.999,1046.6438],[23.0881,-26.0436,1053.3829],[23.0648,-26.0991,1055.2355],[22.987,-26.09,1037.5159],[22.9811,-26.1526,1041.7793],[22.9071,-26.1459,1029.2582],[22.8993,-26.2136,1032.3301],[22.8808,-26.2624,1031.5073],[22.8484,-26.3759,1029.545],[22.8419,-26.3933,1027.3452],[22.8032,-26.4537,1021.8562],[22.7447,-26.4247,1014.4515],[22.7088,-26.4109,1005.6791],[22.7029,-26.1199,983.6502],[22.6307,-26.1226,955.0891],[22.6322,-26.1213,961.6441],[22.6281,-26.1235,957.1973],[22.6179,-26.1241,955.1284],[22.6097,-26.1272,953.7001],[22.607,-26.13,953.7171],[22.605,-26.1355,961.3232],[22.6064,-26.1434,955.5728],[22.605,-26.1492,955.2089],[22.5995,-26.152,955.166],[22.5926,-26.1482,955.8989],[22.5875,-26.1416,953.1906],[22.5818,-26.1403,953.1637],[22.5786,-26.142,960.7465],[22.5762,-26.1473,955.861],[22.5796,-26.1584,956.5823],[22.5777,-26.1916,951.6419],[22.5745,-26.1966,955.6913],[22.5634,-26.206,951.987],[22.5579,-26.2212,952.1014],[22.5516,-26.2255,951.4154],[22.5385,-26.2274,950.9418],[22.5288,-26.2267,950.6876],[22.5137,-26.2161,951.0828],[22.4951,-26.2105,949.3937],[22.4742,-26.1997,947.7078],[22.4666,-26.205,948.5275],[22.4609,-26.2219,947.71],[22.4541,-26.2279,947.2747],[22.4429,-26.2292,947.3947],[22.4338,-26.2272,947.621],[22.4262,-26.2234,947.9977],[22.421,-26.2238,947.1609],[22.4185,-26.2272,948.9752],[22.4151,-26.238,951.3387],[22.4023,-26.2441,947.4081],[22.3988,-26.2481,946.0342],[22.3994,-26.2548,948.995],[22.406,-26.2644,950.8145],[22.4059,-26.2682,953.2112],[22.4029,-26.2727,947.2811],[22.3862,-26.285,945.5617],[22.3802,-26.2862,947.5586],[22.368,-26.2842,946.679],[22.363,-26.286,945.132],[22.3623,-26.2902,944.4874],[22.3664,-26.3016,944.9363],[22.3672,-26.3146,943.7991],[22.3668,-26.3192,944.6353],[22.3629,-26.3255,947.0394],[22.3589,-26.3276,944.0242],[22.3518,-26.3274,944.4152],[22.3392,-26.3204,942.9928],[22.3259,-26.3223,942.917],[22.3203,-26.3249,942.6664],[22.3127,-26.3412,943.0901],[22.3069,-26.3441,942.3313],[22.3013,-26.3441,942.0493],[22.2879,-26.3398,942.0774],[22.2775,-26.3415,941.557],[22.2682,-26.3452,944.7083],[22.2472,-26.347,940.9368],[22.2423,-26.3499,940.7574],[22.2385,-26.3553,940.3906],[22.2377,-26.3624,940.382],[22.2395,-26.3693,943.1731],[22.2382,-26.371,940.4857],[22.2251,-26.3774,938.999],[22.214,-26.3861,938.7692],[22.1992,-26.3915,938.9348],[22.1932,-26.3953,938.6754],[22.1904,-26.4027,938.2807],[22.1987,-26.4139,937.6606],[22.2008,-26.4203,937.597],[22.2002,-26.4248,939.2937],[22.1962,-26.43,939.781],[22.1835,-26.436,945.256],[22.1815,-26.4392,936.897],[22.1813,-26.4491,938.9051],[22.1855,-26.4604,941.9172],[22.1823,-26.4692,936.319],[22.1797,-26.4719,938.4796],[22.1674,-26.4772,936.6722],[22.1601,-26.4833,935.429],[22.1583,-26.488,939.4891],[22.1592,-26.4915,935.6641],[22.1655,-26.4998,934.4756],[22.1657,-26.5039,934.7083],[22.1635,-26.5083,935.1703],[22.1589,-26.5121,937.3467],[22.142,-26.519,934.8112],[22.1352,-26.5235,933.8639],[22.1331,-26.5261,934.3282],[22.1318,-26.5322,940.4221],[22.1336,-26.5406,933.5189],[22.1326,-26.5448,937.444],[22.1262,-26.5474,933.5031],[22.1141,-26.5462,939.4777],[22.1086,-26.5488,933.2178],[22.104,-26.5536,933.3196],[22.1015,-26.5658,932.8894],[22.0985,-26.5706,932.0768],[22.0947,-26.5729,935.3336],[22.0854,-26.5749,932.111],[22.0791,-26.5792,932.4169],[22.0767,-26.5828,932.1786],[22.0692,-26.6084,931.4324],[22.0515,-26.6334,930.6343],[22.0452,-26.6352,931.449],[22.0305,-26.634,928.1365],[22.0175,-26.6365,925.103],[22.0109,-26.6396,930.0342],[22.0011,-26.6479,923.1656],[21.9845,-26.6503,911.7913],[21.949,-26.67,924.7928],[21.9427,-26.6698,924.2543],[21.9359,-26.6666,907.3973],[21.9266,-26.6647,904.9825],[21.9035,-26.6701,911.5833],[21.8934,-26.669,902.2078],[21.8832,-26.6707,901.2635],[21.8681,-26.6691,900.2132],[21.8454,-26.664,894.3155],[21.8387,-26.6647,896.9812],[21.8302,-26.6598,891.0145],[21.8233,-26.6598,893.9674],[21.8083,-26.6704,890.0719],[21.7953,-26.6727,889.5192],[21.7874,-26.6761,891.8258],[21.772,-26.6891,889.5016],[21.7692,-26.6954,888.8175],[21.7706,-26.7045,888.3188],[21.7837,-26.7162,887.4069],[21.7873,-26.7222,886.4723],[21.7847,-26.7503,885.5199],[21.7931,-26.7708,885.2525],[21.7915,-26.7761,884.1982],[21.7836,-26.7855,884.5049],[21.781,-26.8023,883.8443],[21.7718,-26.8029,892.5397],[21.7638,-26.8121,883.9413],[21.7408,-26.8259,881.7783],[21.7033,-26.8574,879.4409],[21.6948,-26.8612,879.9227],[21.6843,-26.8554,879.1475],[21.6775,-26.854,878.4396],[21.6743,-26.8551,878.6334],[21.6695,-26.8612,878.9331],[21.6627,-26.8646,879.267],[21.6436,-26.8635,877.5005],[21.6269,-26.8666,881.5292],[21.6184,-26.8613,877.2737],[21.6031,-26.8451,879.472],[21.5943,-26.8412,879.8259],[21.5756,-26.8399,874.2515],[21.5615,-26.85,875.3762],[21.5566,-26.8493,873.2935],[21.549,-26.8441,873.354],[21.5409,-26.8431,872.6471],[21.5333,-26.856,872.6245],[21.5292,-26.8606,874.3999],[21.5254,-26.8618,875.9186],[21.4983,-26.8508,870.8264],[21.4854,-26.8414,871.8573],[21.4619,-26.840699999999998,869.5026],[21.4558,-26.8381,883.4517],[21.4492,-26.8309,875.1577],[21.4401,-26.8272,869.1578],[21.4049,-26.8221,867.78],[21.3895,-26.8245,867.3828],[21.3761,-26.8306,868.2214],[21.3578,-26.8293,866.0316],[21.3441,-26.8254,865.9763],[21.3327,-26.8256,864.7662],[21.3281,-26.8286,864.7424],[21.3172,-26.8412,864.6378],[21.3067,-26.8472,866.3202],[21.2992,-26.8494,865.8876],[21.2885,-26.849,863.5269],[21.2747,-26.8391,869.0443],[21.2686,-26.8375,866.6361],[21.2599,-26.8388,862.3036],[21.2488,-26.8456,862.4134],[21.2452,-26.8462,863.1345],[21.2299,-26.8436,861.6021],[21.2217,-26.8438,862.2611],[21.1932,-26.8527,867.9108],[21.1769,-26.8666,859.9417],[21.1691,-26.8687,860.4343],[21.1549,-26.8673,858.9241],[21.1342,-26.8738,859.4205],[21.1244,-26.8693,859.2292],[21.1156,-26.8595,867.7223],[21.1099,-26.8575,863.4572],[21.0972,-26.8564,857.1655],[21.0789,-26.8485,856.1117],[21.0712,-26.8484,856.0516],[21.0601,-26.8517,858.499],[21.0415,-26.8467,855.0841],[21.0258,-26.8477,854.4601],[21.0109,-26.8467,854.509],[21.0066,-26.8443,854.5959],[20.986,-26.8252,853.5308],[20.9778,-26.8115,853.7103],[20.972,-26.8073,855.9641],[20.962,-26.8069,852.2582],[20.9537,-26.8119,852.0218],[20.9466,-26.8139,852.5453],[20.9376,-26.811,852.5676],[20.9097,-26.7977,853.4867],[20.8981,-26.7963,851.8495],[20.8852,-26.7973,850.7792],[20.8444,-26.8186,850.6171],[20.8289,-26.8179,851.2917],[20.8207,-26.8193,851.3298],[20.8178,-26.823,849.244],[20.8188,-26.8378,847.8981],[20.8163,-26.8417,848.8332],[20.813,-26.8434,850.6748],[20.7942,-26.8403,847.4038],[20.7866,-26.8417,846.8884],[20.7729,-26.8598,849.5006],[20.7635,-26.8664,848.1605],[20.7286,-26.8664,847.2604],[20.715,-26.8701,845.8728],[20.7082,-26.8754,845.13],[20.7049,-26.8855,846.1747],[20.6974,-26.8996,846.0775],[20.6854,-26.9074,848.9718],[20.687,-26.9018,846.4338],[20.6799,-26.8818,847.7923],[20.6798,-26.8696,851.4423],[20.6761,-26.861,855.9902],[20.6805,-26.8515,850.4068],[20.6851,-26.848,850.8773],[20.6827,-26.8405,849.6793],[20.6555,-26.8345,850.1709],[20.6454,-26.829,850.7749],[20.6426,-26.8229,852.6921],[20.6504,-26.8095,852.8941],[20.645,-26.8019,852.7042],[20.6368,-26.7944,862.0473],[20.6238,-26.7894,855.4868],[20.6224,-26.7869,853.9441],[20.6351,-26.7748,860.2131],[20.6377,-26.7675,855.5532],[20.6367,-26.7636,855.0611],[20.6257,-26.7493,857.168],[20.6325,-26.7351,861.2555],[20.6326,-26.7289,857.4796],[20.6345,-26.7256,860.3726],[20.6261,-26.7198,856.785],[20.6209,-26.7135,858.5546],[20.6191,-26.7056,857.397],[20.6166,-26.7022,857.541],[20.6145,-26.6869,859.6552],[20.617,-26.6772,859.0638],[20.6334,-26.6692,861.4891],[20.6353,-26.6653,861.0906],[20.6292,-26.6428,860.449],[20.6301,-26.6279,860.382],[20.6337,-26.6173,861.4444],[20.6318,-26.6037,864.8717],[20.6326,-26.5918,865.8844],[20.6304,-26.5825,864.4532],[20.6185,-26.5685,864.2966],[20.6133,-26.5651,872.6794],[20.61,-26.5599,863.9863],[20.6085,-26.553,863.8229],[20.6102,-26.5356,866.6434],[20.6046,-26.5214,869.328],[20.6048,-26.5147,868.1569],[20.6118,-26.4992,869.1669],[20.6116,-26.4879,869.0914],[20.6166,-26.4676,868.7545],[20.6174,-26.4437,869.4775],[20.6257,-26.4348,870.0112],[20.6462,-26.4351,871.6422],[20.6498,-26.4329,873.9965],[20.6608,-26.4156,874.1489],[20.6768,-26.3979,885.5352],[20.6789,-26.3969,873.3162],[20.6875,-26.3992,874.4436],[20.6934,-26.3977,874.5505],[20.6975,-26.3902,874.7544],[20.6986,-26.3832,876.0798],[20.6973,-26.3691,876.1008],[20.7005,-26.3634,876.9214],[20.7122,-26.3509,880.6199],[20.7199,-26.3338,880.3925],[20.7372,-26.3241,882.1749],[20.744,-26.3178,879.5311],[20.7563,-26.2968,889.4275],[20.7594,-26.2865,880.7622],[20.7638,-26.284,882.493],[20.7727,-26.2821,885.6244],[20.7904,-26.2712,888.6977],[20.7928,-26.2587,888.1773],[20.8053,-26.245,888.5328],[20.8077,-26.2295,887.8393],[20.816,-26.2149,886.598],[20.8152,-26.1924,886.9659],[20.8193,-26.1823,891.0269],[20.8269,-26.1729,890.7854],[20.8366,-26.169,890.197],[20.8438,-26.1621,890.7979],[20.8538,-26.1492,890.5262],[20.8562,-26.1413,891.1409],[20.8633,-26.1327,894.4429],[20.8624,-26.1282,891.2639],[20.8577,-26.1238,891.5549],[20.8524,-26.1222,893.6135],[20.8436,-26.1255,893.6096],[20.840699999999998,-26.1238,892.6527],[20.8382,-26.1185,896.0262],[20.8288,-26.1129,898.7534],[20.8209,-26.1055,894.0668],[20.8207,-26.1011,895.4932],[20.8339,-26.0944,896.6111],[20.8389,-26.0895,896.5281],[20.8418,-26.0804,897.3527],[20.8393,-26.0766,895.928],[20.8273,-26.0726,896.7731],[20.8187,-26.0586,897.3658],[20.821,-26.0543,899.92],[20.8329,-26.047,898.7134],[20.8361,-26.0415,902.782],[20.8361,-26.0361,904.6523],[20.8319,-26.0227,905.3154],[20.8164,-26.0101,908.6096],[20.8153,-26.0059,901.5189],[20.8285,-25.9884,904.964],[20.8307,-25.9825,902.5361],[20.8313,-25.9722,908.2196],[20.8402,-25.9616,906.199],[20.8404,-25.956,906.1221],[20.8374,-25.9508,904.6266],[20.8104,-25.9302,906.9147],[20.8051,-25.9253,906.1663],[20.8029,-25.921,908.5538],[20.8018,-25.9097,908.5099],[20.7981,-25.8996,912.8597],[20.8094,-25.8934,917.3958],[20.8121,-25.8903,910.2797],[20.8131,-25.8697,912.4585],[20.809,-25.8644,924.2711],[20.8042,-25.8621,910.7211],[20.7867,-25.8606,911.5811],[20.7827,-25.855,911.5049],[20.7815,-25.8488,917.9591],[20.7894,-25.8339,912.3447],[20.7859,-25.82,913.3225],[20.7901,-25.8083,915.4813],[20.7882,-25.8031,915.5648],[20.7829,-25.8007,917.9316],[20.7729,-25.8048,915.0867],[20.7621,-25.8152,916.1589],[20.7593,-25.8222,916.5259],[20.7535,-25.8262,916.7086],[20.747,-25.827,919.1152],[20.7393,-25.8227,919.145],[20.7391,-25.8156,919.6761],[20.7444,-25.8046,918.3833],[20.7496,-25.7991,919.2728],[20.7622,-25.791,920.1451],[20.7646,-25.7871,926.1763],[20.7635,-25.7804,920.7891],[20.7606,-25.7766,920.4064],[20.7541,-25.7725,924.6654],[20.7486,-25.7716,921.1057],[20.7373,-25.7737,922.7861],[20.7317,-25.7717,923.0313],[20.7298,-25.7684,922.3473],[20.7307,-25.7477,923.7802],[20.723,-25.727,927.1899],[20.7181,-25.7187,924.8939],[20.7078,-25.7076,926.1497],[20.6826,-25.6945,926.6467],[20.6779,-25.6904,926.8127],[20.6747,-25.6718,928.0449],[20.677,-25.6655,928.5883],[20.6873,-25.6519,930.2146],[20.6889,-25.6455,929.7924],[20.6879,-25.6355,939.0049],[20.6823,-25.6318,930.0043],[20.6726,-25.6298,931.4938],[20.662,-25.6385,932.4756],[20.6569,-25.6399,932.721],[20.6518,-25.6375,932.0267],[20.6504,-25.6325,933.9522],[20.6523,-25.6263,933.3217],[20.6577,-25.6187,933.6063],[20.6611,-25.6085,934.9803],[20.6654,-25.604,937.2678],[20.6824,-25.6046,937.4639],[20.6906,-25.6031,939.6436],[20.6955,-25.6002,935.9637],[20.6982,-25.5951,937.7278],[20.6969,-25.5896,936.822],[20.6874,-25.5793,937.0751],[20.67,-25.5498,940.1394],[20.648,-25.5318,940.0935],[20.6329,-25.53,941.0842],[20.6292,-25.525,941.4266],[20.6288,-25.5128,942.2135],[20.6402,-25.5041,943.7527],[20.6434,-25.498,946.7012],[20.6345,-25.4787,944.3649],[20.6362,-25.4735,945.0569],[20.6412,-25.4704,945.2175],[20.6616,-25.472,948.7054],[20.6677,-25.4696,953.5393],[20.6728,-25.4635,946.3489],[20.6744,-25.4532,947.0764],[20.6711,-25.4481,947.3127],[20.6668,-25.4459,947.7605],[20.6597,-25.4461,948.5552],[20.6539,-25.4495,949.1077],[20.6484,-25.4595,948.9504],[20.6441,-25.4627,949.8598],[20.6374,-25.4645,950.1577],[20.6225,-25.4618,952.5461],[20.616,-25.4453,952.0839],[20.6202,-25.4405,951.8848],[20.6298,-25.4355,952.7791],[20.6337,-25.4315,953.3738],[20.631,-25.4253,953.6234],[20.6255,-25.4216,953.6262],[20.6082,-25.4297,955.6013],[20.6012,-25.4274,955.3859],[20.5983,-25.4216,955.7603],[20.6054,-25.4042,957.0415],[20.6046,-25.3987,957.171],[20.6016,-25.3947,957.1906],[20.5966,-25.3907,957.7784],[20.5918,-25.39,958.056],[20.5778,-25.3964,959.8609],[20.566,-25.3948,961.4589],[20.5616,-25.3895,960.5909],[20.5599,-25.3843,961.0856],[20.5511,-25.3713,963.0653],[20.5455,-25.3561,964.0505],[20.5392,-25.3448,964.1444],[20.542,-25.3361,964.2405],[20.5481,-25.3288,965.9888],[20.5488,-25.3243,965.5906],[20.547,-25.3206,966.1456],[20.5409,-25.3182,966.038],[20.5366,-25.319,966.0453],[20.532,-25.3228,966.5928],[20.5217,-25.3247,967.0538],[20.5169,-25.3233,967.5979],[20.5139,-25.3171,967.5261],[20.514,-25.3115,968.4014],[20.5173,-25.3065,968.3329],[20.5257,-25.3044,969.1757],[20.5312,-25.2987,969.5562],[20.5427,-25.2928,970.95],[20.5459,-25.2862,972.4004],[20.5281,-25.2878,972.0601],[20.5236,-25.2844,972.0815],[20.5234,-25.278199999999998,972.5417],[20.519,-25.2749,976.1223],[20.506,-25.2755,973.3824],[20.4997,-25.2722,973.98],[20.4873,-25.2531,975.7891],[20.4924,-25.2467,980.2894],[20.4989,-25.2284,977.8013],[20.4956,-25.2246,977.9645],[20.4889,-25.2226,978.8579],[20.476,-25.2252,980.1827],[20.4711,-25.2283,980.496],[20.4656,-25.2234,980.4766],[20.4619,-25.2116,981.3008],[20.4464,-25.199,982.8837],[20.4442,-25.1942,982.9255],[20.4474,-25.1887,983.3397],[20.462,-25.1837,984.7068],[20.4674,-25.1761,989.2726],[20.4697,-25.1618,988.1672],[20.469,-25.1569,987.3438],[20.4655,-25.1523,989.207],[20.4596,-25.1499,988.0381],[20.4448,-25.1582,988.8756],[20.436,-25.1578,989.4232],[20.4309,-25.1543,990.1481],[20.4274,-25.1479,990.2692],[20.4277,-25.1442,990.9828],[20.4316,-25.1411,992.5992],[20.4314,-25.1358,993.9434],[20.426,-25.1328,991.8511],[20.424,-25.1282,992.6518],[20.4255,-25.1239,992.6637],[20.4295,-25.1209,993.348],[20.4292,-25.1163,992.9734],[20.4198,-25.1046,994.2875],[20.4148,-25.1054,994.6276],[20.4107,-25.1034,995.4482],[20.41,-25.0989,994.9843],[20.4157,-25.0891,996.1838],[20.4126,-25.0829,996.9749],[20.3924,-25.0768,998.805],[20.3868,-25.0691,999.2307],[20.3816,-25.0666,999.366],[20.3788,-25.0619,1001.2964],[20.3856,-25.05,1000.1452],[20.3867,-25.0387,1001.825],[20.3842,-25.0343,1001.8926],[20.3689,-25.0278,1004.1504],[20.3566,-25.0244,1005.0371],[20.3492,-25.0095,1004.6155],[20.3286,-25.0059,1006.261],[20.3262,-24.9975,1007.3163],[20.3227,-24.9914,1007.4576],[20.3176,-24.9868,1008.0577],[20.2965,-24.9806,1009.5451],[20.2861,-24.9696,1010.3674],[20.2881,-24.96,1011.3748],[20.2865,-24.9538,1012.4831],[20.2843,-24.9514,1011.6644],[20.2757,-24.9503,1013.0634],[20.2726,-24.9474,1012.7486],[20.2705,-24.9381,1013.0],[20.2662,-24.9293,1014.3373],[20.2593,-24.9237,1014.6826],[20.2545,-24.9233,1018.514],[20.2488,-24.9184,1015.3896],[20.2331,-24.9138,1016.3079],[20.222,-24.9199,1018.8337],[20.217,-24.9166,1017.8176],[20.2137,-24.9078,1018.431],[20.2036,-24.8964,1019.3303],[20.1975,-24.897,1020.057],[20.1895,-24.9104,1021.6873],[20.1817,-24.9118,1021.7228],[20.1604,-24.8888,1023.5085],[20.1581,-24.8836,1023.9256],[20.1502,-24.8795,1025.2008],[20.1305,-24.8808,1026.9584],[20.1213,-24.8848,1028.0818],[20.1152,-24.88,1028.6233],[20.1092,-24.8624,1028.8864],[20.0992,-24.8594,1030.0912],[20.0877,-24.852,1031.8188],[20.0865,-24.845,1031.1335],[20.0897,-24.8402,1031.5503],[20.0902,-24.8328,1031.7825],[20.0859,-24.83,1032.5242],[20.0719,-24.8309,1033.0225],[20.0668,-24.8285,1033.761],[20.0652,-24.8141,1035.9646],[20.0381,-24.8095,1035.6143],[20.0295,-24.7882,1038.6514],[20.0078,-24.7743,1038.5668],[19.9989,-24.7659,1039.2354],[20.0005,-27.9841,846.6129],[19.9992,-28.4278,437.3432],[19.9968,-28.4274,440.7352],[19.9968,-28.432,441.5513],[19.9925,-28.4314,458.1412],[19.9936,-28.4266,429.1408],[19.9749,-28.4255,436.1633],[19.9588,-28.4307,446.2412],[19.9476,-28.4366,426.5],[19.9338,-28.4389,450.7612],[19.9144,-28.4454,430.2757],[19.9043,-28.445,426.9354],[19.8957,-28.4416,432.0131],[19.889,-28.4408,429.6929],[19.8771,-28.4427,433.1702],[19.8736,-28.4448,424.6985],[19.8643,-28.4568,427.8535],[19.8535,-28.4569,427.6842],[19.8476,-28.4596,431.2814],[19.8398,-28.4715,424.0684],[19.841,-28.4806,429.8214],[19.8347,-28.4873,425.3191],[19.8246,-28.5027,456.4648],[19.8133,-28.5083,425.021],[19.7996,-28.5067,421.2022],[19.7891,-28.5016,419.3721],[19.7795,-28.5013,420.1772],[19.7701,-28.4932,421.1341],[19.7602,-28.4888,427.8221],[19.7386,-28.4857,424.4747],[19.73,-28.4879,422.595],[19.7186,-28.4956,420.9446],[19.7105,-28.5068,415.4145],[19.6968,-28.5176,416.008],[19.6734,-28.5219,413.0],[19.6709,-28.5294,419.3067],[19.6683,-28.5311,425.086],[19.6645,-28.5307,414.9244],[19.6592,-28.5251,418.2969],[19.6448,-28.5201,412.8094],[19.633,-28.5125,426.2172],[19.6252,-28.5109,415.4465],[19.615,-28.5128,439.4095],[19.6064,-28.5184,408.0875],[19.5967,-28.5209,437.2605],[19.5854,-28.5293,414.8475],[19.579,-28.5292,409.736],[19.5728,-28.5262,410.5127],[19.5658,-28.5277,414.4979],[19.546,-28.544,408.9224],[19.5455,-28.5478,410.2246],[19.5477,-28.554,401.4016],[19.5441,-28.5655,414.4701],[19.5432,-28.5744,418.6631],[19.5361,-28.5871,401.7668],[19.5228,-28.5905,418.7398],[19.5068,-28.5978,403.7881],[19.5039,-28.601,400.0841],[19.5007,-28.6081,399.6896],[19.502,-28.6293,403.6395],[19.4967,-28.6364,392.6342],[19.4951,-28.6424,392.8552],[19.4947,-28.66,392.2174],[19.492,-28.6679,391.9114],[19.4915,-28.6796,405.7084],[19.48,-28.6876,391.5305],[19.4668,-28.7061,399.4872],[19.4433,-28.7182,384.042],[19.4311,-28.7203,382.8712],[19.4164,-28.7305,380.8249],[19.4036,-28.7368,381.2682],[19.3872,-28.7337,379.0152],[19.3798,-28.7375,377.7908],[19.375,-28.7373,375.4414],[19.3509,-28.743,372.5683],[19.3337,-28.7361,376.016],[19.3277,-28.7356,369.5253],[19.3187,-28.7374,369.7784],[19.3033,-28.7318,366.9201],[19.2959,-28.7326,367.1374],[19.2688,-28.7427,364.1182],[19.2579,-28.7597,357.7345],[19.2545,-28.7738,365.0815],[19.2461,-28.7883,365.6741],[19.2399,-28.8055,349.5],[19.2392,-28.813,351.994],[19.2421,-28.8276,352.3547],[19.2448,-28.8332,362.0221],[19.2495,-28.8373,332.9391],[19.2504,-28.8445,327.3026],[19.2564,-28.8577,317.5141],[19.2674,-28.8714,358.07],[19.2817,-28.872,318.5555],[19.2903,-28.877,326.2519],[19.2965,-28.8857,314.8387],[19.2958,-28.8944,340.7999],[19.2914,-28.9015,313.8082],[19.2828,-28.9092,318.9846],[19.2548,-28.9019,318.3713],[19.245,-28.9026,336.9246],[19.2315,-28.9107,313.9908],[19.2268,-28.9166,311.3323],[19.224,-28.9234,312.3229],[19.1967,-28.947,307.9543],[19.1721,-28.9571,307.5494],[19.1635,-28.9583,305.8629],[19.1551,-28.9619,306.5479],[19.146,-28.9632,304.0112],[19.1356,-28.9608,314.7224],[19.1259,-28.9671,302.2249],[19.1189,-28.9694,303.8901],[19.0979,-28.9658,312.4074],[19.0839,-28.9602,303.3298],[19.0724,-28.958,300.6534],[19.0676,-28.9507,306.2805],[19.0594,-28.9454,299.8624],[19.0563,-28.9407,307.7973],[19.042,-28.9314,301.5908],[19.0286,-28.9286,302.3788],[19.015,-28.9312,303.3039],[19.0091,-28.9293,297.94],[19.0059,-28.9241,298.4251],[19.0039,-28.9101,298.4821],[18.9972,-28.898,296.0414],[18.9965,-28.8922,299.6066],[18.993,-28.8872,303.7364],[18.9878,-28.885,292.338],[18.9823,-28.8776,305.1607],[18.9722,-28.8705,299.5697],[18.961,-28.8695,293.5819],[18.9356,-28.8572,287.5102],[18.9264,-28.8554,293.627],[18.9049,-28.8555,287.2682],[18.8969,-28.8521,284.328],[18.8853,-28.8509,316.4597],[18.8743,-28.8473,302.2512],[18.8694,-28.848,264.9919],[18.8554,-28.8444,272.7559],[18.8449,-28.8491,275.8932],[18.8355,-28.8483,261.1958],[18.8309,-28.845,260.8803],[18.8232,-28.8431,260.2949],[18.8193,-28.8435,258.86],[18.8137,-28.8467,254.3758],[18.7872,-28.8408,257.6442],[18.7792,-28.8444,253.2434],[18.7711,-28.8397,248.1888],[18.7642,-28.8409,247.4816],[18.7499,-28.8341,248.7159],[18.73,-28.8316,241.0693],[18.7164,-28.8342,241.4839],[18.7109,-28.8375,241.8396],[18.7092,-28.8367,243.0968],[18.7085,-28.8387,239.3727],[18.6888,-28.8422,236.6217],[18.6712,-28.8414,234.6674],[18.6605,-28.8442,242.1602],[18.643,-28.84,232.0504],[18.6279,-28.8411,231.3868],[18.6244,-28.8423,229.3727],[18.6188,-28.8478,226.4942],[18.6044,-28.8546,222.3471],[18.5894,-28.8578,228.3866],[18.5677,-28.857,228.3521],[18.5628,-28.8596,218.5],[18.5379,-28.8661,224.2573],[18.5322,-28.8687,221.6623],[18.5259,-28.8773,223.9896],[18.5122,-28.8895,232.3616],[18.5056,-28.8906,218.0828],[18.4907,-28.8873,217.3405],[18.4832,-28.8836,219.1232],[18.4708,-28.8833,214.2052],[18.462,-28.8857,213.8171],[18.4484,-28.894,221.0296],[18.4235,-28.9008,209.6607],[18.4177,-28.9005,209.7653],[18.4055,-28.8965,208.3769],[18.3946,-28.8972,214.9715],[18.367,-28.8934,203.8325],[18.3621,-28.8913,200.5],[18.3559,-28.8841,210.3713],[18.3503,-28.8807,213.6065],[18.3367,-28.8839,202.7942],[18.33,-28.8823,209.3468],[18.3008,-28.8846,200.9054],[18.2635,-28.8794,211.6626],[18.2596,-28.8816,200.3469],[18.2569,-28.8908,196.9065],[18.2532,-28.8959,206.5826],[18.2476,-28.8975,201.9778],[18.226,-28.8939,205.5169],[18.2192,-28.8943,214.1511],[18.2007,-28.9107,202.6387],[18.1928,-28.9158,200.478],[18.188,-28.9161,202.2497],[18.1806,-28.9113,195.5247],[18.1746,-28.9035,197.2452],[18.1621,-28.8974,202.8679],[18.1467,-28.8925,209.8923],[18.1341,-28.8956,205.6278],[18.1278,-28.8951,200.7753],[18.1114,-28.8862,211.4694],[18.1007,-28.8773,201.2904],[18.0831,-28.8706,201.9167],[18.0778,-28.8702,199.9716],[18.0588,-28.8769,196.5055],[18.0532,-28.8768,194.916],[18.0461,-28.8743,199.709],[18.0345,-28.8617,188.5],[18.0264,-28.8464,187.5],[18.0147,-28.8391,191.8067],[18.0117,-28.8345,190.4971],[18.0124,-28.828,186.408],[18.0032,-28.8188,199.9118],[17.9996,-28.8175,190.3085],[17.9935,-28.8095,191.3872],[17.988,-28.8063,188.6629],[17.9848,-28.8075,185.4863],[17.9821,-28.8065,182.9968],[17.9745,-28.7939,187.9331],[17.9628,-28.785,186.4708],[17.9566,-28.7846,185.4465],[17.9448,-28.7892,188.0168],[17.9353,-28.7875,188.5451],[17.9324,-28.7849,189.6521],[17.932,-28.7807,181.5615],[17.9262,-28.7695,190.6587],[17.9176,-28.7641,191.8091],[17.9123,-28.7652,182.1249],[17.9072,-28.7724,178.7783],[17.8984,-28.7681,179.3798],[17.8803,-28.7639,199.3607],[17.8287,-28.761,175.4246],[17.8208,-28.7553,182.7913],[17.8058,-28.7545,236.3571],[17.7814,-28.7579,176.1399],[17.7708,-28.7542,176.596],[17.7588,-28.7444,173.5069],[17.7495,-28.7399,166.3433],[17.7426,-28.7423,193.2433],[17.7359,-28.7566,163.5],[17.7314,-28.76,164.6159],[17.7235,-28.7604,163.0],[17.7145,-28.7482,169.8944],[17.7107,-28.7456,167.2204],[17.7043,-28.7447,163.4023],[17.6975,-28.7466,164.6088],[17.6926,-28.7503,169.2833],[17.6853,-28.7613,163.9557],[17.6791,-28.7665,161.6003],[17.6661,-28.7721,162.2537],[17.6471,-28.7737,169.1628],[17.625,-28.7632,157.8259],[17.6218,-28.7629,160.9732],[17.6227,-28.7646,156.4128],[17.6196,-28.7646,154.9989],[17.6161,-28.7607,162.0797],[17.6088,-28.7463,156.5076],[17.6126,-28.7285,157.3791],[17.6123,-28.7236,158.7397],[17.6094,-28.7199,159.5839],[17.61,-28.7129,160.8501],[17.5989,-28.6947,163.9143],[17.5898,-28.6888,159.7766],[17.5801,-28.689,151.0337],[17.5684,-28.6856,155.8165],[17.5554,-28.6887,151.6379],[17.5536,-28.6903,153.919],[17.5529,-28.6957,153.2406],[17.542,-28.7011,152.3109],[17.5238,-28.6994,153.4152],[17.4967,-28.6932,150.0326],[17.4913,-28.6933,148.6404],[17.4828,-28.6961,246.5318],[17.4723,-28.7052,156.6187],[17.462,-28.7023,155.4442],[17.4539,-28.708,145.2948],[17.4412,-28.7129,178.9804],[17.4302,-28.7216,144.2464],[17.4225,-28.7232,142.3471],[17.4182,-28.7216,144.7081],[17.4105,-28.7145,144.7778],[17.4173,-28.6961,147.939],[17.414,-28.6712,150.7411],[17.4157,-28.6675,137.3345],[17.4263,-28.6563,155.7361],[17.428,-28.6503,133.5],[17.4256,-28.6339,140.0818],[17.4301,-28.6234,132.9368],[17.4313,-28.6144,132.5],[17.4298,-28.6087,134.1728],[17.4246,-28.6001,153.758],[17.4321,-28.5832,130.304],[17.4318,-28.5742,128.2339],[17.4297,-28.5699,130.108],[17.4242,-28.5656,144.1245],[17.4128,-28.5626,136.7302],[17.3981,-28.5654,128.3062],[17.3891,-28.5712,143.405],[17.3845,-28.5711,138.5713],[17.3802,-28.5689,142.5522],[17.3763,-28.562,120.1347],[17.3773,-28.5366,124.2274],[17.3761,-28.5384,119.677],[17.3716,-28.5212,130.1637],[17.367,-28.5143,118.4734],[17.3664,-28.5101,124.1621],[17.3591,-28.504,123.4208],[17.3462,-28.5004,118.597],[17.3407,-28.496,122.5504],[17.3331,-28.4755,111.9139],[17.3355,-28.4644,151.8507],[17.3393,-28.4559,118.0381],[17.339,-28.4527,111.8999],[17.347,-28.4449,159.4654],[17.3487,-28.439,113.8626],[17.3553,-28.4368,113.045],[17.3848,-28.437,118.625],[17.3961,-28.428,125.368],[17.41,-28.3996,112.7518],[17.4142,-28.3763,114.9793],[17.4102,-28.3709,109.0717],[17.4046,-28.3551,103.1841],[17.3943,-28.3417,103.6221],[17.3817,-28.3307,104.6051],[17.3758,-28.3214,107.4622],[17.378,-28.3107,101.6814],[17.383,-28.3012,123.1506],[17.3821,-28.2956,115.0731],[17.3708,-28.2785,162.6507],[17.3622,-28.2744,95.2124],[17.3583,-28.2649,105.0532],[17.3554,-28.2516,99.3299],[17.3438,-28.2368,133.0146],[17.3391,-28.2341,96.1727],[17.337,-28.2288,103.9273],[17.3333,-28.2258,98.377],[17.3076,-28.2242,100.2683],[17.303,-28.2263,90.6472],[17.2826,-28.2438,85.6135],[17.2781,-28.2454,90.1042],[17.2735,-28.245,84.5295],[17.2557,-28.2378,95.3266],[17.2504,-28.239,88.249],[17.2399,-28.2478,87.5005],[17.2309,-28.2508,80.6499],[17.2229,-28.2504,80.3131],[17.2146,-28.2478,84.5623],[17.1953,-28.2277,72.581],[17.1879,-28.2163,76.9691],[17.1824,-28.2034,74.046],[17.1839,-28.1919,76.8812],[17.1832,-28.1828,73.9894],[17.1932,-28.1517,67.3547],[17.1964,-28.1297,73.3897],[17.1944,-28.1245,66.9383],[17.1945,-28.1144,68.9647],[17.1919,-28.1082,68.4852],[17.186,-28.1021,68.1631],[17.1792,-28.0988,67.693],[17.1663,-28.1003,65.0321],[17.1382,-28.0931,59.8645],[17.1314,-28.0855,53.5],[17.1255,-28.0673,54.5543],[17.0951,-28.0408,61.7951],[17.0886,-28.0382,50.9389],[17.0825,-28.0331,57.9638],[17.0788,-28.0328,64.1215],[17.0728,-28.0346,50.434],[17.0669,-28.0426,50.612],[17.0513,-28.0491,52.649],[17.026,-28.0505,54.1277],[17.0215,-28.0521,52.4258],[17.017,-28.0576,49.8153],[17.0122,-28.0677,49.9037],[17.0082,-28.0724,48.7584],[17.0031,-28.0752,42.5624],[16.9972,-28.0744,45.7905],[16.991,-28.0707,42.5743],[16.9877,-28.0646,40.5],[16.9815,-28.0604,42.0825],[16.9736,-28.0587,44.7772],[16.96,-28.0731,37.7116],[16.9545,-28.076,39.9466],[16.9464,-28.076,43.7921],[16.9287,-28.0697,37.1953],[16.9048,-28.0709,39.8258],[16.8985,-28.0746,31.9372],[16.8966,-28.0797,32.5107],[16.8859,-28.0881,33.3051],[16.8814,-28.0985,27.3208],[16.8842,-28.1112,33.2142],[16.8878,-28.1139,29.9922],[16.8896,-28.1193,33.6119],[16.8895,-28.1387,29.8314],[16.8878,-28.1461,36.9277],[16.8841,-28.1505,35.6534],[16.8851,-28.1629,30.2646],[16.8879,-28.1729,29.4357],[16.8822,-28.1783,24.1432],[16.8707,-28.182,25.3213],[16.8636,-28.1733,28.3634],[16.8454,-28.1652,23.128],[16.8395,-28.1643,27.3976],[16.8313,-28.1667,25.6564],[16.8282,-28.1696,20.5619],[16.8268,-28.1746,52.9824],[16.8302,-28.1835,31.5188],[16.8369,-28.1906,26.1619],[16.8442,-28.1933,20.8749],[16.851,-28.198,28.4703],[16.8568,-28.2062,23.3646],[16.8561,-28.2117,21.5488],[16.848,-28.2161,25.6402],[16.8329,-28.2176,29.0936],[16.8199,-28.2171,19.6166],[16.8108,-28.2138,24.9094],[16.8071,-28.2156,20.7621],[16.8031,-28.222,18.4097],[16.8034,-28.2272,51.7852],[16.8067,-28.2335,27.7082],[16.8195,-28.2398,24.4015],[16.826,-28.2451,26.8596],[16.8274,-28.2542,20.3955],[16.8267,-28.2642,29.6328],[16.8247,-28.269,31.284],[16.8204,-28.2739,18.4776],[16.8153,-28.2761,26.8079],[16.8024,-28.2754,20.5744],[16.7932,-28.271,28.0025],[16.7815,-28.2603,16.7264],[16.7764,-28.2591,20.6745],[16.7602,-28.2626,16.4351],[16.7545,-28.2728,29.308],[16.7519,-28.2907,12.5],[16.755,-28.302,28.1006],[16.7661,-28.3141,12.0],[16.7798,-28.3216,23.3388],[16.7888,-28.3461,13.6428],[16.8009,-28.3542,12.1703],[16.807,-28.3594,13.4393],[16.8084,-28.3624,15.7906],[16.8029,-28.365,10.6321],[16.7886,-28.3816,12.6694],[16.7692,-28.3964,13.324],[16.7671,-28.4091,13.4749],[16.7692,-28.4184,19.5992],[16.7754,-28.4335,13.6825],[16.7765,-28.4417,8.6047],[16.7689,-28.453,8.3707],[16.758,-28.4575,17.9505],[16.7502,-28.4638,15.4425],[16.734,-28.4943,11.7545],[16.7193,-28.5009,11.8671],[16.7022,-28.4976,16.1858],[16.6977,-28.4918,18.8699],[16.6975,-28.4798,11.2021],[16.6944,-28.4743,11.4758],[16.687,-28.4702,7.7308],[16.6724,-28.4723,21.3468],[16.6211,-28.5001,22.6491],[16.6175,-28.5047,3.5],[16.6127,-28.5203,9.0206],[16.6024,-28.5305,7.4604],[16.5958,-28.5339,6.4407],[16.5691,-28.54,6.7467],[16.5437,-28.5481,5.2104],[16.5302,-28.5545,6.0607],[16.5181,-28.5562,6.7848],[16.5143,-28.5583,3.0105],[16.5022,-28.5589,6.0567],[16.5,-28.562,3.6521],[16.4887,-28.5628,7.6632],[16.4808,-28.5651,4.743],[16.4679,-28.5732,3.106],[16.4654,-28.583,3.0265],[16.4558,-28.5921,3.8563],[16.4522,-28.6121,0.1656],[16.4534,-28.6209,0.86],[16.4519,-28.6321,0.3458],[16.4583,-28.6358,0.0],[16.4618,-28.641,0.0],[16.4851,-28.6499,1.036],[16.4882,-28.6535,1.578],[16.4871,-28.656,0.0],[16.4896,-28.656,0.6362],[16.4938,-28.6612,0.0],[16.5035,-28.6665,0.0],[16.5043,-28.6701,0.0],[16.5079,-28.6721,0.0],[16.5088,-28.676,0.0],[16.5132,-28.6779,1.9277],[16.5156,-28.686,0.0],[16.5213,-28.6882,0.0],[16.5221,-28.691,0.0],[16.5307,-28.6971,0.0],[16.5301,-28.7015,0.0],[16.5335,-28.7057,0.0],[16.5407,-28.7101,0.0],[16.5446,-28.7085,0.0],[16.5504,-28.7112,0.0],[16.5535,-28.7135,0.0],[16.5535,-28.7165,0.0],[16.5579,-28.7179,0.0],[16.5643,-28.7251,0.0],[16.5693,-28.7276,0.0],[16.569,-28.7329,0.0],[16.5713,-28.7407,0.0],[16.5688,-28.7507,2.7475],[16.5643,-28.7537,2.6675],[16.561,-28.759,0.0],[16.5613,-28.7635,0.0],[16.5626,-28.7665,0.0],[16.566,-28.766,6.3637],[16.5643,-28.7685,1.2182],[16.5682,-28.7699,0.0],[16.5707,-28.7732,0.0],[16.5704,-28.7763,0.0],[16.5735,-28.7774,1.971],[16.5715,-28.7843,0.0],[16.5738,-28.7907,0.0],[16.5729,-28.7949,0.0],[16.5785,-28.7965,0.0],[16.5824,-28.8015,6.5292],[16.5832,-28.8121,0.7422],[16.5799,-28.8137,0.0],[16.5793,-28.8218,0.0],[16.584,-28.8274,0.0],[16.5846,-28.8326,0.0],[16.5949,-28.8393,-0.5188],[16.599,-28.8576,2.7141],[16.5993,-28.8657,0.1535],[16.6015,-28.8679,0.0],[16.6001,-28.8732,0.0],[16.601,-28.8774,0.0],[16.6051,-28.879,0.0],[16.6093,-28.8774,0.0],[16.6143,-28.8785,0.0],[16.6285,-28.891,0.0],[16.6374,-28.8924,0.0],[16.6526,-28.9004,0.0],[16.6751,-28.9154,0.0],[16.6807,-28.9224,0.0],[16.6885,-28.9279,0.1535],[16.6896,-28.9343,0.3023],[16.6954,-28.9418,0.0],[16.6963,-28.954,0.4774],[16.701,-28.9568,0.0],[16.7013,-28.9657,0.0],[16.7071,-28.9674,0.0209],[16.7113,-28.9754,0.0],[16.7204,-28.9801,0.0],[16.7204,-28.9907,0.0],[16.7171,-28.9979,0.0],[16.7179,-29.0037,0.0],[16.724,-29.0082,0.0],[16.7254,-29.0137,0.0],[16.7401,-29.0307,0.0],[16.7465,-29.0426,0.0],[16.7818,-29.0618,0.0],[16.7954,-29.0751,0.0],[16.8026,-29.0801,1.9584],[16.8049,-29.0837,0.0],[16.8076,-29.0849,0.0],[16.8121,-29.091,0.0],[16.8137,-29.0901,0.0],[16.8179,-29.0965,6.553],[16.8149,-29.1015,1.6874],[16.8151,-29.1068,1.1711],[16.8132,-29.1099,1.5669],[16.8157,-29.1132,0.0],[16.8143,-29.1162,0.0],[16.8185,-29.119,0.0],[16.8229,-29.1257,0.0],[16.8229,-29.1357,0.0],[16.8312,-29.1513,0.0],[16.8318,-29.1557,1.61],[16.836,-29.1601,14.9673],[16.8357,-29.1621,3.97],[16.8318,-29.1618,0.0],[16.8304,-29.1637,0.0],[16.831,-29.1696,0.0],[16.836,-29.1732,3.3258],[16.836,-29.1754,4.0863],[16.8338,-29.1771,0.0],[16.8338,-29.1807,0.0],[16.8376,-29.1818,0.0],[16.8385,-29.1796,0.0],[16.8401,-29.1799,0.3318],[16.8421,-29.1849,0.0],[16.8415,-29.1926,0.0],[16.8435,-29.201,0.0],[16.8376,-29.2079,0.2475],[16.8371,-29.2115,0.0],[16.8438,-29.2215,0.0768],[16.8476,-29.2224,0.2635],[16.846,-29.224,1.0524],[16.8457,-29.2279,0.0],[16.8543,-29.2362,5.3356],[16.854,-29.2385,3.2348],[16.851,-29.2396,0.0],[16.854,-29.2424,0.0],[16.8585,-29.241,2.7602],[16.8665,-29.2474,0.887],[16.8665,-29.2576,0.0],[16.8688,-29.2599,0.7972],[16.8685,-29.2637,0.1391],[16.8665,-29.2649,0.2187],[16.8604,-29.2579,0.0],[16.859,-29.259,0.0],[16.866,-29.266,0.0],[16.8674,-29.2721,0.0],[16.8696,-29.2712,0.0],[16.8701,-29.2676,0.4978],[16.8715,-29.2671,2.7084],[16.8715,-29.2718,0.0],[16.8743,-29.2771,0.0],[16.8762,-29.2774,0.0],[16.8749,-29.274,0.0],[16.876,-29.2726,4.5992],[16.879,-29.2776,9.4962],[16.8793,-29.284,5.379],[16.8771,-29.2857,0.1639],[16.8771,-29.2904,0.3125],[16.8746,-29.2876,0.0],[16.876,-29.2796,0.04],[16.8749,-29.2785,0.0],[16.8729,-29.2793,0.0],[16.8732,-29.2901,0.0],[16.8865,-29.306,0.0],[16.8943,-29.3121,0.0],[16.8946,-29.3187,0.0],[16.9015,-29.3254,0.0],[16.9079,-29.3276,4.1379],[16.9085,-29.3351,0.303],[16.9112,-29.3388,0.0],[16.9268,-29.3504,2.09],[16.9237,-29.3546,0.0],[16.9251,-29.361,0.0],[16.9296,-29.3604,0.0],[16.9276,-29.3585,0.0],[16.9263,-29.359,0.0],[16.926,-29.3551,0.4211],[16.9349,-29.3604,1.0829],[16.9351,-29.364,0.6055],[16.9407,-29.3718,6.6634],[16.939,-29.3876,0.0],[16.9418,-29.3876,0.6439],[16.9426,-29.401,0.7418],[16.9454,-29.4035,0.0],[16.9454,-29.409,0.2317],[16.9493,-29.4107,0.5536],[16.9538,-29.4196,0.0],[16.9579,-29.4207,0.0],[16.9588,-29.4268,0.0],[16.9662,-29.4318,0.0],[16.9685,-29.4374,0.0813],[16.9685,-29.4487,0.0],[16.9732,-29.461,0.0],[16.9776,-29.4649,1.3365],[16.9774,-29.4793,0.0],[16.981,-29.486,0.0647],[16.9854,-29.4896,1.176],[16.9824,-29.4954,0.0],[16.984,-29.4971,2.2553],[16.984,-29.5004,1.2184],[16.9818,-29.4996,0.0],[16.9835,-29.5035,0.0],[16.9821,-29.5068,0.0],[16.9874,-29.5099,0.0],[16.9901,-29.5093,0.8384],[16.9935,-29.5121,0.0],[16.9912,-29.5187,0.0],[16.9949,-29.5199,0.0],[16.9971,-29.5237,0.0],[16.996,-29.5307,1.5476],[16.9971,-29.5399,0.0],[17.0032,-29.5499,2.3316],[17.0035,-29.5646,2.5431],[16.9968,-29.5682,0.0],[16.9976,-29.5737,0.0],[17.0007,-29.5754,1.1703],[17.0068,-29.5832,0.9314],[17.0068,-29.5851,0.0],[17.0126,-29.5888,4.8163],[17.0132,-29.5924,0.0],[17.0168,-29.5954,0.0],[17.0179,-29.599,0.0],[17.0299,-29.6099,1.5681],[17.0332,-29.6151,2.3423],[17.0338,-29.624,0.0],[17.0315,-29.6262,0.112],[17.0338,-29.6379,0.7426],[17.0362,-29.6426,0.5527],[17.0346,-29.6493,0.0],[17.0371,-29.651,3.7847],[17.0412,-29.6588,0.3277],[17.044,-29.669,1.2273],[17.0429,-29.6735,0.0],[17.0513,-29.679,0.0],[17.0551,-29.6876,0.0],[17.0551,-29.6954,0.0],[17.0565,-29.6976,1.3072],[17.0543,-29.7007,0.0],[17.0524,-29.7093,0.0],[17.0551,-29.7104,0.0],[17.0568,-29.7093,3.7875],[17.0588,-29.7124,0.305],[17.059,-29.7171,0.1297],[17.0571,-29.7204,0.0],[17.0601,-29.7257,1.9568],[17.0576,-29.7324,0.0],[17.059,-29.7332,1.4787],[17.0576,-29.7351,0.038],[17.0543,-29.7357,0.0],[17.054,-29.7374,0.0],[17.0576,-29.7404,0.0],[17.0568,-29.7435,0.0],[17.0601,-29.7485,0.9933],[17.0582,-29.7551,0.3399],[17.0624,-29.7657,0.0],[17.0693,-29.7724,0.6322],[17.0674,-29.7743,0.0],[17.0679,-29.7774,0.0],[17.0726,-29.784,3.3908],[17.0726,-29.7882,0.0],[17.0763,-29.7918,3.7025],[17.0732,-29.7987,0.0],[17.0796,-29.8046,0.0],[17.0801,-29.8115,0.0],[17.0743,-29.8118,0.6372],[17.074,-29.8146,0.0],[17.0771,-29.8171,0.3531],[17.0763,-29.8201,0.1363],[17.079,-29.8235,0.1929],[17.0796,-29.8276,0.0],[17.0815,-29.8288,1.86],[17.0824,-29.8335,0.0],[17.0863,-29.8354,0.0404],[17.0863,-29.8399,0.0],[17.0885,-29.8401,0.0],[17.0888,-29.8515,0.0],[17.0926,-29.8546,0.0],[17.0929,-29.8571,0.0],[17.099,-29.8596,8.3121],[17.1007,-29.8676,0.207],[17.1049,-29.8688,0.0],[17.1026,-29.8743,0.0],[17.1035,-29.8804,0.826],[17.1004,-29.886,0.0],[17.1038,-29.886,2.7372],[17.1063,-29.8879,3.041],[17.1063,-29.8901,0.0],[17.1038,-29.8915,0.0],[17.111,-29.8985,0.0],[17.1099,-29.9021,0.7634],[17.1115,-29.9051,2.8295],[17.1121,-29.9151,0.0],[17.1168,-29.9157,4.4548],[17.116,-29.9218,2.8117],[17.119,-29.9276,0.3359],[17.1188,-29.9337,0.402],[17.1262,-29.9371,6.1453],[17.1279,-29.9401,5.8955],[17.1265,-29.9426,0.1768],[17.1288,-29.9457,0.0],[17.1324,-29.9449,0.0],[17.1374,-29.9499,0.0],[17.1374,-29.9538,0.0],[17.1418,-29.9557,0.1295],[17.141,-29.959,0.0],[17.1429,-29.9599,4.1927],[17.144,-29.9635,0.0],[17.1465,-29.964,4.3063],[17.1468,-29.969,0.1303],[17.1501,-29.9707,1.443],[17.1496,-29.9721,0.0],[17.1557,-29.9776,2.7673],[17.1554,-29.9807,0.15],[17.1582,-29.9829,0.3051],[17.1593,-29.9876,0.0506],[17.1576,-29.9885,0.0],[17.1588,-29.9899,2.0399],[17.1568,-29.9951,0.4179],[17.1624,-30.0026,5.6426],[17.1612,-30.0088,5.0496],[17.159,-30.0099,0.0],[17.159,-30.0118,0.0],[17.1621,-30.0132,0.0387],[17.1638,-30.0163,0.5358],[17.1621,-30.0207,0.6872],[17.1646,-30.0207,1.2869],[17.1635,-30.0232,0.0],[17.1665,-30.026,0.0],[17.1651,-30.0285,1.0375],[17.166,-30.034,0.0],[17.171,-30.0376,11.7934],[17.1734,-30.0465,0.0],[17.1771,-30.0465,7.7889],[17.1779,-30.0479,7.7889],[17.1779,-30.0565,0.1462],[17.1799,-30.059,4.528],[17.179,-30.0615,0.0],[17.1815,-30.0621,3.3059],[17.1796,-30.0682,3.7382],[17.1821,-30.0751,1.7458],[17.1807,-30.0779,0.1372],[17.1849,-30.0846,0.3393],[17.184,-30.0865,0.0],[17.1857,-30.0871,11.7991],[17.1832,-30.089,0.9247],[17.1821,-30.0929,0.0],[17.186,-30.0968,10.3229],[17.1843,-30.0996,0.0],[17.1851,-30.1029,0.0],[17.1901,-30.1015,0.9643],[17.1893,-30.1049,0.0],[17.1924,-30.106,0.5955],[17.1926,-30.1096,3.0376],[17.1893,-30.1113,0.0601],[17.1893,-30.1132,0.0],[17.1935,-30.1204,1.3958],[17.1921,-30.1246,0.0],[17.196,-30.1293,8.6633],[17.1938,-30.1368,0.0],[17.1951,-30.1376,0.0],[17.1987,-30.1357,0.6979],[17.2029,-30.1451,0.0],[17.211,-30.1551,0.0],[17.2168,-30.1574,1.8133],[17.2218,-30.1624,2.0531],[17.2226,-30.1887,0.6024],[17.2246,-30.1924,0.0],[17.2282,-30.1907,2.3472],[17.2304,-30.1987,0.0],[17.2321,-30.2001,0.7946],[17.2307,-30.2129,8.2067],[17.2326,-30.2143,8.7007],[17.2324,-30.2168,0.0],[17.2363,-30.2182,0.0],[17.2346,-30.226,0.0],[17.2382,-30.2262,2.6501],[17.2401,-30.2321,0.4388],[17.2443,-30.2368,0.1034],[17.2435,-30.2388,0.2435],[17.2454,-30.2426,0.2788],[17.256,-30.2512,0.0],[17.2612,-30.2601,0.0],[17.2612,-30.2632,1.1546],[17.2571,-30.2626,0.0],[17.2565,-30.2665,0.0],[17.2576,-30.2707,0.7268],[17.2593,-30.271,0.7268],[17.259,-30.2732,0.0],[17.2632,-30.2746,0.0],[17.2629,-30.2771,0.0],[17.2654,-30.2801,0.0],[17.2654,-30.2857,0.0],[17.2682,-30.2874,1.8746],[17.2701,-30.2913,3.978],[17.2676,-30.2976,1.7938],[17.2712,-30.2979,5.1553],[17.271,-30.3029,0.0],[17.2724,-30.304,0.7973],[17.2685,-30.3079,-0.02],[17.2696,-30.3126,0.0],[17.274,-30.3132,5.2818],[17.2751,-30.3151,1.8699],[17.2726,-30.3176,0.1376],[17.2712,-30.3171,0.0],[17.2715,-30.321,0.0],[17.2699,-30.3229,0.0835],[17.2746,-30.326,7.867],[17.2726,-30.3285,0.0],[17.2718,-30.3349,0.0],[17.2757,-30.3379,0.6185],[17.2779,-30.3421,3.3076],[17.2779,-30.346,1.6241],[17.2829,-30.3474,6.7524],[17.2862,-30.3521,5.5917],[17.2871,-30.3563,1.2679],[17.2857,-30.3587,0.0],[17.2888,-30.3599,0.0],[17.2893,-30.3621,0.0],[17.2946,-30.3665,4.4889],[17.2951,-30.3696,0.0],[17.2999,-30.3707,0.3316],[17.3079,-30.3776,1.6912],[17.3062,-30.3821,0.0],[17.3079,-30.3868,0.0],[17.3074,-30.3921,0.0],[17.311,-30.3937,4.5398],[17.3188,-30.4051,0.0],[17.3218,-30.406,0.6883],[17.3207,-30.4082,0.0],[17.3271,-30.4165,0.0],[17.3304,-30.426,0.7116],[17.3349,-30.4307,0.0],[17.3349,-30.4335,0.0],[17.3412,-30.4385,0.0],[17.3424,-30.449,0.0],[17.3449,-30.4532,0.0],[17.3504,-30.4529,13.1446],[17.3535,-30.4546,17.9168],[17.3535,-30.456,17.9168],[17.3482,-30.4588,0.195],[17.3485,-30.4621,0.0559],[17.3526,-30.4665,0.0],[17.3563,-30.4665,2.023],[17.3574,-30.4685,0.0],[17.3593,-30.4729,0.0],[17.3557,-30.4754,0.0],[17.359,-30.479,0.5797],[17.3571,-30.4796,0.0],[17.3576,-30.4818,0.0],[17.3604,-30.4821,0.8669],[17.3599,-30.484,0.0],[17.3632,-30.4843,2.7158],[17.3651,-30.4868,0.1251],[17.3618,-30.4899,0.0],[17.3676,-30.4932,0.0],[17.3701,-30.4999,0.0],[17.374,-30.5004,3.2204],[17.3796,-30.5082,0.3433],[17.3876,-30.5151,6.1925],[17.3896,-30.5193,4.4509],[17.3929,-30.521,3.7319],[17.3946,-30.5276,0.0],[17.399,-30.5271,4.2475],[17.4001,-30.531,2.95],[17.3988,-30.5338,0.0],[17.4051,-30.5374,0.0],[17.403199999999998,-30.5418,0.0],[17.4132,-30.5554,0.0],[17.4107,-30.5626,0.1439],[17.4196,-30.5699,0.0],[17.4354,-30.5879,2.5025],[17.439,-30.5899,4.7068],[17.4396,-30.5935,0.0],[17.4429,-30.5976,8.6093],[17.4401,-30.6029,0.0],[17.4399,-30.6099,0.4384],[17.4351,-30.6132,1.1204],[17.4351,-30.6165,4.7892],[17.4332,-30.6174,0.404],[17.434,-30.6207,1.1198],[17.439,-30.6262,1.7755],[17.4426,-30.626,13.1365],[17.446,-30.6285,0.1373],[17.4471,-30.6326,0.1856],[17.4493,-30.6338,13.683],[17.4493,-30.6376,7.2154],[17.4507,-30.6379,20.2622],[17.4501,-30.641,0.6395],[17.4621,-30.6513,0.0],[17.4632,-30.6629,1.4256],[17.4674,-30.6663,2.3267],[17.471,-30.6735,0.0],[17.4699,-30.6829,0.7453],[17.4774,-30.6868,0.0],[17.4849,-30.6976,0.0],[17.4915,-30.6996,0.0],[17.5012,-30.7099,0.0],[17.5021,-30.7126,0.0],[17.5168,-30.7257,9.1533],[17.519,-30.7313,0.4634],[17.5226,-30.7351,0.0],[17.5301,-30.7546,5.5935],[17.5307,-30.7618,0.0788],[17.5332,-30.766,3.7086],[17.5332,-30.7754,2.2956],[17.5357,-30.7826,0.0],[17.5454,-30.794,16.7747],[17.5532,-30.8065,0.0],[17.5549,-30.811,10.1328],[17.5546,-30.8171,5.8104],[17.5568,-30.8188,5.0935],[17.5574,-30.8226,0.1077],[17.5635,-30.8279,0.0],[17.5657,-30.834,0.0],[17.569,-30.8349,3.1566],[17.569,-30.841,0.0],[17.5729,-30.8457,3.6853],[17.5771,-30.8463,1.4469],[17.5804,-30.8388,19.9207],[17.5779,-30.8474,1.4469],[17.574,-30.8518,0.0],[17.5746,-30.8585,4.4878],[17.5835,-30.8729,5.4164],[17.5849,-30.8782,0.9886],[17.5876,-30.8801,0.0],[17.5868,-30.8826,0.782],[17.5901,-30.8854,2.7827],[17.5912,-30.8896,0.0],[17.5957,-30.8921,3.4215],[17.5946,-30.9013,0.0],[17.5987,-30.901,5.2705],[17.5996,-30.9063,0.1833],[17.6032,-30.9076,12.319],[17.6032,-30.9165,0.0],[17.6099,-30.9174,6.2546],[17.6185,-30.9249,1.3885],[17.624,-30.9312,7.1233],[17.6249,-30.9343,0.0],[17.6299,-30.9363,4.2434],[17.6299,-30.9399,2.018],[17.6313,-30.9401,2.018],[17.6313,-30.9426,0.1638],[17.634,-30.9463,1.3366],[17.6351,-30.9457,4.5216],[17.6368,-30.9493,2.9491],[17.6407,-30.9499,1.1483],[17.6443,-30.9551,2.8844],[17.6465,-30.9557,6.2584],[17.6462,-30.9587,2.7713],[17.6493,-30.9615,0.0642],[17.6515,-30.9615,1.1871],[17.656,-30.9674,0.8448],[17.6554,-30.9693,-0.0135],[17.6576,-30.9704,0.5053],[17.6585,-30.9754,0.0],[17.6621,-30.9774,2.1914],[17.6624,-30.9821,0.0],[17.6663,-30.9829,5.2869],[17.674,-30.994,0.0],[17.6796,-30.9985,9.3101],[17.6765,-30.999,0.0],[17.6818,-31.0024,3.2235],[17.6807,-31.004,0.0],[17.6815,-31.009,0.5851],[17.6868,-31.0151,0.8442],[17.6882,-31.0193,5.33],[17.6854,-31.0221,2.2216],[17.6857,-31.026,1.9073],[17.6918,-31.0299,1.4953],[17.6924,-31.0382,0.0],[17.6982,-31.0443,0.0],[17.6985,-31.0471,0.0],[17.7007,-31.049,0.0],[17.7007,-31.0535,0.0],[17.7051,-31.0557,2.7982],[17.7051,-31.061,0.5642],[17.7029,-31.0632,0.0],[17.7024,-31.0671,0.0],[17.7093,-31.071,0.0],[17.7129,-31.0779,4.4735],[17.7213,-31.0857,4.7392],[17.7221,-31.096,0.0],[17.7285,-31.0985,0.0],[17.7362,-31.1082,0.0],[17.7385,-31.1135,0.0],[17.7371,-31.1146,0.164],[17.7357,-31.1235,0.0],[17.7382,-31.1265,0.0],[17.7451,-31.1276,1.0499],[17.7457,-31.1301,0.2743],[17.7429,-31.1357,1.0061],[17.7465,-31.1371,0.0],[17.7507,-31.146,0.0],[17.7529,-31.146,0.0],[17.7585,-31.1519,0.4403],[17.8344,-31.1765,127.4984],[17.8113,-31.0925,169.5232],[17.8352,-31.0726,167.4146],[17.8786,-31.0405,257.6384],[17.8886,-31.0403,265.8306],[17.8945,-31.0304,341.8424],[17.9264,-31.0114,315.0108],[17.9094,-30.9875,299.5175],[17.8779,-30.9487,227.647],[17.8803,-30.9239,177.7977],[17.914,-30.9247,272.3227],[17.9344,-30.9174,280.1071],[17.9721,-30.9139,289.3591],[17.9934,-30.9187,274.7234],[17.9948,-30.8192,249.267],[18.0065,-30.7912,233.9363],[18.0579,-30.7769,301.2719],[18.0809,-30.7848,279.929],[18.0892,-30.7879,403.0229],[18.1396,-30.828,432.3609],[18.1692,-30.8486,359.5026],[18.1904,-30.8347,335.7129],[18.2058,-30.8313,255.4861],[18.1952,-30.816,302.9574],[18.2135,-30.8104,307.3453],[18.2293,-30.8191,415.3612],[18.2518,-30.8275,438.6539],[18.2642,-30.8183,453.622],[18.3139,-30.7422,373.9448],[18.371,-30.6596,931.6094],[18.3711,-30.5921,863.6906],[18.4138,-30.5273,1034.5768],[18.3806,-30.4596,651.0316],[18.4441,-30.5113,756.8641],[18.5222,-30.6065,887.8821],[18.4836,-30.5219,1065.4471],[18.5021,-30.4444,1093.9052],[18.5701,-30.4303,1041.8691],[18.6551,-30.5567,953.6646],[18.7587,-30.5679,886.8998],[18.7959,-30.6249,936.5203],[18.7945,-30.6676,934.502],[18.863,-30.7171,671.0181],[18.9519,-30.7447,1014.4312],[18.9605,-30.8661,579.3217],[18.8754,-30.8871,455.0441],[18.9242,-30.916,417.8918],[18.9845,-30.9458,373.2956],[18.9118,-30.9789,346.9026],[18.9035,-31.0418,275.1245],[18.9123,-31.0608,274.1932],[18.9476,-31.1129,745.5668],[18.9497,-31.1959,274.6217],[18.9445,-31.2373,655.5297],[18.9664,-31.2845,288.0703],[19.013,-31.3057,798.0],[18.9801,-31.3552,820.2747],[19.0124,-31.3701,809.3269],[19.0309,-31.3895,780.0303],[19.034,-31.4022,780.1161],[19.0324,-31.4032,776.6429],[19.0307,-31.4154,756.3485],[19.043,-31.425,699.2982],[19.0369,-31.4643,709.504],[19.0246,-31.4821,747.3604],[19.0197,-31.4993,854.4109],[19.0062,-31.512,643.4677],[19.012,-31.5144,762.3832],[19.0187,-31.5104,790.3096],[19.0231,-31.5051,820.6036],[19.0418,-31.5185,718.7983],[19.0678,-31.518,673.3068],[19.0781,-31.5251,682.0886],[19.0854,-31.5269,660.3212],[19.0518,-31.5727,617.4807],[19.0556,-31.575,652.5021],[19.0737,-31.5743,373.4825],[19.0854,-31.5721,724.0248],[19.0905,-31.5978,688.4686],[19.0705,-31.6241,647.2228],[19.079,-31.6432,703.0422],[19.0737,-31.6669,855.8646],[19.0549,-31.6703,609.9393],[19.0577,-31.6878,546.3456],[19.0656,-31.7063,472.582],[19.0769,-31.7185,441.4534],[19.0811,-31.7307,489.7131],[19.0947,-31.7502,320.1851],[19.0914,-31.7625,430.1118],[19.0857,-31.7629,294.3418],[19.0808,-31.7596,297.3009],[19.073,-31.7619,283.3219],[19.0665,-31.766,283.5037],[19.065,-31.7779,276.0472],[19.066,-31.7809,273.7899],[19.0701,-31.7838,282.9094],[19.0757,-31.7819,265.8438],[19.0766,-31.7882,296.9154],[19.083,-31.7859,299.4342],[19.0872,-31.7936,256.9838],[19.08,-31.794,361.4317],[19.0782,-31.8024,217.6512],[19.0723,-31.8039,226.9575],[19.0691,-31.8085,198.598],[19.0601,-31.8107,192.7382],[19.0586,-31.815,205.2349],[19.0539,-31.8167,232.7148],[19.0535,-31.8226,224.1594],[19.0468,-31.8295,183.0357],[19.044,-31.8302,204.6389],[19.0384,-31.8287,182.6966],[19.0303,-31.8338,169.6217],[19.0298,-31.8359,171.2907],[19.0323,-31.8398,163.8887],[19.0266,-31.8435,247.7564],[19.0329,-31.849,154.7465],[19.0315,-31.8548,140.6139],[19.0346,-31.8589,144.0456],[19.0301,-31.8629,140.3306],[19.0314,-31.8682,202.7778],[19.0258,-31.8709,134.3818],[19.0272,-31.8743,173.8779],[19.0262,-31.8766,121.9857],[19.0348,-31.8762,139.0587],[19.058,-31.8804,122.6327],[19.0822,-31.8898,130.8536],[19.0859,-31.894,127.1872],[19.1094,-31.8981,130.666],[19.1181,-31.9071,133.8125],[19.1308,-31.9066,147.9407],[19.1418,-31.9121,175.7032],[19.1448,-31.9105,170.4331],[19.1504,-31.9029,156.2354],[19.156,-31.8997,176.5044],[19.159,-31.8996,156.547],[19.1723,-31.9098,168.2791],[19.1997,-31.9048,341.3795],[19.2107,-31.948,344.1734],[19.2441,-31.9139,393.3755],[19.2897,-31.863,496.3432],[19.2798,-31.922,544.918],[19.2648,-31.965699999999998,402.1949],[19.2775,-31.9797,284.4617],[19.2899,-31.9651,475.164],[19.3234,-31.9848,482.7234],[19.3298,-32.0126,295.0832],[19.3531,-32.0279,278.7488],[19.363,-32.0428,295.5958],[19.3804,-32.0376,229.4861],[19.3958,-32.0151,241.7823],[19.4259,-32.0313,389.5841],[19.4676,-32.0731,222.5681],[19.4799,-32.073,210.6542],[19.4863,-32.0764,214.9232],[19.488,-32.0915,290.7183],[19.4834,-32.1137,321.1803],[19.4885,-32.1212,230.2146],[19.5075,-32.0861,340.2406],[19.5152,-32.1152,266.0602],[19.5083,-32.1259,337.391],[19.4911,-32.1301,328.3318],[19.4752,-32.1463,300.0104],[19.4841,-32.1614,384.8646],[19.4793,-32.1677,292.2106],[19.4873,-32.1637,385.7477],[19.5014,-32.1799,388.5556],[19.4927,-32.1986,351.761],[19.5023,-32.2054,292.1859],[19.4942,-32.2087,293.8775],[19.4972,-32.2152,246.0322],[19.4958,-32.2216,245.7945],[19.4858,-32.2358,247.0284],[19.4875,-32.2421,248.5137],[19.4951,-32.245,249.8428],[19.4919,-32.2517,407.5215],[19.4091,-32.2901,689.2899],[19.4302,-32.3657,556.3675],[19.4353,-32.3683,322.8616],[19.4347,-32.3732,347.0228],[19.4432,-32.3883,344.6956],[19.4533,-32.3979,392.6615],[19.4594,-32.41,363.7395],[19.4647,-32.4151,363.3166],[19.4671,-32.4216,355.8279],[19.4719,-32.4279,371.4623],[19.4727,-32.4361,365.6171],[19.4798,-32.4413,366.8073],[19.4892,-32.4635,392.7975],[19.4954,-32.4737,379.1134],[19.4984,-32.4753,389.8211],[19.5037,-32.4729,394.3382],[19.5071,-32.4731,377.4597],[19.5164,-32.4859,372.847],[19.495,-32.4989,660.1443],[19.4868,-32.5654,635.2913],[19.4992,-32.6121,741.5452],[19.528199999999998,-32.6732,900.7007],[19.5872,-32.6478,620.4072],[19.6049,-32.6295,497.5035],[19.612,-32.5666,465.3359],[19.6071,-32.5454,434.9721],[19.6265,-32.502,485.4599],[19.6218,-32.4706,504.5298],[19.6549,-32.4388,391.2683],[19.6681,-32.4548,398.9548],[19.6797,-32.4635,372.7944],[19.6996,-32.454,391.9349],[19.7302,-32.4424,353.0581],[19.7074,-32.4203,343.6666],[19.7313,-32.4101,333.2991],[19.7366,-32.3855,335.365],[19.7641,-32.4111,322.1131],[19.8027,-32.3937,323.6179],[19.8178,-32.3607,335.7716],[19.8495,-32.3662,358.6543],[19.8739,-32.3832,352.1604],[19.9375,-32.3773,393.3827],[19.9682,-32.3505,422.873],[20.0044,-32.3299,406.5927],[20.0386,-32.2964,427.4671],[20.0536,-32.2523,568.9379],[20.085,-32.2483,504.1773],[20.097,-32.2502,503.3463],[20.1001,-32.2427,492.3928],[20.1093,-32.2301,508.0833],[20.1157,-32.211,531.4492],[20.1359,-32.1923,592.6766],[20.1518,-32.1865,594.2318],[20.181,-32.1845,1302.0106],[20.1664,-32.2275,1244.8777],[20.2408,-32.2242,1570.3475],[20.2463,-32.2526,1528.3007],[20.2542,-32.3108,1610.1226],[20.216,-32.3032,1459.7396],[20.1635,-32.351,498.7186],[20.1705,-32.3809,476.2451],[20.132,-32.4211,440.8178],[20.0796,-32.3973,424.9939],[20.0964,-32.4767,855.0518],[20.0968,-32.503,953.5342],[20.1228,-32.557,915.8279],[20.1147,-32.5702,1044.3839],[20.1369,-32.611,1086.4209],[20.1412,-32.6437,1044.1711],[20.1814,-32.6681,995.5238],[20.1917,-32.6858,1105.749],[20.1876,-32.7527,1161.5024],[20.219,-32.7847,1154.3724],[20.2573,-32.7997,1133.0911],[20.2711,-32.8014,1053.3508]],
[[19.9968,-28.4323,441.5513],[19.9968,-28.4331,472.726],[19.9965,-28.4331,472.726],[19.9968,-28.4323,441.5513]]],
[[[16.9954,-29.5238,0.0],[16.9951,-29.5224,0.0],[16.9932,-29.5226,0.0],[16.9938,-29.5238,0.0],[16.9954,-29.5238,0.0]]],
[[[16.9346,-29.3654,0.0],[16.9326,-29.3646,0.0],[16.9337,-29.3704,0.0],[16.9365,-29.3735,0.0],[16.9349,-29.3704,0.0],[16.9346,-29.3654,0.0]]],
[[[16.9226,-29.3493,0.0],[16.9176,-29.3487,0.0],[16.9174,-29.3499,0.0],[16.9188,-29.3515,0.0],[16.9201,-29.3499,0.0],[16.9201,-29.3524,0.0],[16.9224,-29.3526,0.0],[16.9243,-29.3501,0.0],[16.9226,-29.3493,0.0]]],
[[[16.9143,-29.3451,0.0],[16.9121,-29.3437,0.0],[16.9115,-29.3457,0.0],[16.9146,-29.3471,0.0],[16.9143,-29.3451,0.0]]],
[[[16.9054,-29.3332,0.0],[16.906,-29.3315,0.0],[16.9032,-29.3343,0.0],[16.9057,-29.3368,0.0],[16.9063,-29.3404,0.0],[16.911,-29.344,0.0],[16.9121,-29.3424,0.0],[16.9082,-29.3396,0.0],[16.9082,-29.3368,0.0],[16.9049,-29.3343,0.0],[16.9054,-29.3332,0.0]]],
[[[16.8629,-29.2593,0.0],[16.8643,-29.2596,0.0],[16.8638,-29.2574,0.0],[16.8626,-29.2576,0.0],[16.8629,-29.2593,0.0]]],
[[[16.859,-29.2463,0.0],[16.8568,-29.2457,0.0],[16.8576,-29.2479,0.0],[16.8596,-29.2474,0.0],[16.859,-29.2463,0.0]]],
[[[16.5704,-28.7787,0.0],[16.569,-28.7768,0.0],[16.5676,-28.779,0.0],[16.5701,-28.779,0.0],[16.5704,-28.7787,0.0]]]]}
,"properties": {"GID_1": "ZAF.8_1","GID_0": "ZAF","country": "SouthAfrica","province": "NorthernCape","VARNAME_1": "Noord-Kaap","NL_NAME_1": "NA","TYPE_1": "Provinsie","ENGTYPE_1": "Province","CC_1": "NC","HASC_1": "ZA.NC","ISO_1": "ZA-NC","name": "Northern_Cape.province","area_km2": 373362.56,"hist_schema_id": "Elevation0-9000","hist_area_km2": {"0": 250.53,"25": 659.76,"50": 555.59,"75": 598.42,"100": 789.46,"125": 1109.34,"150": 1426.79,"175": 1692.42,"200": 1576.27,"225": 1339.02,"250": 1241.84,"275": 1041.55,"300": 1100.96,"325": 1193.18,"350": 1240.45,"375": 1278.35,"400": 1267.23,"425": 1185.72,"450": 1167.34,"475": 1230.17,"500": 1316.34,"525": 1387.4,"550": 1465.6,"575": 1515.61,"600": 1563.46,"625": 1695.92,"650": 1917.99,"675": 2125.76,"700": 2321.28,"725": 2711.14,"750": 3192.11,"775": 3800.46,"800": 5150.24,"825": 7635.07,"850": 10606.88,"875": 15730.7,"900": 16492.87,"925": 20959.15,"950": 20907.23,"975": 20306.97,"1000": 18194.44,"1025": 16186.4,"1050": 15290.18,"1075": 13573.87,"1100": 13057.15,"1125": 11999.75,"1150": 10958.56,"1175": 10599.19,"1200": 9598.73,"1225": 9356.9,"1250": 8265.08,"1275": 7865.09,"1300": 8073.61,"1325": 7445.2,"1350": 7386.93,"1375": 6982.8,"1400": 6725.61,"1425": 5829.46,"1450": 5104.17,"1475": 4073.03,"1500": 3218.18,"1525": 2502.89,"1550": 1762.96,"1575": 1218.4,"1600": 872.25,"1625": 620.34,"1650": 450.08,"1675": 351.14,"1700": 261.36,"1725": 209.96,"1750": 171.24,"1775": 135.35,"1800": 90.66,"1825": 57.24,"1850": 34.24,"1875": 23.49,"1900": 19.28,"1925": 15.67,"1950": 13.36,"1975": 8.88,"2000": 5.83,"2025": 3.5}}}