{"type":"Feature","properties":{"ISO3166-1-Alpha-3":"ZAF","country":"South Africa","fill":"#000","id":"1188","name":"Northern Cape"},
"geometry":{"type": "Polygon","coordinates": [[[20.59691,-25.43287,970.5151],[20.59361,-25.41323,969.3544],[20.58802,-25.40403,973.9495],[20.55878,-25.39204,975.1257],[20.54224,-25.38222,980.9211],[20.53583,-25.37116,992.4301],[20.52922,-25.34005,980.1515],[20.52508,-25.3322,981.4138],[20.51464,-25.31928,967.6089],[20.51051,-25.31225,969.6957],[20.51041,-25.30471,976.161],[20.51485,-25.29913,984.7834],[20.51857,-25.29303,983.4993],[20.5164,-25.28362,974.0443],[20.50989,-25.27753,974.1731],[20.4918,-25.26905,975.7163],[20.4855,-25.26316,976.5116],[20.48353,-25.25665,976.8373],[20.48167,-25.2305,984.2239],[20.46245,-25.22368,982.5807],[20.44385,-25.21334,1007.9855],[20.43444,-25.1998,1003.82],[20.44323,-25.18306,983.3619],[20.44478,-25.16839,996.0205],[20.43393,-25.14678,998.228],[20.40685,-25.10782,998.8126],[20.37553,-25.04612,1012.94],[20.36489,-25.0332,1011.082],[20.23569,-24.93605,1045.9768],[20.15932,-24.89367,1041.9001],[20.14908,-24.89099,1044.1903],[20.12841,-24.88975,1027.6199],[20.11891,-24.88737,1028.6006],[20.10785,-24.88034,1028.8845],[20.08108,-24.85264,1055.7545],[20.0293,-24.81523,1063.0078],[20.01049,-24.78805,1055.324],[19.99292,-24.77585,1057.9883],[19.98641,-24.76882,1063.5071],[19.98145,-24.75249,1048.1453],[19.98176,-24.765,1064.7811],[19.98176,-24.82102,1060.5393],[19.98176,-24.87714,1058.3635],[19.98176,-24.93326,1060.426],[19.98186,-24.98927,1049.6274],[19.98196,-25.0454,1041.2529],[19.98196,-25.10141,1038.4377],[19.98196,-25.15743,1031.2239],[19.98196,-25.21355,1028.936],[19.98196,-25.26967,1022.6046],[19.98196,-25.32569,1017.0976],[19.98196,-25.38171,1011.5975],[19.98207,-25.43783,1009.7874],[19.98207,-25.49384,1004.1207],[19.98207,-25.54996,999.8277],[19.98207,-25.60608,993.1403],[19.98207,-25.61899,996.1054],[19.98207,-25.6621,988.2005],[19.98207,-25.71812,975.1729],[19.98207,-25.77414,973.7455],[19.98207,-25.83026,966.9324],[19.98217,-25.88627,968.5896],[19.98227,-25.94239,971.2936],[19.98227,-25.99852,970.4774],[19.98227,-26.05453,964.402],[19.98227,-26.11055,964.7867],[19.98227,-26.16667,961.9937],[19.98238,-26.22269,963.562],[19.98238,-26.27881,954.6973],[19.98238,-26.33483,953.932],[19.98238,-26.39095,952.3098],[19.98238,-26.44696,948.4191],[19.98238,-26.50308,941.2572],[19.98248,-26.5591,938.3262],[19.98258,-26.61512,926.5166],[19.98258,-26.67124,923.9731],[19.98258,-26.72726,878.6125],[19.98258,-26.78338,877.0273],[19.98258,-26.83939,882.0809],[19.98269,-26.89551,849.8033],[19.98269,-26.95153,866.0194],[19.98269,-27.00765,837.177],[19.98269,-27.06367,857.7885],[19.98269,-27.11969,862.0829],[19.98269,-27.17581,891.0011],[19.98279,-27.23193,843.4437],[19.98289,-27.28795,855.2918],[19.98289,-27.34407,853.4299],[19.98289,-27.40019,823.3329],[19.98289,-27.4561,828.3453],[19.98289,-27.51212,832.6714],[19.98289,-27.56824,829.3356],[19.98289,-27.62436,785.7762],[19.983,-27.68038,799.8608],[19.983,-27.7365,793.3408],[19.983,-27.79262,784.3474],[19.983,-27.84853,781.7526],[19.983,-27.90465,809.3552],[19.983,-27.96077,838.5881],[19.983,-28.01679,851.7243],[19.983,-28.07291,828.7474],[19.9831,-28.12903,757.9919],[19.9832,-28.18505,791.3046],[19.9832,-28.24107,790.1702],[19.9832,-28.29719,833.2805],[19.9832,-28.3532,665.099],[19.9832,-28.39268,712.9261],[19.98165,-28.42235,459.6637],[19.95054,-28.42927,560.7317],[19.94021,-28.4302,578.4838],[19.90786,-28.42648,550.8153],[19.8967,-28.42772,528.8943],[19.87034,-28.44085,458.7564],[19.82559,-28.47671,494.8094],[19.79634,-28.48415,664.7411],[19.74808,-28.48715,424.446],[19.72534,-28.49418,420.3211],[19.7056,-28.50803,422.9323],[19.68834,-28.51598,502.9948],[19.58798,-28.5227,451.2567],[19.5792,-28.52518,431.1529],[19.56876,-28.53118,413.1388],[19.56235,-28.5381,558.2054],[19.55646,-28.54616,454.2038],[19.54757,-28.55588,401.6077],[19.5422,-28.56404,489.0774],[19.53372,-28.58244,497.2265],[19.52742,-28.58595,448.0171],[19.51781,-28.58936,469.5586],[19.51171,-28.59805,398.8498],[19.48287,-28.67825,447.7958],[19.47243,-28.69272,408.2444],[19.45507,-28.70522,481.0129],[19.43461,-28.71349,408.508],[19.35347,-28.73189,421.8518],[19.33901,-28.73747,373.1298],[19.32836,-28.73582,369.5253],[19.30449,-28.71866,430.429],[19.29002,-28.71969,430.505],[19.2773,-28.72941,400.389],[19.26593,-28.74264,366.3904],[19.24857,-28.77158,445.4238],[19.24495,-28.79245,414.0599],[19.25157,-28.81426,426.1292],[19.28888,-28.871,330.4681],[19.28836,-28.88309,418.8076],[19.27658,-28.8895,412.8498],[19.24371,-28.89188,491.975],[19.23762,-28.8956,420.55],[19.22666,-28.91152,357.4019],[19.2185,-28.91885,492.4851],[19.16155,-28.94542,623.9136],[19.12021,-28.95751,421.1886],[19.08166,-28.95937,310.1768],[19.06471,-28.93983,395.4022],[19.06006,-28.9357,479.959],[19.049,-28.93239,376.6786],[19.01396,-28.92847,340.0701],[19.00693,-28.9263,303.0154],[18.99639,-28.91555,304.2978],[18.97117,-28.88051,455.0296],[18.95453,-28.86666,285.2302],[18.74566,-28.83989,246.6817],[18.55394,-28.8647,223.9202],[18.51766,-28.88227,224.5556],[18.49616,-28.88826,218.9823],[18.49162,-28.8863,217.3405],[18.47942,-28.87627,241.447],[18.47498,-28.874,363.7606],[18.46939,-28.87493,416.5497],[18.46071,-28.87989,403.1855],[18.45523,-28.88144,409.0034],[18.4357,-28.88423,294.1018],[18.42475,-28.88723,282.1221],[18.41699,-28.89167,240.5538],[18.39756,-28.89891,205.7997],[18.37307,-28.89519,201.4287],[18.331,-28.88144,209.3468],[18.30868,-28.87999,214.194],[18.22073,-28.89126,214.4664],[18.18507,-28.90221,227.2188],[18.16647,-28.9019,213.7403],[18.08244,-28.87596,242.5389],[18.0441,-28.85839,436.5425],[17.98333,-28.81374,419.9338],[17.94953,-28.79473,358.7003],[17.91325,-28.78129,536.0699],[17.74634,-28.74863,198.4845],[17.71409,-28.75111,164.6547],[17.70324,-28.75556,330.1815],[17.6834,-28.76755,162.7491],[17.67378,-28.77158,163.9943],[17.66097,-28.7723,165.752],[17.62872,-28.76413,184.6525],[17.60712,-28.75566,234.3412],[17.60257,-28.7354,319.8755],[17.6034,-28.7108,169.0517],[17.59803,-28.68962,167.0244],[17.58294,-28.68021,181.6387],[17.56599,-28.68352,173.7971],[17.54697,-28.69137,174.1241],[17.52661,-28.69582,170.8764],[17.48516,-28.70016,161.1279],[17.44093,-28.70956,304.8262],[17.40362,-28.70429,552.2754],[17.40176,-28.67422,320.2078],[17.41426,-28.63267,351.8412],[17.42057,-28.5934,149.4727],[17.40961,-28.57138,208.2296],[17.37303,-28.55939,121.9001],[17.36528,-28.54255,197.1993],[17.35949,-28.51981,151.2662],[17.33241,-28.4886,248.0652],[17.32424,-28.47051,301.9],[17.32817,-28.45614,367.2507],[17.34119,-28.44281,129.366],[17.35856,-28.43279,321.4907],[17.3754,-28.42896,183.3687],[17.39132,-28.41883,131.829],[17.39969,-28.39527,125.7167],[17.40207,-28.36778,115.696],[17.4,-28.34638,112.4534],[17.39483,-28.33512,115.561],[17.37892,-28.31631,252.6339],[17.37199,-28.30607,370.7722],[17.36807,-28.29378,262.5732],[17.36703,-28.28354,120.163],[17.36414,-28.27331,102.9499],[17.35504,-28.26101,93.9733],[17.35122,-28.2514,110.6393],[17.34977,-28.23869,205.4588],[17.34574,-28.22763,143.3522],[17.33448,-28.22288,201.7189],[17.30864,-28.22412,100.2683],[17.24518,-28.23745,140.9253],[17.21314,-28.23207,321.5414],[17.19195,-28.20882,133.6984],[17.1871,-28.162,69.6463],[17.18978,-28.13937,75.2069],[17.18999,-28.11684,89.7313],[17.18089,-28.09947,67.693],[17.15578,-28.09255,196.0441],[17.13635,-28.08469,78.724],[17.12322,-28.0665,55.1904],[17.11175,-28.04604,96.6927],[17.0978,-28.03116,98.9843],[17.08653,-28.02702,85.3078],[17.0764,-28.02682,89.9401],[17.05666,-28.03116,136.7031],[17.0454,-28.03632,115.6298],[17.01202,-28.05834,135.2163],[16.98535,-28.05224,85.566],[16.97377,-28.05503,65.2682],[16.95951,-28.06857,91.8351],[16.94752,-28.0727,79.9711],[16.9375,-28.07105,43.7754],[16.92747,-28.0602,98.6459],[16.91962,-28.05834,63.3],[16.91352,-28.06268,71.6149],[16.89647,-28.07994,32.5107],[16.89295,-28.08263,33.7126],[16.88551,-28.162,30.2646],[16.87817,-28.17203,55.8827],[16.87383,-28.17151,71.9265],[16.86866,-28.16789,78.065],[16.85203,-28.16831,21.9855],[16.84779,-28.16541,32.8857],[16.84376,-28.16386,34.3608],[16.83766,-28.1682,53.0712],[16.8357,-28.1742,72.4176],[16.83838,-28.17947,59.2149],[16.85595,-28.19941,37.348],[16.85637,-28.20665,25.1329],[16.84107,-28.20985,58.0578],[16.81978,-28.20975,51.9829],[16.8143,-28.21347,28.9078],[16.81027,-28.22288,42.3717],[16.81327,-28.2299,47.9088],[16.82081,-28.24003,24.4015],[16.8266,-28.25192,31.6466],[16.82464,-28.26453,30.2041],[16.81523,-28.27083,49.7794],[16.8051,-28.26773,57.3469],[16.79518,-28.26122,67.0519],[16.7865,-28.2576,58.7705],[16.76872,-28.26535,28.9716],[16.76438,-28.28323,38.0652],[16.76841,-28.3037,33.1972],[16.77554,-28.3191,16.6234],[16.79683,-28.34783,22.1822],[16.80386,-28.36612,10.6321],[16.79322,-28.37429,28.1374],[16.77854,-28.38297,32.4875],[16.77337,-28.40292,21.7445],[16.77213,-28.42576,16.2609],[16.76934,-28.4426,35.3499],[16.75839,-28.45966,10.0782],[16.7404,-28.48095,29.399],[16.72046,-28.49604,24.245],[16.70382,-28.49449,21.7716],[16.69968,-28.48519,24.5178],[16.69679,-28.47247,33.4584],[16.69235,-28.4611,64.7219],[16.68346,-28.45625,103.887],[16.67312,-28.45976,161.0747],[16.59736,-28.52622,62.6806],[16.55912,-28.53707,62.3558],[16.53153,-28.54968,8.166],[16.50538,-28.56539,0.7681],[16.48707,-28.57293,0.0],[16.48894,-28.58294,3.1342],[16.48666,-28.59881,16.1269],[16.48032,-28.61354,17.0151],[16.46998,-28.62005,1.1703],[16.47185,-28.62542,1.3874],[16.49708,-28.64935,7.9676],[16.51352,-28.6609,20.0744],[16.53484,-28.70322,0.0],[16.54119,-28.70525,14.5153],[16.55055,-28.70582,25.3461],[16.55893,-28.70761,31.7235],[16.56275,-28.71282,15.9776],[16.5643,-28.72031,23.9216],[16.57293,-28.73756,5.0978],[16.577,-28.74424,9.0649],[16.5739,-28.76507,87.6823],[16.57944,-28.80039,0.0],[16.58953,-28.83587,0.0],[16.60035,-28.85752,2.7141],[16.66774,-28.90862,4.9193],[16.71274,-28.96396,17.5732],[16.72047,-28.97763,5.0535],[16.73569,-29.01621,14.8291],[16.74497,-29.02874,9.834],[16.80877,-29.0783,32.4115],[16.82407,-29.10101,28.2123],[16.81918,-29.11728,10.5749],[16.82293,-29.14072,0.0],[16.83123,-29.16383,0.0],[16.84059,-29.17889,8.3017],[16.84425,-29.18841,14.2477],[16.84327,-29.21136,9.5113],[16.84767,-29.2199,8.2789],[16.85808,-29.22959,16.9247],[16.86378,-29.2387,13.318],[16.88494,-29.299,13.9863],[16.90317,-29.31829,11.9329],[16.90602,-29.32293,7.8931],[16.91033,-29.33278,3.2406],[16.9297,-29.35125,5.3266],[16.93393,-29.35768,2.2558],[16.97088,-29.45672,0.0],[16.97828,-29.46787,2.437],[17.00782,-29.53924,11.144],[17.01197,-29.57708,11.8419],[17.01881,-29.59873,5.0765],[17.03207,-29.60817,8.0778],[17.03159,-29.61883,0.0],[17.05633,-29.67645,7.3149],[17.05779,-29.69061,2.6092],[17.05763,-29.71746,0.0],[17.06251,-29.7304,15.0817],[17.05633,-29.7304,0.0],[17.08277,-29.81276,10.1165],[17.08351,-29.82334,13.5476],[17.0857,-29.83375,2.4167],[17.09034,-29.84075,1.4507],[17.09498,-29.84588,17.5234],[17.09718,-29.85084,19.1553],[17.10369,-29.88494,2.7372],[17.16635,-30.01287,15.768],[17.18963,-30.09303,23.0474],[17.19337,-30.13201,0.0],[17.20688,-30.1653,0.0],[17.25945,-30.24505,25.6053],[17.26173,-30.27166,16.0221],[17.26588,-30.27996,15.3923],[17.27442,-30.3117,10.3662],[17.27752,-30.33758,7.9278],[17.28199,-30.34775,6.7524],[17.3462,-30.44451,23.2247],[17.36459,-30.46404,29.5888],[17.37355,-30.48724,26.1594],[17.42954,-30.57676,7.5139],[17.45411,-30.60125,36.1474],[17.45037,-30.63909,1.2681],[17.47722,-30.68239,22.5418],[17.53598,-30.75213,48.2772],[17.54819,-30.7872,38.6827],[17.55649,-30.82383,0.0],[17.5617,-30.83807,0.0],[17.6172,-30.93401,0.0],[17.68678,-31.01898,0.0],[17.69711,-31.03582,21.5447],[17.71827,-31.08066,19.6655],[17.73121,-31.09783,5.0917],[17.73504,-31.10426,13.0165],[17.74529,-31.12884,0.0],[17.75025,-31.13193,15.8823],[17.76711,-31.15581,23.7402],[17.76742,-31.15588,23.7402],[17.82065,-31.16957,95.1097],[17.8284,-31.06296,163.8587],[17.8776,-31.00632,306.1389],[17.89155,-30.93429,167.8093],[17.95098,-30.88618,184.1752],[17.97459,-30.81631,143.2018],[18.00296,-30.79042,219.4615],[18.02405,-30.77507,179.5746],[18.04301,-30.77383,238.938],[18.05836,-30.77652,301.2719],[18.07448,-30.78257,384.1501],[18.09453,-30.79517,351.2117],[18.1198,-30.80758,207.2119],[18.15691,-30.82168,316.6558],[18.20037,-30.80603,293.0415],[18.24719,-30.78282,437.2881],[18.29452,-30.72221,435.413],[18.33628,-30.65441,604.4347],[18.36222,-30.57751,742.2859],[18.39338,-30.53152,907.0269],[18.41059,-30.49995,591.7921],[18.46428,-30.5263,706.6228],[18.47859,-30.49685,632.3643],[18.50712,-30.47566,1030.6138],[18.56081,-30.47075,1030.7461],[18.63094,-30.5184,948.0026],[18.69145,-30.54775,904.8472],[18.73522,-30.577,892.1272],[18.7717,-30.61679,894.1968],[18.7979,-30.65565,853.9893],[18.8426,-30.69508,768.0753],[18.93867,-30.72402,781.8277],[18.93789,-30.84416,491.5248],[18.90653,-30.88261,459.0781],[18.92828,-30.94219,388.5443],[18.90498,-31.00953,309.5063],[18.93727,-31.19711,262.5287],[18.95975,-31.24801,776.6816],[18.98647,-31.27587,824.2321],[18.99686,-31.28992,795.5829],[18.99655,-31.30512,533.422],[18.98957,-31.33607,403.9498],[19.00848,-31.43002,242.9201],[19.00848,-31.47131,277.6976],[19.0167,-31.49477,666.1174],[19.04264,-31.51436,825.4254],[19.04838,-31.5388,807.4121],[19.06063,-31.55342,646.8351],[19.06667,-31.57725,508.6988],[19.0614,-31.59802,743.9614],[19.05969,-31.63657,337.175],[19.05411,-31.66205,390.8559],[19.07179,-31.74814,583.0437],[19.06605,-31.79336,525.6229],[19.04512,-31.82726,278.8893],[19.02864,-31.89325,283.0618],[19.08062,-31.89593,270.088],[19.09509,-31.8996,306.5487],[19.1092,-31.90586,333.4391],[19.11897,-31.91211,329.3138],[19.12718,-31.91877,335.3771],[19.13168,-31.92162,341.1949],[19.13695,-31.92332,348.6319],[19.14305,-31.92317,336.0004],[19.14811,-31.92115,350.6085],[19.15778,-31.91598,313.5283],[19.16336,-31.91449,267.1804],[19.16956,-31.9148,288.9749],[19.1753,-31.9165,249.2583],[19.18072,-31.91893,287.1814],[19.18522,-31.92208,288.7965],[19.1956,-31.92017,157.5538],[19.21085,-31.9135,474.4055],[19.24666,-31.88906,677.468],[19.25953,-31.88327,460.5152],[19.26501,-31.88844,370.1219],[19.24899,-31.93929,239.1461],[19.24852,-31.9518,205.8131],[19.25255,-31.96048,193.2724],[19.28066,-31.9719,328.2556],[19.29229,-31.97867,292.657],[19.30252,-31.98988,325.401],[19.31916,-32.02233,230.9021],[19.32614,-32.0305,194.3205],[19.33373,-32.03427,230.3885],[19.34304,-32.0336,230.6714],[19.35048,-32.03381,193.5273],[19.35668,-32.03598,207.2744],[19.36583,-32.04554,189.5168],[19.37125,-32.04724,221.3076],[19.37673,-32.04667,284.6927],[19.38185,-32.04476,353.8335],[19.38665,-32.04218,273.4091],[19.39223,-32.04011,276.8525],[19.39781,-32.03872,233.6835],[19.40324,-32.03861,237.9771],[19.40867,-32.04011,194.7206],[19.41347,-32.04264,203.1475],[19.41812,-32.04574,323.2093],[19.42221,-32.04915,305.4352],[19.42634,-32.05386,280.5195],[19.43585,-32.06786,280.5463],[19.44065,-32.07308,209.4447],[19.44561,-32.07696,218.5058],[19.45151,-32.07871,215.4325],[19.45802,-32.07928,244.5017],[19.47073,-32.07825,342.3225],[19.47585,-32.08099,341.3989],[19.47822,-32.08698,368.523],[19.4746,-32.10853,242.2931],[19.47476,-32.11747,254.6492],[19.4774,-32.12724,279.0067],[19.47786,-32.13458,317.7045],[19.47429,-32.1492,282.0397],[19.4746,-32.15633,244.3722],[19.4838,-32.1799,328.3075],[19.49264,-32.23199,313.7254],[19.4883,-32.24118,301.8646],[19.44561,-32.27886,539.5334],[19.4251,-32.31002,636.1567],[19.4329,-32.36195,576.6243],[19.43895,-32.38645,499.6323],[19.44701,-32.4021,498.3813],[19.48752,-32.46551,470.1436],[19.48752,-32.49011,647.9506],[19.4729,-32.58349,633.5671],[19.53357,-32.63759,590.98],[19.59119,-32.61403,437.632],[19.59646,-32.60468,420.1097],[19.59305,-32.60018,413.2591],[19.58927,-32.59646,412.4378],[19.58617,-32.59227,408.5291],[19.57253,-32.56287,399.7802],[19.57811,-32.53161,400.0804],[19.59739,-32.49166,411.665],[19.60979,-32.4575,436.1863],[19.62994,-32.44262,390.5936],[19.65258,-32.45301,386.726],[19.67294,-32.44985,390.6017],[19.70394,-32.43771,348.4734],[19.73066,-32.40717,326.8091],[19.77738,-32.38862,317.531],[19.80125,-32.3728,321.4254],[19.86952,-32.37079,361.8286],[19.9246,-32.3574,409.3891],[20.01664,-32.29457,417.3513],[20.04878,-32.25813,513.6367],[20.07731,-32.24506,496.1999],[20.13922,-32.18961,609.0527],[20.16826,-32.18605,877.8738],[20.18578,-32.19793,1373.3147],[20.19818,-32.22196,1467.7361],[20.21265,-32.24304,929.7895],[20.21275,-32.28356,1112.332],[20.1386,-32.36758,458.3708],[20.10697,-32.39601,434.0332],[20.08227,-32.41172,393.9244],[20.0787,-32.45838,515.3733],[20.09514,-32.52189,620.0811],[20.12325,-32.59646,890.2642],[20.17151,-32.6856,873.9757],[20.18578,-32.73723,950.4138],[20.20934,-32.7643,980.2438],[20.23373,-32.78115,1018.7308],[20.25637,-32.79221,1059.4543],[20.27952,-32.80616,1136.6514],[20.30835,-32.84001,1053.194],[20.33507,-32.86187,1233.2607],[20.35553,-32.89293,1192.1393],[20.37791,-32.90145,1230.7012],[20.42116,-32.93685,1232.9578],[20.48839,-32.92605,1135.6521],[20.54575,-32.90223,1143.0271],[20.57015,-32.90497,1082.865],[20.60787,-32.92104,1047.8474],[20.70512,-32.91815,961.3881],[20.78414,-32.86151,1004.5641],[20.80445,-32.81009,1036.5115],[20.81158,-32.75536,1387.1189],[20.82336,-32.71619,1268.2744],[20.86511,-32.67687,1364.1622],[20.93839,-32.65444,1660.6725],[20.99565,-32.64777,1699.0808],[21.04138,-32.6378,1576.2301],[21.11776,-32.60716,1380.9443],[21.17254,-32.513,1289.2716],[21.19223,-32.45905,1525.7883],[21.2377,-32.44324,1821.7854],[21.25475,-32.43146,1762.4642],[21.27258,-32.41497,1635.0712],[21.30519,-32.37673,1682.6157],[21.38183,-32.35518,1541.9641],[21.42312,-32.34852,1561.666],[21.46813,-32.31823,1597.5881],[21.52445,-32.28909,1529.9467],[21.55344,-32.24149,1185.118],[21.6028,-32.22036,1177.8964],[21.63447,-32.21514,1173.1091],[21.67638,-32.22284,1667.9119],[21.71576,-32.2124,1562.8712],[21.75426,-32.22051,1402.1926],[21.78811,-32.23204,1480.9724],[21.85265,-32.24304,1279.7554],[21.91363,-32.23064,962.3962],[21.97135,-32.19576,1166.7113],[21.99817,-32.15897,1251.6655],[22.05636,-32.09985,1280.0112],[22.07998,-32.09551,1238.7319],[22.10121,-32.05742,1406.0247],[22.08478,-32.01784,1494.1759],[22.07812,-32.00859,1393.4214],[22.07656,-32.00192,1384.7998],[22.07672,-31.99758,1381.1667],[22.08556,-31.95738,1372.8765],[22.08416,-31.92653,1348.7217],[22.08726,-31.9102,1340.5665],[22.08881,-31.89309,1327.5211],[22.09594,-31.88079,1340.1548],[22.10463,-31.86028,1332.553],[22.14436,-31.85418,1338.5724],[22.26276,-31.60484,1413.3038],[22.29149,-31.57017,1375.6511],[22.47737,-31.65295,1455.3113],[22.5154,-31.67786,1502.8694],[22.56191,-31.72023,1535.2874],[22.60552,-31.77661,1419.2434],[22.69663,-31.80292,1371.5448],[22.75637,-31.83387,1349.4629],[22.82572,-31.83666,1342.2461],[22.87026,-31.85278,1372.2484],[22.94302,-31.8564,1127.9565],[22.98943,-31.87082,1235.7271],[23.02653,-31.88648,1232.6273],[23.03661,-31.92281,1156.0597],[23.03785,-31.93247,1074.6606],[23.06984,-31.97655,1461.4773],[23.18063,-31.88999,1214.4393],[23.20094,-31.86963,1370.7534],[23.22327,-31.83351,1353.0201],[23.29267,-31.75088,1298.3118],[23.35675,-31.7207,1235.5898],[23.40093,-31.68127,1209.2952],[23.52495,-31.68241,1187.514],[23.55115,-31.67786,1207.3727],[23.59291,-31.66272,1316.7579],[23.62846,-31.65941,1333.948],[23.69889,-31.66737,1433.8464],[23.78437,-31.70902,1310.4484],[23.80876,-31.72757,1277.5958],[23.81899,-31.74643,1387.3914],[23.81605,-31.76798,1322.668],[23.86323,-31.79982,1338.5886],[23.90028,-31.78245,1451.2972],[23.93397,-31.76271,1417.4194],[23.96312,-31.7268,1529.1316],[23.9951,-31.7162,1610.8367],[24.02316,-31.71951,1744.3308],[24.0674,-31.77243,1616.4752],[24.14703,-31.78989,1779.3743],[24.15432,-31.75801,1757.3231],[24.1816,-31.74886,1694.4897],[24.24165,-31.74917,1628.9653],[24.33462,-31.7193,1866.6689],[24.49957,-31.70483,1982.4745],[24.51259,-31.55296,1584.2281],[24.52437,-31.49756,1525.7401],[24.54396,-31.47301,1480.3423],[24.55791,-31.42299,1450.4681],[24.55869,-31.4018,1437.9764],[24.69589,-31.39793,1552.493],[24.76524,-31.38909,1604.1215],[24.80896,-31.3692,1679.2286],[24.84777,-31.36031,1832.4249],[24.87169,-31.33561,1863.1133],[24.91215,-31.32016,1656.295],[24.96802,-31.28388,1494.3455],[24.98326,-31.27897,1518.4152],[25.06331,-31.2644,1759.9971],[25.21508,-31.20156,1578.9928],[25.35006,-31.22771,1497.0138],[25.37926,-31.2107,1490.8701],[25.38716,-31.16068,1560.162],[25.42298,-31.12533,1585.0001],[25.44551,-31.09516,1622.959],[25.45062,-31.07097,1720.3538],[25.46582,-31.05159,1595.2839],[25.47729,-31.02963,1489.5254],[25.47233,-30.99573,1461.5969],[25.49966,-30.95878,1449.8451],[25.50664,-30.93444,1438.7499],[25.49873,-30.89506,1534.4904],[25.48819,-30.86985,1557.1233],[25.4916,-30.85011,1574.9868],[25.51563,-30.82416,1419.9387],[25.52199,-30.80189,1350.843],[25.50106,-30.77492,1326.9348],[25.48302,-30.7558,1348.5569],[25.46747,-30.61312,1226.1974],[25.43161,-30.59219,1206.8904],[25.39683,-30.56356,1211.9807],[25.36184,-30.54532,1219.1099],[25.31456,-30.54651,1231.3853],[25.29032,-30.5431,1216.1523],[25.27994,-30.5292,1221.821],[25.27358,-30.51059,1253.1628],[25.25792,-30.4969,1261.9244],[25.21787,-30.47767,1213.8711],[25.1849,-30.45566,1214.9471],[25.13126,-30.39964,1268.7019],[25.04346,-30.33024,1169.0],[25.03866,-30.32244,1272.0281],[25.03551,-30.31117,1311.1548],[25.03354,-30.289,1196.9642],[25.0293,-30.28306,1169.0],[24.98605,-30.26601,1232.5468],[24.98207,-30.26322,1270.1692],[24.97825,-30.25795,1269.9882],[24.9674,-30.25087,1309.2244],[24.96492,-30.24694,1250.391],[24.96197,-30.23986,1181.9388],[24.94538,-30.21464,1193.5747],[24.93453,-30.21433,1169.0],[24.92569,-30.21247,1169.0],[24.92068,-30.21061,1169.0],[24.91432,-30.20699,1169.0],[24.90688,-30.20121,1357.343],[24.8073,-30.02168,1169.0],[24.78446,-29.98825,1192.8303],[24.75346,-29.98168,1182.0702],[24.73992,-29.98013,1170.9717],[24.72503,-29.97739,1238.9385],[24.70721,-29.97419,1129.873],[24.69165,-29.96876,1133.7651],[24.6792,-29.96081,1115.053],[24.67041,-29.95011,1109.4908],[24.66612,-29.93419,1099.0623],[24.66302,-29.91352,1108.3157],[24.65754,-29.89564,1117.2383],[24.64623,-29.88799,1146.6633],[24.60463,-29.88195,1166.2841],[24.57543,-29.86598,1108.3861],[24.52949,-29.81632,1103.4432],[24.52158,-29.81239,1112.2821],[24.51037,-29.81162,1095.7698],[24.48825,-29.81291,1086.407],[24.48329,-29.80867,1094.8611],[24.47776,-29.78986,1167.8094],[24.47461,-29.78562,1183.9813],[24.442,-29.78506,1127.0378],[24.4281,-29.77906,1107.1309],[24.40908,-29.76449,1112.3925],[24.36475,-29.71328,1097.9753],[24.35539,-29.697,1090.0498],[24.3479,-29.66036,1079.5259],[24.34082,-29.64904,1090.2731],[24.34852,-29.63618,1135.2441],[24.41704,-29.50988,1163.8135],[24.65506,-29.06934,1116.9219],[24.76183,-28.86537,1157.897],[24.87433,-28.64988,1232.9109],[24.87712,-28.63882,1233.3281],[24.87216,-28.63283,1228.2834],[24.86048,-28.6273,1215.7932],[24.84839,-28.61055,1211.7107],[24.8411,-28.58265,1205.6031],[24.84513,-28.5194,1158.4753],[24.86373,-28.46596,1153.6838],[24.88099,-28.44167,1160.3646],[24.89185,-28.42018,1162.2086],[24.91386,-28.34845,1183.9336],[24.91727,-28.32923,1195.35],[24.91603,-28.31744,1199.2261],[24.90688,-28.30928,1211.1132],[24.89898,-28.2976,1223.9093],[24.8951,-28.28603,1248.5985],[24.89975,-28.27285,1245.9589],[24.92347,-28.25931,1227.7535],[24.95034,-28.23605,1224.8334],[24.97019,-28.2081,1210.5959],[24.98125,-28.18836,1219.4205],[25.00993,-28.11508,1240.4095],[25.01303,-28.09973,1228.641],[25.01334,-28.08283,1193.5598],[25.01349,-28.06821,1194.2683],[25.00512,-28.07007,1193.7881],[24.9937,-28.07074,1194.5321],[24.98512,-28.0725,1193.5133],[24.96275,-28.09074,1193.187],[24.94895,-28.09818,1195.5803],[24.94016,-28.09896,1200.79],[24.93236,-28.09663,1207.6953],[24.82451,-27.90905,1142.0129],[24.84203,-27.906,1151.4907],[25.02667,-27.70771,1260.7621],[25.01365,-27.6948,1270.0537],[25.0031,-27.69045,1278.4971],[24.99148,-27.6872,1287.446],[24.97205,-27.68549,1294.5962],[24.8149,-27.6872,1246.7634],[24.78927,-27.68069,1141.6804],[24.78028,-27.66766,1135.1577],[24.77702,-27.65051,1135.8197],[24.76601,-27.62958,1120.2064],[24.75718,-27.60018,1110.8347],[24.74317,-27.58555,1089.8927],[24.73821,-27.5854,1089.1903],[24.71108,-27.581,1082.8821],[24.69651,-27.581,1080.4011],[24.68979,-27.58292,1079.1125],[24.68452,-27.58633,1077.8958],[24.6794,-27.59676,1083.0342],[24.67708,-27.60731,1080.9443],[24.67692,-27.62493,1075.6492],[24.67878,-27.63392,1075.9471],[24.68126,-27.64079,1074.2456],[24.6825,-27.64653,1072.9091],[24.68126,-27.65371,1071.1637],[24.67134,-27.67175,1073.5156],[24.66948,-27.68017,1071.3257],[24.67088,-27.69107,1073.283],[24.6763,-27.71035,1074.9426],[24.67925,-27.71474,1075.2338],[24.6839,-27.71748,1070.1389],[24.69413,-27.72218,1068.9156],[24.69775,-27.72601,1068.0052],[24.69992,-27.73087,1065.5271],[24.7024,-27.75572,1062.4597],[24.701,-27.76714,1073.0979],[24.69403,-27.78978,1066.1716],[24.69274,-27.80125,1075.4094],[24.69305,-27.81732,1071.3806],[24.69134,-27.82641,1062.3481],[24.68498,-27.84026,1060.6908],[24.67956,-27.84827,1055.4058],[24.67289,-27.85386,1056.0112],[24.66204,-27.8568,1059.9412],[24.65413,-27.8599,1054.4937],[24.64793,-27.86559,1058.6564],[24.63811,-27.88569,1054.7031],[24.62122,-27.90429,1051.205],[24.61765,-27.92972,1058.3801],[24.61889,-27.93612,1053.0974],[24.62122,-27.96155,1048.9839],[24.6206,-27.96832,1051.2325],[24.61843,-27.97995,1049.0221],[24.61129,-28.0001,1049.1476],[24.57124,-28.03167,1041.0],[24.56318,-28.0402,1042.6488],[24.55776,-28.0525,1041.0],[24.55512,-28.06056,1044.5286],[24.54597,-28.07493,1041.0],[24.51972,-28.09958,1041.0],[24.43844,-28.03756,1145.6578],[24.43782,-28.02294,1187.0801],[24.44355,-28.00811,1151.1589],[24.44929,-27.99762,1187.5023],[24.44712,-27.97721,1168.8546],[24.41994,-27.94517,1221.9883],[24.40505,-27.93556,1244.3638],[24.38025,-27.93044,1263.9897],[24.36893,-27.91917,1278.8213],[24.36258,-27.89887,1303.3887],[24.37343,-27.87628,1309.2163],[24.38428,-27.85783,1313.8402],[24.4158,-27.82936,1319.2615],[24.42448,-27.81334,1307.4863],[24.42929,-27.79009,1334.924],[24.42247,-27.72125,1350.8774],[24.41265,-27.70146,1353.4622],[24.40753,-27.68436,1354.1277],[24.09784,-27.74709,1416.8752],[24.07035,-27.69211,1435.564],[24.07019,-27.63082,1449.9032],[24.04337,-27.58524,1466.2673],[24.03732,-27.52716,1488.4919],[24.03221,-27.50897,1477.7705],[24.03298,-27.49341,1471.9631],[24.03624,-27.47471,1465.1786],[24.03887,-27.37244,1456.0862],[24.0134,-27.33621,1442.1154],[23.99061,-27.31239,1430.1677],[23.98735,-27.32402,1433.7657],[23.98363,-27.33223,1436.0559],[23.97495,-27.3466,1442.3448],[23.97325,-27.37042,1453.0262],[23.97557,-27.3853,1460.9939],[23.98162,-27.40892,1465.382],[23.97697,-27.41729,1465.1514],[23.94203,-27.4159,1463.368],[23.91051,-27.41016,1455.8546],[23.89284,-27.41502,1455.7755],[23.87888,-27.42659,1454.345],[23.87454,-27.44034,1456.6819],[23.87749,-27.45217,1458.3904],[23.89377,-27.46297,1467.0914],[23.89687,-27.47414,1467.652],[23.89113,-27.48365,1466.4075],[23.87702,-27.49098,1462.3093],[23.85697,-27.49222,1465.5715],[23.82225,-27.4885,1458.6261],[23.80085,-27.48907,1454.5002],[23.787,-27.49548,1458.5486],[23.78344,-27.49842,1461.3621],[23.7729,-27.5132,1469.1782],[23.75088,-27.53382,1464.0374],[23.72634,-27.53692,1466.448],[23.68303,-27.52375,1447.4147],[23.64195,-27.50659,1434.7767],[23.60066,-27.48339,1411.9744],[23.571,-27.47486,1390.2627],[23.48304,-27.46509,1342.7957],[23.48149,-27.45347,1341.1174],[23.47715,-27.44391,1335.1798],[23.47002,-27.43249,1329.459],[23.44857,-27.41641,1314.347],[23.42377,-27.41378,1310.2058],[23.41679,-27.41486,1312.3125],[23.40532,-27.41099,1314.9325],[23.34806,-27.36913,1314.3302],[23.32848,-27.35978,1297.3147],[23.30088,-27.35296,1275.1597],[23.25277,-27.35027,1247.4739],[23.23179,-27.34577,1319.0199],[23.21195,-27.33404,1272.96],[23.12239,-27.24356,1196.4287],[23.08131,-27.21178,1152.2828],[23.03289,-27.20578,1079.2472],[23.0163,-27.19415,1071.5902],[23.00524,-27.18041,1066.22],[22.99284,-27.15095,1046.0009],[22.98896,-27.12465,1024.1086],[22.98819,-27.1046,1044.3113],[22.99051,-27.07271,1046.8014],[22.99796,-27.04651,1047.3303],[23.01098,-27.03044,1056.3889],[23.05552,-27.01478,1090.2402],[23.0686,-27.00781,1098.7098],[23.07242,-27.00249,1103.0914],[23.07356,-27.00057,1104.5863],[23.07366,-26.9997,1104.5863],[23.06746,-26.99287,1144.4893],[23.03847,-26.95386,1171.0503],[23.004,-26.852,1107.627],[23.00524,-26.83872,1115.068],[23.01144,-26.82002,1085.1503],[23.02669,-26.79955,1078.7716],[23.0301,-26.77837,1075.1335],[23.02591,-26.74328,1059.8665],[23.02622,-26.72343,1053.7761],[23.03537,-26.68674,1053.7878],[23.03103,-26.67284,1049.483],[22.96369,-26.63042,1021.9529],[22.94736,-26.63197,1022.7759],[22.94101,-26.6345,1029.161],[22.93667,-26.62799,1025.3157],[22.92861,-26.61884,1019.614],[22.91806,-26.60907,1012.0777],[22.89848,-26.60194,1004.8091],[22.86654,-26.59884,1012.228],[22.85383,-26.59471,1016.1033],[22.84153,-26.58396,1006.1699],[22.82618,-26.57579,1007.7966],[22.80789,-26.57398,1008.2981],[22.79425,-26.57114,1006.3932],[22.76614,-26.57083,1004.3123],[22.75296,-26.57316,1002.41],[22.73963,-26.57409,998.7886],[22.71492,-26.57212,975.89],[22.70438,-26.5653,998.2046],[22.69632,-26.55058,1000.5636],[22.68795,-26.50107,1003.8235],[22.68671,-26.49828,1002.5874],[22.68252,-26.47399,1001.5963],[22.68376,-26.44769,1002.024],[22.68919,-26.428,1001.9647],[22.70237,-26.41322,1004.991],[22.69431,-26.11494,979.7635],[22.6248,-26.11153,970.4182],[22.62086,-26.11153,968.0211],[22.61116,-26.12058,968.5299],[22.59152,-26.13318,965.2027],[22.58025,-26.14652,964.5641],[22.56382,-26.18114,970.8279],[22.54511,-26.20739,965.4664],[22.52796,-26.2137,965.3699],[22.48259,-26.20481,958.7047],[22.45086,-26.21008,958.1335],[22.42884,-26.22651,955.076],[22.39505,-26.27188,958.3851],[22.34285,-26.31736,957.9008],[22.31877,-26.32883,943.3739],[22.30317,-26.33359,954.828],[22.25728,-26.34092,950.1296],[22.24828,-26.34692,940.8995],[22.23774,-26.36676,939.73],[22.19744,-26.40407,947.284],[22.17832,-26.43994,947.9677],[22.14617,-26.51921,935.9479],[22.10814,-26.57192,947.6888],[22.0577,-26.6176,944.0742],[21.999,-26.65026,938.3444],[21.93585,-26.6639,928.146],[21.8388,-26.66452,898.8572],[21.80728,-26.66959,890.0719],[21.78061,-26.67816,896.9349],[21.76873,-26.68871,918.0449],[21.76749,-26.70431,893.8676],[21.77648,-26.74917,922.973],[21.77751,-26.76849,919.8215],[21.77338,-26.78679,923.9091],[21.76232,-26.80446,922.7793],[21.74382,-26.82048,909.4854],[21.68718,-26.85521,884.5056],[21.66455,-26.86306,879.2231],[21.64336,-26.86275,893.0344],[21.58393,-26.84839,896.5265],[21.49867,-26.84642,897.2037],[21.44947,-26.82637,888.233],[21.42663,-26.82265,886.5834],[21.38084,-26.82399,887.1972],[21.29692,-26.84446,884.4323],[21.28287,-26.84498,863.8973],[21.25486,-26.84177,862.7444],[21.24059,-26.84198,881.9033],[21.15347,-26.86451,873.0328],[21.12246,-26.86534,859.269],[20.99038,-26.83857,872.7038],[20.95017,-26.81604,857.5698],[20.90769,-26.80002,862.5939],[20.85188,-26.80653,866.0256],[20.82605,-26.81883,851.0756],[20.77943,-26.84808,854.4478],[20.71494,-26.87505,857.6198],[20.69355,-26.889,854.1478],[20.69076,-26.89179,854.561],[20.68569,-26.88177,860.0204],[20.67546,-26.85004,860.8504],[20.66564,-26.83908,851.8022],[20.65055,-26.82968,855.6849],[20.64487,-26.82451,855.2259],[20.63867,-26.81697,865.3619],[20.62482,-26.78937,855.4868],[20.61469,-26.7532,872.4123],[20.60921,-26.7162,867.1176],[20.6089,-26.68612,871.3542],[20.63071,-26.61832,865.7669],[20.63236,-26.59527,864.4106],[20.62771,-26.58081,862.9929],[20.61149,-26.55993,865.9469],[20.60528,-26.54773,879.4606],[20.60229,-26.5222,880.8757],[20.60528,-26.49327,885.9968],[20.6182,-26.43973,877.8887],[20.62254,-26.42753,873.3737],[20.6521,-26.40779,891.9948],[20.66595,-26.39177,892.7557],[20.69551,-26.34196,907.7341],[20.75329,-26.27622,902.5451],[20.77623,-26.24057,905.8829],[20.79473,-26.20191,906.397],[20.83793,-26.14683,910.4603],[20.84145,-26.13132,911.8606],[20.80393,-26.07128,923.2055],[20.80052,-26.05247,926.0595],[20.80279,-25.98053,926.1915],[20.79411,-25.89392,927.6447],[20.76714,-25.83439,937.592],[20.76693,-25.83067,937.0044],[20.75577,-25.81899,927.5377],[20.74998,-25.81847,929.4909],[20.74006,-25.82313,918.1584],[20.72652,-25.82736,941.08989999999994],[20.72714,-25.81816,943.8737],[20.73778,-25.79894,934.9586],[20.7167,-25.73259,943.9974],[20.70688,-25.71481,937.0789],[20.69655,-25.70706,940.0507],[20.67102,-25.69548,952.5897],[20.66285,-25.68525,954.676],[20.66275,-25.67492,951.326],[20.67143,-25.65332,951.351],[20.67081,-25.64226,954.3853],[20.66306,-25.63626,931.7652],[20.65138,-25.63461,932.9893],[20.64104,-25.6312,973.0307],[20.63794,-25.62035,960.2156],[20.64332,-25.61322,955.1107],[20.66523,-25.60102,951.9208],[20.67143,-25.5912,955.9039],[20.66337,-25.56474,956.3054],[20.61851,-25.52847,973.301],[20.62037,-25.50056,974.6868],[20.62689,-25.48475,963.8854],[20.65655,-25.4678,960.9235],[20.64353,-25.45736,957.8154],[20.63443,-25.45767,963.9791],[20.62564,-25.46273,950.7275],[20.61655,-25.46614,975.8886],[20.60663,-25.46201,976.6616],[20.6059,-25.45178,973.8454],[20.61138,-25.43938,969.9668],[20.612,-25.431,957.6012],[20.59691,-25.43287,970.5151]]]}}