{"type": "Feature","bbox": [27.4659,-26.3031,27.7535,-26.0511],"geometry": {"type": "MultiPolygon","coordinates": [[[[27.7233,-26.2348,1622.9331],[27.7143,-26.2139,1680.4556],[27.7185,-26.2139,1668.5852],[27.7196,-26.2107,1679.6427],[27.7203,-26.2039,1688.6824],[27.7178,-26.2029,1708.7017],[27.722,-26.1861,1671.2449],[27.7246,-26.1889,1664.5267],[27.7451,-26.1801,1696.801],[27.7434,-26.1767,1709.5842],[27.7471,-26.1755,1703.6262],[27.7449,-26.1744,1716.6389],[27.7505,-26.1656,1725.7781],[27.7509,-26.1625,1721.7842],[27.7369,-26.1627,1733.1404],[27.7196,-26.1548,1727.8334],[27.7213,-26.1407,1712.3088],[27.7328,-26.1434,1715.2844],[27.7363,-26.128,1728.4829],[27.718,-26.1262,1694.1053],[27.7123,-26.1191,1704.905],[27.7061,-26.115,1699.446],[27.7006,-26.1179,1690.2661],[27.6962,-26.1172,1673.8053],[27.6926,-26.1199,1670.2273],[27.6906,-26.1196,1659.7769],[27.6854,-26.1157,1652.4452],[27.6838,-26.0967,1618.7246],[27.6814,-26.0955,1614.296],[27.6739,-26.0957,1611.054],[27.6818,-26.1169,1662.0947],[27.6134,-26.1104,1580.3101],[27.6143,-26.0625,1567.6482],[27.6124,-26.0868,1567.5759],[27.5512,-26.1047,1572.4668],[27.5413,-26.0511,1598.6265],[27.5357,-26.0793,1610.1948],[27.4674,-26.092,1604.9104],[27.4692,-26.0925,1608.1604],[27.49,-26.128,1587.7932],[27.4741,-26.2018,1568.5186],[27.4659,-26.2005,1552.5068],[27.4715,-26.245,1523.7305],[27.4819,-26.2844,1513.9927],[27.5261,-26.3026,1536.2869],[27.5308,-26.3031,1535.2838],[27.5376,-26.2735,1612.4572],[27.5447,-26.272,1621.0306],[27.5451,-26.2669,1629.0232],[27.5737,-26.2626,1627.0292],[27.5751,-26.2666,1616.3274],[27.6017,-26.261,1590.6279],[27.6006,-26.2567,1597.1771],[27.607,-26.2569,1602.0544],[27.6308,-26.2426,1631.2518],[27.6273,-26.2559,1595.4294],[27.6973,-26.2651,1579.9877],[27.7446,-26.2795,1592.5713],[27.7535,-26.258,1610.2361],[27.7292,-26.2463,1595.5989],[27.7285,-26.2425,1604.719],[27.7233,-26.2348,1622.9331]]]]}
,"properties": {"GID_3": "ZAF.3.5.3_1","GID_0": "ZAF","country": "SouthAfrica","GID_1": "ZAF.3_1","province": "Gauteng","NL_NAME_1": "NA","GID_2": "ZAF.3.5_1","county": "WestRand","NL_NAME_2": "NA","city": "Randfontein","VARNAME_3": "NA","NL_NAME_3": "NA","TYPE_3": "LocalMunicipality","ENGTYPE_3": "LocalMunicipality","CC_3": "GT482","HASC_3": "NA","name": "Randfontein.city","area_km2": 476.6033,"hist_schema_id": "Elevation0-9000","hist_area_km2": {"1525": 14.7932,"1550": 35.975,"1575": 95.2873,"1600": 68.1286,"1625": 54.6406,"1650": 49.5386,"1675": 50.0714,"1700": 51.5405,"1725": 50.8052,"1750": 5.804,"1775": 0.019}}}