{"type": "Feature","bbox": [29.8524,-30.4029,30.4455,-29.9746],"geometry": {"type": "MultiPolygon","coordinates": [[[[30.1714,-30.4026,671.9062],[30.2038,-30.4029,835.3991],[30.2088,-30.3899,825.9791],[30.2303,-30.3829,633.8904],[30.2397,-30.374,712.6573],[30.246,-30.3703,725.9678],[30.2499,-30.3725,763.6269],[30.2576,-30.3619,833.1332],[30.2708,-30.3691,916.371],[30.2841,-30.3725,846.5328],[30.2838,-30.3745,800.3967],[30.2945,-30.3761,841.7391],[30.2958,-30.3687,994.3453],[30.3036,-30.3574,813.399],[30.3041,-30.3522,841.4359],[30.3073,-30.3522,817.261],[30.3419,-30.3023,843.4014],[30.3658,-30.2483,676.7465],[30.3808,-30.2506,723.0038],[30.3773,-30.2223,703.2917],[30.3877,-30.2014,491.6608],[30.3896,-30.2002,458.7708],[30.3918,-30.201,458.9646],[30.3968,-30.206,444.8661],[30.398,-30.2034,445.5681],[30.4014,-30.2108,434.8475],[30.4038,-30.2115,433.1986],[30.4164,-30.1983,411.7574],[30.4137,-30.1888,515.9708],[30.4242,-30.1862,436.0562],[30.4297,-30.1869,418.2101],[30.4285,-30.1846,425.4529],[30.4314,-30.1797,397.0056],[30.4338,-30.1811,405.5373],[30.4332,-30.1831,396.5186],[30.4345,-30.1836,396.5186],[30.4412,-30.1778,386.6409],[30.4398,-30.1752,381.408],[30.4413,-30.1753,394.4588],[30.4416,-30.1729,408.4531],[30.4379,-30.1721,395.6321],[30.4372,-30.1691,443.8111],[30.4301,-30.168,424.9358],[30.4275,-30.165,439.0013],[30.4266,-30.1617,448.737],[30.4249,-30.1612,454.7368],[30.4246,-30.1574,478.0862],[30.42,-30.1535,496.6698],[30.4207,-30.1478,591.7736],[30.4167,-30.1429,613.1257],[30.4455,-30.0844,197.1478],[30.4398,-30.082,191.5592],[30.4367,-30.0915,195.6334],[30.4311,-30.0928,201.4325],[30.428,-30.0793,206.588],[30.4243,-30.0766,206.3364],[30.4223,-30.0782,204.1579],[30.4219,-30.0848,208.3439],[30.4244,-30.0926,211.1975],[30.422,-30.0966,229.5526],[30.4133,-30.0922,228.8103],[30.4074,-30.0918,218.2425],[30.4005,-30.0959,229.9871],[30.399,-30.1013,236.9081],[30.3966,-30.1023,223.1296],[30.3857,-30.0942,257.8203],[30.3735,-30.0924,234.8756],[30.3742,-30.0872,245.3524],[30.3822,-30.0851,265.9184],[30.3823,-30.078,241.9903],[30.3729,-30.0744,247.4157],[30.3701,-30.0711,300.1435],[30.364,-30.0725,249.6858],[30.3579,-30.0706,323.2184],[30.3583,-30.0683,279.0639],[30.3646,-30.0639,256.9905],[30.3658,-30.0613,275.7777],[30.3629,-30.0602,260.6638],[30.3559,-30.0621,287.993],[30.352,-30.0586,288.6077],[30.3518,-30.0556,272.7152],[30.3561,-30.0479,272.703],[30.3557,-30.0392,274.0909],[30.3513,-30.0364,277.6468],[30.3474,-30.0372,290.4024],[30.3484,-30.0469,286.8583],[30.3463,-30.0488,285.3415],[30.3409,-30.0487,289.1833],[30.338,-30.0468,345.5777],[30.3341,-30.0404,306.7957],[30.3328,-30.0347,304.2377],[30.3277,-30.0322,297.9991],[30.3226,-30.0348,320.4282],[30.3215,-30.0433,302.9366],[30.3172,-30.0459,302.965],[30.315,-30.0412,306.4359],[30.3167,-30.0359,340.3262],[30.3101,-30.0305,315.191],[30.3134,-30.0235,321.9736],[30.3133,-30.0205,332.1781],[30.3052,-30.0146,338.0376],[30.2996,-30.014,345.875],[30.2902,-30.0187,331.516],[30.2845,-30.0144,365.9268],[30.2829,-30.0056,332.1279],[30.2771,-30.0041,353.352],[30.2728,-30.008,346.8162],[30.2729,-30.0104,344.9293],[30.277,-30.0154,375.8489],[30.2764,-30.0195,350.7182],[30.2739,-30.0219,358.892],[30.262,-30.0115,358.0115],[30.2572,-30.0111,392.3942],[30.2511,-30.0142,357.4751],[30.249,-30.0107,368.6992],[30.2426,-30.0078,362.6514],[30.2376,-30.0087,362.4259],[30.2349,-30.0123,363.5531],[30.2214,-30.0108,378.9087],[30.2159,-30.0162,373.1337],[30.2124,-30.0173,376.1146],[30.1965,-30.0122,382.4226],[30.1952,-30.008,383.3138],[30.1891,-30.0028,394.0035],[30.1721,-30.0015,416.0972],[30.1645,-29.9988,401.7923],[30.1614,-29.9886,411.4443],[30.1503,-29.9822,413.4599],[30.1347,-29.9798,430.0452],[30.1251,-29.982,436.4424],[30.1149,-29.9778,475.1292],[30.1092,-29.9771,445.9606],[30.1058,-29.9746,455.3538],[30.0965,-29.996,1060.9911],[30.1057,-30.0368,1023.3868],[30.0989,-30.0332,1027.0037],[30.0994,-30.0437,753.0837],[30.1023,-30.0492,708.9559],[30.0992,-30.0544,711.4092],[30.0909,-30.0565,729.8235],[30.0846,-30.0539,743.2725],[30.0781,-30.0536,753.7726],[30.0703,-30.0562,773.6588],[30.0672,-30.0555,777.7554],[30.0506,-30.0586,809.9033],[30.0428,-30.0558,843.3171],[30.0375,-30.0468,855.9922],[30.0335,-30.0518,888.4227],[30.023,-30.0536,924.4019],[30.0174,-30.0529,974.9349],[30.0105,-30.0496,1033.2484],[30.0021,-30.0588,1145.4342],[29.9991,-30.0741,1293.7736],[29.9867,-30.0869,1286.3293],[29.9697,-30.0858,1327.0133],[29.9689,-30.0898,1305.1591],[29.9585,-30.0878,1254.8782],[29.9631,-30.0769,1368.7866],[29.9578,-30.0733,1366.3246],[29.9284,-30.1121,1237.9148],[29.8688,-30.1052,1021.7029],[29.8524,-30.1176,847.6201],[29.8583,-30.1305,858.6082],[29.8648,-30.1345,834.3359],[29.8638,-30.1367,831.252],[29.8572,-30.138,819.9554],[29.8557,-30.1404,836.4554],[29.8576,-30.1443,817.2279],[29.862,-30.1469,814.7999],[29.8706,-30.1581,820.0712],[29.8834,-30.1653,788.2355],[29.887,-30.1716,785.5096],[29.8933,-30.1731,781.9996],[29.9007,-30.1723,773.5443],[29.9028,-30.1701,771.8246],[29.9159,-30.1715,763.6329],[29.9144,-30.1821,763.7957],[29.9206,-30.1899,755.1645],[29.9207,-30.1934,756.1263],[29.9227,-30.1942,756.229],[29.9244,-30.1913,755.3678],[29.9276,-30.1936,752.4833],[29.9219,-30.1977,750.5709],[29.916,-30.1995,753.1514],[29.9159,-30.2042,749.1],[29.9256,-30.2099,755.9894],[29.9342,-30.2048,743.7312],[29.9478,-30.2093,748.3805],[29.9528,-30.213,744.0092],[29.9519,-30.2191,740.3393],[29.9569,-30.2262,743.1971],[29.9611,-30.2281,739.6375],[29.9575,-30.2347,740.7518],[29.9525,-30.2377,737.4913],[29.9506,-30.2358,736.9289],[29.951,-30.2323,735.3128],[29.9495,-30.23,739.8287],[29.9444,-30.2288,744.6559],[29.9334,-30.2381,741.707],[29.9356,-30.2274,742.7076],[29.9289,-30.2272,734.4365],[29.9265,-30.2317,750.6644],[29.9282,-30.239,733.427],[29.9249,-30.2461,729.7126],[29.9298,-30.2472,728.0804],[29.9323,-30.2544,724.1562],[29.9349,-30.254,724.5184],[29.9435,-30.2572,732.6335],[29.9451,-30.2637,723.5884],[29.944,-30.2687,719.4743],[29.9468,-30.2712,722.5463],[29.9489,-30.2789,718.5146],[29.9599,-30.2802,717.2753],[29.9659,-30.2837,717.7711],[29.9834,-30.2803,710.8466],[29.9879,-30.2858,709.1382],[29.9879,-30.2897,708.306],[29.9827,-30.2934,709.0533],[29.9819,-30.2979,706.2537],[29.9845,-30.2995,705.5174],[29.9898,-30.2964,705.0233],[29.9901,-30.2981,723.2977],[29.9928,-30.2992,708.2678],[30.0007,-30.3004,702.9706],[29.9995,-30.3037,716.353],[29.9916,-30.3101,710.5814],[29.9795,-30.3127,724.5417],[29.9801,-30.3169,729.8645],[29.9836,-30.3201,701.5499],[29.9903,-30.3234,701.405],[29.9984,-30.3307,699.0486],[30.005,-30.3263,690.7656],[30.0162,-30.3249,676.2358],[30.0196,-30.328,693.4938],[30.026,-30.3302,674.7069],[30.0268,-30.3332,661.8007],[30.0239,-30.3389,650.246],[30.0283,-30.3405,655.8035],[30.041,-30.3288,627.0754],[30.0334,-30.3197,653.5403],[30.0352,-30.3154,619.0615],[30.043,-30.3154,618.3661],[30.0505,-30.3187,616.2206],[30.0614,-30.3153,600.3977],[30.0656,-30.3192,598.025],[30.0658,-30.325,590.9476],[30.0637,-30.3284,588.6804],[30.0608,-30.3295,588.1291],[30.0548,-30.3272,585.3793],[30.0518,-30.3276,601.2992],[30.0472,-30.3298,580.1544],[30.0407,-30.3372,580.1699],[30.049,-30.3571,559.5701],[30.0487,-30.3673,556.7482],[30.0515,-30.3735,574.14],[30.0585,-30.3722,559.1707],[30.0678,-30.3661,562.2129],[30.0804,-30.3636,552.0824],[30.0831,-30.3674,554.9666],[30.0798,-30.3771,552.2598],[30.0825,-30.3858,547.2318],[30.0868,-30.3859,544.8541],[30.0971,-30.3775,539.5516],[30.1009,-30.3773,536.0508],[30.1077,-30.3847,558.3198],[30.1173,-30.3871,524.6868],[30.1202,-30.3912,522.2392],[30.1202,-30.3948,516.5186],[30.1145,-30.402,516.8789],[30.1714,-30.4026,671.9062]]]]}
,"properties": {"GID_3": "ZAF.4.4.4_1","GID_0": "ZAF","country": "SouthAfrica","GID_1": "ZAF.4_1","province": "KwaZulu-Natal","NL_NAME_1": "NA","GID_2": "ZAF.4.4_1","county": "Sisonke","NL_NAME_2": "NA","city": "Ubuhlebezwe","VARNAME_3": "NA","NL_NAME_3": "NA","TYPE_3": "LocalMunicipality","ENGTYPE_3": "LocalMunicipality","CC_3": "KZN434","HASC_3": "NA","name": "Ubuhlebezwe.city","area_km2": 1605.104,"hist_schema_id": "Elevation0-9000","hist_area_km2": {"200": 0.807,"225": 2.165,"250": 2.568,"275": 3.541,"300": 3.266,"325": 3.798,"350": 4.863,"375": 6.331,"400": 8.001,"425": 10.093,"450": 10.954,"475": 12.018,"500": 14.548,"525": 17.059,"550": 20.632,"575": 24.61,"600": 28.64,"625": 34.485,"650": 37.304,"675": 42.03,"700": 45.544,"725": 53.176,"750": 65.911,"775": 69.594,"800": 71.041,"825": 74.504,"850": 76.238,"875": 87.243,"900": 96.803,"925": 106.927,"950": 109.122,"975": 92.826,"1000": 65.647,"1025": 55.686,"1050": 50.653,"1075": 36.291,"1100": 26.837,"1125": 24.914,"1150": 22.129,"1175": 20.187,"1200": 15.952,"1225": 14.616,"1250": 14.599,"1275": 11.702,"1300": 7.667,"1325": 1.302,"1350": 0.165,"1375": 0.11}}}