{"type":"Feature","properties":{"GID_3":"ZAF.6.1.3_1","GID_0":"ZAF","country":"SouthAfrica","GID_1":"ZAF.6_1","province":"Mpumalanga","NL_NAME_1":"NA","GID_2":"ZAF.6.1_1","county":"Ehlanzeni","NL_NAME_2":"NA","city":"Nkomazi","VARNAME_3":"NA","NL_NAME_3":"NA","TYPE_3":"LocalMunicipality","ENGTYPE_3":"LocalMunicipality","CC_3":"MP324","HASC_3":"NA","name":"Nkomazi.city"},
"geometry":{"type": "MultiPolygon","coordinates": [[[[31.7652,-25.9359,264.0204],[31.8679,-25.9996,720.4838],[31.9737,-25.9532,745.307],[31.9305,-25.8408,586.61],[31.9786,-25.6937,436.4996],[31.9959,-25.6767,415.3765],[32.0061,-25.6452,397.2691],[32.0056,-25.626,250.6066],[31.9958,-25.5263,305.9691],[31.9813,-25.5238,348.7969],[31.9774,-25.5098,362.9562],[31.9774,-25.4747,388.5603],[31.9796,-25.4571,341.9621],[31.9895,-25.4377,105.631],[31.9905,-25.429,252.1388],[32.0135,-25.3881,363.4351],[32.0153,-25.3825,368.2343],[32.0288,-25.2414,305.694],[32.032,-25.1831,110.5],[32.0245,-25.1874,117.0707],[32.0151,-25.1848,125.162],[32.0028,-25.1635,131.7035],[31.9933,-25.1596,135.2638],[31.9625,-25.1646,145.7609],[31.9527,-25.1641,147.0776],[31.9475,-25.162,146.9043],[31.9432,-25.1563,152.2207],[31.9413,-25.1505,157.1451],[31.9458,-25.1347,158.2781],[31.9448,-25.1283,155.7405],[31.942,-25.1248,155.0249],[31.921,-25.1194,163.4494],[31.9155,-25.1165,158.5683],[31.9018,-25.1034,164.3152],[31.8814,-25.0981,175.1201],[31.8626,-25.0759,170.404],[31.8385,-25.0694,176.3742],[31.8229,-25.0617,182.4384],[31.8,-25.0352,191.0974],[31.7984,-25.0306,193.268],[31.783,-25.0117,197.9297],[31.7792,-25.0044,201.8986],[31.7699,-24.9966,215.0854],[31.7681,-24.9877,211.968],[31.7693,-24.9792,207.2061],[31.7683,-24.9745,207.6931],[31.7612,-24.9726,209.0669],[31.7561,-24.9679,213.1452],[31.7351,-24.9598,224.0003],[31.7267,-24.9543,224.3064],[31.7205,-24.9533,227.5047],[31.7169,-24.9543,228.7775],[31.7106,-24.9604,230.6057],[31.7017,-24.9631,232.2694],[31.6743,-24.9652,236.7535],[31.6617,-24.9729,240.3226],[31.6492,-24.9772,242.1898],[31.6428,-24.9778,252.9534],[31.6166,-24.9889,252.6848],[31.6109,-24.9892,257.8264],[31.6085,-24.9992,280.8393],[31.602,-25.0038,289.1985],[31.5942,-25.004,300.2628],[31.5929,-25.0075,299.619],[31.5885,-25.0117,309.9259],[31.5864,-25.0251,325.1599],[31.5893,-25.041,338.165],[31.5887,-25.046,334.4046],[31.5987,-25.0615,340.7778],[31.6014,-25.0741,371.5657],[31.6017,-25.0929,376.0909],[31.6031,-25.0956,380.0545],[31.6018,-25.107,361.7625],[31.608,-25.1325,348.9782],[31.6078,-25.1391,343.6493],[31.6126,-25.1545,338.8568],[31.6196,-25.1656,349.9839],[31.6179,-25.1685,358.9998],[31.6192,-25.1758,335.0167],[31.6222,-25.1815,340.3198],[31.6226,-25.1907,315.9054],[31.6177,-25.2053,326.2415],[31.6224,-25.2124,357.5701],[31.6233,-25.2238,335.8663],[31.6206,-25.2321,323.9025],[31.6213,-25.2423,319.6265],[31.6266,-25.2535,299.2737],[31.6275,-25.2714,278.8941],[31.6142,-25.2888,294.6061],[31.613,-25.2959,306.3869],[31.6023,-25.3129,316.559],[31.5873,-25.3298,345.2293],[31.5848,-25.3349,335.6692],[31.5813,-25.344,335.5518],[31.5816,-25.3596,309.7707],[31.5754,-25.3717,289.4559],[31.5665,-25.3826,314.4333],[31.5634,-25.4017,285.5468],[31.5603,-25.4115,272.8788],[31.5624,-25.4145,258.8575],[31.5602,-25.4181,264.7126],[31.5584,-25.4273,263.5161],[31.5455,-25.4371,269.5714],[31.5263,-25.4406,272.875],[31.5221,-25.4432,275.3551],[31.5207,-25.4508,276.9261],[31.5227,-25.4531,277.5043],[31.5342,-25.4584,290.3501],[31.5367,-25.465,289.6988],[31.5154,-25.4768,293.0252],[31.4994,-25.4885,295.9088],[31.4827,-25.4966,297.9417],[31.4461,-25.5061,296.3421],[31.4348,-25.5121,289.7736],[31.4221,-25.5095,311.2817],[31.4143,-25.5106,300.8967],[31.4105,-25.5146,303.4012],[31.398,-25.5134,298.2017],[31.3942,-25.5154,298.6771],[31.3901,-25.5251,304.0657],[31.3855,-25.5268,302.587],[31.3594,-25.5321,306.4334],[31.3567,-25.5296,312.0381],[31.3503,-25.5289,311.2793],[31.3447,-25.5245,318.6532],[31.3373,-25.522,315.1273],[31.3134,-25.535,327.7369],[31.3113,-25.5392,325.7543],[31.3001,-25.5415,337.8753],[31.2927,-25.5386,340.7709],[31.2836,-25.5319,344.03],[31.2787,-25.5411,502.2904],[31.2759,-25.5602,867.8182],[31.2905,-25.5675,779.8941],[31.2929,-25.5828,587.9149],[31.2796,-25.6065,458.9998],[31.287,-25.6087,391.1356],[31.2888,-25.6038,375.3167],[31.2928,-25.6005,369.0811],[31.2955,-25.5946,363.5224],[31.3018,-25.5912,363.1967],[31.3079,-25.5901,360.573],[31.3084,-25.5875,358.1823],[31.3307,-25.6094,663.3815],[31.3161,-25.6274,491.8354],[31.3148,-25.631,503.8948],[31.3027,-25.6253,400.8708],[31.3006,-25.6275,404.8604],[31.3015,-25.6304,408.0916],[31.2964,-25.634,422.5699],[31.3005,-25.6388,423.013],[31.3007,-25.6419,434.201],[31.306,-25.6389,434.2867],[31.3077,-25.643,450.3359],[31.3102,-25.6432,454.649],[31.3033,-25.6639,713.9424],[31.2853,-25.6646,452.9661],[31.2855,-25.6714,456.7302],[31.2572,-25.668,877.7406],[31.2621,-25.6923,772.5208],[31.2741,-25.7043,516.8834],[31.275,-25.7154,548.0481],[31.2724,-25.7199,579.313],[31.2767,-25.72,590.0729],[31.2817,-25.7141,732.2596],[31.2945,-25.73,914.3376],[31.2885,-25.7499,951.6278],[31.4163,-25.7188,1171.3298],[31.7652,-25.9359,264.0204]]]]}}