{"type":"Feature","properties":{"GID_3":"ZAF.5.1.3_1","GID_0":"ZAF","country":"SouthAfrica","GID_1":"ZAF.5_1","province":"Limpopo","NL_NAME_1":"NA","GID_2":"ZAF.5.1_1","county":"Capricorn","NL_NAME_2":"NA","city":"Lepele-Nkumpi","VARNAME_3":"NA","NL_NAME_3":"NA","TYPE_3":"LocalMunicipality","ENGTYPE_3":"LocalMunicipality","CC_3":"LIM355","HASC_3":"NA","name":"Lepele-Nkumpi.city"},
"geometry":{"type": "MultiPolygon","coordinates": [[[[29.5684,-24.4994,770.652],[29.5774,-24.4942,767.0253],[29.5815,-24.4887,766.1481],[29.5849,-24.4871,766.7418],[29.5886,-24.4774,764.2338],[29.5959,-24.4694,763.7273],[29.6133,-24.4595,763.6501],[29.6173,-24.4605,762.2589],[29.619,-24.4625,762.6851],[29.6205,-24.4742,761.6616],[29.622,-24.4763,766.0923],[29.6344,-24.4764,759.97],[29.6394,-24.4745,760.3091],[29.6432,-24.4767,757.6566],[29.6478,-24.4824,758.5224],[29.6515,-24.4794,757.1843],[29.6565,-24.4705,757.5759],[29.6636,-24.4665,756.6249],[29.6676,-24.4623,758.496],[29.6752,-24.4627,755.4064],[29.6826,-24.4672,754.255],[29.6895,-24.4692,755.1893],[29.6952,-24.4678,753.8887],[29.7057,-24.4618,753.4362],[29.7161,-24.4603,752.1883],[29.7203,-24.4582,750.9247],[29.7216,-24.4562,750.7893],[29.7212,-24.4495,752.4993],[29.7296,-24.4445,750.4462],[29.7269,-24.4398,751.3221],[29.7254,-24.4309,748.8141],[29.7287,-24.4257,749.3153],[29.7354,-24.427,746.6531],[29.7379,-24.4233,749.1526],[29.737,-24.4159,745.0936],[29.7409,-24.4018,745.0114],[29.7373,-24.392,743.777],[29.7375,-24.3857,746.7022],[29.7679,-24.3532,742.7828],[29.7642,-24.3493,743.5366],[29.7542,-24.3495,739.2113],[29.7517,-24.348,743.9398],[29.7513,-24.3402,739.8621],[29.7449,-24.33,737.3094],[29.7457,-24.3279,742.4962],[29.7556,-24.3268,735.2524],[29.7586,-24.3246,736.1114],[29.7561,-24.3145,735.3748],[29.7567,-24.31,733.3513],[29.7537,-24.3011,735.0222],[29.755,-24.295,733.2162],[29.76,-24.2904,735.0533],[29.7596,-24.2836,732.4963],[29.7609,-24.2799,729.0242],[29.7683,-24.2731,728.1388],[29.7798,-24.2715,731.2462],[29.7906,-24.2674,727.7967],[29.8,-24.2683,727.8253],[29.8054,-24.2613,729.683],[29.806,-24.2532,729.0334],[29.8152,-24.2483,722.9038],[29.8206,-24.2533,722.3933],[29.8479,-24.2542,720.1885],[29.8746,-24.2476,717.4147],[29.8762,-24.233,717.5601],[29.8732,-24.2251,716.8112],[29.8752,-24.2221,723.9264],[29.8811,-24.2221,713.1808],[29.8856,-24.225,716.859],[29.8973,-24.2215,713.5625],[29.9059,-24.2236,715.0616],[29.938,-24.2251,705.8955],[29.9423,-24.2236,702.584],[29.9479,-24.2188,703.3961],[29.9533,-24.2175,701.7454],[29.9608,-24.2191,702.6257],[29.9744,-24.2255,696.712],[29.9776,-24.2239,697.782],[29.9793,-24.2123,700.8593],[29.9823,-24.2091,700.403],[29.9913,-24.2075,703.0967],[29.9966,-24.2105,693.9656],[30.0102,-24.2042,695.0596],[30.0238,-24.2046,725.0703],[30.0309,-24.2068,699.7906],[30.0389,-24.2061,681.7464],[30.0475,-24.2115,693.7394],[30.0491,-24.2176,676.2634],[30.0529,-24.2235,675.482],[30.0707,-24.2389,669.2267],[30.0785,-24.2371,670.7605],[30.0854,-24.2409,668.792],[30.0958,-24.2394,718.4995],[30.1043,-24.2447,703.379],[30.1405,-24.2479,669.0361],[30.147,-24.2558,669.7522],[30.144,-24.2648,666.3588],[30.1479,-24.2726,686.3718],[30.1483,-24.2774,663.838],[30.1434,-24.2873,652.5284],[30.1483,-24.2933,653.6347],[30.1527,-24.2939,648.8126],[30.1634,-24.2996,664.3771],[30.1721,-24.2999,646.9521],[30.1799,-24.3047,649.3297],[30.183,-24.2999,644.9413],[30.2003,-24.288,640.0687],[30.21,-24.2885,641.3912],[30.2224,-24.2844,644.2012],[30.2387,-24.2835,636.2605],[30.2417,-24.2867,636.9532],[30.2408,-24.2908,642.1504],[30.2477,-24.298,640.7456],[30.2525,-24.2996,658.1071],[30.2558,-24.3051,655.0439],[30.2662,-24.3095,631.7613],[30.2743,-24.3205,635.9424],[30.2776,-24.318,625.421],[30.2914,-24.3173,635.6222],[30.325,-24.3107,1257.9539],[30.3662,-24.2831,1826.887],[30.3605,-24.2681,1813.2191],[30.3474,-24.2225,1746.8226],[30.3372,-24.234,1829.7839],[30.2753,-24.213,1342.9941],[30.3095,-24.1897,1612.1459],[30.3516,-24.1724,741.5631],[30.3547,-24.1764,770.6448],[30.3619,-24.1731,713.0847],[30.3594,-24.1692,708.9412],[30.3616,-24.1683,706.7278],[30.3215,-24.1297,834.4518],[30.2949,-24.0959,869.124],[30.2383,-24.1393,1618.9955],[30.2156,-24.0857,1769.3079],[30.0746,-24.012,2021.6544],[30.0431,-23.9725,1886.8566],[30.0143,-23.9834,1783.2335],[29.9975,-24.0007,1187.0935],[29.9909,-23.9944,1314.9893],[29.9685,-23.993,1790.4146],[29.9545,-23.9818,1979.0686],[29.9393,-23.9813,1637.55],[29.901,-23.9636,1625.0291],[29.8982,-23.9582,1709.8972],[29.8948,-23.9438,1611.6234],[29.8781,-23.9464,1637.1332],[29.8638,-23.9514,1592.4604],[29.8385,-23.9525,1576.4633],[29.8101,-23.9685,1215.3007],[29.8273,-24.0406,1323.9102],[29.7824,-24.0595,1285.223],[29.7421,-24.0925,1033.1427],[29.7568,-24.0917,1589.4514],[29.7796,-24.1079,1735.7501],[29.7555,-24.1044,1067.318],[29.7359,-24.1072,1291.9761],[29.7201,-24.1133,1566.061],[29.6932,-24.1264,1725.5602],[29.6062,-24.1765,1793.7743],[29.562,-24.1956,1750.8376],[29.5368,-24.2045,1779.9794],[29.5073,-24.2205,1500.6437],[29.4815,-24.2263,1806.7019],[29.4738,-24.2305,1770.5344],[29.4847,-24.2531,1274.1074],[29.4981,-24.2428,1357.0212],[29.5036,-24.2632,1324.6758],[29.4716,-24.278,1183.4199],[29.4505,-24.28,1161.2397],[29.4465,-24.2586,1283.7128],[29.4461,-24.2407,1615.6279],[29.4215,-24.2577,1536.8086],[29.409,-24.2623,1452.6946],[29.3932,-24.2731,1544.5009],[29.3864,-24.2733,1655.4608],[29.3683,-24.279,1495.8081],[29.3323,-24.2969,1337.1531],[29.318,-24.2739,1068.8772],[29.288,-24.295,1207.1567],[29.2665,-24.2839,1383.7393],[29.233,-24.2344,1806.9647],[29.2224,-24.2285,1654.861],[29.2106,-24.2587,1590.9806],[29.189,-24.2569,1774.343],[29.1688,-24.2702,1652.636],[29.148,-24.2238,1703.2048],[29.0995,-24.2321,1752.5713],[29.0727,-24.2064,1251.8978],[29.032,-24.2478,1166.3069],[29.0441,-24.298,1334.7159],[29.0632,-24.2998,1545.2533],[29.0508,-24.3711,1075.5243],[29.1122,-24.3741,1074.6885],[29.1705,-24.3587,1100.5198],[29.2304,-24.3377,1105.8707],[29.2595,-24.3372,1073.7548],[29.2536,-24.3754,1065.3237],[29.271,-24.4181,964.7674],[29.2922,-24.4497,925.371],[29.3345,-24.5557,882.0342],[29.3575,-24.5881,845.9878],[29.3872,-24.5743,863.4949],[29.4005,-24.6085,835.0063],[29.434,-24.5987,821.5264],[29.4498,-24.6304,810.3922],[29.4708,-24.6406,780.4987],[29.4725,-24.6325,782.9882],[29.4681,-24.6241,778.0056],[29.469,-24.6216,778.518],[29.4764,-24.6163,780.5125],[29.4798,-24.6103,779.9315],[29.4803,-24.6059,778.7097],[29.4914,-24.6036,778.1168],[29.4964,-24.5913,777.2581],[29.5179,-24.5759,775.1386],[29.5239,-24.5743,775.9415],[29.526,-24.5688,775.8572],[29.5323,-24.5617,773.5468],[29.5389,-24.5602,774.0151],[29.5437,-24.5541,773.3605],[29.5505,-24.5517,773.8774],[29.5526,-24.5441,773.6933],[29.5506,-24.538,773.136],[29.5451,-24.5297,770.9078],[29.5518,-24.5249,771.2103],[29.5583,-24.5232,770.7831],[29.5627,-24.5246,770.6709],[29.5649,-24.5232,770.1991],[29.5685,-24.5161,769.6678],[29.5627,-24.5045,768.8019],[29.5684,-24.4994,770.652]]]]}}