{"type": "Feature","bbox": [19.5069,-34.1173,20.5771,-33.4639],"geometry": {"type": "MultiPolygon","coordinates": [[[[20.2283,-33.916,387.0896],[20.2269,-33.9139,450.3855],[20.2225,-33.9128,483.6143],[20.2344,-33.8979,1061.3068],[20.3244,-33.9496,1575.7731],[20.436,-33.9577,1608.7183],[20.4602,-33.9063,681.3814],[20.4695,-33.8957,763.9043],[20.4699,-33.8897,780.8879],[20.4683,-33.8803,761.423],[20.4608,-33.8764,788.1437],[20.4425,-33.8579,818.8969],[20.4417,-33.8371,978.1335],[20.4354,-33.8264,1000.8821],[20.4415,-33.8198,923.4065],[20.4266,-33.811,1042.0022],[20.4437,-33.8101,1049.9413],[20.4502,-33.8068,1030.8899],[20.4682,-33.8134,856.1802],[20.4684,-33.8183,930.3782],[20.4805,-33.8228,884.4339],[20.5145,-33.8026,757.1481],[20.4479,-33.774,879.2733],[20.4728,-33.7292,843.9562],[20.4692,-33.682,852.3441],[20.5039,-33.682,821.6732],[20.5352,-33.6607,632.3482],[20.5032,-33.637,693.8564],[20.5744,-33.5388,789.7614],[20.5771,-33.5281,1025.8175],[20.5494,-33.5287,949.8494],[20.5476,-33.5195,1462.9585],[20.4782,-33.5278,693.7495],[20.4756,-33.5134,747.9644],[20.5017,-33.4985,797.4135],[20.498,-33.4639,877.4975],[20.395,-33.4808,756.1645],[20.3361,-33.4878,688.3732],[20.3157,-33.502,702.5685],[20.2678,-33.5129,847.2977],[20.2415,-33.538,849.8987],[20.2149,-33.5413,1132.1321],[20.1731,-33.5262,808.8682],[20.1612,-33.5364,813.6523],[20.1516,-33.5404,830.2545],[20.1255,-33.5562,843.0836],[20.1056,-33.55,919.2954],[20.0779,-33.553,906.6712],[20.062,-33.5419,903.8298],[20.0569,-33.5463,921.9212],[20.0484,-33.5502,944.5118],[20.0207,-33.5525,1022.2835],[19.993,-33.5569,1039.8217],[19.9833,-33.5333,963.9494],[19.9714,-33.5243,1019.3929],[19.9587,-33.5176,1085.5511],[19.9257,-33.5333,1120.5863],[19.9171,-33.5193,1086.8149],[19.8701,-33.5421,1120.7354],[19.8652,-33.57,1104.6791],[19.8388,-33.5659,1077.5098],[19.7985,-33.5379,1171.1526],[19.775,-33.5333,1428.1296],[19.7552,-33.5367,1308.6877],[19.7502,-33.5344,1340.9131],[19.7477,-33.5303,1360.2606],[19.7363,-33.5373,1429.9233],[19.6907,-33.5277,1438.0126],[19.6376,-33.5365,1702.9117],[19.6026,-33.5619,2038.7327],[19.6244,-33.5679,1820.7528],[19.6504,-33.5935,1587.1107],[19.6452,-33.6046,1559.6929],[19.651,-33.6096,1607.8503],[19.6669,-33.6157,1317.6766],[19.6996,-33.6379,1279.7817],[19.7411,-33.6496,1571.3815],[19.7176,-33.6602,800.0498],[19.7148,-33.6752,663.423],[19.706,-33.6756,655.9389],[19.695,-33.6797,454.7721],[19.69,-33.7043,374.4205],[19.7021,-33.7184,341.8669],[19.6912,-33.7394,313.6581],[19.7023,-33.7463,296.4192],[19.6898,-33.7524,357.7383],[19.6828,-33.7488,373.3321],[19.6596,-33.7751,171.9077],[19.6704,-33.782,171.4653],[19.6743,-33.7871,170.7961],[19.6757,-33.7916,172.6787],[19.683,-33.7995,170.7241],[19.6522,-33.8136,320.5728],[19.6527,-33.8346,819.1961],[19.6285,-33.8348,330.2843],[19.5945,-33.8542,843.5135],[19.5979,-33.8782,434.6471],[19.566,-33.8637,367.9325],[19.5642,-33.8605,393.7838],[19.5665,-33.8579,354.7466],[19.5676,-33.8493,314.0975],[19.5658,-33.8492,330.1031],[19.5618,-33.8595,414.0848],[19.5626,-33.8664,355.0114],[19.5323,-33.8784,570.164],[19.5369,-33.8862,537.7444],[19.5454,-33.9156,552.5467],[19.5069,-33.9717,1601.4921],[19.5333,-33.9695,1333.2612],[19.5662,-34.002,966.4669],[19.5898,-34.0124,1428.0596],[19.6084,-34.0074,1336.7816],[19.6412,-34.0017,1136.377],[19.6807,-34.0091,1343.7932],[19.7001,-34.0464,1230.863],[19.7148,-34.049,1471.1045],[19.735,-34.0412,1339.2986],[19.7552,-34.0544,1250.03],[19.8103,-34.0554,1454.9669],[19.8536,-34.0633,1606.8037],[19.8855,-34.0662,1491.8494],[19.9062,-34.0762,1209.2573],[19.9865,-34.0782,890.0726],[19.9893,-34.0855,591.9734],[20.0075,-34.0939,403.3992],[20.0108,-34.0915,339.3532],[20.0085,-34.0639,615.822],[20.0328,-34.0597,640.6639],[20.0808,-34.0646,197.6521],[20.1417,-34.0592,255.4281],[20.1425,-34.0559,184.7453],[20.1517,-34.0446,142.8982],[20.1615,-34.0409,146.5604],[20.1724,-34.0398,178.9125],[20.1778,-34.0298,219.2241],[20.1859,-34.0359,195.0307],[20.1961,-34.04,171.9891],[20.1925,-34.0462,168.7956],[20.2003,-34.053,141.1271],[20.2049,-34.0655,99.8113],[20.2022,-34.0786,138.632],[20.15,-34.0784,170.757],[20.1493,-34.0766,108.1212],[20.1376,-34.0824,101.327],[20.1413,-34.084,100.565],[20.1405,-34.0854,99.9649],[20.1878,-34.0974,302.6526],[20.1873,-34.102,216.7063],[20.1974,-34.1005,221.0076],[20.2031,-34.0884,302.2285],[20.23,-34.0952,211.4801],[20.2291,-34.1007,158.1717],[20.2244,-34.1023,136.9366],[20.2218,-34.1111,181.3781],[20.2468,-34.1173,186.6473],[20.2497,-34.1061,135.9045],[20.2727,-34.1062,109.4855],[20.2701,-34.0902,99.7006],[20.2913,-34.0913,115.0525],[20.3057,-34.0773,72.7981],[20.3024,-34.0762,80.7544],[20.2901,-34.0801,77.2409],[20.2861,-34.0789,75.7536],[20.2873,-34.0719,76.2838],[20.2856,-34.07,75.1141],[20.2858,-34.065,74.0248],[20.2989,-34.0603,129.5932],[20.2945,-34.0504,126.9756],[20.2865,-34.0511,97.0274],[20.284,-34.0414,78.2572],[20.2792,-34.0396,81.7004],[20.2834,-34.0402,83.1558],[20.2908,-34.0419,123.8],[20.2959,-34.0363,107.2826],[20.3071,-34.0294,156.0951],[20.3046,-34.0228,136.3581],[20.3041,-34.014,209.3194],[20.3071,-34.0056,228.7702],[20.3138,-34.0017,264.3229],[20.3242,-34.0018,179.5261],[20.3178,-33.9936,187.9152],[20.328,-33.973,412.3872],[20.2969,-33.964,385.4586],[20.2909,-33.9609,483.4285],[20.2843,-33.9544,379.5546],[20.2803,-33.9538,325.6766],[20.2832,-33.9574,240.8968],[20.2584,-33.9417,280.7572],[20.2283,-33.916,387.0896]]]]}
,"properties": {"GID_3": "ZAF.9.1.3_1","GID_0": "ZAF","country": "SouthAfrica","GID_1": "ZAF.9_1","province": "WesternCape","NL_NAME_1": "NA","GID_2": "ZAF.9.1_1","county": "CapeWinelands","NL_NAME_2": "NA","city": "Langeberg","VARNAME_3": "NA","NL_NAME_3": "NA","TYPE_3": "LocalMunicipality","ENGTYPE_3": "LocalMunicipality","CC_3": "WC026","HASC_3": "NA","name": "Langeberg.city","area_km2": 4519.327,"hist_schema_id": "Elevation0-9000","hist_area_km2": {"75": 8.835,"100": 51.455,"125": 78.823,"150": 133.88,"175": 185.721,"200": 181.444,"225": 162.516,"250": 158.442,"275": 156.957,"300": 146.179,"325": 135.14,"350": 119.995,"375": 110.661,"400": 101.275,"425": 95.47,"450": 91.176,"475": 86.145,"500": 86.872,"525": 80.815,"550": 77.588,"575": 80.056,"600": 90.875,"625": 103.825,"650": 125.106,"675": 136.092,"700": 137.304,"725": 118.222,"750": 105.294,"775": 87.373,"800": 79.551,"825": 75.706,"850": 82.593,"875": 80.865,"900": 76.486,"925": 76.274,"950": 73.767,"975": 69.958,"1000": 61.887,"1025": 57.567,"1050": 49.947,"1075": 47.482,"1100": 48.109,"1125": 61.82,"1150": 60.764,"1175": 49.917,"1200": 43.044,"1225": 36.585,"1250": 28.288,"1275": 25.414,"1300": 23.543,"1325": 19.007,"1350": 12.952,"1375": 10.322,"1400": 8.01,"1425": 6.739,"1450": 5.062,"1475": 3.668,"1500": 2.574,"1525": 1.834,"1550": 1.341,"1575": 0.794,"1600": 0.777,"1625": 0.583,"1650": 0.424,"1675": 0.283,"1700": 0.265,"1725": 0.177,"1750": 0.177,"1775": 0.141,"1800": 0.212,"1825": 0.23,"1850": 0.177,"1875": 0.088,"1900": 0.106,"1925": 0.106,"1950": 0.053,"1975": 0.071,"2025": 0.035}}}