{"type": "Feature","bbox": [19.9988,-27.9149,21.0265,-24.7659],"geometry": {"type": "MultiPolygon","coordinates": [[[[20.0002,-27.7502,788.5353],[20.0002,-27.774,786.1771],[20.1537,-27.8526,802.9703],[20.2486,-27.7906,841.801],[20.2708,-27.9149,876.658],[20.4119,-27.8533,812.3932],[20.3895,-27.7907,815.5811],[20.5064,-27.6986,849.392],[20.5019,-27.6694,840.698],[20.5867,-27.6557,858.3823],[20.5854,-27.6141,857.4053],[20.6057,-27.5777,863.1157],[20.6404,-27.5275,857.9243],[20.6527,-27.538,856.2532],[20.7116,-27.4968,831.9608],[20.7527,-27.4656,865.8098],[20.8406,-27.4344,870.5841],[20.8448,-27.3929,880.7972],[20.9228,-27.3726,880.8021],[20.932,-27.2891,883.6553],[20.9941,-27.2856,890.0629],[21.0265,-27.1793,889.3029],[20.96,-27.1603,888.3756],[20.9676,-27.1446,904.6987],[20.9728,-27.1119,890.1673],[20.9755,-27.0619,886.5684],[20.987,-27.0184,900.7421],[20.9736,-26.9895,868.7036],[20.9603,-26.9872,879.2064],[20.9116,-27.0262,886.1685],[20.8928,-26.965699999999998,872.1346],[20.8939,-26.9656,880.6801],[20.9022,-26.9356,871.9064],[20.906,-26.9134,883.6885],[20.8288,-26.9067,891.7874],[20.8619,-26.8544,888.6803],[20.8188,-26.821,851.9984],[20.8176,-26.8256,849.2742],[20.8188,-26.8378,847.8981],[20.816,-26.8419,848.8332],[20.813,-26.8434,850.6748],[20.7942,-26.8403,847.4038],[20.7866,-26.8417,846.8884],[20.7729,-26.8598,849.5006],[20.7631,-26.8665,848.1605],[20.7286,-26.8664,847.2604],[20.7153,-26.8699,845.8728],[20.7085,-26.875,845.13],[20.7049,-26.8855,846.1747],[20.6974,-26.8996,846.0775],[20.6854,-26.9074,848.9718],[20.687,-26.9018,846.4338],[20.6799,-26.8818,847.7923],[20.6798,-26.8696,851.4423],[20.6761,-26.861,855.9902],[20.6805,-26.8515,850.4068],[20.6851,-26.848,850.8773],[20.6827,-26.8405,849.6793],[20.6555,-26.8345,850.1709],[20.6454,-26.829,850.7749],[20.6426,-26.8229,852.6921],[20.6504,-26.8095,852.8941],[20.645,-26.8019,852.7042],[20.6368,-26.7944,862.0473],[20.6238,-26.7894,855.4868],[20.6224,-26.7869,853.9441],[20.6351,-26.7748,860.2131],[20.6377,-26.7675,855.5532],[20.6367,-26.7636,855.0611],[20.6257,-26.7493,857.168],[20.6325,-26.7351,861.2555],[20.6326,-26.7289,857.4796],[20.6345,-26.7256,860.3726],[20.6261,-26.7198,856.785],[20.6209,-26.7135,858.5546],[20.6191,-26.7056,857.397],[20.6166,-26.7022,857.541],[20.6145,-26.6871,859.6552],[20.617,-26.6772,859.0638],[20.6334,-26.6692,861.4891],[20.6353,-26.6653,861.0906],[20.6292,-26.6428,860.449],[20.6301,-26.6279,860.382],[20.6337,-26.6173,861.4444],[20.6318,-26.6037,864.8717],[20.6318,-26.585,862.7515],[20.61,-26.5599,863.9863],[20.6085,-26.553,863.8229],[20.6102,-26.5356,866.6434],[20.6045,-26.5208,866.1691],[20.6053,-26.5129,865.4929],[20.6118,-26.4992,869.1669],[20.6116,-26.4879,869.0914],[20.6166,-26.4676,868.7545],[20.6173,-26.444,869.4775],[20.6257,-26.4348,870.0112],[20.6462,-26.4351,871.6422],[20.6498,-26.4329,873.9965],[20.6608,-26.4156,874.1489],[20.6768,-26.3979,885.5352],[20.6789,-26.3969,873.3162],[20.6875,-26.3992,874.4436],[20.6934,-26.3977,874.5505],[20.6975,-26.3902,874.7544],[20.6986,-26.3832,876.0798],[20.6973,-26.3691,876.1008],[20.7005,-26.3634,876.9214],[20.7122,-26.3509,880.6199],[20.7199,-26.3338,880.3925],[20.7372,-26.3241,882.1749],[20.744,-26.3178,879.5311],[20.7563,-26.2968,889.4275],[20.7594,-26.2865,880.7622],[20.7638,-26.284,882.493],[20.7727,-26.2821,885.6244],[20.7904,-26.2712,888.6977],[20.7928,-26.2587,888.1773],[20.8053,-26.245,888.5328],[20.8077,-26.2295,887.8393],[20.816,-26.2149,886.598],[20.8152,-26.1924,886.9659],[20.8193,-26.1823,891.0269],[20.8269,-26.1729,890.7854],[20.8366,-26.169,890.197],[20.8438,-26.1621,890.7979],[20.8538,-26.1492,890.5262],[20.8562,-26.1413,891.1409],[20.8633,-26.1325,894.4429],[20.8624,-26.1282,891.2639],[20.8577,-26.1238,891.5549],[20.8524,-26.1222,893.6135],[20.8436,-26.1255,893.6096],[20.840699999999998,-26.1238,892.6527],[20.8382,-26.1185,896.0262],[20.8288,-26.1129,898.7534],[20.8209,-26.1055,894.0668],[20.8207,-26.1011,895.4932],[20.8339,-26.0944,896.6111],[20.8389,-26.0895,896.5281],[20.8418,-26.0804,897.3527],[20.8393,-26.0766,895.928],[20.8273,-26.0726,896.7731],[20.8187,-26.0586,897.3658],[20.821,-26.0543,899.92],[20.8329,-26.047,898.7134],[20.8361,-26.0415,902.782],[20.8361,-26.0361,904.6523],[20.8319,-26.0227,905.3154],[20.8164,-26.0101,908.6096],[20.8153,-26.0059,901.5189],[20.8285,-25.9884,904.964],[20.8307,-25.9825,902.5361],[20.8313,-25.9722,908.2196],[20.8402,-25.9616,906.199],[20.8404,-25.9559,906.1221],[20.8374,-25.9508,904.6266],[20.806,-25.9263,911.7972],[20.8029,-25.921,908.5538],[20.8018,-25.9097,908.5099],[20.7981,-25.8996,912.8597],[20.8094,-25.8934,917.3958],[20.8121,-25.8903,910.2797],[20.8131,-25.8697,912.4585],[20.809,-25.8644,924.2711],[20.8042,-25.8621,910.7211],[20.7867,-25.8606,911.5811],[20.7827,-25.855,911.5049],[20.7815,-25.8488,917.9591],[20.7894,-25.8342,912.3447],[20.7859,-25.82,913.3225],[20.7901,-25.8083,915.4813],[20.7887,-25.8037,915.0555],[20.7829,-25.8007,917.9316],[20.7729,-25.8048,915.0867],[20.7621,-25.8152,916.1589],[20.7593,-25.8222,916.5259],[20.7535,-25.8262,916.7086],[20.747,-25.827,919.1152],[20.7393,-25.8227,919.145],[20.7391,-25.8156,919.6761],[20.7444,-25.8046,918.3833],[20.7496,-25.7991,919.2728],[20.7622,-25.791,920.1451],[20.7646,-25.7871,926.1763],[20.7635,-25.7804,920.7891],[20.7606,-25.7766,920.4064],[20.7541,-25.7725,924.6654],[20.7486,-25.7716,921.1057],[20.7373,-25.7737,922.7861],[20.7317,-25.7717,923.0313],[20.7298,-25.7684,922.3473],[20.7307,-25.7477,923.7802],[20.723,-25.727,927.1899],[20.7181,-25.7187,924.8939],[20.7078,-25.7076,926.1497],[20.6826,-25.6945,926.6467],[20.6779,-25.6904,926.8127],[20.6747,-25.6718,928.0449],[20.677,-25.6655,928.5883],[20.6873,-25.6519,930.2146],[20.6889,-25.6455,929.7924],[20.6879,-25.6355,939.0049],[20.6823,-25.6318,930.0043],[20.6724,-25.6298,931.4938],[20.663,-25.6381,935.0569],[20.6569,-25.6399,932.721],[20.6518,-25.6376,932.0267],[20.6504,-25.6329,933.9522],[20.6525,-25.6258,933.9747],[20.6596,-25.6149,936.2814],[20.6611,-25.6085,934.9803],[20.6654,-25.604,937.2678],[20.6824,-25.6046,937.4639],[20.6906,-25.6031,939.6436],[20.6955,-25.6002,935.9637],[20.6982,-25.5951,937.7278],[20.6969,-25.5896,936.822],[20.6874,-25.5793,937.0751],[20.67,-25.5498,940.1394],[20.648,-25.5318,940.0935],[20.6329,-25.53,941.0842],[20.6292,-25.525,941.4266],[20.6288,-25.5128,942.2135],[20.6402,-25.5041,943.7527],[20.6434,-25.498,946.7012],[20.6345,-25.4787,944.3649],[20.6362,-25.4735,945.0569],[20.6412,-25.4704,945.2175],[20.6616,-25.472,948.7054],[20.6677,-25.4696,953.5393],[20.6728,-25.4635,946.3489],[20.6744,-25.4532,947.0764],[20.6711,-25.4481,947.3127],[20.6668,-25.4459,947.7605],[20.6597,-25.4461,948.5552],[20.6539,-25.4495,949.1077],[20.6484,-25.4595,948.9504],[20.6441,-25.4627,949.8598],[20.6374,-25.4645,950.1577],[20.6225,-25.4618,952.5461],[20.616,-25.4453,952.0839],[20.6202,-25.4405,951.8848],[20.6298,-25.4355,952.7791],[20.6337,-25.4315,953.3738],[20.631,-25.4253,953.6234],[20.6255,-25.4216,953.6262],[20.6082,-25.4297,955.6013],[20.6012,-25.4274,955.3859],[20.5983,-25.4216,955.7603],[20.6054,-25.4042,957.0415],[20.6046,-25.3987,957.171],[20.6016,-25.3947,957.1906],[20.5966,-25.3907,957.7784],[20.5918,-25.39,958.056],[20.5778,-25.3964,959.8609],[20.566,-25.3948,961.4589],[20.5616,-25.3895,960.5909],[20.5599,-25.3843,961.0856],[20.5511,-25.3713,963.0653],[20.5455,-25.3561,964.0505],[20.5392,-25.3448,964.1444],[20.542,-25.3361,964.2405],[20.5481,-25.3288,965.9888],[20.5488,-25.3243,965.5906],[20.547,-25.3206,966.1456],[20.5409,-25.3182,966.038],[20.5366,-25.319,966.0453],[20.532,-25.3228,966.5928],[20.5217,-25.3247,967.0538],[20.5169,-25.3233,967.5979],[20.5139,-25.3171,967.5261],[20.514,-25.3115,968.4014],[20.5173,-25.3065,968.3329],[20.5257,-25.3044,969.1757],[20.5312,-25.2987,969.5562],[20.5427,-25.2928,970.95],[20.5459,-25.2862,972.4004],[20.5281,-25.2878,972.0601],[20.5236,-25.2844,972.0815],[20.5234,-25.278199999999998,972.5417],[20.519,-25.2749,976.1223],[20.506,-25.2755,973.3824],[20.4997,-25.2722,973.98],[20.4873,-25.2531,975.7891],[20.4924,-25.2467,980.2894],[20.4989,-25.2284,977.8013],[20.4956,-25.2246,977.9645],[20.4889,-25.2226,978.8579],[20.476,-25.2252,980.1827],[20.4711,-25.2283,980.496],[20.4656,-25.2234,980.4766],[20.4619,-25.2116,981.3008],[20.4464,-25.199,982.8837],[20.4442,-25.1942,982.9255],[20.4474,-25.1887,983.3397],[20.462,-25.1837,984.7068],[20.4674,-25.1761,989.2726],[20.4697,-25.1618,988.1672],[20.469,-25.1569,987.3438],[20.4655,-25.1523,989.207],[20.4596,-25.1499,988.0381],[20.4448,-25.1582,988.8756],[20.436,-25.1578,989.4232],[20.4309,-25.1543,990.1481],[20.4274,-25.1479,990.2692],[20.4277,-25.1442,990.9828],[20.4316,-25.1411,992.5992],[20.4314,-25.1358,993.9434],[20.426,-25.1328,991.8511],[20.424,-25.1282,992.6518],[20.4255,-25.1239,992.6637],[20.4295,-25.1209,993.348],[20.4292,-25.1163,992.9734],[20.4198,-25.1046,994.2875],[20.4148,-25.1054,994.6276],[20.4107,-25.1034,995.4482],[20.41,-25.0989,994.9843],[20.4157,-25.0891,996.1838],[20.4126,-25.0829,996.9749],[20.3924,-25.0768,998.805],[20.3868,-25.0691,999.2307],[20.3816,-25.0666,999.366],[20.3788,-25.0619,1001.2964],[20.3856,-25.05,1000.1452],[20.3867,-25.0387,1001.825],[20.3842,-25.0343,1001.8926],[20.3689,-25.0278,1004.1504],[20.3566,-25.0244,1005.0371],[20.3492,-25.0095,1004.6155],[20.3286,-25.0059,1006.261],[20.3262,-24.9975,1007.3163],[20.3227,-24.9914,1007.4576],[20.3176,-24.9868,1008.0577],[20.2965,-24.9806,1009.5451],[20.2861,-24.9696,1010.3674],[20.2881,-24.96,1011.3748],[20.2865,-24.9538,1012.4831],[20.2843,-24.9514,1011.6644],[20.2757,-24.9503,1013.0634],[20.2726,-24.9474,1012.7486],[20.2705,-24.9381,1013.0],[20.2662,-24.9293,1014.3373],[20.2593,-24.9237,1014.6826],[20.2545,-24.9233,1018.514],[20.2488,-24.9184,1015.3896],[20.2331,-24.9138,1016.3079],[20.222,-24.9199,1018.8337],[20.217,-24.9166,1017.8176],[20.2137,-24.9078,1018.431],[20.2036,-24.8964,1019.3303],[20.1975,-24.897,1020.057],[20.1895,-24.9104,1021.6873],[20.1817,-24.9118,1021.7228],[20.1604,-24.8888,1023.5085],[20.1581,-24.8836,1023.9256],[20.1502,-24.8795,1025.2008],[20.1305,-24.8808,1026.9584],[20.1213,-24.8848,1028.0818],[20.1152,-24.88,1028.6233],[20.1092,-24.8624,1028.8864],[20.0992,-24.8594,1030.0912],[20.0877,-24.852,1031.8188],[20.0865,-24.845,1031.1335],[20.0897,-24.8402,1031.5503],[20.0902,-24.8328,1031.7825],[20.0859,-24.83,1032.5242],[20.0719,-24.8309,1033.0225],[20.0668,-24.8285,1033.761],[20.0652,-24.8141,1035.9646],[20.0381,-24.8095,1035.6143],[20.0295,-24.7882,1038.6514],[20.0078,-24.7743,1038.5668],[19.9989,-24.7659,1039.2354],[20.0002,-25.5316,1005.1824],[19.9988,-26.6187,928.7341],[20.0002,-27.7502,788.5353]]]]}
,"properties": {"GID_3": "ZAF.8.5.5_1","GID_0": "ZAF","country": "SouthAfrica","GID_1": "ZAF.8_1","province": "NorthernCape","NL_NAME_1": "NA","GID_2": "ZAF.8.5_1","county": "Siyanda","NL_NAME_2": "NA","city": "Mier","VARNAME_3": "NA","NL_NAME_3": "NA","TYPE_3": "LocalMunicipality","ENGTYPE_3": "LocalMunicipality","CC_3": "NC081","HASC_3": "NA","name": "Mier.city","area_km2": 22504.2,"hist_schema_id": "Elevation0-9000","hist_area_km2": {"775": 146.75,"800": 837.31,"825": 2377.33,"850": 3045.52,"875": 3527.25,"900": 1484.47,"925": 2820.99,"950": 3122.61,"975": 2084.21,"1000": 1631.5,"1025": 1047.85,"1050": 354.0,"1075": 24.41}}}