{"type": "Feature","bbox": [22.7357,-33.7785,24.843,-32.7276],"geometry": {"type": "MultiPolygon","coordinates": [[[[24.6869,-33.6127,831.6597],[24.6342,-33.5968,666.304],[24.6461,-33.5708,346.1797],[24.673,-33.5716,485.6156],[24.6922,-33.5397,946.6884],[24.7008,-33.5208,612.9175],[24.7019,-33.5145,345.9339],[24.7479,-33.5238,594.7778],[24.8044,-33.5382,648.17],[24.8088,-33.5069,432.5929],[24.798,-33.4834,457.1189],[24.8169,-33.439,499.4485],[24.8418,-33.4088,569.1812],[24.843,-33.3807,453.7048],[24.8065,-33.3871,395.2634],[24.7982,-33.3671,393.8479],[24.7931,-33.3661,396.6268],[24.7943,-33.3204,534.3045],[24.769,-33.3197,790.0573],[24.7565,-33.3164,748.5775],[24.7452,-33.3177,486.607],[24.7344,-33.3081,486.1334],[24.7374,-33.3048,550.2903],[24.7388,-33.2978,519.6554],[24.7489,-33.2901,541.3278],[24.7694,-33.2392,749.6633],[24.7691,-33.2353,953.2996],[24.732,-33.2328,723.1466],[24.757,-33.2181,615.9543],[24.6912,-33.2057,597.0455],[24.6807,-33.2291,754.1815],[24.6478,-33.2228,946.3517],[24.6425,-33.2188,934.9127],[24.604,-33.2133,1011.1044],[24.5746,-33.2055,852.3371],[24.546,-33.2039,716.4666],[24.5056,-33.1946,687.3695],[24.5014,-33.2082,703.6007],[24.454,-33.1994,756.7694],[24.4662,-33.1633,732.1549],[24.4747,-33.1517,700.3569],[24.4632,-33.1405,721.5188],[24.4304,-33.1379,658.546],[24.3815,-33.1101,631.8966],[24.3557,-33.1061,594.6381],[24.3186,-33.1058,571.2458],[24.3111,-33.1166,557.4622],[24.2584,-33.117,586.8883],[24.2585,-33.1419,571.1138],[24.1981,-33.1363,843.5203],[24.1591,-33.1407,833.422],[24.1538,-33.1328,1152.4604],[24.1055,-33.1317,1120.4231],[24.0424,-33.1246,1362.2081],[23.9747,-33.1041,1325.104],[23.9742,-33.101,1228.8555],[24.0083,-33.0324,803.1132],[23.8422,-33.009,738.8826],[23.8387,-32.969,819.7969],[23.8264,-32.9665,883.0818],[23.7723,-32.9704,1028.5386],[23.7449,-32.9614,1056.8351],[23.7166,-32.962,962.8877],[23.7185,-32.9347,1301.9453],[23.7049,-32.9413,1172.8052],[23.6927,-32.9367,1234.5923],[23.6443,-32.9342,995.365],[23.6396,-32.8798,783.5292],[23.6515,-32.8731,790.1371],[23.6371,-32.8493,795.9585],[23.63,-32.7975,791.3558],[23.5649,-32.7998,755.9737],[23.5834,-32.7675,763.9953],[23.5839,-32.7534,766.8574],[23.5691,-32.7428,771.5631],[23.5519,-32.7357,773.1707],[23.5143,-32.7276,806.2704],[23.4651,-32.7288,808.3284],[23.454,-32.7401,818.2349],[23.437,-32.7764,817.2065],[23.3977,-32.7635,830.0782],[23.3786,-32.825,824.6968],[23.3052,-32.8095,793.2446],[23.2504,-32.7886,810.2542],[23.2011,-32.7854,800.0457],[23.1875,-32.7674,813.3972],[23.1493,-32.7667,800.1511],[23.0893,-32.7992,775.0548],[23.1164,-32.858,769.9338],[23.098,-32.8737,784.8064],[23.0074,-32.8728,822.5931],[23.0037,-32.8983,839.9606],[22.9487,-32.95,900.505],[22.9692,-32.9934,931.4141],[22.9352,-33.013,964.5876],[22.9341,-33.0217,963.0685],[22.9578,-33.0451,951.9357],[22.9553,-33.0731,905.4634],[22.8923,-33.1416,814.6013],[22.8772,-33.1869,795.798],[22.8402,-33.2202,784.0733],[22.7903,-33.3073,1240.9688],[22.7739,-33.309,1282.9666],[22.7734,-33.3263,927.4442],[22.7393,-33.324,969.896],[22.7375,-33.379,1139.3157],[22.7357,-33.3948,1250.6603],[22.7845,-33.4155,1518.6439],[22.7744,-33.4197,1726.3988],[22.8302,-33.4191,1582.573],[22.9348,-33.4291,1329.7561],[23.0664,-33.4002,1342.2808],[23.1129,-33.4008,712.7439],[23.1348,-33.3876,1261.8893],[23.1954,-33.3862,1343.2812],[23.2971,-33.3886,1412.838],[23.318,-33.4065,797.1608],[23.3641,-33.4618,946.7415],[23.3549,-33.4412,1164.3185],[23.3738,-33.4454,1298.709],[23.3934,-33.4457,1446.6697],[23.4233,-33.442,1531.4709],[23.4676,-33.4481,1666.9607],[23.4956,-33.4434,1543.9846],[23.5142,-33.4627,1305.5309],[23.579,-33.4847,1017.985],[23.5786,-33.4857,1006.7021],[23.604,-33.4964,1089.1108],[23.6061,-33.5033,1130.0388],[23.6001,-33.5275,1082.5597],[23.5962,-33.5725,1219.0853],[23.6168,-33.5696,1267.3081],[23.6469,-33.5783,1310.9025],[23.6976,-33.6071,1247.4426],[23.7116,-33.6142,1065.3591],[23.7223,-33.6175,1100.0171],[23.7496,-33.614,1353.9121],[23.7605,-33.6093,1527.6232],[23.7671,-33.6092,1537.7987],[23.7749,-33.6125,1530.0208],[23.7856,-33.6225,1241.7596],[23.8047,-33.6346,1584.302],[23.8226,-33.6433,1318.6611],[23.8428,-33.6505,1528.4385],[23.8878,-33.6605,795.7885],[23.962,-33.6705,1215.4763],[23.988,-33.6785,1305.3384],[24.0069,-33.6872,1332.9045],[24.0607,-33.6984,1377.0869],[24.0572,-33.7259,1285.4656],[24.1877,-33.7648,704.0045],[24.2413,-33.7429,964.0956],[24.2629,-33.7443,734.7494],[24.291,-33.7119,881.389],[24.3228,-33.7203,743.1797],[24.3706,-33.704,599.2156],[24.3552,-33.7335,450.1995],[24.3844,-33.7428,703.7589],[24.4229,-33.7587,916.2866],[24.4734,-33.7652,667.4747],[24.4996,-33.7785,681.1246],[24.5053,-33.7441,738.3915],[24.5253,-33.7262,625.7552],[24.5367,-33.7265,632.684],[24.538,-33.6961,507.9551],[24.5462,-33.6894,622.4406],[24.5353,-33.6629,232.773],[24.5632,-33.6343,693.8926],[24.5984,-33.6572,192.0407],[24.6706,-33.6356,557.3027],[24.6711,-33.6307,590.4238],[24.7139,-33.6343,519.857],[24.7307,-33.6204,764.1705],[24.6869,-33.6127,831.6597]]]]}
,"properties": {"GID_3": "ZAF.1.4.1_1","GID_0": "ZAF","country": "SouthAfrica","GID_1": "ZAF.1_1","province": "EasternCape","NL_NAME_1": "NA","GID_2": "ZAF.1.4_1","county": "Cacadu","NL_NAME_2": "NA","city": "Baviaans","VARNAME_3": "NA","NL_NAME_3": "NA","TYPE_3": "LocalMunicipality","ENGTYPE_3": "LocalMunicipality","CC_3": "EC107","HASC_3": "NA","name": "Baviaans.city","area_km2": 11672.557,"hist_schema_id": "Elevation0-9000","hist_area_km2": {"150": 5.875,"175": 6.934,"200": 6.97,"225": 7.958,"250": 10.024,"275": 12.461,"300": 20.135,"325": 50.15,"350": 96.1,"375": 131.615,"400": 157.483,"425": 197.895,"450": 225.499,"475": 237.691,"500": 262.666,"525": 257.304,"550": 272.407,"575": 288.639,"600": 333.248,"625": 315.466,"650": 340.224,"675": 400.123,"700": 489.103,"725": 672.409,"750": 866.69,"775": 948.741,"800": 723.617,"825": 638.269,"850": 551.169,"875": 461.316,"900": 426.511,"925": 360.035,"950": 291.234,"975": 212.285,"1000": 191.129,"1025": 177.359,"1050": 167.517,"1075": 149.672,"1100": 130.938,"1125": 101.338,"1150": 79.027,"1175": 64.015,"1200": 52.976,"1225": 49.627,"1250": 42.471,"1275": 35.038,"1300": 30.257,"1325": 26.236,"1350": 22.239,"1375": 17.799,"1400": 14.897,"1425": 11.761,"1450": 8.562,"1475": 6.757,"1500": 5.731,"1525": 3.944,"1550": 2.405,"1575": 1.591,"1600": 0.583,"1625": 0.354}}}