{"type": "Feature","bbox": [27.7256,-32.0432,28.3825,-31.3704],"geometry": {"type": "MultiPolygon","coordinates": [[[[28.1434,-31.9821,837.8405],[28.1513,-31.9792,823.5549],[28.1666,-31.97,806.7166],[28.1789,-31.9675,803.9648],[28.1792,-31.9586,799.7165],[28.1695,-31.9534,787.3302],[28.1699,-31.948,802.5621],[28.1851,-31.9564,822.0716],[28.1831,-31.9607,806.4741],[28.1832,-31.9662,811.1343],[28.1873,-31.9651,830.0383],[28.1922,-31.9606,839.8497],[28.1943,-31.9677,866.4443],[28.2089,-31.9457,809.2133],[28.2096,-31.9283,799.324],[28.2127,-31.9203,772.7585],[28.2202,-31.9133,774.2252],[28.2211,-31.9105,793.2224],[28.2174,-31.9094,812.887],[28.2215,-31.9006,815.957],[28.2221,-31.896,820.5173],[28.2362,-31.8694,713.9586],[28.2341,-31.8696,743.7205],[28.2336,-31.8677,745.8433],[28.2268,-31.8672,781.2814],[28.2249,-31.8589,767.33],[28.2294,-31.8553,767.6026],[28.2375,-31.8615,721.4066],[28.2405,-31.8612,735.0634],[28.2356,-31.8559,732.617],[28.2363,-31.8543,749.958],[28.2395,-31.8539,726.4374],[28.2355,-31.8478,718.0464],[28.235,-31.8372,721.3967],[28.2489,-31.8077,691.9099],[28.25,-31.798,625.3713],[28.2489,-31.7965,636.3051],[28.2707,-31.7871,620.0978],[28.2707,-31.7902,626.5238],[28.2663,-31.7961,588.0701],[28.2661,-31.8012,591.3877],[28.2726,-31.8022,590.6212],[28.2793,-31.8006,590.561],[28.2806,-31.8108,594.4372],[28.2779,-31.8152,592.2562],[28.2808,-31.8176,579.8903],[28.2829,-31.8169,585.9809],[28.2852,-31.8067,580.1606],[28.2885,-31.8055,579.7927],[28.2909,-31.8075,596.3226],[28.2936,-31.8108,578.5817],[28.2951,-31.8196,576.3293],[28.3072,-31.8313,566.0435],[28.3069,-31.8339,570.8787],[28.3019,-31.8403,559.3855],[28.3042,-31.8448,573.0116],[28.3107,-31.8481,562.1415],[28.3136,-31.8474,556.1603],[28.3165,-31.8403,556.7634],[28.3276,-31.8377,551.0634],[28.3263,-31.834,547.8561],[28.3274,-31.8282,547.599],[28.3341,-31.8305,561.0029],[28.3426,-31.8274,552.8513],[28.352,-31.8286,525.1216],[28.3504,-31.8244,531.0695],[28.3421,-31.8222,535.9909],[28.3394,-31.819,558.2046],[28.3422,-31.8146,544.1869],[28.3511,-31.8105,545.8383],[28.3378,-31.8045,551.5598],[28.3239,-31.7908,574.6093],[28.325,-31.7855,570.4923],[28.3266,-31.7843,598.9549],[28.3358,-31.7894,582.3459],[28.3529,-31.7838,599.4391],[28.3528,-31.7816,599.1541],[28.3474,-31.7787,601.3873],[28.3503,-31.7726,606.1656],[28.3501,-31.7652,613.6817],[28.3386,-31.7597,629.9729],[28.3378,-31.7555,632.6293],[28.3413,-31.7504,616.7239],[28.3567,-31.7481,634.5614],[28.3581,-31.7466,620.2862],[28.3549,-31.7435,626.7066],[28.3452,-31.7433,637.6814],[28.3442,-31.7413,631.2198],[28.3453,-31.7353,632.3964],[28.3352,-31.73,630.9507],[28.3365,-31.7271,635.4888],[28.3404,-31.7247,672.9747],[28.344,-31.7155,636.7703],[28.3425,-31.7124,670.7346],[28.3291,-31.707,642.0399],[28.3321,-31.7015,707.7529],[28.3295,-31.6946,650.7109],[28.3255,-31.6924,651.0699],[28.3226,-31.6932,656.9031],[28.318,-31.6892,679.5748],[28.3112,-31.6882,706.2567],[28.3097,-31.6805,696.8917],[28.3045,-31.6757,676.7893],[28.3134,-31.6716,672.0175],[28.3107,-31.6703,673.9352],[28.31,-31.6638,673.7958],[28.3195,-31.6622,676.5455],[28.3212,-31.6589,677.3149],[28.3206,-31.6559,681.811],[28.318,-31.6534,679.6119],[28.3151,-31.6567,676.5192],[28.3102,-31.6572,677.6538],[28.302,-31.652,675.4736],[28.3129,-31.6502,678.0409],[28.3169,-31.6445,679.686],[28.3136,-31.6404,678.8875],[28.3197,-31.6387,681.3856],[28.3228,-31.6354,680.1757],[28.3179,-31.6289,687.9254],[28.3116,-31.6304,679.9133],[28.3116,-31.6264,681.9274],[28.309,-31.6246,680.1557],[28.3101,-31.62,683.8699],[28.309,-31.6183,682.4092],[28.3114,-31.6131,685.4514],[28.3105,-31.6123,695.1666],[28.3155,-31.6061,728.9917],[28.3152,-31.6033,734.8134],[28.3188,-31.5985,754.3923],[28.3181,-31.5968,759.8181],[28.3204,-31.5965,771.303],[28.3195,-31.5942,791.7919],[28.3215,-31.5899,815.9149],[28.3256,-31.5865,836.9017],[28.3339,-31.587,893.0825],[28.3369,-31.5814,907.3489],[28.3393,-31.5807,914.4948],[28.3394,-31.5786,926.8877],[28.351,-31.5766,1015.7205],[28.3543,-31.5732,1047.8511],[28.3633,-31.5777,1083.3462],[28.3644,-31.5732,1017.5502],[28.3811,-31.558,1294.3457],[28.3825,-31.553,1565.4185],[28.3742,-31.5377,1608.6309],[28.3692,-31.538,1472.9756],[28.3733,-31.5239,1576.2314],[28.3634,-31.5022,1529.6993],[28.3732,-31.4903,1526.1984],[28.3759,-31.4801,1571.973],[28.3813,-31.48,1567.5857],[28.3656,-31.4639,1513.5598],[28.3529,-31.4614,1440.814],[28.337,-31.4477,1505.4648],[28.3312,-31.4475,1538.1348],[28.3284,-31.4431,1546.6204],[28.3279,-31.4378,1569.9216],[28.3222,-31.4285,1550.641],[28.3107,-31.4224,1468.3751],[28.2938,-31.4167,1490.9087],[28.281,-31.3902,1412.9819],[28.2607,-31.3704,1500.1134],[28.1809,-31.393,1355.6808],[28.1693,-31.4032,1517.3586],[28.157,-31.4019,1527.0853],[28.1078,-31.4416,1426.9342],[28.0995,-31.4395,1508.2032],[28.0901,-31.4571,1421.6331],[28.0753,-31.4668,1450.1565],[28.0546,-31.464,1503.8696],[28.0484,-31.5058,1490.9729],[27.9931,-31.5254,1370.0635],[27.9873,-31.5329,1276.6281],[27.9753,-31.5352,1310.531],[27.9718,-31.5377,1290.1118],[27.9544,-31.5349,1259.0123],[27.9423,-31.5346,897.36],[27.9363,-31.536,877.6389],[27.9307,-31.5321,884.4756],[27.9308,-31.5285,937.7369],[27.9131,-31.5319,1155.2916],[27.9074,-31.5393,1250.3551],[27.8939,-31.5509,1285.6028],[27.8739,-31.5378,1324.6851],[27.8605,-31.5344,1359.4248],[27.8459,-31.5406,1382.9694],[27.8351,-31.5366,1274.9005],[27.7469,-31.5562,1686.0112],[27.7388,-31.559,1642.8914],[27.734,-31.5636,1636.3655],[27.7323,-31.5706,1723.0917],[27.7327,-31.5823,1696.834],[27.7291,-31.5902,1654.8016],[27.7256,-31.6079,1687.8352],[27.7318,-31.6125,1551.9578],[27.7462,-31.6353,1519.1803],[27.7463,-31.6399,1519.5125],[27.7547,-31.6491,1541.7856],[27.7585,-31.6565,1488.0068],[27.759,-31.6526,1618.8562],[27.7789,-31.6749,1083.6586],[27.7926,-31.6813,991.8118],[27.7911,-31.6881,950.5068],[27.7924,-31.6924,939.2646],[27.7904,-31.6928,933.7253],[27.7892,-31.6958,917.7599],[27.7927,-31.6989,903.7831],[27.7976,-31.6974,913.0943],[27.802,-31.6989,889.6667],[27.8004,-31.7009,888.0302],[27.8016,-31.7037,895.8997],[27.7993,-31.7041,885.2331],[27.7993,-31.7073,886.1029],[27.7973,-31.7087,882.1035],[27.8009,-31.7118,881.9048],[27.7987,-31.7152,876.9231],[27.801,-31.7165,875.2854],[27.7991,-31.721,873.8951],[27.8003,-31.7223,872.0962],[27.7972,-31.7249,869.1852],[27.7989,-31.7253,869.1852],[27.7986,-31.7269,867.9722],[27.7963,-31.7276,871.9108],[27.8006,-31.7307,865.8541],[27.7972,-31.7315,864.6911],[27.7986,-31.7333,863.8281],[27.7973,-31.7341,863.8281],[27.7977,-31.7365,862.4462],[27.8014,-31.7389,862.473],[27.8007,-31.7415,860.2433],[27.8029,-31.7425,860.3251],[27.7999,-31.7435,859.6611],[27.8027,-31.7476,859.9767],[27.812,-31.7512,868.0849],[27.8162,-31.7557,856.7155],[27.8181,-31.7554,863.3729],[27.8195,-31.7581,856.1584],[27.825,-31.7551,855.5004],[27.8285,-31.7551,854.7831],[27.83,-31.7505,857.4538],[27.8324,-31.7503,852.3005],[27.8365,-31.7446,853.1182],[27.8421,-31.7509,850.3899],[27.8402,-31.7515,865.2332],[27.841,-31.7537,857.5786],[27.8378,-31.7559,856.7469],[27.8388,-31.7598,849.6166],[27.8412,-31.7612,862.2014],[27.8402,-31.765,863.3812],[27.8428,-31.767,852.9992],[27.842,-31.7702,840.4338],[27.848,-31.7695,847.7032],[27.848,-31.7739,838.3097],[27.8552,-31.7748,840.5128],[27.8574,-31.7737,839.7172],[27.8592,-31.775,844.5667],[27.8591,-31.7795,833.5681],[27.861,-31.78,855.4637],[27.8593,-31.783,831.3182],[27.8625,-31.7844,834.3907],[27.8618,-31.7856,830.0499],[27.8668,-31.7917,830.4129],[27.8656,-31.7929,830.4129],[27.8692,-31.7945,834.2169],[27.868,-31.7971,829.5336],[27.8689,-31.8001,828.2415],[27.8709,-31.8,827.3896],[27.8729,-31.8036,826.4712],[27.8769,-31.8057,825.9163],[27.8767,-31.8094,826.7443],[27.879,-31.8099,824.7539],[27.8778,-31.8117,824.6296],[27.8792,-31.8147,833.883],[27.9011,-31.8224,844.3568],[27.9173,-31.8325,865.8898],[27.9344,-31.8368,816.7209],[27.9426,-31.843,847.1507],[27.9566,-31.8493,898.7183],[27.9774,-31.8559,933.6435],[27.9821,-31.8589,965.4188],[27.9982,-31.8601,1090.9644],[28.0065,-31.87,1145.0786],[28.0169,-31.8728,1182.1498],[28.0118,-31.8855,1172.043],[28.0064,-31.8925,1180.5405],[28.0037,-31.8946,1116.6683],[27.9975,-31.8951,1032.7278],[27.9974,-31.9068,1086.2993],[28.0036,-31.9211,1132.5076],[28.0039,-31.9264,1147.0667],[28.0093,-31.9333,1179.3463],[28.0102,-31.9398,1170.9258],[28.0055,-31.9405,1135.2194],[27.9996,-31.9385,1101.1862],[27.9971,-31.9429,1155.303],[27.9935,-31.945,1217.6522],[27.9934,-31.9553,1195.9631],[27.9922,-31.9563,1167.9333],[27.9932,-31.959,1155.7904],[27.9833,-31.9843,1107.415],[27.9897,-31.9913,1113.6293],[27.9985,-32.0119,1094.99],[28.001,-32.0153,1035.5638],[28.0084,-32.0199,1050.3102],[28.01,-32.0364,1119.6863],[28.0147,-32.0379,1122.8445],[28.0167,-32.0424,1041.7722],[28.0188,-32.0432,1037.3264],[28.0265,-32.0398,975.5067],[28.0297,-32.0399,963.8383],[28.0349,-32.0432,954.3914],[28.0464,-32.0408,923.502],[28.0526,-32.0342,895.7332],[28.0556,-32.0251,868.7562],[28.064,-32.0173,842.8026],[28.0743,-32.0123,804.2175],[28.1037,-32.0041,789.7988],[28.1081,-31.9995,774.9896],[28.1205,-31.9963,820.5072],[28.1251,-31.9969,829.3968],[28.1299,-31.9937,800.7216],[28.1321,-31.9891,816.322],[28.1434,-31.9821,837.8405]]]]}
,"properties": {"GID_3": "ZAF.1.5.2_1","GID_0": "ZAF","country": "SouthAfrica","GID_1": "ZAF.1_1","province": "EasternCape","NL_NAME_1": "NA","GID_2": "ZAF.1.5_1","county": "ChrisHani","NL_NAME_2": "NA","city": "Engcobo","VARNAME_3": "NA","NL_NAME_3": "NA","TYPE_3": "LocalMunicipality","ENGTYPE_3": "LocalMunicipality","CC_3": "EC137","HASC_3": "NA","name": "Engcobo.city","area_km2": 2485.535,"hist_schema_id": "Elevation0-9000","hist_area_km2": {"525": 0.18,"550": 1.297,"575": 2.901,"600": 13.57,"625": 22.544,"650": 44.693,"675": 73.993,"700": 118.395,"725": 152.834,"750": 188.93,"775": 184.674,"800": 162.281,"825": 139.082,"850": 121.333,"875": 107.188,"900": 93.131,"925": 82.177,"950": 74.792,"975": 65.475,"1000": 57.673,"1025": 50.15,"1050": 44.776,"1075": 41.746,"1100": 38.879,"1125": 34.431,"1150": 31.346,"1175": 28.805,"1200": 27.836,"1225": 28.783,"1250": 31.822,"1275": 36.957,"1300": 43.468,"1325": 40.833,"1350": 42.464,"1375": 41.454,"1400": 42.994,"1425": 39.179,"1450": 31.801,"1475": 32.936,"1500": 28.255,"1525": 20.609,"1550": 9.635,"1575": 3.434,"1600": 2.205,"1625": 1.084,"1650": 1.012,"1675": 0.759,"1700": 0.452,"1725": 0.289}}}