{"type": "Feature","bbox": [29.4973,-25.9264,30.6656,-25.2123],"geometry": {"type": "MultiPolygon","coordinates": [[[[30.2062,-25.8228,1643.2446],[30.2138,-25.804,1648.4408],[30.2704,-25.8254,1754.0717],[30.2434,-25.8721,1603.8053],[30.254,-25.8933,1701.6787],[30.2789,-25.9072,1470.6595],[30.299,-25.9264,1762.2285],[30.3311,-25.8805,1781.5488],[30.3811,-25.8869,1825.0986],[30.4191,-25.8776,1573.332],[30.4306,-25.8555,1750.1611],[30.4554,-25.8383,1191.7435],[30.4489,-25.8306,1193.7944],[30.4641,-25.8139,1245.405],[30.4591,-25.8095,1243.7417],[30.4568,-25.8036,1257.7854],[30.4788,-25.7938,1508.3628],[30.484,-25.8186,1510.5793],[30.5149,-25.7879,1601.7771],[30.4864,-25.7622,1811.8783],[30.5087,-25.7369,1861.4061],[30.5193,-25.7285,1908.3265],[30.5586,-25.7683,1722.1193],[30.6061,-25.7897,1579.0928],[30.5796,-25.7535,1794.3004],[30.6112,-25.719,1836.0378],[30.6185,-25.7238,1796.248],[30.6385,-25.724,1633.2115],[30.6387,-25.7118,1654.2645],[30.6466,-25.7124,1601.09],[30.6656,-25.673,1208.6942],[30.6081,-25.6553,1628.556],[30.6152,-25.6395,1697.292],[30.6257,-25.6373,1718.536],[30.6326,-25.6297,1709.2119],[30.6108,-25.5919,942.0434],[30.5937,-25.5541,1620.9269],[30.5862,-25.5516,1700.86],[30.5739,-25.557,1759.9963],[30.5408,-25.5544,1824.9664],[30.5341,-25.536,1927.7889],[30.5653,-25.4812,2000.2141],[30.5623,-25.478,1825.2847],[30.5572,-25.4781,1921.3259],[30.5501,-25.4693,1887.5426],[30.5309,-25.4664,1868.9333],[30.5105,-25.4758,1782.0056],[30.5005,-25.4511,1397.8245],[30.4807,-25.4618,1723.1104],[30.4801,-25.4524,1680.9669],[30.4596,-25.4108,1255.2981],[30.4525,-25.4103,1394.8947],[30.4424,-25.3808,1099.8535],[30.4492,-25.345,1545.9799],[30.4243,-25.3525,1578.5415],[30.4014,-25.3808,1141.3455],[30.4178,-25.4235,1595.2509],[30.3887,-25.4493,1581.9314],[30.3875,-25.4483,1570.8198],[30.351,-25.4925,1601.0515],[30.3014,-25.445,1346.2212],[30.2789,-25.4529,1832.153],[30.2626,-25.473,1795.7954],[30.2295,-25.4324,1809.634],[30.2433,-25.4096,1914.2423],[30.2392,-25.4108,1911.4874],[30.2517,-25.3573,1821.0426],[30.2273,-25.3495,1875.6826],[30.2235,-25.366,1772.1118],[30.2056,-25.3568,1897.9438],[30.1881,-25.3203,2004.804],[30.2034,-25.3085,2010.5638],[30.1968,-25.2946,2064.5874],[30.1944,-25.3021,2091.1602],[30.1901,-25.2938,2001.6437],[30.1908,-25.2758,1917.8792],[30.1869,-25.2731,1942.4492],[30.1803,-25.2745,2058.5049],[30.1761,-25.2668,2167.488],[30.1432,-25.2458,2232.6562],[30.1418,-25.2364,2268.6992],[30.1258,-25.2123,1972.3696],[30.1152,-25.2417,2199.7571],[30.1218,-25.2426,2197.6323],[30.1117,-25.265,2088.1758],[30.1066,-25.2654,2150.5022],[30.1031,-25.2747,2242.7493],[30.0834,-25.2941,2080.9065],[30.0255,-25.3677,2115.2188],[29.9935,-25.3547,1886.4075],[29.9906,-25.3382,1808.3212],[29.9376,-25.331,1774.454],[29.8879,-25.3386,1474.3289],[29.8878,-25.3643,1497.7518],[29.8403,-25.3863,1446.9564],[29.8373,-25.3818,1439.2964],[29.8372,-25.3768,1436.2859],[29.8327,-25.37,1435.1334],[29.832,-25.3655,1431.3171],[29.8273,-25.365,1431.0071],[29.8258,-25.3621,1430.323],[29.8229,-25.3623,1427.1697],[29.8203,-25.3589,1431.0981],[29.8201,-25.3607,1426.0204],[29.8171,-25.362,1434.2218],[29.7932,-25.3621,1480.6885],[29.7702,-25.4015,1784.0336],[29.7276,-25.3842,1731.0808],[29.6739,-25.3722,1640.7322],[29.6128,-25.4006,1482.6124],[29.587,-25.3952,1422.7622],[29.5226,-25.405,1279.4856],[29.5115,-25.4588,1432.9276],[29.4973,-25.4605,1423.2136],[29.5056,-25.4771,1504.9379],[29.5133,-25.4739,1468.1879],[29.5324,-25.4903,1477.3152],[29.5478,-25.5202,1508.6089],[29.5479,-25.5536,1550.0105],[29.5802,-25.5401,1545.1776],[29.581,-25.5833,1580.8599],[29.5859,-25.5814,1580.6702],[29.6476,-25.5796,1634.0706],[29.6535,-25.569,1676.0828],[29.7131,-25.5721,1697.4941],[29.7064,-25.6134,1720.5352],[29.7767,-25.6198,1694.6555],[29.7768,-25.6625,1736.0219],[29.7852,-25.6743,1744.2466],[29.8251,-25.6583,1724.3606],[29.8477,-25.6768,1570.1833],[29.8259,-25.7014,1683.4056],[29.837,-25.7288,1655.6112],[29.8326,-25.7309,1655.9043],[29.8321,-25.7294,1648.9221],[29.8239,-25.7354,1662.75],[29.828,-25.7495,1704.9768],[29.8419,-25.7411,1662.1975],[29.851,-25.765,1724.1835],[29.8107,-25.7654,1737.1354],[29.8092,-25.7614,1719.2566],[29.8025,-25.7916,1711.775],[29.8009,-25.8488,1651.1259],[29.8632,-25.851,1762.1616],[29.8618,-25.8624,1765.073],[29.899,-25.8693,1731.5613],[29.9438,-25.9057,1686.3019],[29.9589,-25.9129,1670.0546],[29.9977,-25.9187,1672.3463],[29.9899,-25.8837,1714.4629],[30.0364,-25.8769,1749.0562],[30.0867,-25.8603,1765.5421],[30.0915,-25.8462,1776.5476],[30.1497,-25.8297,1576.73],[30.1517,-25.8193,1579.9883],[30.2008,-25.8364,1569.0424],[30.2062,-25.8228,1643.2446]]]]}
,"properties": {"GID_3": "ZAF.6.3.2_1","GID_0": "ZAF","country": "SouthAfrica","GID_1": "ZAF.6_1","province": "Mpumalanga","NL_NAME_1": "NA","GID_2": "ZAF.6.3_1","county": "Nkangala","NL_NAME_2": "NA","city": "Emakhazeni","VARNAME_3": "NA","NL_NAME_3": "NA","TYPE_3": "LocalMunicipality","ENGTYPE_3": "LocalMunicipality","CC_3": "MP314","HASC_3": "NA","name": "Emakhazeni.city","area_km2": 4744.272,"hist_schema_id": "Elevation0-9000","hist_area_km2": {"950": 1.664,"975": 3.901,"1000": 5.239,"1025": 5.449,"1050": 7.935,"1075": 11.072,"1100": 15.972,"1125": 19.667,"1150": 21.752,"1175": 24.275,"1200": 28.173,"1225": 32.166,"1250": 37.92,"1275": 41.342,"1300": 46.605,"1325": 46.567,"1350": 49.587,"1375": 50.198,"1400": 53.37,"1425": 54.252,"1450": 65.354,"1475": 90.06,"1500": 115.073,"1525": 138.314,"1550": 154.55,"1575": 170.93,"1600": 183.101,"1625": 183.807,"1650": 195.996,"1675": 231.105,"1700": 263.305,"1725": 287.886,"1750": 276.181,"1775": 254.517,"1800": 214.431,"1825": 171.31,"1850": 195.426,"1875": 199.963,"1900": 174.006,"1925": 136.65,"1950": 101.521,"1975": 82.274,"2000": 57.476,"2025": 40.388,"2050": 33.562,"2075": 31.516,"2100": 30.235,"2125": 29.475,"2150": 26.889,"2175": 24.685,"2200": 15.16,"2225": 9.2,"2250": 2.549,"2275": 0.268}}}