{"type": "Feature","bbox": [25.8873,-32.9734,26.6444,-32.2717],"geometry": {"type": "MultiPolygon","coordinates": [[[[26.4235,-32.7696,688.5465],[26.4014,-32.7571,752.5989],[26.4019,-32.7464,766.7387],[26.4147,-32.7201,1123.709],[26.424,-32.7147,1188.4279],[26.4436,-32.7076,1148.0659],[26.4747,-32.6896,1121.5565],[26.478,-32.6635,1167.9846],[26.4861,-32.663,1162.1788],[26.493,-32.6593,1064.9413],[26.5259,-32.6493,601.6914],[26.5309,-32.6374,953.6777],[26.5366,-32.6323,905.4932],[26.52,-32.6247,968.1255],[26.5105,-32.6143,1132.9486],[26.5052,-32.6039,1212.554],[26.5052,-32.5929,1185.6554],[26.4986,-32.5864,1199.5543],[26.5234,-32.5648,1185.4263],[26.5378,-32.5457,1217.5186],[26.5677,-32.5484,1362.1863],[26.5812,-32.513,1591.3513],[26.6031,-32.4897,1725.8193],[26.6105,-32.484,1749.1929],[26.6138,-32.486,1748.538],[26.6444,-32.4508,1694.4364],[26.6416,-32.4339,1712.865],[26.6148,-32.4224,1530.538],[26.6281,-32.4119,1743.1534],[26.6082,-32.4043,1777.415],[26.6011,-32.3973,1786.4799],[26.5877,-32.3965,1771.4941],[26.5804,-32.3871,1771.6797],[26.5667,-32.4019,1769.7877],[26.5392,-32.386,1816.995],[26.5393,-32.3764,1862.3866],[26.5337,-32.3602,1828.2097],[26.5156,-32.3546,1783.0909],[26.498,-32.3595,1807.9539],[26.4741,-32.3571,1801.0981],[26.4582,-32.3608,1819.2814],[26.4253,-32.3541,2045.0414],[26.4045,-32.3639,2270.3306],[26.3709,-32.357,1828.1263],[26.3467,-32.3679,1701.344],[26.3096,-32.376,1874.809],[26.2351,-32.354,1878.0752],[26.1865,-32.3688,1756.7753],[26.2025,-32.3313,1920.6229],[26.1893,-32.2897,1800.8945],[26.1913,-32.2852,1814.4331],[26.1413,-32.2717,1703.578],[26.1297,-32.275,1704.7666],[26.1305,-32.2822,1818.8162],[26.1194,-32.2984,1738.2211],[26.0859,-32.3145,1583.8903],[26.0816,-32.3179,1587.5424],[26.052,-32.3123,1615.5356],[26.0468,-32.3167,1599.476],[26.047,-32.3227,1511.3513],[26.0327,-32.3263,1620.285],[25.9993,-32.3504,1734.6465],[25.9962,-32.3544,1784.8083],[25.9705,-32.3544,1764.6766],[25.9506,-32.3638,1768.6826],[25.9488,-32.3768,1668.6729],[25.9401,-32.3839,1727.5824],[25.9393,-32.4061,1573.9216],[25.8994,-32.4329,1625.7793],[25.9078,-32.4574,1656.0769],[25.8873,-32.4868,1373.9287],[25.9343,-32.4761,1302.0018],[25.93,-32.4946,933.9732],[25.9398,-32.5387,1139.9049],[25.9593,-32.5521,929.7211],[25.9766,-32.5459,943.5884],[26.0266,-32.5466,1053.3833],[26.0283,-32.54,1280.2563],[26.0808,-32.5466,1326.2712],[26.0896,-32.5586,1557.1882],[26.0954,-32.5586,1513.2611],[26.0941,-32.5649,1530.9851],[26.1111,-32.5711,1555.3523],[26.1213,-32.5802,1538.7527],[26.1272,-32.5954,1547.2068],[26.1189,-32.5982,1507.2888],[26.1139,-32.6054,1410.0869],[26.1162,-32.6049,1342.6003],[26.0972,-32.6169,1107.3386],[26.0941,-32.6246,1180.4376],[26.0803,-32.6297,1243.9314],[26.0741,-32.6383,1331.9553],[26.0476,-32.6328,1391.3419],[26.0443,-32.6443,1402.7012],[26.0472,-32.6543,1355.8784],[26.0376,-32.6585,1094.1718],[26.0268,-32.6701,926.3967],[26.064,-32.6856,791.541],[26.032,-32.764,725.764],[26.049,-32.7808,712.1049],[26.066,-32.7869,671.7265],[26.0951,-32.7643,691.986],[26.1094,-32.765,637.6584],[26.1091,-32.7695,635.1334],[26.1795,-32.7634,696.2695],[26.2052,-32.7494,756.29],[26.2081,-32.7696,660.2636],[26.2404,-32.793,603.1738],[26.2473,-32.8102,550.5106],[26.2457,-32.8152,522.041],[26.189,-32.8122,689.5126],[26.1656,-32.8444,597.3636],[26.1681,-32.8481,558.6296],[26.1685,-32.8556,548.741],[26.1758,-32.855,554.8958],[26.1779,-32.8453,536.0852],[26.1809,-32.8451,535.2759],[26.1866,-32.8583,528.4766],[26.1866,-32.8635,535.9448],[26.1819,-32.8678,526.3265],[26.1839,-32.8695,524.2274],[26.1892,-32.8685,524.0929],[26.1944,-32.8651,539.0143],[26.1967,-32.8516,513.9247],[26.1982,-32.8501,511.4961],[26.2004,-32.8506,516.5372],[26.2103,-32.8633,539.5124],[26.2171,-32.8592,516.9454],[26.2252,-32.8573,512.5366],[26.2265,-32.8599,504.647],[26.2259,-32.8656,494.6013],[26.2186,-32.8761,543.4096],[26.2194,-32.8782,521.4039],[26.2256,-32.8774,489.9562],[26.2361,-32.8712,504.2354],[26.2405,-32.8749,479.8995],[26.2426,-32.8816,502.9455],[26.2471,-32.8848,490.8662],[26.2528,-32.8854,474.6478],[26.2608,-32.8908,472.7854],[26.2632,-32.8888,484.0099],[26.2626,-32.88,469.8767],[26.2667,-32.8778,497.858],[26.2709,-32.8781,469.7542],[26.278,-32.8846,470.787],[26.2851,-32.8992,462.7023],[26.2749,-32.937,684.1233],[26.299,-32.9321,667.0491],[26.3216,-32.9352,675.712],[26.3586,-32.9345,660.1489],[26.3628,-32.9637,639.3246],[26.3881,-32.9734,600.335],[26.434,-32.9486,386.8161],[26.427,-32.949,385.4868],[26.4224,-32.9452,406.0726],[26.4217,-32.9412,391.8717],[26.4254,-32.9366,388.6335],[26.4326,-32.9343,392.0662],[26.4322,-32.9307,393.9724],[26.4258,-32.9241,400.5778],[26.4253,-32.9214,399.074],[26.4352,-32.9122,401.7495],[26.437,-32.9094,402.6525],[26.4369,-32.9056,401.0786],[26.4342,-32.9027,422.9618],[26.4276,-32.9028,424.5991],[26.4261,-32.9073,403.171],[26.4223,-32.9095,406.8759],[26.4185,-32.9094,404.5742],[26.4169,-32.9047,405.6414],[26.4192,-32.9001,407.3739],[26.4189,-32.8972,409.8714],[26.4125,-32.8931,410.1243],[26.4159,-32.8764,504.811],[26.4366,-32.8798,466.3399],[26.4327,-32.8764,479.158],[26.4341,-32.8707,490.7406],[26.4321,-32.8605,517.3345],[26.4255,-32.8522,547.2199],[26.4417,-32.8434,512.1738],[26.4414,-32.8414,515.2841],[26.4393,-32.8407,516.5408],[26.4394,-32.8384,517.9008],[26.4489,-32.8335,529.0375],[26.4417,-32.8312,537.048],[26.4408,-32.8292,557.4012],[26.4414,-32.8272,540.4331],[26.4524,-32.8242,660.4927],[26.4599,-32.7733,732.5001],[26.4235,-32.7696,688.5465]]]]}
,"properties": {"GID_3": "ZAF.1.2.7_1","GID_0": "ZAF","country": "SouthAfrica","GID_1": "ZAF.1_1","province": "EasternCape","NL_NAME_1": "NA","GID_2": "ZAF.1.2_1","county": "Amathole","NL_NAME_2": "NA","city": "Nxuba","VARNAME_3": "NA","NL_NAME_3": "NA","TYPE_3": "LocalMunicipality","ENGTYPE_3": "LocalMunicipality","CC_3": "EC128","HASC_3": "NA","name": "Nxuba.city","area_km2": 2733.405,"hist_schema_id": "Elevation0-9000","hist_area_km2": {"375": 0.142,"400": 2.83,"425": 10.557,"450": 19.334,"475": 24.586,"500": 30.927,"525": 44.094,"550": 48.575,"575": 60.319,"600": 62.783,"625": 67.477,"650": 79.238,"675": 94.833,"700": 95.555,"725": 77.798,"750": 60.524,"775": 49.849,"800": 48.024,"825": 49.053,"850": 48.354,"875": 46.147,"900": 48.78,"925": 53.43,"950": 56.078,"975": 60.407,"1000": 65.111,"1025": 68.817,"1050": 72.342,"1075": 76.24,"1100": 80.247,"1125": 74.82,"1150": 69.482,"1175": 62.04,"1200": 60.977,"1225": 59.033,"1250": 56.299,"1275": 58.269,"1300": 56.252,"1325": 53.498,"1350": 53.302,"1375": 46.2,"1400": 43.469,"1425": 39.914,"1450": 41.812,"1475": 40.489,"1500": 42.567,"1525": 37.681,"1550": 34.3,"1575": 27.749,"1600": 26.228,"1625": 22.237,"1650": 22.828,"1675": 19.23,"1700": 17.171,"1725": 16.651,"1750": 14.718,"1775": 11.639,"1800": 6.035,"1825": 3.134,"1850": 2.256,"1875": 1.826,"1900": 1.271,"1925": 1.289,"1950": 1.146,"1975": 1.074,"2000": 1.003,"2025": 0.788,"2050": 0.484,"2075": 0.448,"2100": 0.376,"2125": 0.34,"2150": 0.34,"2175": 0.036,"2200": 0.09,"2225": 0.107,"2275": 0.036}}}