{"type": "Feature","bbox": [28.8916,-25.1133,29.7734,-24.5987],"geometry": {"type": "MultiPolygon","coordinates": [[[[29.0972,-24.9758,926.3304],[29.0829,-24.9812,935.328],[29.0718,-24.9406,992.7421],[29.0559,-24.9123,953.6993],[28.9937,-24.912,967.8374],[28.9894,-24.903199999999998,968.5723],[28.9618,-24.9139,987.1351],[28.9384,-24.8732,994.96],[28.9142,-24.8891,1013.1633],[28.9241,-24.9015,1020.8388],[28.937,-24.9228,1014.7595],[28.9418,-24.9336,1010.3162],[28.8916,-24.9555,1046.8612],[28.9094,-24.9955,993.0339],[28.9053,-24.996,992.6898],[28.9103,-25.0071,990.4467],[28.9349,-25.0,1009.9091],[28.9462,-25.017,1006.7723],[28.9717,-25.0702,962.8127],[28.9754,-25.0687,958.0379],[28.9764,-25.0708,958.0494],[29.0188,-25.0549,978.7997],[29.0707,-25.0655,948.611],[29.0857,-25.0888,886.5391],[29.0903,-25.0918,901.7196],[29.0849,-25.0977,903.6767],[29.0883,-25.1036,910.1466],[29.0912,-25.1002,912.1144],[29.0942,-25.1032,915.7372],[29.0979,-25.1003,914.616],[29.1016,-25.1027,917.8971],[29.1058,-25.1004,919.0217],[29.1185,-25.1075,938.6639],[29.1195,-25.106,936.8414],[29.1239,-25.1062,938.3694],[29.1326,-25.1115,941.2488],[29.1423,-25.1133,943.0596],[29.1491,-25.108,944.4093],[29.1551,-25.1071,943.7228],[29.159,-25.1044,943.4067],[29.1635,-25.099,944.8013],[29.1704,-25.0861,944.7655],[29.1756,-25.0853,945.6461],[29.1813,-25.0812,944.7379],[29.1857,-25.0815,945.6006],[29.1854,-25.0774,940.6639],[29.1824,-25.0714,933.9156],[29.1738,-25.0595,923.1885],[29.2042,-25.0531,942.0862],[29.2054,-25.0568,947.041],[29.2136,-25.0543,947.8419],[29.2229,-25.0555,946.8072],[29.2322,-25.0593,946.693],[29.2412,-25.0564,948.4791],[29.2474,-25.0581,947.8529],[29.2455,-25.068,948.2832],[29.2462,-25.0714,946.6288],[29.2502,-25.078,948.3714],[29.257,-25.0832,947.9799],[29.2539,-25.0902,950.2629],[29.2566,-25.0934,948.3861],[29.258,-25.1035,950.3237],[29.2657,-25.0974,947.9861],[29.2814,-25.0905,950.0524],[29.2849,-25.0916,949.4479],[29.2876,-25.0968,949.6525],[29.2936,-25.0958,936.1407],[29.3614,-25.0979,970.6893],[29.3588,-25.0769,951.809],[29.4159,-25.0523,865.9932],[29.4136,-25.0483,864.1581],[29.4022,-25.0416,867.7122],[29.4125,-25.03,1047.5406],[29.4316,-25.0393,1033.0481],[29.4304,-24.9949,1095.2207],[29.4487,-24.9711,1087.2959],[29.4469,-24.9538,1123.6337],[29.4699,-24.9696,1139.0322],[29.5144,-24.9935,1296.3796],[29.5485,-24.9904,1282.5179],[29.5451,-24.9971,1332.8265],[29.5847,-24.9903,1412.6724],[29.6308,-24.9885,1479.8502],[29.5975,-24.9666,1404.1101],[29.6367,-24.9531,1480.2179],[29.6543,-24.9172,1292.6583],[29.6811,-24.8824,1337.4645],[29.7097,-24.8698,1475.6581],[29.6994,-24.8613,1435.3877],[29.7157,-24.8329,1414.99],[29.7734,-24.8339,1505.9025],[29.7443,-24.7912,1469.481],[29.6964,-24.7984,1364.0898],[29.6347,-24.8005,1193.2039],[29.5803,-24.7802,1087.7902],[29.5731,-24.7905,1051.368],[29.5186,-24.7789,946.1948],[29.5181,-24.7801,946.1219],[29.518,-24.7787,946.1948],[29.4985,-24.77,907.5742],[29.4918,-24.7829,945.9837],[29.478,-24.7636,898.4471],[29.4945,-24.7322,912.1927],[29.4341,-24.7098,786.5788],[29.4356,-24.6942,795.708],[29.445,-24.6817,786.393],[29.4495,-24.6796,785.0378],[29.4592,-24.6791,782.1875],[29.4614,-24.6759,784.5146],[29.4629,-24.6628,781.7621],[29.4606,-24.6542,782.6656],[29.4681,-24.6461,780.6577],[29.4708,-24.6406,780.4987],[29.4498,-24.6304,810.3922],[29.434,-24.5987,821.5264],[29.3749,-24.6174,845.4281],[29.3941,-24.6584,874.8472],[29.3699,-24.6634,858.6968],[29.3043,-24.6916,868.41],[29.2474,-24.7136,889.2766],[29.272,-24.7426,934.8972],[29.2707,-24.7785,975.3054],[29.2756,-24.7914,999.101],[29.2644,-24.8122,990.6979],[29.2298,-24.8127,937.7599],[29.2163,-24.8522,949.8863],[29.2039,-24.8957,929.6324],[29.1758,-24.9054,902.1364],[29.1789,-24.9141,896.7073],[29.1831,-24.9399,890.8103],[29.1737,-24.9493,896.5772],[29.1586,-24.9527,912.8586],[29.0972,-24.9758,926.3304]]]]}
,"properties": {"GID_3": "ZAF.5.3.2_1","GID_0": "ZAF","country": "SouthAfrica","GID_1": "ZAF.5_1","province": "Limpopo","NL_NAME_1": "NA","GID_2": "ZAF.5.3_1","county": "Sekhukhune","NL_NAME_2": "NA","city": "EphraimMogale","VARNAME_3": "NA","NL_NAME_3": "NA","TYPE_3": "LocalMunicipality","ENGTYPE_3": "LocalMunicipality","CC_3": "LIM471","HASC_3": "NA","name": "Ephraim_Mogale.city","area_km2": 2015.256,"hist_schema_id": "Elevation0-9000","hist_area_km2": {"775": 3.815,"800": 34.901,"825": 105.588,"850": 190.857,"875": 267.524,"900": 254.599,"925": 221.031,"950": 163.325,"975": 138.506,"1000": 124.82,"1025": 80.29,"1050": 40.549,"1075": 31.718,"1100": 27.389,"1125": 26.292,"1150": 24.581,"1175": 27.254,"1200": 26.773,"1225": 26.349,"1250": 27.983,"1275": 28.732,"1300": 26.136,"1325": 22.694,"1350": 21.713,"1375": 21.924,"1400": 19.79,"1425": 14.465,"1450": 10.522,"1475": 4.502,"1500": 0.596,"1525": 0.038}}}