{"type":"Feature","properties":{"GID_3":"ZAF.8.4.4_1","GID_0":"ZAF","country":"SouthAfrica","GID_1":"ZAF.8_1","province":"NorthernCape","NL_NAME_1":"NA","GID_2":"ZAF.8.4_1","county":"PixleykaSeme","NL_NAME_2":"NA","city":"Siyancuma","VARNAME_3":"NA","NL_NAME_3":"NA","TYPE_3":"LocalMunicipality","ENGTYPE_3":"LocalMunicipality","CC_3":"NC078","HASC_3":"NA","name":"Siyancuma.city"},
"geometry":{"type": "MultiPolygon","coordinates": [[[[23.7629,-29.1978,980.5],[23.767,-29.2014,981.9687],[23.7742,-29.2141,986.5137],[23.7856,-29.2255,982.0],[23.785,-29.2333,986.085],[23.7788,-29.2438,982.75],[23.7743,-29.2642,988.8821],[23.7743,-29.2709,986.0259],[23.7801,-29.2864,1001.2765],[23.789,-29.2896,991.2772],[23.8144,-29.2868,986.2073],[23.8249,-29.2897,990.2473],[23.8397,-29.2866,989.7655],[23.8607,-29.2856,995.447],[23.8657,-29.2877,996.8697],[23.8717,-29.2964,1003.3107],[23.8821,-29.3011,998.2017],[23.8869,-29.3137,1000.4137],[23.8857,-29.3204,1017.3721],[23.8833,-29.3232,1003.3268],[23.884,-29.3259,999.334],[23.8873,-29.3279,1004.353],[23.8874,-29.3354,1007.9739],[23.9037,-29.358,1013.8187],[23.9207,-29.3781,1019.3909],[23.9249,-29.387,1009.1191],[23.9291,-29.3893,1009.454],[23.9316,-29.3981,1015.9453],[23.9321,-29.4145,1015.4596],[23.9305,-29.4191,1026.4238],[23.9231,-29.4278,1016.0089],[23.9174,-29.4386,1017.4379],[23.916,-29.4542,1020.9673],[23.9179,-29.4606,1022.4485],[23.9269,-29.4683,1022.6506],[23.9359,-29.481,1025.2034],[23.9431,-29.4843,1023.75],[23.9564,-29.4831,1027.0],[23.9699,-29.4862,1032.1406],[23.9747,-29.4899,1035.8153],[23.9764,-29.4969,1033.5],[23.9788,-29.4993,1034.0],[24.0075,-29.5112,1041.08],[24.0127,-29.5186,1038.7471],[24.0451,-29.5035,1116.5281],[24.0827,-29.5153,1101.0465],[24.1432,-29.5385,1106.6993],[24.1952,-29.5224,1151.9928],[24.2111,-29.5491,1138.8342],[24.2628,-29.5702,1097.0461],[24.2718,-29.57,1096.6449],[24.2731,-29.5811,1086.1118],[24.2399,-29.6152,1055.5],[24.2486,-29.6162,1061.2095],[24.2538,-29.6232,1060.2821],[24.2593,-29.6276,1062.1239],[24.2725,-29.6327,1069.7817],[24.2934,-29.6531,1067.5],[24.2985,-29.6611,1069.9268],[24.3045,-29.6612,1071.7618],[24.3181,-29.6525,1073.1194],[24.3423,-29.6572,1075.0627],[24.3475,-29.6545,1083.764],[24.6918,-29.0257,1115.5347],[24.6789,-29.0319,1116.5671],[24.6711,-29.028,1114.4888],[24.6683,-29.0373,1113.9307],[24.6661,-29.0395,1114.5631],[24.6612,-29.0401,1115.6201],[24.6588,-29.045,1114.531],[24.6563,-29.0435,1114.9587],[24.6546,-29.0392,1114.9473],[24.6554,-29.0274,1112.2883],[24.6488,-29.0277,1112.9574],[24.6437,-29.026,1113.7415],[24.6385,-29.0295,1110.9187],[24.642,-29.0371,1110.2727],[24.6419,-29.0411,1110.2297],[24.6403,-29.0424,1110.8312],[24.6223,-29.0374,1106.0702],[24.6167,-29.0379,1106.7344],[24.6054,-29.0422,1103.5],[24.5938,-29.0417,1103.3375],[24.5833,-29.0454,1101.4519],[24.5717,-29.0426,1098.4135],[24.5405,-29.0462,1084.8861],[24.5352,-29.0422,1086.6838],[24.5191,-29.0495,1082.89],[24.5063,-29.0509,1080.7781],[24.5025,-29.0482,1083.6836],[24.5011,-29.0444,1078.3976],[24.5044,-29.0392,1092.8286],[24.5128,-29.0317,1075.0719],[24.5126,-29.0182,1070.2521],[24.4999,-29.0125,1071.8578],[24.495,-29.007,1065.2493],[24.4933,-29.001,1070.5232],[24.4897,-28.9981,1067.9037],[24.4855,-28.9974,1073.1667],[24.4773,-28.999,1059.6648],[24.4676,-28.9978,1057.8627],[24.4502,-29.0032,1058.7872],[24.4339,-28.9975,1044.4775],[24.429,-28.9925,1045.3193],[24.4119,-28.9664,1050.9056],[24.4098,-28.9602,1043.8196],[24.4101,-28.9543,1043.6006],[24.4051,-28.9527,1036.3225],[24.4019,-28.9478,1038.5109],[24.3944,-28.9417,1037.9919],[24.3881,-28.9416,1033.1077],[24.3837,-28.945,1036.3842],[24.3741,-28.9343,1035.9502],[24.3563,-28.9326,1030.7233],[24.3512,-28.9276,1034.0632],[24.3382,-28.9281,1032.1257],[24.3297,-28.9326,1034.5072],[24.3226,-28.9335,1031.1892],[24.3096,-28.9238,1031.0616],[24.3005,-28.9312,1033.9927],[24.2931,-28.931,1032.6543],[24.2881,-28.9286,1030.0193],[24.286,-28.9294,1035.5819],[24.2829,-28.934,1031.6147],[24.2814,-28.9498,1029.0447],[24.28,-28.9516,1026.2388],[24.2728,-28.9516,1027.8782],[24.2677,-28.9444,1029.2371],[24.261,-28.9479,1033.1257],[24.2447,-28.9018,1038.9221],[24.2374,-28.8955,1032.6155],[24.2336,-28.8824,1045.7832],[24.2549,-28.8561,1055.9883],[24.2702,-28.8335,1064.1418],[24.2584,-28.8314,1069.7722],[24.2266,-28.8186,1071.8013],[24.1887,-28.809,1065.6458],[24.1819,-28.8116,1068.9607],[24.1625,-28.8042,1092.3992],[24.1408,-28.7911,1086.8853],[24.1197,-28.7846,1086.5337],[24.1083,-28.7776,1061.3843],[24.1006,-28.7641,1036.8429],[24.0781,-28.736,1044.8744],[24.0766,-28.7195,1015.4559],[24.0732,-28.7113,999.877],[24.0752,-28.7088,1001.3493],[24.0756,-28.7042,997.0],[24.0627,-28.6877,1005.8572],[24.0581,-28.6659,1002.5455],[24.0817,-28.6602,1001.3725],[24.0809,-28.6517,1004.1343],[24.0822,-28.6467,997.5],[24.0873,-28.6386,1003.4941],[24.0915,-28.6252,1000.974],[24.0963,-28.6203,999.4615],[24.1014,-28.6197,1000.2568],[24.1092,-28.6147,1002.129],[24.1091,-28.6094,1000.0278],[24.1178,-28.5997,1000.1718],[24.0866,-28.5583,1112.5103],[24.0615,-28.5825,1087.4543],[24.0464,-28.5998,1069.9067],[23.9496,-28.6034,1315.5197],[23.9606,-28.6197,1296.7041],[24.0009,-28.6619,1088.2789],[23.9693,-28.6711,1119.1908],[23.9087,-28.6414,1317.5706],[23.8795,-28.6144,1342.7123],[23.8519,-28.5972,1355.8383],[23.8127,-28.5645,1363.0767],[23.7848,-28.5452,1373.1134],[23.7547,-28.5288,1388.3813],[23.6618,-28.6449,1390.8667],[23.6238,-28.7084,1368.5813],[23.693,-28.7369,1338.4717],[23.6685,-28.7667,1340.311],[23.6329,-28.7579,1352.9456],[23.5578,-28.751,1382.9351],[23.5424,-28.7474,1387.7239],[23.5184,-28.733,1404.3223],[23.4794,-28.7139,1451.9131],[23.4219,-28.6963,1408.239],[23.4103,-28.6953,1407.6782],[23.3791,-28.6363,1457.8724],[23.3547,-28.6471,1423.277],[23.292,-28.6499,1471.0369],[23.2551,-28.6143,1482.9211],[23.2336,-28.6373,1422.7036],[23.2022,-28.6296,1430.3408],[23.2075,-28.6013,1443.5402],[23.223,-28.5573,1466.6578],[23.1924,-28.5456,1482.6616],[23.1824,-28.5705,1501.2693],[23.1285,-28.5966,1364.4761],[23.097,-28.5993,1371.4381],[23.0142,-28.5812,1215.8832],[22.9957,-28.5803,1209.9796],[22.9625,-28.5614,1186.2134],[22.9176,-28.577,1164.416],[22.8765,-28.5797,1133.906],[22.838,-28.5763,1117.0769],[22.7962,-28.5776,1141.6122],[22.7658,-28.5419,1158.6514],[22.7298,-28.518,1188.0764],[22.6672,-28.5027,1188.4194],[22.6007,-28.5029,1526.1797],[22.5914,-28.5148,1559.5037],[22.583,-28.4991,1278.9023],[22.5243,-28.4974,1213.3806],[22.4606,-28.4445,1159.0002],[22.0419,-28.8399,893.6373],[22.0492,-28.8515,852.4094],[22.0541,-28.846,852.269],[22.062,-28.8427,854.5948],[22.0708,-28.8419,854.25],[22.0791,-28.8448,857.5477],[22.0831,-28.8508,856.0],[22.0835,-28.8597,856.0],[22.0866,-28.8655,857.3436],[22.088,-28.8744,858.0343],[22.0971,-28.8871,858.9443],[22.1108,-28.8982,857.0],[22.1312,-28.9062,860.3572],[22.1416,-28.9131,866.8541],[22.1594,-28.9511,869.569],[22.1676,-28.9608,865.5242],[22.175,-28.9667,869.6221],[22.1798,-28.974,876.7078],[22.1794,-28.983,912.0546],[22.1613,-28.999,868.5],[22.1614,-29.0023,868.5],[22.167,-29.0157,881.4982],[22.1837,-29.0265,881.7906],[22.1927,-29.0298,874.7119],[22.1995,-29.041,875.0802],[22.208,-29.0454,882.5],[22.2121,-29.0499,883.0],[22.2109,-29.0612,883.0],[22.2043,-29.0766,886.1473],[22.2042,-29.0818,883.5],[22.2143,-29.0927,884.0],[22.2276,-29.113,890.0531],[22.234,-29.1184,886.5298],[22.244,-29.1233,885.0],[22.2563,-29.1243,887.3144],[22.2597,-29.127,886.546],[22.2632,-29.1437,888.3268],[22.2605,-29.1505,886.0],[22.2518,-29.1586,886.0],[22.253,-29.1809,886.9878],[22.256,-29.1909,890.5673],[22.2759,-29.223,888.197],[22.278199999999998,-29.2331,887.0],[22.276,-29.2474,890.3251],[22.27,-29.2583,887.0],[22.2691,-29.2633,888.4161],[22.2707,-29.2779,888.6059],[22.2701,-29.3049,889.5922],[22.268,-29.313,888.0],[22.2699,-29.3197,899.5948],[22.2817,-29.3328,889.8507],[22.2874,-29.3357,888.5],[22.292,-29.3357,888.5],[22.3015,-29.3318,889.0],[22.3162,-29.329,893.0644],[22.3318,-29.3178,893.0771],[22.3384,-29.3148,895.1058],[22.3509,-29.2632,986.2095],[22.3555,-29.2319,993.7566],[22.3934,-29.2023,1077.1857],[22.4156,-29.1908,1065.105],[22.4428,-29.1344,1046.3969],[22.4912,-29.1366,1106.7957],[22.511,-29.1404,1085.1982],[22.5971,-29.1364,1150.5051],[22.6355,-29.1382,1264.1852],[22.6373,-29.1589,1188.1158],[22.6513,-29.1964,1352.8583],[22.6783,-29.1995,1276.2502],[22.68,-29.2585,1152.8575],[22.7003,-29.2732,1347.366],[22.7265,-29.2827,1292.1772],[22.8063,-29.2706,1202.8721],[22.8527,-29.2736,1271.1501],[22.8381,-29.2048,1185.4344],[22.8375,-29.1673,1300.1312],[22.831,-29.1299,1241.8962],[22.9076,-29.1294,1189.7219],[22.9068,-29.158,1203.0662],[22.9864,-29.176,1338.4319],[23.0259,-29.1681,1214.2152],[23.0722,-29.1807,1339.46],[23.1113,-29.2182,1195.8862],[23.1359,-29.1851,1113.702],[23.1649,-29.1404,1132.385],[23.2234,-29.1299,1106.0583],[23.3207,-29.1511,1089.6058],[23.3322,-29.209,1015.0151],[23.3499,-29.2186,952.2712],[23.3465,-29.2331,952.4274],[23.348,-29.2561,946.0],[23.343,-29.2681,945.5],[23.3331,-29.2746,949.9351],[23.3041,-29.2731,949.9424],[23.2821,-29.2736,950.5988],[23.2711,-29.2756,945.8393],[23.2341,-29.296,943.0],[23.2201,-29.3,943.0],[23.2052,-29.307,945.1104],[23.2007,-29.314,945.8783],[23.1936,-29.3362,952.3403],[23.2453,-29.3962,1034.085],[23.2712,-29.3783,1026.3928],[23.2725,-29.3989,1046.8416],[23.2131,-29.4373,1059.8286],[23.2278,-29.5374,1078.6198],[23.2792,-29.4761,1077.4189],[23.3041,-29.4724,1035.6443],[23.3645,-29.4527,1065.6503],[23.3601,-29.4152,1071.9359],[23.3627,-29.392,1079.9521],[23.409,-29.3458,1059.3973],[23.4193,-29.3046,1040.967],[23.4438,-29.3226,1029.0653],[23.4473,-29.3146,1028.6396],[23.5145,-29.3059,1039.5618],[23.4881,-29.2406,957.2596],[23.4972,-29.2262,956.0],[23.5006,-29.2236,970.7324],[23.5017,-29.2178,957.1829],[23.5048,-29.2141,957.2338],[23.5472,-29.2058,958.1639],[23.5568,-29.1999,959.7289],[23.5639,-29.1907,957.0],[23.5734,-29.1843,958.0],[23.5901,-29.1576,963.9703],[23.6062,-29.1392,965.6592],[23.616,-29.132,972.2948],[23.6228,-29.1192,966.3342],[23.6235,-29.1119,966.7215],[23.6171,-29.0979,966.0],[23.6144,-29.0867,969.7457],[23.6172,-29.0811,968.8749],[23.6253,-29.0748,967.5],[23.6335,-29.0727,968.5],[23.639,-29.0738,968.5],[23.6905,-29.1044,972.1136],[23.7039,-29.1063,971.6096],[23.7045,-29.111,982.1486],[23.7006,-29.1191,974.9711],[23.7014,-29.1271,976.9229],[23.6924,-29.1384,976.0],[23.6888,-29.1551,977.25],[23.692,-29.1605,978.553],[23.6994,-29.1643,978.125],[23.7104,-29.1884,985.6721],[23.714,-29.1932,980.0],[23.7194,-29.196,985.0584],[23.7266,-29.1966,980.9097],[23.751,-29.1934,982.0093],[23.7629,-29.1978,980.5]]]]}}