{"type":"Feature","properties":{"GID_3":"ZAF.8.1.1_1","GID_0":"ZAF","country":"SouthAfrica","GID_1":"ZAF.8_1","province":"NorthernCape","NL_NAME_1":"NA","GID_2":"ZAF.8.1_1","county":"FrancesBaard","NL_NAME_2":"NA","city":"Dikgatlong","VARNAME_3":"NA","NL_NAME_3":"NA","TYPE_3":"LocalMunicipality","ENGTYPE_3":"LocalMunicipality","CC_3":"NC092","HASC_3":"NA","name":"Dikgatlong.city"},
"geometry":{"type": "MultiPolygon","coordinates": [[[[24.6431,-28.4817,1096.0037],[24.6468,-28.4811,1095.7114],[24.6488,-28.4846,1098.1722],[24.6493,-28.4936,1097.2034],[24.6455,-28.4981,1092.7117],[24.6472,-28.5013,1095.325],[24.6514,-28.5036,1091.8264],[24.6634,-28.506,1096.307],[24.6753,-28.5117,1096.0017],[24.6842,-28.5121,1091.6699],[24.6888,-28.5144,1093.647],[24.7058,-28.5135,1091.8546],[24.7148,-28.5023,1092.3711],[24.7136,-28.4986,1092.7136],[24.7069,-28.4905,1092.071],[24.7067,-28.4837,1092.5295],[24.7047,-28.4806,1092.7341],[24.6933,-28.4778,1095.9513],[24.6896,-28.4787,1093.751],[24.6866,-28.4831,1095.95],[24.6836,-28.4808,1098.3784],[24.6819,-28.475,1091.4469],[24.6872,-28.4702,1092.6813],[24.7031,-28.466,1092.9775],[24.7083,-28.4623,1099.77],[24.7113,-28.4574,1093.8821],[24.7214,-28.4567,1095.1155],[24.7267,-28.4535,1097.1042],[24.727,-28.4504,1094.5159],[24.7231,-28.4437,1095.3832],[24.7213,-28.4342,1098.1278],[24.7233,-28.4178,1098.698],[24.7215,-28.41,1103.7915],[24.7165,-28.4024,1100.449],[24.7067,-28.394,1100.6084],[24.6992,-28.3901,1102.5964],[24.6983,-28.3879,1102.2485],[24.7025,-28.3788,1105.0122],[24.7076,-28.3733,1102.651],[24.7173,-28.371,1101.5],[24.7299,-28.3735,1102.25],[24.7365,-28.3593,1106.001],[24.7264,-28.3379,1106.4293],[24.7181,-28.3274,1110.0214],[24.7123,-28.3235,1107.9583],[24.6963,-28.3004,1111.6121],[24.6947,-28.2883,1112.2297],[24.698,-28.2778,1124.3696],[24.6833,-28.2636,1167.1277],[24.6301,-28.2271,1161.8699],[24.6563,-28.2024,1160.2961],[24.6183,-28.1767,1116.4579],[24.5717,-28.1355,1058.3639],[24.5479,-28.1178,1059.8689],[24.5365,-28.0931,1041.0],[24.4655,-28.0358,1117.3207],[24.4445,-28.0319,1151.928],[24.4587,-28.0128,1156.0262],[24.4682,-27.9967,1154.4386],[24.4673,-27.9806,1186.4658],[24.41,-27.9233,1252.5677],[24.3926,-27.9415,1255.5208],[24.3605,-27.9107,1309.7704],[24.4099,-27.8428,1327.3474],[24.4274,-27.8405,1314.9419],[24.4526,-27.7825,1321.1603],[24.4088,-27.7611,1346.9451],[24.4468,-27.7029,1348.1558],[24.4053,-27.6812,1354.2231],[23.8787,-27.7843,1478.5315],[23.6441,-27.8335,1544.4741],[23.5809,-27.8793,1636.7371],[23.5978,-27.8883,1591.7197],[23.5905,-27.8899,1616.0569],[23.597,-27.9112,1603.0292],[23.6047,-27.9076,1607.6346],[23.6287,-27.9217,1566.6005],[23.6372,-27.9095,1554.9977],[23.8346,-28.0151,1461.1012],[23.7907,-28.0828,1466.9297],[23.8237,-28.0991,1444.0886],[23.8582,-28.1116,1431.4641],[23.8914,-28.1259,1416.5907],[23.8607,-28.1998,1412.3069],[23.8484,-28.2594,1404.0697],[23.8144,-28.3338,1397.7601],[23.8423,-28.3487,1397.0865],[23.8285,-28.3863,1385.2036],[23.8281,-28.391,1383.7135],[23.7673,-28.4715,1390.7781],[23.7924,-28.4911,1382.4778],[23.7547,-28.5288,1388.3813],[23.7848,-28.5452,1373.1134],[23.8127,-28.5645,1363.0767],[23.8519,-28.5972,1355.8383],[23.8795,-28.6144,1342.7123],[23.9087,-28.6414,1317.5706],[23.9693,-28.6711,1119.1908],[24.0009,-28.6619,1088.2789],[23.9606,-28.6197,1296.7041],[23.9496,-28.6034,1315.5197],[24.0464,-28.5998,1069.9067],[24.0615,-28.5825,1087.4543],[24.0866,-28.5583,1112.5103],[24.117,-28.5986,1007.2908],[24.122,-28.5966,1004.6407],[24.1336,-28.5851,1001.2526],[24.1475,-28.5749,1001.6188],[24.1593,-28.561,1001.4888],[24.1702,-28.5527,1002.474],[24.175,-28.5426,1006.6892],[24.1861,-28.5363,1011.171],[24.189,-28.5246,1001.8412],[24.1992,-28.5166,1002.0391],[24.2449,-28.5246,1068.1763],[24.3335,-28.5608,1119.939],[24.3388,-28.5807,1117.8409],[24.3551,-28.5876,1130.3262],[24.4089,-28.6268,1166.7153],[24.446,-28.6357,1165.2034],[24.5217,-28.6746,1167.088],[24.5487,-28.7137,1200.832],[24.5597,-28.6895,1187.5153],[24.5955,-28.6426,1126.9121],[24.5924,-28.6427,1126.594],[24.5953,-28.604,1091.3145],[24.6042,-28.6015,1088.0],[24.6082,-28.5972,1088.5962],[24.6031,-28.5739,1094.5596],[24.6053,-28.5588,1097.913],[24.6044,-28.5515,1094.8954],[24.5927,-28.5403,1092.4349],[24.5974,-28.5231,1094.9056],[24.6021,-28.5126,1092.375],[24.6038,-28.4988,1090.0],[24.606,-28.4959,1092.261],[24.6138,-28.4924,1094.042],[24.6368,-28.4876,1090.0],[24.6431,-28.4817,1096.0037]]]]}}