{"type": "Feature","bbox": [26.5216,-28.2842,29.0151,-26.6687],"geometry": {"type": "MultiPolygon","coordinates": [[[[27.8634,-27.8226,1540.0066],[27.8628,-27.7895,1579.6667],[27.8415,-27.7205,1581.28],[27.8381,-27.6726,1609.1454],[27.8426,-27.6693,1618.3615],[27.8503,-27.67,1618.2277],[27.8623,-27.6633,1607.8374],[27.8828,-27.6569,1557.7874],[27.8819,-27.6385,1570.424],[27.9198,-27.6426,1575.9937],[27.9481,-27.6355,1566.9476],[27.949,-27.6378,1569.1931],[27.9886,-27.6322,1592.5267],[27.9912,-27.622,1569.4829],[27.9825,-27.6121,1577.0813],[27.9856,-27.6097,1579.2417],[27.9869,-27.6042,1585.2278],[27.9994,-27.5932,1597.9817],[28.0058,-27.5812,1630.4091],[28.0143,-27.5825,1620.1042],[28.0078,-27.5638,1671.1333],[28.0569,-27.5642,1694.7141],[28.0614,-27.5752,1698.0948],[28.1048,-27.5333,1711.0083],[28.1317,-27.5204,1720.7593],[28.1305,-27.5191,1714.1755],[28.1378,-27.5208,1731.2893],[28.155,-27.4989,1740.3022],[28.1657,-27.4995,1714.3984],[28.1887,-27.4818,1722.7905],[28.1946,-27.4954,1655.3704],[28.2102,-27.4982,1633.0916],[28.2162,-27.4903,1642.5049],[28.2225,-27.4974,1617.5425],[28.2274,-27.4978,1619.2224],[28.2282,-27.4901,1611.0349],[28.2509,-27.4978,1647.0226],[28.2511,-27.5086,1660.7645],[28.2563,-27.5413,1699.3593],[28.2581,-27.5723,1732.2217],[28.2842,-27.5669,1733.4644],[28.2847,-27.5562,1761.9696],[28.2942,-27.5492,1759.5607],[28.294,-27.5426,1759.8599],[28.3073,-27.5541,1698.9307],[28.3469,-27.5364,1716.7507],[28.3512,-27.5295,1687.9478],[28.3643,-27.5294,1631.9757],[28.3746,-27.5153,1706.0898],[28.383,-27.518,1701.0652],[28.3851,-27.521,1694.0286],[28.3901,-27.5227,1702.7279],[28.3899,-27.5248,1715.4656],[28.3996,-27.5234,1728.6995],[28.4126,-27.5104,1675.9292],[28.427,-27.5064,1648.8755],[28.4474,-27.5132,1593.5009],[28.4748,-27.5328,1515.4709],[28.4677,-27.541,1538.3374],[28.47,-27.5576,1522.5793],[28.4669,-27.5599,1520.4708],[28.4671,-27.5627,1520.8989],[28.4857,-27.5716,1553.9183],[28.5112,-27.5969,1617.109],[28.5245,-27.5826,1633.1576],[28.5266,-27.5854,1637.9316],[28.5517,-27.5795,1629.7185],[28.5497,-27.5551,1564.8479],[28.5558,-27.5434,1555.6169],[28.567,-27.5375,1565.9541],[28.5775,-27.5645,1647.0282],[28.5915,-27.5721,1600.6691],[28.5975,-27.5624,1619.8737],[28.6201,-27.5896,1676.2419],[28.6028,-27.6025,1665.1074],[28.6172,-27.6075,1672.4658],[28.6197,-27.606,1671.7798],[28.6255,-27.6114,1664.9958],[28.6756,-27.5809,1704.4988],[28.675,-27.5905,1658.3384],[28.7429,-27.599,1519.0413],[28.736,-27.5948,1522.6731],[28.737,-27.5917,1518.9308],[28.7425,-27.5869,1518.6517],[28.7413,-27.5831,1520.9553],[28.7455,-27.5635,1516.2417],[28.7437,-27.5618,1521.6465],[28.7428,-27.5521,1516.8347],[28.7374,-27.5483,1517.6204],[28.7378,-27.5452,1522.4116],[28.7435,-27.5403,1517.3529],[28.7456,-27.5337,1522.2549],[28.771,-27.5337,1596.7622],[28.7739,-27.5315,1598.7424],[28.7711,-27.4839,1670.3446],[28.7855,-27.4625,1599.6141],[28.8173,-27.4655,1630.075],[28.8356,-27.4799,1666.7041],[28.8302,-27.4523,1646.2445],[28.8644,-27.4468,1654.4812],[28.8677,-27.4348,1667.1489],[28.8808,-27.4435,1681.1387],[28.8912,-27.4075,1746.349],[28.9001,-27.4074,1760.9364],[28.9128,-27.4131,1702.4454],[28.9228,-27.4199,1753.7518],[28.9274,-27.4025,1769.2587],[28.9169,-27.3458,1712.1007],[28.9374,-27.2877,1685.407],[28.957,-27.2847,1643.9604],[28.967,-27.28,1616.9299],[28.9643,-27.2619,1670.5481],[28.9674,-27.2573,1655.4602],[28.9788,-27.2541,1647.8022],[28.9795,-27.2561,1666.3995],[29.0027,-27.2611,1561.5485],[29.003,-27.2533,1557.8538],[29.0063,-27.2488,1556.6432],[28.9819,-27.2357,1632.55],[28.9942,-27.2176,1603.812],[28.982,-27.2155,1614.3635],[28.9787,-27.2063,1603.2173],[28.9973,-27.1823,1536.1379],[29.004,-27.1802,1534.0283],[29.0024,-27.167,1577.401],[29.0056,-27.1669,1587.0808],[28.998,-27.1466,1568.9907],[29.0055,-27.1097,1558.7559],[29.0034,-27.1093,1555.6301],[28.9965,-27.0797,1550.6753],[29.0017,-27.0506,1544.6198],[29.0151,-27.01,1504.3787],[29.0097,-27.0064,1501.2006],[28.9935,-27.0032,1502.4779],[28.9737,-26.9927,1501.2711],[28.9675,-26.9915,1499.7814],[28.9661,-26.9949,1502.2136],[28.9615,-26.9989,1502.1769],[28.9543,-27.0117,1500.6133],[28.9412,-27.0155,1500.21],[28.9346,-27.0154,1499.8779],[28.9289,-27.0147,1498.8254],[28.9204,-27.0111,1505.7087],[28.9128,-27.018,1506.8843],[28.9075,-27.0201,1500.5796],[28.9042,-27.0198,1501.3473],[28.8936,-27.0134,1504.8647],[28.8853,-27.0248,1505.7528],[28.8939,-27.0265,1496.3065],[28.898,-27.0296,1501.1748],[28.8991,-27.0347,1496.9918],[28.8962,-27.0427,1500.5938],[28.9004,-27.0481,1501.7815],[28.8963,-27.0539,1498.8303],[28.8886,-27.0593,1496.5925],[28.8799,-27.0552,1497.3925],[28.8699,-27.0316,1493.9547],[28.8645,-27.0305,1496.1837],[28.8579,-27.0249,1495.9817],[28.8522,-27.0273,1495.3462],[28.8436,-27.0391,1493.8879],[28.839,-27.0416,1499.3379],[28.8344,-27.0417,1497.615],[28.8259,-27.037,1492.9106],[28.814,-27.0426,1493.932],[28.8108,-27.0383,1499.6205],[28.8117,-27.0334,1493.0452],[28.8098,-27.0193,1495.1592],[28.8049,-27.0115,1495.5206],[28.8013,-27.0126,1492.3145],[28.802,-27.0172,1491.7457],[28.7978,-27.0264,1495.4336],[28.795,-27.0289,1499.7349],[28.7922,-27.0254,1491.4449],[28.7738,-27.019,1490.9011],[28.7768,-27.0091,1492.5231],[28.7707,-27.003,1492.8823],[28.7639,-27.0019,1492.8672],[28.7552,-26.9974,1492.3723],[28.7437,-27.0034,1494.7394],[28.7365,-27.0017,1491.7456],[28.7311,-26.9955,1490.6886],[28.7254,-26.9846,1490.1403],[28.715699999999998,-26.9791,1488.9636],[28.7138,-26.9716,1488.76],[28.7109,-26.9692,1494.4274],[28.7062,-26.9687,1501.3896],[28.7,-26.9757,1490.2454],[28.6834,-26.9752,1490.4033],[28.6614,-26.9608,1491.8447],[28.6545,-26.9602,1490.9735],[28.6455,-26.9527,1489.2354],[28.6369,-26.955,1487.3053],[28.6345,-26.962,1488.1797],[28.6215,-26.9688,1490.6777],[28.605,-26.9932,1486.8519],[28.6059,-26.9944,1487.4979],[28.6097,-26.9938,1487.7235],[28.6172,-27.0002,1487.397],[28.6233,-26.9951,1487.6742],[28.633,-26.9909,1490.6913],[28.6458,-26.9924,1487.614],[28.6535,-26.9953,1487.3275],[28.6558,-26.9986,1486.7256],[28.6513,-27.0094,1486.8203],[28.649,-27.0109,1486.6923],[28.6473,-27.0166,1487.8931],[28.6444,-27.0203,1485.6958],[28.6394,-27.0199,1486.1396],[28.6255,-27.0107,1485.5378],[28.6083,-27.0082,1486.7031],[28.6089,-27.0207,1485.8085],[28.5933,-27.0238,1488.8585],[28.5833,-27.0378,1484.7642],[28.5762,-27.0392,1485.9086],[28.569,-27.035,1485.025],[28.5618,-27.0388,1484.6423],[28.5592,-27.0409,1493.094],[28.5607,-27.0479,1488.301],[28.5599,-27.0542,1487.1769],[28.5542,-27.0609,1486.1792],[28.5338,-27.0669,1483.5745],[28.5329,-27.063,1488.5292],[28.5364,-27.056,1484.4487],[28.5457,-27.0529,1484.5634],[28.5497,-27.045,1485.262],[28.5495,-27.0413,1486.3552],[28.5429,-27.0347,1483.2952],[28.5385,-27.0337,1483.7909],[28.5308,-27.0271,1484.3676],[28.5276,-27.018,1483.6206],[28.5036,-27.008,1483.0],[28.5043,-27.0021,1488.715],[28.5109,-26.9928,1483.0],[28.5096,-26.9866,1485.5005],[28.5005,-26.9778,1485.1873],[28.4924,-26.9756,1483.0],[28.4858,-26.9711,1483.0],[28.4776,-26.9502,1483.0],[28.4754,-26.9505,1483.0],[28.4703,-26.9565,1483.0],[28.4712,-26.9584,1483.0],[28.4757,-26.9602,1483.0],[28.476,-26.9627,1483.0],[28.4702,-26.9728,1483.0],[28.4724,-26.98,1483.0],[28.4676,-26.9828,1483.3228],[28.4645,-26.9829,1483.765],[28.4616,-26.9774,1491.8732],[28.4613,-26.9723,1483.0],[28.4514,-26.9638,1483.0],[28.4438,-26.9603,1483.0],[28.4366,-26.9646,1484.1924],[28.4365,-26.9669,1485.5961],[28.4515,-26.9789,1483.7692],[28.4513,-26.9813,1483.0],[28.4317,-27.0057,1483.0],[28.4185,-27.013,1483.0],[28.4148,-27.0104,1483.0],[28.4135,-27.0062,1483.0],[28.4261,-26.994,1483.0],[28.4291,-26.9892,1483.0],[28.4207,-26.9781,1483.0],[28.4149,-26.973,1483.0],[28.405,-26.9551,1483.0],[28.4004,-26.9509,1483.0],[28.4012,-26.9385,1483.0],[28.3996,-26.9357,1483.0],[28.3928,-26.9317,1483.0],[28.3858,-26.931,1483.0],[28.3726,-26.9347,1483.0],[28.3621,-26.9318,1483.0],[28.3529,-26.9316,1483.0],[28.3295,-26.9472,1483.0],[28.3245,-26.949,1483.0],[28.3206,-26.9419,1483.0],[28.3197,-26.9365,1483.0],[28.3302,-26.9284,1483.0],[28.3313,-26.9259,1483.0],[28.3301,-26.9239,1483.0],[28.3219,-26.9226,1483.0],[28.3146,-26.9247,1483.0],[28.3125,-26.9279,1483.0],[28.3111,-26.9359,1483.0],[28.306,-26.9406,1483.0],[28.3017,-26.9409,1483.0],[28.2886,-26.9281,1483.0],[28.2814,-26.9148,1483.0],[28.2815,-26.9061,1483.0],[28.2775,-26.9065,1483.0],[28.267,-26.9143,1483.0],[28.2626,-26.9148,1483.0],[28.2609,-26.9114,1483.0],[28.2614,-26.902,1483.0],[28.2517,-26.893,1483.0],[28.2501,-26.888,1483.0],[28.2365,-26.8811,1483.0],[28.2283,-26.8918,1483.0],[28.2273,-26.8972,1483.0],[28.2298,-26.9066,1483.0],[28.2385,-26.913,1483.0],[28.2403,-26.9164,1483.0],[28.2308,-26.9229,1483.0],[28.2259,-26.9237,1483.0],[28.2162,-26.9121,1483.0],[28.203,-26.9116,1483.0],[28.1932,-26.8962,1483.0],[28.185,-26.8907,1483.0],[28.185,-26.8715,1483.0],[28.1799,-26.8618,1483.0],[28.1786,-26.8532,1483.0],[28.1714,-26.8458,1483.0],[28.1598,-26.8454,1483.0],[28.1562,-26.847,1483.0],[28.1538,-26.8506,1483.0],[28.1678,-26.868,1483.0],[28.1713,-26.8837,1483.0],[28.1711,-26.8873,1483.0],[28.1687,-26.89,1483.0],[28.1638,-26.8904,1483.0],[28.1581,-26.8849,1483.0],[28.1539,-26.8841,1483.0],[28.1501,-26.8846,1483.0],[28.1429,-26.8898,1483.0],[28.1324,-26.8877,1483.0],[28.1251,-26.8909,1483.0],[28.1191,-26.8893,1483.0],[28.1161,-26.8833,1483.0],[28.1156,-26.8764,1447.5],[28.1162,-26.8735,1452.4884],[28.1208,-26.8694,1444.5],[28.1213,-26.8558,1445.7531],[28.1148,-26.8444,1451.9874],[28.088,-26.8379,1455.9172],[28.0763,-26.8323,1432.5],[28.0709,-26.8264,1433.6055],[28.0657,-26.8235,1439.9539],[28.0656,-26.8209,1429.9049],[28.051,-26.8141,1425.4309],[28.0491,-26.8032,1424.5344],[28.0455,-26.7999,1427.5671],[28.0378,-26.7973,1423.325],[28.035,-26.7948,1423.348],[28.0216,-26.7959,1425.8414],[28.0146,-26.7936,1427.0485],[28.0155,-26.7896,1423.8556],[28.0265,-26.7844,1422.8181],[28.0284,-26.7805,1421.0],[28.0245,-26.7796,1426.4376],[28.0201,-26.7754,1422.7932],[28.0071,-26.7693,1430.8496],[28.0068,-26.7631,1430.6951],[28.0014,-26.7474,1426.3075],[27.993,-26.7346,1423.1143],[27.9922,-26.7256,1420.625],[28.0004,-26.7058,1420.5],[27.9996,-26.696,1429.1864],[27.9827,-26.6801,1424.002],[27.977,-26.6714,1421.9358],[27.9695,-26.6687,1420.0],[27.9636,-26.6712,1425.2954],[27.9485,-26.6726,1423.4182],[27.9415,-26.6754,1423.798],[27.9361,-26.6866,1420.9622],[27.9352,-26.6927,1419.5],[27.9243,-26.7046,1422.3806],[27.9135,-26.7065,1423.6014],[27.908,-26.7059,1423.8872],[27.8932,-26.711,1425.1505],[27.8918,-26.7144,1422.6757],[27.8955,-26.7178,1420.3583],[27.8949,-26.7212,1420.6],[27.8928,-26.7259,1421.2394],[27.8847,-26.7343,1423.2719],[27.883,-26.744,1420.8669],[27.88,-26.7462,1420.1992],[27.8722,-26.7477,1424.6233],[27.8494,-26.7456,1420.4153],[27.8306,-26.7511,1423.5031],[27.8216,-26.7495,1430.6598],[27.7824,-26.7508,1422.0518],[27.7705,-26.759,1419.1027],[27.7682,-26.7652,1421.4131],[27.7671,-26.7829,1418.0],[27.7727,-26.7941,1425.6406],[27.7702,-26.7992,1422.3516],[27.759,-26.7964,1418.0],[27.7477,-26.7859,1419.9609],[27.7466,-26.7797,1417.5],[27.7415,-26.77,1417.5],[27.732,-26.7624,1417.5],[27.7265,-26.7604,1417.5],[27.7017,-26.764,1419.2528],[27.6882,-26.7618,1416.625],[27.6753,-26.7717,1412.5],[27.6662,-26.7736,1413.308],[27.6431,-26.7685,1411.0],[27.6357,-26.772,1412.3256],[27.632,-26.7718,1410.5],[27.6291,-26.7684,1412.614],[27.6286,-26.7642,1410.0],[27.6358,-26.7513,1409.0],[27.6323,-26.7455,1408.5],[27.6346,-26.7383,1409.6945],[27.6341,-26.7348,1410.7336],[27.6319,-26.7327,1407.5],[27.6105,-26.7326,1412.4296],[27.6067,-26.7413,1411.4843],[27.6013,-26.7408,1406.9452],[27.5942,-26.737,1404.5],[27.5795,-26.7449,1410.9003],[27.5702,-26.747,1403.0],[27.5699,-26.7546,1402.5],[27.5823,-26.7679,1401.5],[27.5816,-26.7739,1402.3539],[27.5699,-26.7812,1405.8359],[27.5557,-26.7732,1405.2574],[27.5498,-26.7752,1414.6506],[27.5378,-26.7851,1398.0],[27.5296,-26.7848,1399.2841],[27.5195,-26.7819,1400.7413],[27.5094,-26.7858,1403.4814],[27.5056,-26.792,1398.6752],[27.5059,-26.7948,1401.7098],[27.5153,-26.804,1394.5],[27.5182,-26.8102,1399.8181],[27.5108,-26.8255,1396.3798],[27.5112,-26.8378,1392.9558],[27.4997,-26.845,1394.73],[27.491,-26.8466,1393.5273],[27.4875,-26.8494,1391.1746],[27.4809,-26.8634,1388.5],[27.476,-26.8835,1386.145],[27.4713,-26.8868,1382.7712],[27.4552,-26.8906,1377.9594],[27.4442,-26.9004,1365.4091],[27.44,-26.8995,1370.2308],[27.4238,-26.9192,1370.6564],[27.4143,-26.9257,1370.8699],[27.4075,-26.9258,1356.2368],[27.4003,-26.9222,1352.4678],[27.3983,-26.916,1353.0449],[27.3913,-26.9138,1349.5957],[27.389,-26.9039,1336.9402],[27.3842,-26.9004,1337.2599],[27.3808,-26.9009,1332.939],[27.3766,-26.9049,1335.0002],[27.3709,-26.9042,1329.5],[27.3678,-26.8956,1334.4939],[27.3684,-26.8917,1330.5659],[27.3651,-26.891,1328.5],[27.3608,-26.8843,1331.1957],[27.3553,-26.8824,1327.9563],[27.340699999999998,-26.872,1326.0558],[27.3395,-26.8685,1324.0],[27.3402,-26.8609,1326.8959],[27.3328,-26.8542,1324.2788],[27.3154,-26.8526,1323.451],[27.303,-26.8543,1331.5134],[27.3004,-26.8563,1320.2119],[27.301,-26.8605,1320.812],[27.2995,-26.8631,1333.076],[27.2921,-26.8694,1320.27],[27.2898,-26.8794,1317.406],[27.2821,-26.8836,1318.2429],[27.278199999999998,-26.8881,1316.5],[27.2704,-26.8915,1327.7861],[27.2621,-26.9082,1332.3287],[27.255,-26.9126,1318.063],[27.2469,-26.9144,1320.5582],[27.2416,-26.9187,1318.8761],[27.2344,-26.9274,1321.8759],[27.2295,-26.939,1318.855],[27.2175,-26.9461,1324.6832],[27.2111,-26.9624,1319.3046],[27.2121,-26.9762,1314.5],[27.2065,-26.9804,1313.5],[27.1901,-26.9775,1315.7927],[27.174,-26.9685,1309.75],[27.1752,-26.9636,1309.125],[27.1815,-26.9577,1309.8218],[27.1832,-26.9503,1310.9332],[27.1818,-26.9407,1307.0278],[27.1829,-26.9304,1304.9729],[27.1813,-26.9274,1303.875],[27.1764,-26.9249,1304.4359],[27.1701,-26.923,1306.5024],[27.1647,-26.9241,1312.4106],[27.1618,-26.9259,1301.5],[27.1537,-26.937,1301.9166],[27.1435,-26.9419,1298.5],[27.113,-26.9263,1302.2308],[27.0949,-26.931,1301.124],[27.0868,-26.9385,1298.4562],[27.0734,-26.9348,1299.5306],[27.0646,-26.9373,1295.0],[27.0506,-26.9367,1294.5],[27.04,-26.9382,1297.7168],[27.028199999999998,-26.9359,1294.0],[27.0139,-26.9321,1294.5231],[27.0052,-26.9254,1293.0441],[26.9748,-26.9121,1293.281],[26.9561,-26.9002,1293.4714],[26.9472,-26.892,1297.7122],[26.9513,-26.8783,1296.4915],[26.9508,-26.8745,1294.0593],[26.94,-26.8715,1296.6897],[26.9272,-26.8871,1292.7675],[26.9202,-26.906,1298.8055],[26.9246,-26.9303,1296.3191],[26.9233,-26.9434,1292.0],[26.925,-26.957,1292.0],[26.9231,-26.969,1293.1128],[26.9204,-26.9733,1293.2188],[26.9169,-26.9725,1292.0],[26.909,-26.9613,1293.9241],[26.9097,-26.9525,1294.0563],[26.9076,-26.9445,1289.5696],[26.8961,-26.9351,1286.1985],[26.8829,-26.9359,1284.8702],[26.8798,-26.9345,1291.9169],[26.8748,-26.9301,1290.6731],[26.8751,-26.9246,1290.329],[26.8678,-26.9195,1291.8159],[26.8635,-26.9189,1283.0],[26.8583,-26.9217,1289.3274],[26.8485,-26.9402,1283.7668],[26.8424,-26.9421,1286.1807],[26.8306,-26.9493,1285.3162],[26.8188,-26.9531,1285.2538],[26.8132,-26.9523,1286.5015],[26.8102,-26.95,1284.5419],[26.8094,-26.9468,1290.5592],[26.8117,-26.9342,1285.915],[26.8098,-26.9317,1284.4988],[26.805,-26.932,1285.7845],[26.7896,-26.9429,1282.5],[26.7667,-26.9481,1287.688],[26.7615,-26.9525,1288.8711],[26.7552,-26.9619,1287.1761],[26.7496,-26.9651,1287.3854],[26.7405,-26.9651,1286.3475],[26.7131,-26.9755,1283.506],[26.7051,-26.991,1282.0],[26.7006,-27.0086,1289.9839],[26.6966,-27.0139,1282.5117],[26.6912,-27.0171,1281.7421],[26.6869,-27.0181,1283.4015],[26.6795,-27.0152,1281.8761],[26.6765,-27.0102,1280.0],[26.6763,-27.0008,1282.7048],[26.6744,-26.998,1284.9768],[26.6712,-26.9954,1283.8082],[26.6625,-26.9935,1283.8385],[26.6361,-27.0034,1277.733],[26.6189,-27.0036,1274.0],[26.6135,-27.0271,1279.4294],[26.5926,-27.0378,1277.2964],[26.5814,-27.0544,1273.0144],[26.5809,-27.0583,1275.6858],[26.5833,-27.0631,1272.7889],[26.5897,-27.0667,1271.0],[26.5923,-27.0706,1270.5],[26.5938,-27.0793,1270.5],[26.5881,-27.0954,1271.0319],[26.5869,-27.1034,1274.2526],[26.5835,-27.108,1272.8777],[26.5684,-27.1026,1268.0],[26.549,-27.0986,1269.2277],[26.538,-27.0902,1270.2322],[26.5287,-27.091,1268.8367],[26.5242,-27.0959,1265.9371],[26.5216,-27.1044,1264.0],[26.5622,-27.1598,1313.2347],[26.5561,-27.1598,1311.6309],[26.5754,-27.1833,1323.3385],[26.6353,-27.1716,1335.8214],[26.6452,-27.1909,1323.4241],[26.6831,-27.1903,1319.9259],[26.7032,-27.2188,1309.8036],[26.7374,-27.2135,1337.4998],[26.7373,-27.2241,1316.0222],[26.7276,-27.2308,1308.2075],[26.7229,-27.264,1302.8253],[26.7099,-27.2682,1294.0602],[26.7159,-27.2806,1301.4741],[26.7344,-27.2743,1306.1608],[26.7396,-27.2882,1310.9116],[26.7568,-27.2835,1316.8716],[26.7613,-27.2988,1326.244],[26.7432,-27.3037,1314.1165],[26.75,-27.3141,1322.021],[26.7434,-27.3173,1320.6346],[26.7513,-27.3317,1329.902],[26.7544,-27.3303,1328.5469],[26.7577,-27.3482,1317.6671],[26.738,-27.3449,1327.2379],[26.696,-27.3498,1318.1906],[26.699,-27.4008,1278.2107],[26.7463,-27.3953,1327.7551],[26.7568,-27.4356,1335.2859],[26.7899,-27.4477,1355.3223],[26.7735,-27.4565,1337.4971],[26.7931,-27.515,1283.3995],[26.7897,-27.5108,1285.0295],[26.7686,-27.5158,1279.6628],[26.7712,-27.5105,1279.1824],[26.766,-27.5091,1281.877],[26.7649,-27.5095,1281.877],[26.7662,-27.5182,1283.2964],[26.7537,-27.514,1279.5027],[26.7633,-27.5643,1311.0718],[26.7758,-27.5754,1309.267],[26.8185,-27.5856,1312.319],[26.8416,-27.5845,1304.4927],[26.8577,-27.586,1311.6951],[26.8739,-27.5896,1313.4594],[26.8854,-27.5759,1330.6757],[26.8704,-27.5338,1337.0193],[26.8894,-27.5226,1351.0905],[26.9229,-27.5228,1343.6608],[26.9227,-27.5161,1341.8083],[26.9501,-27.5225,1341.2466],[26.9491,-27.5303,1362.54],[26.9335,-27.5578,1357.48],[26.9453,-27.5595,1361.7441],[26.9633,-27.5492,1379.5627],[26.9663,-27.5625,1375.0699],[27.0163,-27.5982,1395.2466],[26.9745,-27.6429,1342.8057],[26.9941,-27.6552,1333.323],[27.0062,-27.6655,1349.8615],[26.9699,-27.6945,1331.2706],[26.9892,-27.7062,1346.2793],[27.0015,-27.715699999999998,1349.5684],[27.0201,-27.707,1344.844],[27.0308,-27.7168,1351.5813],[27.0168,-27.7271,1356.5105],[27.0449,-27.749,1374.9492],[27.0772,-27.7892,1410.2148],[27.0409,-27.8091,1386.1115],[27.0525,-27.8593,1425.9421],[27.0566,-27.8574,1419.9027],[27.0757,-27.8905,1453.658],[27.0938,-27.8859,1450.8829],[27.1409,-27.9227,1400.0758],[27.1594,-27.9151,1404.0649],[27.1578,-27.9333,1430.4631],[27.1728,-27.9347,1441.3141],[27.1716,-27.911,1405.4396],[27.1786,-27.9085,1409.0557],[27.1796,-27.9222,1428.7083],[27.1873,-27.9061,1419.6991],[27.1938,-27.9045,1417.6951],[27.1928,-27.8997,1423.8488],[27.2152,-27.9151,1438.6874],[27.2386,-27.9086,1463.2205],[27.2922,-27.923,1465.3816],[27.2926,-27.9381,1474.5439],[27.3008,-27.9607,1483.0898],[27.3351,-27.9454,1454.707],[27.359,-27.9325,1457.5759],[27.3658,-27.9452,1453.2732],[27.3634,-28.0015,1518.4996],[27.3779,-28.0058,1509.212],[27.3736,-28.0196,1498.4233],[27.4023,-28.0136,1482.4934],[27.4056,-28.0261,1524.1418],[27.4263,-28.0231,1522.9187],[27.423,-28.037,1516.6182],[27.4345,-28.0401,1505.3489],[27.4338,-28.0498,1525.4946],[27.4718,-28.1071,1534.9863],[27.4275,-28.1077,1509.8049],[27.4068,-28.105,1506.9929],[27.3867,-28.1588,1474.0658],[27.3701,-28.1703,1463.1373],[27.3833,-28.1901,1525.8051],[27.3908,-28.2395,1479.6982],[27.4452,-28.2387,1530.9871],[27.4497,-28.2478,1518.7599],[27.4564,-28.248,1492.2091],[27.4616,-28.2605,1474.9214],[27.4608,-28.2647,1481.5793],[27.4695,-28.2635,1487.2366],[27.4708,-28.2666,1492.8741],[27.4701,-28.2732,1453.6416],[27.4811,-28.2718,1501.3977],[27.4832,-28.2488,1523.652],[27.5031,-28.2491,1548.9607],[27.5048,-28.2708,1567.0211],[27.5107,-28.2743,1583.0111],[27.5272,-28.267,1497.7295],[27.544,-28.2747,1439.1123],[27.5442,-28.2731,1442.5852],[27.5696,-28.2825,1450.8469],[27.5695,-28.2842,1447.7256],[27.5958,-28.2595,1481.2312],[27.605,-28.2664,1454.9532],[27.6169,-28.2512,1494.7466],[27.6112,-28.2415,1517.5836],[27.6053,-28.2055,1509.3719],[27.5963,-28.176,1571.5051],[27.6277,-28.1711,1538.3939],[27.6458,-28.1922,1494.1726],[27.6598,-28.1841,1472.627],[27.6617,-28.1862,1471.5444],[27.6564,-28.1616,1515.2991],[27.6608,-28.1613,1503.9044],[27.6602,-28.1621,1503.9044],[27.6621,-28.1627,1500.3247],[27.6614,-28.1477,1538.0367],[27.6538,-28.1266,1571.0399],[27.6932,-28.124,1553.0172],[27.689,-28.0962,1572.0522],[27.655,-28.0599,1585.7937],[27.6851,-28.0464,1596.9258],[27.7035,-28.0404,1591.1035],[27.6954,-28.0026,1591.3445],[27.7187,-27.9848,1597.9752],[27.7193,-27.9829,1573.2289],[27.7047,-27.9836,1599.6591],[27.7181,-27.9562,1557.7866],[27.7273,-27.9591,1563.6521],[27.7377,-27.9282,1492.5198],[27.7541,-27.9183,1469.1505],[27.7529,-27.9126,1460.8105],[27.7586,-27.9048,1453.1864],[27.765,-27.909,1456.9202],[27.7635,-27.9107,1455.7841],[27.765,-27.9113,1457.0925],[27.7661,-27.9149,1463.8469],[27.7729,-27.9107,1462.8635],[27.7775,-27.9102,1463.3997],[27.7862,-27.9132,1467.3138],[27.7874,-27.9159,1468.0413],[27.7917,-27.9189,1474.0037],[27.7878,-27.9245,1480.3831],[27.7894,-27.9269,1472.4084],[27.7884,-27.928,1479.0258],[27.7904,-27.9292,1472.5946],[27.7883,-27.9308,1478.2559],[27.7931,-27.9319,1474.5283],[27.7938,-27.9343,1474.3016],[27.7985,-27.9347,1476.1208],[27.7979,-27.9381,1476.9135],[27.8009,-27.9403,1478.2675],[27.8,-27.9443,1478.3442],[27.8041,-27.9442,1482.542],[27.8108,-27.9503,1482.3223],[27.823,-27.9337,1513.6851],[27.8726,-27.9338,1540.6344],[27.867,-27.8904,1530.5221],[27.8634,-27.8226,1540.0066]]]]}
,"properties": {"GID_2": "ZAF.2.1_1","GID_0": "ZAF","country": "SouthAfrica","GID_1": "ZAF.2_1","province": "FreeState","NL_NAME_1": "NA","county": "FezileDabi","VARNAME_2": "NA","NL_NAME_2": "NA","TYPE_2": "DistrictMunicipality","ENGTYPE_2": "DistrictMunicipality","CC_2": "DC20","HASC_2": "ZA.FS.FD","name": "Fezile_Dabi.county","area_km2": 20702.15,"hist_schema_id": "Elevation0-9000","hist_area_km2": {"1275": 26.76,"1300": 459.34,"1325": 1111.01,"1350": 1637.64,"1375": 1453.55,"1400": 1394.53,"1425": 1660.96,"1450": 1750.32,"1475": 2203.58,"1500": 2034.61,"1525": 1809.15,"1550": 1756.33,"1575": 1284.8,"1600": 903.16,"1625": 611.68,"1650": 342.25,"1675": 160.35,"1700": 66.78,"1725": 23.79,"1750": 9.63,"1775": 1.86}}}