{"type":"Feature","properties":{"GID_2":"ZAF.5.2_1","GID_0":"ZAF","country":"SouthAfrica","GID_1":"ZAF.5_1","province":"Limpopo","NL_NAME_1":"NA","county":"Mopani","VARNAME_2":"NA","NL_NAME_2":"NA","TYPE_2":"DistrictMunicipality","ENGTYPE_2":"DistrictMunicipality","CC_2":"DC33","HASC_2":"ZA.NP.MP","name":"Mopani.county"},
"geometry":{"type": "MultiPolygon","coordinates": [[[[30.618,-24.4336,501.6596],[30.6418,-24.4509,1164.7019],[30.7037,-24.4506,1509.157],[30.7286,-24.4531,1720.425],[30.759,-24.4602,1776.6821],[30.7993,-24.4989,1492.2078],[30.8717,-24.5385,1814.5959],[30.9089,-24.5258,837.8264],[30.9543,-24.5213,664.8846],[30.9593,-24.5821,685.8248],[31.0537,-24.5703,655.5724],[31.2262,-24.556,520.9554],[31.2537,-24.4991,518.1112],[31.2032,-24.4265,517.5305],[31.16,-24.4374,509.602],[31.16,-24.3756,467.9514],[31.242,-24.3654,470.2492],[31.2001,-24.305,465.144],[31.1525,-24.3187,448.2609],[31.1022,-24.3237,479.6738],[31.056,-24.3219,476.8023],[31.0604,-24.2718,477.6372],[31.0544,-24.2319,478.8547],[31.0499,-24.1873,430.8296],[31.1073,-24.1457,431.757],[31.0961,-24.1174,400.926],[31.1151,-24.1192,391.706],[31.1206,-24.0903,340.3636],[31.086,-24.0945,401.5623],[31.0634,-24.0915,315.3948],[31.0669,-24.0896,318.1919],[31.0719,-24.0835,310.4499],[31.0942,-24.0755,308.9205],[31.1015,-24.0706,312.2483],[31.1206,-24.0682,306.8308],[31.1338,-24.0737,305.0],[31.1471,-24.0697,304.7169],[31.1626,-24.06,292.3432],[31.1698,-24.0586,292.7978],[31.1713,-24.0442,293.6113],[31.1757,-24.0364,283.9176],[31.1934,-24.031,286.9501],[31.206,-24.041,279.0201],[31.22,-24.0456,273.6205],[31.2347,-24.0576,277.7687],[31.2452,-24.0714,282.5845],[31.2523,-24.0977,271.9108],[31.2572,-24.101,275.0723],[31.2641,-24.0998,270.8895],[31.2751,-24.0938,275.2755],[31.2934,-24.0744,278.8795],[31.3016,-24.0738,258.5803],[31.3132,-24.0814,265.7547],[31.3206,-24.0826,268.5325],[31.3495,-24.0727,270.4736],[31.36,-24.0712,262.7986],[31.3651,-24.0685,264.5912],[31.3791,-24.0522,267.5557],[31.3864,-24.0522,246.3887],[31.3926,-24.0658,242.7989],[31.399,-24.0676,254.6326],[31.42,-24.0564,242.3847],[31.4312,-24.0523,247.7111],[31.4406,-24.0383,249.8926],[31.4409,-24.021,251.2215],[31.4476,-24.0199,233.441],[31.4625,-24.0296,237.7224],[31.482,-24.0316,229.9831],[31.5055,-24.0408,235.866],[31.5099,-24.0432,233.5779],[31.5209,-24.0543,224.8384],[31.5291,-24.0567,223.5296],[31.5426,-24.054,221.7982],[31.5446,-24.0424,230.5433],[31.5487,-24.0372,244.218],[31.5682,-24.0331,218.1344],[31.5737,-24.0373,213.2165],[31.5803,-24.0471,211.3924],[31.5869,-24.0528,210.1764],[31.5947,-24.0564,208.9532],[31.5981,-24.0563,210.4803],[31.6083,-24.0476,209.9762],[31.6096,-24.0363,218.504],[31.6209,-24.0233,205.163],[31.6326,-24.0179,214.3075],[31.6593,-24.0141,210.8795],[31.666,-24.0167,212.1032],[31.6688,-24.021,196.7436],[31.6743,-24.043,193.6214],[31.68,-24.0567,191.0403],[31.6837,-24.0595,191.607],[31.7019,-24.0599,186.0474],[31.7187,-24.0568,181.125],[31.7358,-24.0461,180.1823],[31.7376,-24.039,185.6992],[31.7336,-24.0184,174.2788],[31.7349,-24.0113,176.092],[31.7466,-24.0035,172.14],[31.77,-23.9832,168.1136],[31.7764,-23.9812,170.0869],[31.7827,-23.9821,145.047],[31.7946,-23.9919,153.2176],[31.8012,-23.9941,148.7221],[31.8047,-23.9972,174.8029],[31.8125,-23.9993,141.1137],[31.8204,-23.9984,137.2109],[31.8221,-23.9965,154.2216],[31.8216,-23.9909,166.491],[31.825,-23.9862,155.1718],[31.8527,-23.9869,183.7233],[31.8838,-23.9846,240.2158],[31.8809,-23.9679,133.6367],[31.8807,-23.955,178.647],[31.7692,-23.8878,381.1542],[31.6974,-23.7219,419.0501],[31.6905,-23.6294,386.5903],[31.6658,-23.5914,393.3637],[31.561,-23.482,422.4361],[31.5507,-23.4103,367.387],[31.5559,-23.2691,304.9494],[31.5592,-23.2312,241.3398],[31.5614,-23.2243,252.4544],[31.5565,-23.2222,236.2074],[31.5423,-23.2108,243.4107],[31.5415,-23.1992,242.8116],[31.5372,-23.1901,242.8542],[31.5201,-23.1815,246.3198],[31.5092,-23.1705,252.4299],[31.5042,-23.1683,251.7996],[31.5008,-23.1591,251.2568],[31.4785,-23.1545,255.1097],[31.4766,-23.1534,253.8924],[31.4767,-23.1493,256.5593],[31.4744,-23.1448,254.8902],[31.4688,-23.1428,259.8094],[31.4618,-23.1436,258.5477],[31.4583,-23.1418,258.1189],[31.4524,-23.1323,260.5491],[31.4571,-23.1159,260.3],[31.4551,-23.1119,260.8978],[31.4463,-23.1082,263.7833],[31.4311,-23.1058,267.3063],[31.4261,-23.0984,270.8785],[31.4142,-23.0916,269.1462],[31.4119,-23.0911,270.442],[31.4042,-23.097,273.8265],[31.3865,-23.0953,274.2847],[31.3841,-23.097,278.5699],[31.3837,-23.106,280.265],[31.3767,-23.1073,276.7773],[31.3746,-23.1182,283.4971],[31.378,-23.1204,285.158],[31.3793,-23.1236,281.9302],[31.3756,-23.1374,287.7166],[31.3663,-23.1416,285.9597],[31.3558,-23.1423,287.925],[31.3473,-23.1537,291.0772],[31.3458,-23.1621,291.2014],[31.3364,-23.1674,294.5096],[31.3325,-23.1673,293.7075],[31.3262,-23.1744,295.5385],[31.3163,-23.1724,299.7003],[31.3118,-23.1695,306.3214],[31.3029,-23.1738,312.0082],[31.2982,-23.172,315.2001],[31.2956,-23.1732,313.6537],[31.2946,-23.1796,313.8359],[31.2804,-23.1861,319.2274],[31.2615,-23.1875,322.3531],[31.2575,-23.1944,321.9628],[31.2597,-23.1994,322.8225],[31.2574,-23.2037,322.8228],[31.2459,-23.2069,325.9008],[31.2356,-23.2066,329.5913],[31.2245,-23.2176,331.6391],[31.2205,-23.215699999999998,334.7813],[31.2158,-23.22,335.4556],[31.2114,-23.2206,336.7553],[31.2057,-23.2187,337.4499],[31.1979,-23.209,339.645],[31.1879,-23.2079,341.9252],[31.1776,-23.2039,345.4736],[31.1638,-23.2073,346.0012],[31.1626,-23.203,346.7289],[31.1675,-23.1947,351.4791],[31.1669,-23.1932,350.1623],[31.1628,-23.1898,353.1957],[31.1567,-23.1881,352.8869],[31.1512,-23.1893,352.0048],[31.1478,-23.1924,352.7918],[31.1458,-23.1883,354.2456],[31.1491,-23.1832,362.322],[31.1462,-23.1824,356.8995],[31.1451,-23.1784,356.276],[31.1372,-23.1825,358.7509],[31.1323,-23.182,358.4666],[31.129,-23.1796,361.3473],[31.1308,-23.1754,366.3319],[31.1262,-23.1705,362.845],[31.1207,-23.1734,365.4858],[31.1151,-23.18,364.6305],[31.1099,-23.1823,368.6077],[31.1079,-23.1895,367.3115],[31.104,-23.1922,370.4693],[31.103,-23.196,371.3223],[31.096,-23.1963,372.3557],[31.0939,-23.1982,370.463],[31.0948,-23.2046,372.6634],[31.0907,-23.211,372.4944],[31.088,-23.2125,372.5487],[31.0859,-23.2098,375.0282],[31.0814,-23.209,375.0608],[31.0754,-23.1992,376.7795],[31.0626,-23.1912,380.2439],[31.0622,-23.1871,380.8324],[31.0573,-23.1836,380.8973],[31.0545,-23.1761,391.6609],[31.0519,-23.1748,383.7063],[31.047,-23.1778,386.9792],[31.0424,-23.1769,387.6521],[31.0368,-23.1809,388.0471],[31.0405,-23.1926,393.066],[31.0362,-23.1969,394.6467],[31.0248,-23.1922,397.7332],[31.0206,-23.1841,398.3171],[31.0234,-23.1811,399.3901],[31.0242,-23.1775,405.5316],[31.0206,-23.1731,399.8371],[31.0149,-23.1722,401.4472],[31.006,-23.1748,402.5312],[30.9984,-23.1734,404.4883],[30.992,-23.1754,403.159],[30.9848,-23.17,405.9053],[30.9804,-23.1689,407.1898],[30.9687,-23.1737,409.1662],[30.9669,-23.1741,408.5145],[30.9649,-23.1721,409.2542],[30.9612,-23.174,413.1749],[30.962,-23.1701,412.8447],[30.9587,-23.1661,414.8857],[30.9564,-23.1643,416.6284],[30.9498,-23.1645,418.0883],[30.9474,-23.1661,417.6533],[30.9477,-23.1756,422.9543],[30.9446,-23.1794,423.4156],[30.9296,-23.1394,433.6992],[30.9208,-23.141,435.0869],[30.9135,-23.1472,436.1848],[30.9061,-23.1431,439.6022],[30.9043,-23.1387,442.6587],[30.8988,-23.1373,440.5099],[30.8963,-23.1386,442.8752],[30.8969,-23.1423,444.4953],[30.893,-23.1461,445.5663],[30.8902,-23.1479,445.1437],[30.8843,-23.1481,445.7693],[30.8809,-23.1508,446.6522],[30.8791,-23.1488,446.9686],[30.8795,-23.1434,446.6986],[30.8755,-23.126,454.5083],[30.8736,-23.1242,452.894],[30.8656,-23.127,450.2454],[30.8629,-23.1265,450.1192],[30.8608,-23.1284,452.5449],[30.8569,-23.1225,458.8491],[30.8511,-23.1209,454.623],[30.8482,-23.124,455.4919],[30.8436,-23.1246,455.9038],[30.8326,-23.1173,459.4028],[30.8367,-23.1113,460.6688],[30.8399,-23.1119,460.0297],[30.8422,-23.1091,460.2411],[30.832,-23.1016,467.8116],[30.8317,-23.0938,464.8583],[30.8197,-23.0958,465.3106],[30.8169,-23.095,467.5855],[30.8129,-23.101,469.3797],[30.809,-23.1014,468.7817],[30.8057,-23.1048,471.7714],[30.7966,-23.0988,473.3928],[30.7942,-23.0911,475.8855],[30.7892,-23.0894,474.6521],[30.7877,-23.0869,477.1989],[30.7837,-23.0887,476.8668],[30.7769,-23.0861,479.3325],[30.7763,-23.0889,477.9068],[30.7691,-23.090699999999998,480.7853],[30.7682,-23.0933,480.1953],[30.7639,-23.0953,482.7333],[30.7614,-23.0912,483.3649],[30.7625,-23.0863,490.9503],[30.7555,-23.0871,485.4324],[30.7384,-23.0823,488.9693],[30.7342,-23.0747,490.382],[30.7281,-23.0722,491.3054],[30.6522,-23.1574,616.4208],[30.6275,-23.1817,481.8675],[30.6213,-23.1732,482.9842],[30.6164,-23.174,486.8734],[30.6119,-23.1726,492.9809],[30.6113,-23.1742,487.8949],[30.6052,-23.175,491.0985],[30.6043,-23.1816,500.739],[30.6021,-23.1832,496.2762],[30.598,-23.1826,497.2754],[30.5946,-23.1849,499.0059],[30.5901,-23.1838,501.9163],[30.5899,-23.178,512.0098],[30.5783,-23.1807,510.7872],[30.5738,-23.1772,515.7109],[30.5652,-23.18,524.3715],[30.5658,-23.1784,522.7515],[30.5627,-23.1757,529.5149],[30.5221,-23.2187,516.0247],[30.5328,-23.2752,478.2774],[30.5162,-23.2686,480.9384],[30.5094,-23.2578,487.7189],[30.5,-23.2532,481.877],[30.4876,-23.2442,485.6417],[30.4737,-23.2405,486.3305],[30.4648,-23.2403,487.6911],[30.4529,-23.2495,489.9397],[30.4489,-23.2485,492.1022],[30.4393,-23.2548,505.0877],[30.4281,-23.2558,502.6896],[30.4255,-23.2705,498.3763],[30.4229,-23.2717,501.7615],[30.4186,-23.2707,502.8013],[30.4035,-23.2342,519.6071],[30.3685,-23.2477,534.1963],[30.335,-23.2494,547.7112],[30.3488,-23.2819,581.0072],[30.3599,-23.3004,556.6733],[30.3692,-23.3102,519.5],[30.3641,-23.3172,519.5],[30.3571,-23.3236,527.3264],[30.3567,-23.3387,524.8605],[30.3454,-23.3452,526.0177],[30.3419,-23.3554,528.6791],[30.3354,-23.364,531.3736],[30.3346,-23.3719,535.0831],[30.3286,-23.3776,544.4407],[30.294,-23.3857,584.9066],[30.2731,-23.3517,703.9236],[30.2686,-23.3244,611.8478],[30.2343,-23.3085,833.3973],[30.1516,-23.3138,692.1337],[30.1468,-23.3414,749.9447],[30.1188,-23.3424,918.2009],[30.0909,-23.3473,955.9208],[30.0716,-23.3637,1022.6867],[30.0472,-23.3698,1139.4689],[30.0636,-23.3368,774.0884],[30.0377,-23.3387,932.0184],[30.0355,-23.375,1053.9895],[30.0433,-23.3825,1149.1655],[30.0392,-23.396,1178.2747],[30.0433,-23.4256,1150.7485],[30.0308,-23.4363,1186.8136],[30.0194,-23.4313,1184.8456],[30.006,-23.4478,1204.3955],[29.9973,-23.4699,1213.4219],[30.018,-23.4634,1123.7238],[30.027,-23.4899,1196.0734],[30.0131,-23.5016,1177.1469],[30.0473,-23.5352,886.3907],[30.0427,-23.541,978.4543],[30.0364,-23.573,745.6678],[30.0148,-23.5864,783.2616],[29.9991,-23.5918,823.8446],[29.9698,-23.6105,971.287],[29.949,-23.6277,1069.7524],[29.9479,-23.64,1077.9926],[29.9611,-23.6601,910.1756],[29.9321,-23.6629,1198.9761],[29.8979,-23.6701,1287.4603],[29.8879,-23.6794,1294.3762],[29.8946,-23.7127,1261.4048],[29.8897,-23.7301,1318.2072],[29.8884,-23.7416,1354.892],[29.9181,-23.7602,1430.55],[29.9145,-23.773,1255.1644],[29.9282,-23.7977,1529.1921],[29.907,-23.8134,1410.5647],[29.8791,-23.8228,1499.8062],[29.8968,-23.8277,1596.5684],[29.8865,-23.8551,1858.9222],[29.8979,-23.8626,1581.7463],[29.8933,-23.8739,1524.53],[29.8962,-23.8849,1452.5894],[29.8952,-23.8884,1404.1154],[29.897,-23.8973,1373.3254],[29.8899,-23.9049,1342.208],[29.8896,-23.9081,1332.9744],[29.8851,-23.9139,1321.2109],[29.8757,-23.9178,1304.2238],[29.8703,-23.9176,1299.7039],[29.8544,-23.9219,1272.9827],[29.8638,-23.9514,1592.4604],[29.8781,-23.9464,1637.1332],[29.8948,-23.9438,1611.6234],[29.8982,-23.9582,1709.8972],[29.901,-23.9636,1625.0291],[29.9393,-23.9813,1637.55],[29.9545,-23.9818,1979.0686],[29.9685,-23.993,1790.4146],[29.9909,-23.9944,1314.9893],[29.9975,-24.0007,1187.0935],[30.0143,-23.9834,1783.2335],[30.0431,-23.9725,1886.8566],[30.0746,-24.012,2021.6544],[30.2156,-24.0857,1769.3079],[30.2383,-24.1393,1618.9955],[30.2949,-24.0959,869.124],[30.3215,-24.1297,834.4518],[30.3616,-24.1683,706.7278],[30.3594,-24.1692,708.9412],[30.3619,-24.1731,713.0847],[30.3547,-24.1764,770.6448],[30.3516,-24.1724,741.5631],[30.3095,-24.1897,1612.1459],[30.2753,-24.213,1342.9941],[30.3372,-24.234,1829.7839],[30.3474,-24.2225,1746.8226],[30.3605,-24.2681,1813.2191],[30.3662,-24.2831,1826.887],[30.4092,-24.3336,1761.1431],[30.4367,-24.3535,1844.5112],[30.4703,-24.3717,1857.2141],[30.4953,-24.3965,1732.2377],[30.5182,-24.4056,1657.0574],[30.5335,-24.4397,907.3198],[30.5408,-24.445,540.688],[30.5512,-24.4391,545.1465],[30.5532,-24.427,522.429],[30.5557,-24.4245,526.5919],[30.5625,-24.4371,519.0131],[30.5658,-24.4472,510.5759],[30.5716,-24.4453,508.6751],[30.5838,-24.4375,509.4296],[30.5973,-24.4432,507.3499],[30.6139,-24.4419,497.5314],[30.6188,-24.4378,490.1452],[30.618,-24.4336,501.6596]]]]}}