{"type":"Feature","properties":{"GID_3":"ZAF.7.4.3_1","GID_0":"ZAF","country":"SouthAfrica","GID_1":"ZAF.7_1","province":"NorthWest","NL_NAME_1":"NA","GID_2":"ZAF.7.4_1","county":"NgakaModiriMolema","NL_NAME_2":"NA","city":"RamotshereMoiloa","VARNAME_3":"NA","NL_NAME_3":"NA","TYPE_3":"LocalMunicipality","ENGTYPE_3":"LocalMunicipality","CC_3":"NW385","HASC_3":"NA","name":"Ramotshere_Moiloa.city"},
"geometry":{"type": "MultiPolygon","coordinates": [[[[25.6652,-25.4567,1375.6713],[25.6598,-25.4744,1377.4735],[25.6308,-25.5334,1348.4762],[25.6298,-25.5378,1344.512],[25.6421,-25.5444,1347.3929],[25.6794,-25.5201,1381.4683],[25.7407,-25.5138,1416.6852],[25.7966,-25.525,1427.1582],[25.8134,-25.5664,1435.2484],[25.8351,-25.6116,1423.6304],[25.8456,-25.6656,1423.537],[25.8869,-25.6753,1427.7168],[25.9488,-25.6653,1408.9728],[25.9757,-25.65,1430.1744],[26.0246,-25.6369,1367.0333],[26.0179,-25.6169,1366.0763],[25.9779,-25.6067,1413.1687],[25.9799,-25.6045,1405.5117],[26.0131,-25.598,1333.6213],[26.0209,-25.5972,1312.2225],[26.0215,-25.5988,1308.7928],[26.0283,-25.5974,1287.6809],[26.0291,-25.6032,1294.0411],[26.0329,-25.6023,1288.6179],[26.0331,-25.6052,1295.1353],[26.0376,-25.6063,1295.9385],[26.0366,-25.6079,1295.9385],[26.0524,-25.6288,1280.0972],[26.0624,-25.6263,1273.3473],[26.0733,-25.6175,1257.4449],[26.0954,-25.6178,1241.29],[26.1001,-25.6343,1282.9153],[26.1001,-25.6401,1283.2843],[26.0968,-25.6447,1252.3198],[26.0973,-25.6466,1256.6046],[26.1135,-25.6433,1308.4299],[26.0916,-25.6649,1318.6072],[26.0943,-25.673,1311.7549],[26.1092,-25.7021,1390.8068],[26.1548,-25.6769,1343.9813],[26.1889,-25.6733,1451.8246],[26.2265,-25.6541,1544.2866],[26.2259,-25.652,1538.9187],[26.2488,-25.6573,1525.7068],[26.2625,-25.6441,1441.843],[26.299,-25.6672,1493.7561],[26.3375,-25.6817,1492.5343],[26.3728,-25.684,1425.1541],[26.3622,-25.6946,1493.302],[26.3964,-25.6929,1422.5507],[26.4047,-25.6866,1386.4008],[26.427,-25.6915,1228.7177],[26.4259,-25.6928,1242.3201],[26.43,-25.6934,1223.7583],[26.4289,-25.6946,1233.0398],[26.4301,-25.6959,1233.0398],[26.427,-25.6968,1243.5457],[26.399,-25.6991,1295.0443],[26.4093,-25.7213,1278.6733],[26.3904,-25.7576,1428.6853],[26.4393,-25.77,1308.8125],[26.4464,-25.7693,1428.1859],[26.4765,-25.7243,1473.9525],[26.4847,-25.6775,1322.1034],[26.5034,-25.6841,1360.0929],[26.5112,-25.6552,1213.8638],[26.5131,-25.6004,1356.6599],[26.4939,-25.5955,1254.4832],[26.4776,-25.6005,1382.4863],[26.4978,-25.5643,1257.5979],[26.5095,-25.578,1368.5095],[26.5102,-25.5354,1371.2197],[26.506,-25.5019,1242.8076],[26.4621,-25.4878,1150.9243],[26.4405,-25.5108,1340.8982],[26.4355,-25.5112,1302.2565],[26.425,-25.4917,1185.1147],[26.4193,-25.4776,1121.5861],[26.417,-25.4544,1074.2517],[26.4269,-25.4474,1072.9875],[26.4266,-25.4187,1048.4187],[26.4394,-25.3844,1059.2909],[26.4456,-25.3724,1056.7776],[26.4444,-25.3361,1043.9515],[26.4631,-25.3354,1043.8624],[26.466,-25.2907,1019.3451],[26.405,-25.2858,1005.1714],[26.4046,-25.282,1004.3416],[26.4066,-25.2819,1003.5961],[26.4047,-25.2784,1001.2504],[26.4072,-25.2752,1000.1564],[26.4061,-25.2724,1001.2313],[26.4074,-25.271,1000.6749],[26.4053,-25.2714,999.0761],[26.4071,-25.2674,1001.3608],[26.406,-25.2657,999.3929],[26.411,-25.2672,1000.462],[26.4115,-25.2622,997.0082],[26.4144,-25.2602,1004.1405],[26.4135,-25.2585,999.4066],[26.4119,-25.2599,996.9947],[26.4122,-25.2567,998.621],[26.409,-25.2544,996.5464],[26.4118,-25.2529,998.1165],[26.4053,-25.2505,995.9982],[26.41,-25.2457,995.1714],[26.4091,-25.241,993.9297],[26.4118,-25.2404,996.2735],[26.4098,-25.2383,994.7149],[26.4137,-25.239,995.9518],[26.4136,-25.2372,994.8995],[26.4163,-25.2377,993.775],[26.4162,-25.2352,993.3361],[26.4175,-25.2353,995.373],[26.4098,-25.2303,993.0847],[26.4024,-25.2181,991.8735],[26.4047,-25.2134,992.2327],[26.4056,-25.215,992.3472],[26.4071,-25.2141,992.1507],[26.4049,-25.211,990.9003],[26.4066,-25.2108,992.178],[26.407,-25.208,991.4725],[26.4086,-25.2094,990.8632],[26.411,-25.2074,990.7516],[26.4112,-25.2112,990.0002],[26.4132,-25.2091,989.3347],[26.4123,-25.2069,990.1877],[26.4159,-25.2049,989.5574],[26.4109,-25.2025,988.2875],[26.4105,-25.1997,988.079],[26.414,-25.1984,988.1054],[26.4133,-25.1969,987.507],[26.4147,-25.1958,987.3445],[26.4181,-25.1971,987.9164],[26.4165,-25.1946,987.7791],[26.42,-25.1936,987.2476],[26.4185,-25.1844,997.0529],[26.4227,-25.1325,993.085],[26.4113,-25.0846,987.9483],[26.4058,-25.088,993.335],[26.3923,-25.0726,973.7189],[26.385,-25.0593,977.533],[26.4182,-25.0467,967.8587],[26.4174,-25.0418,967.2921],[26.4201,-25.0419,965.3458],[26.421,-25.0394,965.0692],[26.4257,-25.0364,964.8894],[26.422,-25.0286,962.2025],[26.4226,-25.0228,961.9775],[26.4249,-25.0194,961.6711],[26.4237,-25.0074,960.4348],[26.4317,-25.0015,959.3069],[26.4321,-24.9972,959.8938],[26.4299,-24.994,960.061],[26.4312,-24.9896,961.8149],[26.4352,-24.9892,959.0829],[26.4409,-24.992,958.1671],[26.4482,-24.9846,956.8775],[26.4508,-24.9788,956.2441],[26.4445,-24.9676,956.0],[26.455,-24.955,956.0],[26.4551,-24.9529,956.0],[26.4517,-24.9492,956.0],[26.4465,-24.9498,956.0],[26.4438,-24.9478,956.0],[26.4422,-24.9412,956.0],[26.4425,-24.9341,956.0],[26.4513,-24.9129,956.0],[26.4495,-24.8985,956.0],[26.454,-24.8797,956.0],[26.4538,-24.8668,944.6073],[26.4497,-24.8622,941.4977],[26.4542,-24.8587,940.9158],[26.455,-24.8542,946.5636],[26.468,-24.8571,939.5857],[26.4726,-24.85,938.4422],[26.4738,-24.8449,937.9227],[26.484,-24.8479,939.3374],[26.4883,-24.8405,938.8846],[26.4804,-24.8304,936.0212],[26.4773,-24.8231,935.8348],[26.4662,-24.8204,935.1991],[26.4591,-24.815,933.8015],[26.4583,-24.8095,933.486],[26.4616,-24.7955,931.3709],[26.4595,-24.7905,932.3525],[26.454,-24.7888,931.0762],[26.4483,-24.7921,931.1399],[26.4446,-24.7908,930.4816],[26.4354,-24.7829,931.5158],[26.426,-24.7712,929.3276],[26.4296,-24.7654,929.0511],[26.4269,-24.7579,928.3528],[26.4282,-24.7538,928.7001],[26.4182,-24.729,926.6656],[26.4226,-24.7206,925.7121],[26.4197,-24.716,925.8019],[26.4272,-24.6967,923.5491],[26.4213,-24.6916,922.3243],[26.4228,-24.6817,918.3557],[26.4218,-24.6708,917.9166],[26.427,-24.6652,917.3152],[26.4273,-24.6575,916.7859],[26.4083,-24.6503,915.5581],[26.4088,-24.6461,915.8329],[26.3933,-24.6366,982.4174],[26.187,-24.6875,1176.2866],[26.0074,-24.7243,1112.3762],[25.9644,-24.7494,1161.6992],[25.9171,-24.7455,1192.0587],[25.9114,-24.7537,1186.4355],[25.8583,-24.7572,1059.4041],[25.8483,-24.755,995.3153],[25.8512,-24.7624,998.5],[25.8515,-24.7745,1001.3849],[25.8442,-24.7803,1007.3424],[25.8424,-24.7903,1005.1154],[25.8632,-24.8085,1011.2655],[25.8585,-24.8216,1014.6093],[25.8593,-24.8262,1014.894],[25.8623,-24.827,1014.9633],[25.8673,-24.8235,1014.585],[25.8695,-24.827,1017.1245],[25.8733,-24.8291,1016.9263],[25.8749,-24.839,1018.4294],[25.8739,-24.8464,1017.56],[25.8768,-24.852,1018.273],[25.8762,-24.8561,1018.9551],[25.8814,-24.859,1020.8838],[25.8829,-24.8759,1022.4414],[25.8855,-24.881,1023.8741],[25.8888,-24.8825,1022.985],[25.8848,-24.8877,1023.2789],[25.88,-24.8866,1024.5962],[25.8766,-24.8883,1029.5671],[25.8764,-24.8977,1027.5406],[25.8806,-24.9026,1026.1968],[25.874,-24.9035,1027.0354],[25.8726,-24.9053,1027.9614],[25.8818,-24.9142,1031.627],[25.8782,-24.9174,1029.8844],[25.8725,-24.9189,1031.0493],[25.8707,-24.9213,1036.1993],[25.8608,-24.9243,1032.246],[25.8618,-24.9261,1032.6694],[25.8409,-24.9803,1041.8134],[25.7291,-25.2569,1335.1411],[25.6998,-25.291,1278.4847],[25.6882,-25.376,1375.2826],[25.6652,-25.4567,1375.6713]]]]}}