{"type":"Feature","properties":{"GID_3":"ZAF.9.1.2_1","GID_0":"ZAF","country":"SouthAfrica","GID_1":"ZAF.9_1","province":"WesternCape","NL_NAME_1":"NA","GID_2":"ZAF.9.1_1","county":"CapeWinelands","NL_NAME_2":"NA","city":"Drakenstein","VARNAME_3":"NA","NL_NAME_3":"NA","TYPE_3":"LocalMunicipality","ENGTYPE_3":"LocalMunicipality","CC_3":"WC023","HASC_3":"NA","name":"Drakenstein.city"},
"geometry":{"type": "MultiPolygon","coordinates": [[[[18.971,-33.8465,153.8596],[18.9724,-33.8444,139.6588],[18.9793,-33.8492,143.1844],[18.982,-33.8529,146.88],[18.9904,-33.8543,147.5694],[18.9916,-33.8506,144.1671],[18.9939,-33.8492,141.1354],[19.0202,-33.8452,180.2628],[19.0271,-33.8402,254.2305],[19.0311,-33.844,329.597],[19.0343,-33.8389,427.1939],[19.0466,-33.8405,409.4403],[19.0558,-33.8596,404.7567],[19.0595,-33.854,233.6079],[19.0841,-33.8367,352.3758],[19.0942,-33.8317,367.6354],[19.1432,-33.8605,437.3483],[19.1412,-33.8624,571.7161],[19.1427,-33.8634,481.9574],[19.1462,-33.8614,463.6186],[19.1646,-33.8685,637.9877],[19.1791,-33.8624,764.3372],[19.214,-33.8571,1215.481],[19.1881,-33.7539,1942.3708],[19.1861,-33.7237,457.1533],[19.184,-33.7154,655.2073],[19.1488,-33.7022,1706.3224],[19.1475,-33.6561,1670.4495],[19.1268,-33.6391,1571.7528],[19.102,-33.6068,866.7014],[19.1065,-33.5901,1107.363],[19.1045,-33.5586,968.8853],[19.1076,-33.5442,980.9789],[19.107,-33.5411,921.0623],[19.0995,-33.5299,856.2345],[19.1113,-33.5092,1488.9365],[19.0863,-33.4311,1045.8313],[19.0831,-33.3509,777.6182],[19.0867,-33.3326,603.8243],[19.084,-33.3195,112.0297],[19.0801,-33.3186,126.7118],[19.0756,-33.3144,113.1022],[19.069,-33.303,93.7468],[19.0617,-33.297,94.4411],[19.0678,-33.2919,229.7656],[19.0577,-33.2674,285.6808],[19.0659,-33.2667,387.7483],[19.063,-33.2313,355.1209],[19.078,-33.2371,675.791],[19.0787,-33.2291,1027.1241],[19.0752,-33.2131,1444.4746],[19.0577,-33.2001,1172.2056],[19.0774,-33.179,215.3017],[19.08,-33.1796,225.363],[19.0824,-33.1654,1126.9697],[19.0657,-33.1496,839.8335],[19.074,-33.1317,415.7565],[19.0724,-33.1277,494.8665],[19.0561,-33.1401,124.8848],[19.0509,-33.142,115.5626],[19.0198,-33.1417,92.8366],[19.0001,-33.1455,78.4957],[18.9801,-33.1521,68.2215],[18.956,-33.1674,55.2354],[18.9572,-33.1756,58.9247],[18.9565,-33.1881,57.5641],[18.9432,-33.1937,52.3232],[18.9319,-33.2011,45.5143],[18.9333,-33.2033,42.5022],[18.9422,-33.201,48.8019],[18.9471,-33.2024,44.6507],[18.9482,-33.2049,43.9735],[18.9435,-33.2086,43.1678],[18.9571,-33.2218,48.1753],[18.9564,-33.2336,45.8308],[18.9474,-33.2395,49.4658],[18.9507,-33.2475,47.1107],[18.9457,-33.253,48.9816],[18.9468,-33.255,50.0226],[18.9527,-33.2557,48.6443],[18.9547,-33.2598,48.8189],[18.9509,-33.2655,51.5708],[18.9646,-33.2679,51.6863],[18.9667,-33.2746,51.0512],[18.975,-33.2781,51.5538],[18.9761,-33.282,53.9324],[18.9732,-33.2886,53.1093],[18.9812,-33.2924,59.0859],[18.9795,-33.2968,52.7759],[18.9888,-33.299,53.3754],[18.9908,-33.3009,57.0004],[18.9885,-33.3053,57.9439],[18.9974,-33.3076,62.467],[18.9955,-33.3109,59.3059],[18.9958,-33.3138,56.6268],[18.9845,-33.313,54.5167],[18.9784,-33.3185,53.7024],[18.9804,-33.3287,53.201],[18.9873,-33.3295,54.5113],[18.9899,-33.3316,53.1956],[18.9792,-33.3417,53.5639],[18.9812,-33.3451,53.5431],[18.9872,-33.3474,54.4026],[18.9929,-33.3539,55.9746],[18.9857,-33.3616,58.9553],[18.994,-33.3656,58.4027],[18.9908,-33.369,61.278],[18.9907,-33.3722,59.8043],[18.9847,-33.3791,61.0963],[18.9852,-33.3804,58.9671],[18.9931,-33.3823,57.8102],[18.9887,-33.3889,57.5197],[18.9925,-33.3944,58.77],[18.9906,-33.3962,59.7613],[18.9781,-33.3996,64.6541],[18.9778,-33.4017,64.3564],[18.9825,-33.4042,61.0841],[18.9825,-33.4067,59.1098],[18.9769,-33.4076,63.2578],[18.9673,-33.4215,60.7132],[18.9672,-33.4248,64.1281],[18.9702,-33.4281,62.8839],[18.97,-33.4299,66.2547],[18.9617,-33.4296,63.0284],[18.9583,-33.4279,60.9389],[18.9555,-33.4299,59.9461],[18.9562,-33.4351,61.074],[18.9597,-33.4424,65.9711],[18.9555,-33.4485,64.3429],[18.9501,-33.4511,63.175],[18.9486,-33.4558,62.4485],[18.9543,-33.4603,62.53],[18.9542,-33.4619,63.1357],[18.9405,-33.4659,64.8712],[18.938,-33.4701,67.9897],[18.9374,-33.4846,69.1538],[18.934,-33.4917,69.6112],[18.9398,-33.4994,68.9453],[18.9363,-33.5067,71.5207],[18.9399,-33.5214,85.7422],[18.9328,-33.5229,77.9919],[18.9314,-33.5251,85.889],[18.9339,-33.5297,74.9435],[18.9365,-33.5442,86.6435],[18.9381,-33.546,82.8786],[18.9135,-33.5514,85.6642],[18.9128,-33.55,89.2636],[18.9108,-33.5513,94.1844],[18.8997,-33.5511,87.9802],[18.8928,-33.5715,130.3453],[18.8623,-33.5754,129.0843],[18.8559,-33.5691,167.8382],[18.8393,-33.5776,208.4149],[18.8419,-33.5887,374.734],[18.8383,-33.5897,362.43],[18.8363,-33.6044,533.6915],[18.8183,-33.5952,655.6671],[18.8016,-33.6204,482.679],[18.7875,-33.6376,179.7742],[18.8219,-33.6418,189.3756],[18.8022,-33.6737,138.7646],[18.7937,-33.6794,128.8755],[18.7961,-33.6953,103.1302],[18.7946,-33.7068,86.3133],[18.7985,-33.7078,86.5832],[18.8025,-33.7051,87.4927],[18.8062,-33.7102,104.4603],[18.8092,-33.709,92.2158],[18.8102,-33.7137,113.9518],[18.8134,-33.7131,105.761],[18.8132,-33.7065,90.5082],[18.822,-33.7083,92.8433],[18.8211,-33.7166,103.2151],[18.8182,-33.7223,122.0996],[18.833,-33.7382,153.2872],[18.8095,-33.7408,162.997],[18.811,-33.7588,132.5305],[18.7877,-33.7667,142.7139],[18.8098,-33.7813,157.1661],[18.7962,-33.7982,165.0141],[18.7848,-33.8036,135.6936],[18.788,-33.8166,128.1953],[18.7926,-33.8192,135.69],[18.8212,-33.8114,200.7005],[18.8221,-33.7989,197.6676],[18.8277,-33.7963,184.6922],[18.8344,-33.8076,188.8612],[18.8702,-33.7974,153.1713],[18.8968,-33.7934,158.4671],[18.8964,-33.7983,167.3773],[18.9028,-33.7967,151.5695],[18.9022,-33.8035,164.454],[18.8959,-33.8052,187.5316],[18.8932,-33.8261,293.9792],[18.8954,-33.8421,319.551],[18.8848,-33.8464,411.6377],[18.9076,-33.8628,830.3605],[18.9094,-33.8658,895.3674],[18.915,-33.8688,823.8557],[18.9221,-33.8762,689.0593],[18.9315,-33.8791,745.5106],[18.9485,-33.8668,269.3253],[18.9517,-33.8707,251.2732],[18.9621,-33.8649,195.3765],[18.965,-33.8627,186.7322],[18.9666,-33.8531,165.7896],[18.971,-33.8465,153.8596]]]]}}