{"type": "Feature","bbox": [29.979,-25.9996,32.0336,-23.9812],"geometry": {"type": "MultiPolygon","coordinates": [[[[31.2104,-25.8528,723.3297],[31.2636,-25.8096,1347.9276],[31.3159,-25.743,1328.3103],[31.4163,-25.7188,1171.3298],[31.8679,-25.9996,720.4838],[31.9737,-25.9532,745.307],[31.9305,-25.8408,586.61],[31.9786,-25.6937,436.4996],[31.9959,-25.6767,415.3765],[32.0061,-25.6452,397.2691],[32.0056,-25.626,250.6066],[31.9958,-25.5263,305.9691],[31.9813,-25.5238,348.7969],[31.9774,-25.5098,362.9562],[31.9774,-25.4747,388.5603],[31.9796,-25.4571,341.9621],[31.9895,-25.4377,105.631],[31.9905,-25.429,252.1388],[32.0135,-25.3881,363.4351],[32.0153,-25.3825,368.2343],[32.0288,-25.2414,305.694],[32.032,-25.1831,110.5],[32.0336,-25.1325,271.5422],[32.0302,-25.0657,303.8351],[32.0155,-24.9251,403.6624],[31.9983,-24.6897,362.5546],[32.0089,-24.5751,288.8507],[32.0131,-24.4546,157.9758],[31.9871,-24.3022,310.5925],[31.9813,-24.2973,312.619],[31.908,-24.1824,383.9952],[31.8838,-23.9846,240.2158],[31.8527,-23.9869,183.7233],[31.825,-23.9862,155.1718],[31.8216,-23.9909,166.491],[31.8221,-23.9965,154.2216],[31.8204,-23.9984,137.2109],[31.8125,-23.9993,141.1137],[31.8047,-23.9972,174.8029],[31.8012,-23.9941,148.7221],[31.7946,-23.9919,153.2176],[31.7827,-23.9821,145.047],[31.7764,-23.9812,170.0869],[31.77,-23.9832,168.1136],[31.7466,-24.0035,172.14],[31.7349,-24.0113,176.092],[31.7336,-24.0184,174.2788],[31.7376,-24.039,185.6992],[31.7358,-24.0461,180.1823],[31.7187,-24.0568,181.125],[31.7019,-24.0599,186.0474],[31.6837,-24.0595,191.607],[31.68,-24.0567,191.0403],[31.6743,-24.043,193.6214],[31.6688,-24.021,196.7436],[31.666,-24.0167,212.1032],[31.6593,-24.0141,210.8795],[31.6326,-24.0179,214.3075],[31.6209,-24.0233,205.163],[31.6096,-24.0363,218.504],[31.6083,-24.0476,209.9762],[31.5981,-24.0563,210.4803],[31.5947,-24.0564,208.9532],[31.5869,-24.0528,210.1764],[31.5803,-24.0471,211.3924],[31.5737,-24.0373,213.2165],[31.5682,-24.0331,218.1344],[31.5487,-24.0372,244.218],[31.5446,-24.0424,230.5433],[31.5426,-24.054,221.7982],[31.5291,-24.0567,223.5296],[31.5209,-24.0543,224.8384],[31.5099,-24.0432,233.5779],[31.5055,-24.0408,235.866],[31.482,-24.0316,229.9831],[31.4625,-24.0296,237.7224],[31.4476,-24.0199,233.441],[31.4409,-24.021,251.2215],[31.4406,-24.0383,249.8926],[31.4312,-24.0523,247.7111],[31.42,-24.0564,242.3847],[31.399,-24.0676,254.6326],[31.3926,-24.0658,242.7989],[31.3864,-24.0522,246.3887],[31.3791,-24.0522,267.5557],[31.3651,-24.0685,264.5912],[31.36,-24.0712,262.7986],[31.3495,-24.0727,270.4736],[31.3206,-24.0826,268.5325],[31.3132,-24.0814,265.7547],[31.3016,-24.0738,258.5803],[31.2934,-24.0744,278.8795],[31.2751,-24.0938,275.2755],[31.2641,-24.0998,270.8895],[31.2572,-24.101,275.0723],[31.2523,-24.0977,271.9108],[31.2452,-24.0714,282.5845],[31.2347,-24.0576,277.7687],[31.22,-24.0456,273.6205],[31.206,-24.041,279.0201],[31.1934,-24.031,286.9501],[31.1757,-24.0364,283.9176],[31.1713,-24.0442,293.6113],[31.1698,-24.0586,292.7978],[31.1626,-24.06,292.3432],[31.1471,-24.0697,304.7169],[31.1338,-24.0737,305.0],[31.1206,-24.0682,306.8308],[31.1015,-24.0706,312.2483],[31.0942,-24.0755,308.9205],[31.0731,-24.0827,315.2034],[31.0634,-24.0915,315.3948],[31.086,-24.0945,401.5623],[31.1206,-24.0903,340.3636],[31.1151,-24.1192,391.706],[31.0961,-24.1174,400.926],[31.1073,-24.1457,431.757],[31.0499,-24.1873,430.8296],[31.0544,-24.2319,478.8547],[31.0604,-24.2718,477.6372],[31.056,-24.3219,476.8023],[31.1022,-24.3237,479.6738],[31.1525,-24.3187,448.2609],[31.2001,-24.305,465.144],[31.242,-24.3654,470.2492],[31.16,-24.3756,467.9514],[31.16,-24.4374,509.602],[31.2032,-24.4265,517.5305],[31.2537,-24.4991,518.1112],[31.2262,-24.556,520.9554],[31.0537,-24.5703,655.5724],[30.9593,-24.5821,685.8248],[30.9543,-24.5213,664.8846],[30.9089,-24.5258,837.8264],[30.8717,-24.5385,1814.5959],[30.7993,-24.4989,1492.2078],[30.759,-24.4602,1776.6821],[30.7302,-24.4985,1357.801],[30.7323,-24.5481,892.2186],[30.7303,-24.6087,1291.3612],[30.7015,-24.5864,1501.1938],[30.6792,-24.6237,1378.0264],[30.7097,-24.6674,1567.5801],[30.7201,-24.7052,1532.6078],[30.6855,-24.7324,1808.7985],[30.6786,-24.7358,1758.0704],[30.6366,-24.7341,1366.4037],[30.6337,-24.7585,1373.2845],[30.6642,-24.7746,1593.1965],[30.6562,-24.8117,1636.6355],[30.6349,-24.8528,1589.667],[30.6187,-24.8442,1417.776],[30.6084,-24.8724,1723.8284],[30.58,-24.8874,1236.4258],[30.5812,-24.9169,1720.1592],[30.5629,-24.8965,1487.5796],[30.4963,-24.9147,1519.0037],[30.4942,-24.9533,1515.2627],[30.4515,-24.912,1425.9489],[30.438,-24.8643,1379.3173],[30.4251,-24.8549,1281.8212],[30.3897,-24.8495,878.6819],[30.3908,-24.8521,882.0217],[30.3897,-24.8603,927.925],[30.3916,-24.8623,892.7285],[30.396,-24.861,947.9929],[30.3986,-24.8683,921.0901],[30.3965,-24.8712,909.4311],[30.3542,-24.8493,1352.9545],[30.3529,-24.8834,1649.874],[30.3109,-24.8729,947.2689],[30.3086,-24.8754,955.334],[30.31,-24.8806,954.822],[30.3124,-24.8825,960.2652],[30.3117,-24.8838,960.1416],[30.3088,-24.8827,972.3098],[30.308,-24.885,966.892],[30.3063,-24.8843,985.9506],[30.3068,-24.8815,994.5568],[30.2973,-24.8677,1426.7808],[30.192,-24.8555,1599.1931],[30.1785,-24.9221,1350.5686],[30.1717,-24.9698,1305.5529],[30.1721,-24.9892,1381.6886],[30.1795,-24.9896,1377.8092],[30.1792,-24.9991,1474.1637],[30.1972,-25.0309,1817.0413],[30.1987,-25.0364,1838.2549],[30.1593,-25.028,1415.2583],[30.1485,-25.0324,1301.1158],[30.1486,-25.09,1666.2716],[30.1444,-25.0912,1560.8577],[30.1444,-25.1238,1549.7026],[30.1211,-25.1209,1170.5193],[30.0909,-25.1255,2030.3224],[30.0902,-25.1081,2091.6641],[30.0299,-25.0641,1887.5096],[30.0298,-25.0846,1952.0972],[29.979,-25.0921,1698.2791],[30.0054,-25.1444,1894.5951],[30.0098,-25.2313,1867.6292],[30.0129,-25.231,1845.4772],[30.0007,-25.2795,1806.0634],[30.0062,-25.3403,1842.3058],[29.9906,-25.3382,1808.3212],[29.9935,-25.3547,1886.4075],[30.0255,-25.3677,2115.2188],[30.0834,-25.2941,2080.9065],[30.1031,-25.2747,2242.7493],[30.1066,-25.2654,2150.5022],[30.1117,-25.265,2088.1758],[30.1218,-25.2426,2197.6323],[30.1152,-25.2417,2199.7571],[30.1258,-25.2123,1972.3696],[30.1418,-25.2364,2268.6992],[30.1432,-25.2458,2232.6562],[30.1761,-25.2668,2167.488],[30.1803,-25.2745,2058.5049],[30.1869,-25.2731,1942.4492],[30.1908,-25.2758,1917.8792],[30.1901,-25.2938,2001.6437],[30.1944,-25.3021,2091.1602],[30.1968,-25.2946,2064.5874],[30.2034,-25.3085,2010.5638],[30.1881,-25.3203,2004.804],[30.2056,-25.3568,1897.9438],[30.2235,-25.366,1772.1118],[30.2273,-25.3495,1875.6826],[30.2517,-25.3573,1821.0426],[30.2392,-25.4108,1911.4874],[30.2433,-25.4096,1914.2423],[30.2295,-25.4324,1809.634],[30.2312,-25.4346,1821.9039],[30.2626,-25.473,1795.7954],[30.2789,-25.4529,1832.153],[30.3014,-25.445,1346.2212],[30.351,-25.4925,1601.0515],[30.3875,-25.4483,1570.8198],[30.3887,-25.4493,1581.9314],[30.4178,-25.4235,1595.2509],[30.4014,-25.3808,1141.3455],[30.4243,-25.3525,1578.5415],[30.4492,-25.345,1545.9799],[30.4424,-25.3808,1099.8535],[30.4525,-25.4103,1394.8947],[30.4596,-25.4108,1255.2981],[30.4801,-25.4524,1680.9669],[30.4807,-25.4618,1723.1104],[30.5005,-25.4511,1397.8245],[30.5105,-25.4758,1782.0056],[30.5309,-25.4664,1868.9333],[30.5501,-25.4693,1887.5426],[30.5572,-25.4781,1921.3259],[30.5623,-25.478,1825.2847],[30.5653,-25.4812,2000.2141],[30.5341,-25.536,1927.7889],[30.5408,-25.5544,1824.9664],[30.5739,-25.557,1759.9963],[30.5862,-25.5516,1700.86],[30.5937,-25.5541,1620.9269],[30.6108,-25.5919,942.0434],[30.6326,-25.6297,1709.2119],[30.6257,-25.6373,1718.536],[30.6152,-25.6395,1697.292],[30.6081,-25.6553,1628.556],[30.6656,-25.673,1208.6942],[30.6466,-25.7124,1601.09],[30.7327,-25.7414,1840.2207],[30.7251,-25.7592,1680.6595],[30.7301,-25.7725,1652.6277],[30.7394,-25.7886,1604.9219],[30.7523,-25.7983,1605.4087],[30.7519,-25.8015,1660.9033],[30.7495,-25.8039,1629.0823],[30.7522,-25.8226,1637.8723],[30.7611,-25.8313,1638.2833],[30.7707,-25.85,1568.3896],[30.7668,-25.8553,1617.7322],[30.7736,-25.8619,1599.3787],[30.7968,-25.8633,1470.3274],[30.8143,-25.8685,1458.9668],[30.823,-25.8765,1473.2545],[30.821,-25.9093,1578.2726],[30.8126,-25.9154,1566.4417],[30.8499,-25.9263,1732.9044],[30.8803,-25.9251,1763.3558],[30.9243,-25.9312,1730.6943],[30.9681,-25.9348,1567.7089],[31.0395,-25.8663,1842.5977],[31.0426,-25.8841,1827.3658],[31.0439,-25.9126,1665.3081],[31.0557,-25.9239,1508.1665],[31.1266,-25.9212,1831.856],[31.2104,-25.8528,723.3297]]]]}
,"properties": {"GID_2": "ZAF.6.1_1","GID_0": "ZAF","country": "SouthAfrica","GID_1": "ZAF.6_1","province": "Mpumalanga","NL_NAME_1": "NA","county": "Ehlanzeni","VARNAME_2": "NA","NL_NAME_2": "NA","TYPE_2": "DistrictMunicipality","ENGTYPE_2": "DistrictMunicipality","CC_2": "DC32","HASC_2": "ZA.MP.EH","name": "Ehlanzeni.county","area_km2": 27954.0,"hist_schema_id": "Elevation0-9000","hist_area_km2": {"100": 0.69,"125": 12.98,"150": 110.05,"175": 388.53,"200": 738.76,"225": 1036.12,"250": 1422.91,"275": 1708.76,"300": 1655.21,"325": 1435.86,"350": 1296.68,"375": 1246.06,"400": 1119.17,"425": 952.09,"450": 798.14,"475": 659.13,"500": 541.36,"525": 457.67,"550": 393.98,"575": 344.84,"600": 297.38,"625": 281.15,"650": 282.13,"675": 285.92,"700": 273.51,"725": 268.81,"750": 266.4,"775": 273.79,"800": 269.02,"825": 276.29,"850": 279.47,"875": 285.33,"900": 278.6,"925": 272.03,"950": 258.04,"975": 234.53,"1000": 212.81,"1025": 198.98,"1050": 189.54,"1075": 182.06,"1100": 174.15,"1125": 175.82,"1150": 181.43,"1175": 195.6,"1200": 203.51,"1225": 217.66,"1250": 229.58,"1275": 240.26,"1300": 244.21,"1325": 247.56,"1350": 254.76,"1375": 273.41,"1400": 270.66,"1425": 263.12,"1450": 248.44,"1475": 236.79,"1500": 223.67,"1525": 218.18,"1550": 194.2,"1575": 174.31,"1600": 160.45,"1625": 149.12,"1650": 136.77,"1675": 130.41,"1700": 114.74,"1725": 111.86,"1750": 123.84,"1775": 131.45,"1800": 124.57,"1825": 112.4,"1850": 104.76,"1875": 99.61,"1900": 92.38,"1925": 79.9,"1950": 67.02,"1975": 54.28,"2000": 46.53,"2025": 41.14,"2050": 31.08,"2075": 23.58,"2100": 20.17,"2125": 16.7,"2150": 10.94,"2175": 5.83,"2200": 3.78,"2225": 2.88,"2250": 2.28,"2275": 1.9,"2300": 1.3}}}