{"type": "Feature","bbox": [31.157,-28.7781,31.5952,-28.3744],"geometry": {"type": "MultiPolygon","coordinates": [[[[31.4638,-28.7507,374.3019],[31.4655,-28.7404,251.6843],[31.5209,-28.7134,289.3433],[31.5812,-28.7031,187.2321],[31.585,-28.6955,328.5645],[31.5814,-28.692,355.8324],[31.5701,-28.6877,459.7332],[31.5666,-28.6906,471.8739],[31.556,-28.6764,525.3371],[31.5418,-28.6821,549.7507],[31.534,-28.6729,566.5794],[31.5354,-28.6714,566.5794],[31.5383,-28.6531,456.3549],[31.5418,-28.6467,351.2295],[31.5461,-28.6424,335.1098],[31.5538,-28.6403,280.6],[31.5616,-28.641,265.2668],[31.5623,-28.6389,247.0046],[31.568,-28.6382,253.9544],[31.568,-28.6347,254.8459],[31.5616,-28.6241,242.6671],[31.5701,-28.6184,299.6155],[31.5701,-28.6113,253.731],[31.5666,-28.6099,260.206],[31.5623,-28.6177,244.1606],[31.556,-28.6184,255.2005],[31.5475,-28.6163,260.2736],[31.5453,-28.6226,277.2557],[31.539,-28.6241,275.2441],[31.5361,-28.6233,293.0472],[31.5383,-28.6191,280.7397],[31.5376,-28.6156,284.8703],[31.5333,-28.6163,316.5302],[31.5305,-28.6078,293.3775],[31.5248,-28.6035,323.2599],[31.5199,-28.5972,346.7812],[31.5156,-28.5993,336.4314],[31.5121,-28.5908,377.5038],[31.5036,-28.5894,406.3811],[31.5057,-28.5943,406.9532],[31.505,-28.6,408.3506],[31.5015,-28.6021,433.6422],[31.5001,-28.5957,447.1873],[31.4876,-28.5964,446.2763],[31.4964,-28.539,484.48],[31.5035,-28.5396,454.0387],[31.5036,-28.5423,445.3074],[31.5062,-28.5442,448.1962],[31.5039,-28.5468,478.6464],[31.5067,-28.5498,524.9368],[31.508,-28.5542,540.5612],[31.5197,-28.5562,379.6441],[31.5208,-28.553,360.4542],[31.5232,-28.555,399.9684],[31.5249,-28.5534,365.421],[31.5337,-28.5552,380.0029],[31.537,-28.5536,451.3666],[31.5348,-28.5517,377.8833],[31.5377,-28.5414,480.3186],[31.549,-28.5355,571.8584],[31.5506,-28.5302,646.3491],[31.5595,-28.5207,552.2315],[31.5694,-28.5177,492.6075],[31.5726,-28.52,453.0825],[31.5758,-28.5198,435.1498],[31.5782,-28.5237,414.5349],[31.5801,-28.5219,417.8424],[31.5776,-28.5192,428.767],[31.5801,-28.5178,442.9226],[31.5806,-28.5148,448.4045],[31.579,-28.5145,458.5322],[31.5779,-28.5101,494.3848],[31.5742,-28.5061,520.6344],[31.5769,-28.5046,500.6306],[31.5773,-28.5014,531.6781],[31.5724,-28.4987,551.4348],[31.5709,-28.4953,565.861],[31.5676,-28.4954,578.919],[31.5654,-28.4874,529.4045],[31.5752,-28.4797,480.4596],[31.5775,-28.4812,471.9735],[31.5817,-28.4791,477.3102],[31.5833,-28.4804,459.8454],[31.5867,-28.4789,454.8456],[31.589,-28.48,451.7633],[31.5909,-28.4753,438.4161],[31.5952,-28.4711,418.0874],[31.5866,-28.4666,463.4953],[31.5808,-28.4556,673.7115],[31.5702,-28.4471,438.9608],[31.5672,-28.4412,386.8631],[31.5681,-28.4362,389.9484],[31.5706,-28.4331,359.3773],[31.5693,-28.4324,350.8766],[31.5699,-28.4299,343.6577],[31.5663,-28.423,323.8982],[31.5663,-28.4193,303.6252],[31.5641,-28.4174,305.1949],[31.5753,-28.408,270.0139],[31.5753,-28.4045,258.6176],[31.5793,-28.4001,249.7985],[31.583,-28.3992,242.7866],[31.5826,-28.3929,242.3741],[31.5886,-28.3866,217.5303],[31.5915,-28.3866,209.311],[31.5858,-28.3782,211.3829],[31.5803,-28.3752,212.7768],[31.5745,-28.3744,256.0332],[31.567,-28.3762,239.2783],[31.5638,-28.3863,245.6434],[31.5594,-28.3903,258.1519],[31.5514,-28.3829,263.9565],[31.5424,-28.3833,228.4991],[31.5355,-28.387,234.4412],[31.5342,-28.3902,238.4515],[31.5361,-28.3945,249.6944],[31.5422,-28.4018,241.9499],[31.5515,-28.4062,271.0729],[31.553,-28.4092,278.993],[31.552,-28.4113,259.6021],[31.541,-28.416,259.784],[31.531,-28.4338,250.721],[31.5259,-28.4359,253.071],[31.5187,-28.4349,268.9174],[31.5158,-28.4298,257.5676],[31.5173,-28.4229,263.6352],[31.5133,-28.4217,259.9928],[31.5077,-28.4232,270.1113],[31.4937,-28.4338,266.5234],[31.4954,-28.4427,270.5744],[31.501,-28.4557,329.5281],[31.5044,-28.472,388.1083],[31.4761,-28.4695,322.4234],[31.4455,-28.4772,417.8754],[31.4109,-28.4586,835.0156],[31.386,-28.4263,650.4516],[31.3585,-28.3939,621.4446],[31.3494,-28.3892,622.9727],[31.3437,-28.4008,662.531],[31.3332,-28.4082,737.7136],[31.3289,-28.4159,767.6116],[31.329,-28.4241,794.366],[31.3319,-28.4314,826.1871],[31.3279,-28.4406,806.0388],[31.3295,-28.4492,863.27],[31.3089,-28.4699,1009.4518],[31.3013,-28.4601,803.7051],[31.2755,-28.4832,972.9845],[31.2491,-28.4622,840.8436],[31.2227,-28.4791,1074.6815],[31.2198,-28.477,1005.5582],[31.1895,-28.4994,1117.5101],[31.2074,-28.5137,1178.6176],[31.2031,-28.5158,1195.9232],[31.1991,-28.513,1182.1144],[31.1897,-28.5112,1211.1415],[31.1864,-28.5157,1203.2294],[31.1873,-28.5273,1139.0308],[31.1843,-28.5369,1065.3254],[31.1721,-28.5428,1035.8818],[31.1696,-28.5478,987.0319],[31.1612,-28.5526,907.8389],[31.1585,-28.5511,866.0961],[31.157,-28.5521,869.7151],[31.1592,-28.5555,877.3337],[31.1636,-28.5555,884.7519],[31.1648,-28.5576,868.0831],[31.1634,-28.5643,886.7755],[31.1646,-28.5678,861.1675],[31.1626,-28.5744,854.1888],[31.1642,-28.5776,845.1538],[31.1615,-28.5819,835.0379],[31.1623,-28.5836,840.1718],[31.1713,-28.5871,815.0096],[31.1709,-28.5889,814.0166],[31.1676,-28.5884,832.9199],[31.1706,-28.596,809.3298],[31.1699,-28.5982,808.3619],[31.1741,-28.6039,829.0215],[31.1725,-28.6113,770.652],[31.1803,-28.6203,710.0685],[31.1841,-28.6206,693.9429],[31.1917,-28.6171,673.1973],[31.1934,-28.6192,675.2477],[31.1923,-28.6249,654.3605],[31.1966,-28.6263,649.9033],[31.1972,-28.6373,608.2736],[31.1927,-28.6467,597.2969],[31.1988,-28.6492,584.392],[31.2079,-28.6472,581.256],[31.2096,-28.6433,577.9066],[31.2118,-28.6432,568.9237],[31.2162,-28.6448,561.7628],[31.2145,-28.6485,602.8641],[31.2165,-28.6506,563.055],[31.2201,-28.6514,579.9045],[31.2232,-28.6476,600.9991],[31.2266,-28.6512,543.605],[31.2345,-28.6455,536.819],[31.2335,-28.6381,525.8873],[31.2376,-28.6367,519.6379],[31.2436,-28.6393,517.1299],[31.2442,-28.6402,558.858],[31.24,-28.643,515.5161],[31.2419,-28.6459,510.4473],[31.2486,-28.6447,502.2288],[31.2499,-28.6503,532.3066],[31.255,-28.6497,503.6826],[31.2515,-28.6608,500.4086],[31.257,-28.6623,497.8943],[31.2598,-28.6677,489.6058],[31.2647,-28.6671,512.8523],[31.2643,-28.6749,465.8149],[31.2625,-28.678,461.943],[31.2677,-28.68,457.967],[31.2701,-28.6834,490.9941],[31.2746,-28.6855,445.4101],[31.2729,-28.6897,484.2426],[31.2618,-28.6847,433.4583],[31.2524,-28.6897,434.5192],[31.2531,-28.6995,400.7756],[31.2623,-28.7041,383.597],[31.278,-28.6986,365.2935],[31.2799,-28.7025,376.2814],[31.2731,-28.7131,355.7654],[31.2755,-28.7182,364.1877],[31.2795,-28.7169,357.6852],[31.285,-28.7107,393.0169],[31.2917,-28.7186,359.6244],[31.3059,-28.7169,358.5917],[31.3145,-28.7232,372.784],[31.3193,-28.7199,325.0445],[31.3283,-28.7202,355.6407],[31.3274,-28.7146,319.0525],[31.3309,-28.7142,335.4543],[31.3364,-28.7285,344.1726],[31.3358,-28.7313,324.5607],[31.3417,-28.7321,305.6311],[31.3379,-28.7396,294.2424],[31.3311,-28.7455,274.7657],[31.3287,-28.7464,316.544],[31.3237,-28.7449,272.3243],[31.3171,-28.7514,301.2823],[31.3217,-28.7525,262.8922],[31.3349,-28.7506,291.1215],[31.3343,-28.7592,257.9436],[31.3368,-28.764,248.6745],[31.3439,-28.7609,265.4453],[31.3483,-28.7637,242.9886],[31.3487,-28.7683,265.1772],[31.3465,-28.7773,238.3542],[31.3505,-28.7781,245.9351],[31.3559,-28.7764,250.0858],[31.3629,-28.7688,225.8086],[31.3718,-28.7748,243.9263],[31.3791,-28.7684,212.4226],[31.3855,-28.7713,222.8439],[31.3958,-28.7732,210.1821],[31.3988,-28.7772,210.8359],[31.4027,-28.775,211.2955],[31.4094,-28.7764,209.5],[31.4134,-28.7736,209.5],[31.4137,-28.7648,209.5],[31.4187,-28.7656,209.5],[31.4316,-28.7743,209.5],[31.437,-28.7758,209.5],[31.4388,-28.7737,209.5],[31.4357,-28.7598,209.5],[31.4399,-28.758,209.5],[31.4451,-28.759,209.5],[31.4502,-28.7622,209.5],[31.4563,-28.7688,209.5],[31.4604,-28.777,209.5],[31.4638,-28.7507,374.3019]]]]}
,"properties": {"GID_3": "ZAF.4.10.2_1","GID_0": "ZAF","country": "SouthAfrica","GID_1": "ZAF.4_1","province": "KwaZulu-Natal","NL_NAME_1": "NA","GID_2": "ZAF.4.10_1","county": "Uthungulu","NL_NAME_2": "NA","city": "Mthonjaneni","VARNAME_3": "NA","NL_NAME_3": "NA","TYPE_3": "LocalMunicipality","ENGTYPE_3": "LocalMunicipality","CC_3": "KZN285","HASC_3": "NA","name": "Mthonjaneni.city","area_km2": 1087.7627,"hist_schema_id": "Elevation0-9000","hist_area_km2": {"175": 0.2789,"200": 5.8186,"225": 7.4614,"250": 9.8274,"275": 11.2446,"300": 12.6969,"325": 14.2967,"350": 16.0827,"375": 16.1913,"400": 17.4744,"425": 20.2464,"450": 22.4802,"475": 27.0215,"500": 29.5151,"525": 33.3143,"550": 36.6845,"575": 37.8239,"600": 39.503,"625": 43.2282,"650": 48.1804,"675": 46.5073,"700": 46.1357,"725": 41.7414,"750": 41.8702,"775": 40.0996,"800": 40.0634,"825": 36.4921,"850": 34.9863,"875": 36.104,"900": 38.171,"925": 36.6641,"950": 32.5721,"975": 28.1235,"1000": 27.2506,"1025": 25.7247,"1050": 21.3665,"1075": 17.531,"1100": 12.5205,"1125": 11.924,"1150": 10.7128,"1175": 6.8192,"1200": 2.7949,"1225": 1.3788,"1250": 0.5031,"1275": 0.3354}}}