{"type":"Feature","properties":{"GID_3":"ZAF.5.5.1_1","GID_0":"ZAF","country":"SouthAfrica","GID_1":"ZAF.5_1","province":"Limpopo","NL_NAME_1":"NA","GID_2":"ZAF.5.5_1","county":"Waterberg","NL_NAME_2":"NA","city":"Bela-Bela","VARNAME_3":"NA","NL_NAME_3":"NA","TYPE_3":"LocalMunicipality","ENGTYPE_3":"LocalMunicipality","CC_3":"LIM366","HASC_3":"NA","name":"Bela-Bela.city"},
"geometry":{"type": "MultiPolygon","coordinates": [[[[28.4187,-25.3221,1117.5137],[28.4337,-25.3224,1103.2545],[28.4393,-25.3102,1082.0006],[28.5036,-25.3088,1158.9054],[28.5012,-25.2654,1076.6293],[28.5133,-25.2561,1132.7595],[28.5643,-25.2521,1126.0602],[28.5637,-25.2494,1092.5542],[28.5948,-25.2494,1047.2666],[28.6029,-25.2542,1033.8601],[28.6047,-25.2535,1031.4563],[28.6044,-25.2521,1029.344],[28.6313,-25.2802,1056.0458],[28.6593,-25.2348,1007.1438],[28.6643,-25.2518,1052.9321],[28.6712,-25.2477,1017.4661],[28.6691,-25.2414,1014.3054],[28.6757,-25.2347,1008.7713],[28.6756,-25.227,1000.3626],[28.6799,-25.2202,995.5546],[28.6768,-25.2171,991.0802],[28.6786,-25.2108,987.8907],[28.6553,-25.2135,985.9887],[28.6381,-25.1866,976.2468],[28.6381,-25.1839,977.3893],[28.6159,-25.1516,1003.2106],[28.6516,-25.1429,996.2341],[28.6489,-25.1129,1000.2932],[28.635,-25.1183,1001.1304],[28.6361,-25.1281,994.7316],[28.5967,-25.1385,1004.2089],[28.5961,-25.1426,1006.1946],[28.5366,-25.1524,1045.7395],[28.5321,-25.1698,1025.3793],[28.4977,-25.1818,1046.4249],[28.4616,-25.2015,1075.606],[28.4514,-25.2033,1086.3804],[28.3869,-25.2134,1063.2268],[28.411,-25.2048,1075.2112],[28.3919,-25.1642,1110.7148],[28.3793,-25.1553,1089.7759],[28.4005,-25.1478,1095.3468],[28.443,-25.129,1070.1079],[28.4466,-25.1359,1069.5332],[28.4952,-25.1318,1051.2],[28.4737,-25.0893,1047.0042],[28.6069,-25.0704,1006.7924],[28.6095,-25.0599,1000.9346],[28.6343,-25.0582,991.0466],[28.6057,-25.0034,1021.084],[28.6338,-24.9844,1027.5366],[28.6588,-24.9722,1028.7234],[28.7138,-24.9536,1024.4514],[28.6576,-24.8377,1089.6765],[28.6202,-24.8522,1095.2498],[28.6148,-24.8398,1102.4309],[28.584,-24.8566,1097.3722],[28.5769,-24.842,1110.033],[28.5049,-24.8735,1112.5049],[28.5009,-24.8823,1108.3076],[28.4763,-24.8319,1158.2164],[28.4502,-24.8452,1168.6176],[28.4237,-24.82,1172.5104],[28.4217,-24.8216,1171.1484],[28.4137,-24.8139,1235.6356],[28.4153,-24.8119,1246.7827],[28.3661,-24.7865,1339.8992],[28.3562,-24.7896,1331.2491],[28.3543,-24.7935,1326.7301],[28.3559,-24.7996,1324.6389],[28.3522,-24.7978,1319.6675],[28.3506,-24.8013,1347.7061],[28.2921,-24.7957,1424.8678],[28.2762,-24.752,1446.8494],[28.2614,-24.7487,1461.5942],[28.2414,-24.7504,1481.4679],[28.2407,-24.7519,1484.1239],[28.2106,-24.7306,1462.869],[28.1817,-24.7394,1610.1526],[28.1761,-24.6816,1569.2036],[28.1392,-24.6667,1584.3979],[28.0949,-24.6303,1452.6508],[27.996,-24.6384,1605.1125],[27.9835,-24.6375,1640.8187],[27.968,-24.631,1606.7019],[27.8951,-24.5827,1682.7144],[27.8866,-24.6231,1157.84],[27.8647,-24.6952,1233.7662],[27.8267,-24.7133,1165.8625],[27.8707,-24.7684,1383.8491],[27.8371,-24.8137,1316.8922],[27.831,-24.8494,1397.5278],[27.8321,-24.8514,1384.8545],[27.8475,-24.8621,1239.5255],[27.8524,-24.8515,1242.9059],[27.8696,-24.8531,1176.8535],[27.8599,-24.8714,1204.7415],[27.9179,-24.8811,1104.4545],[27.9779,-24.901,1067.1067],[27.9922,-24.9249,1086.2664],[27.9876,-24.9466,1064.7012],[27.9836,-24.9578,1056.3074],[27.9976,-24.9735,1043.4056],[28.0178,-24.9741,1057.0403],[28.037,-24.9853,1084.2793],[28.0378,-24.9838,1082.0386],[28.0801,-24.9795,1092.467],[28.12,-24.9795,1103.6392],[28.1252,-25.0048,1120.7861],[28.1587,-25.0206,1107.0024],[28.2598,-25.0504,1061.6968],[28.2171,-25.113,1066.2085],[28.2171,-25.1229,1069.8569],[28.215,-25.1282,1064.6544],[28.1983,-25.1276,1048.9996],[28.1738,-25.12,1032.0435],[28.1751,-25.1136,1030.7778],[28.1539,-25.0868,1079.974],[28.1179,-25.0981,1082.3951],[28.0839,-25.1004,1083.5385],[28.0944,-25.1485,1027.0637],[28.129,-25.1457,1017.8536],[28.1357,-25.2056,1023.6177],[28.1695,-25.2094,1033.6831],[28.2112,-25.1981,1037.6553],[28.2463,-25.2129,1042.9185],[28.2598,-25.2387,1047.3221],[28.2982,-25.2932,1055.8541],[28.2982,-25.3104,1058.1809],[28.3792,-25.2921,1087.4193],[28.3826,-25.3211,1097.0343],[28.4187,-25.3221,1117.5137]]]]}}