{"type":"Feature","properties":{"GID_3":"ZAF.9.5.1_1","GID_0":"ZAF","country":"SouthAfrica","GID_1":"ZAF.9_1","province":"WesternCape","NL_NAME_1":"NA","GID_2":"ZAF.9.5_1","county":"Overberg","NL_NAME_2":"NA","city":"CapeAgulhas","VARNAME_3":"NA","NL_NAME_3":"NA","TYPE_3":"LocalMunicipality","ENGTYPE_3":"LocalMunicipality","CC_3":"WC033","HASC_3":"NA","name":"Cape_Agulhas.city"},
"geometry":{"type": "MultiPolygon","coordinates": [[[[20.2439,-34.6487,0.0],[20.2526,-34.6424,0.2021],[20.2732,-34.6321,0.5626],[20.3035,-34.6226,0.4925],[20.3151,-34.6176,0.7622],[20.3215,-34.6126,3.0744],[20.3279,-34.611,0.0],[20.3382,-34.5996,0.0],[20.3404,-34.5951,0.7834],[20.3451,-34.5915,0.0],[20.3876,-34.5737,0.0],[20.3937,-34.5735,0.0],[20.3974,-34.5704,0.0],[20.4007,-34.5724,0.0],[20.4007,-34.569,0.9181],[20.4029,-34.5679,1.3329],[20.4115,-34.5551,3.2749],[20.416,-34.5451,0.0],[20.419,-34.5435,0.0],[20.4207,-34.5351,1.8982],[20.4271,-34.5265,1.0935],[20.4496,-34.5057,3.4185],[20.4796,-34.489,10.8094],[20.4993,-34.4818,4.1672],[20.5151,-34.4785,0.0],[20.5138,-34.4768,5.8283],[20.524,-34.4757,0.0],[20.5338,-34.4701,0.0],[20.5515,-34.4663,0.0],[20.5557,-34.4668,0.0],[20.5585,-34.4643,7.6304],[20.5654,-34.4635,0.0],[20.5668,-34.4618,0.0],[20.5757,-34.461,0.0],[20.5765,-34.459,12.6197],[20.6168,-34.4524,6.3144],[20.6688,-34.4493,19.4658],[20.6796,-34.4538,0.0],[20.6854,-34.4538,0.0],[20.6913,-34.4512,19.7738],[20.7121,-34.4532,0.0],[20.714,-34.4551,0.0],[20.7185,-34.4532,0.0],[20.7185,-34.4543,0.0],[20.7243,-34.4557,0.0],[20.7332,-34.4535,0.6988],[20.7349,-34.4565,0.0],[20.741,-34.4554,0.5011],[20.7479,-34.4576,0.0],[20.7521,-34.4568,0.0],[20.7582,-34.4596,0.0],[20.7615,-34.4588,0.8987],[20.7724,-34.4621,0.0],[20.7768,-34.4607,20.3536],[20.784,-34.4637,0.0],[20.7946,-34.464,24.8248],[20.7971,-34.4671,0.0],[20.8154,-34.4693,22.7236],[20.8193,-34.4726,0.0],[20.8235,-34.471,16.198],[20.829,-34.4721,0.0],[20.8315,-34.4699,8.6809],[20.834,-34.4718,0.0],[20.8374,-34.4699,0.0],[20.8474,-34.4751,0.0],[20.8507,-34.4715,0.0],[20.8521,-34.4726,0.0],[20.8546,-34.4715,0.0],[20.8524,-34.4685,0.0],[20.8559,-34.4648,0.6508],[20.859,-34.4643,12.1996],[20.8618,-34.466,1.1211],[20.8643,-34.4649,0.0],[20.8699,-34.4668,0.0],[20.8688,-34.4624,0.0],[20.8657,-34.4593,1.4325],[20.8729,-34.4515,0.0],[20.8713,-34.4499,0.0],[20.871,-34.4501,0.0],[20.8721,-34.4509,0.0],[20.8714,-34.4524,0.5989],[20.8181,-34.443,181.4699],[20.8168,-34.4289,99.6587],[20.7821,-34.4242,103.4401],[20.775,-34.4265,143.6815],[20.7741,-34.4235,174.349],[20.7629,-34.4172,296.0648],[20.7118,-34.4127,283.1658],[20.6878,-34.4176,399.3586],[20.6829,-34.3888,90.3267],[20.6593,-34.3992,205.8719],[20.6009,-34.3826,357.6893],[20.6026,-34.3798,264.0689],[20.5611,-34.3633,298.4903],[20.5317,-34.3605,287.7236],[20.5271,-34.3614,289.5492],[20.528199999999998,-34.3646,244.1217],[20.5194,-34.3658,180.7968],[20.5178,-34.3732,138.2003],[20.5111,-34.3713,160.0065],[20.4834,-34.373,123.2481],[20.4848,-34.4013,190.9709],[20.5,-34.4061,197.0113],[20.5085,-34.4195,168.7529],[20.4547,-34.417,179.5024],[20.4186,-34.4268,97.3283],[20.4198,-34.4186,192.2205],[20.392,-34.4263,171.3538],[20.3573,-34.3884,113.7452],[20.3307,-34.3986,137.6636],[20.2891,-34.4178,149.1534],[20.2715,-34.375,107.845],[20.2637,-34.375,106.361],[20.2863,-34.3451,163.7524],[20.2857,-34.3371,152.5751],[20.2818,-34.338,131.8724],[20.2675,-34.3136,184.6048],[20.2827,-34.302,284.7899],[20.2913,-34.2763,188.288],[20.2621,-34.2742,283.1497],[20.2449,-34.2889,187.6405],[20.2119,-34.2883,227.1726],[20.1772,-34.2752,177.4398],[20.175,-34.2793,158.1143],[20.1486,-34.2712,213.0175],[20.134,-34.2504,204.6785],[20.1113,-34.2427,212.4619],[20.0948,-34.2506,226.2472],[20.0655,-34.2413,232.0292],[20.0635,-34.217,273.0027],[20.0324,-34.2036,267.5757],[20.011,-34.2206,276.8452],[19.9778,-34.2132,282.1545],[19.94,-34.2396,252.4584],[19.9177,-34.2383,288.9351],[19.8804,-34.2201,288.5941],[19.8561,-34.2336,223.7795],[19.8502,-34.2588,210.8795],[19.8458,-34.2615,217.1762],[19.8375,-34.2603,219.3339],[19.8468,-34.262,216.7231],[19.8501,-34.2596,216.4126],[19.8454,-34.2804,264.7054],[19.8052,-34.2786,261.6024],[19.7977,-34.2846,297.6607],[19.7944,-34.3207,301.0899],[19.7746,-34.3328,330.08],[19.7606,-34.3306,270.362],[19.7409,-34.3126,311.8549],[19.7342,-34.3166,269.3136],[19.7052,-34.3501,224.3219],[19.6918,-34.3489,200.6941],[19.6807,-34.3533,173.079],[19.675,-34.3604,157.1241],[19.6684,-34.3572,128.9257],[19.6645,-34.3439,137.2474],[19.6676,-34.3401,167.6222],[19.673,-34.3403,162.3497],[19.6728,-34.339,148.0462],[19.6772,-34.3375,152.937],[19.6691,-34.3211,229.5641],[19.6648,-34.3196,201.8458],[19.6512,-34.3592,150.7931],[19.6174,-34.3528,150.8698],[19.6154,-34.3811,202.4982],[19.6237,-34.3799,110.4209],[19.6304,-34.3651,65.4219],[19.6344,-34.3632,65.9557],[19.6373,-34.3644,67.615],[19.6407,-34.3721,72.5274],[19.6393,-34.3742,97.7318],[19.6402,-34.3761,62.9782],[19.6377,-34.3785,64.1562],[19.6287,-34.3802,84.2903],[19.6172,-34.3994,107.9062],[19.6246,-34.4032,142.7186],[19.6269,-34.4169,605.6946],[19.6637,-34.4167,624.0588],[19.6747,-34.4308,591.9586],[19.6959,-34.4322,695.3043],[19.7027,-34.4436,373.9518],[19.6947,-34.46,261.0819],[19.6987,-34.4663,352.0785],[19.7134,-34.4686,487.5086],[19.6867,-34.5164,477.4477],[19.7027,-34.5381,104.2144],[19.6922,-34.5479,103.9003],[19.6882,-34.5622,87.0839],[19.6936,-34.5756,119.6483],[19.7043,-34.5828,119.5818],[19.7095,-34.5963,246.5924],[19.7197,-34.5998,207.0648],[19.7102,-34.6303,176.9775],[19.7202,-34.6442,255.1478],[19.7146,-34.6878,83.1939],[19.7386,-34.7129,87.1014],[19.74,-34.7124,81.8302],[19.7334,-34.7455,13.2418],[19.7252,-34.766,6.466],[19.7324,-34.7679,2.5578],[19.7543,-34.7696,0.0],[19.7615,-34.7651,1.5924],[19.7676,-34.764,2.8086],[19.7785,-34.7643,8.2438],[19.7996,-34.7679,1.245],[19.8068,-34.7674,0.0],[19.8101,-34.7643,0.2903],[19.8229,-34.7626,2.5465],[19.8276,-34.7663,0.0],[19.8343,-34.7657,5.1086],[19.8451,-34.7687,0.0],[19.8537,-34.7687,0.0],[19.8576,-34.766,3.5435],[19.8638,-34.7682,0.0],[19.8751,-34.7668,1.0051],[19.8865,-34.7724,1.8937],[19.8907,-34.7821,0.0],[19.9051,-34.7846,0.0],[19.9076,-34.7879,2.6311],[19.9263,-34.7993,15.6374],[19.9363,-34.8082,0.0],[19.9363,-34.8099,0.1284],[19.9343,-34.8107,0.0],[19.9351,-34.8118,0.0],[19.9404,-34.8129,0.0],[19.9401,-34.814,0.0],[19.9337,-34.8135,0.0],[19.934,-34.8157,0.0],[19.9374,-34.8157,0.0],[19.9387,-34.8185,0.0],[19.9435,-34.819,0.0],[19.9438,-34.8154,1.6496],[19.9465,-34.8143,4.6949],[19.956,-34.8157,0.0],[19.9562,-34.819,0.0],[19.9587,-34.8196,-0.034],[19.959,-34.8224,0.0],[19.9646,-34.8215,0.0193],[19.9682,-34.8237,2.4887],[19.9682,-34.8251,0.3885],[19.965699999999998,-34.8249,0.0],[19.965699999999998,-34.8265,0.0],[19.9737,-34.8249,0.1044],[19.9713,-34.8257,0.0],[19.9715,-34.8276,0.0],[19.9735,-34.8262,0.1044],[19.9788,-34.8293,0.0465],[19.9849,-34.8299,0.4332],[19.984,-34.8321,0.0],[19.9893,-34.8335,0.0],[19.9901,-34.8351,0.0],[19.9918,-34.8326,2.1765],[19.9965,-34.8338,0.0],[20.0063,-34.8335,0.0],[20.0079,-34.8318,1.1298],[20.0129,-34.8329,0.1218],[20.0143,-34.8318,0.1218],[20.0118,-34.8288,0.648],[20.0179,-34.8262,-0.0758],[20.0151,-34.824,4.6854],[20.0279,-34.8249,0.0],[20.0296,-34.8213,0.0],[20.028199999999998,-34.8176,0.7355],[20.0307,-34.8168,0.0],[20.0301,-34.8146,0.0],[20.0551,-34.8146,0.0],[20.0593,-34.8126,0.0766],[20.0585,-34.809,0.1127],[20.0604,-34.8093,0.0],[20.0662,-34.8043,0.0],[20.0624,-34.8015,0.1509],[20.0637,-34.8001,0.0],[20.0593,-34.8004,1.2887],[20.056,-34.7979,0.0],[20.0524,-34.7988,2.9423],[20.0501,-34.7965,2.1525],[20.0499,-34.7929,0.0],[20.0471,-34.7887,1.6942],[20.0493,-34.7699,0.0],[20.0588,-34.7554,0.0],[20.0718,-34.7426,2.5295],[20.0826,-34.7349,0.0],[20.0829,-34.7332,0.0],[20.101,-34.7226,3.4768],[20.1162,-34.716,0.0603],[20.1113,-34.7121,0.1954],[20.1043,-34.7118,7.3796],[20.1026,-34.7088,1.0846],[20.0937,-34.7124,0.0],[20.0926,-34.7115,0.4475],[20.1029,-34.7076,0.7042],[20.1051,-34.7113,7.3796],[20.1218,-34.7104,0.6846],[20.1229,-34.7124,0.8103],[20.1651,-34.6954,3.2588],[20.1901,-34.6904,4.9873],[20.231,-34.6874,4.4249],[20.2346,-34.684,3.0497],[20.2335,-34.6746,0.0],[20.2357,-34.6707,0.0],[20.2332,-34.6671,0.0],[20.2343,-34.6626,0.0],[20.2332,-34.6604,0.633],[20.2374,-34.6568,0.0],[20.2368,-34.6554,8.9924],[20.2396,-34.6538,0.0],[20.241,-34.6501,0.0],[20.2439,-34.6487,0.0]]]]}}