{"type": "Feature","bbox": [28.3822,-31.5078,29.2076,-30.8296],"geometry": {"type": "MultiPolygon","coordinates": [[[[28.7574,-31.4807,735.0944],[28.7544,-31.4848,693.1681],[28.7559,-31.4869,695.9911],[28.7666,-31.4821,699.3157],[28.7683,-31.4774,698.5688],[28.7719,-31.4765,707.7913],[28.7811,-31.4796,740.082],[28.7858,-31.4849,767.0513],[28.8106,-31.4825,831.7738],[28.8162,-31.485,798.9354],[28.8159,-31.4882,797.8633],[28.8299,-31.4816,872.7418],[28.8449,-31.484,881.28],[28.8566,-31.4804,957.9185],[28.8598,-31.481,954.0137],[28.857,-31.4634,932.3448],[28.8507,-31.4571,984.2139],[28.853,-31.4482,991.759],[28.8509,-31.4492,1000.8777],[28.8496,-31.446,974.5281],[28.845,-31.4447,929.2596],[28.8457,-31.4421,960.5236],[28.8534,-31.4431,1005.0394],[28.8572,-31.4418,997.3254],[28.8624,-31.4209,1083.1458],[28.8604,-31.4144,1104.0142],[28.8495,-31.4011,1098.235],[28.8495,-31.3978,1089.061],[28.8738,-31.3757,1070.9922],[28.8748,-31.3689,1048.1646],[28.8786,-31.3602,1022.7928],[28.8783,-31.3559,978.4169],[28.8803,-31.355,958.0855],[28.8783,-31.3494,923.2626],[28.8808,-31.3473,954.0776],[28.881,-31.3402,1021.1022],[28.8774,-31.3395,1042.1526],[28.8724,-31.3315,1060.897],[28.8745,-31.3282,1077.0775],[28.8761,-31.3286,1078.0621],[28.8782,-31.323,1111.3555],[28.8853,-31.3216,1133.0247],[28.8908,-31.315,1122.9945],[28.9049,-31.3199,1108.6384],[28.926,-31.3173,1050.5818],[28.937,-31.3109,928.7363],[28.9663,-31.2984,987.4371],[28.9801,-31.2861,453.079],[28.9961,-31.2844,451.1508],[29.0014,-31.2858,514.8521],[29.0011,-31.2882,493.5702],[28.9984,-31.2914,437.7299],[28.9892,-31.2956,409.3542],[28.9882,-31.2975,452.4057],[28.9893,-31.2995,403.8348],[28.9952,-31.3007,398.6802],[29.0011,-31.2955,429.8694],[29.014,-31.2957,392.2862],[29.0209,-31.2922,391.5422],[29.0245,-31.2928,394.0268],[29.027,-31.2958,406.978],[29.0233,-31.3022,384.3353],[29.0184,-31.307,370.8782],[29.0091,-31.3087,371.2479],[29.0088,-31.3111,362.1244],[29.0147,-31.3133,354.4061],[29.0209,-31.3121,390.0193],[29.0375,-31.3148,343.6115],[29.0429,-31.3221,338.9152],[29.0718,-31.3223,319.7487],[29.0745,-31.3192,313.6792],[29.0727,-31.3139,328.32],[29.0764,-31.3125,339.4982],[29.083,-31.3128,304.582],[29.0826,-31.3058,303.9407],[29.0952,-31.2985,295.8007],[29.1005,-31.3011,356.7831],[29.0991,-31.3049,335.0632],[29.0951,-31.307,340.7393],[29.0982,-31.3166,281.4188],[29.1015,-31.3191,276.4395],[29.1044,-31.3189,302.3683],[29.1063,-31.316,341.7229],[29.1061,-31.3094,318.1934],[29.1044,-31.3063,271.4481],[29.1058,-31.3036,268.7492],[29.1246,-31.2997,262.6554],[29.1275,-31.3034,255.1173],[29.1234,-31.3161,270.0772],[29.1277,-31.3225,255.3261],[29.1456,-31.3216,246.1344],[29.1556,-31.3193,234.3409],[29.1668,-31.3067,243.6702],[29.1668,-31.305,251.1213],[29.161,-31.3016,220.3212],[29.1615,-31.2989,220.4104],[29.172,-31.2933,214.4447],[29.1895,-31.2935,217.0385],[29.1932,-31.2902,204.0567],[29.1923,-31.2849,243.4681],[29.1772,-31.2805,199.0055],[29.1736,-31.2756,216.9406],[29.1747,-31.2716,194.3082],[29.1783,-31.2701,188.31],[29.1904,-31.2748,182.069],[29.1915,-31.2688,210.5769],[29.1901,-31.2639,205.4853],[29.1855,-31.2607,202.3254],[29.1788,-31.2586,201.5258],[29.1727,-31.2598,249.0714],[29.1699,-31.2588,207.2489],[29.1728,-31.2347,231.5896],[29.169,-31.2282,261.1996],[29.1764,-31.2273,305.602],[29.175,-31.2263,296.8736],[29.1785,-31.2195,678.8417],[29.1772,-31.2166,708.6826],[29.1797,-31.2078,778.3123],[29.1835,-31.2082,845.2289],[29.1847,-31.211,814.8475],[29.1938,-31.2164,679.1269],[29.1932,-31.2145,692.7064],[29.1956,-31.2106,716.462],[29.1951,-31.2054,749.4684],[29.1984,-31.2024,782.1465],[29.2044,-31.1886,941.3254],[29.1996,-31.1891,976.9856],[29.1938,-31.1986,912.9838],[29.1876,-31.2034,876.9664],[29.1866,-31.2005,889.804],[29.1894,-31.1934,903.4858],[29.1883,-31.1904,829.6836],[29.1933,-31.1863,872.5729],[29.1964,-31.1896,963.0189],[29.2039,-31.1842,997.0502],[29.2076,-31.18,1019.5458],[29.2065,-31.1769,1014.803],[29.2075,-31.1724,1046.8577],[29.2009,-31.1693,1025.2136],[29.1999,-31.1659,1104.6844],[29.1882,-31.1686,1091.8047],[29.1694,-31.1676,1085.3275],[29.1673,-31.165,1101.0852],[29.1641,-31.1653,1126.2603],[29.1612,-31.1611,1119.0292],[29.1488,-31.1551,1094.2035],[29.1351,-31.1526,1098.8032],[29.1359,-31.1461,1137.7461],[29.1424,-31.139,1130.4524],[29.1353,-31.1203,1121.5537],[29.1349,-31.1088,1099.7634],[29.1307,-31.0972,1093.8241],[29.1329,-31.092,1117.9696],[29.1216,-31.0829,1045.4885],[29.1121,-31.0831,1036.9716],[29.1034,-31.0802,1063.3464],[29.0941,-31.0667,1120.7729],[29.0877,-31.0655,1125.8521],[29.0694,-31.0529,1057.9215],[29.0617,-31.0431,1049.0067],[29.0623,-31.0396,1057.8352],[29.0648,-31.0376,1035.822],[29.0629,-31.0349,1038.9741],[29.0604,-31.0346,1050.5828],[29.0606,-31.0324,999.3704],[29.0545,-31.0316,1059.1058],[29.0567,-31.0264,1057.907],[29.0491,-31.021,1036.0001],[29.0453,-31.0204,1079.0543],[29.043,-31.0152,1045.8477],[29.0429,-31.0103,1077.4657],[29.0366,-31.0075,1127.2056],[29.0319,-31.0091,1145.2211],[29.0268,-31.0041,1172.9404],[29.0154,-31.0029,1108.3141],[29.0133,-31.0062,1098.7878],[29.0144,-31.02,1083.2805],[29.003,-31.0185,984.3286],[28.9997,-31.0251,931.3143],[28.9957,-31.0273,915.0511],[28.9893,-31.0267,895.1199],[28.9834,-31.0228,873.6659],[28.9804,-31.0236,858.6437],[28.9789,-31.0273,837.6555],[28.9841,-31.0374,815.6721],[28.9777,-31.0419,820.2737],[28.9811,-31.0438,825.145],[28.9781,-31.0455,826.5665],[28.9826,-31.054,769.6423],[28.98,-31.0553,788.5569],[28.9772,-31.06,745.1072],[28.9716,-31.0593,751.0616],[28.963,-31.0621,762.1801],[28.9561,-31.0729,739.6901],[28.9521,-31.071,742.5561],[28.9545,-31.0662,751.8557],[28.9595,-31.0615,745.4631],[28.9595,-31.0592,741.9305],[28.9512,-31.0546,768.4694],[28.9482,-31.0495,747.5751],[28.9488,-31.046,753.9007],[28.9472,-31.0434,749.6025],[28.9412,-31.0495,752.1623],[28.9328,-31.0533,764.6815],[28.9328,-31.0546,762.8472],[28.9418,-31.0602,760.6253],[28.9382,-31.0683,762.8051],[28.9345,-31.072,762.7709],[28.9301,-31.0728,761.8821],[28.9319,-31.0667,764.2494],[28.9259,-31.0594,770.6667],[28.9255,-31.0537,774.1505],[28.9193,-31.0538,769.3768],[28.9083,-31.0576,781.889],[28.9083,-31.0594,770.0411],[28.9164,-31.0625,777.5806],[28.9196,-31.0658,775.7703],[28.9137,-31.0692,775.3048],[28.9119,-31.075,783.6631],[28.9057,-31.0777,778.4165],[28.8987,-31.0763,793.3528],[28.8889,-31.0635,781.8386],[28.8694,-31.0531,785.4233],[28.8646,-31.0514,785.9188],[28.8514,-31.0533,807.7627],[28.8559,-31.0483,797.3114],[28.8579,-31.0432,821.2217],[28.8611,-31.0415,803.1542],[28.8673,-31.0434,820.8096],[28.8729,-31.0495,805.0497],[28.8754,-31.0493,847.8138],[28.8758,-31.0467,833.3057],[28.871,-31.0377,821.5338],[28.8722,-31.0337,820.4175],[28.8772,-31.0333,813.7852],[28.8829,-31.038,852.4125],[28.8859,-31.0385,860.3831],[28.8879,-31.0368,839.2902],[28.8785,-31.0243,826.0825],[28.8759,-31.0172,845.51],[28.8702,-31.0126,835.327],[28.8744,-31.0031,838.8356],[28.8696,-30.9986,841.8688],[28.8691,-30.9903,841.8619],[28.8611,-30.9903,847.4641],[28.8483,-30.9697,922.5208],[28.8484,-30.9664,912.5464],[28.8504,-30.9647,868.4771],[28.8553,-30.9652,863.4222],[28.861,-30.9685,868.3436],[28.8676,-30.968,931.9188],[28.8688,-30.9644,902.0928],[28.8635,-30.9622,874.8797],[28.8678,-30.9532,942.6667],[28.8671,-30.9499,953.1292],[28.8631,-30.9471,911.402],[28.8537,-30.947,905.8143],[28.8464,-30.9419,911.8756],[28.8348,-30.9422,923.0167],[28.835,-30.947,944.0638],[28.8278,-30.9485,949.5282],[28.829,-30.9558,941.7116],[28.8334,-30.9629,971.9393],[28.8315,-30.9647,967.2152],[28.8278,-30.9629,947.5886],[28.823,-30.9545,992.1603],[28.8106,-30.9556,967.9183],[28.8072,-30.9494,979.1182],[28.8135,-30.9452,982.8869],[28.8129,-30.938,998.1102],[28.8175,-30.9339,984.5682],[28.8205,-30.9246,990.5245],[28.8104,-30.9203,994.5644],[28.8127,-30.9137,997.6447],[28.8013,-30.9117,1001.3189],[28.8022,-30.9059,1007.7479],[28.7962,-30.907,1002.2822],[28.7918,-30.904,999.0959],[28.7929,-30.8994,1005.1534],[28.7904,-30.8955,999.9117],[28.7981,-30.8942,1012.1428],[28.8006,-30.8956,1008.4994],[28.8025,-30.894,1005.9619],[28.7969,-30.89,1026.5579],[28.7935,-30.8835,1009.7965],[28.7868,-30.8811,1029.8496],[28.7817,-30.8837,1013.9274],[28.7751,-30.8836,1015.6867],[28.7698,-30.8803,1020.0497],[28.7652,-30.8827,1021.7839],[28.7649,-30.8891,1019.2219],[28.7583,-30.8898,1032.2036],[28.7591,-30.8841,1017.8491],[28.7616,-30.8804,1022.3706],[28.7583,-30.8733,1017.7328],[28.7565,-30.8636,1034.5234],[28.753,-30.8619,1026.2007],[28.7474,-30.8629,1049.5471],[28.7408,-30.8699,1049.1376],[28.7411,-30.8635,1027.9369],[28.7374,-30.8565,1036.7626],[28.7355,-30.8548,1038.5557],[28.728,-30.8551,1045.0386],[28.7264,-30.8537,1053.9707],[28.7293,-30.8431,1061.8755],[28.7209,-30.8423,1041.8127],[28.7147,-30.8378,1044.6613],[28.7028,-30.8347,1044.9205],[28.6929,-30.8296,1044.2397],[28.6904,-30.837,1056.896],[28.6871,-30.8372,1049.3247],[28.6869,-30.84,1067.9551],[28.6946,-30.8591,1390.4711],[28.693,-30.8675,1696.7461],[28.6733,-30.8673,1659.7754],[28.648,-30.8802,1677.4708],[28.65,-30.9076,1550.7173],[28.6528,-30.9151,1621.2756],[28.6572,-30.9171,1628.2916],[28.6624,-30.9263,1520.4634],[28.6594,-30.9247,1528.5018],[28.6559,-30.9278,1462.4622],[28.6558,-30.9257,1484.8729],[28.6576,-30.9246,1510.8317],[28.6386,-30.9209,1751.3306],[28.5917,-30.9311,1633.2322],[28.5817,-30.9305,1587.7756],[28.5771,-30.9349,1564.4443],[28.5801,-30.9397,1607.4321],[28.577,-30.9437,1611.2515],[28.5772,-30.95,1631.1914],[28.5755,-30.9518,1638.1658],[28.5804,-30.9623,1632.516],[28.5873,-30.9668,1547.7484],[28.5834,-30.9739,1465.4413],[28.5772,-30.9929,1466.4509],[28.5747,-30.9959,1464.8368],[28.5714,-30.994,1460.0531],[28.568,-30.9972,1481.3219],[28.5534,-30.9922,1550.5049],[28.5502,-30.9952,1528.6782],[28.5483,-31.0002,1533.1265],[28.5497,-31.0044,1501.4199],[28.5486,-31.01,1447.9573],[28.5505,-31.0133,1427.9165],[28.5604,-31.0158,1426.3478],[28.5552,-31.0174,1399.1235],[28.5515,-31.0218,1472.126],[28.5499,-31.0204,1451.4617],[28.5478,-31.0251,1512.8615],[28.5423,-31.0307,1492.3046],[28.5417,-31.036,1502.8862],[28.5307,-31.0415,1525.0964],[28.5253,-31.0488,1537.7887],[28.5373,-31.0533,1530.8805],[28.538,-31.0552,1531.7444],[28.5305,-31.0544,1521.5852],[28.5203,-31.0502,1514.8743],[28.5205,-31.0486,1524.1663],[28.5053,-31.0494,1448.6938],[28.4937,-31.0314,1054.488],[28.4907,-31.0399,1018.0461],[28.4925,-31.0417,1013.3913],[28.496,-31.0578,989.7816],[28.5092,-31.062,993.1512],[28.5187,-31.07,960.3859],[28.5204,-31.0774,956.2431],[28.5142,-31.0814,946.4706],[28.513,-31.084,971.3326],[28.5211,-31.0863,943.4039],[28.5208,-31.0973,938.1195],[28.5233,-31.1021,939.1738],[28.5162,-31.1048,931.0162],[28.514,-31.1088,930.6273],[28.5184,-31.1125,931.5864],[28.5248,-31.1101,931.4395],[28.5252,-31.1078,960.8254],[28.5361,-31.1064,946.9312],[28.5386,-31.1023,934.5992],[28.5357,-31.0937,935.9219],[28.5396,-31.0904,936.5963],[28.5518,-31.0904,928.6608],[28.554,-31.0868,928.3246],[28.5601,-31.0846,929.4347],[28.5635,-31.0924,929.001],[28.5628,-31.1007,928.5994],[28.5602,-31.1031,931.2283],[28.5612,-31.1046,931.3204],[28.5681,-31.1031,925.9982],[28.5782,-31.1058,923.599],[28.5804,-31.1029,929.4586],[28.5766,-31.1028,923.1979],[28.5738,-31.1008,922.8684],[28.5736,-31.0986,922.465],[28.5762,-31.098,923.63],[28.5851,-31.102,924.8285],[28.5866,-31.1063,930.4922],[28.5921,-31.1066,919.879],[28.595,-31.0989,920.954],[28.5943,-31.0969,921.8417],[28.5959,-31.0951,917.948],[28.599,-31.096,915.2157],[28.6003,-31.0949,920.7504],[28.5997,-31.0901,913.4861],[28.6016,-31.0882,912.4389],[28.6084,-31.0912,921.3063],[28.6116,-31.0968,923.177],[28.6103,-31.1007,914.1874],[28.6065,-31.0998,910.4453],[28.6083,-31.1028,915.0685],[28.6139,-31.104,910.7363],[28.6181,-31.1024,916.1569],[28.6236,-31.0975,922.5972],[28.6356,-31.1045,909.8959],[28.6421,-31.0994,913.1678],[28.6505,-31.1064,910.4085],[28.6545,-31.106,901.7512],[28.652,-31.1122,898.3817],[28.6536,-31.1138,906.8253],[28.6672,-31.1171,895.094],[28.6706,-31.12,895.3523],[28.6728,-31.1164,895.493],[28.6773,-31.1146,892.9518],[28.6816,-31.1185,892.9462],[28.6952,-31.1205,879.0237],[28.6981,-31.1281,878.1554],[28.6929,-31.1334,877.5631],[28.6905,-31.1341,876.9813],[28.6884,-31.1313,878.7484],[28.68,-31.1316,878.4918],[28.6755,-31.135,877.7555],[28.6746,-31.147,889.4689],[28.6711,-31.1519,884.1483],[28.6711,-31.1632,876.7919],[28.6661,-31.1667,876.0101],[28.6681,-31.1698,884.5953],[28.6769,-31.1681,874.8213],[28.676,-31.1646,875.4905],[28.6776,-31.1633,873.8195],[28.6872,-31.165,870.6666],[28.6826,-31.1736,870.6957],[28.6823,-31.1793,869.8178],[28.6893,-31.1853,869.3874],[28.6935,-31.1915,869.995],[28.6922,-31.1937,872.5245],[28.6934,-31.1966,871.3655],[28.6812,-31.2005,872.3953],[28.6787,-31.1997,878.4537],[28.6727,-31.1852,873.0026],[28.6708,-31.1845,875.613],[28.6535,-31.1945,876.6583],[28.6552,-31.2013,880.4891],[28.6467,-31.209,876.9557],[28.635,-31.214,875.6868],[28.6301,-31.2211,883.0503],[28.6222,-31.2211,904.319],[28.6234,-31.2243,880.7821],[28.6276,-31.2274,879.1503],[28.6234,-31.2303,881.4741],[28.6225,-31.2352,892.8137],[28.6204,-31.2369,879.3599],[28.6128,-31.2291,899.9714],[28.6089,-31.2335,883.3176],[28.6095,-31.2373,885.9484],[28.5977,-31.2394,895.2964],[28.588,-31.2365,902.0037],[28.5831,-31.2319,896.6077],[28.5826,-31.2409,897.3383],[28.5765,-31.2404,900.1115],[28.5729,-31.2417,902.8788],[28.5708,-31.2408,902.4807],[28.5711,-31.236,926.1849],[28.569,-31.2342,950.0937],[28.5606,-31.2315,905.0469],[28.5552,-31.2318,909.1269],[28.5606,-31.2356,956.3469],[28.5601,-31.2388,908.911],[28.5536,-31.2396,918.6146],[28.5493,-31.2355,915.0871],[28.546,-31.236,936.0297],[28.5424,-31.2377,916.5779],[28.5437,-31.2413,918.6292],[28.5401,-31.2454,916.5568],[28.5379,-31.246,917.6839],[28.535,-31.2435,920.442],[28.5318,-31.2433,923.1977],[28.5305,-31.2447,920.6239],[28.5311,-31.2475,922.976],[28.5292,-31.2488,928.7844],[28.5276,-31.2456,929.9576],[28.522,-31.2433,924.894],[28.5141,-31.2437,928.7677],[28.5137,-31.2486,933.9669],[28.5107,-31.2504,931.9985],[28.4955,-31.2508,941.5974],[28.4956,-31.2542,935.0869],[28.4862,-31.2659,942.4369],[28.479,-31.2673,944.4924],[28.4804,-31.2714,950.4282],[28.4762,-31.2717,948.6449],[28.4768,-31.2703,949.1082],[28.4739,-31.2699,949.7587],[28.4725,-31.2746,965.5966],[28.4653,-31.2804,961.4477],[28.4649,-31.2872,974.7472],[28.4678,-31.2908,983.9744],[28.466,-31.2988,997.6312],[28.4605,-31.3027,998.6196],[28.4548,-31.3017,1003.2494],[28.4519,-31.3035,1009.0408],[28.456,-31.3068,1021.0094],[28.4597,-31.3167,1120.9951],[28.4704,-31.3236,1193.2855],[28.4875,-31.3269,1428.0732],[28.4951,-31.3263,1416.3536],[28.4993,-31.3326,1446.6975],[28.4991,-31.3485,1462.3325],[28.4965,-31.3494,1447.059],[28.4906,-31.3668,1422.7266],[28.4857,-31.3686,1329.641],[28.4839,-31.3743,1393.9487],[28.4727,-31.3772,1622.162],[28.4651,-31.3811,1507.1182],[28.4628,-31.383,1539.5007],[28.4645,-31.3857,1653.3486],[28.4625,-31.3874,1672.7681],[28.4495,-31.3851,1680.4825],[28.444,-31.3865,1658.3875],[28.4431,-31.3901,1599.2279],[28.4452,-31.3949,1563.7507],[28.4446,-31.3974,1545.7241],[28.4357,-31.398,1522.0309],[28.4291,-31.4028,1551.0011],[28.4272,-31.4187,1575.9707],[28.4255,-31.4212,1575.7834],[28.4136,-31.4232,1531.6975],[28.4071,-31.428,1533.7267],[28.4033,-31.4369,1519.6613],[28.3986,-31.4679,1539.8927],[28.3896,-31.4777,1527.8441],[28.3822,-31.4809,1578.2961],[28.3971,-31.491,1164.6249],[28.405,-31.5029,950.736],[28.4104,-31.5028,979.8311],[28.4125,-31.5049,933.6024],[28.4183,-31.5041,915.0685],[28.4215,-31.502,907.6243],[28.4247,-31.5034,882.9437],[28.4301,-31.5007,877.3021],[28.4374,-31.5012,868.793],[28.438,-31.4981,851.5716],[28.4406,-31.4963,842.3278],[28.4451,-31.4995,834.2129],[28.4561,-31.4982,832.6952],[28.4573,-31.4968,804.3878],[28.4561,-31.4953,805.8841],[28.4622,-31.4931,793.4047],[28.4649,-31.4896,784.8974],[28.4704,-31.491,778.0718],[28.4746,-31.4902,780.4492],[28.4763,-31.4928,773.4994],[28.4801,-31.4919,770.0665],[28.4834,-31.4945,766.6053],[28.4875,-31.4939,764.4952],[28.4889,-31.4919,769.1867],[28.49,-31.494,759.4786],[28.4922,-31.4888,764.5771],[28.4937,-31.4899,759.5444],[28.496,-31.4888,765.5565],[28.4958,-31.4865,760.98],[28.4911,-31.4868,761.5917],[28.492,-31.4826,769.3448],[28.496,-31.4846,757.7038],[28.5005,-31.4822,769.8152],[28.507,-31.4824,777.5276],[28.512,-31.4865,751.5264],[28.5078,-31.4901,746.1296],[28.5109,-31.4905,750.106],[28.514,-31.4949,749.1151],[28.5089,-31.4977,745.3326],[28.5122,-31.4995,751.3146],[28.5087,-31.5024,744.588],[28.509,-31.5048,751.0386],[28.5115,-31.5053,754.1699],[28.513,-31.5078,742.8724],[28.516,-31.5068,739.4867],[28.5172,-31.5022,770.3365],[28.5196,-31.5003,738.2993],[28.5238,-31.4997,738.1966],[28.5207,-31.4976,760.5477],[28.5261,-31.4932,745.2548],[28.5359,-31.5026,743.3799],[28.5392,-31.4953,737.502],[28.5381,-31.4924,737.8565],[28.5449,-31.484,735.7993],[28.5432,-31.4808,733.1836],[28.5413,-31.4806,744.9788],[28.5431,-31.4792,741.5977],[28.546,-31.4802,737.297],[28.5489,-31.4781,736.6001],[28.5457,-31.4732,733.2476],[28.5512,-31.4737,741.8686],[28.5527,-31.4769,738.7579],[28.5637,-31.487,731.0182],[28.5655,-31.4851,723.8225],[28.5648,-31.4818,725.1565],[28.5666,-31.4804,742.941],[28.5671,-31.4768,726.2472],[28.5697,-31.4773,719.9059],[28.5744,-31.4825,720.1853],[28.5777,-31.4792,739.9455],[28.5786,-31.4748,712.3382],[28.5829,-31.4768,714.7675],[28.5856,-31.4749,717.8845],[28.5938,-31.4738,722.043],[28.599,-31.4768,711.3806],[28.5991,-31.4795,713.5787],[28.6004,-31.4799,726.4023],[28.6016,-31.4747,723.5626],[28.613,-31.4748,717.2015],[28.6155,-31.4706,708.4513],[28.6252,-31.4715,706.7177],[28.6295,-31.4699,707.0979],[28.6316,-31.4664,701.6499],[28.6375,-31.4706,702.0636],[28.6429,-31.4713,704.5475],[28.6467,-31.4669,702.35],[28.6393,-31.4667,702.7553],[28.6359,-31.4647,717.1794],[28.6349,-31.4619,701.1513],[28.6367,-31.4602,700.8624],[28.6424,-31.46,702.2105],[28.6376,-31.4571,702.5754],[28.6422,-31.4568,701.0943],[28.6465,-31.4539,697.4962],[28.6506,-31.4591,694.6246],[28.6546,-31.4599,695.7811],[28.6539,-31.4557,694.5929],[28.6511,-31.4525,695.6787],[28.6608,-31.4479,694.4743],[28.6614,-31.4461,698.8838],[28.659,-31.4437,693.0],[28.6606,-31.443,695.1676],[28.6659,-31.4468,694.1826],[28.6694,-31.4434,693.0],[28.6712,-31.4447,693.0],[28.6693,-31.4487,693.0],[28.6618,-31.4523,693.0],[28.6619,-31.4551,693.9269],[28.6647,-31.4573,693.0],[28.6642,-31.4623,693.0],[28.6787,-31.4614,694.0072],[28.6786,-31.4539,693.0],[28.68,-31.4518,693.0],[28.683,-31.4529,693.0],[28.6849,-31.456,693.0],[28.6955,-31.455,693.0],[28.6989,-31.4568,693.0],[28.701,-31.4635,693.0],[28.7063,-31.4681,693.0],[28.7068,-31.4718,693.0],[28.711,-31.4751,693.0],[28.7116,-31.4788,693.0],[28.7093,-31.482,693.0],[28.7099,-31.4843,693.0],[28.7191,-31.4775,693.0],[28.7217,-31.4773,693.0],[28.7267,-31.4861,693.0],[28.7346,-31.4814,696.2869],[28.7393,-31.4738,733.4133],[28.7447,-31.4716,747.8569],[28.7467,-31.4663,757.7435],[28.751,-31.4621,773.4109],[28.7544,-31.4547,797.1968],[28.7513,-31.4507,810.4042],[28.7521,-31.4567,793.6934],[28.748,-31.4585,798.6587],[28.7494,-31.4616,792.0461],[28.7455,-31.4621,793.1515],[28.7441,-31.4687,751.6956],[28.741,-31.4702,786.4354],[28.739,-31.4693,795.2198],[28.7374,-31.4615,779.7454],[28.7426,-31.4598,816.0409],[28.7404,-31.4566,815.5654],[28.7448,-31.4538,822.9955],[28.7443,-31.4489,833.5407],[28.7477,-31.4463,832.0448],[28.7482,-31.442,839.043],[28.7511,-31.4438,825.3314],[28.7555,-31.4378,884.3392],[28.757,-31.4443,839.6473],[28.7555,-31.4447,854.1002],[28.7554,-31.4485,841.9614],[28.7591,-31.4538,828.1622],[28.7586,-31.4696,795.7694],[28.7615,-31.4727,793.2989],[28.7604,-31.4778,759.8713],[28.7574,-31.4807,735.0944]]]]}
,"properties": {"GID_3": "ZAF.1.8.2_1","GID_0": "ZAF","country": "SouthAfrica","GID_1": "ZAF.1_1","province": "EasternCape","NL_NAME_1": "NA","GID_2": "ZAF.1.8_1","county": "O.R.Tambo","NL_NAME_2": "NA","city": "Mhlontlo","VARNAME_3": "NA","NL_NAME_3": "NA","TYPE_3": "LocalMunicipality","ENGTYPE_3": "LocalMunicipality","CC_3": "EC156","HASC_3": "NA","name": "Mhlontlo.city","area_km2": 2828.182,"hist_schema_id": "Elevation0-9000","hist_area_km2": {"175": 0.127,"200": 0.979,"225": 1.377,"250": 2.139,"275": 3.498,"300": 5.655,"325": 6.09,"350": 6.09,"375": 6.054,"400": 6.254,"425": 6.598,"450": 6.997,"475": 6.272,"500": 8.575,"525": 9.899,"550": 10.788,"575": 10.897,"600": 12.675,"625": 14.562,"650": 14.164,"675": 15.688,"700": 35.706,"725": 51.56,"750": 69.82,"775": 76.133,"800": 79.425,"825": 85.013,"850": 90.316,"875": 127.53,"900": 139.408,"925": 148.569,"950": 166.261,"975": 178.345,"1000": 171.554,"1025": 164.377,"1050": 140.313,"1075": 121.364,"1100": 101.131,"1125": 77.01,"1150": 59.975,"1175": 49.181,"1200": 45.097,"1225": 48.066,"1250": 44.405,"1275": 43.083,"1300": 38.58,"1325": 31.669,"1350": 29.735,"1375": 25.338,"1400": 27.59,"1425": 26.923,"1450": 27.329,"1475": 28.858,"1500": 31.997,"1525": 27.825,"1550": 19.076,"1575": 11.621,"1600": 9.137,"1625": 8.266,"1650": 7.775,"1675": 4.853,"1700": 1.956,"1725": 0.58,"1750": 0.054}}}