{"type": "Feature","bbox": [27.0372,-29.11,28.1017,-28.0292],"geometry": {"type": "MultiPolygon","coordinates": [[[[27.6613,-29.0861,1506.6085],[27.6659,-29.0778,1507.3776],[27.6716,-29.0794,1505.6],[27.6752,-29.0776,1505.1393],[27.6771,-29.0736,1506.8585],[27.6746,-29.0696,1509.1388],[27.6765,-29.0668,1512.0104],[27.6732,-29.0639,1506.2971],[27.6663,-29.0628,1510.8795],[27.6599,-29.0557,1514.698],[27.6548,-29.0614,1508.4034],[27.6521,-29.0614,1514.2255],[27.6526,-29.0563,1505.2747],[27.6446,-29.0562,1509.49],[27.6414,-29.0458,1508.5405],[27.6512,-29.0415,1510.1687],[27.6551,-29.0468,1508.3723],[27.6588,-29.0487,1509.4314],[27.6613,-29.0465,1512.0398],[27.673,-29.044,1510.2576],[27.6756,-29.0389,1510.8571],[27.675,-29.0333,1511.509],[27.6698,-29.0296,1511.4182],[27.6701,-29.0273,1513.2574],[27.6748,-29.026,1518.8003],[27.6812,-29.0284,1511.5339],[27.6815,-29.024,1517.9897],[27.6859,-29.0251,1513.7448],[27.688,-29.0232,1514.7161],[27.6809,-29.0164,1516.3914],[27.6824,-29.0066,1512.3364],[27.6851,-29.0036,1514.9686],[27.6922,-29.0049,1517.2085],[27.7056,-29.0116,1518.6477],[27.711,-29.0118,1524.5784],[27.7136,-29.0101,1516.6785],[27.717,-29.0003,1514.0454],[27.7145,-28.9974,1517.6427],[27.7163,-28.9916,1518.8843],[27.7096,-28.9906,1518.2607],[27.7074,-28.9824,1521.014],[27.7084,-28.9813,1521.014],[27.7168,-28.9824,1516.098],[27.7229,-28.9756,1517.6442],[27.725,-28.9674,1520.9907],[27.7201,-28.963,1516.7332],[27.721,-28.9576,1520.2317],[27.7255,-28.9564,1518.3684],[27.7257,-28.9529,1522.4568],[27.7231,-28.9516,1519.1206],[27.7231,-28.9494,1519.121],[27.7282,-28.9506,1518.03],[27.7296,-28.9466,1522.1417],[27.7351,-28.9445,1525.4572],[27.7393,-28.9377,1539.5654],[27.7426,-28.9422,1523.8606],[27.7459,-28.9419,1522.6597],[27.7428,-28.9375,1519.6644],[27.7435,-28.9357,1534.0824],[27.7473,-28.9386,1519.9338],[27.7482,-28.9417,1523.1907],[27.76,-28.9414,1525.4362],[27.7619,-28.938,1523.6379],[27.7569,-28.9342,1517.4716],[27.7616,-28.9303,1525.3438],[27.7656,-28.9241,1521.0955],[27.7667,-28.917,1528.655],[27.7624,-28.9125,1548.0861],[27.7569,-28.9125,1525.381],[27.7541,-28.9039,1533.1177],[27.7543,-28.8971,1526.7993],[27.7628,-28.8975,1537.4031],[27.7773,-28.9069,1528.5345],[27.7868,-28.9095,1532.5581],[27.7934,-28.9092,1545.2665],[27.7918,-28.9146,1528.5842],[27.7983,-28.9184,1530.8849],[27.8078,-28.917,1537.4026],[27.8163,-28.9211,1538.5316],[27.8268,-28.9127,1531.4138],[27.8315,-28.9127,1528.0605],[27.8294,-28.9087,1531.1562],[27.8299,-28.9035,1532.1555],[27.8398,-28.9153,1537.0107],[27.8483,-28.9092,1535.5803],[27.8476,-28.9039,1534.2928],[27.8515,-28.903,1532.1567],[27.8541,-28.9097,1536.5085],[27.8585,-28.9104,1534.3032],[27.8594,-28.914,1533.337],[27.864,-28.9136,1531.5839],[27.8689,-28.9198,1536.1987],[27.8794,-28.9173,1533.3684],[27.8835,-28.9149,1533.1022],[27.8884,-28.9167,1535.0397],[27.8909,-28.9144,1534.2271],[27.8912,-28.9106,1541.6401],[27.8963,-28.9086,1540.1783],[27.8982,-28.9024,1546.697],[27.8978,-28.8976,1546.2617],[27.9001,-28.8941,1539.5349],[27.8978,-28.8903,1538.9611],[27.893,-28.8909,1536.376],[27.8878,-28.8884,1539.0366],[27.8931,-28.8792,1563.5272],[27.9,-28.8785,1542.0231],[27.9086,-28.8816,1541.4677],[27.92,-28.8775,1545.2869],[27.9201,-28.8719,1547.4863],[27.9158,-28.8662,1541.4612],[27.9187,-28.8603,1540.3838],[27.9211,-28.859,1546.7371],[27.9274,-28.8619,1537.9429],[27.9267,-28.8568,1541.4775],[27.9298,-28.8529,1541.345],[27.9385,-28.8523,1541.2334],[27.9384,-28.8483,1543.4666],[27.9483,-28.8525,1554.621],[27.9554,-28.8582,1550.5049],[27.9618,-28.8596,1545.4391],[27.9625,-28.8656,1545.7467],[27.9658,-28.871,1548.42],[27.9701,-28.8743,1546.3127],[27.984,-28.8769,1547.9962],[27.9906,-28.883,1550.7512],[27.9921,-28.8804,1547.3635],[27.9871,-28.877,1551.099],[27.9935,-28.8761,1548.6262],[27.994,-28.8727,1550.2406],[27.9958,-28.872,1549.0256],[27.9999,-28.8774,1548.0667],[28.0021,-28.8765,1550.7332],[28.0048,-28.8716,1550.8293],[28.0076,-28.8727,1565.8412],[28.0131,-28.8799,1551.897],[28.0184,-28.8757,1555.1914],[28.0247,-28.8741,1555.2424],[28.0289,-28.8791,1550.5836],[28.0303,-28.8766,1551.2207],[28.0286,-28.8735,1548.989],[28.0341,-28.8742,1558.0195],[28.0309,-28.8721,1554.7303],[28.0325,-28.8676,1554.6882],[28.028199999999998,-28.8667,1555.4238],[28.0303,-28.8649,1555.8263],[28.0297,-28.8598,1556.0234],[28.0257,-28.8624,1556.4872],[28.024,-28.8594,1561.6715],[28.0285,-28.8556,1557.2831],[28.0315,-28.856,1557.0405],[28.0361,-28.8499,1556.2798],[28.0405,-28.8506,1556.9346],[28.0413,-28.8463,1561.5983],[28.0447,-28.8455,1560.3226],[28.0478,-28.8417,1565.8162],[28.0515,-28.8441,1560.0624],[28.0545,-28.8414,1573.3101],[28.0543,-28.8348,1573.8921],[28.0501,-28.83,1597.1591],[28.052,-28.8266,1572.0928],[28.0508,-28.8181,1562.0271],[28.0591,-28.8144,1567.6166],[28.0749,-28.815,1572.5707],[28.0754,-28.8111,1566.4808],[28.0784,-28.8103,1562.8254],[28.0773,-28.8073,1562.4011],[28.0806,-28.8062,1564.2616],[28.0868,-28.7998,1567.408],[28.0856,-28.7941,1560.8461],[28.0827,-28.7932,1568.7579],[28.0893,-28.793,1588.4379],[28.0954,-28.7853,1574.98],[28.0946,-28.7834,1566.1741],[28.0978,-28.7819,1570.428],[28.0962,-28.7778,1568.2963],[28.0978,-28.7723,1570.8137],[28.1017,-28.7672,1568.7651],[28.0979,-28.7495,1827.646],[28.0599,-28.725,1902.3658],[28.0562,-28.7188,1977.6061],[28.0584,-28.7128,1910.9172],[28.0558,-28.7099,1890.9104],[28.0569,-28.7047,1910.1167],[28.0528,-28.6978,1999.2477],[28.0536,-28.6891,1996.7495],[28.0449,-28.6811,2082.0303],[28.0427,-28.677,2110.7964],[28.038,-28.6761,2130.1104],[28.0344,-28.6712,2200.522],[28.0339,-28.669,2231.4832],[28.045,-28.6602,2158.8857],[28.0464,-28.6532,2160.0117],[28.0452,-28.6482,2226.8398],[28.0411,-28.6421,2334.7422],[28.0375,-28.6397,2248.1182],[28.0403,-28.6394,2291.167],[28.0417,-28.6354,2111.8057],[28.04,-28.6249,2044.6074],[28.0299,-28.6164,2150.6963],[28.0318,-28.612,2185.2734],[28.0295,-28.6082,2118.845],[28.0298,-28.6036,2229.1396],[28.0147,-28.5975,2192.9902],[28.0085,-28.6051,2202.2559],[28.0016,-28.6066,1967.2391],[27.9923,-28.5985,1861.6633],[27.9892,-28.5992,1898.9845],[27.9881,-28.5976,1867.238],[27.9833,-28.5966,1796.2319],[27.9741,-28.5889,1858.5823],[27.9709,-28.5889,1758.0198],[27.9769,-28.5812,1815.1069],[27.9782,-28.5718,1846.3212],[27.9832,-28.5702,1830.6909],[27.9784,-28.5691,1845.6256],[27.9732,-28.5798,1765.5149],[27.9641,-28.5827,1818.5536],[27.9615,-28.5779,1877.4863],[27.9593,-28.577,1833.3716],[27.953,-28.5805,1680.7473],[27.9316,-28.5759,1669.5072],[27.93,-28.5579,1722.7308],[27.9114,-28.5645,1682.8833],[27.9014,-28.5558,1719.6013],[27.8774,-28.5646,1654.5039],[27.8729,-28.5703,1612.9133],[27.8676,-28.5666,1613.9132],[27.8659,-28.5634,1614.2024],[27.8451,-28.5565,1709.1752],[27.8339,-28.5508,1735.1748],[27.8367,-28.5243,1734.4487],[27.846,-28.4762,1700.4949],[27.8085,-28.4582,1662.4807],[27.8288,-28.4152,1599.6821],[27.836,-28.4146,1648.7867],[27.8605,-28.3612,1650.6111],[27.8439,-28.3458,1645.1971],[27.8544,-28.3358,1637.9293],[27.8654,-28.3308,1569.2068],[27.8659,-28.3289,1568.3959],[27.8628,-28.3234,1565.5585],[27.8643,-28.3219,1564.3301],[27.863,-28.3208,1559.3462],[27.8634,-28.3169,1556.4191],[27.8645,-28.3174,1556.4191],[27.8658,-28.3145,1552.0159],[27.8272,-28.3234,1577.9838],[27.8306,-28.2831,1575.5015],[27.7938,-28.2579,1505.2805],[27.79,-28.2538,1503.2444],[27.789,-28.2481,1504.6829],[27.7865,-28.2464,1511.5294],[27.7876,-28.2415,1498.2745],[27.7846,-28.2402,1502.7618],[27.7861,-28.2305,1493.3781],[27.7834,-28.2303,1493.0046],[27.7833,-28.226,1492.4053],[27.7811,-28.2237,1491.0891],[27.7902,-28.2159,1518.882],[27.8044,-28.2142,1535.4031],[27.809,-28.2036,1521.0596],[27.7965,-28.1992,1517.7097],[27.8006,-28.1568,1510.5916],[27.7743,-28.1524,1476.8575],[27.7738,-28.1489,1474.0952],[27.7724,-28.151,1477.4248],[27.7621,-28.1509,1472.7272],[27.7596,-28.1276,1519.8279],[27.771,-28.125,1528.5624],[27.7662,-28.0988,1586.5626],[27.7858,-28.0937,1593.2838],[27.7976,-28.094,1581.1298],[27.7997,-28.0811,1576.824],[27.8074,-28.0679,1603.0026],[27.8181,-28.0637,1606.863],[27.7599,-28.0619,1617.0486],[27.7421,-28.0409,1618.3119],[27.7372,-28.0292,1603.4255],[27.6851,-28.0464,1596.9258],[27.655,-28.0599,1585.7937],[27.689,-28.0962,1572.0522],[27.6932,-28.124,1553.0172],[27.6538,-28.1266,1571.0399],[27.6614,-28.1477,1538.0367],[27.6621,-28.1627,1500.3247],[27.6602,-28.1621,1503.9044],[27.6608,-28.1613,1503.9044],[27.6564,-28.1616,1515.2991],[27.6617,-28.1862,1471.5444],[27.6598,-28.1841,1472.627],[27.6458,-28.1922,1494.1726],[27.6277,-28.1711,1538.3939],[27.5963,-28.176,1571.5051],[27.6053,-28.2055,1509.3719],[27.6112,-28.2415,1517.5836],[27.6169,-28.2512,1494.7466],[27.605,-28.2664,1454.9532],[27.5958,-28.2595,1481.2312],[27.5695,-28.2842,1447.7256],[27.5696,-28.2825,1450.8469],[27.5442,-28.2731,1442.5852],[27.544,-28.2747,1439.1123],[27.5272,-28.267,1497.7295],[27.5107,-28.2743,1583.0111],[27.5048,-28.2708,1567.0211],[27.5031,-28.2491,1548.9607],[27.4832,-28.2488,1523.652],[27.4811,-28.2718,1501.3977],[27.4701,-28.2732,1453.6416],[27.4708,-28.2666,1492.8741],[27.4695,-28.2635,1487.2366],[27.4608,-28.2647,1481.5793],[27.4616,-28.2605,1474.9214],[27.4564,-28.248,1492.2091],[27.4497,-28.2478,1518.7599],[27.4452,-28.2387,1530.9871],[27.3908,-28.2395,1479.6982],[27.3879,-28.2141,1497.9646],[27.3439,-28.2267,1446.3773],[27.3262,-28.2265,1466.7795],[27.3197,-28.2685,1445.8208],[27.3058,-28.2627,1510.6494],[27.2768,-28.2828,1444.5995],[27.2468,-28.2687,1491.8774],[27.2491,-28.2622,1503.8103],[27.2294,-28.2406,1434.9918],[27.2166,-28.2534,1439.7391],[27.1935,-28.2576,1410.358],[27.1668,-28.2689,1388.7455],[27.1538,-28.2638,1366.3561],[27.1383,-28.2816,1367.0709],[27.1319,-28.2763,1373.9435],[27.1304,-28.2841,1374.1378],[27.1144,-28.2772,1355.4502],[27.1116,-28.2774,1349.7567],[27.1212,-28.2692,1371.0197],[27.1217,-28.2626,1356.4276],[27.1252,-28.2627,1339.1879],[27.1299,-28.257,1339.7483],[27.1236,-28.2558,1339.9377],[27.1187,-28.259,1338.3248],[27.1047,-28.2779,1357.7732],[27.1014,-28.2781,1364.4562],[27.0893,-28.2711,1402.8174],[27.091,-28.2798,1376.958],[27.0909,-28.2936,1379.4324],[27.0654,-28.2964,1417.3282],[27.0661,-28.3419,1432.3679],[27.0372,-28.3989,1420.2382],[27.0709,-28.4155,1435.8993],[27.075,-28.4077,1419.8887],[27.1065,-28.4018,1419.7515],[27.1055,-28.4079,1401.3369],[27.1104,-28.4121,1409.8235],[27.1104,-28.4283,1438.0981],[27.0983,-28.4395,1421.6128],[27.1174,-28.4453,1436.6039],[27.1136,-28.4565,1452.8896],[27.1373,-28.4767,1549.1298],[27.1874,-28.4823,1473.1851],[27.1737,-28.5081,1449.4017],[27.1754,-28.5085,1449.4017],[27.1659,-28.5243,1452.1283],[27.1646,-28.5225,1444.0903],[27.1483,-28.5202,1420.5756],[27.1507,-28.5477,1428.4454],[27.1549,-28.5463,1430.95],[27.1567,-28.5583,1424.3132],[27.1724,-28.5623,1474.476],[27.1977,-28.5766,1442.8976],[27.2122,-28.578,1450.7725],[27.2087,-28.5969,1467.9233],[27.219,-28.5992,1467.6652],[27.214,-28.6158,1480.7485],[27.1929,-28.6247,1501.5095],[27.2127,-28.6265,1457.4197],[27.1901,-28.6676,1459.0574],[27.2026,-28.6762,1436.5228],[27.1926,-28.6977,1420.4246],[27.2087,-28.7056,1415.0372],[27.1966,-28.7335,1429.0635],[27.1985,-28.7342,1429.345],[27.1702,-28.7597,1423.6326],[27.1768,-28.7657,1439.2513],[27.1749,-28.7673,1437.981],[27.1782,-28.7737,1446.9604],[27.1863,-28.7754,1604.4629],[27.1917,-28.7796,1535.088],[27.199,-28.7794,1464.2512],[27.2006,-28.7817,1478.8223],[27.2099,-28.7719,1451.1962],[27.2146,-28.7742,1458.821],[27.1863,-28.8052,1414.8333],[27.1874,-28.8071,1414.2207],[27.1907,-28.8068,1414.6517],[27.189,-28.8097,1416.8502],[27.192,-28.8123,1418.2983],[27.1903,-28.8153,1417.6431],[27.1929,-28.8141,1418.2017],[27.1949,-28.8162,1419.1226],[27.2002,-28.8172,1419.2151],[27.2,-28.82,1421.0663],[27.2051,-28.8242,1421.8242],[27.2083,-28.8214,1422.595],[27.2068,-28.8191,1425.6281],[27.2086,-28.8183,1423.8662],[27.2092,-28.8193,1423.8662],[27.239,-28.7915,1722.4081],[27.2766,-28.7965,1606.1887],[27.2344,-28.8289,1432.2683],[27.2375,-28.8273,1433.6587],[27.24,-28.8292,1432.0652],[27.2423,-28.8278,1437.0475],[27.2438,-28.8322,1434.3745],[27.2466,-28.8318,1434.0901],[27.2523,-28.8354,1435.2063],[27.2597,-28.8342,1439.2205],[27.2619,-28.8367,1439.1184],[27.2638,-28.8361,1444.7675],[27.2642,-28.8378,1441.9407],[27.268,-28.8387,1439.6458],[27.3005,-28.8076,1591.7231],[27.3233,-28.8182,1595.8882],[27.3159,-28.8265,1552.0648],[27.319,-28.8306,1551.8384],[27.3213,-28.8312,1547.0125],[27.3176,-28.8389,1507.7985],[27.3369,-28.8431,1555.2874],[27.3456,-28.8306,1609.3989],[27.3624,-28.84,1723.9907],[27.3602,-28.8488,1528.8112],[27.4018,-28.8708,1753.0588],[27.4085,-28.8674,1683.667],[27.4154,-28.8595,1792.4788],[27.44,-28.8521,1826.1129],[27.4433,-28.8795,1616.9092],[27.4784,-28.8733,1580.0125],[27.4943,-28.9115,1601.8245],[27.4976,-28.9115,1606.5726],[27.504,-28.9358,1643.3059],[27.511,-28.9336,1636.0432],[27.5078,-28.9366,1642.5514],[27.5078,-28.9464,1645.2324],[27.514,-28.9483,1617.2151],[27.5055,-28.9714,1678.5819],[27.5275,-28.9845,1615.2825],[27.548,-28.9921,1580.9972],[27.5277,-29.0128,1723.4241],[27.5378,-29.0193,1742.3038],[27.5593,-29.0386,1566.4651],[27.5682,-29.0345,1515.4287],[27.5753,-29.0275,1723.6846],[27.5922,-29.032,1702.6466],[27.5965,-29.03,1668.9858],[27.5974,-29.0311,1668.9858],[27.5987,-29.038,1703.2732],[27.6012,-29.0409,1697.2209],[27.6005,-29.0473,1713.8997],[27.6041,-29.0543,1631.8964],[27.5921,-29.072,1710.0581],[27.5993,-29.0724,1714.552],[27.6132,-29.0888,1632.8865],[27.6032,-29.1012,1596.5856],[27.6131,-29.103,1626.7053],[27.6192,-29.1017,1597.09],[27.6328,-29.1027,1557.4453],[27.6502,-29.11,1502.0745],[27.65,-29.105,1502.1023],[27.6524,-29.1005,1499.4269],[27.6483,-29.0952,1513.9896],[27.651,-29.0904,1519.2336],[27.647,-29.0856,1508.728],[27.64,-29.0855,1504.5438],[27.6398,-29.0828,1506.6007],[27.6431,-29.0797,1507.4263],[27.6497,-29.0783,1507.6675],[27.6552,-29.0815,1504.3188],[27.6576,-29.0853,1505.9476],[27.6613,-29.0861,1506.6085]]]]}
,"properties": {"GID_3": "ZAF.2.4.6_1","GID_0": "ZAF","country": "SouthAfrica","GID_1": "ZAF.2_1","province": "FreeState","NL_NAME_1": "NA","GID_2": "ZAF.2.4_1","county": "ThaboMofutsanyane","NL_NAME_2": "NA","city": "Setsoto","VARNAME_3": "NA","NL_NAME_3": "NA","TYPE_3": "LocalMunicipality","ENGTYPE_3": "LocalMunicipality","CC_3": "FS191","HASC_3": "NA","name": "Setsoto.city","area_km2": 5974.915,"hist_schema_id": "Elevation0-9000","hist_area_km2": {"1325": 0.093,"1350": 8.868,"1375": 122.651,"1400": 214.665,"1425": 416.325,"1450": 580.404,"1475": 668.264,"1500": 563.257,"1525": 468.051,"1550": 417.642,"1575": 422.282,"1600": 427.881,"1625": 382.771,"1650": 321.381,"1675": 288.619,"1700": 226.054,"1725": 151.516,"1750": 88.231,"1775": 71.372,"1800": 45.008,"1825": 30.081,"1850": 18.277,"1875": 11.475,"1900": 7.254,"1925": 5.729,"1950": 4.521,"1975": 3.237,"2000": 1.805,"2025": 1.47,"2050": 1.098,"2075": 0.93,"2100": 0.781,"2125": 0.763,"2150": 0.447,"2175": 0.465,"2200": 0.521,"2225": 0.298,"2250": 0.205,"2275": 0.093,"2300": 0.074,"2350": 0.056}}}