{"type":"Feature","properties":{"GID_2":"ZAF.9.1_1","GID_0":"ZAF","country":"SouthAfrica","GID_1":"ZAF.9_1","province":"WesternCape","NL_NAME_1":"NA","county":"CapeWinelands","VARNAME_2":"NA","NL_NAME_2":"NA","TYPE_2":"DistrictMunicipality","ENGTYPE_2":"DistrictMunicipality","CC_2":"DC2","HASC_2":"ZA.WC.CW","name":"Cape_Winelands.county"},
"geometry":{"type": "MultiPolygon","coordinates": [[[[18.9278,-34.0002,1042.3452],[18.9316,-34.0026,933.3917],[18.9437,-34.0037,931.2189],[18.9539,-34.0093,931.7244],[18.9621,-34.0162,863.589],[18.9695,-34.0199,827.3297],[18.9846,-34.0359,1557.2942],[18.9872,-34.0352,1505.5649],[19.0264,-34.0206,1486.0686],[19.0424,-34.0083,1492.0325],[19.1261,-33.9617,1176.8738],[19.1455,-33.956,987.9157],[19.1646,-33.9714,318.3528],[19.191,-33.9472,958.8356],[19.2066,-33.9504,1233.8022],[19.2438,-33.8974,1224.8989],[19.2652,-33.9003,1019.858],[19.2584,-33.8831,1223.4397],[19.278199999999998,-33.8795,1148.564],[19.2974,-33.8897,1188.9109],[19.3106,-33.9137,960.1859],[19.3128,-33.935,959.4313],[19.3189,-33.9472,523.0638],[19.3251,-33.9521,406.7631],[19.3359,-33.9582,523.1911],[19.3486,-33.9552,694.382],[19.3618,-33.9715,1228.811],[19.4267,-33.9932,1570.1066],[19.4558,-33.9999,1597.9146],[19.5069,-33.9717,1601.4921],[19.5333,-33.9695,1333.2612],[19.5662,-34.002,966.4669],[19.5898,-34.0124,1428.0596],[19.6084,-34.0074,1336.7816],[19.6412,-34.0017,1136.377],[19.6807,-34.0091,1343.7932],[19.7001,-34.0464,1230.863],[19.7148,-34.049,1471.1045],[19.735,-34.0412,1339.2986],[19.7552,-34.0544,1250.03],[19.8103,-34.0554,1454.9669],[19.8536,-34.0633,1606.8037],[19.8855,-34.0662,1491.8494],[19.9062,-34.0762,1209.2573],[19.9865,-34.0782,890.0726],[19.9893,-34.0855,591.9734],[20.0075,-34.0939,403.3992],[20.0108,-34.0915,339.3532],[20.0085,-34.0639,615.822],[20.0328,-34.0597,640.6639],[20.0808,-34.0646,197.6521],[20.1417,-34.0592,255.4281],[20.1425,-34.0559,184.7453],[20.1517,-34.0446,142.8982],[20.1615,-34.0409,146.5604],[20.1724,-34.0398,178.9125],[20.1778,-34.0298,219.2241],[20.1859,-34.0359,195.0307],[20.1961,-34.04,171.9891],[20.1925,-34.0462,168.7956],[20.2003,-34.053,141.1271],[20.2049,-34.0655,99.8113],[20.2022,-34.0786,138.632],[20.15,-34.0784,170.757],[20.1493,-34.0766,108.1212],[20.1376,-34.0824,101.327],[20.1413,-34.084,100.565],[20.1405,-34.0854,99.9649],[20.1878,-34.0974,302.6526],[20.1873,-34.102,216.7063],[20.1974,-34.1005,221.0076],[20.2031,-34.0884,302.2285],[20.23,-34.0952,211.4801],[20.2291,-34.1007,158.1717],[20.2244,-34.1023,136.9366],[20.2218,-34.1111,181.3781],[20.2468,-34.1173,186.6473],[20.2497,-34.1061,135.9045],[20.2727,-34.1062,109.4855],[20.2701,-34.0902,99.7006],[20.2913,-34.0913,115.0525],[20.3057,-34.0773,72.7981],[20.3024,-34.0762,80.7544],[20.2901,-34.0801,77.2409],[20.2861,-34.0789,75.7536],[20.2873,-34.0719,76.2838],[20.2856,-34.07,75.1141],[20.2858,-34.065,74.0248],[20.2989,-34.0603,129.5932],[20.2945,-34.0504,126.9756],[20.2865,-34.0511,97.0274],[20.284,-34.0414,78.2572],[20.2792,-34.0396,81.7004],[20.2834,-34.0402,83.1558],[20.2908,-34.0419,123.8],[20.2959,-34.0363,107.2826],[20.3071,-34.0294,156.0951],[20.3046,-34.0228,136.3581],[20.3041,-34.014,209.3194],[20.3071,-34.0056,228.7702],[20.3138,-34.0017,264.3229],[20.3242,-34.0018,179.5261],[20.3178,-33.9936,187.9152],[20.328,-33.973,412.3872],[20.2969,-33.964,385.4586],[20.2909,-33.9609,483.4285],[20.2843,-33.9544,379.5546],[20.2803,-33.9538,325.6766],[20.2832,-33.9574,240.8968],[20.2584,-33.9417,280.7572],[20.2269,-33.9139,450.3855],[20.2225,-33.9128,483.6143],[20.2344,-33.8979,1061.3068],[20.3244,-33.9496,1575.7731],[20.436,-33.9577,1608.7183],[20.4602,-33.9063,681.3814],[20.4695,-33.8957,763.9043],[20.4699,-33.8897,780.8879],[20.4683,-33.8803,761.423],[20.4608,-33.8764,788.1437],[20.4425,-33.8579,818.8969],[20.4417,-33.8371,978.1335],[20.4354,-33.8264,1000.8821],[20.4415,-33.8198,923.4065],[20.4266,-33.811,1042.0022],[20.4437,-33.8101,1049.9413],[20.4502,-33.8068,1030.8899],[20.4682,-33.8134,856.1802],[20.4684,-33.8183,930.3782],[20.4805,-33.8228,884.4339],[20.5145,-33.8026,757.1481],[20.4479,-33.774,879.2733],[20.4728,-33.7292,843.9562],[20.4692,-33.682,852.3441],[20.5039,-33.682,821.6732],[20.5352,-33.6607,632.3482],[20.5032,-33.637,693.8564],[20.5744,-33.5388,789.7614],[20.5771,-33.5281,1025.8175],[20.5494,-33.5287,949.8494],[20.5476,-33.5195,1462.9585],[20.4782,-33.5278,693.7495],[20.4756,-33.5134,747.9644],[20.5017,-33.4985,797.4135],[20.498,-33.4639,877.4975],[20.395,-33.4808,756.1645],[20.3362,-33.4878,688.3732],[20.3861,-33.4592,1118.2964],[20.4198,-33.453,1091.0204],[20.4275,-33.4489,1084.3073],[20.4167,-33.4355,1072.8296],[20.4081,-33.4343,1150.6863],[20.3898,-33.424,1345.678],[20.3356,-33.4256,1225.3418],[20.3489,-33.4049,892.8615],[20.3456,-33.3943,830.6028],[20.3537,-33.3941,849.9796],[20.3663,-33.3816,1160.389],[20.368,-33.3663,1308.6605],[20.2487,-33.3776,993.9721],[20.2092,-33.3798,1374.3438],[20.2395,-33.3099,1115.7236],[20.2035,-33.3027,955.2378],[20.2512,-33.2915,951.6249],[20.2356,-33.2624,984.6449],[20.2471,-33.2458,1219.3015],[20.244,-33.2365,1214.5594],[20.2487,-33.2148,1018.5193],[20.258,-33.1884,871.8318],[20.2183,-33.1739,810.7312],[20.2022,-33.1701,1128.6118],[20.2512,-33.1499,799.5189],[20.3064,-33.1593,794.671],[20.3185,-33.1209,789.13],[20.2791,-33.0639,1101.5129],[20.3025,-33.068,1163.3503],[20.3343,-33.0358,1113.275],[20.3838,-33.0363,1144.1929],[20.395,-32.9932,1293.7788],[20.4278,-32.9794,1250.4662],[20.4347,-32.9719,1202.9741],[20.4386,-32.9401,1381.5736],[20.3801,-32.9019,1233.7751],[20.3639,-32.9108,1248.1226],[20.3639,-32.8859,1341.9805],[20.3572,-32.8641,1299.9163],[20.3417,-32.8578,1311.4968],[20.2999,-32.805,1111.2205],[20.2573,-32.7997,1133.0911],[20.219,-32.7847,1154.3724],[20.1876,-32.7527,1161.5024],[20.1917,-32.6858,1105.749],[20.1814,-32.6681,995.5238],[20.1412,-32.6437,1044.1711],[20.1369,-32.611,1086.4209],[20.1147,-32.5702,1044.3839],[20.1228,-32.557,915.8279],[20.0968,-32.503,953.5342],[20.0964,-32.4767,855.0518],[20.0796,-32.3973,424.9939],[20.132,-32.4211,440.8178],[20.1705,-32.3809,476.2451],[20.1635,-32.351,498.7186],[20.216,-32.3032,1459.7396],[20.2542,-32.3108,1610.1226],[20.2463,-32.2526,1528.3007],[20.2408,-32.2242,1570.3475],[20.1664,-32.2275,1244.8777],[20.181,-32.1845,1302.0106],[20.1518,-32.1865,594.2318],[20.1359,-32.1923,592.6766],[20.119,-32.207,535.9449],[20.1141,-32.214,526.3906],[20.1093,-32.2301,508.0833],[20.1001,-32.2427,492.3928],[20.097,-32.2502,503.3463],[20.085,-32.2483,504.1773],[20.0536,-32.2523,568.9379],[20.0386,-32.2964,427.4671],[20.0044,-32.3299,406.5927],[19.9682,-32.3505,422.873],[19.9375,-32.3773,393.3827],[19.8739,-32.3832,352.1604],[19.8495,-32.3662,358.6543],[19.8178,-32.3607,335.7716],[19.8027,-32.3937,323.6179],[19.7641,-32.4111,322.1131],[19.7366,-32.3855,335.365],[19.7313,-32.4101,333.2991],[19.7074,-32.4203,343.6666],[19.7302,-32.4424,353.0581],[19.6996,-32.454,391.9349],[19.6797,-32.4635,372.7944],[19.6681,-32.4548,398.9548],[19.6549,-32.4388,391.2683],[19.6218,-32.4706,504.5298],[19.6265,-32.502,485.4599],[19.6071,-32.5454,434.9721],[19.612,-32.5666,465.3359],[19.6049,-32.6295,497.5035],[19.5872,-32.6478,620.4072],[19.528199999999998,-32.6732,900.7007],[19.4992,-32.6121,741.5452],[19.4868,-32.5654,635.2913],[19.4842,-32.5766,428.9385],[19.485,-32.5799,450.5163],[19.4756,-32.5969,537.6462],[19.4663,-32.6015,462.2637],[19.4608,-32.6076,443.427],[19.4522,-32.6078,445.3119],[19.4535,-32.6125,464.9483],[19.4533,-32.6257,553.0794],[19.4413,-32.6381,940.3475],[19.4379,-32.6259,603.5895],[19.419,-32.6223,974.9863],[19.3961,-32.6067,1346.3409],[19.3712,-32.6089,1147.3223],[19.3569,-32.6164,1184.4788],[19.3412,-32.583,975.5894],[19.32,-32.5746,1029.3235],[19.2812,-32.5814,1344.6787],[19.2647,-32.5887,1487.5972],[19.2231,-32.5747,1553.4897],[19.2026,-32.5776,1590.7985],[19.1592,-32.5719,1393.7327],[19.1486,-32.5855,1371.2365],[19.1564,-32.6043,1470.1832],[19.1376,-32.6046,1156.9568],[19.143,-32.6214,1191.0474],[19.164,-32.6493,1365.49],[19.1717,-32.6639,1489.0601],[19.2048,-32.7111,1154.1416],[19.2086,-32.731,1074.0071],[19.1718,-32.7368,1622.0498],[19.1706,-32.7958,1452.6052],[19.1844,-32.8271,1740.8535],[19.1861,-32.8682,1673.899],[19.1537,-32.984,1377.6083],[19.1655,-33.0354,1710.5743],[19.1774,-33.06,1372.9094],[19.173,-33.0919,1839.0408],[19.1462,-33.1061,2011.4294],[19.0896,-33.1141,291.5274],[19.0561,-33.1401,124.8848],[19.0509,-33.142,115.5626],[19.0198,-33.1417,92.8366],[19.0001,-33.1455,78.4957],[18.9801,-33.1521,68.2215],[18.956,-33.1674,55.2354],[18.9572,-33.1756,58.9247],[18.9565,-33.1881,57.5641],[18.9432,-33.1937,52.3232],[18.9319,-33.2011,45.5143],[18.9333,-33.2033,42.5022],[18.9422,-33.201,48.8019],[18.9471,-33.2024,44.6507],[18.9482,-33.2049,43.9735],[18.9435,-33.2086,43.1678],[18.9571,-33.2218,48.1753],[18.9564,-33.2336,45.8308],[18.9474,-33.2395,49.4658],[18.9507,-33.2475,47.1107],[18.9457,-33.253,48.9816],[18.9468,-33.255,50.0226],[18.9527,-33.2557,48.6443],[18.9547,-33.2598,48.8189],[18.9509,-33.2655,51.5708],[18.9646,-33.2679,51.6863],[18.9667,-33.2746,51.0512],[18.975,-33.2781,51.5538],[18.9761,-33.282,53.9324],[18.9732,-33.2886,53.1093],[18.9812,-33.2924,59.0859],[18.9795,-33.2968,52.7759],[18.9888,-33.299,53.3754],[18.9908,-33.3009,57.0004],[18.9885,-33.3053,57.9439],[18.9974,-33.3076,62.467],[18.9955,-33.3109,59.3059],[18.9958,-33.3138,56.6268],[18.9845,-33.313,54.5167],[18.9784,-33.3185,53.7024],[18.9804,-33.3287,53.201],[18.9873,-33.3295,54.5113],[18.9899,-33.3316,53.1956],[18.9792,-33.3417,53.5639],[18.9812,-33.3451,53.5431],[18.9872,-33.3474,54.4026],[18.9929,-33.3539,55.9746],[18.9857,-33.3616,58.9553],[18.994,-33.3656,58.4027],[18.9908,-33.369,61.278],[18.9907,-33.3722,59.8043],[18.9847,-33.3791,61.0963],[18.9852,-33.3804,58.9671],[18.9931,-33.3823,57.8102],[18.9887,-33.3889,57.5197],[18.9925,-33.3944,58.77],[18.9906,-33.3962,59.7613],[18.9781,-33.3996,64.6541],[18.9778,-33.4017,64.3564],[18.9825,-33.4042,61.0841],[18.9825,-33.4067,59.1098],[18.9769,-33.4076,63.2578],[18.9673,-33.4215,60.7132],[18.9672,-33.4248,64.1281],[18.9702,-33.4281,62.8839],[18.97,-33.4299,66.2547],[18.9617,-33.4296,63.0284],[18.9583,-33.4279,60.9389],[18.9555,-33.4299,59.9461],[18.9562,-33.4351,61.074],[18.9597,-33.4424,65.9711],[18.9555,-33.4485,64.3429],[18.9501,-33.4511,63.175],[18.9486,-33.4558,62.4485],[18.9543,-33.4603,62.53],[18.9542,-33.4619,63.1357],[18.9405,-33.4659,64.8712],[18.938,-33.4701,67.9897],[18.9374,-33.4846,69.1538],[18.934,-33.4917,69.6112],[18.9398,-33.4994,68.9453],[18.9363,-33.5067,71.5207],[18.9399,-33.5214,85.7422],[18.9328,-33.5229,77.9919],[18.9314,-33.5251,85.889],[18.9339,-33.5297,74.9435],[18.9365,-33.5442,86.6435],[18.9381,-33.546,82.8786],[18.9135,-33.5514,85.6642],[18.9128,-33.55,89.2636],[18.9108,-33.5513,94.1844],[18.8997,-33.5511,87.9802],[18.8928,-33.5715,130.3453],[18.8623,-33.5754,129.0843],[18.8559,-33.5691,167.8382],[18.8393,-33.5776,208.4149],[18.8419,-33.5887,374.734],[18.8383,-33.5897,362.43],[18.8363,-33.6044,533.6915],[18.8183,-33.5952,655.6671],[18.8016,-33.6204,482.679],[18.7875,-33.6376,179.7742],[18.8219,-33.6418,189.3756],[18.8022,-33.6737,138.7646],[18.7937,-33.6794,128.8755],[18.7961,-33.6953,103.1302],[18.7946,-33.7068,86.3133],[18.7985,-33.7078,86.5832],[18.8025,-33.7051,87.4927],[18.8062,-33.7102,104.4603],[18.8092,-33.709,92.2158],[18.8102,-33.7137,113.9518],[18.8134,-33.7131,105.761],[18.8132,-33.7065,90.5082],[18.822,-33.7083,92.8433],[18.8211,-33.7166,103.2151],[18.8182,-33.7223,122.0996],[18.833,-33.7382,153.2872],[18.8095,-33.7408,162.997],[18.811,-33.7588,132.5305],[18.7877,-33.7667,142.7139],[18.8098,-33.7813,157.1661],[18.7962,-33.7982,165.0141],[18.7848,-33.8036,135.6936],[18.788,-33.8166,128.1953],[18.7903,-33.818,134.8131],[18.7898,-33.8201,143.1526],[18.7678,-33.8262,137.1439],[18.7684,-33.8327,139.7709],[18.7529,-33.8344,128.3919],[18.7531,-33.85,150.916],[18.7458,-33.8603,130.6882],[18.7457,-33.874,110.0261],[18.7529,-33.8845,95.6168],[18.7514,-33.8935,145.9865],[18.7459,-33.8873,95.5602],[18.7371,-33.8935,88.6704],[18.7356,-33.891,81.2719],[18.7173,-33.8985,89.6994],[18.7166,-33.902,81.8035],[18.7193,-33.9035,73.289],[18.7172,-33.9056,74.411],[18.7153,-33.9036,80.4714],[18.7083,-33.9227,110.6746],[18.7108,-33.9212,108.0268],[18.7248,-33.9258,270.6795],[18.7274,-33.9247,279.1747],[18.7396,-33.9328,311.2729],[18.744,-33.9322,348.8386],[18.7423,-33.9365,245.7506],[18.7398,-33.936,289.7869],[18.7398,-33.9384,253.4917],[18.7369,-33.9406,271.8886],[18.7379,-33.9422,290.214],[18.7308,-33.9628,175.9997],[18.7335,-33.9659,153.7073],[18.7292,-33.9675,124.7033],[18.7407,-33.9841,89.626],[18.7454,-33.9874,99.7986],[18.7377,-33.9893,67.3068],[18.7518,-34.0053,34.9786],[18.7459,-34.0064,37.469],[18.7474,-34.0104,35.3579],[18.7419,-34.0135,27.5477],[18.7448,-34.0193,26.269],[18.7421,-34.0213,13.4274],[18.7444,-34.0248,12.8997],[18.7508,-34.028,12.2259],[18.7548,-34.0346,20.1598],[18.759,-34.0333,28.9622],[18.7637,-34.0387,41.8214],[18.7677,-34.0404,61.2463],[18.7663,-34.0437,30.2022],[18.7827,-34.0495,30.8675],[18.7897,-34.0537,27.081],[18.806,-34.054,77.0858],[18.8092,-34.0634,44.3749],[18.8138,-34.0584,109.527],[18.813,-34.0563,122.9092],[18.8145,-34.0568,122.9092],[18.8152,-34.0512,136.5724],[18.8052,-34.0512,85.0163],[18.819,-34.0397,124.3131],[18.8246,-34.0428,155.07],[18.833,-34.0429,208.1301],[18.8358,-34.0466,255.3565],[18.8418,-34.0471,264.754],[18.8619,-34.0383,718.8925],[18.8604,-34.0364,787.3584],[18.8625,-34.0352,709.5222],[18.862,-34.0337,603.6172],[18.8592,-34.0336,502.699],[18.8553,-34.0309,404.7874],[18.8663,-34.0321,572.8386],[18.8692,-34.0305,596.1615],[18.8722,-34.034,845.3674],[18.8783,-34.034,868.3564],[18.8792,-34.0321,1035.3662],[18.8852,-34.0341,713.368],[18.8852,-34.0303,742.3355],[18.8881,-34.0304,593.4931],[18.8926,-34.0255,776.9616],[18.8972,-34.0264,643.6307],[18.9226,-34.014,551.4474],[18.9227,-34.0128,557.1351],[18.9177,-34.0116,897.5588],[18.9181,-34.0083,814.0811],[18.9222,-34.0028,913.8033],[18.9278,-34.0002,1042.3452]]]]}}