{"type": "Feature","bbox": [30.1648,-23.2243,31.5636,-22.5345],"geometry": {"type": "MultiPolygon","coordinates": [[[[30.6084,-23.1743,489.5993],[30.6113,-23.1742,487.8949],[30.6119,-23.1726,492.9809],[30.6164,-23.174,486.8734],[30.6216,-23.1732,482.9842],[30.6275,-23.1817,481.8675],[30.6522,-23.1574,616.4208],[30.7281,-23.0722,491.3054],[30.7342,-23.0747,490.382],[30.7384,-23.0823,488.9693],[30.7555,-23.0871,485.4324],[30.7625,-23.0863,490.9503],[30.7614,-23.0912,483.3649],[30.7639,-23.0953,482.7333],[30.7682,-23.0933,480.1953],[30.7691,-23.090699999999998,480.7853],[30.7763,-23.0889,477.9068],[30.7769,-23.0861,479.3325],[30.7837,-23.0887,476.8668],[30.7877,-23.0869,477.1989],[30.7892,-23.0894,474.6521],[30.7942,-23.0911,475.8855],[30.7966,-23.0988,473.3928],[30.8057,-23.1048,471.7714],[30.809,-23.1014,468.7817],[30.8129,-23.101,469.3797],[30.8169,-23.095,467.5855],[30.8197,-23.0958,465.3106],[30.8317,-23.0938,464.8583],[30.832,-23.1016,467.8116],[30.8422,-23.1091,460.2411],[30.8399,-23.1119,460.0297],[30.8367,-23.1113,460.6688],[30.8326,-23.1173,459.4028],[30.8436,-23.1246,455.9038],[30.8482,-23.124,455.4919],[30.8511,-23.1209,454.623],[30.8569,-23.1225,458.8491],[30.8608,-23.1284,452.5449],[30.8629,-23.1265,450.1192],[30.8656,-23.127,450.2454],[30.8736,-23.1242,452.894],[30.8755,-23.126,454.5083],[30.8795,-23.1434,446.6986],[30.8791,-23.1488,446.9686],[30.8809,-23.1508,446.6522],[30.8843,-23.1481,445.7693],[30.8902,-23.1479,445.1437],[30.893,-23.1461,445.5663],[30.8969,-23.1423,444.4953],[30.8963,-23.1386,442.8752],[30.8988,-23.1373,440.5099],[30.9043,-23.1387,442.6587],[30.9061,-23.1431,439.6022],[30.9135,-23.1472,436.1848],[30.9208,-23.141,435.0869],[30.9296,-23.1394,433.6992],[30.9446,-23.1794,423.4156],[30.9477,-23.1756,422.9543],[30.9474,-23.1661,417.6533],[30.9498,-23.1645,418.0883],[30.9564,-23.1643,416.6284],[30.9587,-23.1661,414.8857],[30.962,-23.1701,412.8447],[30.9612,-23.174,413.1749],[30.9649,-23.1721,409.2542],[30.9669,-23.1741,408.5145],[30.9687,-23.1737,409.1662],[30.9804,-23.1689,407.1898],[30.9848,-23.17,405.9053],[30.992,-23.1754,403.159],[30.9984,-23.1734,404.4883],[31.006,-23.1748,402.5312],[31.0149,-23.1722,401.4472],[31.0206,-23.1731,399.8371],[31.0242,-23.1775,405.5316],[31.0234,-23.1811,399.3901],[31.0206,-23.1841,398.3171],[31.0248,-23.1922,397.7332],[31.0362,-23.1969,394.6467],[31.0405,-23.1926,393.066],[31.0368,-23.1809,388.0471],[31.0424,-23.1769,387.6521],[31.047,-23.1778,386.9792],[31.0519,-23.1748,383.7063],[31.0545,-23.1761,391.6609],[31.0573,-23.1836,380.8973],[31.0622,-23.1871,380.8324],[31.0626,-23.1912,380.2439],[31.0754,-23.1992,376.7795],[31.0814,-23.209,375.0608],[31.0859,-23.2098,375.0282],[31.088,-23.2125,372.5487],[31.0907,-23.211,372.4944],[31.0948,-23.2046,372.6634],[31.0939,-23.1982,370.463],[31.096,-23.1963,372.3557],[31.103,-23.196,371.3223],[31.104,-23.1922,370.4693],[31.1079,-23.1895,367.3115],[31.1099,-23.1823,368.6077],[31.1151,-23.18,364.6305],[31.1207,-23.1734,365.4858],[31.1262,-23.1705,362.845],[31.1308,-23.1754,366.3319],[31.129,-23.1796,361.3473],[31.1323,-23.182,358.4666],[31.1372,-23.1825,358.7509],[31.1451,-23.1784,356.276],[31.1462,-23.1824,356.8995],[31.1491,-23.1832,362.322],[31.1458,-23.1883,354.2456],[31.1478,-23.1924,352.7918],[31.1512,-23.1893,352.0048],[31.1567,-23.1881,352.8869],[31.1628,-23.1898,353.1957],[31.1669,-23.1932,350.1623],[31.1675,-23.1947,351.4791],[31.1626,-23.203,346.7289],[31.1638,-23.2073,346.0012],[31.1776,-23.2039,345.4736],[31.1879,-23.2079,341.9252],[31.1979,-23.209,339.645],[31.2057,-23.2187,337.4499],[31.2135,-23.2206,335.9527],[31.2205,-23.215699999999998,334.7813],[31.2245,-23.2176,331.6391],[31.2356,-23.2066,329.5913],[31.2459,-23.2069,325.9008],[31.2574,-23.2037,322.8228],[31.2597,-23.1994,322.8225],[31.2575,-23.1944,321.9628],[31.2615,-23.1875,322.3531],[31.2804,-23.1861,319.2274],[31.2946,-23.1796,313.8359],[31.2956,-23.1732,313.6537],[31.2982,-23.172,315.2001],[31.3029,-23.1738,312.0082],[31.3118,-23.1695,306.3214],[31.3163,-23.1724,299.7003],[31.3262,-23.1744,295.5385],[31.3325,-23.1673,293.7075],[31.3364,-23.1674,294.5096],[31.3427,-23.1642,293.6851],[31.3469,-23.1605,290.864],[31.3473,-23.1537,291.0772],[31.3558,-23.1423,287.925],[31.3663,-23.1416,285.9597],[31.3756,-23.1374,287.7166],[31.3793,-23.1236,281.9302],[31.378,-23.1204,285.158],[31.3746,-23.1182,283.4971],[31.3767,-23.1073,276.7773],[31.3837,-23.106,280.265],[31.3851,-23.0959,274.0376],[31.4042,-23.097,273.8265],[31.4119,-23.0911,270.442],[31.4182,-23.093,274.5439],[31.4261,-23.0984,270.8785],[31.4311,-23.1058,267.3063],[31.4463,-23.1082,263.7833],[31.4563,-23.1127,267.0765],[31.4571,-23.1159,260.3],[31.4524,-23.1323,260.5491],[31.4583,-23.1418,258.1189],[31.4618,-23.1436,258.5477],[31.4688,-23.1428,259.8094],[31.4744,-23.1448,254.8902],[31.4767,-23.1493,256.5593],[31.4766,-23.1534,253.8924],[31.4785,-23.1545,255.1097],[31.5008,-23.1591,251.2568],[31.5042,-23.1683,251.7996],[31.5092,-23.1705,252.4299],[31.5201,-23.1815,246.3198],[31.5372,-23.1901,242.8542],[31.5415,-23.1992,242.8116],[31.5423,-23.2108,243.4107],[31.5565,-23.2222,236.2074],[31.5614,-23.2243,252.4544],[31.5636,-23.1982,288.2188],[31.5458,-23.1372,282.747],[31.3449,-22.5345,407.221],[31.333,-22.546,417.8425],[31.1785,-22.672,409.5126],[31.0703,-22.8021,407.311],[30.9778,-22.8197,413.9639],[30.9919,-22.7741,492.9539],[31.0134,-22.7278,606.6772],[30.973,-22.7253,629.3557],[30.8888,-22.7128,411.395],[30.8876,-22.7106,409.2418],[30.8904,-22.7057,401.8226],[30.9005,-22.7006,400.8231],[30.9081,-22.691,396.5944],[30.9013,-22.6865,396.1495],[30.8964,-22.6901,496.9088],[30.8948,-22.6897,495.4996],[30.8868,-22.6829,622.2073],[30.8475,-22.6861,662.6349],[30.818,-22.6917,654.7159],[30.8097,-22.6791,577.0981],[30.7826,-22.6535,540.1285],[30.7774,-22.6441,556.1489],[30.7739,-22.6318,515.2259],[30.7621,-22.6245,566.2542],[30.7614,-22.6295,480.818],[30.7423,-22.6392,499.5852],[30.7354,-22.6399,539.568],[30.7325,-22.6375,506.3643],[30.7279,-22.637,496.4557],[30.7225,-22.6399,511.3096],[30.7225,-22.644,517.7413],[30.7302,-22.6523,527.0565],[30.7305,-22.6573,525.473],[30.7278,-22.6606,552.8939],[30.7227,-22.6622,557.1903],[30.7162,-22.6669,534.4696],[30.7082,-22.6681,542.0423],[30.7056,-22.6702,540.3801],[30.701,-22.676,535.6395],[30.7006,-22.6816,546.3113],[30.6954,-22.6862,550.0971],[30.6971,-22.695,588.0355],[30.6958,-22.7008,626.7797],[30.6905,-22.7067,728.8639],[30.6794,-22.7115,761.0998],[30.6385,-22.7151,564.9279],[30.6316,-22.7204,564.0197],[30.6321,-22.728,586.1907],[30.6282,-22.7321,621.4718],[30.6155,-22.7342,564.9374],[30.6126,-22.7403,570.3673],[30.613,-22.7467,567.6799],[30.6037,-22.7458,589.1476],[30.5972,-22.7476,594.0153],[30.5864,-22.7537,573.8997],[30.5825,-22.7583,574.2326],[30.5741,-22.7635,576.5445],[30.5642,-22.7631,576.8082],[30.5551,-22.7652,584.2049],[30.5486,-22.7631,582.2822],[30.5426,-22.7663,588.7468],[30.5378,-22.7732,584.6658],[30.5361,-22.7729,587.1606],[30.5362,-22.7704,590.7709],[30.5322,-22.7703,587.8517],[30.5313,-22.776,588.062],[30.5243,-22.7796,595.8524],[30.5159,-22.7773,594.8258],[30.5097,-22.7783,593.0614],[30.5013,-22.7772,600.9628],[30.497,-22.7795,610.5438],[30.496,-22.7829,598.4288],[30.4892,-22.7902,607.8079],[30.4791,-22.7852,610.5579],[30.4722,-22.787,609.2119],[30.4649,-22.7922,617.4334],[30.4627,-22.7925,615.3364],[30.4586,-22.7899,617.1731],[30.4501,-22.7933,628.9264],[30.4477,-22.7928,622.7234],[30.4392,-22.8018,642.9708],[30.4288,-22.8023,644.6763],[30.422,-22.8064,660.3044],[30.4172,-22.8055,661.2335],[30.4079,-22.8131,683.1954],[30.4002,-22.8108,686.626],[30.3969,-22.8122,679.6146],[30.394,-22.8169,726.9152],[30.3868,-22.8171,691.0106],[30.3783,-22.8197,723.0023],[30.3641,-22.828,721.8375],[30.3519,-22.8324,747.1055],[30.3463,-22.8317,745.679],[30.3444,-22.8341,746.4705],[30.341,-22.8337,745.8168],[30.3312,-22.8383,763.5376],[30.3251,-22.8381,787.1844],[30.3203,-22.8411,837.0686],[30.3004,-22.8248,1402.8354],[30.2866,-22.8494,1203.1315],[30.2726,-22.8487,1394.2939],[30.2296,-22.8609,1494.7927],[30.2257,-22.8576,1344.8561],[30.2269,-22.8495,1322.4545],[30.2182,-22.8161,1150.0613],[30.2196,-22.8044,979.7051],[30.215,-22.7793,753.162],[30.2089,-22.7809,717.9047],[30.2042,-22.7792,704.636],[30.2054,-22.7826,728.1003],[30.1902,-22.8595,1199.7056],[30.1874,-22.8847,844.7511],[30.207,-22.8886,924.9385],[30.2005,-22.9109,794.0005],[30.1973,-22.908,793.0089],[30.1849,-22.9052,786.752],[30.1648,-22.925,1451.4216],[30.1972,-22.9422,1186.902],[30.2221,-22.9601,1111.1431],[30.3077,-22.974,1383.6779],[30.2885,-22.992,1430.5718],[30.3221,-23.0154,1175.8512],[30.3123,-23.0239,1172.3225],[30.3587,-23.0279,677.7815],[30.3603,-23.0324,660.5049],[30.362,-23.033,653.7128],[30.3617,-23.0348,651.0692],[30.3682,-23.039,632.9869],[30.3687,-23.0452,611.4209],[30.3704,-23.0473,608.3245],[30.3695,-23.0494,602.9118],[30.3716,-23.0501,599.9734],[30.3716,-23.0543,592.4711],[30.373,-23.054,592.4711],[30.3718,-23.0553,590.2573],[30.3736,-23.0572,588.136],[30.3819,-23.0581,578.6812],[30.3836,-23.0561,586.5825],[30.3854,-23.0588,571.6467],[30.3877,-23.0592,571.3262],[30.3921,-23.0578,566.0863],[30.3967,-23.0646,590.9606],[30.4101,-23.0947,568.2598],[30.4127,-23.0903,569.4113],[30.4176,-23.0886,566.6641],[30.4163,-23.0865,569.0352],[30.4171,-23.0853,564.5212],[30.425,-23.0844,562.1342],[30.4298,-23.0818,561.5164],[30.4363,-23.0831,563.2509],[30.439,-23.0852,559.386],[30.4468,-23.0817,559.6855],[30.4497,-23.0747,556.7917],[30.4664,-23.0805,552.0312],[30.4667,-23.0834,545.8555],[30.4702,-23.0844,543.6768],[30.4667,-23.0871,547.2798],[30.4676,-23.0902,550.4627],[30.4651,-23.0937,552.2617],[30.4668,-23.0945,556.5153],[30.4665,-23.0967,555.1412],[30.4702,-23.1036,560.747],[30.4732,-23.105,563.8647],[30.4694,-23.1098,570.4652],[30.4713,-23.1125,567.7569],[30.4707,-23.1155,569.76],[30.4682,-23.116,573.396],[30.4703,-23.1187,573.6404],[30.4704,-23.122,575.2332],[30.4728,-23.1207,578.0797],[30.473,-23.1223,575.6847],[30.4751,-23.1217,576.673],[30.4757,-23.1249,577.8748],[30.4809,-23.1276,589.0219],[30.484,-23.1315,585.0009],[30.4964,-23.1343,596.3337],[30.4998,-23.1422,606.5721],[30.5075,-23.1464,598.5973],[30.5169,-23.1484,582.8022],[30.5178,-23.1514,583.9854],[30.5161,-23.1534,576.6089],[30.5189,-23.1591,569.3331],[30.518,-23.1601,567.4084],[30.522,-23.1658,562.8352],[30.5304,-23.1619,554.233],[30.5347,-23.1618,550.0267],[30.5427,-23.1686,542.7649],[30.5487,-23.1677,541.7668],[30.5488,-23.1704,536.5635],[30.5516,-23.1734,534.4642],[30.5633,-23.1748,529.5149],[30.5639,-23.1777,524.822],[30.5658,-23.1784,522.7515],[30.5652,-23.18,524.3715],[30.5738,-23.1772,515.7109],[30.5783,-23.1807,510.7872],[30.5899,-23.178,512.0098],[30.5901,-23.1838,501.9163],[30.5946,-23.1849,499.0059],[30.598,-23.1826,497.2754],[30.6024,-23.1832,496.2762],[30.6046,-23.1811,496.314],[30.6048,-23.1753,491.0985],[30.6084,-23.1743,489.5993]]]]}
,"properties": {"GID_3": "ZAF.5.4.4_1","GID_0": "ZAF","country": "SouthAfrica","GID_1": "ZAF.5_1","province": "Limpopo","NL_NAME_1": "NA","GID_2": "ZAF.5.4_1","county": "Vhembe","NL_NAME_2": "NA","city": "Thulamela","VARNAME_3": "NA","NL_NAME_3": "NA","TYPE_3": "LocalMunicipality","ENGTYPE_3": "LocalMunicipality","CC_3": "LIM343","HASC_3": "NA","name": "Thulamela.city","area_km2": 5848.804,"hist_schema_id": "Elevation0-9000","hist_area_km2": {"250": 19.511,"275": 103.691,"300": 270.81,"325": 380.639,"350": 464.695,"375": 580.508,"400": 569.776,"425": 444.527,"450": 473.171,"475": 354.555,"500": 292.789,"525": 279.644,"550": 262.768,"575": 215.706,"600": 156.243,"625": 115.851,"650": 83.907,"675": 65.009,"700": 57.302,"725": 54.918,"750": 53.298,"775": 49.973,"800": 47.213,"825": 46.976,"850": 40.428,"875": 37.472,"900": 29.851,"925": 24.75,"950": 21.994,"975": 20.196,"1000": 19.473,"1025": 18.028,"1050": 17.695,"1075": 18.223,"1100": 18.106,"1125": 17.52,"1150": 15.216,"1175": 14.786,"1200": 15.04,"1225": 14.474,"1250": 13.361,"1275": 12.657,"1300": 10.801,"1325": 9.18,"1350": 5.821,"1375": 4.668,"1400": 2.852,"1425": 1.348,"1450": 0.567,"1475": 0.547,"1500": 0.117,"1525": 0.117}}}