{"type":"Feature","properties":{"GID_3":"ZAF.6.1.1_1","GID_0":"ZAF","country":"SouthAfrica","GID_1":"ZAF.6_1","province":"Mpumalanga","NL_NAME_1":"NA","GID_2":"ZAF.6.1_1","county":"Ehlanzeni","NL_NAME_2":"NA","city":"Bushbuckridge","VARNAME_3":"NA","NL_NAME_3":"NA","TYPE_3":"LocalMunicipality","ENGTYPE_3":"LocalMunicipality","CC_3":"MP325","HASC_3":"NA","name":"Bushbuckridge.city"},
"geometry":{"type": "MultiPolygon","coordinates": [[[[31.2527,-24.9813,389.9505],[31.2677,-24.9797,382.062],[31.2889,-24.9887,374.0503],[31.2994,-24.9804,367.7128],[31.3065,-24.9811,367.342],[31.3115,-24.9792,362.3011],[31.3126,-24.977,359.0261],[31.312,-24.9674,354.6451],[31.315,-24.9646,354.4423],[31.3349,-24.9697,345.0006],[31.3454,-24.9775,341.7625],[31.352,-24.9734,339.1934],[31.3566,-24.9764,340.251],[31.363,-24.9764,332.8546],[31.3638,-24.9734,329.8877],[31.3688,-24.9687,328.4937],[31.3738,-24.966,327.8773],[31.3817,-24.9646,320.3606],[31.3944,-24.9718,315.5469],[31.411,-24.969,313.496],[31.4161,-24.9701,311.9258],[31.4216,-24.9727,313.4626],[31.428,-24.9819,312.5802],[31.4392,-24.9879,307.8152],[31.4474,-24.9862,304.8446],[31.455,-24.9881,299.2697],[31.4604,-24.9855,295.2226],[31.4708,-24.9875,289.8837],[31.4769,-24.9858,289.6637],[31.4842,-24.9773,287.7691],[31.4911,-24.9752,285.3059],[31.4954,-24.9687,279.9389],[31.5004,-24.9678,284.9822],[31.5046,-24.9703,278.8619],[31.5165,-24.9686,273.7338],[31.5303,-24.9752,272.9695],[31.5338,-24.9707,279.0148],[31.5455,-24.9713,274.5026],[31.5488,-24.9689,268.3777],[31.5513,-24.9626,270.9988],[31.5651,-24.9604,267.2256],[31.5687,-24.9621,270.2367],[31.5718,-24.9671,264.9663],[31.5823,-24.9716,263.7251],[31.5853,-24.9762,265.1832],[31.5873,-24.9862,260.0359],[31.5902,-24.9902,259.6877],[31.5937,-24.9919,259.8993],[31.6166,-24.9889,252.6848],[31.6428,-24.9778,252.9534],[31.6492,-24.9772,242.1898],[31.6618,-24.9728,240.3226],[31.6743,-24.9652,236.7535],[31.7032,-24.9628,231.2468],[31.7117,-24.9599,234.0726],[31.7169,-24.9543,228.7775],[31.7254,-24.9538,224.3064],[31.7351,-24.9598,224.0003],[31.7561,-24.9679,213.1452],[31.7612,-24.9726,209.0669],[31.7683,-24.9745,207.6931],[31.7693,-24.9792,207.2061],[31.7681,-24.9877,211.968],[31.7699,-24.9966,215.0854],[31.7792,-25.0044,201.8986],[31.783,-25.0117,197.9297],[31.7984,-25.0306,193.268],[31.8,-25.0352,191.0974],[31.8229,-25.0617,182.4384],[31.8385,-25.0694,176.3742],[31.8626,-25.0759,170.404],[31.8814,-25.0981,175.1201],[31.9018,-25.1034,164.3152],[31.9155,-25.1165,158.5683],[31.921,-25.1194,163.4494],[31.942,-25.1248,155.0249],[31.9448,-25.1283,155.7405],[31.9458,-25.1347,158.2781],[31.9413,-25.1505,157.1451],[31.9432,-25.1563,152.2207],[31.9475,-25.162,146.9043],[31.9527,-25.1641,147.0776],[31.9625,-25.1646,145.7609],[31.9933,-25.1596,135.2638],[32.0028,-25.1635,131.7035],[32.0151,-25.1848,125.162],[32.0245,-25.1874,117.0707],[32.032,-25.1831,110.5],[32.0336,-25.1325,271.5422],[32.0302,-25.0657,303.8351],[32.0155,-24.9251,403.6624],[31.9983,-24.6897,362.5546],[32.0089,-24.5751,288.8507],[32.0131,-24.4546,157.9758],[31.9871,-24.3022,310.5925],[31.9813,-24.2973,312.619],[31.908,-24.1824,383.9952],[31.8838,-23.9846,240.2158],[31.8527,-23.9869,183.7233],[31.825,-23.9862,155.1718],[31.8216,-23.9909,166.491],[31.8221,-23.9965,154.2216],[31.8204,-23.9984,137.2109],[31.8125,-23.9993,141.1137],[31.8047,-23.9972,174.8029],[31.8012,-23.9941,148.7221],[31.7946,-23.9919,153.2176],[31.7827,-23.9821,145.047],[31.7764,-23.9812,170.0869],[31.77,-23.9832,168.1136],[31.7466,-24.0035,172.14],[31.7349,-24.0113,176.092],[31.7336,-24.0184,174.2788],[31.7376,-24.039,185.6992],[31.7358,-24.0461,180.1823],[31.7187,-24.0568,181.125],[31.7019,-24.0599,186.0474],[31.6837,-24.0595,191.607],[31.68,-24.0567,191.0403],[31.6743,-24.043,193.6214],[31.6688,-24.021,196.7436],[31.666,-24.0167,212.1032],[31.6593,-24.0141,210.8795],[31.6326,-24.0179,214.3075],[31.6209,-24.0233,205.163],[31.6096,-24.0363,218.504],[31.6083,-24.0476,209.9762],[31.5981,-24.0563,210.4803],[31.5947,-24.0564,208.9532],[31.5869,-24.0528,210.1764],[31.5803,-24.0471,211.3924],[31.5737,-24.0373,213.2165],[31.5682,-24.0331,218.1344],[31.5487,-24.0372,244.218],[31.5446,-24.0424,230.5433],[31.5426,-24.054,221.7982],[31.5291,-24.0567,223.5296],[31.5209,-24.0543,224.8384],[31.5099,-24.0432,233.5779],[31.5055,-24.0408,235.866],[31.482,-24.0316,229.9831],[31.4625,-24.0296,237.7224],[31.4476,-24.0199,233.441],[31.4409,-24.021,251.2215],[31.4406,-24.0383,249.8926],[31.4312,-24.0523,247.7111],[31.42,-24.0564,242.3847],[31.399,-24.0676,254.6326],[31.3926,-24.0658,242.7989],[31.3864,-24.0522,246.3887],[31.3791,-24.0522,267.5557],[31.3651,-24.0685,264.5912],[31.36,-24.0712,262.7986],[31.3495,-24.0727,270.4736],[31.3206,-24.0826,268.5325],[31.3132,-24.0814,265.7547],[31.3016,-24.0738,258.5803],[31.2934,-24.0744,278.8795],[31.2751,-24.0938,275.2755],[31.2641,-24.0998,270.8895],[31.2572,-24.101,275.0723],[31.2523,-24.0977,271.9108],[31.2452,-24.0714,282.5845],[31.2347,-24.0576,277.7687],[31.22,-24.0456,273.6205],[31.206,-24.041,279.0201],[31.1968,-24.0327,285.6949],[31.1919,-24.0311,284.416],[31.1757,-24.0364,283.9176],[31.1713,-24.0442,293.6113],[31.1698,-24.0586,292.7978],[31.1626,-24.06,292.3432],[31.1471,-24.0697,304.7169],[31.1338,-24.0737,305.0],[31.1206,-24.0682,306.8308],[31.1009,-24.0708,312.2483],[31.0942,-24.0755,308.9205],[31.0731,-24.0827,315.2034],[31.0634,-24.0915,315.3948],[31.086,-24.0945,401.5623],[31.1206,-24.0903,340.3636],[31.1151,-24.1192,391.706],[31.0961,-24.1174,400.926],[31.1073,-24.1457,431.757],[31.0499,-24.1873,430.8296],[31.0544,-24.2319,478.8547],[31.0604,-24.2718,477.6372],[31.056,-24.3219,476.8023],[31.1022,-24.3237,479.6738],[31.1525,-24.3187,448.2609],[31.2001,-24.305,465.144],[31.242,-24.3654,470.2492],[31.16,-24.3756,467.9514],[31.16,-24.4374,509.602],[31.2032,-24.4265,517.5305],[31.2537,-24.4991,518.1112],[31.2262,-24.556,520.9554],[31.0537,-24.5703,655.5724],[30.9593,-24.5821,685.8248],[30.9543,-24.5213,664.8846],[30.9089,-24.5258,837.8264],[30.8717,-24.5385,1814.5959],[30.795,-24.5775,1315.9564],[30.8587,-24.6143,1556.8336],[30.8989,-24.6304,1761.9041],[30.9091,-24.6444,1601.1315],[30.9132,-24.6728,1698.7386],[30.8899,-24.7087,1349.1172],[30.907,-24.7229,1381.364],[30.8988,-24.7404,1656.1581],[30.9027,-24.7467,1436.2975],[30.9093,-24.7848,1767.2407],[30.9194,-24.8052,1673.8798],[30.9743,-24.8204,979.4191],[31.0054,-24.837,965.0015],[31.0174,-24.8744,920.9877],[31.0268,-24.9141,855.4371],[31.0305,-24.965699999999998,961.3053],[31.0316,-24.9969,904.5974],[31.024,-24.9952,883.0748],[31.0157,-25.0292,537.0416],[31.0306,-25.0311,510.7027],[31.037,-25.027,519.6791],[31.0476,-25.0311,501.6509],[31.0518,-25.028,501.606],[31.0611,-25.0316,503.3454],[31.0668,-25.0285,496.365],[31.0829,-25.0313,492.4223],[31.0866,-25.0296,487.0813],[31.0642,-25.0005,770.8472],[31.0607,-24.9954,871.9694],[31.0611,-24.9939,840.2578],[31.1395,-24.9822,704.722],[31.1362,-24.9893,646.2822],[31.1413,-24.9966,662.0501],[31.1394,-25.0032,633.8834],[31.1481,-25.0061,626.7623],[31.153199999999998,-25.0226,444.9503],[31.1691,-25.024,433.166],[31.1794,-25.0215,426.5328],[31.183,-25.0189,426.7061],[31.2493,-25.0184,403.9749],[31.2525,-25.0166,401.0168],[31.253,-25.0147,400.3543],[31.2486,-25.0099,399.4913],[31.254,-25.0031,395.9525],[31.2496,-24.9971,397.1262],[31.2502,-24.9921,390.7379],[31.2546,-24.9866,396.5135],[31.2527,-24.9813,389.9505]]]]}}