{"type": "Feature","bbox": [29.0263,-23.8114,30.0473,-23.2345],"geometry": {"type": "MultiPolygon","coordinates": [[[[29.3364,-23.5886,1139.2004],[29.3363,-23.5946,1148.8334],[29.3554,-23.6401,1163.2611],[29.4137,-23.6211,1176.2859],[29.4326,-23.6246,1169.2397],[29.4244,-23.6576,1208.079],[29.4345,-23.6962,1277.3452],[29.4459,-23.7127,1220.6804],[29.4644,-23.7115,1217.1394],[29.4685,-23.7263,1191.662],[29.4659,-23.7635,1186.1222],[29.5008,-23.8114,1245.5188],[29.51,-23.8019,1223.6525],[29.5117,-23.803,1220.2081],[29.5151,-23.8004,1216.6237],[29.513,-23.7989,1219.9456],[29.5321,-23.7805,1194.3677],[29.5382,-23.7955,1215.5253],[29.5416,-23.7907,1206.6617],[29.5476,-23.806,1214.9231],[29.5982,-23.781,1180.6832],[29.597,-23.7777,1175.9288],[29.676,-23.7513,1211.3125],[29.7362,-23.716,1272.2764],[29.7398,-23.6996,1238.5398],[29.7952,-23.6808,1212.0596],[29.8258,-23.7268,1341.9529],[29.8457,-23.6961,1277.5171],[29.8879,-23.6794,1294.3762],[29.8979,-23.6701,1287.4603],[29.9321,-23.6629,1198.9761],[29.9611,-23.6601,910.1756],[29.9479,-23.64,1077.9926],[29.949,-23.6277,1069.7524],[29.9698,-23.6105,971.287],[29.9991,-23.5918,823.8446],[30.0148,-23.5864,783.2616],[30.0364,-23.573,745.6678],[30.0427,-23.541,978.4543],[30.0473,-23.5352,886.3907],[30.0131,-23.5016,1177.1469],[30.027,-23.4899,1196.0734],[30.018,-23.4634,1123.7238],[29.9973,-23.4699,1213.4219],[30.006,-23.4478,1204.3955],[30.0194,-23.4313,1184.8456],[30.0308,-23.4363,1186.8136],[30.0433,-23.4256,1150.7485],[30.0392,-23.396,1178.2747],[30.0433,-23.3825,1149.1655],[30.0355,-23.375,1053.9895],[30.0377,-23.3387,932.0184],[29.9972,-23.3375,1077.5326],[29.9898,-23.3582,1046.8185],[29.9893,-23.3777,1050.821],[29.9838,-23.3831,1071.5913],[29.976,-23.381,1029.6051],[29.9742,-23.3826,1026.1842],[29.9716,-23.3818,1043.8867],[29.9708,-23.3798,1041.0569],[29.9652,-23.3782,1053.9761],[29.958,-23.3856,1079.4449],[29.9481,-23.3857,1102.5984],[29.9349,-23.3715,1114.1097],[29.9304,-23.379,1122.3723],[29.9311,-23.3967,1166.4564],[29.9281,-23.4022,1162.6655],[29.9155,-23.4055,1135.6949],[29.9028,-23.4017,1104.7925],[29.9,-23.4023,1100.1663],[29.8963,-23.4079,1120.147],[29.8942,-23.4189,1165.6064],[29.8784,-23.4061,1151.0345],[29.8668,-23.4374,1164.801],[29.8408,-23.4301,1124.0735],[29.8096,-23.4266,1118.9573],[29.7654,-23.4293,1135.4513],[29.7419,-23.4352,1086.4373],[29.7401,-23.4058,1065.3732],[29.7117,-23.4215,1050.3247],[29.6788,-23.416,1048.2046],[29.6379,-23.401,1006.9821],[29.6265,-23.4253,984.3235],[29.6178,-23.4265,982.6931],[29.6146,-23.4249,978.5618],[29.6116,-23.4205,979.6767],[29.6093,-23.4075,971.8124],[29.6109,-23.403199999999998,968.0269],[29.6173,-23.3956,963.6429],[29.6185,-23.3891,964.0449],[29.6103,-23.384,957.9906],[29.6004,-23.372,956.8225],[29.612,-23.3442,950.0909],[29.6118,-23.3363,939.2589],[29.6228,-23.327,936.051],[29.6215,-23.3246,935.9596],[29.617,-23.3224,927.4963],[29.5983,-23.298,919.4491],[29.5914,-23.2928,917.2322],[29.5927,-23.2837,913.3307],[29.5909,-23.2763,914.6512],[29.5918,-23.2683,909.7938],[29.5604,-23.2705,960.5507],[29.5341,-23.2754,959.9897],[29.4836,-23.2761,971.2817],[29.4277,-23.28,942.9685],[29.4405,-23.2463,929.594],[29.358,-23.2388,965.524],[29.3155,-23.2515,990.4565],[29.2552,-23.2345,996.4398],[29.2511,-23.2487,1002.496],[29.2372,-23.2453,991.494],[29.2344,-23.2508,1001.8693],[29.2408,-23.2526,998.4182],[29.2355,-23.2631,1014.2749],[29.2203,-23.259,1002.8408],[29.2009,-23.2906,1024.9569],[29.1631,-23.2769,985.7973],[29.1572,-23.3188,1010.9447],[29.1222,-23.3069,982.7772],[29.0821,-23.3,983.3073],[29.0565,-23.3314,999.4264],[29.0263,-23.3766,1048.3398],[29.0769,-23.3886,1055.4711],[29.0663,-23.4228,1093.8743],[29.1034,-23.4292,1082.4038],[29.1485,-23.444,1113.1487],[29.1628,-23.4454,1109.2982],[29.1759,-23.4489,1119.9453],[29.1958,-23.4081,1101.6963],[29.2307,-23.4257,1090.4432],[29.2191,-23.4582,1184.8235],[29.2129,-23.4942,1173.9709],[29.2249,-23.4994,1153.3933],[29.2771,-23.4838,1125.182],[29.3068,-23.5425,1113.7509],[29.348,-23.5272,1087.0194],[29.351,-23.5406,1095.7671],[29.3637,-23.5665,1110.3544],[29.3365,-23.577,1138.8207],[29.3364,-23.5886,1139.2004]]]]}
,"properties": {"GID_3": "ZAF.5.1.4_1","GID_0": "ZAF","country": "SouthAfrica","GID_1": "ZAF.5_1","province": "Limpopo","NL_NAME_1": "NA","GID_2": "ZAF.5.1_1","county": "Capricorn","NL_NAME_2": "NA","city": "Molemole","VARNAME_3": "NA","NL_NAME_3": "NA","TYPE_3": "LocalMunicipality","ENGTYPE_3": "LocalMunicipality","CC_3": "LIM353","HASC_3": "NA","name": "Molemole.city","area_km2": 3354.955,"hist_schema_id": "Elevation0-9000","hist_area_km2": {"750": 1.03,"775": 5.169,"800": 6.51,"825": 6.686,"850": 7.929,"875": 8.416,"900": 7.755,"925": 16.366,"950": 76.406,"975": 159.05,"1000": 273.364,"1025": 348.287,"1050": 381.825,"1075": 386.258,"1100": 353.25,"1125": 307.924,"1150": 318.196,"1175": 270.177,"1200": 200.602,"1225": 127.615,"1250": 60.139,"1275": 21.533,"1300": 4.893,"1325": 2.272,"1350": 1.476,"1375": 0.835,"1400": 0.544,"1425": 0.311,"1450": 0.058,"1475": 0.078}}}