{"type": "Feature","bbox": [27.5691,-26.7993,28.0249,-26.419],"geometry": {"type": "MultiPolygon","coordinates": [[[[27.8549,-26.7464,1421.3402],[27.8663,-26.7462,1423.1531],[27.8727,-26.7477,1424.6233],[27.8823,-26.7447,1420.256],[27.8847,-26.7343,1423.2719],[27.893,-26.7256,1421.2394],[27.8956,-26.7193,1419.5],[27.8918,-26.7144,1422.6757],[27.8932,-26.711,1425.1505],[27.908,-26.7059,1423.8872],[27.9135,-26.7065,1423.6014],[27.9256,-26.7038,1420.728],[27.9352,-26.6927,1419.5],[27.9361,-26.6866,1420.9622],[27.941,-26.6759,1422.6892],[27.9522,-26.6718,1421.7654],[27.9632,-26.6712,1425.2954],[27.9695,-26.6687,1420.0],[27.9765,-26.671,1421.8591],[27.9827,-26.6801,1424.002],[27.9992,-26.6954,1434.5725],[28.0005,-26.7033,1420.5],[28.0021,-26.7034,1431.1808],[28.0048,-26.7145,1428.6604],[28.0173,-26.7161,1450.6018],[28.0165,-26.6967,1452.0093],[28.0249,-26.6954,1454.6754],[28.0217,-26.6783,1448.135],[28.0022,-26.6747,1444.2667],[28.0038,-26.6645,1441.7344],[28.0079,-26.6654,1439.8628],[28.0092,-26.6703,1428.5659],[28.0208,-26.6726,1428.4774],[28.0204,-26.6704,1436.9497],[28.0125,-26.6591,1460.6302],[28.0137,-26.6524,1457.0078],[27.9622,-26.6441,1428.519],[27.9586,-26.6476,1431.5747],[27.959,-26.6511,1431.6812],[27.9496,-26.6495,1444.149],[27.9855,-26.6024,1449.9468],[27.9812,-26.6023,1457.8308],[27.9693,-26.5921,1469.5063],[27.9662,-26.5949,1467.8018],[27.9456,-26.5963,1472.3193],[27.983,-26.5558,1505.5586],[27.9809,-26.5542,1509.9485],[27.963,-26.5502,1507.905],[27.9028,-26.5248,1538.4567],[27.9088,-26.5127,1542.5062],[27.8937,-26.5077,1541.0656],[27.888,-26.5352,1522.6821],[27.8867,-26.5224,1525.4292],[27.8756,-26.5205,1530.031],[27.8529,-26.5003,1543.251],[27.8351,-26.4904,1552.911],[27.8277,-26.5044,1542.8678],[27.8245,-26.4799,1547.722],[27.8217,-26.4849,1550.1709],[27.7796,-26.4792,1515.1823],[27.7789,-26.485,1507.7502],[27.7597,-26.4839,1516.0659],[27.7592,-26.4447,1557.1653],[27.7689,-26.4457,1554.2114],[27.7693,-26.451,1544.9492],[27.7803,-26.4526,1575.0332],[27.7834,-26.4467,1585.1704],[27.7859,-26.4476,1582.726],[27.7945,-26.4289,1654.5743],[27.7916,-26.4202,1640.2451],[27.7862,-26.419,1588.1195],[27.749,-26.4192,1691.048],[27.7452,-26.4378,1575.2],[27.7323,-26.4387,1579.5717],[27.7275,-26.4312,1583.782],[27.7134,-26.4424,1585.1876],[27.7097,-26.4547,1587.558],[27.7143,-26.4894,1573.1196],[27.7101,-26.53,1493.8726],[27.676,-26.5243,1491.2651],[27.6756,-26.5291,1486.5477],[27.679,-26.5366,1484.918],[27.6764,-26.5387,1485.2278],[27.6789,-26.5606,1477.2126],[27.6679,-26.6105,1471.2062],[27.6596,-26.6042,1476.7976],[27.6577,-26.6177,1491.2035],[27.6245,-26.6092,1509.2832],[27.5796,-26.6075,1517.1844],[27.5691,-26.6472,1499.1606],[27.5702,-26.6836,1604.5844],[27.5742,-26.6841,1589.5878],[27.5742,-26.7158,1435.9105],[27.6028,-26.6924,1523.7415],[27.6022,-26.7229,1441.0083],[27.5891,-26.7241,1456.9739],[27.5814,-26.731,1444.2992],[27.5888,-26.7357,1431.7606],[27.5904,-26.7384,1406.6616],[27.5967,-26.7373,1411.8555],[27.6009,-26.7406,1406.9452],[27.6061,-26.7413,1411.4843],[27.6087,-26.7392,1409.9707],[27.6105,-26.7326,1412.4296],[27.6295,-26.7323,1409.3237],[27.6334,-26.7337,1407.5],[27.6346,-26.7388,1409.6945],[27.6323,-26.7455,1408.5],[27.6358,-26.7515,1409.0],[27.6284,-26.766,1410.0],[27.6315,-26.7716,1410.5],[27.6357,-26.772,1412.3256],[27.6431,-26.7685,1411.0],[27.6662,-26.7736,1413.308],[27.6753,-26.7717,1412.5],[27.6882,-26.7618,1416.625],[27.7017,-26.764,1419.2528],[27.7265,-26.7604,1417.5],[27.732,-26.7624,1417.5],[27.7415,-26.77,1417.5],[27.7489,-26.7872,1417.5],[27.7597,-26.7969,1418.0],[27.7682,-26.7993,1419.0626],[27.7707,-26.7989,1422.509],[27.7727,-26.7946,1428.8704],[27.7671,-26.7829,1418.0],[27.7682,-26.7652,1421.4131],[27.7705,-26.759,1419.1027],[27.7824,-26.7508,1422.0518],[27.8216,-26.7495,1430.6598],[27.8306,-26.7511,1423.5031],[27.8468,-26.746,1423.4685],[27.8549,-26.7464,1421.3402]]]]}
,"properties": {"GID_3": "ZAF.3.4.1_1","GID_0": "ZAF","country": "SouthAfrica","GID_1": "ZAF.3_1","province": "Gauteng","NL_NAME_1": "NA","GID_2": "ZAF.3.4_1","county": "Sedibeng","NL_NAME_2": "NA","city": "Emfuleni","VARNAME_3": "NA","NL_NAME_3": "NA","TYPE_3": "LocalMunicipality","ENGTYPE_3": "LocalMunicipality","CC_3": "GT421","HASC_3": "NA","name": "Emfuleni.city","area_km2": 968.0229,"hist_schema_id": "Elevation0-9000","hist_area_km2": {"1400": 1.0792,"1425": 77.301,"1450": 207.6677,"1475": 282.0047,"1500": 189.986,"1525": 120.0425,"1550": 60.2228,"1575": 20.3227,"1600": 5.7318,"1625": 1.7277,"1650": 0.9873,"1675": 0.7785,"1700": 0.1709}}}