{"type":"Feature","properties":{"GID_3":"ZAF.6.3.4_1","GID_0":"ZAF","country":"SouthAfrica","GID_1":"ZAF.6_1","province":"Mpumalanga","NL_NAME_1":"NA","GID_2":"ZAF.6.3_1","county":"Nkangala","NL_NAME_2":"NA","city":"SteveTshwete","VARNAME_3":"NA","NL_NAME_3":"NA","TYPE_3":"LocalMunicipality","ENGTYPE_3":"LocalMunicipality","CC_3":"MP313","HASC_3":"NA","name":"Steve_Tshwete.city"},
"geometry":{"type": "MultiPolygon","coordinates": [[[[29.8312,-26.0724,1667.3909],[29.8658,-26.0139,1655.8203],[29.8569,-26.0032,1679.7509],[29.8566,-25.979,1702.1741],[29.877,-25.9652,1711.6941],[29.8568,-25.9345,1721.1038],[29.8306,-25.9219,1727.7521],[29.8393,-25.9062,1722.1539],[29.8482,-25.876,1755.2825],[29.8618,-25.8624,1765.073],[29.8632,-25.851,1762.1616],[29.8009,-25.8488,1651.1259],[29.8025,-25.7916,1711.775],[29.8092,-25.7614,1719.2566],[29.8107,-25.7654,1737.1354],[29.851,-25.765,1724.1835],[29.8419,-25.7411,1662.1975],[29.828,-25.7495,1704.9768],[29.8239,-25.7354,1662.75],[29.8321,-25.7294,1648.9221],[29.8326,-25.7309,1655.9043],[29.837,-25.7288,1655.6112],[29.8259,-25.7014,1683.4056],[29.8477,-25.6768,1570.1833],[29.8251,-25.6583,1724.3606],[29.7852,-25.6743,1744.2466],[29.7768,-25.6625,1736.0219],[29.7767,-25.6198,1694.6555],[29.7064,-25.6134,1720.5352],[29.7131,-25.5721,1697.4941],[29.6535,-25.569,1676.0828],[29.6476,-25.5796,1634.0706],[29.5859,-25.5814,1580.6702],[29.581,-25.5833,1580.8599],[29.5802,-25.5401,1545.1776],[29.5479,-25.5536,1550.0105],[29.5478,-25.5202,1508.6089],[29.5324,-25.4903,1477.3152],[29.5133,-25.4739,1468.1879],[29.5056,-25.4771,1504.9379],[29.4973,-25.4605,1423.2136],[29.5115,-25.4588,1432.9276],[29.5188,-25.4228,1235.939],[29.453,-25.4065,1295.6638],[29.399,-25.4148,1276.7278],[29.3625,-25.4071,956.3507],[29.3578,-25.414,975.6837],[29.359,-25.4182,1000.5],[29.3621,-25.4215,1000.5],[29.3571,-25.4243,1000.5],[29.3489,-25.4252,1000.5],[29.3444,-25.432,1000.5],[29.3315,-25.4345,1000.5],[29.3236,-25.4232,1000.5],[29.3199,-25.421,1000.5],[29.3182,-25.4228,1000.5],[29.3179,-25.4283,1000.5],[29.3086,-25.4391,1000.5],[29.2909,-25.4367,1000.5],[29.2876,-25.4406,1000.5],[29.2931,-25.445,1000.5],[29.2934,-25.4488,1000.5],[29.2814,-25.4546,1000.5],[29.2782,-25.4603,1000.5],[29.2804,-25.466,1000.5],[29.2798,-25.4679,1000.5],[29.2649,-25.4626,1000.5],[29.2594,-25.4633,1000.5],[29.2531,-25.4667,1000.5],[29.2526,-25.4715,1000.5],[29.2641,-25.4767,1000.9594],[29.2695,-25.4769,1000.5],[29.2692,-25.4808,1000.5],[29.2663,-25.486,1000.5],[29.2631,-25.4878,1000.5],[29.2468,-25.4874,1000.5],[29.242,-25.4893,1007.5498],[29.2413,-25.4912,1013.1973],[29.2465,-25.4958,1003.9418],[29.2549,-25.4963,1006.876],[29.2557,-25.5018,1018.316],[29.2584,-25.5065,1016.8155],[29.2664,-25.5133,1038.1824],[29.2643,-25.5166,1044.9105],[29.2604,-25.5173,1019.359],[29.2549,-25.5209,1022.6406],[29.25,-25.5315,1076.6213],[29.2477,-25.5329,1033.7522],[29.2372,-25.5259,1042.5885],[29.2287,-25.5271,1035.5579],[29.2349,-25.5387,1077.9349],[29.2387,-25.5529,1058.5853],[29.2361,-25.5633,1108.1268],[29.2342,-25.5643,1064.3674],[29.2325,-25.5632,1076.2748],[29.2228,-25.5463,1090.3157],[29.2188,-25.5446,1077.1641],[29.2151,-25.5471,1077.7183],[29.2143,-25.5554,1092.624],[29.2108,-25.5628,1116.9746],[29.2129,-25.5678,1114.4133],[29.2116,-25.5699,1118.6084],[29.2081,-25.5672,1098.5356],[29.2058,-25.5577,1096.5525],[29.199,-25.5627,1094.6902],[29.1907,-25.5555,1106.8792],[29.1878,-25.557,1104.1099],[29.1864,-25.5622,1141.8831],[29.1841,-25.5645,1110.2203],[29.1713,-25.5581,1109.8804],[29.1684,-25.5624,1106.2074],[29.1682,-25.5658,1109.4451],[29.172,-25.5701,1123.2695],[29.1819,-25.5671,1118.2899],[29.1869,-25.5674,1164.1139],[29.1892,-25.5701,1118.3408],[29.1871,-25.5767,1128.7174],[29.1915,-25.5784,1143.9747],[29.1986,-25.5758,1134.6675],[29.2035,-25.5773,1146.0027],[29.2101,-25.5821,1166.4536],[29.2092,-25.5854,1143.6536],[29.2012,-25.5822,1178.498],[29.1985,-25.5837,1146.1621],[29.2018,-25.5875,1158.1423],[29.2016,-25.5933,1145.2588],[29.2094,-25.5983,1170.5172],[29.209,-25.6019,1214.406],[29.2051,-25.6027,1145.2786],[29.2033,-25.6005,1150.2185],[29.1977,-25.5987,1158.0718],[29.1897,-25.6038,1201.9928],[29.1893,-25.6082,1182.3135],[29.1907,-25.6091,1161.5581],[29.1991,-25.6037,1163.459],[29.2073,-25.6091,1172.2228],[29.2195,-25.6273,1198.7465],[29.2176,-25.6353,1181.4282],[29.2259,-25.6356,1175.3979],[29.2311,-25.633,1190.2745],[29.2321,-25.6307,1180.447],[29.2304,-25.6241,1181.5574],[29.2323,-25.6237,1184.2129],[29.2464,-25.6312,1189.4772],[29.2565,-25.6333,1184.8994],[29.2641,-25.6387,1191.8671],[29.271,-25.6374,1203.5319],[29.2858,-25.6408,1209.6099],[29.2869,-25.6429,1203.745],[29.2849,-25.6496,1228.4272],[29.2808,-25.6542,1213.7888],[29.278,-25.661,1232.0647],[29.2708,-25.6658,1239.1108],[29.2706,-25.6717,1228.2581],[29.2745,-25.672,1235.4203],[29.2815,-25.6657,1245.8239],[29.2878,-25.6627,1244.9753],[29.2898,-25.6702,1255.7188],[29.2942,-25.6727,1254.5332],[29.2962,-25.6684,1282.3203],[29.2988,-25.6683,1258.0818],[29.3013,-25.6749,1277.519],[29.3048,-25.6787,1259.5889],[29.2891,-25.7454,1477.9771],[29.292,-25.795,1513.6825],[29.328,-25.7917,1454.9567],[29.3094,-25.8446,1463.5048],[29.340699999999998,-25.8442,1511.0403],[29.351,-25.8993,1545.8414],[29.3804,-25.899,1544.152],[29.3649,-25.943,1581.4185],[29.3611,-25.9414,1579.4004],[29.3495,-25.9481,1571.4711],[29.3472,-25.9594,1591.6843],[29.3608,-25.96,1589.3499],[29.3298,-25.9869,1512.3378],[29.3727,-26.0356,1566.8076],[29.4024,-26.0632,1620.0205],[29.3885,-26.0697,1618.2522],[29.3864,-26.0784,1621.275],[29.3661,-26.0801,1577.6217],[29.3337,-26.0952,1561.8041],[29.3799,-26.1363,1597.8533],[29.391,-26.1442,1586.1884],[29.407,-26.1397,1603.9592],[29.388,-26.2049,1608.457],[29.4555,-26.2114,1577.153],[29.4566,-26.2037,1661.4302],[29.4756,-26.1738,1616.8079],[29.4935,-26.1695,1621.2484],[29.5131,-26.1856,1606.5444],[29.5602,-26.2092,1649.6968],[29.5403,-26.2539,1633.7418],[29.5858,-26.2534,1613.5789],[29.5909,-26.2404,1629.1838],[29.5943,-26.2398,1627.9646],[29.6492,-26.2423,1632.1768],[29.6676,-26.2446,1638.6372],[29.6974,-26.2316,1640.938],[29.6975,-26.2276,1639.8347],[29.7051,-26.2281,1653.8818],[29.7154,-26.2038,1715.4619],[29.7588,-26.2254,1690.257],[29.8047,-26.1895,1714.1829],[29.8006,-26.1635,1740.7913],[29.8111,-26.1053,1675.7556],[29.8274,-26.071,1663.3552],[29.8305,-26.0735,1668.1737],[29.8312,-26.0724,1667.3909]]]]}}