{"type":"Feature","properties":{"GID_3":"ZAF.1.4.3_1","GID_0":"ZAF","country":"SouthAfrica","GID_1":"ZAF.1_1","province":"EasternCape","NL_NAME_1":"NA","GID_2":"ZAF.1.4_1","county":"Cacadu","NL_NAME_2":"NA","city":"Camdeboo","VARNAME_3":"NA","NL_NAME_3":"NA","TYPE_3":"LocalMunicipality","ENGTYPE_3":"LocalMunicipality","CC_3":"EC101","HASC_3":"NA","name":"Camdeboo.city"},
"geometry":{"type": "MultiPolygon","coordinates": [[[[23.5756,-32.7805,757.8635],[23.5649,-32.7998,755.9737],[23.63,-32.7975,791.3558],[23.6371,-32.8493,795.9585],[23.6515,-32.8731,790.1371],[23.6396,-32.8798,783.5292],[23.6443,-32.9342,995.365],[23.6927,-32.9367,1234.5923],[23.7049,-32.9413,1172.8052],[23.7185,-32.9347,1301.9453],[23.7166,-32.962,962.8877],[23.7449,-32.9614,1056.8351],[23.7723,-32.9704,1028.5386],[23.8264,-32.9665,883.0818],[23.8387,-32.969,819.7969],[23.8422,-33.009,738.8826],[24.0083,-33.0324,803.1132],[23.9944,-33.0609,862.9714],[24.0098,-33.0634,957.4594],[24.0433,-33.0625,991.7318],[24.0397,-33.0185,942.6154],[24.0618,-33.0188,935.8651],[24.0553,-32.9827,829.1964],[24.1223,-32.9517,719.6942],[24.1512,-32.9343,734.2645],[24.1997,-32.9276,694.974],[24.2101,-32.9217,686.1524],[24.246,-32.8634,757.4847],[24.2982,-32.8738,776.4112],[24.3087,-32.8382,786.2711],[24.3491,-32.8414,820.4791],[24.3802,-32.8068,996.5037],[24.3379,-32.8052,909.1315],[24.3101,-32.7909,889.5905],[24.3244,-32.7912,857.937],[24.3308,-32.7806,846.4936],[24.3861,-32.7529,733.8074],[24.387,-32.7471,722.019],[24.4137,-32.737,686.0244],[24.4251,-32.6958,645.1379],[24.4566,-32.6408,660.8748],[24.4399,-32.581,667.1804],[24.4926,-32.6053,621.8151],[24.5453,-32.562,592.1514],[24.566,-32.5662,597.882],[24.5687,-32.5447,617.9619],[24.5774,-32.5237,619.7612],[24.5566,-32.5156,624.5419],[24.5587,-32.5042,635.1647],[24.5641,-32.4783,662.8426],[24.5898,-32.4438,691.6089],[24.6407,-32.4286,731.3892],[24.6962,-32.407,1172.7816],[24.6791,-32.3855,1077.0227],[24.6714,-32.3795,933.0302],[24.6796,-32.3804,1202.0044],[24.6779,-32.3781,1138.0737],[24.6946,-32.3541,958.8328],[24.6949,-32.3745,1113.7843],[24.7018,-32.3821,1288.4459],[24.7614,-32.3776,902.8182],[24.7952,-32.4092,810.2965],[24.8109,-32.3895,934.7184],[24.8137,-32.3805,1323.0632],[24.8172,-32.3836,1253.3237],[24.8233,-32.3831,1265.3278],[24.8204,-32.3785,1277.4008],[24.8259,-32.3691,1204.178],[24.8193,-32.3696,1151.7634],[24.8171,-32.3616,1066.5782],[24.8111,-32.3652,1126.1479],[24.8101,-32.3615,1094.5215],[24.8065,-32.3581,1060.3206],[24.8164,-32.353,1138.7134],[24.8123,-32.3472,1126.1476],[24.8149,-32.3456,1106.3495],[24.828,-32.3498,1202.292],[24.8272,-32.3426,1165.7039],[24.8224,-32.3383,1205.9573],[24.8231,-32.3302,1010.1353],[24.837,-32.3278,957.6857],[24.8437,-32.3232,1258.4995],[24.851,-32.3242,1351.7311],[24.8602,-32.3297,1418.8311],[24.8707,-32.3264,1453.0774],[24.8741,-32.3186,1488.6451],[24.8769,-32.3177,1489.3827],[24.8855,-32.3207,1393.0134],[24.8874,-32.3157,1343.6051],[24.8932,-32.3165,1268.9425],[24.9062,-32.3049,1539.4885],[24.9219,-32.3102,1528.3993],[24.9241,-32.299,1622.3831],[24.9317,-32.2837,1395.9125],[24.9292,-32.2625,1986.4529],[24.9496,-32.2412,2097.1443],[24.9224,-32.2398,2258.0249],[24.904,-32.2219,2358.1301],[24.9067,-32.2146,2263.0142],[24.9095,-32.1891,2080.7092],[24.9155,-32.1721,1890.6025],[24.9246,-32.1675,2135.5759],[24.9383,-32.1736,1984.535],[24.9376,-32.158,1960.3717],[24.954,-32.1403,1787.7004],[24.9511,-32.1227,1954.0525],[24.9671,-32.1075,1773.4169],[24.9618,-32.0839,2016.751],[24.9549,-32.0697,1997.7661],[24.9479,-32.0718,2009.924],[24.938,-32.0533,1962.0295],[24.9507,-32.0073,1838.76],[24.9437,-31.9799,1815.3383],[24.9344,-31.9713,1798.6344],[24.9254,-31.9545,1772.1345],[24.9232,-31.9437,1755.7294],[24.9439,-31.9282,1809.0447],[24.9405,-31.9227,1836.3394],[24.9391,-31.9051,1788.0117],[24.9323,-31.8917,2028.8939],[24.9199,-31.8846,2010.0969],[24.9246,-31.8801,2017.5636],[24.9184,-31.8719,1885.5269],[24.9167,-31.8644,2007.4619],[24.9048,-31.8693,1955.7386],[24.901,-31.8571,1915.7334],[24.9012,-31.8484,2006.8981],[24.8979,-31.8451,2057.374],[24.8993,-31.8373,1905.8793],[24.8959,-31.8334,1977.2473],[24.874,-31.8403,1816.5427],[24.8556,-31.8349,1849.8187],[24.8503,-31.8269,1846.0865],[24.8483,-31.8175,2084.0649],[24.8386,-31.8146,1966.1005],[24.8316,-31.806,1955.9686],[24.8019,-31.785,1958.5942],[24.7922,-31.7888,1918.6012],[24.7629,-31.8057,1670.8826],[24.7719,-31.7928,1756.123],[24.7538,-31.7917,1783.6511],[24.7533,-31.782,1931.2701],[24.7407,-31.7792,1962.6476],[24.7335,-31.7873,1927.9528],[24.7276,-31.7842,1919.8635],[24.7189,-31.7751,1880.0105],[24.6994,-31.7663,2001.2465],[24.6975,-31.7586,1856.792],[24.7044,-31.7443,1801.2822],[24.6764,-31.7335,1706.2769],[24.642,-31.7282,1803.5936],[24.6559,-31.7162,1847.486],[24.636,-31.7185,2060.0625],[24.6278,-31.7123,2115.0791],[24.6416,-31.6904,1904.2867],[24.6223,-31.7063,2096.7627],[24.6165,-31.7262,2167.6091],[24.5772,-31.7306,2100.5625],[24.5776,-31.7385,1847.8781],[24.5507,-31.7612,2021.9668],[24.5182,-31.7538,2078.6409],[24.5104,-31.7542,2116.7766],[24.5083,-31.7385,2123.7961],[24.5085,-31.7185,1920.5123],[24.5063,-31.7068,2038.8083],[24.4699,-31.7065,2075.168],[24.4412,-31.7126,2028.0349],[24.4126,-31.6885,2007.6428],[24.4233,-31.7116,1953.0288],[24.340699999999998,-31.7138,1966.6567],[24.3247,-31.7241,1887.2975],[24.3224,-31.7418,1935.5333],[24.3153,-31.7501,2029.6655],[24.3016,-31.7583,1945.5553],[24.285,-31.7652,1965.8099],[24.2688,-31.7559,1800.5361],[24.2682,-31.7667,1623.9646],[24.2484,-31.7604,1587.1815],[24.2402,-31.752,1628.8665],[24.226,-31.7474,1804.9862],[24.1616,-31.7402,1968.1346],[24.1474,-31.7673,1743.4369],[24.1543,-31.7983,1845.7866],[24.1837,-31.8133,1628.2136],[24.1798,-31.8194,1662.3403],[24.1598,-31.8231,1607.1871],[24.1548,-31.8225,1629.573],[24.1533,-31.8549,1536.1584],[24.1236,-31.8472,1586.072],[24.1083,-31.8861,1729.2566],[24.1047,-31.8868,1793.1796],[24.1054,-31.9069,1639.2148],[24.1387,-31.9054,1528.6201],[24.1468,-31.9027,1522.4807],[24.1466,-31.8969,1548.1248],[24.1642,-31.9024,1479.5962],[24.1972,-31.9235,1468.3541],[24.1912,-31.9268,1494.8497],[24.188,-31.9336,1461.6674],[24.1998,-31.9426,1483.0154],[24.2054,-31.9417,1492.7097],[24.2224,-31.9556,1488.5005],[24.183,-31.9959,1644.1321],[24.1937,-32.0048,1753.3087],[24.1878,-32.0082,1706.1804],[24.1894,-32.0122,1720.1436],[24.1749,-32.0126,1714.5076],[24.1745,-32.0199,1762.978],[24.1409,-32.0117,1659.3748],[24.1286,-32.0412,1736.4739],[24.1411,-32.0514,1738.3478],[24.1348,-32.0602,1802.1836],[24.1233,-32.0559,1782.775],[24.1119,-32.0616,1737.8376],[24.1126,-32.07,1821.6897],[24.1044,-32.0676,1880.4391],[24.1028,-32.0699,1864.4041],[24.0979,-32.0852,1845.2865],[24.0979,-32.1108,2053.5171],[24.1097,-32.0843,1508.8844],[24.1354,-32.0979,1334.8937],[24.1355,-32.1231,1814.9357],[24.1304,-32.132,1703.1636],[24.1176,-32.1352,1678.366],[24.1022,-32.1488,1838.8894],[24.1129,-32.1509,1523.5972],[24.1001,-32.164,1488.4185],[24.038,-32.1581,2032.7769],[24.0441,-32.1819,1601.3894],[24.0305,-32.1935,1908.0254],[23.9858,-32.1978,1726.5029],[23.9845,-32.1964,1726.5029],[23.9847,-32.1984,1663.1334],[23.9611,-32.2065,1444.609],[23.953,-32.2165,1220.7563],[23.9354,-32.2319,1487.0837],[23.921,-32.2334,1610.6055],[23.8923,-32.255,1591.9761],[23.8645,-32.249,1774.4081],[23.8511,-32.2425,1593.5292],[23.7978,-32.1941,1607.899],[23.7662,-32.1787,1379.7062],[23.7471,-32.2007,1271.1455],[23.7261,-32.2085,1112.3767],[23.7082,-32.2192,1157.6567],[23.6924,-32.2335,1146.474],[23.6705,-32.2377,1014.3979],[23.6489,-32.298,985.5958],[23.6569,-32.3039,980.0035],[23.6784,-32.3291,932.4925],[23.6651,-32.3442,918.7472],[23.5918,-32.3408,906.5576],[23.5236,-32.3288,890.5175],[23.449,-32.3233,1027.1962],[23.4247,-32.3562,1144.7106],[23.4098,-32.3892,1144.3912],[23.3493,-32.3644,1250.9423],[23.333,-32.3511,1227.8136],[23.3073,-32.3959,930.8704],[23.2872,-32.4042,920.8407],[23.2721,-32.4007,918.8413],[23.2216,-32.425,889.6756],[23.2475,-32.4653,898.2769],[23.2445,-32.5132,906.355],[23.2882,-32.5512,896.0569],[23.3073,-32.6116,910.5219],[23.3013,-32.6518,885.3963],[23.2696,-32.6715,880.832],[23.3329,-32.7036,853.9132],[23.3535,-32.7294,831.3633],[23.3516,-32.7638,806.8699],[23.3977,-32.7635,830.0782],[23.437,-32.7764,817.2065],[23.454,-32.7401,818.2349],[23.4651,-32.7288,808.3284],[23.5143,-32.7276,806.2704],[23.5519,-32.7357,773.1707],[23.5691,-32.7428,771.5631],[23.5839,-32.7534,766.8574],[23.5834,-32.7675,763.9953],[23.5756,-32.7805,757.8635]]]]}}