{"type":"Feature","properties":{"GID_3":"ZAF.6.1.5_1","GID_0":"ZAF","country":"SouthAfrica","GID_1":"ZAF.6_1","province":"Mpumalanga","NL_NAME_1":"NA","GID_2":"ZAF.6.1_1","county":"Ehlanzeni","NL_NAME_2":"NA","city":"Umjindi","VARNAME_3":"NA","NL_NAME_3":"NA","TYPE_3":"LocalMunicipality","ENGTYPE_3":"LocalMunicipality","CC_3":"MP323","HASC_3":"NA","name":"Umjindi.city"},
"geometry":{"type": "MultiPolygon","coordinates": [[[[31.2749,-25.7951,974.4698],[31.3159,-25.743,1328.3103],[31.2885,-25.7499,951.6278],[31.2945,-25.73,914.3376],[31.2817,-25.7141,732.2596],[31.2767,-25.72,590.0729],[31.2724,-25.7199,579.313],[31.275,-25.7154,548.0481],[31.2741,-25.7043,516.8834],[31.2621,-25.6923,772.5208],[31.2572,-25.668,877.7406],[31.2855,-25.6714,456.7302],[31.2853,-25.6646,452.9661],[31.3033,-25.6639,713.9424],[31.3102,-25.6432,454.649],[31.3077,-25.643,450.3359],[31.306,-25.6389,434.2867],[31.3007,-25.6419,434.201],[31.3005,-25.6388,423.013],[31.2964,-25.634,422.5699],[31.3015,-25.6304,408.0916],[31.3006,-25.6275,404.8604],[31.3027,-25.6253,400.8708],[31.3148,-25.631,503.8948],[31.3161,-25.6274,491.8354],[31.3308,-25.609,663.3815],[31.3084,-25.5875,358.1823],[31.3079,-25.5901,360.573],[31.3018,-25.5912,363.1967],[31.2955,-25.5946,363.5224],[31.2928,-25.6005,369.0811],[31.2888,-25.6038,375.3167],[31.286,-25.6108,378.9286],[31.2811,-25.6141,389.5655],[31.2732,-25.6134,387.0751],[31.2688,-25.608,409.8968],[31.2673,-25.6031,408.1759],[31.2554,-25.6034,409.3696],[31.2486,-25.6005,414.6057],[31.2387,-25.6027,428.9089],[31.2371,-25.607,429.873],[31.2046,-25.6215,804.247],[31.1942,-25.6438,976.3411],[31.173,-25.656,759.3859],[31.1685,-25.6448,973.6159],[31.1591,-25.6464,1010.9097],[31.1379,-25.6456,1079.9816],[31.1233,-25.6407,834.975],[31.1157,-25.6346,925.8463],[31.0979,-25.6292,1080.1976],[31.0821,-25.6209,1258.4761],[31.0481,-25.6141,1006.2949],[31.0313,-25.6136,859.2475],[31.0039,-25.6047,870.9143],[30.9872,-25.6048,792.6992],[30.9777,-25.6006,764.5123],[30.9743,-25.6028,721.7412],[30.9676,-25.5999,682.9207],[30.9642,-25.6002,682.9777],[30.9615,-25.5977,705.215],[30.9592,-25.5978,710.1235],[30.9589,-25.6007,692.3858],[30.9575,-25.6012,699.5623],[30.954,-25.6012,703.5553],[30.9517,-25.5989,705.417],[30.9483,-25.5994,705.6418],[30.9486,-25.5947,707.5629],[30.9448,-25.5933,714.2233],[30.9403,-25.5946,728.1351],[30.9403,-25.5923,725.012],[30.9373,-25.5895,736.7751],[30.933,-25.5894,732.1763],[30.931,-25.5825,748.3091],[30.9254,-25.5857,746.6252],[30.925,-25.5778,772.9152],[30.9187,-25.5761,786.236],[30.9084,-25.5589,1209.0957],[30.8882,-25.5574,1251.4465],[30.8601,-25.5511,1121.5161],[30.8566,-25.5593,1044.0306],[30.8354,-25.5589,1086.4739],[30.8206,-25.5729,1022.1309],[30.8054,-25.5961,1006.1034],[30.7872,-25.6011,1286.8611],[30.7789,-25.594,1542.1492],[30.7606,-25.6343,1651.0127],[30.75,-25.6389,1638.8602],[30.7327,-25.7414,1840.2207],[30.7251,-25.7592,1680.6595],[30.7301,-25.7725,1652.6277],[30.7394,-25.7886,1604.9219],[30.7523,-25.7983,1605.4087],[30.7519,-25.8015,1660.9033],[30.7495,-25.8039,1629.0823],[30.7522,-25.8226,1637.8723],[30.7611,-25.8313,1638.2833],[30.7707,-25.85,1568.3896],[30.7668,-25.8553,1617.7322],[30.7736,-25.8619,1599.3787],[30.7968,-25.8633,1470.3274],[30.8143,-25.8685,1458.9668],[30.823,-25.8765,1473.2545],[30.821,-25.9093,1578.2726],[30.8126,-25.9154,1566.4417],[30.8499,-25.9263,1732.9044],[30.8803,-25.9251,1763.3558],[30.9243,-25.9312,1730.6943],[30.9681,-25.9348,1567.7089],[31.0395,-25.8663,1842.5977],[31.0426,-25.8841,1827.3658],[31.0439,-25.9126,1665.3081],[31.0557,-25.9239,1508.1665],[31.1266,-25.9212,1831.856],[31.2636,-25.8096,1347.9276],[31.2749,-25.7951,974.4698]]]]}}