{"type": "Feature","bbox": [25.7194,-29.5339,27.0945,-28.7601],"geometry": {"type": "MultiPolygon","coordinates": [[[[26.9172,-29.2175,1724.8401],[26.9163,-29.2084,1734.6967],[26.9218,-29.2063,1687.2325],[26.9244,-29.1998,1681.2065],[26.9192,-29.1952,1720.5457],[26.9158,-29.1857,1671.958],[26.9172,-29.1821,1691.0055],[26.9294,-29.1701,1629.8555],[26.9453,-29.1684,1674.6614],[26.9632,-29.1554,1548.4718],[26.9629,-29.1478,1541.674],[26.9741,-29.14,1579.7877],[27.0117,-29.1281,1612.0873],[27.0137,-29.1122,1625.3003],[26.9998,-29.1053,1644.8368],[27.02,-29.0818,1576.8809],[27.0412,-29.0858,1657.5006],[27.0513,-29.0706,1690.1682],[27.0449,-29.0563,1570.063],[27.0402,-29.0538,1573.5417],[27.0298,-29.0558,1610.5177],[27.0253,-29.0479,1573.7477],[27.0159,-29.0437,1576.1841],[26.9949,-29.0219,1500.4426],[26.9624,-29.0219,1513.7976],[26.9547,-29.006,1473.4951],[26.9406,-28.9646,1463.6827],[26.9463,-28.9397,1446.8749],[26.9135,-28.9177,1435.2407],[26.8927,-28.9341,1422.8126],[26.8181,-28.9271,1445.9999],[26.7527,-29.003,1452.6062],[26.7567,-29.0061,1472.0887],[26.7776,-29.0134,1469.853],[26.779,-29.0158,1469.7798],[26.7512,-29.0387,1452.5624],[26.7514,-29.0532,1463.8209],[26.7426,-29.0553,1460.3176],[26.7371,-29.0585,1495.9242],[26.7392,-29.0619,1666.41],[26.7272,-29.0738,1619.1545],[26.7277,-29.0788,1505.5142],[26.7218,-29.082,1549.2114],[26.718,-29.0902,1477.7513],[26.7079,-29.0872,1400.1875],[26.7164,-29.0724,1430.7332],[26.6934,-29.0657,1402.0958],[26.6665,-29.0893,1363.5377],[26.6607,-29.0767,1368.1189],[26.6426,-29.0685,1411.0793],[26.6373,-29.0585,1406.558],[26.6343,-29.0597,1422.301],[26.6176,-29.0062,1443.3967],[26.605,-29.0078,1441.0077],[26.5881,-28.9893,1409.0544],[26.5843,-28.9883,1406.9152],[26.5799,-28.9842,1405.905],[26.5751,-28.986,1401.4055],[26.5651,-28.9852,1395.094],[26.5669,-28.9681,1423.6692],[26.5479,-28.9755,1375.8254],[26.5469,-28.9827,1388.1879],[26.5249,-29.0012,1402.8418],[26.5173,-28.9831,1348.855],[26.5144,-28.9818,1348.8621],[26.5141,-28.979,1333.9468],[26.5105,-28.9805,1325.1046],[26.5057,-28.9796,1325.0909],[26.5019,-28.9758,1320.3156],[26.4985,-28.9766,1324.8921],[26.4989,-28.9739,1320.996],[26.4965,-28.9731,1314.3525],[26.4719,-28.948,1371.1953],[26.4346,-28.9633,1311.2065],[26.4309,-28.991,1324.8865],[26.4031,-28.9892,1290.0295],[26.4017,-28.9859,1289.3529],[26.399,-28.9864,1289.8809],[26.3968,-28.9848,1287.3872],[26.3961,-28.9796,1288.6162],[26.3834,-28.9775,1287.9343],[26.3791,-28.9732,1287.8313],[26.3779,-28.9697,1287.2977],[26.3699,-28.9646,1285.1497],[26.3658,-28.9624,1283.8313],[26.3617,-28.9639,1282.9933],[26.3532,-28.9597,1286.3679],[26.3657,-28.9419,1347.0959],[26.362,-28.941,1342.6528],[26.362,-28.9194,1342.7388],[26.335,-28.9012,1329.6245],[26.3032,-28.9419,1279.2997],[26.2974,-28.9418,1277.2941],[26.2917,-28.9371,1276.394],[26.2836,-28.9405,1277.1113],[26.28,-28.9402,1280.4208],[26.2623,-28.9289,1279.1648],[26.2616,-28.9264,1278.1537],[26.2678,-28.9146,1272.7557],[26.2637,-28.9139,1272.2833],[26.2595,-28.9088,1274.8455],[26.2547,-28.9067,1272.55],[26.2556,-28.9021,1270.4814],[26.2502,-28.8987,1271.2113],[26.2349,-28.8812,1273.6282],[26.2306,-28.8827,1271.5111],[26.2269,-28.881,1274.1727],[26.225,-28.8789,1271.3151],[26.2255,-28.8722,1268.9132],[26.2166,-28.8731,1272.6805],[26.2071,-28.868,1271.4463],[26.2075,-28.8624,1269.8972],[26.1995,-28.8623,1269.4109],[26.1989,-28.8608,1270.0753],[26.2017,-28.8566,1272.1772],[26.1947,-28.8541,1269.0315],[26.1918,-28.8513,1271.146],[26.1954,-28.8461,1267.0741],[26.1948,-28.8432,1266.1533],[26.1877,-28.8461,1269.3291],[26.1866,-28.8509,1263.2312],[26.1843,-28.8528,1264.8636],[26.178,-28.8535,1262.8479],[26.1775,-28.8486,1265.084],[26.1749,-28.8444,1266.2063],[26.1722,-28.8534,1262.259],[26.1653,-28.8546,1262.9369],[26.1636,-28.8526,1262.8032],[26.1638,-28.8478,1262.0297],[26.1609,-28.8456,1262.8724],[26.1591,-28.8457,1262.8724],[26.1581,-28.8489,1261.7444],[26.1556,-28.8502,1262.631],[26.153,-28.8287,1262.0525],[26.1476,-28.8243,1260.5159],[26.1404,-28.8237,1265.2991],[26.1495,-28.8164,1262.5649],[26.1496,-28.8115,1259.08],[26.1459,-28.8095,1260.9194],[26.1393,-28.8106,1258.7183],[26.1335,-28.8146,1259.7544],[26.1278,-28.8158,1257.2546],[26.1268,-28.8143,1256.3625],[26.1282,-28.8108,1256.7496],[26.1263,-28.8065,1253.7173],[26.1241,-28.8053,1255.1741],[26.1108,-28.8072,1253.6208],[26.1071,-28.8068,1253.576],[26.1033,-28.8039,1253.2781],[26.0963,-28.805,1253.9009],[26.0924,-28.8167,1251.7747],[26.0894,-28.8197,1255.25],[26.0843,-28.8122,1253.243],[26.0785,-28.8088,1253.2091],[26.074,-28.813,1250.5759],[26.0735,-28.8165,1252.8506],[26.0679,-28.8237,1250.7283],[26.0601,-28.8219,1253.9449],[26.0625,-28.8173,1252.3496],[26.0567,-28.8146,1249.3986],[26.0554,-28.8183,1250.5391],[26.0494,-28.8206,1249.1367],[26.0483,-28.8268,1249.4321],[26.0427,-28.8281,1251.2885],[26.0382,-28.8261,1251.2535],[26.0332,-28.8299,1250.8101],[26.0365,-28.8399,1248.4377],[26.031,-28.8439,1248.3536],[26.0279,-28.8535,1248.0],[26.0248,-28.8549,1248.5184],[26.0198,-28.8533,1248.0],[26.0156,-28.8543,1248.106],[26.0137,-28.8573,1248.0],[26.0137,-28.8631,1248.0],[26.0093,-28.8685,1248.0],[25.9946,-28.8696,1248.0],[25.9913,-28.8736,1248.0],[25.9865,-28.876,1248.0],[25.9808,-28.854,1271.6913],[25.977,-28.8049,1288.4446],[25.9265,-28.8264,1279.203],[25.921,-28.8099,1291.2443],[25.9463,-28.762,1277.202],[25.9427,-28.7601,1275.7976],[25.9308,-28.7711,1267.6855],[25.912,-28.7615,1253.6194],[25.9079,-28.774,1259.3844],[25.8787,-28.7601,1233.3314],[25.8745,-28.7663,1233.4503],[25.8703,-28.7841,1260.9214],[25.8644,-28.7812,1252.8539],[25.8541,-28.8157,1254.9695],[25.8563,-28.8676,1254.6576],[25.8089,-28.8535,1228.4292],[25.8046,-28.8939,1219.6774],[25.8017,-28.8925,1222.1495],[25.7982,-28.8875,1220.6849],[25.7956,-28.8868,1221.0013],[25.7846,-28.8946,1222.9355],[25.769,-28.8944,1217.9791],[25.7647,-28.9043,1216.9391],[25.7557,-28.8989,1218.3411],[25.7519,-28.899,1216.7322],[25.7514,-28.906,1220.3727],[25.7485,-28.9075,1216.9219],[25.7453,-28.9064,1220.2877],[25.7374,-28.9608,1231.6079],[25.7472,-28.9779,1263.4402],[25.7194,-29.0063,1255.8141],[25.7609,-29.0258,1248.5248],[25.7313,-29.077,1308.0112],[25.7394,-29.0807,1313.4097],[25.7339,-29.0934,1281.0504],[25.7326,-29.1021,1280.1519],[25.7344,-29.1139,1284.5332],[25.7624,-29.1167,1288.1906],[25.7552,-29.1342,1298.266],[25.7347,-29.1412,1298.8237],[25.7716,-29.1692,1285.296],[25.7443,-29.1769,1279.3597],[25.7397,-29.1881,1283.1023],[25.7411,-29.1904,1287.0471],[25.7437,-29.1893,1273.5861],[25.7433,-29.1921,1282.0701],[25.7411,-29.1935,1288.1006],[25.7412,-29.226,1292.6786],[25.7598,-29.2264,1290.2806],[25.7824,-29.2242,1287.387],[25.8012,-29.2329,1290.6135],[25.7917,-29.2567,1305.3726],[25.8076,-29.2601,1304.8982],[25.8415,-29.2323,1308.9598],[25.8456,-29.2355,1317.3438],[25.8599,-29.2603,1315.1594],[25.8636,-29.2521,1309.6619],[25.9055,-29.2543,1347.6239],[25.9132,-29.2858,1339.6277],[25.9118,-29.2999,1394.3281],[25.9149,-29.3061,1398.6259],[25.9434,-29.2968,1331.2281],[25.9662,-29.2927,1327.5854],[25.9784,-29.2839,1324.761],[25.9798,-29.2847,1324.5641],[25.9926,-29.2731,1320.4917],[26.0045,-29.3103,1344.0668],[26.0112,-29.3109,1349.3962],[26.0235,-29.3393,1375.6007],[25.9988,-29.3582,1363.8483],[25.9594,-29.3655,1372.3375],[25.966,-29.3911,1411.838],[25.9724,-29.3902,1407.6851],[25.9794,-29.4016,1411.3069],[26.0323,-29.4171,1389.3235],[26.035,-29.4454,1347.3862],[26.0377,-29.4442,1349.2714],[26.0405,-29.4452,1349.5],[26.0409,-29.4375,1350.3076],[26.06,-29.4422,1356.0658],[26.0778,-29.4797,1399.5609],[26.0909,-29.4767,1392.2113],[26.0936,-29.4786,1388.8322],[26.0919,-29.4645,1372.9459],[26.107,-29.4704,1395.9474],[26.1074,-29.4755,1404.0669],[26.1304,-29.4741,1435.0406],[26.1354,-29.4773,1441.05],[26.1422,-29.4565,1448.7711],[26.1634,-29.4678,1416.4446],[26.2093,-29.4766,1439.0031],[26.2139,-29.4532,1406.6855],[26.2118,-29.4524,1401.5221],[26.2107,-29.4492,1401.5409],[26.2124,-29.4464,1399.2625],[26.21,-29.4412,1398.8789],[26.2097,-29.4352,1394.5469],[26.238,-29.4294,1423.5111],[26.2458,-29.4331,1411.6263],[26.2483,-29.4251,1405.1047],[26.2509,-29.4247,1401.7756],[26.2541,-29.4296,1405.099],[26.2585,-29.4323,1403.9417],[26.2735,-29.4291,1407.4628],[26.2779,-29.4306,1407.3346],[26.289,-29.4267,1410.6953],[26.2936,-29.4268,1410.5576],[26.2958,-29.423,1411.7261],[26.3015,-29.4203,1413.0251],[26.3068,-29.4245,1414.2333],[26.3088,-29.4325,1415.0303],[26.314,-29.4324,1416.3086],[26.3248,-29.4364,1419.0935],[26.3253,-29.4344,1420.9474],[26.3357,-29.4436,1423.4901],[26.3411,-29.4436,1423.666],[26.3423,-29.4377,1426.099],[26.3444,-29.4387,1425.0439],[26.3495,-29.4375,1426.233],[26.3523,-29.4349,1426.4631],[26.3589,-29.4356,1429.5376],[26.3639,-29.4397,1429.4725],[26.3691,-29.4396,1430.8126],[26.3702,-29.4414,1431.1243],[26.3738,-29.4422,1431.6553],[26.3742,-29.4448,1432.0325],[26.4077,-29.4393,1452.7203],[26.4074,-29.4556,1455.2264],[26.4547,-29.4482,1505.0834],[26.4517,-29.4429,1512.3143],[26.4527,-29.3994,1553.3984],[26.4665,-29.3967,1487.0299],[26.4742,-29.3899,1465.756],[26.4978,-29.3986,1507.2739],[26.5047,-29.3877,1513.9171],[26.5135,-29.3476,1507.5519],[26.5193,-29.3464,1475.8197],[26.5358,-29.3497,1487.094],[26.5391,-29.3443,1472.3156],[26.5467,-29.3402,1462.0442],[26.564,-29.3234,1433.86],[26.566,-29.3187,1418.6067],[26.5903,-29.3136,1425.9713],[26.5914,-29.2977,1393.4434],[26.594,-29.2904,1383.8547],[26.6053,-29.2896,1372.0],[26.6078,-29.2939,1372.0],[26.6159,-29.2915,1372.0],[26.6172,-29.2935,1372.0],[26.6228,-29.2932,1372.0],[26.6234,-29.2957,1372.0],[26.642,-29.2858,1412.1692],[26.6541,-29.2813,1415.511],[26.6675,-29.2857,1424.1326],[26.6529,-29.3074,1379.3656],[26.6701,-29.3161,1396.6484],[26.6416,-29.34,1379.7117],[26.6434,-29.3418,1405.033],[26.6429,-29.3452,1384.9468],[26.6442,-29.3484,1380.5094],[26.6474,-29.3479,1387.2837],[26.6485,-29.3528,1392.4111],[26.6507,-29.3549,1392.2771],[26.6527,-29.3532,1385.9347],[26.6518,-29.3482,1392.4293],[26.6595,-29.3533,1412.6653],[26.6578,-29.3565,1398.5015],[26.6604,-29.358,1399.3174],[26.662,-29.3618,1401.1355],[26.6637,-29.3744,1404.8447],[26.6665,-29.3746,1411.9403],[26.6652,-29.378,1406.2742],[26.6671,-29.3837,1408.5459],[26.6775,-29.3856,1410.2826],[26.6788,-29.3908,1411.5009],[26.6822,-29.3953,1413.7706],[26.6873,-29.3959,1419.4452],[26.6896,-29.3988,1415.5958],[26.6963,-29.3998,1418.7181],[26.6994,-29.4028,1417.5562],[26.6989,-29.4092,1418.5643],[26.7026,-29.4134,1421.2068],[26.7005,-29.4172,1422.396],[26.7016,-29.4193,1422.5741],[26.6993,-29.424,1425.5956],[26.7002,-29.4272,1428.0566],[26.699,-29.4308,1424.0769],[26.7022,-29.4377,1425.2491],[26.7038,-29.4368,1426.1888],[26.707,-29.4385,1427.9036],[26.7083,-29.4373,1428.7758],[26.7113,-29.4383,1432.1699],[26.7444,-29.4352,1552.5282],[26.7547,-29.4294,1493.5271],[26.7546,-29.4355,1533.7051],[26.7741,-29.4527,1517.4701],[26.7824,-29.4353,1516.1758],[26.7992,-29.4526,1504.0205],[26.8345,-29.456,1526.8687],[26.8387,-29.4393,1522.7419],[26.8849,-29.4462,1555.7279],[26.9084,-29.4675,1626.9181],[26.9121,-29.486,1627.9231],[26.9654,-29.4977,1575.5649],[26.9538,-29.5339,1577.7135],[26.9722,-29.5288,1647.6926],[26.999,-29.5198,1596.4639],[26.9785,-29.4837,1559.104],[27.0039,-29.4569,1536.3209],[26.991,-29.4554,1529.1956],[26.9629,-29.428,1571.7891],[27.011,-29.3951,1548.6906],[27.0221,-29.3983,1539.4698],[27.0362,-29.4163,1534.6278],[27.0676,-29.4416,1543.8195],[27.075,-29.433,1659.6732],[27.0744,-29.4271,1608.0471],[27.0768,-29.4163,1612.6588],[27.082,-29.4066,1783.0049],[27.0945,-29.3904,1554.1898],[27.0856,-29.3857,1551.665],[27.069,-29.3662,1599.4849],[27.0534,-29.3436,1600.4281],[27.0235,-29.3551,1565.8325],[27.0226,-29.3804,1549.0677],[26.9769,-29.3741,1609.7274],[26.968,-29.3828,1608.3159],[26.9558,-29.3793,1589.179],[26.961,-29.3569,1602.7079],[26.9596,-29.347,1609.5936],[26.9334,-29.3206,1565.6328],[26.9428,-29.3157,1581.7988],[26.9486,-29.2884,1565.6785],[26.9542,-29.2894,1584.8165],[26.9633,-29.2569,1657.0787],[26.9397,-29.2581,1854.0068],[26.9282,-29.2558,1841.7864],[26.9359,-29.2377,1757.834],[26.9223,-29.2255,1870.2627],[26.9172,-29.2175,1724.8401]]]]}
,"properties": {"GID_2": "ZAF.2.3_1","GID_0": "ZAF","country": "SouthAfrica","GID_1": "ZAF.2_1","province": "FreeState","NL_NAME_1": "NA","county": "Mangaung","VARNAME_2": "Matheo","NL_NAME_2": "NA","TYPE_2": "DistrictMunicipality","ENGTYPE_2": "DistrictMunicipality","CC_2": "MAN","HASC_2": "ZA.FS.MT","name": "Mangaung.county","area_km2": 6292.15,"hist_schema_id": "Elevation0-9000","hist_area_km2": {"1225": 128.163,"1250": 419.968,"1275": 499.352,"1300": 406.248,"1325": 517.189,"1350": 609.381,"1375": 675.77,"1400": 747.067,"1425": 590.338,"1450": 455.909,"1475": 340.99,"1500": 273.067,"1525": 186.861,"1550": 145.957,"1575": 139.96,"1600": 88.838,"1625": 22.155,"1650": 10.346,"1675": 7.867,"1700": 5.627,"1725": 3.702,"1750": 3.147,"1775": 2.721,"1800": 2.036,"1825": 1.739,"1850": 1.443,"1875": 1.165,"1900": 0.721,"1925": 0.814,"1950": 0.703,"1975": 0.499,"2000": 0.518,"2025": 0.314,"2050": 0.592,"2075": 0.666,"2100": 0.277}}}