{"type":"Feature","properties":{"GID_3":"ZAF.7.1.5_1","GID_0":"ZAF","country":"SouthAfrica","GID_1":"ZAF.7_1","province":"NorthWest","NL_NAME_1":"NA","GID_2":"ZAF.7.1_1","county":"Bojanala","NL_NAME_2":"NA","city":"Rustenburg","VARNAME_3":"NA","NL_NAME_3":"NA","TYPE_3":"LocalMunicipality","ENGTYPE_3":"LocalMunicipality","CC_3":"NW373","HASC_3":"NA","name":"Rustenburg.city"},
"geometry":{"type": "MultiPolygon","coordinates": [[[[27.4205,-26.1071,1594.1249],[27.4224,-26.0892,1597.9056],[27.4252,-26.0894,1593.6136],[27.4314,-26.0523,1587.9537],[27.4352,-26.027,1532.858],[27.434,-26.0225,1514.6366],[27.4357,-26.0226,1513.054],[27.4389,-26.0143,1548.0135],[27.4498,-26.0163,1531.3214],[27.457,-25.9818,1540.7271],[27.4536,-25.9202,1469.1182],[27.4633,-25.9215,1454.4919],[27.457,-25.8883,1473.8423],[27.47,-25.8881,1463.272],[27.4619,-25.8676,1776.1158],[27.4975,-25.8596,1707.9077],[27.5002,-25.8613,1715.8962],[27.5133,-25.8603,1799.5585],[27.534,-25.849,1729.4131],[27.5059,-25.7774,1363.4164],[27.5156,-25.7754,1465.4441],[27.5109,-25.7242,1178.6195],[27.5048,-25.7234,1179.3654],[27.5077,-25.6795,1138.7076],[27.5012,-25.6378,1118.5818],[27.5484,-25.625,1180.5646],[27.5704,-25.6313,1156.1111],[27.5734,-25.6655,1216.1204],[27.6345,-25.653199999999998,1152.4119],[27.6393,-25.6547,1138.7875],[27.6465,-25.6502,1139.089],[27.6392,-25.6256,1158.475],[27.6251,-25.5316,1135.7244],[27.6112,-25.5105,1080.6949],[27.6197,-25.475,1074.106],[27.6156,-25.4639,1066.6293],[27.6099,-25.4577,1053.3838],[27.5859,-25.4446,1005.0],[27.5832,-25.4371,1005.0],[27.5849,-25.4289,1005.0],[27.5371,-25.4258,1084.5088],[27.5316,-25.4206,1102.1105],[27.5193,-25.4199,1134.3094],[27.5212,-25.3414,1025.0111],[27.471,-25.2866,1005.8354],[27.453,-25.2969,1012.8997],[27.428,-25.2897,1019.1754],[27.3634,-25.2995,1039.3484],[27.365,-25.3254,987.1441],[27.3626,-25.3272,988.356],[27.3575,-25.3258,987.7294],[27.3491,-25.3284,988.7064],[27.343,-25.3275,990.7527],[27.3367,-25.3293,990.3212],[27.3321,-25.3275,991.0328],[27.3211,-25.3311,992.5312],[27.3174,-25.3265,992.4552],[27.3135,-25.3293,992.5461],[27.3123,-25.3336,992.9478],[27.3097,-25.3336,992.3989],[27.3068,-25.3361,993.7609],[27.3039,-25.335,993.6829],[27.3039,-25.3304,995.3401],[27.2983,-25.3294,995.9411],[27.2949,-25.3338,997.5851],[27.2907,-25.3342,995.5968],[27.2899,-25.3386,996.1259],[27.2843,-25.3351,997.6307],[27.2766,-25.3333,998.3054],[27.2679,-25.335,999.2144],[27.2657,-25.3378,998.795],[27.2628,-25.3361,1001.2211],[27.2565,-25.3374,999.9606],[27.2525,-25.334,999.7303],[27.2461,-25.3321,1000.4933],[27.2407,-25.3379,1002.6959],[27.2273,-25.3431,1006.8138],[27.2296,-25.3505,1021.1163],[27.1885,-25.3682,1034.1899],[27.1793,-25.3499,1010.1636],[27.1774,-25.3506,1010.9436],[27.1775,-25.3538,1011.3961],[27.1735,-25.3549,1013.3679],[27.1641,-25.3623,1015.5685],[27.1564,-25.3646,1017.0867],[27.1497,-25.3557,1038.552],[27.1072,-25.3605,1068.1475],[27.0886,-25.3676,1062.3503],[27.0954,-25.3925,1022.384],[27.0942,-25.3929,1023.7594],[27.083,-25.3938,1024.5068],[27.0786,-25.3914,1025.6481],[27.073,-25.394,1025.4788],[27.0716,-25.3928,1027.6792],[27.0687,-25.3939,1027.6011],[27.0655,-25.3897,1028.193],[27.0571,-25.3856,1033.2997],[27.0536,-25.3871,1036.2881],[27.0491,-25.3856,1052.3058],[27.0034,-25.39,1113.6466],[27.0016,-25.3972,1220.2378],[27.0151,-25.4632,1081.9659],[27.0408,-25.4661,1108.6785],[27.0442,-25.4716,1131.3418],[27.0611,-25.4755,1167.0428],[27.0497,-25.481,1273.9673],[27.0669,-25.5332,1462.9202],[27.0755,-25.5478,1356.639],[27.0956,-25.57,1267.4509],[27.0881,-25.5748,1239.1246],[27.1017,-25.5974,1236.7346],[27.1164,-25.6016,1494.8536],[27.1162,-25.6083,1502.0375],[27.1341,-25.6143,1340.6096],[27.1262,-25.6185,1335.6658],[27.1497,-25.6518,1432.845],[27.1585,-25.6685,1553.7491],[27.1606,-25.7041,1644.3889],[27.1671,-25.7203,1586.0419],[27.1198,-25.7522,1240.6155],[27.1327,-25.8093,1450.3423],[27.1561,-25.8181,1430.7019],[27.2082,-25.8548,1397.8573],[27.1853,-25.8701,1456.3452],[27.1787,-25.8767,1329.9011],[27.1738,-25.8849,1403.9574],[27.1856,-25.9034,1485.8711],[27.1843,-25.9037,1485.8711],[27.1882,-25.9313,1591.2861],[27.1738,-25.9733,1553.475],[27.1651,-25.9921,1508.4595],[27.1698,-26.0802,1495.4869],[27.2107,-26.0826,1537.354],[27.2411,-26.092,1615.3574],[27.2699,-26.0949,1636.5658],[27.2924,-26.0954,1642.0421],[27.3262,-26.1007,1628.1106],[27.3617,-26.1157,1599.6279],[27.4194,-26.1175,1562.1724],[27.4205,-26.1071,1594.1249]]]]}}