{"type":"Feature","properties":{"GID_3":"ZAF.9.4.4_1","GID_0":"ZAF","country":"SouthAfrica","GID_1":"ZAF.9_1","province":"WesternCape","NL_NAME_1":"NA","GID_2":"ZAF.9.4_1","county":"Eden","NL_NAME_2":"NA","city":"Kannaland","VARNAME_3":"NA","NL_NAME_3":"NA","TYPE_3":"LocalMunicipality","ENGTYPE_3":"LocalMunicipality","CC_3":"WC041","HASC_3":"NA","name":"Kannaland.city"},
"geometry":{"type": "MultiPolygon","coordinates": [[[[20.5325,-33.5975,643.3406],[20.5032,-33.637,693.8564],[20.5816,-33.6221,714.933],[20.5862,-33.6672,645.4331],[20.6455,-33.6362,607.1833],[20.666,-33.622,607.9998],[20.7189,-33.6406,438.6609],[20.7378,-33.6592,417.0976],[20.7756,-33.6917,514.9557],[20.8072,-33.6898,442.0438],[20.8095,-33.6985,452.6268],[20.8003,-33.715,573.8123],[20.885,-33.7174,508.8414],[20.8799,-33.6926,467.5436],[20.9388,-33.6998,510.4133],[20.9341,-33.7246,368.9147],[20.965699999999998,-33.7426,337.9407],[20.9806,-33.7396,357.4497],[21.0103,-33.7566,378.6599],[20.9656,-33.8043,472.418],[20.9568,-33.8063,491.3712],[20.9434,-33.8519,449.2704],[20.9816,-33.8456,564.8378],[21.0026,-33.8479,577.2991],[20.9916,-33.868,527.2902],[21.0415,-33.8542,455.5934],[21.0516,-33.8343,597.7382],[21.0532,-33.8385,555.8086],[21.0607,-33.8293,493.9982],[21.0726,-33.8244,444.0275],[21.0846,-33.8229,395.7534],[21.1014,-33.8267,424.1868],[21.1075,-33.8319,434.5856],[21.1541,-33.8323,436.3853],[21.1856,-33.8233,378.9615],[21.2726,-33.822,380.562],[21.2812,-33.8185,402.8271],[21.3711,-33.8199,304.2198],[21.3819,-33.8453,350.8387],[21.4233,-33.8476,294.6859],[21.5483,-33.8228,282.4276],[21.6035,-33.831,310.829],[21.604,-33.8252,206.7244],[21.6266,-33.8252,245.1656],[21.6324,-33.8278,117.0133],[21.6341,-33.8264,142.4809],[21.6396,-33.8265,150.857],[21.6483,-33.8304,196.7029],[21.6951,-33.807,338.5986],[21.6952,-33.7914,270.4165],[21.7092,-33.7885,218.0926],[21.7123,-33.7823,215.4989],[21.7158,-33.7706,332.3291],[21.7195,-33.7409,126.4487],[21.6805,-33.7254,201.8905],[21.6774,-33.7258,158.1465],[21.6772,-33.7244,201.2042],[21.6902,-33.7135,164.5994],[21.6937,-33.7083,224.1151],[21.6976,-33.6969,202.2963],[21.7078,-33.6866,186.6027],[21.7155,-33.6816,172.2449],[21.7225,-33.6938,701.3301],[21.7228,-33.7053,753.0527],[21.7679,-33.7213,908.6965],[21.8375,-33.7373,990.2272],[21.89,-33.7128,942.2998],[21.8881,-33.688,682.1143],[21.8809,-33.6673,354.8583],[21.905,-33.6796,558.0571],[21.935,-33.6677,366.5831],[21.92,-33.627,221.6734],[21.9392,-33.6218,228.5069],[21.9273,-33.5792,325.2588],[21.9757,-33.5807,281.9482],[21.9363,-33.525,447.8768],[21.9328,-33.5164,522.8345],[21.9285,-33.4791,775.181],[21.9198,-33.4619,618.5939],[21.9034,-33.4017,730.5342],[21.9021,-33.365,1791.5322],[21.8569,-33.3824,1963.3855],[21.8272,-33.391,1920.9711],[21.7926,-33.3899,1833.4032],[21.7472,-33.3971,1659.1401],[21.7079,-33.3964,1539.4313],[21.68,-33.4048,1614.3022],[21.6119,-33.3968,989.0545],[21.5534,-33.4105,1832.2877],[21.5218,-33.4144,1800.6069],[21.5047,-33.4107,1883.8728],[21.4885,-33.4094,1727.166],[21.4331,-33.3942,1967.1173],[21.3677,-33.3982,2272.2886],[21.2064,-33.4217,2059.4609],[21.1657,-33.415,1834.4545],[21.1138,-33.4307,1684.2698],[21.0493,-33.4339,1384.8379],[21.0097,-33.4393,1113.9602],[20.9726,-33.4225,997.1027],[20.9218,-33.4306,1148.499],[20.762,-33.4908,1175.8048],[20.7236,-33.4972,1331.5739],[20.6566,-33.5046,1414.3733],[20.5476,-33.5195,1462.9585],[20.5494,-33.5287,949.8494],[20.5771,-33.5281,1025.8175],[20.5744,-33.5388,789.7614],[20.5325,-33.5975,643.3406]]]]}}