{"type":"Feature","properties":{"GID_2":"ZAF.8.1_1","GID_0":"ZAF","country":"SouthAfrica","GID_1":"ZAF.8_1","province":"NorthernCape","NL_NAME_1":"NA","county":"FrancesBaard","VARNAME_2":"NA","NL_NAME_2":"NA","TYPE_2":"DistrictMunicipality","ENGTYPE_2":"DistrictMunicipality","CC_2":"DC9","HASC_2":"ZA.NC.FB","name":"Frances_Baard.county"},
"geometry":{"type": "MultiPolygon","coordinates": [[[[24.7325,-28.9527,1143.5613],[24.9018,-28.648,1298.3285],[24.8277,-28.627,1229.3425],[24.8678,-28.5171,1166.5392],[24.8469,-28.5038,1155.2119],[24.8813,-28.4632,1147.7273],[24.8868,-28.465,1154.5983],[24.9376,-28.3249,1183.5444],[24.8903,-28.3102,1236.3884],[24.8705,-28.2704,1220.088],[24.9053,-28.2748,1248.684],[24.9267,-28.2469,1241.4027],[24.9646,-28.2507,1296.9343],[25.0281,-28.0735,1188.6108],[25.0201,-28.0774,1188.0],[25.0098,-28.0767,1188.0],[24.9993,-28.0819,1188.0],[24.9848,-28.0796,1188.3884],[24.9734,-28.081,1188.8058],[24.9694,-28.085,1188.0],[24.9667,-28.0928,1188.0],[24.9595,-28.1035,1187.5],[24.9506,-28.1132,1187.5],[24.8298,-27.9313,1151.8973],[24.8456,-27.9237,1159.8018],[24.8517,-27.9261,1160.7581],[24.8574,-27.9253,1165.3977],[24.8577,-27.9202,1166.59],[24.8598,-27.9213,1167.4386],[24.857,-27.9189,1167.751],[24.8571,-27.9161,1164.2725],[24.8615,-27.9083,1164.5858],[24.8469,-27.9112,1156.876],[25.0477,-27.6995,1263.1169],[25.0348,-27.6931,1266.3204],[24.9997,-27.6808,1285.129],[24.9732,-27.6826,1295.6744],[24.8857,-27.6945,1267.4513],[24.8545,-27.6956,1277.2902],[24.8012,-27.7018,1168.2332],[24.7966,-27.6982,1152.1229],[24.797,-27.693,1154.0327],[24.792,-27.6869,1156.2969],[24.7949,-27.682,1156.896],[24.7938,-27.6767,1157.5474],[24.7953,-27.6734,1155.7271],[24.7952,-27.6633,1151.2975],[24.7977,-27.6562,1149.2422],[24.7938,-27.646,1149.9393],[24.7866,-27.6432,1150.6565],[24.7822,-27.633,1148.8281],[24.7807,-27.6184,1148.7374],[24.7825,-27.6109,1147.7594],[24.7843,-27.6093,1145.2452],[24.7843,-27.6046,1144.7451],[24.7568,-27.6096,1110.1084],[24.7621,-27.6332,1118.1812],[24.6923,-27.6452,1073.0134],[24.6918,-27.6541,1070.8467],[24.6782,-27.6669,1070.2557],[24.6787,-27.6691,1070.1927],[24.6845,-27.6741,1069.9497],[24.686,-27.6784,1069.77],[24.6834,-27.6804,1071.8313],[24.6746,-27.6812,1068.312],[24.6727,-27.6856,1068.3091],[24.6752,-27.6934,1069.1582],[24.6812,-27.7034,1067.3108],[24.6955,-27.7183,1067.6301],[24.6937,-27.7356,1073.4746],[24.6805,-27.7393,1079.936],[24.6704,-27.7616,1092.502],[24.6757,-27.7699,1085.9772],[24.6731,-27.7828,1086.5911],[24.6692,-27.7863,1089.2163],[24.6618,-27.7848,1100.7992],[24.6587,-27.7909,1136.1326],[24.6993,-27.8283,1056.9573],[24.6908,-27.8327,1056.6816],[24.6881,-27.8365,1056.6669],[24.6884,-27.8391,1056.9237],[24.6949,-27.8426,1056.35],[24.6968,-27.8476,1055.8602],[24.6912,-27.8504,1055.1901],[24.6904,-27.8525,1055.0895],[24.6889,-27.8504,1054.9147],[24.6813,-27.8491,1055.4058],[24.6784,-27.8505,1054.1941],[24.6715,-27.8499,1053.7865],[24.6651,-27.8531,1055.3634],[24.6583,-27.8527,1053.4473],[24.6564,-27.8554,1053.4969],[24.6563,-27.8634,1052.8651],[24.6521,-27.8697,1052.619],[24.6519,-27.8768,1052.6187],[24.6494,-27.8817,1052.6487],[24.6451,-27.8875,1052.5973],[24.6413,-27.8876,1051.8904],[24.6325,-27.8914,1051.8647],[24.6322,-27.8991,1052.3467],[24.6301,-27.9029,1051.0262],[24.6191,-27.9049,1051.2153],[24.6133,-27.9016,1051.6051],[24.6116,-27.8977,1051.1732],[24.6071,-27.8984,1049.845],[24.606,-27.901,1050.3547],[24.6071,-27.9012,1050.3547],[24.6069,-27.9085,1050.0951],[24.6115,-27.91,1049.0739],[24.6173,-27.9155,1048.7867],[24.6184,-27.9213,1048.7384],[24.6222,-27.9269,1048.459],[24.6257,-27.9287,1048.134],[24.6288,-27.9353,1048.036],[24.6265,-27.938,1047.8188],[24.627,-27.9419,1048.1542],[24.6198,-27.9512,1050.155],[24.6222,-27.9611,1046.8533],[24.6265,-27.963,1046.8243],[24.6256,-27.9672,1046.7621],[24.6219,-27.972,1047.8403],[24.6227,-27.974,1045.9038],[24.6208,-27.9749,1046.4202],[24.6231,-27.9765,1046.1239],[24.6209,-27.9788,1046.431],[24.6249,-27.9906,1045.7539],[24.6273,-27.9909,1045.4734],[24.6294,-27.9943,1045.2911],[24.6273,-27.9971,1045.1547],[24.6283,-27.9995,1045.5751],[24.6248,-27.9992,1044.788],[24.6232,-28.0017,1044.9105],[24.6209,-28.0012,1044.6804],[24.6166,-28.0065,1044.5652],[24.617,-28.008,1044.657],[24.6082,-28.0117,1044.6771],[24.6086,-28.015,1045.6544],[24.6141,-28.0204,1044.0107],[24.6144,-28.0224,1045.8778],[24.6089,-28.0273,1044.1279],[24.608,-28.0262,1043.6171],[24.6031,-28.0292,1043.6332],[24.5941,-28.0287,1043.4589],[24.5919,-28.0313,1043.6035],[24.5887,-28.0279,1041.3081],[24.5788,-28.0326,1042.2131],[24.5664,-28.0348,1041.0],[24.5595,-28.0388,1041.0],[24.5577,-28.0445,1041.0],[24.5632,-28.0569,1041.0],[24.5637,-28.07,1041.0],[24.5599,-28.0747,1041.0],[24.5526,-28.0784,1041.0],[24.5346,-28.0921,1041.0],[24.4655,-28.0358,1117.3207],[24.4445,-28.0319,1151.928],[24.4587,-28.0128,1156.0262],[24.4682,-27.9967,1154.4386],[24.4673,-27.9806,1186.4658],[24.41,-27.9233,1252.5677],[24.3926,-27.9415,1255.5208],[24.3605,-27.9107,1309.7704],[24.4099,-27.8428,1327.3474],[24.4274,-27.8405,1314.9419],[24.4526,-27.7825,1321.1603],[24.4088,-27.7611,1346.9451],[24.4468,-27.7029,1348.1558],[24.4053,-27.6812,1354.2231],[23.8787,-27.7843,1478.5315],[23.6441,-27.8335,1544.4741],[23.5809,-27.8793,1636.7371],[23.5978,-27.8883,1591.7197],[23.5905,-27.8899,1616.0569],[23.597,-27.9112,1603.0292],[23.6047,-27.9076,1607.6346],[23.6287,-27.9217,1566.6005],[23.6372,-27.9095,1554.9977],[23.8346,-28.0151,1461.1012],[23.7907,-28.0828,1466.9297],[23.8237,-28.0991,1444.0886],[23.8582,-28.1116,1431.4641],[23.8914,-28.1259,1416.5907],[23.8607,-28.1998,1412.3069],[23.8484,-28.2594,1404.0697],[23.8144,-28.3338,1397.7601],[23.8423,-28.3487,1397.0865],[23.8285,-28.3863,1385.2036],[23.8281,-28.391,1383.7135],[23.7673,-28.4715,1390.7781],[23.7924,-28.4911,1382.4778],[23.7547,-28.5288,1388.3813],[23.7848,-28.5452,1373.1134],[23.8127,-28.5645,1363.0767],[23.8519,-28.5972,1355.8383],[23.8795,-28.6144,1342.7123],[23.9087,-28.6414,1317.5706],[23.9693,-28.6711,1119.1908],[24.0009,-28.6619,1088.2789],[23.9606,-28.6197,1296.7041],[23.9496,-28.6034,1315.5197],[24.0464,-28.5998,1069.9067],[24.0615,-28.5825,1087.4543],[24.0866,-28.5583,1112.5103],[24.1178,-28.5997,1000.1718],[24.1091,-28.6094,1000.0278],[24.1092,-28.6147,1002.129],[24.1014,-28.6197,1000.2568],[24.0963,-28.6203,999.4615],[24.0915,-28.6252,1000.974],[24.0873,-28.6386,1003.4941],[24.0822,-28.6467,997.5],[24.0809,-28.6517,1004.1343],[24.0817,-28.6602,1001.3725],[24.0581,-28.6659,1002.5455],[24.0627,-28.6877,1005.8572],[24.0756,-28.7042,997.0],[24.0752,-28.7088,1001.3493],[24.0732,-28.7113,999.877],[24.0766,-28.7195,1015.4559],[24.0781,-28.736,1044.8744],[24.1006,-28.7641,1036.8429],[24.1083,-28.7776,1061.3843],[24.1197,-28.7846,1086.5337],[24.1408,-28.7911,1086.8853],[24.1625,-28.8042,1092.3992],[24.1819,-28.8116,1068.9607],[24.1887,-28.809,1065.6458],[24.2266,-28.8186,1071.8013],[24.2584,-28.8314,1069.7722],[24.2702,-28.8335,1064.1418],[24.2549,-28.8561,1055.9883],[24.2336,-28.8824,1045.7832],[24.2374,-28.8955,1032.6155],[24.2447,-28.9018,1038.9221],[24.261,-28.9479,1033.1257],[24.2677,-28.9444,1029.2371],[24.2728,-28.9516,1027.8782],[24.28,-28.9516,1026.2388],[24.2814,-28.9498,1029.0447],[24.2829,-28.934,1031.6147],[24.286,-28.9294,1035.5819],[24.2881,-28.9286,1030.0193],[24.2931,-28.931,1032.6543],[24.3005,-28.9312,1033.9927],[24.3096,-28.9238,1031.0616],[24.3226,-28.9335,1031.1892],[24.3297,-28.9326,1034.5072],[24.3382,-28.9281,1032.1257],[24.3512,-28.9276,1034.0632],[24.3563,-28.9326,1030.7233],[24.3741,-28.9343,1035.9502],[24.3837,-28.945,1036.3842],[24.3881,-28.9416,1033.1077],[24.3944,-28.9417,1037.9919],[24.4019,-28.9478,1038.5109],[24.4051,-28.9527,1036.3225],[24.4101,-28.9543,1043.6006],[24.4098,-28.9602,1043.8196],[24.4119,-28.9664,1050.9056],[24.429,-28.9925,1045.3193],[24.4339,-28.9975,1044.4775],[24.4502,-29.0032,1058.7872],[24.4676,-28.9978,1057.8627],[24.4773,-28.999,1059.6648],[24.4855,-28.9974,1073.1667],[24.4897,-28.9981,1067.9037],[24.4933,-29.001,1070.5232],[24.495,-29.007,1065.2493],[24.4999,-29.0125,1071.8578],[24.5126,-29.0182,1070.2521],[24.5128,-29.0317,1075.0719],[24.5044,-29.0392,1092.8286],[24.5011,-29.0444,1078.3976],[24.5033,-29.0491,1081.3516],[24.5075,-29.051,1080.5326],[24.5191,-29.0495,1082.89],[24.5352,-29.0422,1086.6838],[24.5405,-29.0462,1084.8861],[24.5717,-29.0426,1098.4135],[24.5833,-29.0454,1101.4519],[24.5938,-29.0417,1103.3375],[24.6054,-29.0422,1103.5],[24.6167,-29.0379,1106.7344],[24.6223,-29.0374,1106.0702],[24.6403,-29.0424,1110.8312],[24.6419,-29.0411,1110.2297],[24.642,-29.0371,1110.2727],[24.6385,-29.0295,1110.9187],[24.6437,-29.026,1113.7415],[24.6488,-29.0277,1112.9574],[24.6554,-29.0274,1112.2883],[24.6547,-29.0397,1114.5637],[24.6566,-29.0439,1114.9587],[24.6592,-29.0448,1115.4287],[24.6612,-29.0401,1115.6201],[24.6661,-29.0395,1114.5631],[24.6683,-29.0373,1113.9307],[24.6711,-29.028,1114.4888],[24.6789,-29.0319,1116.5671],[24.6918,-29.0257,1115.5347],[24.7325,-28.9527,1143.5613]]]]}}