{"type":"Feature","properties":{"GID_3":"ZAF.2.2.1_1","GID_0":"ZAF","country":"SouthAfrica","GID_1":"ZAF.2_1","province":"FreeState","NL_NAME_1":"NA","GID_2":"ZAF.2.2_1","county":"Lejweleputswa","NL_NAME_2":"NA","city":"Masilonyana","VARNAME_3":"NA","NL_NAME_3":"NA","TYPE_3":"LocalMunicipality","ENGTYPE_3":"LocalMunicipality","CC_3":"FS181","HASC_3":"NA","name":"Masilonyana.city"},
"geometry":{"type": "MultiPolygon","coordinates": [[[[26.4329,-28.4208,1307.6782],[26.4358,-28.4357,1340.8672],[26.4296,-28.4356,1337.9531],[26.4224,-28.4268,1312.8536],[26.3855,-28.3946,1363.3289],[26.3547,-28.4051,1369.8213],[26.3202,-28.4197,1379.9509],[26.288,-28.4686,1400.0315],[26.2551,-28.4862,1411.3997],[26.2457,-28.4897,1394.2188],[26.2191,-28.4688,1386.2465],[26.2118,-28.5063,1353.0278],[26.2185,-28.5077,1357.9882],[26.2011,-28.5309,1336.9141],[26.1835,-28.5232,1339.9093],[26.1663,-28.5465,1330.2382],[26.153199999999998,-28.5399,1340.8333],[26.1479,-28.5579,1337.6147],[26.0873,-28.5788,1321.1276],[26.0813,-28.5889,1323.5547],[26.0693,-28.5812,1318.1921],[26.0336,-28.5863,1300.4161],[26.0079,-28.5842,1325.2927],[25.9782,-28.6046,1321.595],[25.9769,-28.6154,1316.0245],[25.9496,-28.6513,1292.7507],[25.9314,-28.6831,1283.0844],[25.8785,-28.76,1233.3314],[25.9079,-28.774,1259.3844],[25.912,-28.7615,1253.6194],[25.9308,-28.7711,1267.6855],[25.9427,-28.7601,1275.7976],[25.9463,-28.762,1277.202],[25.921,-28.8099,1291.2443],[25.9265,-28.8264,1279.203],[25.977,-28.8049,1288.4446],[25.9808,-28.854,1271.6913],[25.9865,-28.876,1248.0],[25.9913,-28.8736,1248.0],[25.9946,-28.8696,1248.0],[26.0093,-28.8685,1248.0],[26.0137,-28.8631,1248.0],[26.0137,-28.8573,1248.0],[26.0156,-28.8543,1248.106],[26.0198,-28.8533,1248.0],[26.0248,-28.8549,1248.5184],[26.0279,-28.8535,1248.0],[26.031,-28.8439,1248.3536],[26.0365,-28.8399,1248.4377],[26.0332,-28.8299,1250.8101],[26.0382,-28.8261,1251.2535],[26.0427,-28.8281,1251.2885],[26.0483,-28.8268,1249.4321],[26.0494,-28.8206,1249.1367],[26.0554,-28.8183,1250.5391],[26.0567,-28.8146,1249.3986],[26.0625,-28.8173,1252.3496],[26.0601,-28.8219,1253.9449],[26.0679,-28.8237,1250.7283],[26.0735,-28.8165,1252.8506],[26.074,-28.813,1250.5759],[26.0788,-28.8087,1253.2091],[26.0843,-28.8122,1253.243],[26.0884,-28.8192,1251.1265],[26.0901,-28.8194,1252.0652],[26.0955,-28.8096,1256.6652],[26.0955,-28.8054,1253.9009],[26.0997,-28.8038,1253.262],[26.1108,-28.8072,1253.6208],[26.125,-28.8055,1255.1741],[26.1282,-28.8111,1256.7496],[26.1268,-28.8143,1256.3625],[26.128,-28.8159,1257.2546],[26.1335,-28.8146,1259.7544],[26.1393,-28.8106,1258.7183],[26.1464,-28.8096,1258.5554],[26.1496,-28.8115,1259.08],[26.1497,-28.8162,1259.6122],[26.1404,-28.8237,1265.2991],[26.1476,-28.8243,1260.5159],[26.153,-28.8287,1262.0525],[26.1556,-28.8502,1262.631],[26.1581,-28.8489,1261.7444],[26.1591,-28.8457,1262.8724],[26.1609,-28.8456,1262.8724],[26.1638,-28.8478,1262.0297],[26.1636,-28.8526,1262.8032],[26.1653,-28.8546,1262.9369],[26.1722,-28.8534,1262.259],[26.1749,-28.8444,1266.2063],[26.1775,-28.8486,1265.084],[26.178,-28.8535,1262.8479],[26.1843,-28.8528,1264.8636],[26.1866,-28.8509,1263.2312],[26.1877,-28.8461,1269.3291],[26.1948,-28.8432,1266.1533],[26.1954,-28.8461,1267.0741],[26.1918,-28.8513,1271.146],[26.1947,-28.8541,1269.0315],[26.2017,-28.8566,1272.1772],[26.1989,-28.8608,1270.0753],[26.1995,-28.8623,1269.4109],[26.2075,-28.8624,1269.8972],[26.2071,-28.868,1271.4463],[26.2166,-28.8731,1272.6805],[26.2255,-28.8722,1268.9132],[26.2257,-28.8803,1274.1727],[26.2306,-28.8827,1271.5111],[26.2346,-28.881,1273.6282],[26.241,-28.8872,1273.5067],[26.2502,-28.8987,1271.2113],[26.2556,-28.9021,1270.4814],[26.2547,-28.9067,1272.55],[26.2595,-28.9088,1274.8455],[26.2637,-28.9139,1272.2833],[26.2678,-28.9146,1272.7557],[26.2616,-28.9264,1278.1537],[26.2623,-28.9289,1279.1648],[26.2793,-28.9399,1280.4208],[26.2836,-28.9405,1277.1113],[26.2917,-28.9371,1276.394],[26.2974,-28.9418,1277.2941],[26.3032,-28.9419,1279.2997],[26.335,-28.9012,1329.6245],[26.362,-28.9194,1342.7388],[26.362,-28.941,1342.6528],[26.3657,-28.9419,1347.0959],[26.3532,-28.9597,1286.3679],[26.3617,-28.9639,1282.9933],[26.3658,-28.9624,1283.8313],[26.3699,-28.9646,1285.1497],[26.3779,-28.9697,1287.2977],[26.3791,-28.9732,1287.8313],[26.3834,-28.9775,1287.9343],[26.3961,-28.9796,1288.6162],[26.3968,-28.9848,1287.3872],[26.399,-28.9864,1289.8809],[26.4017,-28.9859,1289.3529],[26.4031,-28.9892,1290.0295],[26.4309,-28.991,1324.8865],[26.4346,-28.9633,1311.2065],[26.4719,-28.948,1371.1953],[26.4965,-28.9731,1314.3525],[26.4989,-28.9739,1320.996],[26.4985,-28.9766,1324.8921],[26.5019,-28.9758,1320.3156],[26.5057,-28.9796,1325.0909],[26.5105,-28.9805,1325.1046],[26.5141,-28.979,1333.9468],[26.5144,-28.9818,1348.8621],[26.5173,-28.9831,1348.855],[26.5249,-29.0012,1402.8418],[26.5469,-28.9827,1388.1879],[26.5479,-28.9755,1375.8254],[26.5669,-28.9681,1423.6692],[26.5651,-28.9852,1395.094],[26.5751,-28.986,1401.4055],[26.5799,-28.9842,1405.905],[26.5843,-28.9883,1406.9152],[26.5881,-28.9893,1409.0544],[26.605,-29.0078,1441.0077],[26.6176,-29.0062,1443.3967],[26.6343,-29.0597,1422.301],[26.6373,-29.0585,1406.558],[26.6426,-29.0685,1411.0793],[26.6607,-29.0767,1368.1189],[26.6665,-29.0893,1363.5377],[26.6934,-29.0657,1402.0958],[26.7164,-29.0724,1430.7332],[26.7079,-29.0872,1400.1875],[26.718,-29.0902,1477.7513],[26.7218,-29.082,1549.2114],[26.7277,-29.0788,1505.5142],[26.7272,-29.0738,1619.1545],[26.7392,-29.0619,1666.41],[26.7371,-29.0585,1495.9242],[26.7426,-29.0553,1460.3176],[26.7514,-29.0532,1463.8209],[26.7512,-29.0387,1452.5624],[26.779,-29.0158,1469.7798],[26.7776,-29.0134,1469.853],[26.7567,-29.0061,1472.0887],[26.7527,-29.003,1452.6062],[26.8537,-28.8863,1470.2777],[26.8804,-28.8285,1446.608],[26.9111,-28.7683,1404.9578],[26.9107,-28.7622,1397.7542],[26.9237,-28.7591,1374.3882],[26.947,-28.7482,1403.2233],[26.947,-28.7503,1408.451],[26.9728,-28.746,1383.2047],[26.9754,-28.7518,1433.881],[27.0297,-28.7439,1428.4749],[27.0302,-28.7562,1424.4111],[27.0333,-28.7607,1433.2278],[27.0419,-28.7626,1449.5518],[27.0463,-28.7699,1432.7502],[27.0618,-28.7615,1425.4126],[27.0776,-28.7677,1426.3334],[27.0999,-28.7567,1435.5773],[27.1074,-28.7683,1435.2371],[27.1496,-28.7252,1394.6394],[27.151,-28.7259,1398.7733],[27.1511,-28.7311,1394.8303],[27.1557,-28.7335,1395.3979],[27.1578,-28.7325,1396.1815],[27.1545,-28.7417,1397.6709],[27.1573,-28.7434,1398.5972],[27.1563,-28.7469,1398.5631],[27.1539,-28.7476,1398.791],[27.1553,-28.7516,1399.0452],[27.1527,-28.7529,1401.0425],[27.1517,-28.7602,1401.1904],[27.1581,-28.7692,1408.035],[27.157,-28.7718,1404.9922],[27.1599,-28.7791,1405.6331],[27.1648,-28.779,1406.989],[27.1666,-28.7812,1411.3162],[27.1703,-28.7821,1409.803],[27.1716,-28.7864,1409.2637],[27.1742,-28.7874,1409.734],[27.1752,-28.7909,1412.174],[27.1782,-28.7912,1414.8275],[27.1787,-28.7947,1415.3495],[27.1802,-28.7952,1411.5219],[27.1796,-28.7981,1420.0999],[27.1863,-28.8015,1413.8339],[27.1863,-28.8053,1414.8333],[27.2146,-28.7742,1458.821],[27.2099,-28.7719,1451.1962],[27.2006,-28.7817,1478.8223],[27.199,-28.7794,1464.2512],[27.1917,-28.7796,1535.088],[27.1863,-28.7754,1604.4629],[27.1782,-28.7737,1446.9604],[27.1749,-28.7673,1437.981],[27.1768,-28.7657,1439.2513],[27.1702,-28.7597,1423.6326],[27.1985,-28.7342,1429.345],[27.1966,-28.7335,1429.0635],[27.2087,-28.7056,1415.0372],[27.1926,-28.6977,1420.4246],[27.2026,-28.6762,1436.5228],[27.1901,-28.6676,1459.0574],[27.2127,-28.6265,1457.4197],[27.1929,-28.6247,1501.5095],[27.214,-28.6158,1480.7485],[27.219,-28.5992,1467.6652],[27.2087,-28.5969,1467.9233],[27.2122,-28.578,1450.7725],[27.1977,-28.5766,1442.8976],[27.1724,-28.5623,1474.476],[27.1567,-28.5583,1424.3132],[27.1549,-28.5463,1430.95],[27.1507,-28.5477,1428.4454],[27.1483,-28.5202,1420.5756],[27.1646,-28.5225,1444.0903],[27.1659,-28.5243,1452.1283],[27.1754,-28.5085,1449.4017],[27.1737,-28.5081,1449.4017],[27.1874,-28.4823,1473.1851],[27.1373,-28.4767,1549.1298],[27.1136,-28.4565,1452.8896],[27.1174,-28.4453,1436.6039],[27.0983,-28.4395,1421.6128],[27.1104,-28.4283,1438.0981],[27.1104,-28.4121,1409.8235],[27.1055,-28.4079,1401.3369],[27.1065,-28.4018,1419.7515],[27.075,-28.4077,1419.8887],[27.0709,-28.4155,1435.8993],[27.0372,-28.3989,1420.2382],[27.0154,-28.4065,1441.064],[26.9957,-28.3953,1505.5923],[26.9874,-28.4071,1492.8884],[26.9767,-28.3976,1496.551],[26.9652,-28.4043,1505.8918],[26.96,-28.4053,1495.8435],[26.9491,-28.3828,1491.913],[26.9716,-28.3678,1456.3894],[26.9785,-28.3452,1441.974],[26.9741,-28.3051,1455.3765],[26.9633,-28.2762,1442.3804],[26.9605,-28.2736,1446.0754],[26.9425,-28.257,1428.241],[26.908,-28.2303,1439.5796],[26.885,-28.2228,1418.3423],[26.8768,-28.1689,1376.4744],[26.8572,-28.1641,1369.2705],[26.8323,-28.1992,1362.4186],[26.8186,-28.2049,1331.3386],[26.804,-28.215,1333.1548],[26.7675,-28.229,1365.9683],[26.76,-28.2587,1383.9945],[26.7653,-28.2982,1415.2357],[26.7504,-28.2949,1402.0676],[26.7474,-28.2868,1394.9883],[26.7412,-28.2858,1393.8785],[26.7191,-28.2979,1405.7614],[26.7083,-28.2946,1404.9963],[26.7124,-28.2735,1382.3833],[26.7121,-28.257,1372.0128],[26.6836,-28.256,1403.7926],[26.6889,-28.2346,1375.6479],[26.6394,-28.2181,1354.0394],[26.5984,-28.2442,1360.5906],[26.5995,-28.2481,1366.7625],[26.6202,-28.2578,1363.4336],[26.6131,-28.2681,1382.1689],[26.6333,-28.2712,1363.9395],[26.646,-28.2861,1381.0168],[26.6396,-28.2879,1382.8591],[26.6521,-28.3116,1394.8589],[26.6548,-28.3322,1405.5197],[26.6659,-28.3325,1413.3314],[26.654,-28.344,1423.244],[26.6526,-28.3498,1482.0392],[26.6431,-28.3647,1413.7941],[26.6271,-28.3313,1406.0952],[26.6025,-28.3305,1389.9263],[26.6097,-28.3052,1386.0198],[26.6019,-28.2985,1383.3846],[26.5845,-28.301,1363.7756],[26.5849,-28.3065,1361.468],[26.5494,-28.3109,1359.1371],[26.5505,-28.3013,1350.4949],[26.5489,-28.2902,1333.7766],[26.538,-28.291,1325.7784],[26.448,-28.313,1336.4504],[26.4231,-28.3127,1346.3934],[26.42,-28.3269,1358.7402],[26.4081,-28.3254,1375.5134],[26.4057,-28.3361,1368.641],[26.4168,-28.3417,1354.0647],[26.4185,-28.3339,1356.9037],[26.4422,-28.3376,1335.6476],[26.4348,-28.369,1348.6896],[26.4263,-28.3633,1348.994],[26.4128,-28.3613,1365.9045],[26.4098,-28.3742,1374.9302],[26.433,-28.3769,1369.7823],[26.4263,-28.3779,1357.9102],[26.4025,-28.3876,1362.2419],[26.4235,-28.4042,1351.7561],[26.4301,-28.4034,1342.7137],[26.4329,-28.4208,1307.6782]]]]}}