{"type":"Feature","properties":{"GID_2":"ZAF.4.3_1","GID_0":"ZAF","country":"SouthAfrica","GID_1":"ZAF.4_1","province":"KwaZulu-Natal","NL_NAME_1":"NA","county":"iLembe","VARNAME_2":"NA","NL_NAME_2":"NA","TYPE_2":"DistrictMunicipality","ENGTYPE_2":"DistrictMunicipality","CC_2":"DC29","HASC_2":"ZA.NL.IL","name":"i_Lembe.county"},
"geometry":{"type": "MultiPolygon","coordinates": [[[[31.2304,-29.5174,3.7935],[31.2357,-29.5076,0.0],[31.239,-29.5054,0.0],[31.239,-29.5035,3.0648],[31.2437,-29.4976,19.7882],[31.2504,-29.4912,12.5226],[31.2546,-29.4893,0.0],[31.2551,-29.4871,2.2724],[31.2576,-29.4865,0.0],[31.2618,-29.4804,18.2591],[31.2649,-29.4788,0.0],[31.2668,-29.474,3.5432],[31.2768,-29.464,0.0],[31.2779,-29.4624,0.0],[31.2771,-29.4593,0.4692],[31.279,-29.4601,0.0],[31.2835,-29.4557,2.3298],[31.2857,-29.4554,0.0],[31.2876,-29.4515,0.0],[31.2871,-29.449,0.0],[31.294,-29.4435,0.0],[31.2926,-29.4415,5.537],[31.2943,-29.4382,4.7302],[31.3015,-29.4326,0.0],[31.3018,-29.4299,2.0819],[31.3057,-29.4276,0.0],[31.3085,-29.4232,0.0],[31.3121,-29.4215,0.0],[31.3149,-29.4135,0.0],[31.3171,-29.4126,0.0],[31.3179,-29.4099,0.0],[31.3251,-29.4032,0.0],[31.3299,-29.4021,0.0],[31.3307,-29.3999,0.0],[31.3357,-29.3968,0.0],[31.3371,-29.3924,0.0],[31.3337,-29.3907,2.4677],[31.3351,-29.3871,1.2122],[31.349,-29.376,0.0],[31.3599,-29.364,2.6822],[31.3729,-29.3549,0.0],[31.374,-29.351,6.5869],[31.3826,-29.3468,0.0],[31.3915,-29.3388,6.458],[31.3996,-29.326,21.6584],[31.406,-29.3218,0.0],[31.409,-29.3162,10.3044],[31.4201,-29.3088,1.0954],[31.4224,-29.3093,0.0],[31.429,-29.2987,0.0],[31.4365,-29.2935,7.4199],[31.4443,-29.2832,0.0],[31.4407,-29.2763,10.1597],[31.4438,-29.2787,0.0],[31.4535,-29.2671,20.1069],[31.4626,-29.2612,11.1915],[31.469,-29.2543,14.6219],[31.4835,-29.246,0.0],[31.4826,-29.2437,0.0],[31.4882,-29.2376,11.8945],[31.4896,-29.2315,0.0],[31.4988,-29.2257,0.0],[31.5018,-29.2268,0.0],[31.5362,-29.196,5.5185],[31.5651,-29.174,0.9616],[31.5921,-29.1429,4.6371],[31.6004,-29.1357,0.0],[31.6251,-29.1043,0.0],[31.6204,-29.1076,0.0],[31.6146,-29.1151,2.1266],[31.5987,-29.1087,2.0556],[31.6093,-29.1087,0.9287],[31.616,-29.1104,0.0],[31.6204,-29.1029,0.0],[31.6243,-29.1007,2.8562],[31.6354,-29.0876,6.6168],[31.6585,-29.0729,1.2723],[31.6751,-29.0549,0.0],[31.5777,-29.0536,80.7947],[31.5632,-29.0617,21.071],[31.5592,-29.0588,24.9605],[31.5493,-29.0596,34.3512],[31.5433,-29.0523,27.644],[31.5386,-29.0505,22.7314],[31.538,-29.0527,27.3756],[31.5423,-29.056,27.1484],[31.5418,-29.0575,27.3457],[31.5296,-29.0567,24.8306],[31.5266,-29.0513,24.7396],[31.5222,-29.0483,37.6489],[31.5258,-29.0408,36.3316],[31.5243,-29.038,29.6955],[31.5178,-29.0368,31.7434],[31.5145,-29.0383,36.0594],[31.5138,-29.0417,33.5181],[31.519,-29.046,35.6104],[31.5128,-29.0471,37.8063],[31.5106,-29.0458,35.2099],[31.5099,-29.0433,35.5838],[31.5121,-29.0347,38.4715],[31.5008,-29.0366,42.1956],[31.4997,-29.0278,52.237],[31.4834,-29.0243,53.9098],[31.4755,-29.0259,51.0356],[31.4721,-29.025,134.2637],[31.4683,-29.0158,58.9725],[31.4717,-29.0082,69.5675],[31.4699,-29.0043,99.6715],[31.4676,-29.004,135.4898],[31.4674,-29.0093,77.1334],[31.458,-29.0098,89.2082],[31.4541,-29.0168,146.4904],[31.4496,-29.0141,110.1164],[31.4479,-29.0096,105.0248],[31.4501,-29.0042,133.207],[31.4602,-29.0042,126.3621],[31.4617,-29.0015,146.2639],[31.4617,-28.9977,149.3253],[31.459,-28.9917,127.8641],[31.4606,-28.9874,125.3468],[31.458,-28.9819,140.4232],[31.4559,-28.9827,127.4161],[31.4577,-28.9869,130.224],[31.4566,-28.989,138.5116],[31.4457,-28.99,138.2289],[31.4424,-28.9968,147.9563],[31.437,-28.9919,188.0714],[31.4319,-28.9962,165.6111],[31.4275,-28.9943,174.8961],[31.4237,-28.9993,172.0634],[31.4198,-28.9943,211.6698],[31.4138,-28.9926,214.7546],[31.4127,-28.9937,198.5529],[31.4145,-28.9959,194.5811],[31.4142,-28.9981,202.8],[31.4107,-28.997,206.1694],[31.4062,-29.0018,228.0298],[31.4054,-28.9973,228.0144],[31.4023,-28.9991,223.9661],[31.3996,-28.9954,230.7446],[31.3949,-28.9961,237.3186],[31.3938,-28.9977,228.2732],[31.3927,-28.9963,228.2732],[31.3879,-28.9969,236.1992],[31.388,-29.0019,247.6314],[31.3821,-29.0028,253.6396],[31.3809,-29.0063,255.3383],[31.3788,-29.0061,257.2528],[31.3777,-29.0151,272.8557],[31.3804,-29.0247,302.1572],[31.3783,-29.0328,340.2068],[31.3792,-29.0357,331.2303],[31.378,-29.0383,291.7318],[31.3758,-29.0386,287.7063],[31.3748,-29.0428,296.8026],[31.3744,-29.0508,241.8647],[31.3719,-29.055,241.0632],[31.3633,-29.0599,218.2072],[31.3722,-29.0594,259.2653],[31.3756,-29.0625,252.9433],[31.3788,-29.0628,260.6388],[31.3856,-29.0581,293.5278],[31.387,-29.0677,430.5808],[31.3845,-29.069,421.0183],[31.3832,-29.0727,403.0837],[31.3769,-29.0794,386.3837],[31.3729,-29.079,335.6016],[31.3702,-29.0841,284.1353],[31.365,-29.0871,255.629],[31.3615,-29.092,214.5817],[31.3588,-29.091,202.603],[31.3559,-29.0871,185.6997],[31.3459,-29.088,185.1708],[31.3403,-29.0868,174.596],[31.3401,-29.0892,181.923],[31.3471,-29.0933,162.8551],[31.3426,-29.0935,153.1738],[31.340699999999998,-29.0951,157.5871],[31.3468,-29.0999,144.9802],[31.3462,-29.1015,148.6264],[31.3324,-29.0994,132.01],[31.3325,-29.1024,160.6534],[31.3277,-29.1028,158.8167],[31.3285,-29.1056,123.4139],[31.3341,-29.1089,124.765],[31.3315,-29.1103,121.3785],[31.3245,-29.109,108.8006],[31.3241,-29.1121,105.5658],[31.3355,-29.1146,98.2709],[31.3378,-29.1167,95.2406],[31.3341,-29.1207,86.4165],[31.3263,-29.1201,83.0075],[31.3254,-29.1224,86.9855],[31.3281,-29.1255,95.9518],[31.3337,-29.1271,78.4546],[31.3341,-29.1289,75.2322],[31.3323,-29.1311,89.0756],[31.3286,-29.1319,74.7191],[31.3213,-29.1274,65.9073],[31.3183,-29.1284,62.519],[31.3183,-29.1306,59.5695],[31.3256,-29.1385,58.1011],[31.3228,-29.1427,56.0909],[31.3173,-29.1442,61.3801],[31.3183,-29.1501,43.5995],[31.3104,-29.1529,51.3776],[31.3049,-29.1571,75.3699],[31.3046,-29.1607,48.0232],[31.3084,-29.172,51.2417],[31.3074,-29.1745,44.0487],[31.3047,-29.1747,59.4047],[31.3008,-29.1727,43.4887],[31.2948,-29.1656,42.699],[31.289,-29.164,51.6284],[31.2859,-29.1649,48.8057],[31.2846,-29.1631,57.3661],[31.2849,-29.1582,59.8103],[31.2939,-29.1506,46.8298],[31.2984,-29.1419,59.5795],[31.2954,-29.1277,54.2823],[31.2901,-29.1145,77.3737],[31.2855,-29.114,55.1601],[31.2789,-29.1176,62.8039],[31.2735,-29.1246,62.905],[31.2686,-29.1407,60.076],[31.2574,-29.1468,62.5888],[31.2491,-29.1471,68.7989],[31.2473,-29.1441,65.1844],[31.2472,-29.132,63.3057],[31.2498,-29.1259,68.0762],[31.2448,-29.1196,67.0323],[31.2383,-29.1155,73.0506],[31.234,-29.1098,72.9659],[31.2184,-29.1078,74.4794],[31.2134,-29.1053,74.125],[31.2098,-29.1011,77.6478],[31.2073,-29.0891,79.0],[31.198,-29.0843,88.2701],[31.1914,-29.0829,90.6668],[31.1757,-29.0737,88.7881],[31.1751,-29.0696,90.6361],[31.177,-29.0632,91.0138],[31.1813,-29.0592,92.3698],[31.181,-29.0503,93.0],[31.1743,-29.0458,97.4268],[31.168,-29.0457,96.0],[31.1616,-29.0478,101.503],[31.154,-29.0468,107.574],[31.1483,-29.0434,103.4612],[31.1429,-29.0369,108.1857],[31.1343,-29.0323,105.0],[31.1298,-29.0248,119.6734],[31.1229,-29.0071,134.1623],[31.1189,-29.004,117.2876],[31.1174,-29.0004,117.75],[31.1201,-28.9877,123.6784],[31.1271,-28.9768,125.5],[31.129,-28.9704,127.5],[31.127,-28.9613,133.226],[31.1251,-28.959,134.072],[31.1055,-28.9599,141.9205],[31.0925,-28.9554,143.0],[31.0836,-28.9565,146.2972],[31.08,-28.9599,146.375],[31.0809,-28.9635,147.4504],[31.0883,-28.9755,156.8878],[31.0937,-28.977,154.758],[31.0974,-28.98,155.0],[31.099,-28.9839,155.0],[31.0984,-28.9896,176.5939],[31.0907,-28.995,166.8898],[31.0827,-28.9932,166.9186],[31.0762,-28.9897,163.7902],[31.0743,-28.9794,163.1435],[31.0762,-28.9645,164.0079],[31.0731,-28.9587,168.9117],[31.065,-28.9502,166.0],[31.0492,-28.9491,168.375],[31.0319,-28.934,175.556],[31.0366,-28.9133,188.2298],[31.035,-28.9076,196.2944],[31.0268,-28.8976,195.25],[31.0268,-28.8943,195.5],[31.028199999999998,-28.8906,197.4318],[31.0377,-28.882,197.0],[31.0366,-28.8729,204.5084],[31.0289,-28.8628,202.2246],[31.0094,-28.8545,216.5704],[30.994,-28.8563,223.6134],[30.9935,-28.8594,226.3819],[30.9913,-28.8611,232.2063],[30.9924,-28.8639,239.9302],[30.9882,-28.8758,269.8203],[30.9853,-28.8762,279.4018],[30.9823,-28.8807,279.9794],[30.9728,-28.8736,306.5738],[30.9671,-28.8766,315.5778],[30.964,-28.8825,337.4774],[30.9398,-28.89,380.6198],[30.9357,-28.8954,398.0345],[30.9314,-28.8964,411.3284],[30.9305,-28.8984,420.9998],[30.9274,-28.8985,426.7755],[30.925,-28.9008,428.6021],[30.9192,-28.9085,471.0647],[30.929,-28.926,1014.8644],[30.9328,-28.9275,1123.6782],[30.9319,-28.9304,1148.6609],[30.9379,-28.9335,1124.5796],[30.9296,-28.9354,1187.0977],[30.9244,-28.9396,1176.8562],[30.9221,-28.9484,1130.0728],[30.9441,-28.9518,1074.2766],[30.9458,-28.9506,1091.7328],[30.9471,-28.957,1001.9073],[30.9451,-28.9594,786.8744],[30.9603,-28.9534,740.7232],[30.9664,-28.9594,533.0244],[30.9624,-28.9636,535.8345],[30.9471,-28.9698,725.1627],[30.9682,-28.9719,609.5283],[30.9802,-28.9699,658.4492],[31.0012,-29.0433,930.0255],[31.0238,-29.0788,829.8066],[31.0042,-29.0839,888.6368],[30.9741,-29.0806,1009.3852],[30.9511,-29.0921,1032.8365],[30.9427,-29.0879,1093.2944],[30.9367,-29.0802,1076.423],[30.9053,-29.0997,976.4796],[30.9062,-29.1038,894.704],[30.9118,-29.1075,788.3769],[30.9111,-29.1158,742.7005],[30.8948,-29.1211,679.0521],[30.8958,-29.1232,643.7717],[30.8927,-29.1257,625.5876],[30.888,-29.1231,592.0487],[30.8804,-29.1243,570.8912],[30.8795,-29.1263,578.0029],[30.8766,-29.1246,561.8684],[30.873,-29.1266,617.358],[30.8668,-29.1341,746.9017],[30.851,-29.1408,1051.9446],[30.8622,-29.1465,847.4004],[30.8635,-29.1521,689.0381],[30.8684,-29.1512,658.4021],[30.8659,-29.1569,738.3927],[30.8699,-29.1636,943.8907],[30.8748,-29.1624,922.937],[30.8757,-29.1605,940.6772],[30.8811,-29.1601,957.5266],[30.8841,-29.1616,831.2655],[30.8841,-29.1632,922.407],[30.8895,-29.1619,903.0097],[30.8904,-29.1655,899.2468],[30.8925,-29.1672,858.303],[30.8978,-29.1669,842.5048],[30.8974,-29.1694,843.6022],[30.9025,-29.1697,724.7754],[30.9025,-29.1725,700.5364],[30.8981,-29.1744,852.6326],[30.8969,-29.1767,771.8052],[30.8912,-29.1736,848.4061],[30.8948,-29.1803,825.6512],[30.9028,-29.1783,791.247],[30.9048,-29.1787,702.5024],[30.9058,-29.181,751.3755],[30.9083,-29.1769,685.1931],[30.9147,-29.176,632.5271],[30.9176,-29.1795,672.4656],[30.9206,-29.1746,753.6937],[30.9217,-29.1776,736.8369],[30.9278,-29.1795,790.7644],[30.9327,-29.1845,919.2853],[30.9346,-29.1808,871.4572],[30.9391,-29.1784,934.233],[30.9422,-29.181,885.2255],[30.9439,-29.1804,894.6909],[30.9435,-29.1818,923.9777],[30.9485,-29.1828,817.8248],[30.9473,-29.1843,908.3912],[30.9416,-29.1825,918.3105],[30.9382,-29.1843,935.4688],[30.9403,-29.188,940.486],[30.9503,-29.1918,814.661],[30.9493,-29.1955,794.6769],[30.946,-29.1968,811.953],[30.9486,-29.1998,894.8317],[30.9552,-29.206,818.5398],[30.959,-29.2051,793.1701],[30.9663,-29.2099,855.7859],[30.969,-29.2142,802.3635],[30.9804,-29.222,764.1107],[30.9862,-29.2228,759.3212],[30.9847,-29.2241,785.5118],[30.9859,-29.2288,555.6714],[30.9834,-29.2325,470.9877],[30.9856,-29.234,414.7009],[30.9845,-29.24,267.5828],[30.9827,-29.24,267.821],[30.9806,-29.243,309.9552],[30.9825,-29.2534,282.1785],[30.9847,-29.2569,295.6223],[30.9822,-29.2604,287.726],[30.9837,-29.2663,463.6674],[30.9812,-29.2693,576.5458],[30.9743,-29.2713,600.8055],[30.9725,-29.2737,593.8007],[30.9512,-29.27,829.1945],[30.936,-29.2709,828.0929],[30.9313,-29.2738,894.5226],[30.9265,-29.2716,904.0225],[30.9174,-29.2808,883.2872],[30.905,-29.2704,910.8235],[30.8978,-29.2853,845.1174],[30.898,-29.2884,965.8519],[30.8772,-29.2756,438.5365],[30.8793,-29.2841,449.6878],[30.87,-29.283,460.6691],[30.8682,-29.284,462.6935],[30.8684,-29.2856,467.3311],[30.872,-29.2868,478.4429],[30.8718,-29.2893,473.0063],[30.8677,-29.2897,481.4229],[30.8692,-29.2928,495.767],[30.8684,-29.2943,519.2162],[30.8634,-29.2952,495.5328],[30.8654,-29.298,501.519],[30.865,-29.3007,521.5886],[30.8575,-29.3024,513.411],[30.8603,-29.3067,558.3132],[30.8561,-29.3092,605.5793],[30.8589,-29.3117,543.1712],[30.855,-29.3136,547.5375],[30.8546,-29.3221,616.8214],[30.8573,-29.3234,649.6208],[30.859,-29.3299,633.4445],[30.8605,-29.3293,585.0229],[30.8606,-29.3259,616.7389],[30.867,-29.3272,588.4611],[30.8683,-29.3297,599.7012],[30.8724,-29.3321,623.014],[30.8757,-29.3384,706.7386],[30.8791,-29.3398,745.299],[30.8846,-29.3458,958.2249],[30.8817,-29.3504,963.1599],[30.8824,-29.3605,922.5771],[30.8804,-29.3648,922.1042],[30.8804,-29.3684,923.5106],[30.8837,-29.3732,916.0159],[30.889,-29.3764,866.87],[30.8953,-29.3762,824.5422],[30.9056,-29.383,768.7767],[30.9172,-29.3829,669.1924],[30.9195,-29.3847,668.2161],[30.9167,-29.386,628.1558],[30.9153,-29.39,640.3662],[30.9093,-29.3966,662.3648],[30.9037,-29.3994,671.1619],[30.8977,-29.4049,697.6385],[30.8969,-29.4076,699.4506],[30.8903,-29.4088,716.5725],[30.8908,-29.4127,730.0458],[30.8884,-29.4156,736.9471],[30.8501,-29.4037,1011.9644],[30.7936,-29.4496,975.6686],[30.7903,-29.4763,968.3113],[30.7662,-29.488,973.5795],[30.7681,-29.455,1059.2354],[30.7481,-29.4534,837.7744],[30.7486,-29.464,813.2172],[30.7477,-29.4673,784.2434],[30.7441,-29.4709,700.3146],[30.7427,-29.4804,631.5217],[30.7373,-29.4856,881.9601],[30.7345,-29.4956,891.9692],[30.7314,-29.4984,784.8574],[30.7276,-29.4987,873.0371],[30.7244,-29.5023,882.8644],[30.7225,-29.511,824.4125],[30.7242,-29.5229,848.089],[30.7219,-29.5258,796.8094],[30.7226,-29.5277,750.5316],[30.7187,-29.5301,652.5073],[30.7178,-29.5278,753.3784],[30.71,-29.5271,741.8818],[30.706,-29.5354,869.6594],[30.7037,-29.5491,789.2301],[30.7066,-29.5566,718.5436],[30.7025,-29.5611,671.6586],[30.7036,-29.5668,674.9467],[30.709,-29.5715,636.6032],[30.7131,-29.5717,555.6452],[30.7243,-29.5692,348.372],[30.7272,-29.5709,303.0031],[30.7257,-29.5663,299.5147],[30.7301,-29.5677,331.2723],[30.7328,-29.5665,360.34],[30.7367,-29.5684,471.2546],[30.7465,-29.5677,564.6136],[30.7512,-29.5658,615.7266],[30.7554,-29.567,644.312],[30.761,-29.5662,697.9252],[30.7694,-29.568,639.9373],[30.7796,-29.5752,528.1534],[30.7847,-29.575,572.1478],[30.7885,-29.5724,628.4205],[30.7888,-29.5653,835.5762],[30.7921,-29.5694,710.5372],[30.7924,-29.5745,696.3796],[30.8026,-29.5849,822.1402],[30.8026,-29.5918,819.6104],[30.8052,-29.597,719.6459],[30.8085,-29.5981,805.8652],[30.809,-29.6068,657.7007],[30.8119,-29.6139,593.525],[30.8108,-29.6179,649.8302],[30.8144,-29.6234,635.8923],[30.8292,-29.6276,694.9178],[30.8254,-29.6181,595.4091],[30.8314,-29.6154,622.1997],[30.8362,-29.6175,599.9824],[30.8398,-29.6214,603.0545],[30.8395,-29.6229,603.0545],[30.8425,-29.6256,624.355],[30.8425,-29.6232,585.8989],[30.8458,-29.6271,607.1995],[30.8503,-29.6223,595.5999],[30.8625,-29.6174,565.7766],[30.8746,-29.6177,565.4675],[30.875,-29.6075,325.1158],[30.8781,-29.6029,299.145],[30.8775,-29.5993,287.5415],[30.8825,-29.5948,268.2856],[30.8878,-29.596,250.3002],[30.8939,-29.5935,259.2892],[30.8914,-29.5896,358.3876],[30.8927,-29.5879,241.7495],[30.9076,-29.5869,237.4157],[30.9075,-29.5897,239.746],[30.8995,-29.5976,230.1433],[30.9068,-29.6034,231.7128],[30.9229,-29.6015,236.168],[30.9235,-29.5976,268.1907],[30.9167,-29.5943,208.6214],[30.922,-29.5886,203.433],[30.9267,-29.5945,203.417],[30.9293,-29.5955,186.7794],[30.9506,-29.5894,167.5426],[30.9506,-29.5861,183.3922],[30.9551,-29.5836,162.7978],[30.9614,-29.5864,233.5794],[30.9691,-29.5863,151.9419],[30.9721,-29.5902,172.3793],[30.9833,-29.5919,154.6778],[30.9828,-29.5897,155.5952],[30.9774,-29.587,149.3663],[30.976,-29.5836,151.9286],[30.9768,-29.5821,131.5895],[30.9807,-29.5823,122.9529],[30.9881,-29.5847,119.9972],[30.9863,-29.5885,130.855],[30.9873,-29.5913,134.8655],[30.9925,-29.5909,111.5289],[30.9963,-29.5872,133.2889],[31.0002,-29.5878,138.8981],[31.0015,-29.5902,130.1181],[31.0007,-29.5947,113.8579],[31.0061,-29.5914,213.6113],[31.013,-29.5627,307.3433],[31.0207,-29.556,311.7639],[31.0348,-29.5491,282.6308],[31.0407,-29.547,291.7755],[31.0683,-29.5488,209.3846],[31.0944,-29.5381,52.7731],[31.1029,-29.5428,38.8356],[31.1084,-29.5432,61.0258],[31.1097,-29.539,53.5732],[31.1094,-29.5248,121.0514],[31.1142,-29.5094,201.4922],[31.1219,-29.5079,160.4694],[31.1211,-29.5047,170.9843],[31.1243,-29.5074,182.0199],[31.1358,-29.5011,172.6359],[31.1831,-29.528,112.245],[31.1771,-29.5333,113.9734],[31.1708,-29.5353,93.4621],[31.1682,-29.5473,101.4425],[31.1738,-29.5524,38.2047],[31.1707,-29.5572,13.2073],[31.1739,-29.5567,32.4642],[31.1744,-29.5581,26.0688],[31.1723,-29.5623,7.3043],[31.1728,-29.5669,18.1114],[31.1751,-29.5693,4.3818],[31.1854,-29.5716,0.6347],[31.2035,-29.5543,5.6257],[31.2138,-29.5462,9.8964],[31.2165,-29.5457,2.6556],[31.2185,-29.5415,0.3329],[31.2237,-29.5376,0.0],[31.2237,-29.5315,4.3688],[31.2285,-29.5249,0.0],[31.2276,-29.5218,0.0],[31.2299,-29.5207,0.0],[31.2304,-29.5174,3.7935]]],
[[[31.636,-29.091,0.3519],[31.6429,-29.084,0.0],[31.636,-29.0888,0.0],[31.6238,-29.1021,0.0],[31.6257,-29.1024,0.0],[31.6282,-29.0979,0.0],[31.6329,-29.0954,0.0],[31.636,-29.091,0.3519]]]]}}