{"type":"Feature","properties":{"GID_3":"ZAF.1.2.5_1","GID_0":"ZAF","country":"SouthAfrica","GID_1":"ZAF.1_1","province":"EasternCape","NL_NAME_1":"NA","GID_2":"ZAF.1.2_1","county":"Amathole","NL_NAME_2":"NA","city":"Ngqushwa","VARNAME_3":"NA","NL_NAME_3":"NA","TYPE_3":"LocalMunicipality","ENGTYPE_3":"LocalMunicipality","CC_3":"EC126","HASC_3":"NA","name":"Ngqushwa.city"},
"geometry":{"type": "MultiPolygon","coordinates": [[[[27.4786,-33.2724,0.0],[27.4788,-33.2724,0.0],[27.4788,-33.2722,0.0],[27.4786,-33.2723,0.0],[27.4786,-33.2724,0.0]]],
[[[27.4792,-33.272,0.0],[27.479,-33.2721,0.0],[27.4796,-33.2721,0.0],[27.4796,-33.272,0.0],[27.4792,-33.272,0.0]]],
[[[27.4881,-33.2791,0.0],[27.4877,-33.2789,0.0],[27.4876,-33.2788,0.0],[27.4876,-33.2793,0.0],[27.4881,-33.2791,0.0]]],
[[[27.4757,-33.2793,0.0374],[27.4757,-33.2788,0.0374],[27.4755,-33.2788,0.0374],[27.4756,-33.2793,0.0374],[27.4757,-33.2793,0.0374]]],
[[[27.4863,-33.2779,3.9021],[27.4865,-33.2785,0.0],[27.4872,-33.2785,0.0],[27.4864,-33.278,0.0],[27.4863,-33.2779,3.9021]]],
[[[27.4858,-33.2778,3.9021],[27.4857,-33.2779,3.9021],[27.4862,-33.2779,3.9021],[27.4859,-33.2778,3.9021],[27.4858,-33.2778,3.9021]]],
[[[27.4857,-33.2776,3.9021],[27.4855,-33.2775,3.9021],[27.4854,-33.2775,3.9021],[27.4854,-33.2776,3.9021],[27.4857,-33.2776,3.9021]]],
[[[27.4845,-33.2767,3.9021],[27.4843,-33.2765,3.9021],[27.4843,-33.2768,3.9021],[27.4845,-33.2767,3.9021]]],
[[[27.4842,-33.2765,0.0],[27.484,-33.276,5.092],[27.484,-33.2765,0.0],[27.4842,-33.2765,0.0]]],
[[[27.4824,-33.2765,0.0],[27.484,-33.276,5.092],[27.4827,-33.2732,22.4337],[27.4807,-33.2721,0.0],[27.4782,-33.2732,0.1847],[27.4754,-33.2774,0.0],[27.4763,-33.2782,0.599],[27.476,-33.2801,0.0],[27.4824,-33.279,0.0],[27.4824,-33.2765,0.0]]],
[[[27.4574,-33.2691,0.0758],[27.4555,-33.2641,18.306],[27.4506,-33.2597,0.3391],[27.4416,-33.2573,0.4137],[27.44,-33.2455,2.8167],[27.435,-33.2392,7.8776],[27.4291,-33.2369,1.5213],[27.4188,-33.2367,20.0616],[27.4128,-33.2334,0.917],[27.4162,-33.222,4.3457],[27.4335,-33.2099,25.2418],[27.4334,-33.2037,11.9321],[27.4305,-33.1969,4.5854],[27.4239,-33.1928,24.8085],[27.4053,-33.1929,4.0578],[27.3978,-33.189,12.1392],[27.3947,-33.1847,8.6376],[27.3862,-33.1864,41.2039],[27.3774,-33.1845,16.8196],[27.3749,-33.1801,44.1549],[27.3773,-33.1744,22.97],[27.3784,-33.1654,15.7748],[27.3797,-33.1639,15.507],[27.389,-33.162,30.5235],[27.391,-33.1564,19.544],[27.3875,-33.152,23.4497],[27.3731,-33.1537,33.1028],[27.3695,-33.1506,32.1076],[27.3952,-33.1332,151.4852],[27.4167,-33.1291,235.3323],[27.4365,-33.1302,218.0998],[27.4563,-33.1231,204.7102],[27.4595,-33.1176,227.8853],[27.4586,-33.1094,211.4128],[27.4516,-33.1052,228.2014],[27.4494,-33.1,251.0357],[27.4435,-33.0939,233.7141],[27.4406,-33.0849,224.3084],[27.4442,-33.0798,202.8693],[27.4429,-33.0724,140.6885],[27.4455,-33.072,126.2875],[27.4422,-33.0676,134.1942],[27.4387,-33.0678,134.6354],[27.4374,-33.0587,229.6039],[27.4474,-33.0489,279.7108],[27.4588,-33.0452,264.9862],[27.4836,-33.0307,339.7852],[27.4788,-33.026,293.008],[27.4997,-33.0078,348.1016],[27.5039,-32.9952,401.4349],[27.4867,-32.9928,456.427],[27.473,-32.9952,439.2135],[27.4549,-32.9909,467.7853],[27.44,-32.9898,436.3657],[27.4179,-33.0058,389.4527],[27.4014,-32.9775,489.2019],[27.3684,-32.9665,505.7703],[27.3656,-32.9516,536.9413],[27.3865,-32.9439,429.5497],[27.389,-32.9373,407.9033],[27.3956,-32.9323,398.2564],[27.4047,-32.935,367.221],[27.4054,-32.9372,370.2498],[27.4099,-32.9353,361.5416],[27.4189,-32.9379,341.2867],[27.4195,-32.9346,339.5266],[27.417,-32.9311,332.3775],[27.4174,-32.9257,335.5383],[27.4102,-32.9207,336.0161],[27.4087,-32.9162,336.4924],[27.4064,-32.9193,340.8683],[27.4079,-32.927,343.9162],[27.4055,-32.9274,344.9608],[27.3972,-32.9214,351.277],[27.3942,-32.9267,377.6836],[27.3911,-32.9193,374.2236],[27.3927,-32.9158,365.8746],[27.3903,-32.9146,368.3394],[27.3655,-32.9177,388.0033],[27.3553,-32.9137,399.9569],[27.3509,-32.914,399.4403],[27.3486,-32.9147,395.7277],[27.3486,-32.9162,395.7277],[27.3532,-32.9172,410.0146],[27.3542,-32.9199,401.4564],[27.3508,-32.9218,410.5141],[27.3454,-32.9194,403.6995],[27.3449,-32.9139,420.2816],[27.3427,-32.9108,439.2855],[27.3374,-32.9095,440.8155],[27.3384,-32.9132,435.6362],[27.3374,-32.915,439.4493],[27.3322,-32.912,438.5114],[27.3285,-32.9145,434.2175],[27.3306,-32.9273,440.4305],[27.3273,-32.926,457.3876],[27.3228,-32.9278,453.6653],[27.3134,-32.9238,468.8285],[27.312,-32.9267,469.2465],[27.3079,-32.9255,467.4289],[27.3061,-32.9273,464.0064],[27.2996,-32.9219,470.0588],[27.2952,-32.9244,472.5589],[27.2841,-32.9262,501.322],[27.2868,-32.9291,495.7659],[27.2848,-32.9298,491.1245],[27.2793,-32.9251,493.0276],[27.2707,-32.9279,496.6961],[27.2694,-32.9219,496.6899],[27.2677,-32.9211,499.9173],[27.2651,-32.9207,501.1386],[27.261,-32.9229,501.9184],[27.2568,-32.9197,503.2372],[27.2545,-32.9204,505.0215],[27.2444,-32.9179,513.1119],[27.2366,-32.921,518.2645],[27.235,-32.9184,523.5511],[27.2374,-32.9148,527.3574],[27.2318,-32.9084,528.7173],[27.2317,-32.896,538.6044],[27.2221,-32.8985,537.1089],[27.2196,-32.8954,532.8651],[27.2191,-32.8908,516.4823],[27.2152,-32.8897,466.9877],[27.212,-32.8909,449.8506],[27.2096,-32.8897,441.918],[27.2009,-32.8924,429.8903],[27.1966,-32.895,416.446],[27.1934,-32.9008,412.9531],[27.19,-32.9019,406.1744],[27.1894,-32.9033,416.5955],[27.1917,-32.9058,402.9266],[27.1862,-32.9059,408.0906],[27.1867,-32.9112,395.4836],[27.183,-32.9111,433.2927],[27.1841,-32.9146,392.33],[27.1884,-32.9162,397.6931],[27.1879,-32.9181,384.1473],[27.1827,-32.9202,384.1052],[27.1767,-32.9191,391.769],[27.17,-32.9223,347.2339],[27.1719,-32.9248,359.3598],[27.1711,-32.9274,339.8759],[27.1674,-32.9297,364.2112],[27.1635,-32.9296,326.1467],[27.1641,-32.9351,323.5789],[27.1601,-32.9361,320.0052],[27.1595,-32.9392,322.4576],[27.1526,-32.9432,348.9845],[27.1535,-32.9452,311.2639],[27.1584,-32.9469,318.221],[27.1544,-32.9516,314.6445],[27.1545,-32.9541,314.8195],[27.1604,-32.9569,287.4197],[27.1618,-32.9596,293.546],[27.1597,-32.9617,286.6553],[27.1658,-32.9636,327.061],[27.1603,-32.9658,278.2991],[27.1563,-32.9624,279.7891],[27.1517,-32.9635,267.7944],[27.1509,-32.965,268.0625],[27.1552,-32.9682,300.9777],[27.1492,-32.9693,266.1742],[27.1454,-32.973,264.5961],[27.1404,-32.9749,287.0287],[27.1425,-32.9818,260.1959],[27.1369,-32.9808,244.7896],[27.1302,-32.9866,240.3616],[27.1328,-32.9956,225.1543],[27.1268,-32.9944,224.232],[27.1255,-32.9955,229.9269],[27.1299,-32.9992,220.3828],[27.1315,-33.004,219.4089],[27.1397,-33.0024,215.1702],[27.1388,-33.0123,213.6378],[27.1436,-33.0121,221.6954],[27.1455,-33.0082,194.7627],[27.1476,-33.0081,193.5868],[27.1526,-33.0143,194.4091],[27.1582,-33.0176,182.4392],[27.1542,-33.0173,197.4813],[27.1388,-33.0217,184.4666],[27.1321,-33.0266,186.4598],[27.1319,-33.0308,186.9206],[27.139,-33.0377,189.0605],[27.136,-33.0472,195.3638],[27.139,-33.0537,190.4661],[27.138,-33.0583,194.5827],[27.1302,-33.0593,199.4937],[27.1222,-33.054,196.9505],[27.1263,-33.0414,197.3899],[27.124,-33.028,197.2752],[27.1203,-33.0249,200.717],[27.1145,-33.0266,199.5131],[27.1142,-33.0278,199.5131],[27.1061,-33.0272,203.2148],[27.1035,-33.03,206.9129],[27.0857,-33.0262,203.8706],[27.0864,-33.023,204.8645],[27.0822,-33.0209,215.5876],[27.0745,-33.0215,207.5148],[27.0664,-33.0256,237.2921],[27.0646,-33.0281,208.6796],[27.0656,-33.0306,208.9547],[27.0769,-33.0364,213.3419],[27.0798,-33.0484,212.1655],[27.0878,-33.0568,252.9582],[27.0877,-33.0598,233.5186],[27.0847,-33.0634,217.7907],[27.0779,-33.067,229.1779],[27.0666,-33.0635,224.9949],[27.0667,-33.056,229.1384],[27.0617,-33.0412,231.5746],[27.0566,-33.0356,231.2799],[27.0503,-33.0464,254.7802],[27.0471,-33.047,232.3437],[27.0372,-33.0426,227.7007],[27.0311,-33.0328,264.2132],[27.0232,-33.0319,255.3153],[27.0207,-33.0336,237.4362],[27.0197,-33.0432,265.9695],[27.0148,-33.049,240.324],[27.0121,-33.0445,241.1951],[27.0135,-33.0326,261.5952],[27.0124,-33.0313,244.2091],[27.0051,-33.0269,246.0758],[26.994,-33.0381,266.3587],[26.9896,-33.04,262.7864],[26.9848,-33.0396,283.2287],[26.9824,-33.0379,254.9148],[26.9828,-33.0365,254.9148],[26.9881,-33.0328,258.7451],[26.9963,-33.0237,255.366],[26.9914,-33.0201,254.8674],[26.9874,-33.0235,255.6361],[26.9827,-33.0247,271.0797],[26.9774,-33.0215,258.9904],[26.9744,-33.0234,304.835],[26.9758,-33.0497,447.8799],[26.9546,-33.078,513.5947],[26.9364,-33.0697,516.4855],[26.9347,-33.0746,516.1514],[26.9466,-33.0874,521.2052],[26.9457,-33.093,525.8931],[26.9392,-33.0947,485.9741],[26.9368,-33.0974,497.6454],[26.9404,-33.1057,421.0895],[26.9338,-33.1151,404.3628],[26.9256,-33.1191,408.0272],[26.912,-33.1219,345.3719],[26.9114,-33.1249,344.7315],[26.9038,-33.1215,287.9736],[26.886,-33.1205,201.3429],[26.8752,-33.1161,134.4548],[26.8734,-33.1169,143.1512],[26.8679,-33.1151,126.8298],[26.8673,-33.1164,155.6205],[26.864,-33.1148,121.8745],[26.8618,-33.1171,126.5087],[26.8587,-33.1145,123.4546],[26.8562,-33.1149,94.2526],[26.8527,-33.1213,95.5113],[26.8527,-33.1261,100.2018],[26.8472,-33.1318,114.7225],[26.8414,-33.1307,95.745],[26.8398,-33.1288,111.6686],[26.8408,-33.1257,86.0028],[26.8379,-33.1221,88.4512],[26.8347,-33.1214,86.9469],[26.8319,-33.1233,88.7831],[26.8244,-33.1239,83.1601],[26.8204,-33.1297,90.0772],[26.8321,-33.155,80.0788],[26.8376,-33.1551,75.9752],[26.8396,-33.1662,80.2437],[26.8376,-33.1746,94.0532],[26.8468,-33.1784,90.2473],[26.8531,-33.1778,86.7192],[26.8577,-33.1792,77.6392],[26.8621,-33.1777,77.264],[26.8657,-33.1814,75.8116],[26.8658,-33.1832,78.506],[26.8615,-33.1866,73.3603],[26.8609,-33.189,86.3778],[26.8553,-33.1924,75.6631],[26.8493,-33.1923,81.3401],[26.84,-33.1948,82.2293],[26.8398,-33.1993,88.5297],[26.8438,-33.2052,86.2776],[26.8571,-33.2077,73.1896],[26.8646,-33.2069,70.8863],[26.8726,-33.2032,70.3538],[26.8737,-33.1996,68.0164],[26.8706,-33.1986,73.0456],[26.8728,-33.1931,72.144],[26.877,-33.1923,65.3276],[26.8794,-33.1898,131.1593],[26.8781,-33.1803,64.8628],[26.8803,-33.1762,65.7668],[26.8764,-33.1721,78.7303],[26.8812,-33.17,65.2181],[26.8861,-33.1693,76.2121],[26.8962,-33.1713,70.4395],[26.8906,-33.1763,64.8049],[26.899,-33.1819,59.1398],[26.8992,-33.1881,59.0423],[26.8958,-33.1917,64.9055],[26.8967,-33.1944,60.109],[26.9015,-33.2006,66.5718],[26.9091,-33.2026,61.6273],[26.9113,-33.2011,73.6378],[26.9194,-33.2009,59.035],[26.9253,-33.1981,66.4414],[26.9279,-33.195,56.11],[26.925,-33.1914,57.1679],[26.9211,-33.1914,56.3834],[26.9257,-33.1866,55.6049],[26.9234,-33.1814,57.951],[26.9215,-33.1689,54.4168],[26.9243,-33.1652,56.0425],[26.9443,-33.1655,59.1474],[26.9551,-33.169,53.2253],[26.96,-33.1729,62.0217],[26.9553,-33.175,54.1859],[26.953,-33.1785,65.8402],[26.9563,-33.1845,55.7152],[26.9571,-33.1918,50.1922],[26.9614,-33.1948,53.0407],[26.9615,-33.2012,72.85],[26.9738,-33.2107,54.3498],[26.9792,-33.2208,42.5231],[26.9625,-33.2281,43.1294],[26.9596,-33.2312,41.2494],[26.9591,-33.2352,46.4474],[26.9615,-33.2375,45.6515],[26.9669,-33.2381,56.3542],[26.9734,-33.237,41.6105],[26.9801,-33.2333,38.8918],[26.9867,-33.2334,40.3022],[26.9996,-33.2416,34.0],[27.0088,-33.2521,52.5787],[27.0079,-33.2582,30.8463],[27.0039,-33.2635,32.3216],[26.994,-33.2621,28.8504],[26.99,-33.2595,28.7898],[26.9868,-33.2545,66.9031],[26.9814,-33.2538,32.4402],[26.9726,-33.2568,18.4741],[26.9691,-33.2645,17.9721],[26.9693,-33.2678,19.9517],[26.9826,-33.2683,22.2725],[26.9891,-33.2721,21.465],[26.9975,-33.2808,16.1351],[27.0033,-33.2951,17.7221],[27.0037,-33.3023,14.8615],[26.9985,-33.3155,52.4259],[27.0027,-33.3176,21.151],[27.0026,-33.3202,12.4031],[26.9986,-33.3307,17.8802],[26.9925,-33.3372,43.6821],[26.9883,-33.3383,15.4511],[26.9836,-33.3427,16.8572],[26.9824,-33.3504,17.1382],[26.9853,-33.3562,9.6112],[27.0061,-33.3684,9.943],[27.0092,-33.3735,8.6729],[27.0163,-33.3792,7.5427],[27.0207,-33.3955,11.8031],[27.026,-33.4009,9.5383],[27.0353,-33.4026,7.3141],[27.0385,-33.4083,7.8293],[27.0437,-33.4121,9.8407],[27.0458,-33.4184,11.3966],[27.0496,-33.422,5.8661],[27.05,-33.4272,24.6612],[27.0543,-33.4317,25.1628],[27.0558,-33.4373,8.1745],[27.0692,-33.4444,70.3089],[27.0695,-33.4574,2.1118],[27.0778,-33.4697,7.2276],[27.1138,-33.4826,2.1867],[27.1335,-33.4932,0.0],[27.1379,-33.4935,0.0],[27.1401,-33.4957,0.0],[27.1429,-33.4951,0.0],[27.1432,-33.4935,0.0],[27.1407,-33.4912,0.0],[27.1432,-33.4876,0.0],[27.1524,-33.4826,0.0],[27.1635,-33.4735,1.6331],[27.1865,-33.4651,0.0],[27.2143,-33.4607,3.7793],[27.226,-33.4496,0.0],[27.2271,-33.4449,0.0],[27.2324,-33.4376,3.9728],[27.2376,-33.4362,0.0],[27.2412,-33.4332,0.0],[27.2412,-33.4313,0.3002],[27.2676,-33.4204,0.0],[27.3057,-33.394,0.0],[27.3176,-33.389,-0.1502],[27.3263,-33.3829,1.4596],[27.3368,-33.3799,0.0],[27.3551,-33.3635,0.6852],[27.3615,-33.3607,2.5029],[27.3657,-33.3607,1.8982],[27.4007,-33.3435,0.0],[27.4115,-33.3399,0.8004],[27.416,-33.3354,0.4044],[27.4226,-33.3326,0.0193],[27.4293,-33.3221,0.0],[27.436,-33.3174,0.6401],[27.4476,-33.3115,0.0],[27.4613,-33.3076,0.0],[27.4774,-33.299,2.1126],[27.4813,-33.2951,2.3785],[27.4804,-33.2896,1.9791],[27.4868,-33.2815,0.1998],[27.4799,-33.2804,0.0],[27.4699,-33.2857,0.1332],[27.4596,-33.2829,0.1363],[27.4565,-33.2801,0.0],[27.4587,-33.2737,0.0],[27.4574,-33.2691,0.0758]]]]}}