{"type": "Feature","bbox": [27.5252,-26.6177,27.8245,-26.2426],"geometry": {"type": "MultiPolygon","coordinates": [[[[27.754,-26.3787,1646.4797],[27.7519,-26.362,1699.4762],[27.8116,-26.3645,1653.494],[27.8104,-26.3329,1596.1083],[27.8245,-26.3375,1589.4846],[27.8218,-26.3041,1564.5503],[27.8153,-26.3034,1573.7982],[27.8147,-26.2849,1580.5007],[27.7923,-26.2875,1586.5271],[27.7897,-26.3039,1590.28],[27.7828,-26.3043,1592.4738],[27.7765,-26.2853,1589.5226],[27.7438,-26.2872,1589.5337],[27.7446,-26.2795,1592.5713],[27.6973,-26.2651,1579.9877],[27.6273,-26.2559,1595.4294],[27.6308,-26.2426,1631.2518],[27.607,-26.2569,1602.0544],[27.6006,-26.2567,1597.1771],[27.6017,-26.261,1590.6279],[27.5751,-26.2666,1616.3274],[27.5737,-26.2626,1627.0292],[27.5451,-26.2669,1629.0232],[27.5447,-26.272,1621.0306],[27.5376,-26.2735,1612.4572],[27.5308,-26.3031,1535.2838],[27.5261,-26.3026,1536.2869],[27.5252,-26.3473,1555.5238],[27.5478,-26.3433,1559.2948],[27.5512,-26.3547,1562.9636],[27.5493,-26.3623,1567.515],[27.5511,-26.3745,1575.3524],[27.5502,-26.3867,1587.3877],[27.5401,-26.3876,1597.4259],[27.5369,-26.4019,1712.5179],[27.5451,-26.4268,1595.9059],[27.5385,-26.4296,1589.2524],[27.5353,-26.4331,1555.5306],[27.5428,-26.4317,1582.8398],[27.5491,-26.4447,1524.8574],[27.5504,-26.4406,1535.5878],[27.5515,-26.4416,1530.8612],[27.5571,-26.4564,1528.7098],[27.6119,-26.4509,1565.2854],[27.6156,-26.4497,1566.5498],[27.6136,-26.443,1587.9012],[27.6244,-26.4449,1593.5238],[27.6299,-26.4527,1566.4485],[27.6263,-26.4938,1517.7064],[27.6071,-26.4916,1529.1719],[27.6031,-26.5306,1513.0127],[27.6125,-26.533,1510.7063],[27.605,-26.557,1515.0422],[27.6044,-26.592,1517.6089],[27.5457,-26.5744,1531.0403],[27.5827,-26.5958,1522.8469],[27.5796,-26.6075,1517.1844],[27.6245,-26.6092,1509.2832],[27.6577,-26.6177,1491.2035],[27.6596,-26.6042,1476.7976],[27.6679,-26.6105,1471.2062],[27.6789,-26.5606,1477.2126],[27.6764,-26.5387,1485.2278],[27.679,-26.5366,1484.918],[27.6756,-26.5291,1486.5477],[27.676,-26.5243,1491.2651],[27.7101,-26.53,1493.8726],[27.7143,-26.4894,1573.1196],[27.7098,-26.4541,1589.9738],[27.7134,-26.4424,1585.1876],[27.7275,-26.4312,1583.782],[27.7323,-26.4387,1579.5717],[27.7452,-26.4378,1575.2],[27.749,-26.4192,1691.048],[27.7613,-26.4191,1657.3689],[27.754,-26.3787,1646.4797]]]]}
,"properties": {"GID_3": "ZAF.3.5.4_1","GID_0": "ZAF","country": "SouthAfrica","GID_1": "ZAF.3_1","province": "Gauteng","NL_NAME_1": "NA","GID_2": "ZAF.3.5_1","county": "WestRand","NL_NAME_2": "NA","city": "Westonaria","VARNAME_3": "NA","NL_NAME_3": "NA","TYPE_3": "LocalMunicipality","ENGTYPE_3": "LocalMunicipality","CC_3": "GT483","HASC_3": "NA","name": "Westonaria.city","area_km2": 641.1159,"hist_schema_id": "Elevation0-9000","hist_area_km2": {"1475": 11.7568,"1500": 78.4288,"1525": 41.8663,"1550": 68.3084,"1575": 112.6933,"1600": 113.3143,"1625": 82.2216,"1650": 50.832,"1675": 39.376,"1700": 23.9325,"1725": 11.9092,"1750": 5.0904,"1775": 1.3104,"1800": 0.076}}}