{"type":"Feature","properties":{"GID_3":"ZAF.6.2.3_1","GID_0":"ZAF","country":"SouthAfrica","GID_1":"ZAF.6_1","province":"Mpumalanga","NL_NAME_1":"NA","GID_2":"ZAF.6.2_1","county":"GertSibande","NL_NAME_2":"NA","city":"GovanMbeki","VARNAME_3":"NA","NL_NAME_3":"NA","TYPE_3":"LocalMunicipality","ENGTYPE_3":"LocalMunicipality","CC_3":"MP307","HASC_3":"NA","name":"Govan_Mbeki.city"},
"geometry":{"type": "MultiPolygon","coordinates": [[[[29.0684,-26.6942,1595.7183],[29.0859,-26.6991,1613.2072],[29.0705,-26.7209,1599.2509],[29.104,-26.7126,1593.498],[29.1077,-26.7171,1582.6372],[29.112,-26.7122,1572.2582],[29.1104,-26.7111,1576.667],[29.1252,-26.7074,1566.6552],[29.1446,-26.7376,1597.8955],[29.1711,-26.7107,1604.7881],[29.2414,-26.7168,1608.3269],[29.2301,-26.6906,1602.8884],[29.2238,-26.6583,1638.7788],[29.2475,-26.6562,1627.2972],[29.2475,-26.646,1635.9031],[29.291,-26.6401,1627.5604],[29.3255,-26.6613,1628.4187],[29.3785,-26.654,1636.3021],[29.4594,-26.6467,1602.6335],[29.4563,-26.5916,1613.7449],[29.4891,-26.5886,1639.0283],[29.4868,-26.5533,1645.5466],[29.5683,-26.5616,1652.9434],[29.5609,-26.5267,1652.7146],[29.6192,-26.5291,1700.0298],[29.6291,-26.4815,1725.8901],[29.6255,-26.4632,1724.1423],[29.6066,-26.4458,1714.0591],[29.6034,-26.435,1718.484],[29.5662,-26.4428,1702.1405],[29.5468,-26.4104,1667.7557],[29.5079,-26.3866,1658.595],[29.534,-26.3528,1608.1096],[29.4687,-26.3525,1658.442],[29.4731,-26.335,1653.8643],[29.4703,-26.3032,1630.0229],[29.5231,-26.3015,1601.4929],[29.527,-26.288,1585.5839],[29.5167,-26.2809,1588.7565],[29.5296,-26.2688,1641.4463],[29.5422,-26.2764,1645.1544],[29.5403,-26.2539,1633.7418],[29.5602,-26.2092,1649.6968],[29.5131,-26.1856,1606.5444],[29.4935,-26.1695,1621.2484],[29.4756,-26.1738,1616.8079],[29.4566,-26.2037,1661.4302],[29.4555,-26.2114,1577.153],[29.388,-26.2049,1608.457],[29.375,-26.1964,1547.4641],[29.3614,-26.2132,1561.8199],[29.3445,-26.2148,1618.3241],[29.3535,-26.2231,1590.3961],[29.340699999999998,-26.2451,1599.2533],[29.3673,-26.2638,1633.322],[29.3666,-26.2921,1633.8231],[29.3446,-26.3315,1561.2987],[29.352,-26.3361,1564.1992],[29.3452,-26.354,1590.3085],[29.3355,-26.3483,1591.9932],[29.2851,-26.3427,1567.885],[29.2606,-26.3624,1605.781],[29.2239,-26.3546,1566.5653],[29.2174,-26.351,1549.3818],[29.2155,-26.3522,1550.427],[29.214,-26.359,1554.0],[29.2163,-26.3622,1554.0],[29.1952,-26.362,1574.7633],[29.1849,-26.3477,1557.2161],[29.1822,-26.3488,1555.6271],[29.1799,-26.3479,1561.6979],[29.1763,-26.3505,1557.5867],[29.1734,-26.3486,1564.0692],[29.1678,-26.3528,1560.0468],[29.1693,-26.357,1561.1097],[29.162,-26.3581,1562.7874],[29.1614,-26.3598,1566.6907],[29.1236,-26.3843,1586.0195],[29.1034,-26.3452,1648.4133],[29.1022,-26.3298,1640.4741],[29.0658,-26.3143,1638.0919],[29.0401,-26.2594,1594.4652],[29.0333,-26.2258,1614.3735],[29.0011,-26.2288,1619.1132],[28.9842,-26.2369,1639.9849],[28.9835,-26.2421,1630.4994],[28.9708,-26.2384,1608.3069],[28.95,-26.2547,1587.364],[28.9395,-26.2658,1568.0759],[28.8863,-26.2577,1543.5419],[28.8876,-26.28,1556.0492],[28.8676,-26.3277,1599.9215],[28.8384,-26.340699999999998,1599.59],[28.8503,-26.367,1628.4857],[28.8613,-26.3986,1685.3751],[28.8321,-26.4078,1681.5762],[28.8055,-26.4222,1648.4325],[28.7991,-26.4212,1660.4954],[28.8,-26.424,1651.8077],[28.7899,-26.4265,1663.9924],[28.7838,-26.4381,1655.043],[28.7865,-26.4492,1639.4449],[28.7803,-26.4505,1638.1836],[28.7659,-26.4715,1631.4041],[28.7629,-26.5403,1633.5975],[28.8368,-26.5364,1664.7463],[28.8342,-26.5271,1651.5825],[28.8413,-26.5246,1648.1362],[28.8526,-26.5676,1684.0118],[28.9111,-26.59,1619.1184],[28.8895,-26.6166,1638.7699],[28.8975,-26.624,1626.1571],[28.9443,-26.611,1628.396],[28.9923,-26.6085,1578.4487],[28.9881,-26.6488,1566.5789],[28.9912,-26.686,1553.0049],[29.0198,-26.6927,1543.3811],[29.0192,-26.6896,1541.895],[29.0235,-26.688,1543.1995],[29.0239,-26.6856,1541.7419],[29.0212,-26.6824,1542.0132],[29.0231,-26.6816,1541.0653],[29.0684,-26.6942,1595.7183]]]]}}