{"type": "Feature","bbox": [17.7585,-34.8351,24.2224,-30.4303],"geometry": {"type": "MultiPolygon","coordinates": [[[[19.6632,-34.7871,0.0],[19.6646,-34.7879,0.0],[19.6682,-34.7879,0.0],[19.6676,-34.7863,0.0],[19.6632,-34.7871,0.0]]],
[[[20.2439,-34.6487,0.0],[20.2526,-34.6424,0.2021],[20.2732,-34.6321,0.5626],[20.3035,-34.6226,0.4925],[20.3151,-34.6176,0.7622],[20.3215,-34.6126,3.0744],[20.3279,-34.611,0.0],[20.3382,-34.5996,0.0],[20.3404,-34.5951,0.7834],[20.3451,-34.5915,0.0],[20.3876,-34.5737,0.0],[20.3937,-34.5735,0.0],[20.3974,-34.5704,0.0],[20.4007,-34.5724,0.0],[20.4007,-34.569,0.9181],[20.4029,-34.5679,1.3329],[20.4115,-34.5551,3.2749],[20.416,-34.5451,0.0],[20.419,-34.5435,0.0],[20.4207,-34.5351,1.8982],[20.4271,-34.5265,1.0935],[20.4496,-34.5057,3.4185],[20.4796,-34.489,10.8094],[20.4993,-34.4818,4.1672],[20.5151,-34.4785,0.0],[20.5138,-34.4768,5.8283],[20.524,-34.4757,0.0],[20.5338,-34.4701,0.0],[20.5515,-34.4663,0.0],[20.5557,-34.4668,0.0],[20.5585,-34.4643,7.6304],[20.5654,-34.4635,0.0],[20.5668,-34.4618,0.0],[20.5757,-34.461,0.0],[20.5765,-34.459,12.6197],[20.6188,-34.4521,8.229],[20.6626,-34.4493,19.769],[20.6712,-34.4496,2.4505],[20.6796,-34.4538,0.0],[20.6854,-34.4538,0.0],[20.6913,-34.4512,19.7738],[20.7121,-34.4532,0.0],[20.714,-34.4551,0.0],[20.7185,-34.4532,0.0],[20.7185,-34.4543,0.0],[20.7243,-34.4557,0.0],[20.7332,-34.4535,0.6988],[20.7349,-34.4565,0.0],[20.741,-34.4554,0.5011],[20.7479,-34.4576,0.0],[20.7521,-34.4568,0.0],[20.7582,-34.4596,0.0],[20.7615,-34.4588,0.8987],[20.7724,-34.4621,0.0],[20.7768,-34.4607,20.3536],[20.784,-34.4637,0.0],[20.7946,-34.464,24.8248],[20.7971,-34.4671,0.0],[20.8154,-34.4693,22.7236],[20.8193,-34.4726,0.0],[20.8235,-34.471,16.198],[20.829,-34.4721,0.0],[20.8315,-34.4699,8.6809],[20.834,-34.4718,0.0],[20.8374,-34.4699,0.0],[20.8474,-34.4751,0.0],[20.8507,-34.4715,0.0],[20.8521,-34.4726,0.0],[20.8546,-34.4715,0.0],[20.8524,-34.4685,0.0],[20.8559,-34.4648,0.6508],[20.859,-34.4643,12.1996],[20.8618,-34.466,1.1211],[20.8643,-34.4649,0.0],[20.8699,-34.4668,0.0],[20.8688,-34.4624,0.0],[20.8657,-34.4593,1.4325],[20.8704,-34.4529,17.497],[20.8729,-34.4524,0.0],[20.8707,-34.4465,0.0],[20.8718,-34.4379,0.0],[20.8682,-34.4351,28.6349],[20.8682,-34.4318,6.9616],[20.8701,-34.4315,0.0],[20.8693,-34.4285,0.0],[20.8676,-34.4263,2.3666],[20.8607,-34.4251,10.8374],[20.8568,-34.4218,0.0],[20.8568,-34.419,0.0],[20.8543,-34.416,0.0],[20.8549,-34.4101,0.0],[20.8512,-34.4101,0.0],[20.8538,-34.3976,4.4183],[20.8593,-34.3957,0.9673],[20.8759,-34.384,7.9657],[20.8899,-34.3768,2.325],[20.9154,-34.3696,0.0],[20.9307,-34.3668,0.0],[20.9588,-34.3651,0.0],[21.0015,-34.3649,6.8015],[21.0007,-34.3615,0.0],[21.006,-34.361,0.9586],[21.0079,-34.3515,0.1134],[21.0018,-34.349,0.2614],[21.0082,-34.3504,0.0],[21.0085,-34.3521,0.1134],[21.0082,-34.3601,0.0],[21.0063,-34.3632,5.0334],[21.0007,-34.3657,6.8015],[21.0012,-34.3682,0.0],[21.0029,-34.3662,17.3304],[21.0046,-34.3682,0.0],[21.0096,-34.3668,0.0],[21.0365,-34.3712,31.6198],[21.0471,-34.3701,3.9571],[21.1051,-34.3774,9.6664],[21.1146,-34.3804,0.0],[21.1293,-34.3821,13.7958],[21.1612,-34.3907,29.7735],[21.2043,-34.4049,11.1643],[21.2071,-34.4071,1.3511],[21.2076,-34.4113,0.0],[21.2138,-34.4118,0.1872],[21.2188,-34.4171,0.0],[21.2221,-34.416,4.9742],[21.2249,-34.4188,0.0],[21.2274,-34.4179,3.879],[21.2288,-34.419,0.0],[21.231,-34.4162,37.571],[21.2337,-34.4201,0.0],[21.2438,-34.4204,0.0],[21.2485,-34.4229,-0.065],[21.2543,-34.4235,0.0],[21.2588,-34.4265,0.0],[21.2618,-34.426,10.0901],[21.2729,-34.4315,0.0],[21.2796,-34.4304,2.3679],[21.2846,-34.436,0.0],[21.2899,-34.4385,0.0],[21.2971,-34.4382,0.0],[21.299,-34.4404,0.0],[21.3032,-34.441,0.0],[21.3051,-34.441,0.0],[21.3057,-34.4393,0.3023],[21.3146,-34.4396,0.0],[21.3146,-34.4343,14.4831],[21.3179,-34.4351,0.0],[21.3207,-34.434,0.0],[21.321,-34.4324,0.0],[21.3324,-34.4354,0.0],[21.3335,-34.434,3.9775],[21.3388,-34.434,0.0],[21.3379,-34.4285,0.0],[21.339,-34.4268,0.3621],[21.3429,-34.4285,0.0],[21.346,-34.4279,0.0],[21.3513,-34.4218,0.1105],[21.3565,-34.4204,0.0],[21.3604,-34.4199,0.0],[21.371,-34.4246,0.0],[21.3749,-34.4235,0.0],[21.3757,-34.4201,0.0],[21.3826,-34.411,9.7626],[21.3896,-34.4107,0.0],[21.3951,-34.4129,0.0],[21.4035,-34.4043,10.1374],[21.409,-34.4049,0.0],[21.4171,-34.3999,0.0],[21.4132,-34.3968,3.1744],[21.4163,-34.3924,0.0],[21.4246,-34.3907,8.444],[21.426,-34.3937,0.0],[21.4307,-34.3937,0.0],[21.4315,-34.3918,0.0],[21.4299,-34.389,0.3942],[21.4221,-34.3835,10.9562],[21.4221,-34.3782,13.8424],[21.4146,-34.3704,1.2981],[21.4126,-34.366,5.6987],[21.416,-34.3587,7.1505],[21.4165,-34.3599,14.6551],[21.414,-34.366,-0.2553],[21.4157,-34.3696,1.2981],[21.4196,-34.3712,0.1495],[21.4229,-34.3751,1.2073],[21.4221,-34.3768,4.9494],[21.4243,-34.3779,1.019],[21.4299,-34.3732,2.5788],[21.4446,-34.3682,2.8854],[21.4615,-34.3662,12.7227],[21.4821,-34.3676,4.799],[21.4935,-34.366,7.4911],[21.5104,-34.3604,0.0],[21.5179,-34.3615,0.0],[21.5238,-34.3576,25.3852],[21.5368,-34.3568,9.9793],[21.5501,-34.3615,0.0],[21.5651,-34.361,34.8756],[21.5696,-34.3637,0.0],[21.5776,-34.3649,0.0],[21.5824,-34.3637,4.7235],[21.5851,-34.3665,0.0],[21.611,-34.3721,19.9932],[21.6351,-34.3824,0.0],[21.6435,-34.381,42.3908],[21.6465,-34.3838,0.0],[21.6485,-34.3829,40.9291],[21.6607,-34.3871,0.4126],[21.669,-34.3865,5.1921],[21.6768,-34.3885,9.9973],[21.6832,-34.3924,0.0],[21.6913,-34.3918,4.1671],[21.6921,-34.3946,0.0],[21.6951,-34.3957,0.0],[21.7126,-34.3937,0.6727],[21.7296,-34.3951,0.2211],[21.7357,-34.394,0.1314],[21.7435,-34.3874,0.9076],[21.7563,-34.3879,0.0582],[21.7607,-34.3851,0.363],[21.7665,-34.3865,0.0],[21.7707,-34.384,2.984],[21.786,-34.384,0.1499],[21.7899,-34.3821,0.7779],[21.8037,-34.3829,0.0082],[21.8057,-34.3801,2.696],[21.8132,-34.3815,0.0],[21.8187,-34.3776,3.8385],[21.8226,-34.3785,0.0],[21.8271,-34.3763,0.0],[21.8357,-34.3754,0.2829],[21.8532,-34.3688,0.0],[21.8576,-34.3629,7.1968],[21.8696,-34.364,0.0],[21.8724,-34.3604,2.144],[21.8857,-34.3537,0.0],[21.8863,-34.3515,0.0],[21.8815,-34.3501,4.3431],[21.8829,-34.3457,0.0],[21.8796,-34.3432,0.6277],[21.8779,-34.3385,0.0],[21.8604,-34.3349,0.0],[21.8782,-34.3363,0.4968],[21.8801,-34.3396,0.0],[21.8885,-34.3449,0.0],[21.906,-34.3443,0.0],[21.9129,-34.3399,0.4646],[21.9163,-34.3399,0.0],[21.9154,-34.3379,0.0],[21.9099,-34.3368,1.7889],[21.9043,-34.3324,0.0],[21.9049,-34.3246,0.0],[21.9068,-34.3201,1.2896],[21.9118,-34.3149,5.2375],[21.9251,-34.3068,0.918],[21.9387,-34.3054,0.0],[21.9401,-34.3026,0.2515],[21.9424,-34.3037,0.0],[21.9463,-34.3021,0.0],[21.9468,-34.299,0.0],[21.9432,-34.2999,14.9832],[21.934,-34.2929,0.0],[21.9304,-34.2938,11.0175],[21.926,-34.2918,2.8948],[21.9151,-34.2912,0.0],[21.9115,-34.2854,17.6031],[21.9126,-34.2701,14.5066],[21.9185,-34.2585,1.8222],[21.931,-34.2451,1.3957],[21.9557,-34.2287,3.7669],[21.986,-34.216,18.7425],[22.0029,-34.2126,8.2128],[22.0118,-34.2093,10.5642],[22.0615,-34.2054,0.0],[22.0904,-34.2104,0.0],[22.0954,-34.2035,0.0],[22.0996,-34.2049,0.0],[22.1135,-34.2049,0.0],[22.1157,-34.2029,1.1224],[22.136,-34.1982,0.0],[22.1393,-34.1957,17.8794],[22.1443,-34.1971,0.0],[22.1465,-34.194,-0.19],[22.1513,-34.1924,0.0],[22.1526,-34.1888,13.5577],[22.1615,-34.1879,0.0],[22.1618,-34.186,0.0],[22.1588,-34.1835,6.6808],[22.1585,-34.1813,6.6597],[22.1507,-34.1787,0.0],[22.1471,-34.1749,0.0],[22.1465,-34.1754,0.0],[22.1479,-34.1763,0.0],[22.1476,-34.1785,0.0],[22.1454,-34.176,0.0],[22.1418,-34.1787,4.6439],[22.1387,-34.1787,3.4102],[22.1357,-34.1735,0.9382],[22.1285,-34.1726,0.9736],[22.1224,-34.1676,0.0],[22.1143,-34.1657,2.8893],[22.111,-34.1632,7.2733],[22.1101,-34.1518,2.2966],[22.1118,-34.1504,0.0],[22.1118,-34.1432,0.0],[22.1143,-34.1399,0.0],[22.1151,-34.1338,16.9048],[22.1229,-34.1213,0.0],[22.1229,-34.1165,0.0],[22.1507,-34.0929,0.0],[22.1401,-34.091,12.9877],[22.1354,-34.0879,1.4741],[22.1501,-34.0907,2.0799],[22.159,-34.0843,3.4315],[22.1901,-34.0715,0.0],[22.2124,-34.0638,1.5025],[22.2371,-34.0576,0.0],[22.2354,-34.0546,1.8986],[22.2318,-34.0526,0.0],[22.2329,-34.0515,0.0],[22.2374,-34.0512,2.291],[22.2371,-34.0537,3.9839],[22.2404,-34.0546,8.442],[22.2404,-34.0568,0.0],[22.2854,-34.0512,8.1551],[22.3204,-34.0512,30.3707],[22.3224,-34.0526,8.8646],[22.3351,-34.0526,28.8159],[22.3438,-34.0554,0.0],[22.3535,-34.0543,14.0491],[22.3587,-34.0557,6.9702],[22.3638,-34.0593,0.5616],[22.376,-34.0596,0.0],[22.379,-34.0615,0.0],[22.3854,-34.0615,0.0],[22.3868,-34.0582,15.2093],[22.3899,-34.0563,0.0],[22.3968,-34.0585,0.0],[22.3976,-34.0571,0.0],[22.404,-34.056,20.7547],[22.4085,-34.0588,0.0],[22.4199,-34.059,0.0],[22.424,-34.0612,2.6323],[22.4279,-34.0574,25.5355],[22.4315,-34.0604,0.0],[22.4365,-34.0571,0.0],[22.441,-34.0607,0.0],[22.4454,-34.0576,13.4321],[22.4524,-34.0574,0.0],[22.4607,-34.0513,0.0],[22.465699999999998,-34.0499,0.0],[22.4713,-34.051,2.522],[22.4715,-34.0496,2.522],[22.4735,-34.0496,0.0],[22.4851,-34.0526,0.0],[22.4879,-34.0471,29.4673],[22.4982,-34.0429,9.5813],[22.501,-34.0376,0.0],[22.5038,-34.0363,0.0],[22.5088,-34.0368,0.0],[22.5135,-34.0282,0.0],[22.5174,-34.0285,0.0],[22.521,-34.0257,1.8436],[22.5254,-34.0251,0.0],[22.5285,-34.0221,0.0],[22.5424,-34.0179,3.9778],[22.5443,-34.0137,0.0],[22.5582,-34.0021,0.0],[22.5565,-33.9979,7.9667],[22.5524,-33.9946,46.7989],[22.5613,-33.999,12.7265],[22.564,-33.9963,0.0],[22.5765,-33.9963,0.0],[22.5796,-33.9957,0.7418],[22.5818,-33.9929,14.5115],[22.5874,-33.9926,8.0657],[22.5929,-33.9943,0.0],[22.5849,-33.9935,4.5535],[22.5824,-33.9946,3.0507],[22.5829,-33.996,9.1925],[22.6632,-34.0074,15.5085],[22.7229,-34.0215,14.353],[22.7438,-34.0293,17.7195],[22.7601,-34.0335,5.6056],[22.7657,-34.0385,0.0],[22.7682,-34.0376,0.0],[22.7685,-34.036,0.0],[22.7657,-34.0349,0.0],[22.7651,-34.0315,0.0],[22.7704,-34.0274,35.8876],[22.7774,-34.0271,5.5252],[22.794,-34.0315,0.0],[22.8007,-34.0276,4.1429],[22.801,-34.0251,0.0],[22.7949,-34.0213,21.4946],[22.7946,-34.019,0.3604],[22.7965,-34.0171,0.3049],[22.7943,-34.0154,0.6111],[22.7915,-34.016,0.0],[22.789,-34.0196,8.4561],[22.7843,-34.0221,11.487],[22.7757,-34.0224,0.0],[22.7693,-34.0199,22.8442],[22.7646,-34.0132,0.1152],[22.7649,-34.0071,0.0876],[22.7682,-34.0071,0.2967],[22.7682,-34.0107,0.0805],[22.7704,-34.011,0.0],[22.7729,-34.0143,2.3768],[22.7724,-34.0179,5.7138],[22.7804,-34.0215,0.0],[22.7857,-34.0207,0.2192],[22.7907,-34.0151,0.0],[22.7965,-34.0151,0.1841],[22.7979,-34.0207,0.0],[22.8032,-34.0249,11.4345],[22.8024,-34.0274,2.3851],[22.7962,-34.0321,0.0],[22.7993,-34.0337,1.6185],[22.8146,-34.0379,21.5828],[22.8354,-34.0465,0.0],[22.9149,-34.0646,0.0],[22.9493,-34.0765,0.0],[22.9468,-34.0746,0.0],[22.9465,-34.0701,2.0244],[22.9482,-34.0687,11.3171],[22.9496,-34.0749,0.4645],[22.9551,-34.0788,0.0],[22.959,-34.0887,0.0],[22.9604,-34.089,0.0],[22.9621,-34.0857,0.0],[22.9646,-34.0857,0.0],[22.9693,-34.0896,0.0],[22.9713,-34.089,0.0],[22.9801,-34.0946,0.0],[22.9804,-34.0932,0.0],[22.9793,-34.0924,0.0],[22.9799,-34.0907,0.0],[22.9746,-34.0854,0.0],[22.9771,-34.0804,0.0],[22.9813,-34.0765,1.7495],[22.989,-34.0735,3.4167],[23.0018,-34.0715,0.0],[23.0093,-34.0715,10.7327],[23.0254,-34.076,13.672],[23.0304,-34.0757,31.8491],[23.0343,-34.0771,10.2714],[23.0365,-34.0799,0.0],[23.041,-34.079,30.0542],[23.0413,-34.0826,0.0],[23.0429,-34.084,2.8776],[23.0554,-34.0854,0.0],[23.0596,-34.0824,0.0],[23.0557,-34.074,0.0],[23.0526,-34.0746,84.7041],[23.0485,-34.0676,0.0],[23.0404,-34.0635,10.6956],[23.0376,-34.0604,0.0],[23.0338,-34.0601,7.6765],[23.0318,-34.0535,0.0],[23.0338,-34.049,0.0],[23.0304,-34.0465,0.0],[23.0349,-34.0468,0.0],[23.0379,-34.049,0.0],[23.0393,-34.0465,0.0],[23.0368,-34.0446,0.0],[23.0321,-34.0446,0.0],[23.029,-34.0426,0.0],[23.0224,-34.0526,0.0],[23.0151,-34.0554,0.0],[23.0104,-34.0557,0.8103],[23.0065,-34.0537,0.0],[23.0026,-34.0546,40.2865],[23.0004,-34.0526,0.0],[23.0001,-34.0485,0.0],[23.0043,-34.0396,0.1326],[23.0004,-34.0382,0.0],[23.0018,-34.0363,0.0],[22.9979,-34.0324,0.0],[22.9979,-34.0299,0.0],[22.9951,-34.0329,0.0],[22.9924,-34.0326,0.0],[22.989,-34.0293,0.0],[22.9882,-34.0246,0.0],[22.9976,-34.0174,0.249],[23.0113,-34.0112,0.8834],[22.9946,-34.0201,4.6657],[22.9932,-34.0226,6.0236],[22.989,-34.0257,0.0],[22.9899,-34.0293,0.0],[22.9943,-34.0324,0.0],[22.9962,-34.0274,0.0],[23.0057,-34.0293,23.3022],[23.0138,-34.0399,0.0],[23.0096,-34.0449,0.0],[23.0143,-34.0438,0.0],[23.0199,-34.0382,0.0],[23.0313,-34.0365,0.0],[23.039,-34.0379,2.096],[23.044,-34.0435,0.0],[23.0515,-34.0438,0.0],[23.0546,-34.041,0.5469],[23.0643,-34.0401,0.6429],[23.0668,-34.0424,0.3096],[23.0671,-34.0479,0.4591],[23.0596,-34.0587,0.0],[23.0613,-34.0624,0.0],[23.0646,-34.0615,0.0],[23.0657,-34.0657,0.0],[23.0574,-34.064,1.1482],[23.0554,-34.0601,0.1454],[23.0524,-34.0621,1.3434],[23.0504,-34.061,0.0],[23.0499,-34.0635,1.0196],[23.0554,-34.0654,3.6919],[23.0565,-34.0685,1.0898],[23.0649,-34.0724,1.448],[23.0607,-34.0754,0.0],[23.0601,-34.0793,0.0],[23.0618,-34.0815,0.0],[23.0668,-34.0835,0.0],[23.0735,-34.0824,15.8085],[23.0851,-34.0849,0.9046],[23.0882,-34.0829,40.2177],[23.0987,-34.0818,0.0],[23.1007,-34.0801,0.9724],[23.109,-34.0824,8.6537],[23.1146,-34.0804,5.8744],[23.1235,-34.0812,15.7566],[23.129,-34.0788,2.5098],[23.1371,-34.0863,0.0],[23.1663,-34.0829,67.4461],[23.1682,-34.0835,22.5812],[23.1688,-34.0863,0.0],[23.1757,-34.0854,13.45],[23.1763,-34.0874,0.0],[23.1812,-34.0843,11.6266],[23.1893,-34.086,0.0],[23.1993,-34.0846,0.0],[23.201,-34.0868,0.0],[23.2087,-34.0865,0.0],[23.2104,-34.0893,4.3871],[23.2132,-34.0893,25.8024],[23.2138,-34.0907,1.0778],[23.2251,-34.0871,9.2956],[23.239,-34.0901,7.3259],[23.2415,-34.0929,17.1239],[23.2471,-34.0921,13.7782],[23.2496,-34.0946,0.0],[23.2579,-34.0918,11.2737],[23.2663,-34.0954,34.3513],[23.2679,-34.099,0.0],[23.2712,-34.1004,0.0],[23.2796,-34.0988,8.1281],[23.2849,-34.1018,0.0],[23.2929,-34.1001,51.3935],[23.2938,-34.1021,4.3008],[23.3046,-34.1015,1.2126],[23.3076,-34.1035,0.0],[23.3157,-34.1035,0.0],[23.3221,-34.0999,0.0],[23.3304,-34.1029,34.2216],[23.3363,-34.101,24.5817],[23.3424,-34.1021,0.0],[23.3457,-34.101,9.2082],[23.3521,-34.1057,1.3727],[23.3549,-34.1046,1.9956],[23.3571,-34.1065,0.1851],[23.3649,-34.1051,1.21],[23.369,-34.1012,20.9805],[23.3826,-34.1021,0.9135],[23.3854,-34.1043,22.7043],[23.399,-34.1076,25.7091],[23.4001,-34.1093,28.8656],[23.406,-34.111,5.2949],[23.4118,-34.109,15.8457],[23.4126,-34.1071,0.0],[23.4076,-34.1063,79.3579],[23.3979,-34.1004,0.0],[23.3826,-34.1004,11.7887],[23.3807,-34.0988,0.0],[23.3754,-34.0985,13.1115],[23.3712,-34.0868,0.0],[23.3718,-34.0771,0.0],[23.3785,-34.0618,1.1074],[23.381,-34.0607,1.826],[23.3796,-34.0601,1.826],[23.3768,-34.0621,4.7172],[23.374,-34.0615,2.6517],[23.3779,-34.0596,0.0],[23.3804,-34.0543,0.9066],[23.3771,-34.0512,0.0],[23.3796,-34.046,0.0],[23.3765,-34.049,0.0],[23.374,-34.049,4.3587],[23.3721,-34.0479,1.9329],[23.3721,-34.0457,3.4597],[23.376,-34.044,1.7146],[23.3854,-34.0326,0.4396],[23.3929,-34.0271,0.0],[23.3932,-34.0224,-0.027],[23.3913,-34.0201,4.0256],[23.3932,-34.0135,-0.0758],[23.3913,-34.0107,2.7006],[23.3949,-34.009,0.1865],[23.3937,-34.0207,0.2021],[23.3954,-34.021,0.2021],[23.4001,-33.9968,0.0],[23.401,-34.0024,0.0],[23.4035,-34.006,0.0],[23.404,-34.0135,3.0059],[23.3993,-34.0182,0.1256],[23.399,-34.0262,0.0],[23.3915,-34.0318,0.5785],[23.3868,-34.0387,1.4662],[23.394,-34.0324,2.1258],[23.3949,-34.0304,0.5118],[23.4138,-34.0182,2.2488],[23.449,-34.0051,4.4239],[23.4693,-34.0026,25.1875],[23.4718,-34.0035,0.0],[23.4726,-34.0024,10.4442],[23.4785,-34.0035,0.0],[23.4813,-34.0018,8.1719],[23.4857,-34.004,0.0],[23.4874,-34.0026,16.8876],[23.4935,-34.004,0.0],[23.5001,-34.0007,2.8776],[23.5149,-34.0021,0.0],[23.5165,-34.0004,9.727],[23.5187,-34.0032,0.0],[23.5196,-34.0018,0.0],[23.5232,-34.0024,0.0],[23.5254,-34.0004,0.0],[23.5285,-34.0004,0.0],[23.536,-33.9893,38.3681],[23.5379,-33.9907,9.0813],[23.5449,-33.9901,0.0],[23.5482,-33.989,0.0],[23.5468,-33.9879,2.4101],[23.5499,-33.9845,7.6109],[23.5668,-33.9813,0.0],[23.5626,-33.9751,0.0],[23.5643,-33.9726,9.6654],[23.5671,-33.9785,0.0],[23.5718,-33.9815,0.0],[23.576,-33.9821,0.0],[23.576,-33.9843,0.0],[23.5779,-33.9849,0.0],[23.590699999999998,-33.9837,9.2682],[23.6038,-33.9801,1.2944],[23.6107,-33.9813,0.0],[23.6157,-33.979,3.8877],[23.6185,-33.9813,0.0],[23.6296,-33.9815,0.0],[23.6346,-33.9832,0.0],[23.6469,-33.981,3.945],[23.6475,-33.9772,26.694],[23.6454,-33.9758,46.8546],[23.6474,-33.9727,49.2274],[23.6444,-33.9638,88.8365],[23.6459,-33.9624,39.9032],[23.6409,-33.9548,72.6825],[23.6377,-33.9552,74.1066],[23.6346,-33.952,89.6564],[23.636,-33.9433,123.0615],[23.6351,-33.94,120.3266],[23.6385,-33.9372,128.582],[23.637,-33.9347,116.6763],[23.6406,-33.9332,253.899],[23.6399,-33.931,218.707],[23.6432,-33.9319,164.1065],[23.6447,-33.9307,209.6139],[23.6439,-33.9275,198.4251],[23.64,-33.9242,262.2729],[23.6432,-33.9223,258.4451],[23.6428,-33.9198,276.7454],[23.6374,-33.913,261.991],[23.6399,-33.9097,275.2938],[23.6523,-33.9096,326.3776],[23.6568,-33.9069,285.8661],[23.6577,-33.9049,283.0818],[23.655,-33.9037,290.7705],[23.6569,-33.9022,317.4205],[23.6497,-33.8989,335.5349],[23.6476,-33.8967,365.1198],[23.6488,-33.8945,394.456],[23.6474,-33.8928,390.3791],[23.6516,-33.8927,371.5045],[23.6559,-33.8868,395.5769],[23.658,-33.8877,393.7539],[23.6666,-33.8847,420.1198],[23.6692,-33.8854,459.0551],[23.671,-33.8835,446.726],[23.683,-33.884,485.6746],[23.6881,-33.8789,593.9024],[23.6943,-33.868,963.8948],[23.7006,-33.8674,1336.0996],[23.7033,-33.8641,1559.9653],[23.6203,-33.8432,1361.8075],[23.6081,-33.8329,1245.543],[23.562,-33.8289,1192.7241],[23.554,-33.7964,953.5518],[23.5574,-33.7934,882.9922],[23.5188,-33.7821,891.1888],[23.5179,-33.7856,990.0314],[23.488,-33.7915,1146.9363],[23.4891,-33.8075,1397.4746],[23.4681,-33.8075,1305.2169],[23.4542,-33.8032,1441.7334],[23.4277,-33.7991,1433.801],[23.417,-33.7947,1483.1555],[23.395,-33.7926,1531.998],[23.4301,-33.7618,918.2767],[23.4399,-33.7174,674.1986],[23.4754,-33.7177,825.5453],[23.5413,-33.6995,934.3683],[23.5417,-33.683,917.9988],[23.5555,-33.673,866.9359],[23.5565,-33.6515,1490.1682],[23.5859,-33.6727,808.3015],[23.6288,-33.6693,1379.7428],[23.6704,-33.6726,1423.2118],[23.675,-33.6259,1639.1666],[23.6199,-33.5915,1605.3247],[23.6168,-33.5696,1267.3081],[23.5962,-33.5725,1219.0853],[23.6001,-33.5275,1082.5597],[23.6061,-33.5033,1130.0388],[23.604,-33.4964,1089.1108],[23.5786,-33.4857,1006.7021],[23.579,-33.4847,1017.985],[23.5142,-33.4627,1305.5309],[23.4956,-33.4434,1543.9846],[23.4676,-33.4481,1666.9607],[23.4233,-33.442,1531.4709],[23.3934,-33.4457,1446.6697],[23.3738,-33.4454,1298.709],[23.3549,-33.4412,1164.3185],[23.3641,-33.4618,946.7415],[23.318,-33.4065,797.1608],[23.2971,-33.3886,1412.838],[23.1954,-33.3862,1343.2812],[23.1348,-33.3876,1261.8893],[23.1129,-33.4008,712.7439],[23.0664,-33.4002,1342.2808],[22.9348,-33.4291,1329.7561],[22.8302,-33.4191,1582.573],[22.7744,-33.4197,1726.3988],[22.7845,-33.4155,1518.6439],[22.7357,-33.3948,1250.6603],[22.7375,-33.379,1139.3157],[22.7393,-33.324,969.896],[22.7734,-33.3263,927.4442],[22.7739,-33.309,1282.9666],[22.7903,-33.3073,1240.9688],[22.8402,-33.2202,784.0733],[22.8772,-33.1869,795.798],[22.8923,-33.1416,814.6013],[22.9553,-33.0731,905.4634],[22.9578,-33.0451,951.9357],[22.9341,-33.0217,963.0685],[22.9352,-33.013,964.5876],[22.9692,-32.9934,931.4141],[22.9487,-32.95,900.505],[23.0037,-32.8983,839.9606],[23.0074,-32.8728,822.5931],[23.098,-32.8737,784.8064],[23.1164,-32.858,769.9338],[23.0893,-32.7992,775.0548],[23.1493,-32.7667,800.1511],[23.1875,-32.7674,813.3972],[23.2011,-32.7854,800.0457],[23.2504,-32.7886,810.2542],[23.3052,-32.8095,793.2446],[23.3786,-32.825,824.6968],[23.3977,-32.7635,830.0782],[23.3516,-32.7638,806.8699],[23.3535,-32.7294,831.3633],[23.3329,-32.7036,853.9132],[23.2696,-32.6715,880.832],[23.3013,-32.6518,885.3963],[23.3073,-32.6116,910.5219],[23.2882,-32.5512,896.0569],[23.2445,-32.5132,906.355],[23.2475,-32.4653,898.2769],[23.2216,-32.425,889.6756],[23.2721,-32.4007,918.8413],[23.2872,-32.4042,920.8407],[23.3073,-32.3959,930.8704],[23.333,-32.3511,1227.8136],[23.3493,-32.3644,1250.9423],[23.4098,-32.3892,1144.3912],[23.4247,-32.3562,1144.7106],[23.449,-32.3233,1027.1962],[23.5236,-32.3288,890.5175],[23.5918,-32.3408,906.5576],[23.6651,-32.3442,918.7472],[23.6784,-32.3291,932.4925],[23.6569,-32.3039,980.0035],[23.6489,-32.298,985.5958],[23.6705,-32.2377,1014.3979],[23.6924,-32.2335,1146.474],[23.7082,-32.2192,1157.6567],[23.7261,-32.2085,1112.3767],[23.7471,-32.2007,1271.1455],[23.7662,-32.1787,1379.7062],[23.7978,-32.1941,1607.899],[23.8511,-32.2425,1593.5292],[23.8645,-32.249,1774.4081],[23.8923,-32.255,1591.9761],[23.921,-32.2334,1610.6055],[23.9354,-32.2319,1487.0837],[23.953,-32.2165,1220.7563],[23.9611,-32.2065,1444.609],[23.9847,-32.1984,1663.1334],[23.9845,-32.1964,1726.5029],[23.9858,-32.1978,1726.5029],[24.0305,-32.1935,1908.0254],[24.0441,-32.1819,1601.3894],[24.038,-32.1581,2032.7769],[24.1001,-32.164,1488.4185],[24.1129,-32.1509,1523.5972],[24.1022,-32.1488,1838.8894],[24.1176,-32.1352,1678.366],[24.1304,-32.132,1703.1636],[24.1355,-32.1231,1814.9357],[24.1354,-32.0979,1334.8937],[24.1097,-32.0843,1508.8844],[24.0979,-32.1108,2053.5171],[24.0979,-32.0852,1845.2865],[24.1028,-32.0699,1864.4041],[24.1044,-32.0676,1880.4391],[24.1126,-32.07,1821.6897],[24.1119,-32.0616,1737.8376],[24.1233,-32.0559,1782.775],[24.1348,-32.0602,1802.1836],[24.1411,-32.0514,1738.3478],[24.1286,-32.0412,1736.4739],[24.1409,-32.0117,1659.3748],[24.1745,-32.0199,1762.978],[24.1749,-32.0126,1714.5076],[24.1894,-32.0122,1720.1436],[24.1878,-32.0082,1706.1804],[24.1937,-32.0048,1753.3087],[24.183,-31.9959,1644.1321],[24.2224,-31.9556,1488.5005],[24.2054,-31.9417,1492.7097],[24.1998,-31.9426,1483.0154],[24.188,-31.9336,1461.6674],[24.1912,-31.9268,1494.8497],[24.1972,-31.9235,1468.3541],[24.1642,-31.9024,1479.5962],[24.1466,-31.8969,1548.1248],[24.1468,-31.9027,1522.4807],[24.1387,-31.9054,1528.6201],[24.1054,-31.9069,1639.2148],[24.1047,-31.8868,1793.1796],[24.1083,-31.8861,1729.2566],[24.1236,-31.8472,1586.072],[24.1533,-31.8549,1536.1584],[24.1548,-31.8225,1629.573],[24.1598,-31.8231,1607.1871],[24.1798,-31.8194,1662.3403],[24.1837,-31.8133,1628.2136],[24.1543,-31.7983,1845.7866],[24.1525,-31.7886,1790.2791],[24.1022,-31.7926,1932.2883],[24.0709,-31.8071,1704.504],[24.0561,-31.776,1625.6514],[24.0431,-31.7673,1578.692],[24.0285,-31.7302,1665.155],[24.0291,-31.722,1893.5333],[24.0468,-31.7067,1830.5918],[23.9631,-31.7067,1641.674],[23.9665,-31.7154,1645.2194],[23.9513,-31.7495,1590.2087],[23.9487,-31.7733,1502.4407],[23.9179,-31.7954,1604.9609],[23.9159,-31.822,1572.5077],[23.894,-31.8368,1616.3617],[23.8786,-31.8337,1375.3915],[23.8379,-31.7833,1350.2046],[23.8293,-31.7803,1330.6938],[23.8372,-31.7679,1368.658],[23.8085,-31.7637,1368.209],[23.8476,-31.7292,1311.3788],[23.8416,-31.7151,1398.9652],[23.8157,-31.7142,1363.9945],[23.7775,-31.6971,1397.431],[23.7565,-31.6957,1467.3779],[23.7345,-31.6546,1460.0839],[23.7151,-31.647,1453.8799],[23.6887,-31.6496,1629.4742],[23.6395,-31.6601,1503.5571],[23.6191,-31.6494,1361.7665],[23.5945,-31.6623,1356.7019],[23.5745,-31.6892,1234.818],[23.5355,-31.6918,1191.3496],[23.5239,-31.7053,1176.6714],[23.4961,-31.7027,1185.8556],[23.4231,-31.6821,1281.2046],[23.4165,-31.6722,1238.0656],[23.4017,-31.6996,1199.2678],[23.4071,-31.7138,1188.8723],[23.3871,-31.7148,1205.2902],[23.3451,-31.7109,1228.1423],[23.3024,-31.7301,1271.4429],[23.2661,-31.7732,1459.4363],[23.2634,-31.7783,1477.4335],[23.2624,-31.8154,1349.2024],[23.225,-31.854,1316.0416],[23.2304,-31.8757,1497.3561],[23.1712,-31.9181,1556.8846],[23.1519,-31.9398,1528.7805],[23.1448,-31.9431,1362.7627],[23.1395,-31.9515,1308.1165],[23.1188,-31.9601,1165.4221],[23.1043,-31.9606,1310.0138],[23.0985,-31.9777,1373.0183],[23.0876,-31.9723,1454.2814],[23.0709,-31.9538,1171.4548],[23.0587,-31.9548,1348.5374],[23.0526,-31.9398,1094.5103],[23.0523,-31.9103,1096.6769],[23.0674,-31.8907,1135.9917],[23.0387,-31.8775,1311.9172],[22.9758,-31.8608,1304.3679],[22.9538,-31.863,1119.828],[22.902,-31.8758,1479.0935],[22.8747,-31.8616,1310.1007],[22.859,-31.8183,1311.0581],[22.8253,-31.8377,1358.2081],[22.7769,-31.8569,1358.5654],[22.7575,-31.8275,1370.4976],[22.7351,-31.7994,1321.3251],[22.6515,-31.8217,1755.4705],[22.6475,-31.8196,1780.7904],[22.6463,-31.8155,1768.6776],[22.6443,-31.8143,1704.7786],[22.6421,-31.8162,1742.4648],[22.6332,-31.8157,1772.7441],[22.6312,-31.8197,1732.4775],[22.6318,-31.8234,1715.9133],[22.6149,-31.8229,1454.0287],[22.5783,-31.8055,1453.806],[22.6094,-31.7398,1569.045],[22.6191,-31.7246,1584.8445],[22.5661,-31.7132,1553.0571],[22.5648,-31.6779,1571.9749],[22.4958,-31.6703,1479.0452],[22.4333,-31.6382,1475.5813],[22.3551,-31.6054,1392.3341],[22.3123,-31.5835,1399.4791],[22.2729,-31.5925,1384.5254],[22.2601,-31.6625,1492.2722],[22.2499,-31.6647,1481.967],[22.2374,-31.703,1502.4028],[22.204,-31.764,1415.7312],[22.2063,-31.7922,1399.1962],[22.1599,-31.8097,1357.1692],[22.1769,-31.8207,1346.0004],[22.1666,-31.8931,1563.6682],[22.1315,-31.8843,1530.7739],[22.1159,-31.8626,1517.6877],[22.0789,-31.8549,1313.1665],[22.08,-31.8637,1315.7683],[22.0824,-31.8685,1316.6375],[22.0843,-31.8688,1317.4778],[22.084,-31.8757,1319.5576],[22.0917,-31.8854,1323.0078],[22.0972,-31.8886,1343.1034],[22.1005,-31.893,1327.5889],[22.1017,-31.9005,1330.3813],[22.1004,-31.9243,1352.6687],[22.0713,-31.9393,1366.2985],[22.0892,-31.9743,1482.3125],[22.095,-32.0011,1499.6077],[22.0741,-32.0179,1423.8335],[22.0936,-32.0459,1509.8789],[22.134,-32.0644,1558.4232],[22.1199,-32.077,1522.7838],[22.0896,-32.1464,1532.7303],[22.0696,-32.0815,1414.5044],[22.0164,-32.1143,1412.2646],[22.0035,-32.1742,1370.0342],[21.9995,-32.206,1280.8728],[21.9959,-32.203,1362.8032],[21.9712,-32.2164,1599.0779],[21.9362,-32.2229,1415.1775],[21.9246,-32.262,911.0541],[21.9074,-32.2528,1134.6398],[21.9046,-32.2564,1216.8517],[21.9016,-32.2709,1350.0858],[21.8742,-32.2766,1552.1125],[21.8551,-32.2755,1451.0067],[21.7806,-32.2509,1567.1237],[21.7703,-32.2384,1443.9731],[21.773,-32.2268,1322.3574],[21.746,-32.2252,1532.8815],[21.7359,-32.205,1605.4451],[21.7114,-32.2248,1617.4097],[21.6917,-32.2486,1653.5713],[21.6738,-32.2433,1699.8137],[21.6655,-32.2314,1685.687],[21.6446,-32.2087,1358.4851],[21.6065,-32.2097,1409.8356],[21.5944,-32.2169,1509.8901],[21.5786,-32.2215,1502.3228],[21.5489,-32.2284,1493.7092],[21.536,-32.2292,1624.9363],[21.549,-32.2908,1833.0488],[21.5618,-32.3147,1481.9401],[21.5504,-32.3269,1310.4189],[21.5191,-32.337,1595.6145],[21.4756,-32.3315,1578.032],[21.4436,-32.3548,1486.2245],[21.4299,-32.3752,1499.9863],[21.4084,-32.3688,1607.2904],[21.3528,-32.3915,1646.6675],[21.3015,-32.3773,1702.451],[21.303,-32.4024,1448.5283],[21.2815,-32.4397,1768.1074],[21.2695,-32.4503,1789.4546],[21.2311,-32.4632,1675.6997],[21.1975,-32.4998,1268.4801],[21.1883,-32.5031,1187.0238],[21.1821,-32.5087,1222.6161],[21.1401,-32.5898,1692.823],[21.157,-32.6289,1082.6528],[21.0945,-32.653,1672.8942],[21.0603,-32.6555,1650.5007],[21.0373,-32.6491,1670.2384],[20.9628,-32.6393,1613.8965],[20.8441,-32.6624,1677.349],[20.8228,-32.6945,1374.1479],[20.7898,-32.7112,1265.2651],[20.7922,-32.735,1191.3918],[20.8303,-32.7846,1328.0375],[20.8324,-32.8174,1180.1996],[20.7986,-32.8947,925.8068],[20.7442,-32.9129,922.0602],[20.7312,-32.945,964.4393],[20.6503,-32.9323,1028.5359],[20.6496,-32.9337,1038.7651],[20.6219,-32.9431,1115.2439],[20.5901,-32.943,1137.896],[20.5921,-32.9265,1067.3016],[20.5612,-32.881,1108.804],[20.4993,-32.9416,1397.4866],[20.4386,-32.9401,1381.5736],[20.3801,-32.9019,1233.7751],[20.3639,-32.9108,1248.1226],[20.3639,-32.8859,1341.9805],[20.3572,-32.8641,1299.9163],[20.3417,-32.8578,1311.4968],[20.2999,-32.805,1111.2205],[20.2573,-32.7997,1133.0911],[20.219,-32.7847,1154.3724],[20.1876,-32.7527,1161.5024],[20.1917,-32.6858,1105.749],[20.1814,-32.6681,995.5238],[20.1412,-32.6437,1044.1711],[20.1369,-32.611,1086.4209],[20.1147,-32.5702,1044.3839],[20.1228,-32.557,915.8279],[20.0968,-32.503,953.5342],[20.0964,-32.4767,855.0518],[20.0796,-32.3973,424.9939],[20.132,-32.4211,440.8178],[20.1705,-32.3809,476.2451],[20.1635,-32.351,498.7186],[20.216,-32.3032,1459.7396],[20.2542,-32.3108,1610.1226],[20.2463,-32.2526,1528.3007],[20.2408,-32.2242,1570.3475],[20.1664,-32.2275,1244.8777],[20.181,-32.1845,1302.0106],[20.1518,-32.1865,594.2318],[20.1359,-32.1923,592.6766],[20.1157,-32.211,531.4492],[20.1093,-32.2301,508.0833],[20.1001,-32.2427,492.3928],[20.097,-32.2502,503.3463],[20.085,-32.2483,504.1773],[20.0536,-32.2523,568.9379],[20.0386,-32.2964,427.4671],[20.0044,-32.3299,406.5927],[19.9682,-32.3505,422.873],[19.9375,-32.3773,393.3827],[19.8739,-32.3832,352.1604],[19.8495,-32.3662,358.6543],[19.8178,-32.3607,335.7716],[19.8027,-32.3937,323.6179],[19.7641,-32.4111,322.1131],[19.7366,-32.3855,335.365],[19.7313,-32.4101,333.2991],[19.7074,-32.4203,343.6666],[19.7302,-32.4424,353.0581],[19.6996,-32.454,391.9349],[19.6797,-32.4635,372.7944],[19.6681,-32.4548,398.9548],[19.6549,-32.4388,391.2683],[19.6218,-32.4706,504.5298],[19.6265,-32.502,485.4599],[19.6071,-32.5454,434.9721],[19.612,-32.5666,465.3359],[19.6049,-32.6295,497.5035],[19.5872,-32.6478,620.4072],[19.528199999999998,-32.6732,900.7007],[19.4992,-32.6121,741.5452],[19.4868,-32.5654,635.2913],[19.495,-32.4989,660.1443],[19.5164,-32.4859,372.847],[19.5071,-32.4731,377.4597],[19.5037,-32.4729,394.3382],[19.4984,-32.4753,389.8211],[19.4954,-32.4737,379.1134],[19.4892,-32.4635,392.7975],[19.4798,-32.4413,366.8073],[19.4727,-32.4361,365.6171],[19.4719,-32.4279,371.4623],[19.4671,-32.4216,355.8279],[19.4647,-32.4151,363.3166],[19.4594,-32.41,363.7395],[19.4533,-32.3979,392.6615],[19.4432,-32.3883,344.6956],[19.4347,-32.3732,347.0228],[19.4353,-32.3683,322.8616],[19.4302,-32.3657,556.3675],[19.4091,-32.2901,689.2899],[19.4919,-32.2517,407.5215],[19.4951,-32.245,249.8428],[19.4875,-32.2421,248.5137],[19.4858,-32.2358,247.0284],[19.4958,-32.2216,245.7945],[19.4972,-32.2152,246.0322],[19.4942,-32.2087,293.8775],[19.5023,-32.2054,292.1859],[19.4927,-32.1986,351.761],[19.5014,-32.1799,388.5556],[19.4873,-32.1637,385.7477],[19.4793,-32.1677,292.2106],[19.4841,-32.1614,384.8646],[19.4752,-32.1463,300.0104],[19.4911,-32.1301,328.3318],[19.5083,-32.1259,337.391],[19.5152,-32.1152,266.0602],[19.5075,-32.0861,340.2406],[19.4885,-32.1212,230.2146],[19.4834,-32.1137,321.1803],[19.488,-32.0915,290.7183],[19.4863,-32.0764,214.9232],[19.4799,-32.073,210.6542],[19.4676,-32.0731,222.5681],[19.4259,-32.0313,389.5841],[19.3958,-32.0151,241.7823],[19.3804,-32.0376,229.4861],[19.363,-32.0428,295.5958],[19.3531,-32.0279,278.7488],[19.3298,-32.0126,295.0832],[19.3234,-31.9848,482.7234],[19.2899,-31.9651,475.164],[19.2775,-31.9797,284.4617],[19.2648,-31.965699999999998,402.1949],[19.2798,-31.922,544.918],[19.2897,-31.863,496.3432],[19.2441,-31.9139,393.3755],[19.2107,-31.948,344.1734],[19.1997,-31.9048,341.3795],[19.1723,-31.9098,168.2791],[19.159,-31.8996,156.547],[19.156,-31.8997,176.5044],[19.1504,-31.9029,156.2354],[19.1448,-31.9105,170.4331],[19.1418,-31.9121,175.7032],[19.1308,-31.9066,147.9407],[19.1181,-31.9071,133.8125],[19.1094,-31.8981,130.666],[19.0859,-31.894,127.1872],[19.0822,-31.8898,130.8536],[19.058,-31.8804,122.6327],[19.0348,-31.8762,139.0587],[19.0262,-31.8766,121.9857],[19.0272,-31.8743,173.8779],[19.0258,-31.8709,134.3818],[19.0314,-31.8682,202.7778],[19.0301,-31.8629,140.3306],[19.0346,-31.8589,144.0456],[19.0315,-31.8548,140.6139],[19.0329,-31.849,154.7465],[19.0266,-31.8435,247.7564],[19.0323,-31.8398,163.8887],[19.0298,-31.8359,171.2907],[19.0303,-31.8338,169.6217],[19.0384,-31.8287,182.6966],[19.044,-31.8302,204.6389],[19.0468,-31.8295,183.0357],[19.0535,-31.8226,224.1594],[19.0539,-31.8167,232.7148],[19.0586,-31.815,205.2349],[19.0601,-31.8107,192.7382],[19.0691,-31.8085,198.598],[19.0723,-31.8039,226.9575],[19.0782,-31.8024,217.6512],[19.08,-31.794,361.4317],[19.0872,-31.7936,256.9838],[19.083,-31.7859,299.4342],[19.0766,-31.7882,296.9154],[19.0757,-31.7819,265.8438],[19.0701,-31.7838,282.9094],[19.066,-31.7809,273.7899],[19.065,-31.7779,276.0472],[19.0665,-31.766,283.5037],[19.073,-31.7619,283.3219],[19.0808,-31.7596,297.3009],[19.0857,-31.7629,294.3418],[19.0914,-31.7625,430.1118],[19.0947,-31.7502,320.1851],[19.0811,-31.7307,489.7131],[19.0769,-31.7185,441.4534],[19.0656,-31.7063,472.582],[19.0577,-31.6878,546.3456],[19.0549,-31.6703,609.9393],[19.0737,-31.6669,855.8646],[19.079,-31.6432,703.0422],[19.0705,-31.6241,647.2228],[19.0905,-31.5978,688.4686],[19.0854,-31.5721,724.0248],[19.0737,-31.5743,373.4825],[19.0556,-31.575,652.5021],[19.0518,-31.5727,617.4807],[19.0854,-31.5269,660.3212],[19.0781,-31.5251,682.0886],[19.0678,-31.518,673.3068],[19.0418,-31.5185,718.7983],[19.0231,-31.5051,820.6036],[19.0187,-31.5104,790.3096],[19.012,-31.5144,762.3832],[19.0062,-31.512,643.4677],[19.0197,-31.4993,854.4109],[19.0246,-31.4821,747.3604],[19.0369,-31.4643,709.504],[19.043,-31.425,699.2982],[19.0307,-31.4154,756.3485],[19.0324,-31.4032,776.6429],[19.034,-31.4022,780.1161],[19.0309,-31.3895,780.0303],[19.0124,-31.3701,809.3269],[18.9801,-31.3552,820.2747],[19.013,-31.3057,798.0],[18.9664,-31.2845,288.0703],[18.9445,-31.2373,655.5297],[18.9497,-31.1959,274.6217],[18.9476,-31.1129,745.5668],[18.9123,-31.0608,274.1932],[18.9035,-31.0418,275.1245],[18.9118,-30.9789,346.9026],[18.9845,-30.9458,373.2956],[18.9242,-30.916,417.8918],[18.8754,-30.8871,455.0441],[18.9605,-30.8661,579.3217],[18.9519,-30.7447,1014.4312],[18.863,-30.7171,671.0181],[18.7945,-30.6676,934.502],[18.7959,-30.6249,936.5203],[18.7587,-30.5679,886.8998],[18.6551,-30.5567,953.6646],[18.5701,-30.4303,1041.8691],[18.5021,-30.4444,1093.9052],[18.4836,-30.5219,1065.4471],[18.5222,-30.6065,887.8821],[18.4441,-30.5113,756.8641],[18.3806,-30.4596,651.0316],[18.4138,-30.5273,1034.5768],[18.3711,-30.5921,863.6906],[18.371,-30.6596,931.6094],[18.3139,-30.7422,373.9448],[18.2642,-30.8183,453.622],[18.2518,-30.8275,438.6539],[18.2293,-30.8191,415.3612],[18.2135,-30.8104,307.3453],[18.1952,-30.816,302.9574],[18.2058,-30.8313,255.4861],[18.1904,-30.8347,335.7129],[18.1692,-30.8486,359.5026],[18.1396,-30.828,432.3609],[18.0892,-30.7879,403.0229],[18.0809,-30.7848,279.929],[18.0579,-30.7769,301.2719],[18.0065,-30.7912,233.9363],[17.9948,-30.8192,249.267],[17.9934,-30.9187,274.7234],[17.9721,-30.9139,289.3591],[17.9344,-30.9174,280.1071],[17.914,-30.9247,272.3227],[17.8803,-30.9239,177.7977],[17.8779,-30.9487,227.647],[17.9094,-30.9875,299.5175],[17.9264,-31.0114,315.0108],[17.8945,-31.0304,341.8424],[17.8886,-31.0403,265.8306],[17.8786,-31.0405,257.6384],[17.8352,-31.0726,167.4146],[17.8113,-31.0925,169.5232],[17.8344,-31.1765,127.4984],[17.7585,-31.1519,0.4403],[17.7618,-31.1596,0.0],[17.7682,-31.1649,0.5837],[17.7726,-31.1726,0.0],[17.7815,-31.179,0.0],[17.7846,-31.1849,0.0],[17.7926,-31.1926,6.0409],[17.7935,-31.1993,0.0657],[17.7971,-31.2032,0.0],[17.8026,-31.204,7.6575],[17.8079,-31.2099,0.0],[17.8082,-31.2132,0.0],[17.8115,-31.2138,0.9754],[17.8171,-31.2188,8.0688],[17.8171,-31.224,0.0638],[17.8204,-31.2249,0.0],[17.8232,-31.2235,0.0],[17.8296,-31.229,0.0],[17.8337,-31.2304,0.0],[17.8379,-31.2335,5.2972],[17.8393,-31.2368,0.0],[17.841,-31.2365,0.0],[17.8607,-31.2546,0.0],[17.8687,-31.2663,0.0],[17.8693,-31.2712,0.0],[17.8713,-31.271,9.3836],[17.8738,-31.2732,1.9779],[17.8804,-31.2829,12.4262],[17.8818,-31.2893,5.1389],[17.8782,-31.2921,0.0],[17.8804,-31.2938,0.2649],[17.879,-31.2965,0.0],[17.8804,-31.301,0.0],[17.8785,-31.3021,0.0],[17.879,-31.3046,9.0221],[17.876,-31.309,0.0],[17.8788,-31.3118,8.9588],[17.8774,-31.321,0.0],[17.8849,-31.326,0.7771],[17.886,-31.3301,0.0],[17.8893,-31.3315,0.8027],[17.8901,-31.336,0.0],[17.8937,-31.3382,0.0],[17.8954,-31.3421,0.0],[17.899,-31.3432,0.0],[17.9004,-31.3487,0.8596],[17.899,-31.351,0.0],[17.9071,-31.3571,0.6902],[17.9065,-31.3587,0.0],[17.9146,-31.3671,0.3596],[17.9188,-31.3668,0.0],[17.9285,-31.3757,3.4136],[17.9343,-31.3832,5.0663],[17.9346,-31.386,3.402],[17.9385,-31.389,1.9954],[17.9368,-31.3904,0.0],[17.9374,-31.3921,0.0],[17.9454,-31.399,1.0893],[17.9443,-31.4013,0.0],[17.9474,-31.4057,0.0762],[17.9518,-31.4101,0.0039],[17.9562,-31.4121,0.0],[17.9557,-31.414,0.0],[17.9576,-31.4168,0.0],[17.9626,-31.4196,0.0],[17.9643,-31.4188,1.2099],[17.9715,-31.4251,6.7184],[17.9712,-31.4276,0.0],[17.9837,-31.4396,15.1016],[17.9851,-31.4446,0.0],[17.989,-31.4485,-0.0597],[17.9893,-31.4515,0.0],[17.9993,-31.4593,2.1441],[17.999,-31.4621,0.0],[18.0026,-31.464,8.2333],[18.0024,-31.465699999999998,1.9433],[18.0082,-31.4718,-0.0336],[18.0082,-31.4743,0.0],[18.0146,-31.4782,0.488],[18.0271,-31.4921,0.0],[18.0324,-31.4937,0.0],[18.0321,-31.4974,0.1303],[18.0365,-31.5007,0.0],[18.0374,-31.504,0.0],[18.0401,-31.5043,4.3275],[18.0421,-31.5107,0.2361],[18.0454,-31.5121,5.8383],[18.0504,-31.5182,0.0],[18.0543,-31.5179,29.4305],[18.0574,-31.524,0.0],[18.0624,-31.5246,0.0],[18.0837,-31.5451,5.6281],[18.0868,-31.551,3.2112],[18.0912,-31.5532,9.3076],[18.1046,-31.5671,0.0],[18.1179,-31.5863,18.5441],[18.1176,-31.5935,24.4954],[18.1143,-31.5996,0.0],[18.1174,-31.6018,0.0],[18.1193,-31.6007,1.7988],[18.1185,-31.6046,0.0],[18.1257,-31.6076,41.8104],[18.1315,-31.6151,0.0],[18.1321,-31.6171,8.7122],[18.1296,-31.619,0.0],[18.1307,-31.6226,0.0],[18.1351,-31.6276,0.5104],[18.139,-31.6279,11.4836],[18.1382,-31.6299,0.059],[18.1396,-31.6304,0.059],[18.1396,-31.6329,0.0],[18.1432,-31.6371,0.0],[18.1454,-31.6374,12.4256],[18.1468,-31.6401,9.5451],[18.1463,-31.6468,0.0],[18.1479,-31.6468,0.0],[18.1513,-31.6565,0.0],[18.1588,-31.6607,39.3827],[18.1676,-31.676,0.0],[18.1707,-31.6776,9.8959],[18.171,-31.6801,0.0],[18.1738,-31.6807,7.523],[18.184,-31.6938,0.0],[18.1849,-31.7004,0.0],[18.1871,-31.7026,0.0],[18.1924,-31.7032,1.9853],[18.1974,-31.7113,0.0],[18.2054,-31.7187,10.256],[18.2054,-31.7229,3.6755],[18.2096,-31.7299,0.0],[18.2118,-31.7307,0.0],[18.2168,-31.739,2.9051],[18.2185,-31.739,16.4235],[18.2215,-31.7429,27.0013],[18.2265,-31.7538,9.6723],[18.226,-31.7551,2.7629],[18.2213,-31.7563,0.8645],[18.2226,-31.759,4.1026],[18.2213,-31.7599,5.7455],[18.2218,-31.7624,2.1776],[18.2246,-31.7635,14.9218],[18.2251,-31.7787,0.0],[18.2285,-31.7857,0.0],[18.231,-31.7871,22.9703],[18.2313,-31.794,1.1594],[18.2329,-31.796,11.9386],[18.229,-31.8001,0.1828],[18.2324,-31.8043,1.0446],[18.2324,-31.8082,0.0],[18.2357,-31.8143,3.1126],[18.2301,-31.8154,0.0],[18.2304,-31.8176,0.0],[18.2329,-31.8179,5.649],[18.2313,-31.821,1.7843],[18.2332,-31.8224,0.0],[18.234,-31.821,3.2581],[18.2368,-31.8235,1.8672],[18.2432,-31.834,1.6734],[18.2657,-31.8635,12.1128],[18.2729,-31.8774,0.855],[18.2804,-31.8974,4.4631],[18.2785,-31.9029,0.1538],[18.2801,-31.9096,12.4638],[18.2757,-31.9118,3.5086],[18.2718,-31.9115,0.5005],[18.276,-31.9185,8.0932],[18.2754,-31.9299,6.848],[18.2735,-31.9326,0.0],[18.2651,-31.9338,0.0],[18.2654,-31.9399,0.0],[18.269,-31.9507,0.0],[18.2749,-31.9565,5.9063],[18.2774,-31.9651,0.0],[18.2796,-31.9668,0.0],[18.2807,-31.9754,0.0],[18.2826,-31.9762,9.8686],[18.2835,-31.9804,1.0716],[18.286,-31.9829,2.848],[18.2868,-31.9885,6.0959],[18.2818,-31.9912,0.0],[18.2813,-31.9954,0.0],[18.2846,-31.9976,10.062],[18.284,-31.9988,0.0],[18.2929,-32.0112,6.6166],[18.2929,-32.0149,0.0],[18.2946,-32.0165,5.7162],[18.2932,-32.0249,0.2499],[18.2979,-32.0296,0.0],[18.3149,-32.0718,0.0],[18.3143,-32.0846,4.4233],[18.3079,-32.0913,9.9723],[18.3046,-32.091,0.719],[18.3051,-32.0865,0.0],[18.3026,-32.0885,0.3522],[18.2993,-32.0865,0.0],[18.2974,-32.0871,0.0],[18.3007,-32.0918,1.405],[18.2985,-32.096,0.0],[18.3013,-32.0985,0.7165],[18.3007,-32.1024,0.0],[18.3021,-32.1035,0.0],[18.3013,-32.1154,3.3789],[18.3051,-32.1329,5.9609],[18.3068,-32.1499,3.8214],[18.3118,-32.1621,7.5909],[18.3115,-32.1657,8.2074],[18.3096,-32.1674,0.9183],[18.3118,-32.171,2.6599],[18.3101,-32.1743,0.0],[18.3185,-32.1868,1.9584],[18.3263,-32.2038,2.7545],[18.3257,-32.2085,8.1628],[18.3235,-32.2118,0.0],[18.3274,-32.2207,1.7686],[18.3288,-32.2207,1.7686],[18.3293,-32.2268,0.0],[18.3363,-32.2418,8.4411],[18.3435,-32.2679,0.0],[18.3457,-32.2874,3.2903],[18.3429,-32.3065,2.5203],[18.336,-32.316,3.0682],[18.3288,-32.3149,1.0099],[18.3232,-32.3174,0.3945],[18.3146,-32.314,0.0],[18.3135,-32.3171,0.0878],[18.3154,-32.3221,2.5312],[18.3146,-32.3262,0.0],[18.3168,-32.3307,0.0],[18.3154,-32.3368,0.5905],[18.3188,-32.3429,5.5487],[18.3246,-32.3624,1.4856],[18.3332,-32.4146,0.0],[18.3349,-32.4382,0.0],[18.3335,-32.4854,4.9901],[18.3257,-32.5293,8.0298],[18.3193,-32.5518,8.9589],[18.3013,-32.594,8.9717],[18.2815,-32.6307,0.0],[18.2574,-32.6657,4.5295],[18.2454,-32.6801,2.3582],[18.2246,-32.6979,0.5239],[18.2007,-32.7135,0.3188],[18.1885,-32.7293,0.6294],[18.1812,-32.7354,1.761],[18.1718,-32.7493,2.5761],[18.1599,-32.7599,4.9117],[18.1449,-32.7693,0.4525],[18.1488,-32.7718,0.3515],[18.1429,-32.7732,0.4163],[18.1368,-32.7782,1.0075],[18.1332,-32.7782,2.4251],[18.1332,-32.7771,1.2596],[18.1446,-32.7715,0.0],[18.1443,-32.7693,0.4525],[18.129,-32.7774,1.1048],[18.1215,-32.7774,0.0],[18.1126,-32.7804,1.1626],[18.1074,-32.7804,0.8483],[18.1051,-32.7785,0.0],[18.1046,-32.7799,1.7136],[18.0982,-32.781,0.3794],[18.0949,-32.7776,0.0],[18.0938,-32.7796,1.5035],[18.0899,-32.7804,0.0],[18.0876,-32.7774,0.0],[18.079,-32.7768,1.214],[18.0671,-32.7818,2.9224],[18.0629,-32.7818,0.0],[18.061,-32.7837,2.2524],[18.0554,-32.7843,0.0],[18.0518,-32.7782,0.3728],[18.0515,-32.7746,1.2436],[18.0493,-32.7746,9.8383],[18.0407,-32.7657,0.2415],[18.0357,-32.7629,0.0745],[18.0354,-32.7607,0.0],[18.0313,-32.7604,0.0865],[18.0287,-32.756,0.0],[18.0243,-32.7554,1.315],[18.0199,-32.7518,0.1645],[18.0176,-32.7518,3.6784],[18.0179,-32.7507,0.2153],[18.0143,-32.7504,2.2319],[18.0107,-32.7432,0.0],[18.0143,-32.7438,0.0],[18.0193,-32.7412,0.0],[18.0154,-32.7404,0.7347],[18.0151,-32.739,0.0],[18.0107,-32.7393,0.0],[18.0099,-32.7368,0.124],[18.0065,-32.7368,1.2374],[18.0054,-32.7346,0.6129],[17.9946,-32.7329,0.0],[17.9912,-32.7299,3.804],[17.9796,-32.7268,2.7845],[17.9788,-32.7229,0.0],[17.9754,-32.7212,4.8458],[17.9749,-32.7187,4.4357],[17.9782,-32.7168,0.0],[17.9776,-32.7099,0.0],[17.9835,-32.7026,0.0],[17.9735,-32.704,0.0],[17.9699,-32.6999,0.0],[17.9654,-32.699,0.0],[17.9657,-32.7032,0.0],[17.9682,-32.706,5.8875],[17.9621,-32.714,1.4055],[17.9504,-32.7218,2.6103],[17.9413,-32.7215,1.5901],[17.9396,-32.7201,4.2953],[17.9415,-32.7179,0.0],[17.9396,-32.7151,0.3744],[17.9371,-32.716,0.0],[17.9368,-32.7182,5.8369],[17.931,-32.7201,3.1591],[17.9257,-32.7154,0.1421],[17.9199,-32.7135,0.3153],[17.9185,-32.7176,0.0065],[17.9215,-32.7176,-0.0291],[17.9221,-32.721,4.1806],[17.9201,-32.7254,0.0],[17.9151,-32.7279,0.0],[17.916,-32.7324,7.8698],[17.9107,-32.736,0.0],[17.9051,-32.7354,1.6859],[17.9046,-32.734,0.0],[17.901,-32.7351,0.0],[17.8957,-32.7429,0.0],[17.896,-32.7474,0.0],[17.8935,-32.7471,0.0],[17.8932,-32.751,0.0],[17.8982,-32.7512,10.4651],[17.9035,-32.761,0.0],[17.9068,-32.7749,0.0],[17.9071,-32.7899,0.0],[17.904,-32.7979,0.0],[17.8999,-32.8018,0.0],[17.8971,-32.8012,0.0],[17.8974,-32.804,1.7765],[17.8935,-32.8068,1.4649],[17.8849,-32.8065,3.2087],[17.8843,-32.8024,0.0249],[17.8821,-32.801,0.0],[17.881,-32.8115,4.3853],[17.8718,-32.8146,1.5509],[17.8685,-32.8118,0.0],[17.8632,-32.8126,0.0],[17.8613,-32.8107,0.0],[17.864,-32.8157,0.0831],[17.8632,-32.8171,0.5088],[17.8613,-32.8154,0.0],[17.859,-32.8168,0.0],[17.8554,-32.8154,0.0],[17.8524,-32.8162,0.0],[17.8501,-32.8221,0.2268],[17.8474,-32.8224,0.0],[17.8471,-32.8254,2.2352],[17.8432,-32.826,0.0],[17.8443,-32.8265,2.3663],[17.8438,-32.8299,0.0],[17.8471,-32.8299,0.0],[17.8485,-32.8376,0.4476],[17.8501,-32.839,0.0],[17.8524,-32.8379,0.0],[17.8513,-32.8349,1.362],[17.8524,-32.8343,8.1739],[17.8565,-32.8379,1.0047],[17.8557,-32.8393,0.0],[17.8596,-32.841,0.0],[17.8587,-32.844,0.0],[17.8621,-32.8432,1.5807],[17.864,-32.8454,0.0],[17.866,-32.8426,9.1345],[17.8699,-32.8465,0.0],[17.8726,-32.846,32.5918],[17.8715,-32.8499,0.0],[17.876,-32.8507,0.0],[17.8782,-32.8532,0.0],[17.879,-32.8604,4.3141],[17.8818,-32.8637,0.0],[17.8793,-32.866,0.3721],[17.8793,-32.8679,1.8122],[17.8799,-32.8696,0.0],[17.8829,-32.8696,0.0],[17.8835,-32.8743,0.0],[17.8801,-32.8826,0.0],[17.8738,-32.8862,0.0],[17.8701,-32.8851,0.0],[17.8654,-32.8865,0.784],[17.8632,-32.8893,0.4109],[17.8646,-32.891,2.8413],[17.8624,-32.8913,2.524],[17.8621,-32.8929,0.0],[17.8671,-32.8951,0.0],[17.8635,-32.8987,0.0],[17.8579,-32.899,0.0],[17.8571,-32.901,0.0],[17.8601,-32.9032,0.0],[17.8563,-32.906,0.183],[17.8585,-32.9065,1.8193],[17.8571,-32.9096,0.0],[17.8585,-32.9124,0.0],[17.869,-32.9124,2.0871],[17.8685,-32.9182,0.0],[17.8732,-32.9174,2.7398],[17.8768,-32.9193,5.8705],[17.8843,-32.9357,0.0],[17.8851,-32.9501,0.0],[17.8832,-32.9521,0.0],[17.8813,-32.9507,0.0],[17.8807,-32.954,0.0],[17.8757,-32.9543,0.0],[17.8726,-32.9557,0.0],[17.8726,-32.9571,0.1936],[17.8762,-32.9568,0.0],[17.8776,-32.9588,0.0],[17.8832,-32.9593,3.9523],[17.884,-32.9626,0.0],[17.879,-32.9643,0.0],[17.881,-32.9665,0.0],[17.8843,-32.9663,0.0],[17.884,-32.9679,0.0],[17.8818,-32.9685,0.0],[17.8826,-32.9751,0.0],[17.8785,-32.9749,0.0],[17.8779,-32.9762,0.0],[17.8799,-32.9782,0.0],[17.8838,-32.9779,2.4403],[17.8851,-32.9793,0.0376],[17.8843,-32.9807,0.771],[17.8818,-32.9796,0.4703],[17.8807,-32.9821,0.2959],[17.8751,-32.9837,0.0],[17.8754,-32.9893,0.087],[17.871,-32.991,1.1152],[17.8704,-32.994,0.0],[17.8726,-32.9951,2.3388],[17.8726,-32.9968,2.1587],[17.8704,-32.9985,0.0],[17.8721,-33.0007,0.0],[17.8776,-33.0021,0.0],[17.8765,-33.006,0.0],[17.8788,-33.0074,0.2832],[17.8829,-33.0068,0.0],[17.8838,-33.0026,1.2843],[17.8907,-33.0029,2.8525],[17.8971,-33.0074,0.0],[17.9024,-33.0149,0.0],[17.9038,-33.0215,0.0],[17.9007,-33.0279,0.0],[17.8954,-33.0288,1.4606],[17.891,-33.0251,0.0],[17.8874,-33.0268,0.0],[17.8871,-33.0285,0.0],[17.8896,-33.0285,0.0],[17.8915,-33.0307,0.4977],[17.8915,-33.0335,0.0],[17.8954,-33.0351,0.0],[17.8954,-33.0387,0.0],[17.8924,-33.0415,0.0],[17.8957,-33.0426,0.0],[17.8988,-33.0401,0.0],[17.9007,-33.0407,0.0],[17.901,-33.0432,0.0],[17.9026,-33.0438,0.0],[17.9015,-33.0474,0.0],[17.9082,-33.0493,1.9233],[17.9076,-33.0515,0.0],[17.9104,-33.0529,0.9407],[17.9085,-33.0551,0.0],[17.9104,-33.0554,0.0],[17.9143,-33.0496,0.0],[17.9243,-33.0446,0.0],[17.926,-33.0421,1.5176],[17.931,-33.0424,0.0],[17.939,-33.0387,0.4534],[17.9374,-33.0346,0.5636],[17.9335,-33.0321,0.0],[17.9351,-33.0285,2.3398],[17.9474,-33.0254,4.0144],[17.9521,-33.0271,0.0],[17.9554,-33.0307,0.0],[17.959,-33.0293,13.0459],[17.959,-33.031,0.0],[17.9662,-33.0326,1.1117],[17.9715,-33.0385,0.8251],[17.9715,-33.0412,1.0118],[17.9696,-33.0432,4.9917],[17.9654,-33.0424,0.0],[17.9649,-33.044,0.0],[17.9674,-33.0462,2.6671],[17.9715,-33.0457,0.0],[17.9749,-33.0396,1.9427],[17.9735,-33.0357,0.0],[17.9651,-33.0299,3.2196],[17.9651,-33.0274,3.3909],[17.9629,-33.0262,1.4244],[17.9651,-33.024,0.0],[17.9599,-33.0232,0.0],[17.961,-33.0254,0.0],[17.9588,-33.0271,1.0236],[17.9554,-33.0235,0.5653],[17.9524,-33.0226,0.0],[17.9538,-33.0201,0.0],[17.9496,-33.0215,0.6023],[17.9488,-33.0196,0.0],[17.9507,-33.0137,0.0],[17.9496,-33.0126,1.5902],[17.9513,-33.0104,0.0],[17.9488,-33.0096,1.0155],[17.9468,-33.0049,0.5927],[17.961,-32.9976,6.9939],[17.9735,-32.9957,3.0615],[17.9915,-32.9965,0.0],[17.996,-32.9996,4.5139],[17.9951,-33.0035,1.6653],[17.9921,-33.0026,0.0],[17.9951,-33.0049,3.2821],[17.9918,-33.0124,0.7381],[17.9899,-33.0112,0.0],[17.9888,-33.0163,2.7546],[17.9865,-33.0174,0.0],[17.9882,-33.0218,1.1825],[17.9857,-33.0249,0.0],[17.9821,-33.036,0.0],[17.9835,-33.0357,0.0],[17.9907,-33.0213,0.0],[17.9949,-33.0099,0.0],[17.9974,-33.0079,2.8285],[18.004,-33.0101,0.0],[18.0065,-33.0101,0.0],[18.0085,-33.0079,2.7786],[18.0107,-33.0085,4.9199],[18.0135,-33.0104,1.3331],[18.0107,-33.0104,0.0],[18.019,-33.0137,26.278199999999998],[18.0301,-33.0246,0.0],[18.0374,-33.0385,11.8628],[18.0357,-33.0443,0.0],[18.0388,-33.0479,0.0],[18.0424,-33.0479,8.2261],[18.0429,-33.0512,0.0],[18.0413,-33.0537,1.6248],[18.0426,-33.0574,1.1934],[18.0393,-33.0624,0.8548],[18.0413,-33.0635,8.0097],[18.0413,-33.066,9.404],[18.0404,-33.0682,7.2361],[18.0374,-33.0693,0.0],[18.0382,-33.0732,2.0583],[18.0304,-33.084,0.0],[18.0307,-33.0915,1.6015],[18.0279,-33.0982,0.0],[18.0354,-33.109,2.06],[18.0482,-33.1151,1.9355],[18.0518,-33.1215,0.0],[18.0574,-33.1232,0.137],[18.0585,-33.1287,0.2229],[18.0738,-33.1349,0.0],[18.0749,-33.1371,1.6417],[18.084,-33.1396,0.0],[18.0912,-33.1443,3.0392],[18.0932,-33.151,0.7158],[18.089,-33.1649,0.0],[18.0912,-33.1668,0.0],[18.0865,-33.1643,0.0],[18.0807,-33.166,0.0],[18.0835,-33.1726,0.1103],[18.0868,-33.1751,0.0],[18.101,-33.1799,0.0],[18.1018,-33.184,0.0],[18.1051,-33.1849,0.0],[18.1112,-33.1899,0.0],[18.1151,-33.1901,0.0],[18.1168,-33.1879,0.0],[18.1126,-33.1871,0.0],[18.1115,-33.1832,0.0],[18.1076,-33.1829,0.0744],[18.1179,-33.1801,0.1238],[18.1235,-33.181,0.2026],[18.1254,-33.1871,0.1145],[18.1235,-33.191,0.0],[18.1207,-33.1946,0.4336],[18.1115,-33.199,0.0],[18.1087,-33.2021,0.0],[18.099,-33.2043,0.0],[18.0932,-33.2024,0.0],[18.0893,-33.1982,0.0],[18.0918,-33.194,0.0],[18.0899,-33.1896,0.0],[18.0871,-33.1868,0.0],[18.0843,-33.1868,6.8723],[18.0793,-33.1813,0.3145],[18.0735,-33.1813,2.7046],[18.0699,-33.1768,0.3119],[18.064,-33.1754,0.0],[18.0604,-33.1712,1.1178],[18.0601,-33.1685,0.0],[18.054,-33.1632,0.0],[18.0521,-33.1546,0.0883],[18.0462,-33.1515,0.0],[18.0332,-33.1501,8.0092],[18.0326,-33.1476,0.0],[18.0254,-33.1451,10.0353],[18.0237,-33.1432,6.8223],[18.024,-33.1401,2.563],[18.0257,-33.1379,6.4632],[18.0276,-33.1379,2.1006],[18.0282,-33.134,29.6296],[18.0313,-33.1321,0.0],[18.031,-33.1276,0.0],[18.0271,-33.1249,0.7076],[18.019,-33.1237,1.7212],[18.0132,-33.121,0.0],[18.0149,-33.1135,0.0],[18.0107,-33.1001,0.0],[18.0143,-33.0957,0.0],[18.0063,-33.0921,0.0],[18.0007,-33.0935,0.8748],[17.9904,-33.0924,0.0],[17.9865,-33.0937,0.2002],[17.986,-33.0965,3.0173],[17.9815,-33.0954,3.2989],[17.9846,-33.0901,0.0],[18.0046,-33.0879,0.0],[18.0051,-33.0862,0.0],[18.0026,-33.0818,0.0],[18.0049,-33.0782,0.0],[17.9957,-33.0776,0.0],[17.9949,-33.0757,0.0],[17.9968,-33.0718,0.0],[17.9949,-33.0699,1.3302],[17.9893,-33.0713,10.1289],[17.9888,-33.0685,0.0],[17.981,-33.0682,15.8559],[17.9796,-33.0665,0.0],[17.9726,-33.0674,0.0],[17.9724,-33.0699,0.0],[17.9757,-33.0724,19.3878],[17.9735,-33.0743,0.0],[17.9743,-33.0793,0.0],[17.976,-33.0826,0.4403],[17.9793,-33.0824,3.5544],[17.979,-33.0851,0.0],[17.9804,-33.0854,3.6183],[17.979,-33.0921,0.9859],[17.9751,-33.0965,17.9803],[17.9707,-33.0946,1.9203],[17.9699,-33.0982,19.777],[17.9668,-33.0993,0.0],[17.9576,-33.0946,1.1454],[17.9557,-33.099,0.0],[17.9576,-33.1018,4.4938],[17.954,-33.1026,0.0],[17.9513,-33.1054,0.5455],[17.951,-33.1068,0.5027],[17.9554,-33.1115,0.0],[17.9593,-33.1121,0.7862],[17.961,-33.1143,0.0],[17.969,-33.1157,0.0],[17.9704,-33.1196,0.0],[17.9732,-33.1215,0.0],[17.9749,-33.1304,0.0],[17.9687,-33.1315,0.0],[17.9704,-33.1343,0.0],[17.9696,-33.1376,0.6192],[17.9743,-33.1399,0.0],[17.9771,-33.1432,0.0],[17.9921,-33.1454,0.5797],[17.9912,-33.1487,0.0],[17.9951,-33.1471,0.0],[17.9979,-33.1476,0.0],[17.999,-33.1504,0.0],[18.0015,-33.1496,0.0],[18.0029,-33.151,0.0],[18.0054,-33.1485,0.0],[18.0088,-33.1504,2.6142],[18.0537,-33.1862,21.6234],[18.0974,-33.2301,1.5025],[18.1312,-33.2743,3.1205],[18.1593,-33.3271,5.8563],[18.161,-33.3351,3.2765],[18.1593,-33.3368,0.0],[18.161,-33.3379,4.4566],[18.161,-33.3424,7.0841],[18.156,-33.3437,0.0],[18.153199999999998,-33.3465,6.6797],[18.1468,-33.346,0.0],[18.144,-33.3493,0.0],[18.1465,-33.3512,9.94],[18.1457,-33.3554,0.0],[18.1482,-33.3563,0.0],[18.1526,-33.3549,6.0589],[18.1585,-33.3632,0.0],[18.1579,-33.3646,0.0],[18.1632,-33.3668,6.5355],[18.1624,-33.369,0.6832],[18.1724,-33.372,3.0513],[18.2035,-33.3893,3.2658],[18.2382,-33.4129,2.7789],[18.2582,-33.4293,11.9673],[18.286,-33.4571,2.0326],[18.2965,-33.4718,1.2061],[18.3076,-33.4835,1.1326],[18.3076,-33.4879,0.0],[18.3121,-33.494,0.6304],[18.3099,-33.496,0.5211],[18.3107,-33.4979,0.0],[18.3168,-33.4965,0.0],[18.3165,-33.4985,0.0],[18.3129,-33.5013,0.9544],[18.314,-33.5049,0.0],[18.3104,-33.5068,0.0],[18.3107,-33.5079,0.0],[18.3154,-33.5096,0.0],[18.3201,-33.516,0.2177],[18.3249,-33.5171,0.0],[18.3215,-33.5213,5.8366],[18.319,-33.5201,0.0],[18.3162,-33.5296,0.0],[18.3137,-33.5318,0.0],[18.3174,-33.5404,9.8129],[18.3115,-33.5404,0.0],[18.3121,-33.546,0.948],[18.3093,-33.5465,0.0],[18.3082,-33.5568,0.0],[18.3118,-33.5632,5.1637],[18.3087,-33.5635,0.0],[18.3076,-33.5662,0.0],[18.3101,-33.5699,0.0],[18.3135,-33.5696,0.0],[18.3176,-33.5724,6.6018],[18.3196,-33.5757,0.0],[18.326,-33.5749,0.0],[18.326,-33.5707,0.4732],[18.3326,-33.5726,0.0],[18.3312,-33.5713,0.0],[18.3321,-33.5701,0.0],[18.3374,-33.5696,0.0],[18.3374,-33.5715,0.0],[18.3407,-33.5735,0.0],[18.3426,-33.571,8.5024],[18.3471,-33.5724,4.3964],[18.3576,-33.581,3.3323],[18.3613,-33.5885,0.0],[18.359,-33.5921,0.0],[18.3613,-33.5932,0.1319],[18.3557,-33.5979,0.0],[18.3563,-33.6001,0.0],[18.3679,-33.5999,0.0],[18.374,-33.6082,4.6573],[18.3701,-33.6118,0.0],[18.3732,-33.614,2.693],[18.3757,-33.6201,0.0],[18.3835,-33.6207,0.0],[18.3835,-33.6237,0.0],[18.3888,-33.6215,0.0],[18.3974,-33.626,34.0962],[18.4043,-33.6346,0.0],[18.4074,-33.6426,0.0],[18.4138,-33.6485,19.2874],[18.4182,-33.6565,0.0],[18.4207,-33.6582,1.1788],[18.4282,-33.674,5.0196],[18.4229,-33.6765,0.0],[18.4285,-33.6757,1.2297],[18.4296,-33.6785,0.0],[18.4204,-33.6776,0.0],[18.4299,-33.6793,0.0],[18.4396,-33.6976,0.0],[18.444,-33.7129,2.6704],[18.4429,-33.7168,2.1913],[18.444,-33.7199,1.7537],[18.4393,-33.7285,2.3587],[18.4374,-33.7287,0.6545],[18.4382,-33.7262,0.0],[18.4371,-33.7276,0.0],[18.4346,-33.7274,0.0],[18.4354,-33.7293,0.1313],[18.4335,-33.729,0.0],[18.4335,-33.7324,0.4616],[18.4313,-33.7329,0.0],[18.4313,-33.7346,0.0],[18.436,-33.7404,0.0],[18.4382,-33.7399,0.0],[18.4399,-33.7435,0.0],[18.4407,-33.7568,3.5102],[18.4474,-33.7776,0.0],[18.4588,-33.7979,4.6427],[18.456,-33.8007,0.0],[18.4621,-33.8068,0.0],[18.4654,-33.8071,1.1484],[18.469,-33.8107,5.2862],[18.4779,-33.8246,7.5503],[18.4854,-33.8415,3.3005],[18.489,-33.8574,1.6032],[18.489,-33.8699,0.0],[18.484,-33.8885,0.7721],[18.4857,-33.889,0.7721],[18.4901,-33.8826,1.1341],[18.4915,-33.8829,1.1341],[18.4915,-33.8854,1.3115],[18.4821,-33.8918,2.5593],[18.4724,-33.9074,0.7452],[18.4654,-33.9121,1.2642],[18.4538,-33.9118,1.9302],[18.4454,-33.9054,0.3816],[18.4446,-33.9076,1.9953],[18.4538,-33.9157,0.0],[18.4515,-33.9174,0.0],[18.4354,-33.9082,0.0],[18.4349,-33.9101,0.0],[18.4457,-33.9157,0.1853],[18.4446,-33.9165,2.2238],[18.4407,-33.914,0.0],[18.4432,-33.9179,0.0],[18.4385,-33.916,0.0],[18.441,-33.919,1.0345],[18.4396,-33.9201,3.1756],[18.4268,-33.9099,1.6468],[18.4299,-33.9062,8.417],[18.4335,-33.9074,0.2475],[18.4326,-33.9046,0.0],[18.4279,-33.9029,0.5062],[18.429,-33.8987,0.0],[18.4182,-33.9021,3.351],[18.4137,-33.8987,3.0327],[18.4088,-33.8976,0.0],[18.401,-33.9001,2.5096],[18.3976,-33.8993,0.0],[18.3963,-33.906,0.0],[18.3904,-33.9082,0.5853],[18.3846,-33.914,0.0],[18.3838,-33.9174,0.0],[18.3762,-33.921,0.0],[18.3754,-33.9251,0.0],[18.3771,-33.9254,1.6071],[18.3771,-33.9271,6.5741],[18.3743,-33.9276,0.0],[18.3737,-33.9324,0.0],[18.3765,-33.9343,0.0],[18.3762,-33.9379,0.0],[18.3732,-33.9407,0.0],[18.3688,-33.9393,0.0],[18.3707,-33.9451,0.2641],[18.3779,-33.9474,0.0],[18.3768,-33.9526,1.3477],[18.3732,-33.9521,0.1265],[18.3743,-33.9576,0.0],[18.3768,-33.9576,16.64],[18.3768,-33.959,16.5611],[18.3715,-33.9593,0.2264],[18.3712,-33.9637,1.5175],[18.3729,-33.9646,25.0899],[18.3712,-33.9646,0.3208],[18.3724,-33.9665,1.8053],[18.3701,-33.9693,0.0],[18.3707,-33.9729,21.2476],[18.3646,-33.9787,13.5741],[18.3629,-33.9785,1.5218],[18.3635,-33.9804,17.1127],[18.3596,-33.9807,0.0],[18.3532,-33.9868,23.9398],[18.3474,-33.9863,0.0],[18.3465,-33.9888,2.2348],[18.3443,-33.9896,20.4291],[18.3429,-33.9926,0.0],[18.3437,-33.9971,0.0],[18.3412,-33.9993,0.0],[18.3421,-34.0035,4.7115],[18.3388,-34.0046,1.648],[18.3404,-34.0082,2.5578],[18.3385,-34.0099,38.3311],[18.3346,-34.0096,0.0937],[18.334,-34.0165,3.7924],[18.3307,-34.0196,0.0],[18.3307,-34.0238,0.7515],[18.3221,-34.0271,11.1966],[18.3118,-34.0268,2.2479],[18.311,-34.0288,3.8949],[18.3157,-34.0296,0.0],[18.3146,-34.0346,9.5263],[18.3124,-34.0368,19.9515],[18.3065,-34.0374,0.0],[18.3065,-34.0401,0.0],[18.3101,-34.044,3.5917],[18.3207,-34.0468,1.8515],[18.3243,-34.0543,0.0],[18.3285,-34.056,32.7544],[18.3282,-34.0585,0.2128],[18.3401,-34.0624,1.2731],[18.3482,-34.0579,0.0],[18.3496,-34.0526,0.0],[18.3465,-34.0535,1.2006],[18.3454,-34.0513,1.2539],[18.3482,-34.0507,0.0],[18.3476,-34.0485,2.1688],[18.349,-34.0468,2.412],[18.3565,-34.0451,2.8037],[18.3601,-34.0474,1.8416],[18.3626,-34.0521,57.3474],[18.3635,-34.0585,1.0615],[18.3679,-34.0632,0.0],[18.3632,-34.0732,55.683],[18.354,-34.0762,0.0],[18.3538,-34.0879,5.8401],[18.3496,-34.0913,0.0],[18.3521,-34.0943,138.6134],[18.3524,-34.0974,6.3371],[18.3557,-34.0985,0.0],[18.3574,-34.104,3.45],[18.3571,-34.1096,2.1628],[18.3554,-34.1132,1.4699],[18.3532,-34.1143,0.0],[18.3543,-34.1185,3.8592],[18.351,-34.1263,1.5296],[18.3468,-34.1304,2.4487],[18.3418,-34.1274,1.3544],[18.3376,-34.1282,3.6608],[18.3321,-34.1365,7.1542],[18.3229,-34.1379,0.0],[18.3229,-34.1429,0.0772],[18.3182,-34.1457,3.1347],[18.3188,-34.1493,1.3566],[18.3235,-34.1562,4.4101],[18.3277,-34.1579,15.6955],[18.3285,-34.1618,0.615],[18.3324,-34.1657,2.5191],[18.3326,-34.1688,0.097],[18.3368,-34.1724,3.0416],[18.3354,-34.174,0.0],[18.3385,-34.1771,0.5418],[18.334,-34.1746,0.0],[18.3357,-34.1774,-0.1866],[18.3435,-34.1818,0.0],[18.3443,-34.1776,2.2958],[18.3487,-34.1757,7.9804],[18.3512,-34.1765,0.0],[18.3643,-34.1868,0.587],[18.3646,-34.189,1.8617],[18.3707,-34.1951,16.854],[18.3699,-34.1971,0.0],[18.3729,-34.2004,6.0569],[18.3729,-34.2026,3.76],[18.3687,-34.2032,0.2212],[18.3701,-34.2107,0.0],[18.3721,-34.2121,4.6458],[18.3735,-34.2207,0.0],[18.3793,-34.2285,9.862],[18.379,-34.2354,7.8268],[18.3768,-34.2418,0.5588],[18.3815,-34.249,6.7243],[18.3801,-34.2496,1.7641],[18.3807,-34.2521,1.6566],[18.3779,-34.251,0.0],[18.3776,-34.2521,0.0],[18.3826,-34.2562,0.7893],[18.3807,-34.2582,0.8363],[18.3804,-34.2624,1.379],[18.3846,-34.266,2.7258],[18.3807,-34.2713,2.1201],[18.3899,-34.2779,5.8045],[18.3915,-34.2835,1.3403],[18.3979,-34.2893,5.5427],[18.4007,-34.2965,0.0],[18.4046,-34.3007,1.3049],[18.4057,-34.3065,11.4757],[18.4004,-34.3076,4.1473],[18.4004,-34.3088,0.1623],[18.4151,-34.3171,1.7898],[18.4176,-34.3224,1.1566],[18.4201,-34.3226,5.0561],[18.4221,-34.3265,3.0364],[18.4279,-34.3307,0.8843],[18.4312,-34.331,3.3646],[18.4435,-34.3371,0.6847],[18.4487,-34.336,12.3874],[18.4543,-34.3371,3.8786],[18.4582,-34.3404,5.4533],[18.4593,-34.344,5.5347],[18.4721,-34.354,1.548],[18.4746,-34.3585,0.0],[18.4804,-34.3576,0.0],[18.4796,-34.3557,0.0],[18.4821,-34.3546,0.0],[18.4979,-34.3585,0.0],[18.499,-34.3574,0.0],[18.4971,-34.3549,7.0075],[18.491,-34.3512,10.4983],[18.4882,-34.3476,0.0],[18.4826,-34.3476,13.3659],[18.4724,-34.3393,0.0],[18.4701,-34.3329,0.0],[18.4679,-34.3321,0.0],[18.4679,-34.3265,0.0],[18.4604,-34.3199,8.7396],[18.461,-34.3171,4.0932],[18.4657,-34.3162,0.3156],[18.4651,-34.314,0.809],[18.4615,-34.3132,7.4083],[18.461,-34.3107,11.0076],[18.4676,-34.2985,0.0],[18.4668,-34.2926,80.0594],[18.4754,-34.2799,22.2554],[18.4751,-34.2757,19.3941],[18.4688,-34.2713,19.068],[18.4671,-34.2674,95.8886],[18.4701,-34.2618,0.0],[18.4785,-34.2554,0.0145],[18.4757,-34.2435,0.0],[18.4762,-34.2412,0.2864],[18.4785,-34.2412,0.0],[18.4787,-34.239,0.0],[18.4762,-34.2376,0.0],[18.4768,-34.2354,0.0],[18.4749,-34.2343,20.6821],[18.476,-34.2301,0.0],[18.4724,-34.2301,19.6424],[18.4715,-34.2274,0.0],[18.4676,-34.2249,3.4704],[18.4629,-34.2082,1.2903],[18.4579,-34.2054,0.8441],[18.4568,-34.199,0.8946],[18.4529,-34.1979,0.733],[18.4512,-34.1949,0.0],[18.4465,-34.1937,8.6766],[18.4429,-34.1882,0.0],[18.4379,-34.1849,0.0],[18.4368,-34.1862,0.0],[18.4399,-34.1888,0.3378],[18.4418,-34.1885,0.0],[18.4407,-34.1907,0.0],[18.4385,-34.1888,0.3378],[18.4354,-34.1901,0.3705],[18.4363,-34.1868,0.0],[18.4343,-34.1862,0.0],[18.4338,-34.1896,0.0],[18.4307,-34.1918,2.2888],[18.4274,-34.1899,9.9966],[18.4254,-34.1862,2.3588],[18.4265,-34.1771,1.0344],[18.4338,-34.166,0.0],[18.4312,-34.1593,2.9775],[18.4368,-34.1582,0.0],[18.4374,-34.1546,2.0063],[18.4407,-34.1512,0.0],[18.4387,-34.144,0.0],[18.4321,-34.141,5.2407],[18.4321,-34.1387,5.9767],[18.4385,-34.134,0.0],[18.4385,-34.1324,3.7398],[18.4487,-34.1326,0.0],[18.4504,-34.1274,0.3321],[18.4665,-34.114,8.4429],[18.4701,-34.1082,0.846],[18.4946,-34.0988,4.9196],[18.5015,-34.0979,4.9416],[18.5032,-34.096,3.6719],[18.5179,-34.0946,0.0],[18.5482,-34.0882,2.9186],[18.5543,-34.0904,0.0],[18.5601,-34.0854,5.0464],[18.5987,-34.0771,5.1831],[18.6046,-34.0774,1.8327],[18.6115,-34.0749,4.7568],[18.6188,-34.0749,2.9859],[18.6196,-34.0765,0.0],[18.624,-34.074,10.4404],[18.6254,-34.0749,0.0],[18.6299,-34.0732,2.8557],[18.6632,-34.0729,25.3307],[18.6674,-34.074,0.0],[18.6693,-34.0726,12.0612],[18.6729,-34.0743,5.3792],[18.6776,-34.0735,8.0162],[18.6863,-34.0751,0.1982],[18.6876,-34.0724,6.0912],[18.7126,-34.0721,7.9059],[18.7646,-34.0796,0.7879],[18.7665,-34.0812,1.3131],[18.7685,-34.0804,0.7423],[18.7682,-34.0818,1.5927],[18.7846,-34.086,4.9619],[18.8132,-34.1007,1.8489],[18.8215,-34.1093,6.0018],[18.8232,-34.1162,0.0],[18.8307,-34.1204,2.263],[18.8312,-34.1246,0.0],[18.8396,-34.1312,0.9307],[18.841,-34.1349,0.0],[18.8446,-34.1374,5.752],[18.8446,-34.1399,0.1919],[18.8546,-34.1482,3.1362],[18.8551,-34.1518,0.0],[18.8651,-34.154,4.6016],[18.8679,-34.1576,0.4316],[18.8674,-34.161,0.0],[18.8632,-34.1629,0.0],[18.8579,-34.1629,0.0],[18.8585,-34.166,1.785],[18.8371,-34.1721,2.6345],[18.8288,-34.1768,1.8016],[18.8221,-34.1818,1.7129],[18.8176,-34.1893,7.4485],[18.8182,-34.1946,0.0],[18.8315,-34.2085,46.5402],[18.8307,-34.2104,0.0],[18.8324,-34.2115,0.0],[18.8321,-34.2149,7.6426],[18.8296,-34.2174,3.8983],[18.8524,-34.2376,31.177],[18.8532,-34.2421,10.0014],[18.8512,-34.2443,0.0],[18.8521,-34.2463,0.1167],[18.8546,-34.2468,20.7039],[18.8529,-34.2496,0.113],[18.8554,-34.251,7.5092],[18.851,-34.2657,0.6435],[18.8429,-34.2715,15.8065],[18.8304,-34.2757,3.1484],[18.8268,-34.2824,14.763],[18.8246,-34.2832,0.0],[18.8243,-34.2871,0.0],[18.8215,-34.2901,8.1712],[18.8204,-34.2946,0.0],[18.8226,-34.2996,3.2865],[18.821,-34.3004,8.9286],[18.8193,-34.2979,0.0],[18.8168,-34.299,4.4203],[18.8146,-34.296,0.0],[18.8121,-34.2976,0.0],[18.8121,-34.304,0.0],[18.8149,-34.3074,0.0],[18.8101,-34.3096,0.0],[18.8129,-34.3124,0.0],[18.8182,-34.3115,0.0],[18.8154,-34.3187,0.0],[18.8179,-34.324,1.4449],[18.821,-34.3262,0.3811],[18.8196,-34.3312,1.5279],[18.8243,-34.3368,0.0],[18.8304,-34.3393,4.7369],[18.8304,-34.3426,1.5863],[18.8274,-34.3457,4.4334],[18.8224,-34.3457,0.0],[18.8193,-34.3479,0.5025],[18.8118,-34.3474,0.0],[18.8093,-34.3493,1.3089],[18.816,-34.3554,0.0],[18.816,-34.3574,0.0],[18.8179,-34.3574,4.1578],[18.8157,-34.3585,0.0],[18.8151,-34.3657,0.1707],[18.8174,-34.3668,3.6342],[18.8193,-34.3737,0.5073],[18.8254,-34.3737,8.3751],[18.8268,-34.3774,0.2884],[18.8288,-34.3776,4.2995],[18.8282,-34.3818,6.0287],[18.8249,-34.3807,0.0],[18.8215,-34.3821,0.5368],[18.8276,-34.3843,6.6854],[18.8263,-34.3868,2.7405],[18.8274,-34.3887,0.0],[18.8296,-34.3896,0.0],[18.831,-34.3868,0.1261],[18.8363,-34.3876,0.2095],[18.8343,-34.3862,1.5127],[18.8346,-34.3846,1.5127],[18.8321,-34.3838,1.6749],[18.8312,-34.3807,3.5049],[18.8351,-34.3785,1.7117],[18.8376,-34.3796,0.0],[18.8388,-34.3776,2.4119],[18.8454,-34.3787,0.8168],[18.8463,-34.381,0.221],[18.8524,-34.3843,0.0],[18.8551,-34.3838,0.0],[18.8518,-34.3868,0.0],[18.8543,-34.391,-0.0365],[18.8621,-34.3893,-0.2722],[18.864,-34.391,0.0],[18.8635,-34.3854,0.0],[18.856,-34.3804,3.0912],[18.8565,-34.3774,0.0],[18.8596,-34.3771,0.0],[18.8626,-34.3713,0.0],[18.8724,-34.3688,1.376],[18.8762,-34.3696,0.0],[18.8818,-34.3749,0.0],[18.8868,-34.3754,0.0],[18.8862,-34.3732,0.0],[18.8899,-34.374,1.7948],[18.8907,-34.3757,0.0],[18.8968,-34.3754,0.0],[18.8951,-34.3724,1.5346],[18.8974,-34.3701,0.0],[18.8957,-34.3679,3.3216],[18.8996,-34.3704,0.0],[18.9054,-34.3682,0.0],[18.9057,-34.3668,0.0],[18.9018,-34.3635,0.5476],[18.9057,-34.3587,0.0],[18.911,-34.3574,7.1843],[18.9338,-34.359,0.0],[18.9349,-34.3565,0.0],[18.944,-34.3604,0.0],[18.9487,-34.359,7.6885],[18.9513,-34.3618,0.0],[18.9674,-34.364,0.0],[18.971,-34.3601,0.0],[18.9762,-34.3607,0.0],[18.9779,-34.3585,0.0],[18.9793,-34.359,0.0],[18.9799,-34.3543,0.2327],[18.9826,-34.3549,0.0],[18.9843,-34.3518,0.0],[18.9871,-34.3507,0.0],[18.9871,-34.349,1.4614],[18.9932,-34.3485,0.0],[18.9951,-34.3462,0.0],[18.9904,-34.3401,1.7393],[18.9904,-34.3371,3.8712],[18.9954,-34.3413,3.9361],[18.9954,-34.3432,0.0],[19.0029,-34.3465,0.0],[19.0163,-34.3482,0.0],[19.0251,-34.3457,2.7823],[19.0332,-34.3457,0.0964],[19.0354,-34.3488,0.0],[19.0376,-34.3476,0.0],[19.0365,-34.3457,0.0],[19.0379,-34.3451,0.0],[19.0376,-34.3413,0.0],[19.0443,-34.3413,0.0],[19.0807,-34.3568,2.7966],[19.0965,-34.3668,0.0],[19.099,-34.3613,0.0],[19.0954,-34.3557,0.1213],[19.0904,-34.3526,0.9407],[19.0912,-34.3501,0.2795],[19.0932,-34.3488,1.7303],[19.0985,-34.3493,1.0167],[19.1015,-34.3401,0.7466],[19.1046,-34.3363,0.9986],[19.1176,-34.3349,0.0],[19.1151,-34.3301,10.765],[19.1179,-34.326,1.2767],[19.1257,-34.3224,4.5737],[19.1304,-34.3232,0.0],[19.1346,-34.3201,0.0],[19.1385,-34.3207,0.0],[19.1382,-34.3157,0.0],[19.1396,-34.3151,0.0],[19.1426,-34.3215,8.4895],[19.1388,-34.3249,1.4532],[19.1371,-34.3296,5.926],[19.1282,-34.3304,0.0],[19.1276,-34.3335,0.0],[19.131,-34.3399,0.0],[19.1307,-34.3424,0.7078],[19.1235,-34.3488,0.0],[19.1304,-34.3535,0.0],[19.126,-34.356,0.0],[19.1182,-34.3537,0.0],[19.116,-34.3585,4.9304],[19.1118,-34.3599,0.0],[19.1126,-34.3643,0.0],[19.1029,-34.3646,0.0],[19.0993,-34.3685,0.0],[19.119,-34.3865,0.0],[19.1262,-34.3976,7.8427],[19.1257,-34.3993,13.3448],[19.1168,-34.4038,0.0],[19.1149,-34.4071,0.0],[19.1204,-34.4121,0.0],[19.1179,-34.4162,0.0],[19.1182,-34.4193,0.0],[19.1226,-34.4185,0.0],[19.1257,-34.4218,0.0],[19.1318,-34.4188,0.0],[19.1332,-34.4201,0.0],[19.1343,-34.4193,1.0391],[19.1385,-34.4246,0.0],[19.1479,-34.4246,0.0],[19.1518,-34.4226,1.6033],[19.1554,-34.4246,0.0],[19.161,-34.4193,2.9872],[19.1657,-34.4204,0.0],[19.1707,-34.4176,0.0],[19.1712,-34.4193,0.0],[19.1682,-34.421,0.0],[19.1699,-34.4232,0.0],[19.1804,-34.4201,0.0],[19.1824,-34.424,0.0],[19.1854,-34.4238,0.0],[19.1887,-34.4287,0.0],[19.1915,-34.4285,0.0],[19.1938,-34.4313,0.0],[19.204,-34.4287,8.4657],[19.2013,-34.434,0.0],[19.2018,-34.4357,0.0],[19.2057,-34.436,0.1653],[19.2076,-34.4382,0.0],[19.2201,-34.4393,0.0],[19.2271,-34.4351,0.0],[19.2285,-34.4304,5.3089],[19.2318,-34.4293,0.0],[19.2337,-34.4265,0.0],[19.2357,-34.4274,0.0],[19.2357,-34.4246,0.0],[19.2388,-34.4221,8.7973],[19.2415,-34.4251,0.0],[19.2437,-34.4246,0.0],[19.2454,-34.4185,5.026],[19.249,-34.4179,3.2038],[19.2526,-34.414,2.2362],[19.2551,-34.4151,0.0],[19.2665,-34.4101,0.0],[19.2707,-34.4107,0.0],[19.2735,-34.4093,1.4648],[19.2821,-34.4137,0.0],[19.2987,-34.4168,0.0],[19.3051,-34.4154,0.0],[19.3088,-34.4118,9.2518],[19.3132,-34.411,0.0],[19.3151,-34.4087,0.2494],[19.3182,-34.4101,0.0],[19.3204,-34.4085,0.0],[19.3257,-34.4096,0.0],[19.3312,-34.4082,0.0],[19.3399,-34.411,3.0085],[19.3465,-34.409,2.6595],[19.3626,-34.4107,0.0],[19.3813,-34.4096,0.0],[19.3868,-34.4146,0.0],[19.381,-34.4143,0.0],[19.3788,-34.4176,0.0],[19.3732,-34.4162,0.0],[19.3676,-34.4168,0.0],[19.3665,-34.4182,0.0],[19.361,-34.4171,0.0],[19.3596,-34.4207,0.0],[19.361,-34.4218,1.9921],[19.3546,-34.424,0.0],[19.3507,-34.4285,4.0017],[19.3426,-34.424,0.0],[19.3329,-34.4251,1.4944],[19.3296,-34.4218,0.0],[19.324,-34.4196,3.2448],[19.3229,-34.414,0.0],[19.3182,-34.4143,0.0],[19.3151,-34.4171,0.0],[19.3118,-34.416,0.0],[19.3088,-34.4174,0.0],[19.3082,-34.4232,1.4373],[19.3049,-34.4238,2.1002],[19.3332,-34.4501,1.9449],[19.3326,-34.4526,0.0],[19.336,-34.4543,4.3805],[19.3487,-34.4704,7.6098],[19.3515,-34.4762,0.0],[19.354,-34.4774,4.4585],[19.3618,-34.4932,1.1978],[19.364,-34.4949,4.3931],[19.3651,-34.501,2.0895],[19.3718,-34.5157,3.6361],[19.3713,-34.5193,3.1241],[19.3735,-34.5199,8.1532],[19.3729,-34.5235,2.889],[19.3749,-34.5271,4.7755],[19.3735,-34.5285,0.0],[19.3757,-34.5304,1.5992],[19.3746,-34.5337,0.0],[19.3785,-34.544,0.0],[19.3707,-34.5476,0.0],[19.3624,-34.556,4.3027],[19.3538,-34.5576,0.0],[19.3515,-34.5593,0.0],[19.3515,-34.5618,0.0],[19.349,-34.5612,0.0],[19.3512,-34.564,0.0],[19.3512,-34.5676,0.0],[19.3404,-34.5779,0.0],[19.3446,-34.5857,3.6522],[19.3379,-34.5854,0.0],[19.3374,-34.589,0.0],[19.3324,-34.5946,0.0],[19.331,-34.6021,0.0],[19.3288,-34.6032,0.0],[19.3288,-34.6085,1.3082],[19.324,-34.611,0.0],[19.3118,-34.611,0.0],[19.3037,-34.6138,0.0],[19.301,-34.6165,1.6476],[19.3018,-34.6196,2.4317],[19.2987,-34.6224,0.0],[19.2987,-34.6243,0.0],[19.2949,-34.6232,0.0],[19.2929,-34.626,0.0],[19.2899,-34.626,0.0],[19.2896,-34.6307,0.0],[19.2915,-34.6318,0.0],[19.2904,-34.6329,0.0],[19.2971,-34.6349,0.0],[19.299,-34.6332,0.0],[19.3057,-34.6335,0.0],[19.3099,-34.629,0.2844],[19.3137,-34.6285,0.0],[19.3149,-34.6249,9.7931],[19.3176,-34.6229,8.5601],[19.3221,-34.6265,0.0],[19.3312,-34.6246,0.0],[19.3351,-34.6249,0.0],[19.3354,-34.6268,0.0],[19.3382,-34.6274,0.0],[19.3499,-34.626,0.0],[19.3529,-34.624,0.0],[19.3551,-34.6185,0.0],[19.359,-34.6201,0.0],[19.3568,-34.616,0.8201],[19.3671,-34.6171,0.0],[19.371,-34.614,0.0],[19.3732,-34.6165,0.0],[19.3765,-34.6171,0.0],[19.381,-34.614,0.3467],[19.3829,-34.6151,0.0],[19.3824,-34.6168,0.0],[19.3857,-34.6171,0.0],[19.3893,-34.6157,0.0],[19.3885,-34.6137,0.0],[19.3904,-34.6124,0.0],[19.3946,-34.614,0.0],[19.3951,-34.6121,0.0],[19.3926,-34.6113,0.0],[19.3937,-34.6093,3.0558],[19.4093,-34.6049,0.1314],[19.4118,-34.6054,0.5682],[19.4179,-34.601,1.6986],[19.4238,-34.6007,0.0],[19.4282,-34.5985,0.0336],[19.4257,-34.6001,0.0],[19.4285,-34.601,0.116],[19.4243,-34.6012,0.0],[19.4199,-34.6043,0.1074],[19.4154,-34.6037,0.6183],[19.4112,-34.6071,0.5467],[19.4238,-34.6137,2.8871],[19.4338,-34.6235,2.6466],[19.439,-34.6315,0.0],[19.4407,-34.6399,6.3792],[19.446,-34.6482,0.0],[19.4454,-34.6512,0.0],[19.4485,-34.6529,0.1553],[19.4485,-34.6551,0.0],[19.4676,-34.661,3.3421],[19.4724,-34.6607,3.3648],[19.4735,-34.6624,0.8141],[19.4707,-34.6635,0.0],[19.4726,-34.6651,0.0],[19.4737,-34.664,0.0],[19.4762,-34.6654,0.0],[19.4782,-34.6635,0.0],[19.4876,-34.6635,0.0],[19.4888,-34.6668,0.0],[19.4912,-34.6685,0.0],[19.4957,-34.6671,0.0],[19.4979,-34.6688,0.0],[19.4932,-34.6701,0.0],[19.4949,-34.6726,0.0],[19.4976,-34.671,0.0],[19.5096,-34.6732,0.0],[19.5171,-34.6704,1.4825],[19.526,-34.6738,2.2196],[19.5318,-34.6807,1.9216],[19.5318,-34.6837,0.0],[19.5301,-34.6851,0.0],[19.531,-34.689,0.0],[19.5415,-34.6924,1.1635],[19.541,-34.6943,0.0],[19.5449,-34.6985,0.0],[19.5418,-34.701,0.0],[19.5443,-34.7032,0.0],[19.5518,-34.7035,0.5832],[19.5479,-34.706,0.0],[19.549,-34.7132,0.0],[19.559,-34.7115,0.0],[19.5635,-34.7135,0.0],[19.5662,-34.7157,1.0018],[19.5654,-34.7179,0.0],[19.5674,-34.7207,0.0],[19.5749,-34.721,4.7571],[19.569,-34.724,0.0],[19.5746,-34.7282,0.0],[19.5865,-34.7287,0.0],[19.5888,-34.7251,0.0],[19.5926,-34.7274,0.0],[19.5957,-34.7318,0.0],[19.5979,-34.7313,0.0],[19.601,-34.736,0.0],[19.5976,-34.7376,0.0],[19.6013,-34.7387,5.1718],[19.5982,-34.7393,0.0],[19.5965,-34.744,0.0],[19.6007,-34.7471,0.0],[19.5999,-34.7499,0.0],[19.6051,-34.7501,0.0],[19.6085,-34.7535,1.3759],[19.6082,-34.7571,0.0],[19.6096,-34.7588,0.0],[19.6157,-34.7588,0.0],[19.624,-34.7537,0.0],[19.6304,-34.7537,1.3956],[19.6332,-34.7554,7.769],[19.6407,-34.7685,0.0],[19.6421,-34.7754,0.0],[19.6399,-34.7782,0.0],[19.6357,-34.7785,0.0],[19.6321,-34.7821,0.0],[19.6285,-34.7829,0.0],[19.6321,-34.786,0.0],[19.6329,-34.784,0.0],[19.6371,-34.7821,0.0868],[19.6404,-34.7829,0.3637],[19.6451,-34.781,3.2498],[19.6549,-34.786,0.0],[19.6563,-34.7837,1.038],[19.6579,-34.7843,0.1603],[19.6571,-34.7863,0.0],[19.6521,-34.7882,0.0],[19.6349,-34.7876,0.0],[19.6387,-34.7915,0.0],[19.6449,-34.7887,0.0],[19.6535,-34.7915,0.0],[19.6585,-34.7899,0.0],[19.659,-34.7854,0.0],[19.6699,-34.7854,0.0],[19.6712,-34.7837,0.0],[19.6776,-34.7826,0.0],[19.6763,-34.7801,3.0173],[19.6737,-34.7799,12.6298],[19.6726,-34.7768,7.5279],[19.6779,-34.7729,3.3442],[19.6818,-34.7721,0.0],[19.6821,-34.7701,2.3322],[19.6849,-34.7693,2.1494],[19.6838,-34.7671,3.014],[19.6879,-34.766,0.0],[19.6876,-34.7646,0.0],[19.6904,-34.7626,4.8694],[19.7157,-34.7635,0.0],[19.729,-34.7674,2.1286],[19.7501,-34.7696,0.0],[19.7554,-34.7693,0.5467],[19.7615,-34.7651,1.5924],[19.7676,-34.764,2.8086],[19.7785,-34.7643,8.2438],[19.7996,-34.7679,1.245],[19.8068,-34.7674,0.0],[19.8101,-34.7643,0.2903],[19.8218,-34.7626,2.5465],[19.8276,-34.7663,0.0],[19.8343,-34.7657,5.1086],[19.8451,-34.7687,0.0],[19.8537,-34.7687,0.0],[19.8576,-34.766,3.5435],[19.8638,-34.7682,0.0],[19.8751,-34.7668,1.0051],[19.8865,-34.7724,1.8937],[19.8907,-34.7821,0.0],[19.9051,-34.7846,0.0],[19.9076,-34.7879,2.6311],[19.9263,-34.7993,15.6374],[19.9363,-34.8082,0.0],[19.9363,-34.8099,0.1284],[19.9343,-34.8107,0.0],[19.9351,-34.8118,0.0],[19.9404,-34.8129,0.0],[19.9401,-34.814,0.0],[19.9337,-34.8135,0.0],[19.934,-34.8157,0.0],[19.9374,-34.8157,0.0],[19.9387,-34.8185,0.0],[19.9435,-34.819,0.0],[19.9438,-34.8154,1.6496],[19.9465,-34.8143,4.6949],[19.956,-34.8157,0.0],[19.9562,-34.819,0.0],[19.9587,-34.8196,-0.034],[19.959,-34.8224,0.0],[19.9646,-34.8215,0.0193],[19.9682,-34.8237,2.4887],[19.9682,-34.8251,0.3885],[19.965699999999998,-34.8249,0.0],[19.965699999999998,-34.8265,0.0],[19.9737,-34.8249,0.1044],[19.9713,-34.8257,0.0],[19.9715,-34.8276,0.0],[19.9735,-34.8262,0.1044],[19.9788,-34.8293,0.0465],[19.9849,-34.8299,0.4332],[19.984,-34.8321,0.0],[19.9893,-34.8335,0.0],[19.9901,-34.8351,0.0],[19.9918,-34.8326,2.1765],[19.9965,-34.8338,0.0],[20.0063,-34.8335,0.0],[20.0079,-34.8318,1.1298],[20.0129,-34.8329,0.1218],[20.0143,-34.8318,0.1218],[20.0118,-34.8288,0.648],[20.0179,-34.8262,-0.0758],[20.0151,-34.824,4.6854],[20.0279,-34.8249,0.0],[20.0296,-34.8213,0.0],[20.028199999999998,-34.8176,0.7355],[20.0307,-34.8168,0.0],[20.0301,-34.8146,0.0],[20.0551,-34.8146,0.0],[20.0593,-34.8126,0.0766],[20.0585,-34.809,0.1127],[20.0604,-34.8093,0.0],[20.0662,-34.8043,0.0],[20.0624,-34.8015,0.1509],[20.0637,-34.8001,0.0],[20.0593,-34.8004,1.2887],[20.056,-34.7979,0.0],[20.0524,-34.7988,2.9423],[20.0501,-34.7965,2.1525],[20.0499,-34.7929,0.0],[20.0471,-34.7887,1.6942],[20.0493,-34.7699,0.0],[20.0588,-34.7554,0.0],[20.0718,-34.7426,2.5295],[20.0826,-34.7349,0.0],[20.0829,-34.7332,0.0],[20.101,-34.7226,3.4768],[20.1162,-34.716,0.0603],[20.1113,-34.7121,0.1954],[20.1043,-34.7118,7.3796],[20.1026,-34.7088,1.0846],[20.0937,-34.7124,0.0],[20.0926,-34.7115,0.4475],[20.1029,-34.7076,0.7042],[20.1051,-34.7113,7.3796],[20.1218,-34.7104,0.6846],[20.1229,-34.7124,0.8103],[20.1651,-34.6954,3.2588],[20.1901,-34.6904,4.9873],[20.231,-34.6874,4.4249],[20.2346,-34.684,3.0497],[20.2335,-34.6746,0.0],[20.2357,-34.6707,0.0],[20.2332,-34.6671,0.0],[20.2343,-34.6626,0.0],[20.2332,-34.6604,0.633],[20.2374,-34.6568,0.0],[20.2368,-34.6554,8.9924],[20.2396,-34.6538,0.0],[20.241,-34.6501,0.0],[20.2439,-34.6487,0.0]]],
[[[19.4182,-34.689,0.0],[19.4165,-34.6876,0.0],[19.4112,-34.6896,0.0],[19.4146,-34.6907,0.0],[19.4182,-34.689,0.0]]],
[[[19.4226,-34.6804,0.0],[19.421,-34.6804,0.0],[19.421,-34.679,0.0],[19.4185,-34.6799,0.0],[19.4115,-34.6857,0.0],[19.4146,-34.6865,0.0],[19.4204,-34.6821,0.0],[19.4221,-34.6826,0.0],[19.4226,-34.6804,0.0]]],
[[[18.5851,-34.1362,0.0],[18.5818,-34.1354,0.0],[18.5829,-34.141,0.0],[18.5849,-34.1399,0.0],[18.5838,-34.1376,0.9377],[18.5854,-34.1379,0.0],[18.5851,-34.1362,0.0]]],
[[[18.4407,-33.9043,0.0],[18.4385,-33.9029,0.0],[18.4387,-33.9057,0.0],[18.4421,-33.9049,0.0],[18.444,-33.9063,0.0],[18.4449,-33.9051,0.3816],[18.4429,-33.904,0.0],[18.4407,-33.9043,0.0]]],
[[[18.3707,-33.7901,0.0],[18.3682,-33.7887,0.0],[18.3618,-33.7899,0.0],[18.354,-33.8012,0.0],[18.359,-33.8049,1.0407],[18.361,-33.8162,0.0],[18.3693,-33.8215,0.0],[18.374,-33.8215,0.0],[18.3751,-33.8196,0.0],[18.3829,-33.8179,0.0],[18.3838,-33.8138,0.0],[18.3832,-33.8104,0.0],[18.3768,-33.8015,0.0],[18.3793,-33.7985,0.0],[18.379,-33.7965,0.0],[18.374,-33.7957,0.845],[18.3751,-33.7929,0.0],[18.3707,-33.7901,0.0]]],
[[[18.4013,-33.6468,0.0],[18.401,-33.644,0.0],[18.399,-33.6437,0.0],[18.399,-33.6463,0.0],[18.4013,-33.6468,0.0]]],
[[[18.4554,-33.7971,0.1048],[18.454,-33.7954,0.0],[18.4529,-33.7957,0.0],[18.4546,-33.7985,0.0],[18.4554,-33.7971,0.1048]]],
[[[18.0751,-33.4129,0.0],[18.074,-33.4101,0.0],[18.0718,-33.4107,0.0],[18.0721,-33.4182,0.0],[18.0746,-33.419,1.0619],[18.0774,-33.4238,0.0],[18.0838,-33.4287,0.0],[18.084,-33.4299,0.4463],[18.0804,-33.4315,0.9738],[18.0826,-33.4343,0.0],[18.089,-33.4351,0.0],[18.0949,-33.4335,0.0],[18.0949,-33.4318,0.0],[18.0987,-33.4329,0.1908],[18.0993,-33.4299,0.0],[18.0968,-33.4285,3.0961],[18.0976,-33.4257,0.4032],[18.0921,-33.4212,0.0],[18.0901,-33.4135,0.0],[18.0879,-33.4132,0.0],[18.0857,-33.4182,1.4915],[18.0829,-33.4188,1.0914],[18.0751,-33.4129,0.0]]],
[[[18.1051,-33.1874,0.0],[18.0976,-33.1857,0.0],[18.1021,-33.1926,0.0666],[18.1043,-33.1921,0.0],[18.1051,-33.1882,0.0],[18.1074,-33.1885,0.0],[18.1051,-33.1874,0.0]]],
[[[17.9849,-33.1554,0.0],[17.9868,-33.1546,0.0],[17.9874,-33.151,0.0],[17.9799,-33.151,0.0],[17.9779,-33.1524,0.0],[17.9826,-33.1557,0.0],[17.9849,-33.1554,0.0]]],
[[[18.0235,-33.0893,0.0],[18.0199,-33.0882,2.012],[18.0174,-33.0929,0.0],[18.019,-33.0943,4.0777],[18.0237,-33.0943,1.5939],[18.0263,-33.0901,1.0857],[18.0235,-33.0893,0.0]]],
[[[18.0101,-33.0846,5.8037],[18.0068,-33.084,0.0],[18.006,-33.0854,0.0],[18.011,-33.0871,0.0],[18.0101,-33.0846,5.8037]]],
[[[17.9529,-33.0788,0.0],[17.9499,-33.0779,0.0],[17.9496,-33.0826,0.0],[17.9546,-33.0879,0.0],[17.9562,-33.0879,1.4003],[17.9596,-33.0854,0.0],[17.9599,-33.0835,0.0],[17.9529,-33.0788,0.0]]],
[[[17.9268,-33.0507,0.0],[17.9226,-33.0501,0.0],[17.9224,-33.0549,0.0],[17.926,-33.056,0.0],[17.929,-33.0537,0.0],[17.9268,-33.0507,0.0]]],
[[[17.929,-33.0496,0.0],[17.9287,-33.0479,0.0],[17.9257,-33.0482,0.0],[17.9257,-33.0493,0.0],[17.929,-33.0496,0.0]]],
[[[17.8887,-32.7438,0.0],[17.889,-32.741,0.0],[17.8835,-32.7418,0.0],[17.8868,-32.744,0.0],[17.8887,-32.7438,0.0]]],
[[[17.8829,-32.7404,0.0],[17.884,-32.7379,0.0],[17.8793,-32.7396,0.4861],[17.8796,-32.7404,0.4861],[17.8829,-32.7404,0.0]]],
[[[17.871,-32.7376,0.0],[17.8699,-32.7363,0.0],[17.8671,-32.7368,0.0],[17.8721,-32.7401,0.0],[17.8729,-32.7385,0.0],[17.871,-32.7376,0.0]]],
[[[17.8793,-32.7379,0.0],[17.8807,-32.7357,0.0],[17.8754,-32.736,0.0],[17.8757,-32.7376,0.0],[17.8793,-32.7379,0.0]]],
[[[23.0346,-34.0518,0.0],[23.036,-34.0518,0.0],[23.0362,-34.0499,0.0],[23.0354,-34.0496,0.0],[23.0346,-34.0518,0.0]]],
[[[23.0657,-34.0432,0.0],[23.064,-34.041,0.0],[23.0593,-34.041,0.0],[23.0521,-34.0446,0.0],[23.0462,-34.0446,0.0],[23.0462,-34.0546,0.0],[23.0537,-34.0557,0.0],[23.0557,-34.0535,0.0],[23.061,-34.0521,0.0],[23.0654,-34.0462,0.0],[23.0657,-34.0432,0.0]]],
[[[23.4007,-34.0157,0.0704],[23.4026,-34.0129,0.5359],[23.4026,-34.0074,0.99],[23.401,-34.0046,2.1769],[23.3971,-34.0146,0.0],[23.3976,-34.0168,0.0],[23.4007,-34.0157,0.0704]]],
[[[22.7699,-34.0146,1.3499],[22.7682,-34.0118,0.0],[22.7654,-34.0121,0.0],[22.7676,-34.0137,0.0],[22.7679,-34.0163,0.1002],[22.7699,-34.0146,1.3499]]]]}
,"properties": {"GID_1": "ZAF.9_1","GID_0": "ZAF","country": "SouthAfrica","province": "WesternCape","VARNAME_1": "Wes-Kaap","NL_NAME_1": "NA","TYPE_1": "Provinsie","ENGTYPE_1": "Province","CC_1": "WC","HASC_1": "ZA.WC","ISO_1": "ZA-WC","name": "Western_Cape.province","area_km2": 129538.49,"hist_schema_id": "Elevation0-9000","hist_area_km2": {"0": 1809.28,"25": 2871.74,"50": 3199.29,"75": 3949.29,"100": 4411.17,"125": 4395.3,"150": 4327.94,"175": 4184.74,"200": 3915.6,"225": 3461.03,"250": 2970.91,"275": 2574.45,"300": 2448.69,"325": 2310.98,"350": 2190.27,"375": 2100.64,"400": 2021.49,"425": 2042.56,"450": 2018.41,"475": 1932.36,"500": 1875.13,"525": 1924.85,"550": 1991.97,"575": 2075.03,"600": 2194.59,"625": 2324.84,"650": 2358.85,"675": 2391.64,"700": 2354.29,"725": 2308.16,"750": 2192.27,"775": 2216.38,"800": 2516.24,"825": 2822.37,"850": 3053.18,"875": 3133.15,"900": 2608.01,"925": 2283.71,"950": 2186.1,"975": 2147.9,"1000": 1972.81,"1025": 1753.33,"1050": 1593.03,"1075": 1355.99,"1100": 1243.96,"1125": 1182.69,"1150": 1170.04,"1175": 1060.39,"1200": 987.29,"1225": 894.43,"1250": 785.9,"1275": 684.58,"1300": 612.77,"1325": 586.48,"1350": 583.05,"1375": 596.06,"1400": 623.25,"1425": 753.41,"1450": 753.79,"1475": 631.9,"1500": 516.78,"1525": 441.19,"1550": 386.97,"1575": 350.48,"1600": 328.55,"1625": 283.61,"1650": 253.34,"1675": 205.44,"1700": 171.96,"1725": 140.43,"1750": 116.16,"1775": 94.47,"1800": 78.36,"1825": 59.87,"1850": 42.33,"1875": 31.02,"1900": 24.61,"1925": 17.92,"1950": 13.81,"1975": 10.45,"2000": 9.62,"2025": 7.07,"2050": 6.54,"2075": 7.84,"2100": 7.54,"2125": 4.1,"2150": 2.91,"2175": 2.85,"2200": 1.31}}}