{"type":"Feature","properties":{"ISO3166-1-Alpha-3":"ZAF","country":"South Africa","fill":"#F0F","id":"1189","name":"Western Cape"},
"geometry":{"type": "MultiPolygon","coordinates": [[[[37.86378,-46.94085,66.7555],[37.88494,-46.91644,34.191],[37.89576,-46.88991,0.0],[37.86842,-46.88209,11.0781],[37.82106,-46.84417,0.0],[37.72853,-46.82529,0.0],[37.69483,-46.82204,0.0],[37.66245,-46.82855,0.0],[37.65235,-46.83611,0.0],[37.63111,-46.85858,0.0],[37.62485,-46.86338,0.0],[37.61541,-46.86875,0.0],[37.5936,-46.89202,0.0],[37.57537,-46.9035,0.0],[37.57667,-46.91676,0.0],[37.58253,-46.93076,0.0],[37.58741,-46.93841,32.4372],[37.60206,-46.94866,91.3655],[37.61883,-46.95436,304.5815],[37.65504,-46.95827,294.2845],[37.67018,-46.95599,342.4363],[37.7811,-46.95941,315.382],[37.79811,-46.96453,190.6],[37.80649,-46.96575,117.8417],[37.83644,-46.95867,139.9881],[37.86378,-46.94085,66.7555]]],
[[[37.97641,-46.64471,173.4059],[37.97779,-46.61566,0.0],[37.94557,-46.59832,0.0],[37.9004,-46.5997,0.0],[37.86492,-46.61419,0.0],[37.86109,-46.63616,0.0],[37.89112,-46.64967,0.0],[37.93865,-46.65439,227.8728],[37.97641,-46.64471,173.4059]]],
[[[18.63094,-30.5184,948.0026],[18.56081,-30.47075,1030.7461],[18.50712,-30.47566,1030.6138],[18.47859,-30.49685,632.3643],[18.46428,-30.5263,706.6228],[18.41059,-30.49995,591.7921],[18.39338,-30.53152,907.0269],[18.36222,-30.57751,742.2859],[18.33628,-30.65441,604.4347],[18.29452,-30.72221,435.413],[18.24719,-30.78282,437.2881],[18.20037,-30.80603,293.0415],[18.15691,-30.82168,316.6558],[18.1198,-30.80758,207.2119],[18.09453,-30.79517,351.2117],[18.07448,-30.78257,384.1501],[18.05836,-30.77652,301.2719],[18.04301,-30.77383,238.938],[18.02405,-30.77507,179.5746],[18.00296,-30.79042,219.4615],[17.97459,-30.81631,143.2018],[17.95098,-30.88618,184.1752],[17.89155,-30.93429,167.8093],[17.8776,-31.00632,306.1389],[17.8284,-31.06296,163.8587],[17.82065,-31.16957,95.1097],[17.76742,-31.15588,23.7402],[17.76711,-31.15581,23.7402],[17.80437,-31.20859,0.0],[17.80974,-31.22161,0.0],[17.81861,-31.23211,0.0],[17.85939,-31.26035,0.0],[17.87184,-31.27288,0.0],[17.8838,-31.32008,18.5409],[17.89373,-31.34482,0.0],[17.92221,-31.36395,26.0134],[17.96119,-31.41619,14.4865],[17.99415,-31.44134,36.1595],[18.00945,-31.45664,54.5604],[18.0158,-31.47487,29.3792],[18.02329,-31.49041,0.0],[18.07106,-31.53346,0.0],[18.11671,-31.59059,0.1025],[18.11883,-31.59808,33.7613],[18.12623,-31.61224,0.0],[18.17286,-31.66326,87.6207],[18.19679,-31.69736,0.447],[18.21372,-31.73065,35.5033],[18.23487,-31.80047,35.056],[18.23585,-31.81113,16.6198],[18.23487,-31.81911,8.9584],[18.23569,-31.82806,0.0],[18.24171,-31.8414,0.0],[18.2531,-31.85833,0.0],[18.26564,-31.87233,0.0],[18.27687,-31.89267,0.0],[18.27833,-31.91375,17.4065],[18.27589,-31.95745,7.9123],[18.28175,-31.97918,0.0],[18.29949,-32.02264,21.0829],[18.31072,-32.12949,19.3154],[18.34938,-32.26035,7.3704],[18.34474,-32.30071,4.4386],[18.32106,-32.32733,39.2674],[18.31544,-32.34368,0.0],[18.3274,-32.36614,7.0106],[18.33318,-32.38201,6.8483],[18.3379,-32.45159,2.133],[18.33416,-32.49131,7.5859],[18.3108,-32.57285,0.0],[18.2964,-32.60858,8.9935],[18.27312,-32.64756,5.4027],[18.15211,-32.75123,0.0],[18.11883,-32.77304,0.0],[18.08058,-32.78135,8.8047],[18.03745,-32.76678,17.7846],[17.98658,-32.72698,0.0],[17.97486,-32.71217,24.3855],[17.98227,-32.70477,0.0],[17.96746,-32.70355,6.1712],[17.94337,-32.70827,0.0],[17.91969,-32.71657,0.0065],[17.90594,-32.72584,0.0],[17.90268,-32.73838,5.1915],[17.90358,-32.76922,0.0],[17.90284,-32.77703,0.0],[17.89942,-32.78395,0.0],[17.8991,-32.78924,0.0],[17.89731,-32.79274,0.0],[17.88917,-32.79412,0.0],[17.88356,-32.79664,0.0],[17.86817,-32.8082,0.0],[17.865,-32.81121,0.0],[17.86183,-32.8152,0.0],[17.85515,-32.81471,0.0],[17.84783,-32.81341,0.0],[17.84392,-32.81463,0.0],[17.84303,-32.82334,0.0],[17.84685,-32.82708,3.9055],[17.85239,-32.82969,32.0738],[17.8755,-32.85589,0.0],[17.88103,-32.86761,15.429],[17.87525,-32.87982,0.0],[17.86508,-32.89056,2.8413],[17.86166,-32.89902,0.0],[17.86248,-32.90716,31.9743],[17.8685,-32.92929,0.0],[17.88071,-32.95818,0.0],[17.88551,-32.96608,0.1644],[17.87859,-32.98154,0.0],[17.88209,-32.99261,18.4218],[17.88901,-33.00156,2.8525],[17.89283,-33.01019,0.0],[17.8934,-33.01719,0.0],[17.89584,-33.02646,0.0],[17.90187,-33.03688,2.9079],[17.91277,-33.04746,7.5377],[17.9323,-33.03436,6.0975],[17.94272,-33.02996,0.0],[17.95493,-33.02752,38.2213],[17.94972,-33.02223,0.6023],[17.94068,-33.00644,13.6253],[17.97055,-33.00237,0.0],[17.99952,-33.00449,5.7823],[18.0232,-33.01434,39.1293],[18.03745,-33.03379,12.8855],[18.04054,-33.04852,0.0],[18.03745,-33.09173,15.8926],[18.04086,-33.10166,43.3514],[18.04908,-33.11142,17.2174],[18.07106,-33.12998,12.238],[18.07594,-33.13201,22.0477],[18.08717,-33.13307,16.554],[18.09156,-33.13551,28.3686],[18.09449,-33.14227,11.1994],[18.09653,-33.15911,0.6673],[18.10182,-33.16758,0.2676],[18.12338,-33.18613,0.0],[18.12745,-33.19736,1.5301],[18.11199,-33.20501,0.3647],[18.09913,-33.20094,0.0],[18.08611,-33.18939,22.7138],[18.06764,-33.16758,0.0],[18.04021,-33.1491,0.0],[18.03297,-33.14088,0.0],[18.03745,-33.12998,0.0],[18.02605,-33.12347,0.0],[18.01922,-33.11403,0.0],[18.01368,-33.1032,0.0],[18.00587,-33.09173,0.0],[17.99529,-33.08815,1.0233],[17.98048,-33.09124,4.4255],[17.95493,-33.10198,0.0],[17.96664,-33.11582,0.0],[17.97779,-33.13421,10.6501],[17.99171,-33.15032,0.0],[18.01238,-33.15732,0.0],[18.02931,-33.16497,16.1141],[18.07521,-33.20224,23.8556],[18.08473,-33.21526,17.793],[18.08774,-33.22584,0.0],[18.11199,-33.25351,0.0],[18.12501,-33.28004,0.0],[18.15016,-33.31927,0.0],[18.15602,-33.33904,0.0],[18.14617,-33.35589,0.0],[18.25416,-33.41937,19.2037],[18.28273,-33.44525,25.6694],[18.30738,-33.47926,20.9934],[18.3143,-33.49651,1.4075],[18.31691,-33.51727,0.0],[18.31691,-33.55853,23.3372],[18.32032,-33.56748,23.9804],[18.3283,-33.57342,0.0],[18.34474,-33.58245,0.0],[18.39096,-33.62949,0.0],[18.40008,-33.6334,0.0],[18.40561,-33.65293,0.0],[18.43181,-33.69671,0.0],[18.45834,-33.78525,24.6577],[18.46079,-33.80495,0.0],[18.4651,-33.81797,0.0],[18.48439,-33.84393,0.0],[18.48878,-33.86297,0.0],[18.47535,-33.89983,0.0],[18.44304,-33.90407,0.0],[18.40455,-33.90325,7.3223],[18.37208,-33.92506,0.0],[18.36256,-33.94647,0.0],[18.35182,-33.98219,0.0],[18.3379,-34.00075,0.0],[18.32309,-34.01588,0.0],[18.31479,-34.02907,1.9051],[18.31617,-34.04355,63.4236],[18.33041,-34.06219,0.0],[18.3379,-34.05828,216.7804],[18.34376,-34.05657,19.0843],[18.35841,-34.05478,0.0],[18.35141,-34.06561,0.0],[18.34718,-34.07545,0.0],[18.34523,-34.08611,0.0],[18.34474,-34.09979,0.0],[18.34132,-34.11468,0.0],[18.33351,-34.11989,0.0],[18.32423,-34.12265,0.0],[18.31691,-34.13055,0.0],[18.31381,-34.14463,0.0],[18.31625,-34.15748,0.0],[18.32545,-34.16717,0.0],[18.35434,-34.17539,152.3488],[18.36248,-34.18621,11.0149],[18.37208,-34.2125,4.6458],[18.37477,-34.21453,22.3288],[18.37957,-34.2164,152.6166],[18.3838,-34.21868,203.2524],[18.38575,-34.22234,145.5311],[18.38461,-34.23016,8.3982],[18.38006,-34.24391,5.9938],[18.37892,-34.25026,1.7641],[18.38217,-34.26214,6.1682],[18.40626,-34.30185,9.1182],[18.4214,-34.31845,82.217],[18.44516,-34.33652,0.2966],[18.47006,-34.34743,99.1768],[18.48878,-34.34271,0.0],[18.47169,-34.33172,0.0],[18.46762,-34.31129,0.0],[18.47657,-34.24505,0.0],[18.47592,-34.23594,0.0],[18.47446,-34.22617,0.0],[18.46079,-34.1845,0.0],[18.45436,-34.17791,0.0],[18.44776,-34.1736,0.0],[18.44272,-34.16815,0.0],[18.44028,-34.15781,0.0],[18.44166,-34.14422,0.0],[18.44606,-34.13714,0.0],[18.46079,-34.12428,0.0],[18.47006,-34.11403,0.0],[18.47836,-34.10687,0.0],[18.49562,-34.09637,5.1508],[18.53175,-34.08392,17.3373],[18.54029,-34.07903,19.0922],[18.55502,-34.07383,22.5919],[18.64723,-34.07,51.1336],[18.74073,-34.07741,0.0],[18.80006,-34.08953,15.5108],[18.81617,-34.0971,5.0008],[18.85816,-34.15032,3.0366],[18.84506,-34.16766,0.0],[18.83139,-34.17588,0.0],[18.82252,-34.18499,87.7107],[18.8239,-34.20566,0.0],[18.83823,-34.23968,0.0],[18.83969,-34.25433,0.0],[18.83139,-34.27386,0.0],[18.82423,-34.2824,0.0],[18.81837,-34.28607,0.0],[18.81373,-34.29079,0.0],[18.81031,-34.30185,0.0],[18.81088,-34.30975,0.3641],[18.81764,-34.34271,0.0],[18.80942,-34.35491,0.0],[18.80828,-34.36468,0.0],[18.81764,-34.37689,0.0],[18.827,-34.38177,5.0713],[18.83823,-34.38388,0.0],[18.84791,-34.38161,0.0],[18.8519,-34.37347,14.1444],[18.87289,-34.36191,14.0719],[18.97023,-34.34824,176.9283],[18.99903,-34.33929,27.8122],[19.01197,-34.33856,33.5835],[19.08839,-34.34271,6.887],[19.09897,-34.33554,7.616],[19.12257,-34.30267,171.4948],[19.1399,-34.29437,91.957],[19.12957,-34.31707,36.6172],[19.12289,-34.33799,0.0],[19.11101,-34.35263,0.0],[19.08522,-34.35654,1.5481],[19.08522,-34.36338,0.0],[19.10108,-34.37233,0.0],[19.11931,-34.40057,0.0],[19.13307,-34.41172,63.152],[19.14649,-34.41497,43.8619],[19.20777,-34.41855,31.3128],[19.27768,-34.40651,21.219],[19.29038,-34.40911,51.5049],[19.30437,-34.4179,0.0],[19.3239,-34.43865,3.9489],[19.34441,-34.46844,0.0],[19.3602,-34.50042,0.0],[19.36508,-34.52776,0.0],[19.36012,-34.53867,0.0],[19.30063,-34.60662,0.0],[19.29689,-34.61777,0.0],[19.30551,-34.61273,0.0],[19.31422,-34.61094,0.0],[19.32301,-34.61248,30.4498],[19.33172,-34.61777,21.4607],[19.35076,-34.60491,25.4152],[19.37477,-34.5993,31.8969],[19.39869,-34.60182,11.0513],[19.41733,-34.61403,0.0],[19.43295,-34.62998,0.0],[19.4485,-34.64007,17.6998],[19.49969,-34.66424,11.3517],[19.57602,-34.72796,0.0],[19.62648,-34.75368,0.0],[19.63111,-34.75888,0.0],[19.63575,-34.76588,0.0],[19.64243,-34.77207,7.486],[19.65317,-34.7741,33.4193],[19.667,-34.77044,23.3093],[19.6836,-34.75661,16.5529],[19.69809,-34.75368,11.4203],[19.85841,-34.74969,239.4228],[19.87599,-34.75742,39.4924],[19.89047,-34.76971,8.6593],[19.95346,-34.80869,42.4278],[19.96795,-34.8152,85.8686],[19.98357,-34.82008,67.0627],[19.99928,-34.82195,56.9108],[20.01564,-34.81894,88.4237],[20.04176,-34.80511,32.1892],[20.05787,-34.80145,5.3473],[20.05787,-34.79518,0.0],[20.04444,-34.76832,2.9244],[20.0726,-34.73691,3.0108],[20.14666,-34.69215,30.5491],[20.18727,-34.67742,16.7803],[20.21168,-34.67205,27.0766],[20.22242,-34.67506,50.1975],[20.22853,-34.65781,13.9784],[20.24334,-34.64105,13.5917],[20.26149,-34.62705,34.8436],[20.2776,-34.61777,32.8811],[20.31007,-34.60719,15.3037],[20.31861,-34.60345,17.6165],[20.32887,-34.59401,17.3542],[20.33432,-34.58522,21.6474],[20.34116,-34.57871,13.6975],[20.35548,-34.5761,20.5441],[20.37452,-34.56976,23.7025],[20.39324,-34.55478,38.917],[20.44801,-34.49334,38.7416],[20.48268,-34.47047,72.6179],[20.52442,-34.45428,57.6752],[20.66432,-34.43841,189.1541],[20.84108,-34.46502,99.5121],[20.85987,-34.45875,69.0903],[20.86817,-34.43792,49.5514],[20.85613,-34.41692,0.0],[20.8322,-34.40179,0.0],[20.80519,-34.39804,28.4019],[20.82374,-34.39031,35.4158],[20.88087,-34.37689,57.2182],[20.87355,-34.37689,75.9976],[20.91342,-34.36045,119.2505],[20.96127,-34.35605,114.9106],[21.05836,-34.36338,136.5696],[21.0984,-34.37078,122.1602],[21.26246,-34.42156,101.5232],[21.30592,-34.42457,166.1086],[21.34897,-34.4192,45.208],[21.41554,-34.39495,0.0],[21.42213,-34.39056,18.0314],[21.4275,-34.38454,0.0],[21.4319,-34.37786,0.0],[21.43898,-34.37233,0.0],[21.47413,-34.36679,0.0],[21.51588,-34.35223,15.3134],[21.53761,-34.34889,94.11],[21.55974,-34.35345,77.6592],[21.59718,-34.37265,0.0],[21.70265,-34.39056,56.3995],[21.7461,-34.38836,0.0],[21.78875,-34.38128,0.7779],[21.8296,-34.36858,51.1306],[21.88868,-34.33961,49.4195],[21.89454,-34.33603,58.7123],[21.91432,-34.30682,69.3105],[21.92384,-34.29567,71.9885],[21.91871,-34.26295,0.0],[21.92172,-34.24668,76.7648],[21.94695,-34.22373,33.4296],[21.98406,-34.21014,88.779],[22.11411,-34.19394,171.0965],[22.13404,-34.18808,129.4986],[22.14772,-34.17832,0.0],[22.12989,-34.16969,0.0],[22.11541,-34.15781,0.0],[22.11101,-34.14153,17.739],[22.12355,-34.12054,4.2356],[22.15284,-34.09368,0.0],[22.1692,-34.08318,0.0],[22.18922,-34.07529,0.0],[22.27516,-34.05771,0.0],[22.31707,-34.0569,0.0],[22.41049,-34.06561,0.0],[22.45541,-34.05706,0.0],[22.49586,-34.03924,128.4368],[22.5477,-34.00359,33.7504],[22.56398,-33.99725,0.0],[22.58367,-33.99407,3.0569],[22.60987,-33.99334,3.3958],[22.62989,-33.99578,1.0002],[22.74252,-34.0289,0.0],[22.76677,-34.03289,0.0],[22.78517,-34.02752,8.1596],[22.76889,-34.02142,88.0364],[22.75318,-34.00954,6.4233],[22.73992,-33.99472,0.0],[22.73048,-33.97967,3.2739],[22.77459,-33.98358,41.3061],[22.79672,-33.98952,77.4933],[22.81251,-34.00075,0.0],[22.79721,-34.00058,0.053],[22.79054,-34.00433,124.533],[22.78981,-34.01133,1.1906],[22.792,-34.02068,5.5237],[22.80014,-34.03558,0.0],[22.81137,-34.04176,0.0],[22.82423,-34.04518,0.0],[22.85621,-34.06178,0.0],[22.93605,-34.0827,0.0],[22.95151,-34.08392,0.0],[22.96209,-34.08131,32.3695],[22.97169,-34.07773,44.1412],[22.98455,-34.07529,0.0],[23.01222,-34.07741,0.0],[23.02622,-34.08099,0.0],[23.03224,-34.08611,0.0],[23.03891,-34.07977,0.0],[23.03875,-34.07244,201.976],[23.02882,-34.05853,2.5437],[23.01873,-34.05169,0.0],[23.00904,-34.04852,0.0],[23.00164,-34.04258,1.9726],[22.99806,-34.02752,1.8437],[23.00652,-34.03509,0.0],[23.01889,-34.03916,2.4847],[23.049,-34.04111,3.0628],[23.05152,-34.04762,2.7925],[23.05747,-34.07627,8.4945],[23.06284,-34.0827,6.0298],[23.40838,-34.11004,0.0],[23.40838,-34.1032,0.0],[23.38559,-34.10027,22.3787],[23.36793,-34.0866,3.9378],[23.36118,-34.06666,12.3191],[23.37086,-34.04485,3.4597],[23.38689,-34.03118,2.8723],[23.4061,-34.02044,17.0862],[23.42758,-34.01238,7.1278],[23.58855,-33.98122,104.9179],[23.63551,-33.97967,82.9432],[23.63993,-33.98054,73.5564],[23.63993,-33.98046,73.5564],[23.639,-33.94888,208.5735],[23.63993,-33.93493,157.3672],[23.68675,-33.87204,860.2349],[23.5634,-33.82171,942.7941],[23.54418,-33.79633,1120.9709],[23.50692,-33.78378,895.5212],[23.48227,-33.78021,793.0583],[23.4571,-33.78801,1043.8835],[23.36651,-33.78073,1055.7292],[23.40387,-33.74724,815.4685],[23.41586,-33.73241,758.7022],[23.43726,-33.712,747.4033],[23.61818,-33.64404,890.8071],[23.63249,-33.61981,1522.2688],[23.58283,-33.56405,1176.2998],[23.5634,-33.49599,998.3845],[23.51172,-33.46064,1401.1584],[23.43741,-33.43264,1291.8995],[23.26161,-33.39889,852.6858],[23.02948,-33.39,908.1083],[22.9053,-33.40494,1006.018],[22.74955,-33.40158,1422.036],[22.73663,-33.36303,921.9332],[22.74521,-33.32789,920.1084],[22.91574,-33.0956,875.0598],[22.93124,-33.05555,929.0002],[22.9162,-33.01406,963.567],[22.94752,-32.97447,925.828],[22.95326,-32.94373,891.9268],[23.00075,-32.88921,832.1046],[23.0225,-32.87804,818.5093],[23.05924,-32.86755,797.83],[23.07418,-32.84585,785.8527],[23.07325,-32.81061,780.942],[23.06798,-32.78642,779.9495],[23.06901,-32.78027,780.6243],[23.07201,-32.78162,779.9606],[23.07619,-32.7857,779.4365],[23.08022,-32.78895,778.2253],[23.0841,-32.79268,776.9404],[23.08736,-32.79665,775.6265],[23.09464,-32.81118,773.9166],[23.10224,-32.82161,770.8067],[23.1148,-32.8335,766.1942],[23.1243,-32.83262,765.1934],[23.14446,-32.82719,770.6416],[23.19505,-32.80802,781.467],[23.26192,-32.80322,789.2123],[23.32693,-32.80771,781.9669],[23.37039,-32.76823,812.4283],[23.32894,-32.73459,821.7114],[23.311889999999998,-32.70116,851.7666],[23.278199999999998,-32.66751,869.005],[23.28223,-32.62028,900.037],[23.27618,-32.58638,887.6563],[23.26207,-32.5421,893.7697],[23.23706,-32.5053,903.1038],[23.23737,-32.46226,900.8636],[23.24254,-32.42453,893.7599],[23.28796,-32.39182,923.613],[23.32538,-32.35456,998.2739],[23.39845,-32.36087,1102.1896],[23.44702,-32.3402,921.3785],[23.60159,-32.32474,917.3894],[23.63606,-32.30692,958.2776],[23.67373,-32.23932,1007.538],[23.72168,-32.20852,1102.8193],[23.75708,-32.19592,1173.1084],[23.84473,-32.22206,1613.8356],[23.8854,-32.22801,1636.8788],[24.0288,-32.17457,2107.1465],[24.05081,-32.14346,1906.5503],[24.09009,-32.12481,2077.2073],[24.10032,-32.09938,1914.1461],[24.09815,-32.08409,1803.0249],[24.09799,-32.06073,1682.8035],[24.1107,-32.04807,1669.8706],[24.11474,-32.029,1693.8395],[24.11365,-32.01675,1589.4258],[24.12233,-32.00311,1622.8495],[24.14083,-31.99572,1615.725],[24.15618,-31.98301,1577.4357],[24.1816,-31.95164,1534.9175],[24.17401,-31.92668,1485.505],[24.1523,-31.90089,1510.6259],[24.1259,-31.88829,1586.783],[24.12977,-31.85754,1559.188],[24.14207,-31.84467,1562.8064],[24.14812,-31.82348,1673.3103],[24.15773,-31.81697,1695.3264],[24.14703,-31.78989,1779.3743],[24.0674,-31.77243,1616.4752],[24.02316,-31.71951,1744.3308],[23.9951,-31.7162,1610.8367],[23.96312,-31.7268,1529.1316],[23.93397,-31.76271,1417.4194],[23.90028,-31.78245,1451.2972],[23.86323,-31.79982,1338.5886],[23.81605,-31.76798,1322.668],[23.81899,-31.74643,1387.3914],[23.80876,-31.72757,1277.5958],[23.78437,-31.70902,1310.4484],[23.69889,-31.66737,1433.8464],[23.62846,-31.65941,1333.948],[23.59291,-31.66272,1316.7579],[23.55115,-31.67786,1207.3727],[23.52495,-31.68241,1187.514],[23.40093,-31.68127,1209.2952],[23.35675,-31.7207,1235.5898],[23.29267,-31.75088,1298.3118],[23.22327,-31.83351,1353.0201],[23.20094,-31.86963,1370.7534],[23.18063,-31.88999,1214.4393],[23.06984,-31.97655,1461.4773],[23.03785,-31.93247,1074.6606],[23.03661,-31.92281,1156.0597],[23.02653,-31.88648,1232.6273],[22.98943,-31.87082,1235.7271],[22.94302,-31.8564,1127.9565],[22.87026,-31.85278,1372.2484],[22.82572,-31.83666,1342.2461],[22.75637,-31.83387,1349.4629],[22.69663,-31.80292,1371.5448],[22.60552,-31.77661,1419.2434],[22.56191,-31.72023,1535.2874],[22.5154,-31.67786,1502.8694],[22.47737,-31.65295,1455.3113],[22.29149,-31.57017,1375.6511],[22.26276,-31.60484,1413.3038],[22.14436,-31.85418,1338.5724],[22.10463,-31.86028,1332.553],[22.09594,-31.88079,1340.1548],[22.08881,-31.89309,1327.5211],[22.08726,-31.9102,1340.5665],[22.08416,-31.92653,1348.7217],[22.08556,-31.95738,1372.8765],[22.07672,-31.99758,1381.1667],[22.07656,-32.00192,1384.7998],[22.07812,-32.00859,1393.4214],[22.08478,-32.01784,1494.1759],[22.10121,-32.05742,1406.0247],[22.07998,-32.09551,1238.7319],[22.05636,-32.09985,1280.0112],[21.99817,-32.15897,1251.6655],[21.97135,-32.19576,1166.7113],[21.91363,-32.23064,962.3962],[21.85265,-32.24304,1279.7554],[21.78811,-32.23204,1480.9724],[21.75426,-32.22051,1402.1926],[21.71576,-32.2124,1562.8712],[21.67638,-32.22284,1667.9119],[21.63447,-32.21514,1173.1091],[21.6028,-32.22036,1177.8964],[21.55344,-32.24149,1185.118],[21.52445,-32.28909,1529.9467],[21.46813,-32.31823,1597.5881],[21.42312,-32.34852,1561.666],[21.38183,-32.35518,1541.9641],[21.30519,-32.37673,1682.6157],[21.27258,-32.41497,1635.0712],[21.25475,-32.43146,1762.4642],[21.2377,-32.44324,1821.7854],[21.19223,-32.45905,1525.7883],[21.17254,-32.513,1289.2716],[21.11776,-32.60716,1380.9443],[21.04138,-32.6378,1576.2301],[20.99565,-32.64777,1699.0808],[20.93839,-32.65444,1660.6725],[20.86511,-32.67687,1364.1622],[20.82336,-32.71619,1268.2744],[20.81158,-32.75536,1387.1189],[20.80445,-32.81009,1036.5115],[20.78414,-32.86151,1004.5641],[20.70512,-32.91815,961.3881],[20.60787,-32.92104,1047.8474],[20.57015,-32.90497,1082.865],[20.54575,-32.90223,1143.0271],[20.48839,-32.92605,1135.6521],[20.42116,-32.93685,1232.9578],[20.37791,-32.90145,1230.7012],[20.35553,-32.89293,1192.1393],[20.33507,-32.86187,1233.2607],[20.30835,-32.84001,1053.194],[20.27952,-32.80616,1136.6514],[20.25637,-32.79221,1059.4543],[20.23373,-32.78115,1018.7308],[20.20934,-32.7643,980.2438],[20.18578,-32.73723,950.4138],[20.17151,-32.6856,873.9757],[20.12325,-32.59646,890.2642],[20.09514,-32.52189,620.0811],[20.0787,-32.45838,515.3733],[20.08227,-32.41172,393.9244],[20.10697,-32.39601,434.0332],[20.1386,-32.36758,458.3708],[20.21275,-32.28356,1112.332],[20.21265,-32.24304,929.7895],[20.19818,-32.22196,1467.7361],[20.18578,-32.19793,1373.3147],[20.16826,-32.18605,877.8738],[20.13922,-32.18961,609.0527],[20.07731,-32.24506,496.1999],[20.04878,-32.25813,513.6367],[20.01664,-32.29457,417.3513],[19.9246,-32.3574,409.3891],[19.86952,-32.37079,361.8286],[19.80125,-32.3728,321.4254],[19.77738,-32.38862,317.531],[19.73066,-32.40717,326.8091],[19.70394,-32.43771,348.4734],[19.67294,-32.44985,390.6017],[19.65258,-32.45301,386.726],[19.62994,-32.44262,390.5936],[19.60979,-32.4575,436.1863],[19.59739,-32.49166,411.665],[19.57811,-32.53161,400.0804],[19.57253,-32.56287,399.7802],[19.58617,-32.59227,408.5291],[19.58927,-32.59646,412.4378],[19.59305,-32.60018,413.2591],[19.59646,-32.60468,420.1097],[19.59119,-32.61403,437.632],[19.53357,-32.63759,590.98],[19.4729,-32.58349,633.5671],[19.48752,-32.49011,647.9506],[19.48752,-32.46551,470.1436],[19.44701,-32.4021,498.3813],[19.43895,-32.38645,499.6323],[19.4329,-32.36195,576.6243],[19.4251,-32.31002,636.1567],[19.44561,-32.27886,539.5334],[19.4883,-32.24118,301.8646],[19.49264,-32.23199,313.7254],[19.4838,-32.1799,328.3075],[19.4746,-32.15633,244.3722],[19.47429,-32.1492,282.0397],[19.47786,-32.13458,317.7045],[19.4774,-32.12724,279.0067],[19.47476,-32.11747,254.6492],[19.4746,-32.10853,242.2931],[19.47822,-32.08698,368.523],[19.47585,-32.08099,341.3989],[19.47073,-32.07825,342.3225],[19.45802,-32.07928,244.5017],[19.45151,-32.07871,215.4325],[19.44561,-32.07696,218.5058],[19.44065,-32.07308,209.4447],[19.43585,-32.06786,280.5463],[19.42634,-32.05386,280.5195],[19.42221,-32.04915,305.4352],[19.41812,-32.04574,323.2093],[19.41347,-32.04264,203.1475],[19.40867,-32.04011,194.7206],[19.40324,-32.03861,237.9771],[19.39781,-32.03872,233.6835],[19.39223,-32.04011,276.8525],[19.38665,-32.04218,273.4091],[19.38185,-32.04476,353.8335],[19.37673,-32.04667,284.6927],[19.37125,-32.04724,221.3076],[19.36583,-32.04554,189.5168],[19.35668,-32.03598,207.2744],[19.35048,-32.03381,193.5273],[19.34304,-32.0336,230.6714],[19.33373,-32.03427,230.3885],[19.32614,-32.0305,194.3205],[19.31916,-32.02233,230.9021],[19.30252,-31.98988,325.401],[19.29229,-31.97867,292.657],[19.28066,-31.9719,328.2556],[19.25255,-31.96048,193.2724],[19.24852,-31.9518,205.8131],[19.24899,-31.93929,239.1461],[19.26501,-31.88844,370.1219],[19.25953,-31.88327,460.5152],[19.24666,-31.88906,677.468],[19.21085,-31.9135,474.4055],[19.1956,-31.92017,157.5538],[19.18522,-31.92208,288.7965],[19.18072,-31.91893,287.1814],[19.1753,-31.9165,249.2583],[19.16956,-31.9148,288.9749],[19.16336,-31.91449,267.1804],[19.15778,-31.91598,313.5283],[19.14811,-31.92115,350.6085],[19.14305,-31.92317,336.0004],[19.13695,-31.92332,348.6319],[19.13168,-31.92162,341.1949],[19.12718,-31.91877,335.3771],[19.11897,-31.91211,329.3138],[19.1092,-31.90586,333.4391],[19.09509,-31.8996,306.5487],[19.08062,-31.89593,270.088],[19.02864,-31.89325,283.0618],[19.04512,-31.82726,278.8893],[19.06605,-31.79336,525.6229],[19.07179,-31.74814,583.0437],[19.05411,-31.66205,390.8559],[19.05969,-31.63657,337.175],[19.0614,-31.59802,743.9614],[19.06667,-31.57725,508.6988],[19.06063,-31.55342,646.8351],[19.04838,-31.5388,807.4121],[19.04264,-31.51436,825.4254],[19.0167,-31.49477,666.1174],[19.00848,-31.47131,277.6976],[19.00848,-31.43002,242.9201],[18.98957,-31.33607,403.9498],[18.99655,-31.30512,533.422],[18.99686,-31.28992,795.5829],[18.98647,-31.27587,824.2321],[18.95975,-31.24801,776.6816],[18.93727,-31.19711,262.5287],[18.90498,-31.00953,309.5063],[18.92828,-30.94219,388.5443],[18.90653,-30.88261,459.0781],[18.93789,-30.84416,491.5248],[18.93867,-30.72402,781.8277],[18.8426,-30.69508,768.0753],[18.7979,-30.65565,853.9893],[18.7717,-30.61679,894.1968],[18.73522,-30.577,892.1272],[18.69145,-30.54775,904.8472],[18.63094,-30.5184,948.0026]]]]}}