{"type": "Feature","bbox": [17.7585,-33.687,19.5164,-30.4303],"geometry": {"type": "MultiPolygon","coordinates": [[[[18.0749,-33.4115,0.0],[18.074,-33.4101,0.0],[18.0718,-33.4107,0.0],[18.0721,-33.4182,0.0],[18.0746,-33.419,1.0619],[18.0774,-33.4238,0.0],[18.0838,-33.4287,0.0],[18.0804,-33.4324,0.9738],[18.0851,-33.4354,0.0],[18.0949,-33.4335,0.0],[18.0949,-33.4318,0.0],[18.0987,-33.4329,0.1908],[18.0993,-33.4299,0.0],[18.0968,-33.4285,3.0961],[18.0976,-33.4257,0.4032],[18.0921,-33.4212,0.0],[18.0901,-33.4135,0.0],[18.0879,-33.4132,0.0],[18.0857,-33.4182,1.4915],[18.0829,-33.4188,1.0914],[18.0799,-33.4176,1.1018],[18.0749,-33.4115,0.0]]],
[[[18.4554,-33.4714,176.7685],[18.4958,-33.4811,352.232],[18.5094,-33.4896,415.3577],[18.514,-33.4962,538.1907],[18.5245,-33.5036,420.9313],[18.5231,-33.5188,354.7366],[18.5242,-33.5252,255.7729],[18.5365,-33.5271,227.6523],[18.564,-33.5235,134.947],[18.5764,-33.5315,121.4494],[18.58,-33.5577,162.3927],[18.5686,-33.5621,326.8247],[18.5744,-33.5735,178.7717],[18.6059,-33.5855,76.9432],[18.618,-33.5844,71.3954],[18.6221,-33.6146,69.8812],[18.627,-33.6246,47.0387],[18.645,-33.6357,86.3364],[18.6554,-33.6341,89.5756],[18.6692,-33.6489,85.8871],[18.6709,-33.6474,86.544],[18.6897,-33.6652,82.4659],[18.6927,-33.6813,62.5179],[18.7069,-33.6813,97.7801],[18.7119,-33.6759,97.5745],[18.7304,-33.6856,97.2453],[18.7367,-33.687,104.1979],[18.752,-33.6768,101.7092],[18.7542,-33.6649,119.7155],[18.7598,-33.6656,121.9403],[18.7632,-33.6489,133.675],[18.7782,-33.6491,141.6607],[18.8016,-33.6204,482.679],[18.8183,-33.5952,655.6671],[18.8363,-33.6044,533.6915],[18.8383,-33.5897,362.43],[18.8419,-33.5887,374.734],[18.8393,-33.5776,208.4149],[18.8559,-33.5691,167.8382],[18.8623,-33.5754,129.0843],[18.8928,-33.5715,130.3453],[18.8997,-33.5511,87.9802],[18.9108,-33.5513,94.1844],[18.9128,-33.55,89.2636],[18.9135,-33.5514,85.6642],[18.9381,-33.546,82.8786],[18.9365,-33.5442,86.6435],[18.9339,-33.5297,74.9435],[18.9314,-33.5251,85.889],[18.9328,-33.5229,77.9919],[18.9399,-33.5214,85.7422],[18.9363,-33.5067,71.5207],[18.9398,-33.4994,68.9453],[18.934,-33.4917,69.6112],[18.9374,-33.4846,69.1538],[18.938,-33.4701,67.9897],[18.9405,-33.4659,64.8712],[18.9542,-33.4619,63.1357],[18.9543,-33.4603,62.53],[18.9486,-33.4558,62.4485],[18.9501,-33.4511,63.175],[18.9555,-33.4485,64.3429],[18.9597,-33.4424,65.9711],[18.9562,-33.4351,61.074],[18.9555,-33.4299,59.9461],[18.9583,-33.4279,60.9389],[18.9617,-33.4296,63.0284],[18.97,-33.4299,66.2547],[18.9702,-33.4281,62.8839],[18.9672,-33.4248,64.1281],[18.9673,-33.4215,60.7132],[18.9769,-33.4076,63.2578],[18.9825,-33.4067,59.1098],[18.9825,-33.4042,61.0841],[18.9778,-33.4017,64.3564],[18.9781,-33.3996,64.6541],[18.9906,-33.3962,59.7613],[18.9925,-33.3944,58.77],[18.9887,-33.3889,57.5197],[18.9931,-33.3823,57.8102],[18.9852,-33.3804,58.9671],[18.9847,-33.3791,61.0963],[18.9907,-33.3722,59.8043],[18.9908,-33.369,61.278],[18.994,-33.3656,58.4027],[18.9857,-33.3616,58.9553],[18.9929,-33.3539,55.9746],[18.9872,-33.3474,54.4026],[18.9812,-33.3451,53.5431],[18.9792,-33.3417,53.5639],[18.9899,-33.3316,53.1956],[18.9873,-33.3295,54.5113],[18.9804,-33.3287,53.201],[18.9784,-33.3185,53.7024],[18.9845,-33.313,54.5167],[18.9958,-33.3138,56.6268],[18.9955,-33.3109,59.3059],[18.9974,-33.3077,62.467],[18.9885,-33.3053,57.9439],[18.9908,-33.3009,57.0004],[18.9888,-33.299,53.3754],[18.9795,-33.2968,52.7759],[18.9812,-33.2924,59.0859],[18.9732,-33.2886,53.1093],[18.9761,-33.282,53.9324],[18.975,-33.2781,51.5538],[18.9667,-33.2746,51.0512],[18.9646,-33.2679,51.6863],[18.9509,-33.2655,51.5708],[18.9547,-33.2598,48.8189],[18.9527,-33.2557,48.6443],[18.9468,-33.255,50.0226],[18.9457,-33.253,48.9816],[18.9507,-33.2475,47.1107],[18.9474,-33.2395,49.4658],[18.9564,-33.2336,45.8308],[18.9571,-33.2218,48.1753],[18.9435,-33.2086,43.1678],[18.9482,-33.2049,43.9735],[18.9471,-33.2024,44.6507],[18.9422,-33.201,48.8019],[18.9333,-33.2033,42.5022],[18.9319,-33.2011,45.5143],[18.9432,-33.1937,52.3232],[18.9565,-33.1881,57.5641],[18.9572,-33.1756,58.9247],[18.956,-33.1674,55.2354],[18.9801,-33.1521,68.2215],[19.0001,-33.1455,78.4957],[19.0198,-33.1417,92.8366],[19.0509,-33.142,115.5626],[19.0561,-33.1401,124.8848],[19.0896,-33.1141,291.5274],[19.1462,-33.1061,2011.4294],[19.173,-33.0919,1839.0408],[19.1774,-33.06,1372.9094],[19.1655,-33.0354,1710.5743],[19.1537,-32.984,1377.6083],[19.1861,-32.8682,1673.899],[19.1844,-32.8271,1740.8535],[19.1706,-32.7958,1452.6052],[19.1718,-32.7368,1622.0498],[19.2086,-32.731,1074.0071],[19.2048,-32.7111,1154.1416],[19.1717,-32.6639,1489.0601],[19.164,-32.6493,1365.49],[19.143,-32.6214,1191.0474],[19.1376,-32.6046,1156.9568],[19.1564,-32.6043,1470.1832],[19.1486,-32.5857,1371.2365],[19.1592,-32.5719,1393.7327],[19.2026,-32.5776,1590.7985],[19.2231,-32.5747,1553.4897],[19.2647,-32.5887,1487.5972],[19.2812,-32.5814,1344.6787],[19.32,-32.5746,1029.3235],[19.3412,-32.583,975.5894],[19.3569,-32.6164,1184.4788],[19.3712,-32.6089,1147.3223],[19.3961,-32.6067,1346.3409],[19.419,-32.6223,974.9863],[19.4379,-32.6259,603.5895],[19.4413,-32.6381,940.3475],[19.4533,-32.6257,553.0794],[19.4535,-32.6125,464.9483],[19.4522,-32.6078,445.3119],[19.4608,-32.6076,443.427],[19.4663,-32.6015,462.2637],[19.4756,-32.5969,537.6462],[19.485,-32.5799,450.5163],[19.4842,-32.5766,428.9385],[19.4868,-32.5654,635.2913],[19.495,-32.4989,660.1443],[19.5164,-32.4859,372.847],[19.5071,-32.4731,377.4597],[19.5037,-32.4729,394.3382],[19.4984,-32.4753,389.8211],[19.4954,-32.4737,379.1134],[19.4892,-32.4635,392.7975],[19.4798,-32.4413,366.8073],[19.4727,-32.4361,365.6171],[19.4719,-32.4279,371.4623],[19.4671,-32.4216,355.8279],[19.4647,-32.4151,363.3166],[19.4594,-32.41,363.7395],[19.4533,-32.3979,392.6615],[19.4432,-32.3883,344.6956],[19.4347,-32.3732,347.0228],[19.4353,-32.3683,322.8616],[19.4302,-32.3657,556.3675],[19.4091,-32.2901,689.2899],[19.4919,-32.2517,407.5215],[19.4951,-32.245,249.8428],[19.4875,-32.2421,248.5137],[19.4858,-32.2358,247.0284],[19.4958,-32.2216,245.7945],[19.4972,-32.2152,246.0322],[19.4942,-32.2087,293.8775],[19.5023,-32.2054,292.1859],[19.4927,-32.1986,351.761],[19.5014,-32.1799,388.5556],[19.4873,-32.1637,385.7477],[19.4793,-32.1677,292.2106],[19.4841,-32.1614,384.8646],[19.4752,-32.1463,300.0104],[19.4911,-32.1301,328.3318],[19.5083,-32.1259,337.391],[19.5152,-32.1152,266.0602],[19.5075,-32.0861,340.2406],[19.4885,-32.1212,230.2146],[19.4834,-32.1137,321.1803],[19.488,-32.0915,290.7183],[19.4863,-32.0764,214.9232],[19.4799,-32.073,210.6542],[19.4676,-32.0731,222.5681],[19.4259,-32.0313,389.5841],[19.3958,-32.0151,241.7823],[19.3804,-32.0376,229.4861],[19.363,-32.0428,295.5958],[19.3531,-32.0279,278.7488],[19.3298,-32.0126,295.0832],[19.3234,-31.9848,482.7234],[19.2899,-31.9651,475.164],[19.2775,-31.9797,284.4617],[19.2648,-31.965699999999998,402.1949],[19.2798,-31.922,544.918],[19.2897,-31.863,496.3432],[19.2441,-31.9139,393.3755],[19.2107,-31.948,344.1734],[19.1997,-31.9048,341.3795],[19.1723,-31.9098,168.2791],[19.159,-31.8996,156.547],[19.156,-31.8997,176.5044],[19.1504,-31.9029,156.2354],[19.1448,-31.9105,170.4331],[19.1418,-31.9121,175.7032],[19.1308,-31.9066,147.9407],[19.1181,-31.9071,133.8125],[19.1094,-31.8981,130.666],[19.0859,-31.894,127.1872],[19.0822,-31.8898,130.8536],[19.058,-31.8804,122.6327],[19.0348,-31.8762,139.0587],[19.0262,-31.8766,121.9857],[19.0272,-31.8743,173.8779],[19.0258,-31.8709,134.3818],[19.0314,-31.8682,202.7778],[19.0301,-31.8629,140.3306],[19.0346,-31.8589,144.0456],[19.0315,-31.8548,140.6139],[19.0329,-31.849,154.7465],[19.0266,-31.8435,247.7564],[19.0323,-31.8398,163.8887],[19.0298,-31.8359,171.2907],[19.0303,-31.8338,169.6217],[19.0384,-31.8287,182.6966],[19.044,-31.8302,204.6389],[19.0468,-31.8295,183.0357],[19.0535,-31.8226,224.1594],[19.0539,-31.8167,232.7148],[19.0586,-31.815,205.2349],[19.0601,-31.8107,192.7382],[19.0691,-31.8085,198.598],[19.0723,-31.8039,226.9575],[19.0782,-31.8024,217.6512],[19.08,-31.794,361.4317],[19.0872,-31.7936,256.9838],[19.083,-31.7859,299.4342],[19.0766,-31.7882,296.9154],[19.0757,-31.7819,265.8438],[19.0701,-31.7838,282.9094],[19.066,-31.7809,273.7899],[19.065,-31.7779,276.0472],[19.0665,-31.766,283.5037],[19.073,-31.7619,283.3219],[19.0808,-31.7596,297.3009],[19.0857,-31.7629,294.3418],[19.0914,-31.7625,430.1118],[19.0947,-31.7502,320.1851],[19.0811,-31.7307,489.7131],[19.0769,-31.7185,441.4534],[19.0656,-31.7063,472.582],[19.0577,-31.6878,546.3456],[19.0549,-31.6703,609.9393],[19.0737,-31.6669,855.8646],[19.079,-31.6432,703.0422],[19.0705,-31.6241,647.2228],[19.0905,-31.5978,688.4686],[19.0854,-31.5721,724.0248],[19.0737,-31.5743,373.4825],[19.0556,-31.575,652.5021],[19.0518,-31.5727,617.4807],[19.0854,-31.5269,660.3212],[19.0781,-31.5251,682.0886],[19.0678,-31.518,673.3068],[19.0418,-31.5185,718.7983],[19.0231,-31.5051,820.6036],[19.0187,-31.5104,790.3096],[19.012,-31.5144,762.3832],[19.0062,-31.512,643.4677],[19.0197,-31.4993,854.4109],[19.0246,-31.4821,747.3604],[19.0369,-31.4643,709.504],[19.043,-31.425,699.2982],[19.0307,-31.4154,756.3485],[19.0324,-31.4032,776.6429],[19.034,-31.4022,780.1161],[19.0309,-31.3895,780.0303],[19.0124,-31.3701,809.3269],[18.9801,-31.3552,820.2747],[19.013,-31.3057,798.0],[18.9664,-31.2845,288.0703],[18.9445,-31.2373,655.5297],[18.9497,-31.1959,274.6217],[18.9476,-31.1129,745.5668],[18.9123,-31.0608,274.1932],[18.9035,-31.0418,275.1245],[18.9118,-30.9789,346.9026],[18.9845,-30.9458,373.2956],[18.9242,-30.916,417.8918],[18.8754,-30.8871,455.0441],[18.9605,-30.8661,579.3217],[18.9519,-30.7447,1014.4312],[18.863,-30.7171,671.0181],[18.7945,-30.6676,934.502],[18.7959,-30.6249,936.5203],[18.7587,-30.5679,886.8998],[18.6551,-30.5567,953.6646],[18.5701,-30.4303,1041.8691],[18.5021,-30.4444,1093.9052],[18.4836,-30.5219,1065.4471],[18.5222,-30.6065,887.8821],[18.4441,-30.5113,756.8641],[18.3806,-30.4596,651.0316],[18.4138,-30.5273,1034.5768],[18.3711,-30.5921,863.6906],[18.371,-30.6596,931.6094],[18.3139,-30.7422,373.9448],[18.2642,-30.8183,453.622],[18.2518,-30.8275,438.6539],[18.2293,-30.8191,415.3612],[18.2135,-30.8104,307.3453],[18.1952,-30.816,302.9574],[18.2058,-30.8313,255.4861],[18.1904,-30.8347,335.7129],[18.1692,-30.8486,359.5026],[18.1396,-30.828,432.3609],[18.0892,-30.7879,403.0229],[18.0809,-30.7848,279.929],[18.0579,-30.7769,301.2719],[18.0065,-30.7912,233.9363],[17.9948,-30.8192,249.267],[17.9934,-30.9187,274.7234],[17.9721,-30.9139,289.3591],[17.9344,-30.9174,280.1071],[17.914,-30.9247,272.3227],[17.8803,-30.9239,177.7977],[17.8779,-30.9487,227.647],[17.9094,-30.9875,299.5175],[17.9264,-31.0114,315.0108],[17.8945,-31.0304,341.8424],[17.8886,-31.0403,265.8306],[17.8786,-31.0405,257.6384],[17.8352,-31.0726,167.4146],[17.8113,-31.0925,169.5232],[17.8344,-31.1765,127.4984],[17.7585,-31.1519,0.4403],[17.7618,-31.1596,0.0],[17.7682,-31.1649,0.5837],[17.7726,-31.1726,0.0],[17.7815,-31.179,0.0],[17.7846,-31.1849,0.0],[17.7926,-31.1926,6.0409],[17.7935,-31.1993,0.0657],[17.796,-31.2021,0.0],[17.8026,-31.204,7.6575],[17.8079,-31.2099,0.0],[17.8082,-31.2132,0.0],[17.8115,-31.2138,0.9754],[17.8171,-31.2188,8.0688],[17.8174,-31.2243,0.0638],[17.8232,-31.2235,0.0],[17.8257,-31.2249,1.0907],[17.8296,-31.229,0.0],[17.8376,-31.2332,5.2972],[17.8393,-31.2368,0.0],[17.841,-31.2365,0.0],[17.8574,-31.2512,3.4659],[17.8687,-31.2663,0.0],[17.8693,-31.2712,0.0],[17.8724,-31.2718,0.0],[17.879,-31.2801,25.415],[17.8818,-31.2893,5.1389],[17.8782,-31.291,0.0],[17.8804,-31.2938,0.2649],[17.879,-31.2965,0.0],[17.8804,-31.301,0.0],[17.8785,-31.3021,0.0],[17.879,-31.3046,9.0221],[17.876,-31.309,0.0],[17.8788,-31.3118,8.9588],[17.8774,-31.321,0.0],[17.8849,-31.326,0.7771],[17.886,-31.3301,0.0],[17.8893,-31.3315,0.8027],[17.8901,-31.336,0.0],[17.8937,-31.3382,0.0],[17.8954,-31.3421,0.0],[17.899,-31.3432,0.0],[17.9004,-31.3487,0.8596],[17.899,-31.351,0.0],[17.9071,-31.3571,0.6902],[17.9065,-31.3587,0.0],[17.9146,-31.3671,0.3596],[17.9188,-31.3668,0.0],[17.9285,-31.3757,3.4136],[17.9343,-31.3832,5.0663],[17.9346,-31.386,3.402],[17.9385,-31.389,1.9954],[17.9368,-31.3904,0.0],[17.9374,-31.3921,0.0],[17.9454,-31.399,1.0893],[17.9443,-31.4013,0.0],[17.9474,-31.4057,0.0762],[17.9518,-31.4101,0.0039],[17.9562,-31.4121,0.0],[17.9557,-31.414,0.0],[17.9576,-31.4168,0.0],[17.9626,-31.4196,0.0],[17.9643,-31.4188,1.2099],[17.9715,-31.4251,6.7184],[17.9712,-31.4276,0.0],[17.9837,-31.4396,15.1016],[17.9851,-31.4446,0.0],[17.989,-31.4485,-0.0597],[17.9893,-31.4515,0.0],[17.9993,-31.4593,2.1441],[17.999,-31.4621,0.0],[18.0026,-31.464,8.2333],[18.0024,-31.465699999999998,1.9433],[18.0082,-31.4718,-0.0336],[18.0082,-31.4743,0.0],[18.0146,-31.4782,0.488],[18.0271,-31.4921,0.0],[18.0324,-31.4937,0.0],[18.0321,-31.4974,0.1303],[18.0365,-31.5007,0.0],[18.0374,-31.504,0.0],[18.0401,-31.5043,4.3275],[18.0421,-31.5107,0.2361],[18.0454,-31.5121,5.8383],[18.0504,-31.5182,0.0],[18.0543,-31.5179,29.4305],[18.0574,-31.524,0.0],[18.0624,-31.5246,0.0],[18.0837,-31.5451,5.6281],[18.0868,-31.551,3.2112],[18.0885,-31.5507,3.2112],[18.0985,-31.5601,0.0],[18.1082,-31.5735,2.2122],[18.1118,-31.5762,29.8955],[18.1126,-31.5796,0.0],[18.1171,-31.5837,6.3252],[18.1182,-31.5885,21.9619],[18.1176,-31.5935,24.4954],[18.1143,-31.5996,0.0],[18.1174,-31.6018,0.0],[18.1193,-31.6007,1.7988],[18.1185,-31.6046,0.0],[18.1257,-31.6076,41.8104],[18.1315,-31.6151,0.0],[18.1321,-31.6171,8.7122],[18.1296,-31.619,0.0],[18.1307,-31.6226,0.0],[18.1351,-31.6276,0.5104],[18.139,-31.6279,11.4836],[18.1382,-31.6299,0.059],[18.1396,-31.6304,0.059],[18.1396,-31.6329,0.0],[18.1432,-31.6371,0.0],[18.1454,-31.6374,12.4256],[18.1468,-31.6401,9.5451],[18.1463,-31.6468,0.0],[18.1479,-31.6468,0.0],[18.1513,-31.6565,0.0],[18.1574,-31.659,3.6545],[18.1651,-31.6699,2.0944],[18.1649,-31.6721,0.1263],[18.1676,-31.676,0.0],[18.1799,-31.6879,27.3536],[18.184,-31.6938,0.0],[18.1849,-31.7004,0.0],[18.1871,-31.7026,0.0],[18.1924,-31.7032,1.9853],[18.1974,-31.7113,0.0],[18.2046,-31.7176,4.0548],[18.2054,-31.7229,3.6755],[18.2096,-31.7299,0.0],[18.2146,-31.734,26.3526],[18.2168,-31.739,2.9051],[18.2199,-31.7404,0.4057],[18.2257,-31.7507,0.0],[18.2265,-31.7549,23.7887],[18.2213,-31.7563,0.8645],[18.2226,-31.7593,4.1026],[18.2213,-31.7604,5.7455],[18.2226,-31.7635,0.0],[18.2246,-31.7635,14.9218],[18.2251,-31.7787,0.0],[18.2285,-31.7857,0.0],[18.231,-31.7871,22.9703],[18.2313,-31.794,1.1594],[18.2329,-31.796,11.9386],[18.229,-31.8001,0.1828],[18.2324,-31.8043,1.0446],[18.2324,-31.8082,0.0],[18.2357,-31.8146,9.8613],[18.2301,-31.8154,0.0],[18.2304,-31.8176,0.0],[18.2329,-31.8179,5.649],[18.2313,-31.821,1.7843],[18.2332,-31.8224,0.0],[18.234,-31.821,3.2581],[18.2368,-31.8235,1.8672],[18.2432,-31.834,1.6734],[18.2657,-31.8635,12.1128],[18.2729,-31.8774,0.855],[18.2804,-31.8974,4.4631],[18.2785,-31.9029,0.1538],[18.2801,-31.9096,12.4638],[18.2757,-31.9118,3.5086],[18.2718,-31.9115,0.5005],[18.276,-31.9185,8.0932],[18.2754,-31.9299,6.848],[18.2735,-31.9326,0.0],[18.2651,-31.9338,0.0],[18.2654,-31.9399,0.0],[18.269,-31.9507,0.0],[18.2749,-31.9565,5.9063],[18.2774,-31.9651,0.0],[18.2796,-31.9668,0.0],[18.2807,-31.9754,0.0],[18.2826,-31.9762,9.8686],[18.2835,-31.9804,1.0716],[18.286,-31.9829,2.848],[18.2868,-31.9885,6.0959],[18.2818,-31.9912,0.0],[18.2813,-31.9954,0.0],[18.2846,-31.9976,10.062],[18.284,-31.9988,0.0],[18.2929,-32.0112,6.6166],[18.2929,-32.0149,0.0],[18.2946,-32.0165,5.7162],[18.2932,-32.0249,0.2499],[18.2979,-32.0296,0.0],[18.3149,-32.0718,0.0],[18.3143,-32.0846,4.4233],[18.3079,-32.0913,9.9723],[18.3046,-32.091,0.719],[18.3051,-32.0865,0.0],[18.3026,-32.0885,0.3522],[18.2993,-32.0865,0.0],[18.2974,-32.0871,0.0],[18.3007,-32.0918,1.405],[18.2985,-32.096,0.0],[18.3013,-32.0985,0.7165],[18.3007,-32.1024,0.0],[18.3021,-32.1035,0.0],[18.3015,-32.1174,2.545],[18.3037,-32.1243,2.9269],[18.3068,-32.1499,3.8214],[18.3118,-32.1621,7.5909],[18.3115,-32.1657,8.2074],[18.3096,-32.1674,0.9183],[18.3118,-32.171,2.6599],[18.3101,-32.1743,0.0],[18.3185,-32.1868,1.9584],[18.3263,-32.2038,2.7545],[18.3257,-32.2085,8.1628],[18.3235,-32.2118,0.0],[18.3274,-32.2207,1.7686],[18.3288,-32.2207,1.7686],[18.3293,-32.2268,0.0],[18.3349,-32.2374,0.0],[18.3426,-32.2643,1.2327],[18.3457,-32.281,3.0944],[18.3429,-32.3065,2.5203],[18.3376,-32.3143,5.6085],[18.336,-32.316,3.0682],[18.3288,-32.3149,1.0099],[18.3232,-32.3174,0.3945],[18.3146,-32.314,0.0],[18.3135,-32.3171,0.0878],[18.3154,-32.3221,2.5312],[18.3146,-32.3262,0.0],[18.3168,-32.3307,0.0],[18.3154,-32.3368,0.5905],[18.3188,-32.3429,5.5487],[18.3249,-32.3638,0.0],[18.3335,-32.4176,5.9501],[18.3349,-32.4382,0.0],[18.3343,-32.4765,0.0],[18.3288,-32.514,1.0018],[18.3246,-32.534,0.0],[18.3124,-32.5701,5.3651],[18.2929,-32.611,7.2521],[18.2815,-32.6307,0.0],[18.2574,-32.6657,4.5295],[18.2454,-32.6801,2.3582],[18.2246,-32.6979,0.5239],[18.2007,-32.7135,0.3188],[18.1885,-32.7293,0.6294],[18.1812,-32.7354,1.761],[18.1718,-32.7493,2.5761],[18.1599,-32.7599,4.9117],[18.1449,-32.7693,0.4525],[18.1488,-32.7718,0.3515],[18.1429,-32.7732,0.4163],[18.136,-32.7785,1.0075],[18.1332,-32.7782,2.4251],[18.1335,-32.7765,1.2596],[18.1446,-32.7715,0.0],[18.1443,-32.7693,0.4525],[18.129,-32.7774,1.1048],[18.1215,-32.7774,0.0],[18.1126,-32.7804,1.1626],[18.1074,-32.7804,0.8483],[18.1051,-32.7785,0.0],[18.1046,-32.7799,1.7136],[18.0982,-32.781,0.3794],[18.0949,-32.7776,0.0],[18.0938,-32.7796,1.5035],[18.0899,-32.7804,0.0],[18.0876,-32.7774,0.0],[18.079,-32.7768,1.214],[18.0671,-32.7818,2.9224],[18.0629,-32.7818,0.0],[18.061,-32.7837,2.2524],[18.0554,-32.7843,0.0],[18.0518,-32.7782,0.3728],[18.0515,-32.7746,1.2436],[18.0493,-32.7746,9.8383],[18.0407,-32.7657,0.2415],[18.0357,-32.7629,0.0745],[18.0354,-32.7607,0.0],[18.0313,-32.7604,0.0865],[18.0287,-32.756,0.0],[18.0243,-32.7554,1.315],[18.0199,-32.7518,0.1645],[18.0176,-32.7518,3.6784],[18.0179,-32.7507,0.2153],[18.0143,-32.7504,2.2319],[18.0107,-32.7432,0.0],[18.0143,-32.7438,0.0],[18.0193,-32.7412,0.0],[18.0154,-32.7404,0.7347],[18.0151,-32.739,0.0],[18.0107,-32.7393,0.0],[18.0099,-32.7368,0.124],[18.0065,-32.7368,1.2374],[18.0054,-32.7346,0.6129],[17.9946,-32.7329,0.0],[17.9912,-32.7299,3.804],[17.9876,-32.7299,3.4716],[17.979,-32.7262,0.8909],[17.9788,-32.7229,0.0],[17.9754,-32.7212,4.8458],[17.9749,-32.7187,4.4357],[17.9782,-32.7168,0.0],[17.9776,-32.7099,0.0],[17.9832,-32.7024,0.0],[17.9735,-32.704,0.0],[17.9699,-32.6999,0.0],[17.9654,-32.699,0.0],[17.9657,-32.7032,0.0],[17.9682,-32.706,5.8875],[17.9638,-32.7121,2.3712],[17.9574,-32.7179,1.7098],[17.9476,-32.7224,0.5477],[17.9404,-32.721,4.2953],[17.9396,-32.7199,4.2953],[17.9415,-32.7179,0.0],[17.9396,-32.7151,0.3744],[17.9371,-32.716,0.0],[17.9368,-32.7182,5.8369],[17.931,-32.7201,3.1591],[17.9257,-32.7154,0.1421],[17.9199,-32.7135,0.3153],[17.9185,-32.7176,0.0065],[17.9215,-32.7176,-0.0291],[17.9221,-32.721,4.1806],[17.9201,-32.7254,0.0],[17.9151,-32.7279,0.0],[17.916,-32.7324,7.8698],[17.9107,-32.736,0.0],[17.9051,-32.7354,1.6859],[17.9046,-32.734,0.0],[17.901,-32.7351,0.0],[17.8957,-32.7429,0.0],[17.896,-32.7474,0.0],[17.8935,-32.7471,0.0],[17.8929,-32.7487,0.0],[17.8935,-32.7515,0.0],[17.8982,-32.7512,10.4651],[17.9049,-32.7649,0.0],[17.9071,-32.7776,0.0],[17.9071,-32.7899,0.0],[17.904,-32.7979,0.0],[17.8999,-32.8018,0.0],[17.8971,-32.8012,0.0],[17.8974,-32.804,1.7765],[17.8935,-32.8068,1.4649],[17.8849,-32.8065,3.2087],[17.8843,-32.8024,0.0249],[17.8821,-32.801,0.0],[17.881,-32.8115,4.3853],[17.8718,-32.8146,1.5509],[17.8685,-32.8118,0.0],[17.8632,-32.8126,0.0],[17.8613,-32.8107,0.0],[17.864,-32.8157,0.0831],[17.8632,-32.8171,0.5088],[17.8613,-32.8154,0.0],[17.859,-32.8168,0.0],[17.8554,-32.8154,0.0],[17.8524,-32.8162,0.0],[17.8501,-32.8221,0.2268],[17.8474,-32.8224,0.0],[17.8468,-32.8257,2.2352],[17.8432,-32.8254,0.0],[17.8438,-32.8299,0.0],[17.8471,-32.8299,0.0],[17.8485,-32.8376,0.4476],[17.8501,-32.839,0.0],[17.8524,-32.8379,0.0],[17.8513,-32.8349,1.362],[17.8524,-32.8343,8.1739],[17.8565,-32.8379,1.0047],[17.8557,-32.8393,0.0],[17.8596,-32.841,0.0],[17.8587,-32.844,0.0],[17.8621,-32.8432,1.5807],[17.864,-32.8454,0.0],[17.866,-32.8426,9.1345],[17.8699,-32.8465,0.0],[17.8729,-32.8462,32.5918],[17.8715,-32.8499,0.0],[17.876,-32.8507,0.0],[17.8782,-32.8532,0.0],[17.879,-32.8604,4.3141],[17.8818,-32.8637,0.0],[17.8793,-32.866,0.3721],[17.8796,-32.869,0.6383],[17.8829,-32.8696,0.0],[17.8835,-32.8729,0.0],[17.8821,-32.879,0.0],[17.8785,-32.8843,0.0],[17.8738,-32.8862,0.0],[17.8674,-32.8857,0.0],[17.8637,-32.8882,0.4109],[17.8646,-32.891,2.8413],[17.8624,-32.8913,2.524],[17.8621,-32.8929,0.0],[17.8671,-32.8951,0.0],[17.8635,-32.8987,0.0],[17.8585,-32.8985,0.0],[17.8571,-32.901,0.0],[17.8601,-32.9032,0.0],[17.8563,-32.9054,0.183],[17.8585,-32.9065,1.8193],[17.8571,-32.9096,0.0],[17.8585,-32.9124,0.0],[17.869,-32.9124,2.0871],[17.8685,-32.9182,0.0],[17.8732,-32.9174,2.7398],[17.8768,-32.9193,5.8705],[17.8843,-32.9357,0.0],[17.8851,-32.9501,0.0],[17.8832,-32.9521,0.0],[17.8813,-32.9507,0.0],[17.8807,-32.954,0.0],[17.8757,-32.9543,0.0],[17.8726,-32.9557,0.0],[17.8726,-32.9571,0.1936],[17.8762,-32.9568,0.0],[17.8776,-32.9588,0.0],[17.8832,-32.9593,3.9523],[17.884,-32.9626,0.0],[17.879,-32.9643,0.0],[17.881,-32.9665,0.0],[17.8843,-32.9663,0.0],[17.884,-32.9679,0.0],[17.8818,-32.9685,0.0],[17.8826,-32.9751,0.0],[17.8785,-32.9749,0.0],[17.8779,-32.9762,0.0],[17.8799,-32.9782,0.0],[17.8838,-32.9779,2.4403],[17.8851,-32.9793,0.0376],[17.8843,-32.9807,0.771],[17.8818,-32.9796,0.4703],[17.8807,-32.9821,0.2959],[17.8751,-32.9837,0.0],[17.8754,-32.9893,0.087],[17.871,-32.991,1.1152],[17.8704,-32.994,0.0],[17.8726,-32.9951,2.3388],[17.8726,-32.9968,2.1587],[17.8704,-32.9985,0.0],[17.8721,-33.0007,0.0],[17.8776,-33.0021,0.0],[17.8765,-33.006,0.0],[17.8788,-33.0074,0.2832],[17.8829,-33.0068,0.0],[17.8838,-33.0026,1.2843],[17.8885,-33.0021,0.0],[17.8965,-33.0068,0.0],[17.9001,-33.0115,0.0],[17.9038,-33.0176,0.0],[17.9035,-33.0235,3.5127],[17.9013,-33.0274,0.0],[17.8954,-33.0288,1.4606],[17.8904,-33.0251,0.0],[17.8876,-33.0262,0.0],[17.8871,-33.0285,0.0],[17.8896,-33.0285,0.0],[17.8915,-33.0307,0.4977],[17.8915,-33.0335,0.0],[17.8954,-33.0351,0.0],[17.8954,-33.0387,0.0],[17.8924,-33.0415,0.0],[17.8957,-33.0426,0.0],[17.8988,-33.0401,0.0],[17.9007,-33.0407,0.0],[17.901,-33.0432,0.0],[17.9026,-33.0438,0.0],[17.9015,-33.0474,0.0],[17.9082,-33.0493,1.9233],[17.9076,-33.0515,0.0],[17.9101,-33.0524,0.9407],[17.9088,-33.0554,0.0],[17.911,-33.0551,0.0],[17.9171,-33.0474,2.0817],[17.9243,-33.0446,0.0],[17.926,-33.0421,1.5176],[17.931,-33.0424,0.0],[17.9387,-33.039,0.4534],[17.939,-33.0371,0.2946],[17.9335,-33.0321,0.0],[17.9335,-33.0301,1.8446],[17.9443,-33.0254,3.9278],[17.9499,-33.026,12.7486],[17.9554,-33.0307,0.0],[17.959,-33.0293,13.0459],[17.959,-33.031,0.0],[17.9662,-33.0326,1.1117],[17.9715,-33.0385,0.8251],[17.9715,-33.0412,1.0118],[17.9696,-33.0432,4.9917],[17.9654,-33.0424,0.0],[17.9649,-33.044,0.0],[17.9674,-33.0462,2.6671],[17.9721,-33.0451,0.0],[17.9749,-33.039,2.0874],[17.9718,-33.0337,0.0],[17.9654,-33.0301,2.368],[17.9651,-33.0274,3.3909],[17.9629,-33.0265,7.5061],[17.9651,-33.024,0.0],[17.9599,-33.0232,0.0],[17.961,-33.0254,0.0],[17.9588,-33.0271,1.0236],[17.9554,-33.0235,0.5653],[17.9524,-33.0226,0.0],[17.9538,-33.0201,0.0],[17.9499,-33.0218,0.6023],[17.9488,-33.0201,0.0],[17.9507,-33.0143,0.0],[17.9496,-33.0126,1.5902],[17.9513,-33.0104,0.0],[17.9488,-33.0096,1.0155],[17.9468,-33.0049,0.5927],[17.961,-32.9976,6.9939],[17.9837,-32.9957,2.3382],[17.9915,-32.9965,0.0],[17.996,-32.9996,4.5139],[17.9951,-33.0035,1.6653],[17.9921,-33.0026,0.0],[17.9951,-33.0049,3.2821],[17.9918,-33.0124,0.7381],[17.9899,-33.0112,0.0],[17.9888,-33.0163,2.7546],[17.9865,-33.0174,0.0],[17.9882,-33.0218,1.1825],[17.9857,-33.0249,0.0],[17.9821,-33.036,0.0],[17.9835,-33.0357,0.0],[17.9907,-33.0213,0.0],[17.9949,-33.0099,0.0],[17.9974,-33.0079,2.8285],[18.004,-33.0101,0.0],[18.0065,-33.0101,0.0],[18.0085,-33.0079,2.7786],[18.0107,-33.0085,4.9199],[18.0135,-33.0104,1.3331],[18.0107,-33.0104,0.0],[18.0201,-33.0146,2.162],[18.0313,-33.026,22.8927],[18.0376,-33.0396,14.3278],[18.0357,-33.0415,0.0],[18.0357,-33.0443,0.0],[18.0388,-33.0479,0.0],[18.0424,-33.0479,8.2261],[18.0429,-33.0512,0.0],[18.0413,-33.0546,3.0131],[18.0426,-33.0574,1.1934],[18.0393,-33.0624,0.8548],[18.0413,-33.0635,8.0097],[18.0413,-33.066,9.404],[18.0404,-33.0682,7.2361],[18.0374,-33.0693,0.0],[18.0382,-33.0732,2.0583],[18.0304,-33.084,0.0],[18.0307,-33.0915,1.6015],[18.0279,-33.0982,0.0],[18.0354,-33.109,2.06],[18.0482,-33.1151,1.9355],[18.0518,-33.1215,0.0],[18.0574,-33.1232,0.137],[18.0585,-33.1287,0.2229],[18.0904,-33.1432,0.6327],[18.0932,-33.1501,0.7158],[18.0921,-33.1579,0.2474],[18.089,-33.1632,0.0],[18.0912,-33.1668,0.0],[18.0865,-33.1643,0.0],[18.0829,-33.1646,0.0702],[18.0807,-33.166,0.0],[18.0826,-33.1718,0.1103],[18.0868,-33.1751,0.0],[18.101,-33.1799,0.0],[18.1018,-33.184,0.0],[18.1051,-33.1849,0.0],[18.1112,-33.1899,0.0],[18.1151,-33.1901,0.0],[18.1168,-33.1879,0.0],[18.1126,-33.1871,0.0],[18.1115,-33.1832,0.0],[18.1076,-33.1829,0.0744],[18.1179,-33.1801,0.1238],[18.1235,-33.181,0.2026],[18.1254,-33.1871,0.1145],[18.121,-33.1943,0.0],[18.1115,-33.199,0.0],[18.1087,-33.2021,0.0],[18.0974,-33.2043,0.0],[18.091,-33.2012,0.0],[18.0893,-33.1974,0.0],[18.0918,-33.1932,0.0],[18.0899,-33.1896,0.0],[18.0871,-33.1868,0.0],[18.0843,-33.1868,6.8723],[18.0793,-33.1813,0.3145],[18.0735,-33.1813,2.7046],[18.0699,-33.1768,0.3119],[18.064,-33.1754,0.0],[18.0604,-33.1712,1.1178],[18.0601,-33.1685,0.0],[18.054,-33.1632,0.0],[18.0521,-33.1546,0.0883],[18.0462,-33.1515,0.0],[18.0332,-33.1501,8.0092],[18.0326,-33.1476,0.0],[18.0254,-33.1451,10.0353],[18.0237,-33.1432,6.8223],[18.024,-33.1401,2.563],[18.0257,-33.1379,6.4632],[18.0276,-33.1379,2.1006],[18.0282,-33.134,29.6296],[18.0313,-33.1321,0.0],[18.031,-33.1276,0.0],[18.0271,-33.1249,0.7076],[18.019,-33.1237,1.7212],[18.0132,-33.121,0.0],[18.0149,-33.1135,0.0],[18.0107,-33.1001,0.0],[18.0143,-33.0957,0.0],[18.0063,-33.0921,0.0],[18.0007,-33.0935,0.8748],[17.9904,-33.0924,0.0],[17.9865,-33.0937,0.2002],[17.986,-33.0965,3.0173],[17.9815,-33.0954,3.2989],[17.9846,-33.0901,0.0],[18.0046,-33.0879,0.0],[18.0051,-33.0862,0.0],[18.0026,-33.0818,0.0],[18.0049,-33.0782,0.0],[17.9957,-33.0776,0.0],[17.9949,-33.0757,0.0],[17.9968,-33.0718,0.0],[17.9954,-33.0701,1.3302],[17.9924,-33.0696,0.6262],[17.9893,-33.0713,10.1289],[17.9888,-33.0685,0.0],[17.981,-33.0682,15.8559],[17.9796,-33.0665,0.0],[17.9726,-33.0674,0.0],[17.9724,-33.0699,0.0],[17.9757,-33.0724,19.3878],[17.9735,-33.0743,0.0],[17.9743,-33.0793,0.0],[17.976,-33.0826,0.4403],[17.9793,-33.0824,3.5544],[17.979,-33.0851,0.0],[17.9804,-33.0854,3.6183],[17.979,-33.0921,0.9859],[17.9751,-33.0965,17.9803],[17.9707,-33.0946,1.9203],[17.9699,-33.0982,19.777],[17.9668,-33.0993,0.0],[17.9576,-33.0946,1.1454],[17.9557,-33.099,0.0],[17.9576,-33.1018,4.4938],[17.954,-33.1026,0.0],[17.951,-33.1068,0.5027],[17.9562,-33.1121,0.0],[17.969,-33.1157,0.0],[17.9704,-33.1196,0.0],[17.9732,-33.1215,0.0],[17.9749,-33.1304,0.0],[17.9687,-33.1315,0.0],[17.9704,-33.1343,0.0],[17.9696,-33.1376,0.6192],[17.9743,-33.1399,0.0],[17.9771,-33.1432,0.0],[17.9921,-33.1454,0.5797],[17.9912,-33.1487,0.0],[17.994,-33.1471,0.0],[17.9974,-33.1474,0.0],[17.999,-33.1504,0.0],[18.0015,-33.1496,0.0],[18.0029,-33.151,0.0],[18.0054,-33.1485,0.0],[18.0099,-33.1512,2.6142],[18.0537,-33.1862,21.6234],[18.0713,-33.2026,2.0619],[18.1124,-33.2482,0.0],[18.1312,-33.2743,3.1205],[18.1593,-33.3271,5.8563],[18.161,-33.3351,3.2765],[18.1593,-33.3368,0.0],[18.161,-33.3379,4.4566],[18.161,-33.3424,7.0841],[18.156,-33.3437,0.0],[18.153199999999998,-33.3465,6.6797],[18.1468,-33.346,0.0],[18.144,-33.3493,0.0],[18.1465,-33.3512,9.94],[18.1457,-33.3554,0.0],[18.1482,-33.3563,0.0],[18.1526,-33.3549,6.0589],[18.1585,-33.3632,0.0],[18.1579,-33.3646,0.0],[18.1632,-33.3668,6.5355],[18.1624,-33.369,0.6832],[18.1724,-33.372,3.0513],[18.2035,-33.3893,3.2658],[18.2382,-33.4129,2.7789],[18.271,-33.4415,0.0],[18.286,-33.4571,2.0326],[18.2965,-33.4718,1.2061],[18.3076,-33.4835,1.1326],[18.3076,-33.4879,0.0],[18.3121,-33.494,0.6304],[18.3099,-33.496,0.5211],[18.3107,-33.4979,0.0],[18.3168,-33.4965,0.0],[18.3165,-33.4985,0.0],[18.3129,-33.5013,0.9544],[18.314,-33.5049,0.0],[18.3104,-33.5068,0.0],[18.3107,-33.5079,0.0],[18.3154,-33.5096,0.0],[18.3201,-33.516,0.2177],[18.3249,-33.5171,0.0],[18.3215,-33.5213,5.8366],[18.319,-33.5201,0.0],[18.3162,-33.5296,0.0],[18.3137,-33.5318,0.0],[18.3174,-33.5404,9.8129],[18.3115,-33.5404,0.0],[18.3121,-33.546,0.948],[18.3093,-33.5465,0.0],[18.3082,-33.5568,0.0],[18.3118,-33.5632,5.1637],[18.3087,-33.5635,0.0],[18.3076,-33.5662,0.0],[18.3101,-33.5699,0.0],[18.314,-33.5699,0.0],[18.3196,-33.5757,0.0],[18.326,-33.5749,0.0],[18.326,-33.5707,0.4732],[18.3326,-33.5726,0.0],[18.3312,-33.571,7.2702],[18.3335,-33.5696,0.0],[18.3374,-33.5696,0.0],[18.3374,-33.5715,0.0],[18.341,-33.5735,0.0],[18.3414,-33.5708,17.6519],[18.343,-33.5706,8.5024],[18.3413,-33.5586,48.1099],[18.3604,-33.5489,89.2397],[18.3594,-33.5422,93.7334],[18.3692,-33.5253,110.4647],[18.3837,-33.5117,151.4722],[18.3888,-33.5089,149.4181],[18.4025,-33.5143,158.7608],[18.4262,-33.5112,154.3054],[18.4399,-33.4979,119.7265],[18.4554,-33.4714,176.7685]]],
[[[18.1043,-33.1868,0.0],[18.0976,-33.1857,0.0],[18.1021,-33.1926,0.0666],[18.1043,-33.1921,0.0],[18.1051,-33.1882,0.0],[18.1074,-33.1885,0.0],[18.1043,-33.1868,0.0]]],
[[[18.0229,-33.0887,0.0],[18.019,-33.0887,2.012],[18.0174,-33.0929,0.0],[18.019,-33.0943,4.0777],[18.0237,-33.0943,1.5939],[18.0263,-33.0901,1.0857],[18.0229,-33.0887,0.0]]],
[[[18.0096,-33.0845,0.0],[18.0068,-33.084,0.0],[18.006,-33.0854,0.0],[18.011,-33.0871,0.0],[18.0096,-33.0845,0.0]]],
[[[17.986,-33.1549,0.0],[17.9874,-33.151,0.0],[17.9799,-33.151,0.0],[17.9779,-33.1524,0.0],[17.9826,-33.1557,0.0],[17.986,-33.1549,0.0]]],
[[[17.9524,-33.079,0.0],[17.9499,-33.0779,0.0],[17.9496,-33.0826,0.0],[17.9546,-33.0879,0.0],[17.9562,-33.0879,1.4003],[17.9596,-33.0854,0.0],[17.9599,-33.0835,0.0],[17.9524,-33.079,0.0]]],
[[[17.9262,-33.0507,0.0],[17.9226,-33.0501,0.0],[17.9226,-33.0551,0.0],[17.926,-33.056,0.0],[17.929,-33.0537,0.0],[17.9262,-33.0507,0.0]]],
[[[17.9293,-33.0496,0.0],[17.9287,-33.0479,0.0],[17.9257,-33.0482,0.0],[17.9257,-33.0493,0.0],[17.9293,-33.0496,0.0]]],
[[[17.889,-32.741,0.0],[17.8846,-32.7407,0.0],[17.8835,-32.7424,0.0],[17.8887,-32.7438,0.0],[17.889,-32.741,0.0]]],
[[[17.8838,-32.7399,0.0],[17.884,-32.7379,0.0],[17.8793,-32.7396,0.4861],[17.8796,-32.7404,0.4861],[17.8838,-32.7399,0.0]]],
[[[17.8707,-32.7371,0.0],[17.8671,-32.7368,0.0],[17.8721,-32.7401,0.0],[17.8729,-32.7385,0.0],[17.8707,-32.7371,0.0]]],
[[[17.8796,-32.7374,0.0],[17.8801,-32.7354,0.0],[17.8754,-32.736,0.0],[17.8762,-32.7379,0.0],[17.8796,-32.7374,0.0]]]]}
,"properties": {"GID_2": "ZAF.9.6_1","GID_0": "ZAF","country": "SouthAfrica","GID_1": "ZAF.9_1","province": "WesternCape","NL_NAME_1": "NA","county": "WestCoast","VARNAME_2": "NA","NL_NAME_2": "NA","TYPE_2": "DistrictMunicipality","ENGTYPE_2": "DistrictMunicipality","CC_2": "DC1","HASC_2": "ZA.WC.WC","name": "West_Coast.county","area_km2": 31160.99,"hist_schema_id": "Elevation0-9000","hist_area_km2": {"0": 663.22,"25": 1307.02,"50": 1995.56,"75": 2337.22,"100": 2362.53,"125": 2199.22,"150": 2077.0,"175": 1864.08,"200": 1552.57,"225": 1350.2,"250": 1150.13,"275": 1030.58,"300": 1006.15,"325": 938.9,"350": 833.4,"375": 729.45,"400": 635.53,"425": 535.21,"450": 485.21,"475": 416.74,"500": 373.73,"525": 370.22,"550": 368.11,"575": 349.0,"600": 335.98,"625": 316.07,"650": 284.82,"675": 241.95,"700": 213.89,"725": 192.53,"750": 180.87,"775": 172.55,"800": 171.99,"825": 156.31,"850": 175.14,"875": 181.95,"900": 187.98,"925": 170.05,"950": 145.47,"975": 140.19,"1000": 120.6,"1025": 98.78,"1050": 74.04,"1075": 59.33,"1100": 53.52,"1125": 49.03,"1150": 43.19,"1175": 38.84,"1200": 35.33,"1225": 32.61,"1250": 31.95,"1275": 31.92,"1300": 29.95,"1325": 29.37,"1350": 27.73,"1375": 27.09,"1400": 25.3,"1425": 23.44,"1450": 21.04,"1475": 18.58,"1500": 16.31,"1525": 15.2,"1550": 11.46,"1575": 9.59,"1600": 7.89,"1625": 5.22,"1650": 4.86,"1675": 3.92,"1700": 3.17,"1725": 2.86,"1750": 2.86,"1775": 2.43,"1800": 1.27,"1825": 1.09,"1850": 0.86,"1875": 0.71,"1900": 0.46}}}