{"type":"Feature","properties":{"GID_3":"ZAF.4.3.3_1","GID_0":"ZAF","country":"SouthAfrica","GID_1":"ZAF.4_1","province":"KwaZulu-Natal","NL_NAME_1":"NA","GID_2":"ZAF.4.3_1","county":"iLembe","NL_NAME_2":"NA","city":"Maphumulo","VARNAME_3":"NA","NL_NAME_3":"NA","TYPE_3":"LocalMunicipality","ENGTYPE_3":"LocalMunicipality","CC_3":"KZN294","HASC_3":"NA","name":"Maphumulo.city"},
"geometry":{"type": "MultiPolygon","coordinates": [[[[31.1091,-29.2842,191.2573],[31.1226,-29.2345,676.37],[31.1372,-29.2076,744.3022],[31.1621,-29.2009,661.3092],[31.2132,-29.1908,360.7546],[31.216,-29.1854,362.0223],[31.218,-29.1849,350.615],[31.2155,-29.1835,348.9617],[31.2162,-29.1825,379.9278],[31.219,-29.182,329.9107],[31.2229,-29.184,316.9474],[31.222,-29.1806,314.9904],[31.2276,-29.1767,285.9119],[31.2305,-29.179,278.2696],[31.2336,-29.1774,280.5613],[31.2341,-29.1808,260.4442],[31.2375,-29.1742,277.9703],[31.2412,-29.1744,251.5949],[31.2414,-29.177,263.7968],[31.2441,-29.1782,241.9964],[31.2555,-29.1783,175.6942],[31.2569,-29.1878,147.6706],[31.2597,-29.1899,156.6208],[31.2754,-29.1884,128.2347],[31.2781,-29.183,109.6427],[31.2828,-29.1806,81.9754],[31.2818,-29.1748,71.0996],[31.2882,-29.1693,61.94],[31.2887,-29.164,51.6284],[31.2851,-29.1643,45.5273],[31.2849,-29.1582,59.8103],[31.2939,-29.1506,46.8298],[31.2982,-29.1426,59.5795],[31.2958,-29.1289,49.8996],[31.291,-29.1155,54.691],[31.2854,-29.114,55.1601],[31.2794,-29.1171,62.8039],[31.2737,-29.1243,58.7055],[31.2686,-29.1407,60.076],[31.2574,-29.1468,62.5888],[31.2488,-29.1468,68.7989],[31.2472,-29.1433,65.1844],[31.2472,-29.132,63.3057],[31.2498,-29.1259,68.0762],[31.2448,-29.1196,67.0323],[31.2383,-29.1155,73.0506],[31.234,-29.1098,72.9659],[31.2184,-29.1078,74.4794],[31.2134,-29.1053,74.125],[31.2098,-29.1011,77.6478],[31.2073,-29.0891,79.0],[31.198,-29.0843,88.2701],[31.1914,-29.0829,90.6668],[31.1757,-29.0737,88.7881],[31.1751,-29.0696,90.6361],[31.177,-29.0632,91.0138],[31.1813,-29.0592,92.3698],[31.181,-29.0503,93.0],[31.1743,-29.0458,97.4268],[31.168,-29.0457,96.0],[31.1616,-29.0478,101.503],[31.154,-29.0468,107.574],[31.1483,-29.0434,103.4612],[31.1429,-29.0369,108.1857],[31.1341,-29.0319,105.0],[31.1229,-29.0071,134.1623],[31.1189,-29.004,117.2876],[31.1174,-29.0004,117.75],[31.1201,-28.9877,123.6784],[31.1271,-28.9768,125.5],[31.129,-28.9704,127.5],[31.1259,-28.9597,133.0562],[31.1188,-28.9587,138.2322],[31.1055,-28.9599,141.9205],[31.0914,-28.9552,143.5],[31.0836,-28.9565,146.2972],[31.08,-28.9599,146.375],[31.0809,-28.9635,147.4504],[31.0883,-28.9755,156.8878],[31.0937,-28.977,154.758],[31.0974,-28.98,155.0],[31.099,-28.9839,155.0],[31.0985,-28.9893,155.0],[31.0961,-28.9923,179.9507],[31.0907,-28.995,166.8898],[31.0772,-28.9906,163.0186],[31.075,-28.9881,171.0849],[31.0743,-28.9833,163.4383],[31.0762,-28.9641,164.0079],[31.0731,-28.9587,168.9117],[31.065,-28.9502,166.0],[31.0492,-28.9491,168.375],[31.0319,-28.934,175.556],[31.0366,-28.9133,188.2298],[31.035,-28.9076,196.2944],[31.0268,-28.8976,195.25],[31.0268,-28.8943,195.5],[31.028199999999998,-28.8906,197.4318],[31.0377,-28.882,197.0],[31.0366,-28.8729,204.5084],[31.0289,-28.8628,202.2246],[31.0094,-28.8545,216.5704],[30.994,-28.8563,223.6134],[30.9935,-28.8594,226.3819],[30.9913,-28.8611,232.2063],[30.9924,-28.8639,239.9302],[30.9882,-28.8758,269.8203],[30.9853,-28.8762,279.4018],[30.9823,-28.8807,279.9794],[30.9728,-28.8736,306.5738],[30.9671,-28.8766,315.5778],[30.964,-28.8825,337.4774],[30.9398,-28.89,380.6198],[30.9357,-28.8954,398.0345],[30.9314,-28.8964,411.3284],[30.9305,-28.8984,420.9998],[30.9274,-28.8985,426.7755],[30.925,-28.9008,428.6021],[30.9192,-28.9085,471.0647],[30.929,-28.926,1014.8644],[30.9328,-28.9275,1123.6782],[30.9319,-28.9304,1148.6609],[30.9379,-28.9335,1124.5796],[30.9296,-28.9354,1187.0977],[30.9244,-28.9396,1176.8562],[30.9221,-28.9484,1130.0728],[30.9441,-28.9518,1074.2766],[30.9458,-28.9506,1091.7328],[30.9471,-28.957,1001.9073],[30.9451,-28.9594,786.8744],[30.9603,-28.9534,740.7232],[30.9664,-28.9594,533.0244],[30.9624,-28.9636,535.8345],[30.9471,-28.9698,725.1627],[30.9682,-28.9719,609.5283],[30.9802,-28.9699,658.4492],[31.0012,-29.0433,930.0255],[31.0238,-29.0788,829.8066],[31.0042,-29.0839,888.6368],[30.9741,-29.0806,1009.3852],[30.9511,-29.0921,1032.8365],[30.9427,-29.0879,1093.2944],[30.9367,-29.0802,1076.423],[30.9053,-29.0997,976.4796],[30.9062,-29.1038,894.704],[30.9118,-29.1075,788.3769],[30.9111,-29.1158,742.7005],[30.8948,-29.1211,679.0521],[30.8958,-29.1232,643.7717],[30.8927,-29.1257,625.5876],[30.888,-29.1231,592.0487],[30.8804,-29.1243,570.8912],[30.8795,-29.1263,578.0029],[30.8766,-29.1246,561.8684],[30.873,-29.1266,617.358],[30.8668,-29.1341,746.9017],[30.851,-29.1408,1051.9446],[30.8622,-29.1465,847.4004],[30.8635,-29.1521,689.0381],[30.8684,-29.1512,658.4021],[30.8659,-29.1569,738.3927],[30.8699,-29.1636,943.8907],[30.8748,-29.1624,922.937],[30.8757,-29.1605,940.6772],[30.8811,-29.1601,957.5266],[30.8841,-29.1616,831.2655],[30.8841,-29.1632,922.407],[30.8895,-29.1619,903.0097],[30.8904,-29.1655,899.2468],[30.8925,-29.1672,858.303],[30.8978,-29.1669,842.5048],[30.8974,-29.1694,843.6022],[30.9025,-29.1697,724.7754],[30.9025,-29.1725,700.5364],[30.8981,-29.1744,852.6326],[30.8969,-29.1767,771.8052],[30.8912,-29.1736,848.4061],[30.8948,-29.1803,825.6512],[30.9028,-29.1783,791.247],[30.9048,-29.1787,702.5024],[30.9058,-29.181,751.3755],[30.9083,-29.1769,685.1931],[30.9147,-29.176,632.5271],[30.9176,-29.1795,672.4656],[30.9206,-29.1746,753.6937],[30.9217,-29.1776,736.8369],[30.9278,-29.1795,790.7644],[30.9327,-29.1845,919.2853],[30.9346,-29.1808,871.4572],[30.9391,-29.1784,934.233],[30.9422,-29.181,885.2255],[30.9439,-29.1804,894.6909],[30.9435,-29.1818,923.9777],[30.9485,-29.1828,817.8248],[30.9473,-29.1843,908.3912],[30.9416,-29.1825,918.3105],[30.9382,-29.1843,935.4688],[30.9403,-29.188,940.486],[30.9503,-29.1918,814.661],[30.9493,-29.1955,794.6769],[30.946,-29.1968,811.953],[30.9486,-29.1998,894.8317],[30.9552,-29.206,818.5398],[30.959,-29.2051,793.1701],[30.9663,-29.2099,855.7859],[30.969,-29.2142,802.3635],[30.9804,-29.222,764.1107],[30.9862,-29.2228,759.3212],[30.9847,-29.2241,785.5118],[30.9859,-29.2288,555.6714],[30.9834,-29.2325,470.9877],[30.9856,-29.234,414.7009],[30.9845,-29.24,267.5828],[30.9806,-29.2427,288.4315],[30.9825,-29.2534,282.1785],[30.9848,-29.2572,295.6223],[30.9822,-29.2604,287.726],[30.9837,-29.2663,463.6674],[30.9812,-29.2693,576.5458],[30.9883,-29.2665,557.6978],[30.9905,-29.2634,592.0756],[30.9996,-29.2686,481.4024],[31.0063,-29.2648,453.4124],[31.0152,-29.263,395.2534],[31.0179,-29.2676,273.5513],[31.027,-29.2681,207.4812],[31.0285,-29.2704,197.258],[31.0276,-29.2726,205.1807],[31.0316,-29.2751,192.8165],[31.0357,-29.2806,193.1341],[31.0437,-29.2815,188.2077],[31.0415,-29.2881,185.5343],[31.0378,-29.2899,189.0041],[31.032,-29.2901,181.5263],[31.0295,-29.2921,206.1119],[31.0321,-29.297,177.1626],[31.039,-29.2972,176.2566],[31.0368,-29.3097,260.1575],[31.0309,-29.3147,271.8077],[31.0288,-29.3142,278.4592],[31.0233,-29.3168,313.3454],[31.0124,-29.3249,351.9651],[31.012,-29.3368,446.4432],[31.0152,-29.3413,328.1949],[31.018,-29.3413,303.6146],[31.0229,-29.3359,306.5161],[31.0276,-29.3351,279.3705],[31.0287,-29.3327,274.9313],[31.0336,-29.3305,256.9294],[31.0356,-29.3318,243.3047],[31.0397,-29.3285,231.1765],[31.0376,-29.3246,230.8976],[31.0414,-29.3218,210.9067],[31.0392,-29.3192,214.7614],[31.04,-29.3167,214.249],[31.0451,-29.3097,191.1143],[31.0467,-29.3097,196.6017],[31.0487,-29.3137,211.0607],[31.0496,-29.3237,257.4782],[31.0584,-29.3243,307.4014],[31.0678,-29.3303,420.2156],[31.0677,-29.3327,381.5123],[31.0717,-29.3343,261.1978],[31.0697,-29.3471,476.4977],[31.0759,-29.3547,643.4233],[31.0885,-29.3471,613.1075],[31.0919,-29.3347,637.1845],[31.0971,-29.3286,632.9874],[31.1091,-29.2842,191.2573]]]]}}