{"type": "Feature","bbox": [17.7585,-32.011,19.0947,-30.4303],"geometry": {"type": "MultiPolygon","coordinates": [[[[18.6356,-31.9562,300.7612],[18.6647,-31.9557,518.0798],[18.6557,-31.9312,292.6202],[18.7073,-31.8967,157.7234],[18.689,-31.8661,92.5452],[18.7007,-31.8526,48.3122],[18.7027,-31.8522,41.4182],[18.711,-31.8546,38.1868],[18.7183,-31.8635,40.0997],[18.7411,-31.8789,50.1806],[18.7479,-31.8779,58.5619],[18.7576,-31.8733,53.3957],[18.7807,-31.8754,54.7165],[18.7853,-31.8729,54.8361],[18.7903,-31.8655,71.9639],[18.8039,-31.8619,55.7911],[18.8152,-31.8627,97.8779],[18.8196,-31.8652,75.2535],[18.8205,-31.8678,64.8026],[18.8236,-31.8686,72.5604],[18.8467,-31.859,74.1901],[18.8568,-31.8579,97.0746],[18.8646,-31.8589,74.6038],[18.8747,-31.8527,88.2795],[18.8816,-31.8517,80.194],[18.8917,-31.8526,102.9557],[18.9048,-31.8585,80.9074],[18.9341,-31.854,122.5448],[18.9599,-31.8591,101.0238],[18.9817,-31.8556,99.1298],[18.985,-31.8692,114.3036],[18.9833,-31.8752,121.3349],[18.9875,-31.8792,111.511],[19.0262,-31.8767,121.9857],[19.0272,-31.8743,173.8779],[19.0258,-31.8709,134.3818],[19.0314,-31.8682,202.7778],[19.0301,-31.8629,140.3306],[19.0346,-31.8589,144.0456],[19.0315,-31.8548,140.6139],[19.0329,-31.849,154.7465],[19.0266,-31.8435,247.7564],[19.0323,-31.8398,163.8887],[19.0298,-31.8359,171.2907],[19.0303,-31.8338,169.6217],[19.0384,-31.8287,182.6966],[19.044,-31.8302,204.6389],[19.0468,-31.8295,183.0357],[19.0535,-31.8226,224.1594],[19.0539,-31.8167,232.7148],[19.0586,-31.815,205.2349],[19.0601,-31.8107,192.7382],[19.0691,-31.8085,198.598],[19.0723,-31.8039,226.9575],[19.0782,-31.8024,217.6512],[19.08,-31.794,361.4317],[19.0872,-31.7934,256.9838],[19.083,-31.7859,299.4342],[19.0766,-31.7882,296.9154],[19.0757,-31.7819,265.8438],[19.0701,-31.7838,282.9094],[19.066,-31.7809,273.7899],[19.065,-31.7779,276.0472],[19.0665,-31.7662,283.5037],[19.073,-31.7619,283.3219],[19.0804,-31.7597,288.888],[19.0857,-31.7629,294.3418],[19.0914,-31.7625,430.1118],[19.0947,-31.7502,320.1851],[19.0811,-31.7307,489.7131],[19.0769,-31.7185,441.4534],[19.0656,-31.7063,472.582],[19.0577,-31.6878,546.3456],[19.0549,-31.6703,609.9393],[19.0737,-31.6669,855.8646],[19.079,-31.6432,703.0422],[19.0705,-31.6241,647.2228],[19.0905,-31.5978,688.4686],[19.0854,-31.5721,724.0248],[19.0737,-31.5743,373.4825],[19.0556,-31.575,652.5021],[19.0518,-31.5727,617.4807],[19.0854,-31.5269,660.3212],[19.0781,-31.5251,682.0886],[19.0678,-31.518,673.3068],[19.0418,-31.5185,718.7983],[19.0231,-31.5051,820.6036],[19.0187,-31.5104,790.3096],[19.012,-31.5144,762.3832],[19.0062,-31.512,643.4677],[19.0197,-31.4993,854.4109],[19.0246,-31.4821,747.3604],[19.0369,-31.4643,709.504],[19.043,-31.425,699.2982],[19.0307,-31.4154,756.3485],[19.0324,-31.4032,776.6429],[19.034,-31.4022,780.1161],[19.0309,-31.3895,780.0303],[19.0124,-31.3701,809.3269],[18.9801,-31.3552,820.2747],[19.013,-31.3057,798.0],[18.9664,-31.2845,288.0703],[18.9445,-31.2373,655.5297],[18.9497,-31.1959,274.6217],[18.9476,-31.1129,745.5668],[18.9123,-31.0608,274.1932],[18.9035,-31.0418,275.1245],[18.9118,-30.9789,346.9026],[18.9845,-30.9458,373.2956],[18.9242,-30.916,417.8918],[18.8754,-30.8871,455.0441],[18.9605,-30.8661,579.3217],[18.9519,-30.7447,1014.4312],[18.863,-30.7171,671.0181],[18.7945,-30.6676,934.502],[18.7959,-30.6249,936.5203],[18.7587,-30.5679,886.8998],[18.6551,-30.5567,953.6646],[18.5701,-30.4303,1041.8691],[18.5021,-30.4444,1093.9052],[18.4836,-30.5219,1065.4471],[18.5222,-30.6065,887.8821],[18.4441,-30.5113,756.8641],[18.3806,-30.4596,651.0316],[18.4138,-30.5273,1034.5768],[18.3711,-30.5921,863.6906],[18.371,-30.6596,931.6094],[18.3139,-30.7422,373.9448],[18.2642,-30.8183,453.622],[18.2518,-30.8275,438.6539],[18.2293,-30.8191,415.3612],[18.2135,-30.8104,307.3453],[18.1952,-30.816,302.9574],[18.2058,-30.8313,255.4861],[18.1904,-30.8347,335.7129],[18.1692,-30.8486,359.5026],[18.1396,-30.828,432.3609],[18.0892,-30.7879,403.0229],[18.0809,-30.7848,279.929],[18.0579,-30.7769,301.2719],[18.0065,-30.7912,233.9363],[17.9948,-30.8192,249.267],[17.9934,-30.9187,274.7234],[17.9721,-30.9139,289.3591],[17.9344,-30.9174,280.1071],[17.914,-30.9247,272.3227],[17.8803,-30.9239,177.7977],[17.8779,-30.9487,227.647],[17.9094,-30.9875,299.5175],[17.9264,-31.0114,315.0108],[17.8945,-31.0304,341.8424],[17.8886,-31.0403,265.8306],[17.8786,-31.0405,257.6384],[17.8352,-31.0726,167.4146],[17.8113,-31.0925,169.5232],[17.8344,-31.1765,127.4984],[17.7749,-31.1563,34.7722],[17.7585,-31.1524,0.4403],[17.7618,-31.1571,0.0],[17.7618,-31.1596,0.0],[17.7682,-31.1649,0.5837],[17.7726,-31.1726,0.0],[17.7815,-31.179,0.0],[17.7846,-31.1849,0.0],[17.7926,-31.1926,6.0409],[17.7935,-31.1993,0.0657],[17.7971,-31.2032,0.0],[17.8026,-31.204,7.6575],[17.8079,-31.2099,0.0],[17.8082,-31.2132,0.0],[17.8115,-31.2138,0.9754],[17.8171,-31.2188,8.0688],[17.8171,-31.224,0.0638],[17.8204,-31.2249,0.0],[17.8232,-31.2235,0.0],[17.8296,-31.229,0.0],[17.8337,-31.2304,0.0],[17.8379,-31.2335,5.2972],[17.8393,-31.2368,0.0],[17.841,-31.2365,0.0],[17.8607,-31.2546,0.0],[17.8687,-31.2663,0.0],[17.8693,-31.2712,0.0],[17.8713,-31.271,9.3836],[17.8738,-31.2732,1.9779],[17.8804,-31.2829,12.4262],[17.8818,-31.2893,5.1389],[17.8782,-31.2921,0.0],[17.8804,-31.2938,0.2649],[17.879,-31.2965,0.0],[17.8804,-31.301,0.0],[17.8785,-31.3021,0.0],[17.879,-31.3046,9.0221],[17.876,-31.309,0.0],[17.8788,-31.3118,8.9588],[17.8774,-31.321,0.0],[17.8849,-31.326,0.7771],[17.886,-31.3301,0.0],[17.8893,-31.3315,0.8027],[17.8901,-31.336,0.0],[17.8937,-31.3382,0.0],[17.8954,-31.3421,0.0],[17.899,-31.3432,0.0],[17.9004,-31.3487,0.8596],[17.899,-31.351,0.0],[17.9071,-31.3571,0.6902],[17.9065,-31.3587,0.0],[17.9146,-31.3671,0.3596],[17.9188,-31.3668,0.0],[17.9285,-31.3757,3.4136],[17.9343,-31.3832,5.0663],[17.9346,-31.386,3.402],[17.9385,-31.389,1.9954],[17.9368,-31.3904,0.0],[17.9374,-31.3921,0.0],[17.9454,-31.399,1.0893],[17.9443,-31.4013,0.0],[17.9474,-31.4057,0.0762],[17.9518,-31.4101,0.0039],[17.9562,-31.4121,0.0],[17.9557,-31.414,0.0],[17.9576,-31.4168,0.0],[17.9626,-31.4196,0.0],[17.9643,-31.4188,1.2099],[17.9715,-31.4251,6.7184],[17.9712,-31.4276,0.0],[17.9837,-31.4396,15.1016],[17.9851,-31.4446,0.0],[17.989,-31.4485,-0.0597],[17.9893,-31.4515,0.0],[17.9993,-31.4593,2.1441],[17.999,-31.4621,0.0],[18.0026,-31.464,8.2333],[18.0024,-31.465699999999998,1.9433],[18.0082,-31.4718,-0.0336],[18.0082,-31.4743,0.0],[18.0146,-31.4782,0.488],[18.0271,-31.4921,0.0],[18.0324,-31.4937,0.0],[18.0321,-31.4974,0.1303],[18.0365,-31.5007,0.0],[18.0374,-31.504,0.0],[18.0401,-31.5043,4.3275],[18.0421,-31.5107,0.2361],[18.0454,-31.5121,5.8383],[18.0504,-31.5182,0.0],[18.0543,-31.5179,29.4305],[18.0574,-31.524,0.0],[18.0624,-31.5246,0.0],[18.0837,-31.5451,5.6281],[18.0868,-31.551,3.2112],[18.0912,-31.5532,9.3076],[18.1046,-31.5671,0.0],[18.1179,-31.5863,18.5441],[18.1176,-31.5935,24.4954],[18.1143,-31.5996,0.0],[18.1174,-31.6018,0.0],[18.1193,-31.6007,1.7988],[18.1185,-31.6046,0.0],[18.1257,-31.6076,41.8104],[18.1315,-31.6151,0.0],[18.1321,-31.6171,8.7122],[18.1296,-31.619,0.0],[18.1307,-31.6226,0.0],[18.1351,-31.6276,0.5104],[18.139,-31.6279,11.4836],[18.1382,-31.6299,0.059],[18.1396,-31.6304,0.059],[18.1396,-31.6329,0.0],[18.1432,-31.6371,0.0],[18.1454,-31.6374,12.4256],[18.1468,-31.6401,9.5451],[18.1463,-31.6468,0.0],[18.1479,-31.6468,0.0],[18.1513,-31.6565,0.0],[18.1588,-31.6607,39.3827],[18.1676,-31.676,0.0],[18.1707,-31.6776,9.8959],[18.171,-31.6801,0.0],[18.1738,-31.6807,7.523],[18.184,-31.6938,0.0],[18.1849,-31.7004,0.0],[18.1871,-31.7026,0.0],[18.1924,-31.7032,1.9853],[18.1974,-31.7113,0.0],[18.2054,-31.7187,10.256],[18.2054,-31.7229,3.6755],[18.2096,-31.7299,0.0],[18.2118,-31.7307,0.0],[18.2168,-31.739,2.9051],[18.2185,-31.739,16.4235],[18.2215,-31.7429,27.0013],[18.2265,-31.7538,9.6723],[18.226,-31.7551,2.7629],[18.2213,-31.7563,0.8645],[18.2226,-31.759,4.1026],[18.2213,-31.7599,5.7455],[18.2218,-31.7624,2.1776],[18.2246,-31.7635,14.9218],[18.2251,-31.7787,0.0],[18.2285,-31.7857,0.0],[18.231,-31.7871,22.9703],[18.2313,-31.794,1.1594],[18.2329,-31.796,11.9386],[18.229,-31.8001,0.1828],[18.2324,-31.8043,1.0446],[18.2324,-31.8082,0.0],[18.2357,-31.8143,3.1126],[18.2301,-31.8154,0.0],[18.2304,-31.8176,0.0],[18.2329,-31.8179,5.649],[18.2313,-31.821,1.7843],[18.2332,-31.8224,0.0],[18.234,-31.821,3.2581],[18.2368,-31.8235,1.8672],[18.2432,-31.834,1.6734],[18.2657,-31.8635,12.1128],[18.2729,-31.8774,0.855],[18.2804,-31.8974,4.4631],[18.2785,-31.9029,0.1538],[18.2801,-31.9096,12.4638],[18.2757,-31.9118,3.5086],[18.2718,-31.9115,0.5005],[18.276,-31.9185,8.0932],[18.2754,-31.9299,6.848],[18.2735,-31.9326,0.0],[18.2651,-31.9338,0.0],[18.2651,-31.9379,0.0],[18.269,-31.9507,0.0],[18.2749,-31.9565,5.9063],[18.2774,-31.9651,0.0],[18.2796,-31.9668,0.0],[18.2807,-31.9754,0.0],[18.2826,-31.9762,9.8686],[18.2835,-31.9804,1.0716],[18.286,-31.9829,2.848],[18.2868,-31.9885,6.0959],[18.2818,-31.9912,0.0],[18.2813,-31.9954,0.0],[18.2846,-31.9976,10.062],[18.284,-31.9988,0.0],[18.2924,-32.011,6.6166],[18.2925,-32.011,6.6166],[18.292,-32.0098,0.0],[18.2903,-32.0067,6.129],[18.3118,-31.9981,26.9782],[18.3254,-31.9807,51.6275],[18.3951,-31.9625,101.5685],[18.3925,-31.9542,97.1919],[18.4012,-31.9515,108.0986],[18.4119,-31.9456,136.9087],[18.402,-31.9121,188.5732],[18.4361,-31.9111,174.5984],[18.436,-31.9041,179.867],[18.3957,-31.874,194.9087],[18.4516,-31.8438,257.1501],[18.4599,-31.8578,190.1237],[18.4945,-31.8681,286.0543],[18.4903,-31.8784,313.3892],[18.4837,-31.8846,338.0872],[18.4992,-31.889,333.4168],[18.5109,-31.8837,336.0687],[18.5454,-31.8844,246.0066],[18.5612,-31.8789,193.1824],[18.6229,-31.9563,250.4098],[18.6356,-31.9562,300.7612]]]]}
,"properties": {"GID_3": "ZAF.9.6.3_1","GID_0": "ZAF","country": "SouthAfrica","GID_1": "ZAF.9_1","province": "WesternCape","NL_NAME_1": "NA","GID_2": "ZAF.9.6_1","county": "WestCoast","NL_NAME_2": "NA","city": "Matzikama","VARNAME_3": "NA","NL_NAME_3": "NA","TYPE_3": "LocalMunicipality","ENGTYPE_3": "LocalMunicipality","CC_3": "WC011","HASC_3": "NA","name": "Matzikama.city","area_km2": 12997.79,"hist_schema_id": "Elevation0-9000","hist_area_km2": {"0": 104.45,"25": 257.52,"50": 353.76,"75": 519.73,"100": 764.56,"125": 923.68,"150": 932.15,"175": 870.48,"200": 800.1,"225": 769.62,"250": 669.92,"275": 611.44,"300": 607.38,"325": 566.5,"350": 522.5,"375": 449.08,"400": 377.17,"425": 305.53,"450": 259.59,"475": 203.43,"500": 177.09,"525": 182.76,"550": 191.1,"575": 175.57,"600": 169.1,"625": 164.7,"650": 136.94,"675": 108.84,"700": 92.08,"725": 71.34,"750": 64.62,"775": 61.06,"800": 57.41,"825": 53.34,"850": 54.81,"875": 62.12,"900": 62.31,"925": 50.93,"950": 38.4,"975": 43.82,"1000": 44.24,"1025": 34.58,"1050": 18.93,"1075": 9.05,"1100": 3.25,"1125": 0.75}}}