{"type":"Feature","properties":{"GID_3":"ZAF.8.5.2_1","GID_0":"ZAF","country":"SouthAfrica","GID_1":"ZAF.8_1","province":"NorthernCape","NL_NAME_1":"NA","GID_2":"ZAF.8.5_1","county":"Siyanda","NL_NAME_2":"NA","city":"//KharaHais","VARNAME_3":"NA","NL_NAME_3":"NA","TYPE_3":"LocalMunicipality","ENGTYPE_3":"LocalMunicipality","CC_3":"NC083","HASC_3":"NA","name":"__Khara_Hais.city"},
"geometry":{"type": "MultiPolygon","coordinates": [[[[21.2931,-28.6737,884.7852],[21.3004,-28.665,896.2347],[21.3418,-28.6319,886.9724],[21.4441,-28.5994,904.2668],[21.5317,-28.5634,937.689],[21.61,-28.551,1111.8877],[21.6534,-28.5059,945.6921],[21.6831,-28.5182,875.5766],[21.6854,-28.5283,871.5939],[21.6881,-28.5237,854.718],[21.7016,-28.5125,835.6826],[21.696,-28.5029,843.3255],[21.7063,-28.4965,822.5927],[21.7124,-28.5001,832.8881],[21.7385,-28.4753,860.4109],[21.7424,-28.4847,864.7769],[21.7625,-28.5142,841.092],[21.7726,-28.5052,858.4337],[21.787,-28.5051,862.9684],[21.8376,-28.3827,944.2686],[21.8168,-28.3479,940.7634],[21.797,-28.3437,920.9291],[21.7742,-28.353,912.7106],[21.7465,-28.3008,913.6091],[21.7147,-28.2923,916.8837],[21.6896,-28.2752,933.3663],[21.7479,-28.2363,943.5093],[21.6813,-28.2096,945.1395],[21.7365,-28.1566,969.6709],[21.7557,-28.1416,1031.866],[21.809,-28.08,1018.9286],[21.8261,-28.0389,1023.1636],[21.8329,-28.0106,1027.8182],[21.7885,-27.9682,1012.283],[21.9872,-27.8069,1048.9774],[21.987,-27.761,1034.1204],[21.9997,-27.761,1044.7848],[21.9997,-27.7506,1031.6682],[21.9163,-27.5538,1009.887],[21.9994,-27.5248,1035.5168],[21.9995,-27.0248,950.5059],[21.9852,-27.0182,944.699],[21.9516,-26.9488,932.5123],[21.9171,-26.9587,928.7714],[21.9075,-26.9323,928.4229],[21.8724,-26.8601,937.0456],[21.831,-26.7978,936.0589],[21.8103,-26.7742,930.9615],[21.7929,-26.7696,885.2525],[21.7918,-26.7757,884.1982],[21.7836,-26.7855,884.5049],[21.781,-26.8023,883.8443],[21.7718,-26.8029,892.5397],[21.7638,-26.8121,883.9413],[21.7368,-26.8288,882.3878],[21.7009,-26.8588,880.1193],[21.6944,-26.8612,879.9227],[21.6843,-26.8554,879.1475],[21.6775,-26.854,878.4396],[21.6743,-26.8551,878.6334],[21.6695,-26.8612,878.9331],[21.6627,-26.8646,879.267],[21.6436,-26.8635,877.5005],[21.6271,-26.8667,881.5292],[21.6184,-26.8613,877.2737],[21.6047,-26.846,877.4848],[21.5949,-26.8413,879.7001],[21.5753,-26.8399,874.2515],[21.5615,-26.85,875.3762],[21.5566,-26.8493,873.2935],[21.549,-26.8441,873.354],[21.5411,-26.843,872.6471],[21.5333,-26.856,872.6245],[21.5292,-26.8606,874.3999],[21.5255,-26.8619,875.9186],[21.4983,-26.8508,870.8264],[21.4854,-26.8414,871.8573],[21.4619,-26.840699999999998,869.5026],[21.4558,-26.8381,883.4517],[21.4492,-26.8309,875.1577],[21.4401,-26.8272,869.1578],[21.4049,-26.8221,867.78],[21.3895,-26.8245,867.3828],[21.3761,-26.8306,868.2214],[21.3578,-26.8293,866.0316],[21.3441,-26.8254,865.9763],[21.3327,-26.8256,864.7662],[21.3281,-26.8286,864.7424],[21.3172,-26.8412,864.6378],[21.3067,-26.8472,866.3202],[21.2992,-26.8494,865.8876],[21.2885,-26.849,863.5269],[21.2747,-26.8391,869.0443],[21.2686,-26.8375,866.6361],[21.2599,-26.8388,862.3036],[21.2488,-26.8456,862.4134],[21.2452,-26.8462,863.1345],[21.2299,-26.8436,861.6021],[21.2217,-26.8438,862.2611],[21.1932,-26.8527,867.9108],[21.1769,-26.8666,859.9417],[21.1691,-26.8687,860.4343],[21.1549,-26.8673,858.9241],[21.1342,-26.8738,859.4205],[21.1244,-26.8693,859.2292],[21.1156,-26.8595,867.7223],[21.1099,-26.8575,863.4572],[21.0972,-26.8564,857.1655],[21.0789,-26.8485,856.1117],[21.0712,-26.8484,856.0516],[21.0601,-26.8517,858.499],[21.0415,-26.8467,855.0841],[21.0258,-26.8477,854.4601],[21.0109,-26.8467,854.509],[21.0066,-26.8443,854.5959],[20.986,-26.8252,853.5308],[20.9774,-26.8111,853.2468],[20.9685,-26.8063,852.5877],[20.9619,-26.8069,852.2582],[20.9537,-26.8119,852.0218],[20.9466,-26.8139,852.5453],[20.9094,-26.7976,853.4867],[20.8986,-26.7963,851.8495],[20.886,-26.7971,850.7792],[20.8447,-26.8185,850.6171],[20.8253,-26.818,849.693],[20.8197,-26.8199,850.019],[20.8188,-26.8211,851.9984],[20.8619,-26.8544,888.6803],[20.8288,-26.9067,891.7874],[20.906,-26.9134,883.6885],[20.9022,-26.9356,871.9064],[20.8939,-26.9656,880.6801],[20.8928,-26.965699999999998,872.1346],[20.9116,-27.0262,886.1685],[20.9603,-26.9872,879.2064],[20.9736,-26.9895,868.7036],[20.987,-27.0184,900.7421],[20.9755,-27.0619,886.5684],[20.9728,-27.1119,890.1673],[20.9676,-27.1446,904.6987],[20.96,-27.1603,888.3756],[21.0265,-27.1793,889.3029],[20.9941,-27.2856,890.0629],[20.932,-27.2891,883.6553],[20.9228,-27.3726,880.8021],[20.8448,-27.3929,880.7972],[20.8406,-27.4344,870.5841],[20.7527,-27.4656,865.8098],[20.7116,-27.4968,831.9608],[20.6527,-27.538,856.2532],[20.6404,-27.5275,857.9243],[20.6057,-27.5777,863.1157],[20.5854,-27.6141,857.4053],[20.5867,-27.6557,858.3823],[20.5019,-27.6694,840.698],[20.5064,-27.6986,849.392],[20.3895,-27.7907,815.5811],[20.4119,-27.8533,812.3932],[20.4144,-27.8529,806.0841],[20.4161,-27.8648,802.296],[20.4318,-27.9025,799.7609],[20.466,-27.9206,800.2542],[20.4755,-27.9423,804.2555],[20.4834,-27.9395,798.1374],[20.4895,-27.9411,792.9575],[20.4934,-27.9451,790.7734],[20.5045,-27.9501,790.7885],[20.5118,-27.9587,789.1565],[20.5647,-27.9593,851.9126],[20.5234,-27.9868,825.2222],[20.5528,-28.0277,783.0783],[20.5504,-28.0288,799.127],[20.5548,-28.0298,782.2518],[20.558,-28.0348,780.0023],[20.5605,-28.0494,780.9898],[20.5659,-28.0617,787.0701],[20.5722,-28.0903,783.3326],[20.5667,-28.0911,779.9381],[20.58,-28.1819,839.262],[20.6696,-28.2358,836.8055],[20.7123,-28.2815,853.1946],[20.805,-28.3548,899.4261],[20.8311,-28.3599,915.2576],[20.8496,-28.351,917.874],[20.9263,-28.4127,959.9753],[21.0012,-28.4007,924.2078],[21.02,-28.3832,926.541],[21.041,-28.4046,904.9346],[21.0281,-28.4294,890.1033],[21.0178,-28.4439,894.4991],[21.1604,-28.5932,767.9178],[21.1635,-28.5929,768.9069],[21.1749,-28.6,780.9424],[21.1791,-28.5961,781.0525],[21.1937,-28.6012,798.4286],[21.1914,-28.6077,815.6074],[21.2605,-28.7115,886.3546],[21.2931,-28.6737,884.7852]]]]}}