{"type":"Feature","properties":{"GID_3":"ZAF.4.10.1_1","GID_0":"ZAF","country":"SouthAfrica","GID_1":"ZAF.4_1","province":"KwaZulu-Natal","NL_NAME_1":"NA","GID_2":"ZAF.4.10_1","county":"Uthungulu","NL_NAME_2":"NA","city":"Mfolozi","VARNAME_3":"NA","NL_NAME_3":"NA","TYPE_3":"LocalMunicipality","ENGTYPE_3":"LocalMunicipality","CC_3":"KZN281","HASC_3":"NA","name":"Mfolozi.city"},
"geometry":{"type": "MultiPolygon","coordinates": [[[[32.1525,-28.754,10.6727],[32.1935,-28.7204,0.0],[32.2149,-28.6957,60.4778],[32.2268,-28.6843,17.3366],[32.2482,-28.6671,5.945],[32.2721,-28.6535,0.0],[32.2974,-28.6349,0.0],[32.3049,-28.6226,48.0928],[32.3132,-28.6132,17.876],[32.3363,-28.5985,0.0],[32.3613,-28.5765,0.0],[32.3815,-28.5524,11.3264],[32.399,-28.5265,0.6963],[32.4007,-28.5196,8.0781],[32.4121,-28.4949,-1.1129],[32.4154,-28.4765,-0.2403],[32.3932,-28.4727,1.9621],[32.3884,-28.4803,1.9634],[32.3802,-28.4848,1.6274],[32.3656,-28.4852,2.7784],[32.3372,-28.4939,3.2653],[32.3245,-28.5093,4.1483],[32.3164,-28.5126,3.5297],[32.3155,-28.5181,4.2815],[32.3115,-28.5202,6.0647],[32.3043,-28.5181,6.5636],[32.2952,-28.5107,8.705],[32.288,-28.5099,6.9171],[32.2744,-28.5024,5.9005],[32.2637,-28.4942,6.8023],[32.2613,-28.4883,7.3458],[32.257,-28.489,7.4784],[32.2523,-28.4927,8.2869],[32.2457,-28.4918,8.5146],[32.2413,-28.4936,10.0191],[32.2297,-28.4941,10.4103],[32.234,-28.4723,14.3178],[32.2313,-28.4719,18.759],[32.2349,-28.4548,16.5664],[32.2122,-28.459,17.4918],[32.1757,-28.4507,17.1667],[32.1596,-28.4453,17.8782],[32.1504,-28.4506,16.6625],[32.1444,-28.4585,15.7693],[32.1381,-28.4597,17.5971],[32.1358,-28.4574,15.0426],[32.133,-28.4482,23.0191],[32.1245,-28.4417,16.7566],[32.1111,-28.4362,17.9834],[32.0899,-28.448,30.0698],[32.0781,-28.4487,21.2254],[32.0702,-28.456,18.997],[32.0597,-28.4573,26.4047],[32.0561,-28.455,33.4539],[32.0545,-28.4484,24.635],[32.0611,-28.4392,26.9067],[32.0587,-28.4265,29.4259],[32.0676,-28.419,27.1117],[32.0669,-28.4144,27.5438],[32.0641,-28.4136,23.8863],[32.0558,-28.4179,27.3593],[32.0521,-28.4175,23.5],[32.0461,-28.4051,27.5644],[32.0346,-28.3972,27.6923],[32.0313,-28.3993,27.8812],[32.0248,-28.41,30.4469],[32.0204,-28.411,31.8696],[32.0137,-28.4082,30.5155],[32.0047,-28.3961,32.5612],[31.9936,-28.391,33.3036],[31.9901,-28.3876,33.0],[31.9896,-28.3845,33.5],[31.9954,-28.3808,37.9807],[32.0038,-28.3796,37.3277],[32.0113,-28.3802,35.4204],[32.0225,-28.3856,37.1831],[32.025,-28.383,41.9306],[32.0237,-28.3788,37.0],[32.0135,-28.3618,38.875],[31.9941,-28.3609,40.5],[31.9814,-28.3504,57.7695],[31.9805,-28.3621,69.5591],[31.9625,-28.4062,185.831],[31.8358,-28.4274,182.2528],[31.8637,-28.4457,113.317],[31.8598,-28.4532,121.3984],[31.8624,-28.4588,129.0417],[31.8531,-28.4683,199.8744],[31.8402,-28.4943,281.622],[31.8437,-28.5011,258.2797],[31.871,-28.5312,177.9302],[31.8903,-28.5674,367.0922],[31.8967,-28.5715,292.4109],[31.8955,-28.5952,103.8825],[31.9069,-28.6077,282.5262],[31.903199999999998,-28.6115,133.2816],[31.905,-28.6148,111.0871],[31.9119,-28.6164,83.4359],[31.9145,-28.6196,66.4041],[31.9137,-28.6287,52.7994],[31.9165,-28.631,54.3331],[31.916,-28.6337,51.0411],[31.9199,-28.6358,52.6314],[31.928,-28.6273,72.5825],[31.9311,-28.6308,74.7323],[31.9305,-28.6373,46.467],[31.9259,-28.6409,55.0983],[31.9264,-28.6443,50.3465],[31.9308,-28.645,42.3945],[31.9308,-28.6473,41.6952],[31.9279,-28.6496,42.9672],[31.9297,-28.6523,41.0764],[31.9328,-28.6509,39.8369],[31.933,-28.6458,64.2094],[31.9354,-28.6453,44.7256],[31.9414,-28.6521,36.0665],[31.9452,-28.6494,33.8791],[31.945,-28.6528,38.6005],[31.9492,-28.6575,32.3709],[31.9451,-28.6611,33.569],[31.946,-28.6635,31.5434],[31.9503,-28.6653,36.9199],[31.9592,-28.6642,28.6106],[32.0003,-28.622,142.055],[32.0056,-28.6253,44.5731],[32.005,-28.6286,40.7778],[31.9996,-28.631,41.1485],[31.9992,-28.635,39.1693],[32.0023,-28.6393,38.0198],[32.0003,-28.6432,37.9934],[32.0021,-28.6455,36.4886],[32.0,-28.6484,39.4898],[32.0026,-28.6484,33.6595],[32.0047,-28.6509,32.0257],[32.0076,-28.6483,31.922],[32.0216,-28.6461,39.2852],[32.0235,-28.6486,26.3705],[32.0271,-28.6497,29.1004],[32.0259,-28.6527,31.0671],[32.0277,-28.6536,22.1862],[32.0274,-28.657,26.8634],[32.03,-28.6574,30.3288],[32.0315,-28.6536,28.0235],[32.0344,-28.6577,30.3487],[32.0381,-28.6591,14.9531],[32.0324,-28.6626,20.8717],[32.0316,-28.6653,19.778],[32.0277,-28.666,23.1251],[32.0285,-28.6675,17.1638],[32.0269,-28.6708,14.4642],[32.0295,-28.6744,12.403],[32.0273,-28.6777,11.7439],[32.0246,-28.6756,14.9567],[32.0236,-28.6779,12.4937],[32.0189,-28.6779,19.5821],[32.02,-28.68,15.345],[32.0179,-28.6814,10.0764],[32.0205,-28.6847,14.5967],[32.019,-28.6859,9.3223],[32.0201,-28.6873,13.5227],[32.0264,-28.6873,18.8788],[32.0285,-28.6895,15.9573],[32.0366,-28.6909,27.0112],[32.0411,-28.6819,46.0197],[32.0571,-28.6642,52.1289],[32.0735,-28.6839,70.7072],[32.0685,-28.7034,71.2987],[32.0882,-28.7043,68.9829],[32.106,-28.7105,56.1959],[32.1209,-28.7034,58.65],[32.1442,-28.702,27.5711],[32.1543,-28.7079,10.9565],[32.1498,-28.7124,13.3961],[32.146,-28.712,13.8333],[32.1429,-28.7141,27.008],[32.1386,-28.7245,18.3608],[32.1417,-28.7244,1.4888],[32.1431,-28.7269,3.5371],[32.1344,-28.7344,0.5],[32.1262,-28.7444,0.5],[32.1259,-28.7487,2.1673],[32.144,-28.7612,16.4258],[32.1525,-28.754,10.6727]]]]}}