{"type":"Feature","properties":{"GID_2":"ZAF.5.4_1","GID_0":"ZAF","country":"SouthAfrica","GID_1":"ZAF.5_1","province":"Limpopo","NL_NAME_1":"NA","county":"Vhembe","VARNAME_2":"NA","NL_NAME_2":"NA","TYPE_2":"DistrictMunicipality","ENGTYPE_2":"DistrictMunicipality","CC_2":"DC34","HASC_2":"ZA.NP.VH","name":"Vhembe.county"},
"geometry":{"type": "MultiPolygon","coordinates": [[[[30.3566,-23.3337,528.0033],[30.3571,-23.3236,527.3264],[30.3641,-23.3172,519.5],[30.3692,-23.3102,519.5],[30.3599,-23.3004,556.6733],[30.3488,-23.2819,581.0072],[30.335,-23.2494,547.7112],[30.3685,-23.2477,534.1963],[30.4035,-23.2342,519.6071],[30.4186,-23.2707,502.8013],[30.4229,-23.2717,501.7615],[30.4255,-23.2705,498.3763],[30.4281,-23.2558,502.6896],[30.4393,-23.2548,505.0877],[30.4489,-23.2485,492.1022],[30.4529,-23.2495,489.9397],[30.4648,-23.2403,487.6911],[30.4737,-23.2405,486.3305],[30.4876,-23.2442,485.6417],[30.5,-23.2532,481.877],[30.5094,-23.2578,487.7189],[30.5162,-23.2686,480.9384],[30.5328,-23.2752,478.2774],[30.5221,-23.2187,516.0247],[30.5627,-23.1757,529.5149],[30.5658,-23.1784,522.7515],[30.5652,-23.18,524.3715],[30.5738,-23.1772,515.7109],[30.5783,-23.1807,510.7872],[30.5899,-23.178,512.0098],[30.5901,-23.1838,501.9163],[30.5946,-23.1849,499.0059],[30.598,-23.1826,497.2754],[30.6021,-23.1832,496.2762],[30.6043,-23.1816,500.739],[30.6052,-23.175,491.0985],[30.6113,-23.1742,487.8949],[30.6119,-23.1726,492.9809],[30.6164,-23.174,486.8734],[30.6213,-23.1732,482.9842],[30.6275,-23.1817,481.8675],[30.6522,-23.1574,616.4208],[30.7281,-23.0722,491.3054],[30.7342,-23.0747,490.382],[30.7384,-23.0823,488.9693],[30.7555,-23.0871,485.4324],[30.7625,-23.0863,490.9503],[30.7614,-23.0912,483.3649],[30.7639,-23.0953,482.7333],[30.7682,-23.0933,480.1953],[30.7691,-23.090699999999998,480.7853],[30.7763,-23.0889,477.9068],[30.7769,-23.0861,479.3325],[30.7837,-23.0887,476.8668],[30.7877,-23.0869,477.1989],[30.7892,-23.0894,474.6521],[30.7942,-23.0911,475.8855],[30.7966,-23.0988,473.3928],[30.8057,-23.1048,471.7714],[30.809,-23.1014,468.7817],[30.8129,-23.101,469.3797],[30.8169,-23.095,467.5855],[30.8197,-23.0958,465.3106],[30.8317,-23.0938,464.8583],[30.832,-23.1016,467.8116],[30.8422,-23.1091,460.2411],[30.8399,-23.1119,460.0297],[30.8367,-23.1113,460.6688],[30.8326,-23.1173,459.4028],[30.8436,-23.1246,455.9038],[30.8482,-23.124,455.4919],[30.8511,-23.1209,454.623],[30.8569,-23.1225,458.8491],[30.8608,-23.1284,452.5449],[30.8629,-23.1265,450.1192],[30.8656,-23.127,450.2454],[30.8736,-23.1242,452.894],[30.8755,-23.126,454.5083],[30.8795,-23.1434,446.6986],[30.8791,-23.1488,446.9686],[30.8809,-23.1508,446.6522],[30.8843,-23.1481,445.7693],[30.8902,-23.1479,445.1437],[30.893,-23.1461,445.5663],[30.8969,-23.1423,444.4953],[30.8963,-23.1386,442.8752],[30.8988,-23.1373,440.5099],[30.9043,-23.1387,442.6587],[30.9061,-23.1431,439.6022],[30.9135,-23.1472,436.1848],[30.9208,-23.141,435.0869],[30.9296,-23.1394,433.6992],[30.9446,-23.1794,423.4156],[30.9477,-23.1756,422.9543],[30.9474,-23.1661,417.6533],[30.9498,-23.1645,418.0883],[30.9564,-23.1643,416.6284],[30.9587,-23.1661,414.8857],[30.962,-23.1701,412.8447],[30.9612,-23.174,413.1749],[30.9649,-23.1721,409.2542],[30.9669,-23.1741,408.5145],[30.9687,-23.1737,409.1662],[30.9804,-23.1689,407.1898],[30.9848,-23.17,405.9053],[30.992,-23.1754,403.159],[30.9984,-23.1734,404.4883],[31.006,-23.1748,402.5312],[31.0149,-23.1722,401.4472],[31.0206,-23.1731,399.8371],[31.0242,-23.1775,405.5316],[31.0234,-23.1811,399.3901],[31.0206,-23.1841,398.3171],[31.0248,-23.1922,397.7332],[31.0362,-23.1969,394.6467],[31.0405,-23.1926,393.066],[31.0368,-23.1809,388.0471],[31.0424,-23.1769,387.6521],[31.047,-23.1778,386.9792],[31.0519,-23.1748,383.7063],[31.0545,-23.1761,391.6609],[31.0573,-23.1836,380.8973],[31.0622,-23.1871,380.8324],[31.0626,-23.1912,380.2439],[31.0754,-23.1992,376.7795],[31.0814,-23.209,375.0608],[31.0859,-23.2098,375.0282],[31.088,-23.2125,372.5487],[31.0907,-23.211,372.4944],[31.0948,-23.2046,372.6634],[31.0939,-23.1982,370.463],[31.096,-23.1963,372.3557],[31.103,-23.196,371.3223],[31.104,-23.1922,370.4693],[31.1079,-23.1895,367.3115],[31.1099,-23.1823,368.6077],[31.1151,-23.18,364.6305],[31.1207,-23.1734,365.4858],[31.1262,-23.1705,362.845],[31.1308,-23.1754,366.3319],[31.129,-23.1796,361.3473],[31.1323,-23.182,358.4666],[31.1372,-23.1825,358.7509],[31.1451,-23.1784,356.276],[31.1462,-23.1824,356.8995],[31.1491,-23.1832,362.322],[31.1458,-23.1883,354.2456],[31.1478,-23.1924,352.7918],[31.1512,-23.1893,352.0048],[31.1567,-23.1881,352.8869],[31.1628,-23.1898,353.1957],[31.1669,-23.1932,350.1623],[31.1675,-23.1947,351.4791],[31.1626,-23.203,346.7289],[31.1638,-23.2073,346.0012],[31.1776,-23.2039,345.4736],[31.1879,-23.2079,341.9252],[31.1979,-23.209,339.645],[31.2057,-23.2187,337.4499],[31.2114,-23.2206,336.7553],[31.2158,-23.22,335.4556],[31.2205,-23.215699999999998,334.7813],[31.2245,-23.2176,331.6391],[31.2356,-23.2066,329.5913],[31.2459,-23.2069,325.9008],[31.2574,-23.2037,322.8228],[31.2597,-23.1994,322.8225],[31.2575,-23.1944,321.9628],[31.2607,-23.188,319.3134],[31.2804,-23.1861,319.2274],[31.2946,-23.1796,313.8359],[31.2968,-23.1723,316.0889],[31.3029,-23.1738,312.0082],[31.3118,-23.1695,306.3214],[31.3163,-23.1724,299.7003],[31.3262,-23.1744,295.5385],[31.3325,-23.1673,293.7075],[31.3364,-23.1674,294.5096],[31.3427,-23.1642,293.6851],[31.3469,-23.1605,290.864],[31.3473,-23.1537,291.0772],[31.3558,-23.1423,287.925],[31.3663,-23.1416,285.9597],[31.3756,-23.1374,287.7166],[31.3793,-23.1236,281.9302],[31.378,-23.1204,285.158],[31.3746,-23.1182,283.4971],[31.3767,-23.1073,276.7773],[31.3837,-23.106,280.265],[31.3851,-23.0959,274.0376],[31.4042,-23.097,273.8265],[31.4119,-23.0911,270.442],[31.4182,-23.093,274.5439],[31.4261,-23.0984,270.8785],[31.4311,-23.1058,267.3063],[31.4463,-23.1082,263.7833],[31.4563,-23.1127,267.0765],[31.4571,-23.1159,260.3],[31.4524,-23.1323,260.5491],[31.4583,-23.1418,258.1189],[31.4618,-23.1436,258.5477],[31.4688,-23.1428,259.8094],[31.4744,-23.1448,254.8902],[31.4767,-23.1493,256.5593],[31.4766,-23.1534,253.8924],[31.4785,-23.1545,255.1097],[31.5008,-23.1591,251.2568],[31.5042,-23.1683,251.7996],[31.5092,-23.1705,252.4299],[31.5201,-23.1815,246.3198],[31.5372,-23.1901,242.8542],[31.5415,-23.1992,242.8116],[31.5423,-23.2108,243.4107],[31.5565,-23.2222,236.2074],[31.5614,-23.2243,252.4544],[31.5636,-23.1982,288.2188],[31.5458,-23.1372,282.747],[31.3074,-22.4235,193.0],[31.3094,-22.422,199.111],[31.2871,-22.4044,199.7168],[31.2783,-22.3904,203.6672],[31.2738,-22.3751,202.9674],[31.269,-22.368,203.9221],[31.2631,-22.3649,204.3689],[31.2495,-22.3629,204.9598],[31.2209,-22.3698,209.052],[31.2131,-22.3687,209.9024],[31.2009,-22.3608,208.3328],[31.1874,-22.3389,213.8607],[31.1741,-22.3315,215.1126],[31.1636,-22.3286,213.0],[31.1565,-22.3286,214.8033],[31.141,-22.3319,215.0],[31.0976,-22.3477,222.1908],[31.0884,-22.349,220.5492],[31.0501,-22.3371,227.2634],[31.022,-22.3245,229.483],[30.9997,-22.3164,235.6962],[30.9953,-22.3175,229.0],[30.9929,-22.3241,230.5934],[30.9901,-22.3266,230.0],[30.9809,-22.3276,232.6132],[30.9732,-22.3237,234.8094],[30.9687,-22.3149,233.0],[30.9463,-22.3151,235.0],[30.9411,-22.312,238.3159],[30.9338,-22.303,238.3029],[30.9301,-22.3013,237.375],[30.9172,-22.3007,239.7404],[30.9081,-22.2973,244.7383],[30.9002,-22.2964,240.8833],[30.8824,-22.3048,244.7385],[30.8698,-22.2987,244.3186],[30.8362,-22.292,251.6779],[30.7959,-22.301,267.1164],[30.7744,-22.3043,280.9302],[30.7603,-22.3042,285.0748],[30.7498,-22.3079,289.353],[30.7318,-22.3094,289.3592],[30.7086,-22.3171,301.0904],[30.6694,-22.3106,311.3871],[30.6633,-22.311,311.6215],[30.6526,-22.3161,315.0753],[30.6391,-22.3323,325.6684],[30.6317,-22.3363,332.5044],[30.6237,-22.3357,326.7917],[30.6072,-22.323,343.6702],[30.5947,-22.3197,344.5],[30.5809,-22.3189,349.4773],[30.5671,-22.3216,351.5372],[30.5625,-22.3242,350.8261],[30.5577,-22.3298,354.6721],[30.5528,-22.3316,356.2423],[30.5174,-22.323,357.75],[30.5058,-22.3226,360.125],[30.4894,-22.3164,363.0],[30.4757,-22.3191,364.5],[30.4522,-22.3315,367.5],[30.4407,-22.3356,368.5],[30.3992,-22.3447,372.0],[30.3822,-22.3509,374.0],[30.3611,-22.3482,380.6421],[30.3361,-22.3506,380.0],[30.3163,-22.3477,381.0],[30.302,-22.3544,382.0],[30.2902,-22.3563,385.5592],[30.2829,-22.354,383.5],[30.2737,-22.3469,384.0],[30.2663,-22.3374,387.2522],[30.2576,-22.3207,387.0],[30.2498,-22.3134,388.0],[30.2406,-22.3084,389.0],[30.2363,-22.2998,390.0],[30.2311,-22.2959,391.9517],[30.1932,-22.2961,399.0925],[30.1574,-22.2998,399.0],[30.1502,-22.3019,400.0],[30.133,-22.311,402.5],[30.1262,-22.3111,403.0],[30.1216,-22.3087,403.5],[30.1013,-22.2867,404.625],[30.0758,-22.2743,407.1031],[30.0581,-22.2571,411.6567],[30.0505,-22.2549,411.3428],[30.0315,-22.256,416.486],[30.0256,-22.2536,434.2932],[30.0196,-22.2446,412.8814],[30.0198,-22.2334,418.3514],[30.0176,-22.2289,415.5714],[30.0112,-22.2274,416.3523],[29.9998,-22.2288,417.7399],[29.9819,-22.2235,423.5],[29.9699,-22.2242,430.2228],[29.9606,-22.213,433.1431],[29.9257,-22.1899,444.2853],[29.916,-22.1896,447.1794],[29.8903,-22.1952,448.4915],[29.8845,-22.1946,450.1144],[29.8777,-22.191,454.0562],[29.8599,-22.1752,453.8053],[29.8311,-22.175,458.7987],[29.8052,-22.1655,459.4778],[29.798,-22.1575,465.2927],[29.7736,-22.1414,463.7261],[29.7319,-22.1413,473.5873],[29.7166,-22.1434,470.9976],[29.7002,-22.1371,470.491],[29.6922,-22.1364,472.9149],[29.6726,-22.1388,472.8387],[29.6628,-22.1276,477.4853],[29.6567,-22.1251,475.2153],[29.653,-22.1255,476.2885],[29.6407,-22.1323,476.2038],[29.6282,-22.1356,478.6515],[29.6221,-22.1415,480.9786],[29.6165,-22.1521,480.332],[29.6102,-22.1557,481.6985],[29.6019,-22.1544,481.5726],[29.5883,-22.1434,483.5122],[29.5802,-22.1409,483.3613],[29.5748,-22.1423,484.3622],[29.5625,-22.1498,485.6667],[29.5392,-22.1527,487.7444],[29.5355,-22.1552,488.4309],[29.5342,-22.1583,492.7011],[29.5348,-22.1703,490.4464],[29.5316,-22.1754,491.4183],[29.528,-22.178,493.0449],[29.5108,-22.1769,494.1802],[29.4991,-22.172,494.1269],[29.4778,-22.1663,500.2726],[29.4641,-22.1661,497.2795],[29.4168,-22.1751,501.9126],[29.4096,-22.1782,502.6113],[29.4058,-22.1833,505.9879],[29.3992,-22.1842,503.3636],[29.3856,-22.1921,505.495],[29.3629,-22.1996,511.587],[29.3528,-22.198,507.3332],[29.3498,-22.1934,510.3492],[29.3466,-22.1928,511.0612],[29.3402,-22.2021,514.1176],[29.3338,-22.2048,516.7856],[29.3275,-22.2003,512.3356],[29.3241,-22.1891,514.9235],[29.3206,-22.187,511.3047],[29.3092,-22.1883,515.1098],[29.2994,-22.186,515.2223],[29.291,-22.1881,518.1201],[29.2842,-22.1861,517.9642],[29.2772,-22.1926,516.705],[29.2712,-22.1932,515.9796],[29.266,-22.1894,519.9244],[29.2577,-22.1934,519.2548],[29.2383,-22.1818,516.4609],[29.2189,-22.1781,519.515],[29.2115,-22.182,521.4609],[29.198,-22.1834,520.2563],[29.1908,-22.1858,522.7458],[29.1873,-22.1894,519.4766],[29.1805,-22.1928,522.6],[29.1745,-22.2006,522.4962],[29.1662,-22.2074,521.9163],[29.1511,-22.215699999999998,525.7844],[29.1433,-22.2164,526.9645],[29.1333,-22.2136,526.2483],[29.1218,-22.2145,522.8451],[29.108,-22.2124,526.2206],[29.0864,-22.2206,529.8491],[29.0813,-22.2211,529.498],[29.0715,-22.2182,527.4017],[29.049,-22.2192,526.9011],[29.0454,-22.2169,527.658],[29.0369,-22.2163,529.16],[29.0308,-22.2208,532.1593],[29.0289,-22.2284,530.3616],[29.0268,-22.229,530.3855],[29.0198,-22.2262,535.1866],[29.0147,-22.2303,534.2805],[29.0128,-22.2379,531.8234],[29.0137,-22.2569,533.8649],[29.0049,-22.2626,542.517],[29.0028,-22.2747,534.1208],[28.9965,-22.2805,534.865],[28.9821,-22.2852,532.2283],[28.9776,-22.2913,538.4963],[28.9779,-22.2963,537.4587],[28.9761,-22.3005,536.0327],[28.9666,-22.3075,538.0515],[28.9627,-22.3288,551.5905],[28.9641,-22.3376,562.2997],[28.9635,-22.3472,584.379],[28.969,-22.3574,573.9161],[28.9718,-22.368,597.1271],[28.9715,-22.377,601.6279],[28.9677,-22.3841,605.7296],[28.9524,-22.4041,617.6874],[28.9512,-22.4155,614.4023],[28.9445,-22.4262,623.0543],[28.9443,-22.432,619.0809],[28.9251,-22.4529,620.7618],[28.9196,-22.468,631.1257],[28.9174,-22.4905,637.6303],[28.906,-22.4922,639.8528],[28.9048,-22.4976,640.9585],[28.9058,-22.5083,640.8016],[28.902,-22.512,642.932],[28.9329,-22.5211,693.916],[28.9611,-22.561,749.0272],[28.9791,-22.5811,876.4666],[29.0139,-22.5706,758.6202],[29.0388,-22.5573,773.7874],[29.0617,-22.5484,774.1943],[29.1073,-22.5392,786.4272],[29.1659,-22.5531,784.1652],[29.1756,-22.5768,782.9109],[29.1999,-22.6225,795.3517],[29.2094,-22.6628,837.3427],[29.2402,-22.6858,817.1893],[29.2047,-22.7126,838.8604],[29.2449,-22.7353,810.496],[29.2229,-22.8074,776.1377],[29.2126,-22.8237,788.3812],[29.2091,-22.8385,801.8754],[29.1934,-22.8696,801.0516],[29.1752,-22.8991,819.1108],[29.167,-22.9178,821.7565],[29.1741,-22.946,822.6208],[29.1833,-22.9735,822.5523],[29.2189,-22.9551,809.3435],[29.2463,-22.9384,804.3715],[29.2554,-22.9624,809.3246],[29.2575,-22.9925,827.2266],[29.2938,-22.9731,817.9908],[29.2845,-23.0023,845.7114],[29.2981,-23.0369,886.4469],[29.3067,-23.0543,890.5024],[29.3102,-23.0738,895.17],[29.2727,-23.0881,906.6927],[29.2824,-23.1148,918.6333],[29.2517,-23.1071,905.7183],[29.2664,-23.1694,938.066],[29.2729,-23.1698,942.511],[29.2629,-23.1979,959.6777],[29.2932,-23.204,978.5289],[29.2678,-23.2386,1013.4893],[29.3155,-23.2515,990.4565],[29.358,-23.2388,965.524],[29.4405,-23.2463,929.594],[29.4277,-23.28,942.9685],[29.4836,-23.2761,971.2817],[29.5341,-23.2754,959.9897],[29.5604,-23.2705,960.5507],[29.5918,-23.2683,909.7938],[29.5909,-23.2763,914.6512],[29.5927,-23.2837,913.3307],[29.5914,-23.2928,917.2322],[29.5983,-23.298,919.4491],[29.617,-23.3224,927.4963],[29.6215,-23.3246,935.9596],[29.6228,-23.327,936.051],[29.6118,-23.3363,939.2589],[29.612,-23.3442,950.0909],[29.6004,-23.372,956.8225],[29.6103,-23.384,957.9906],[29.6185,-23.3891,964.0449],[29.6176,-23.3948,963.6429],[29.6109,-23.403199999999998,968.0269],[29.6092,-23.4088,971.4427],[29.6116,-23.4205,979.6767],[29.6146,-23.4249,978.5618],[29.6178,-23.4265,982.6931],[29.6265,-23.4253,984.3235],[29.6379,-23.401,1006.9821],[29.6788,-23.416,1048.2046],[29.7117,-23.4215,1050.3247],[29.7401,-23.4058,1065.3732],[29.7419,-23.4352,1086.4373],[29.7654,-23.4293,1135.4513],[29.8096,-23.4266,1118.9573],[29.8408,-23.4301,1124.0735],[29.8668,-23.4374,1164.801],[29.8784,-23.4061,1151.0345],[29.8942,-23.4189,1165.6064],[29.8963,-23.4079,1120.147],[29.9,-23.4023,1100.1663],[29.9028,-23.4017,1104.7925],[29.9155,-23.4055,1135.6949],[29.9281,-23.4022,1162.6655],[29.9311,-23.3967,1166.4564],[29.9304,-23.379,1122.3723],[29.9349,-23.3715,1114.1097],[29.9481,-23.3857,1102.5984],[29.958,-23.3856,1079.4449],[29.9652,-23.3782,1053.9761],[29.9708,-23.3798,1041.0569],[29.9716,-23.3818,1043.8867],[29.9742,-23.3826,1026.1842],[29.976,-23.381,1029.6051],[29.9838,-23.3831,1071.5913],[29.9893,-23.3777,1050.821],[29.9898,-23.3582,1046.8185],[29.9972,-23.3375,1077.5326],[30.0377,-23.3387,932.0184],[30.0636,-23.3368,774.0884],[30.0472,-23.3698,1139.4689],[30.0716,-23.3637,1022.6867],[30.0909,-23.3473,955.9208],[30.1188,-23.3424,918.2009],[30.1468,-23.3414,749.9447],[30.1516,-23.3138,692.1337],[30.2343,-23.3085,833.3973],[30.2686,-23.3244,611.8478],[30.2731,-23.3517,703.9236],[30.294,-23.3857,584.9066],[30.3286,-23.3776,544.4407],[30.3346,-23.3719,535.0831],[30.3354,-23.364,531.3736],[30.3419,-23.3554,528.6791],[30.3454,-23.3452,526.0177],[30.3567,-23.3387,524.8605],[30.3566,-23.3337,528.0033]]]]}}