{"type":"Feature","properties":{"GID_3":"ZAF.8.1.4_1","GID_0":"ZAF","country":"SouthAfrica","GID_1":"ZAF.8_1","province":"NorthernCape","NL_NAME_1":"NA","GID_2":"ZAF.8.1_1","county":"FrancesBaard","NL_NAME_2":"NA","city":"SolPlaatjie","VARNAME_3":"NA","NL_NAME_3":"NA","TYPE_3":"LocalMunicipality","ENGTYPE_3":"LocalMunicipality","CC_3":"NC091","HASC_3":"NA","name":"Sol_Plaatjie.city"},
"geometry":{"type": "MultiPolygon","coordinates": [[[[24.7338,-28.9505,1143.0321],[24.9018,-28.648,1298.3285],[24.8277,-28.627,1229.3425],[24.8678,-28.5171,1166.5392],[24.8469,-28.5038,1155.2119],[24.8813,-28.4632,1147.7273],[24.8868,-28.465,1154.5983],[24.8993,-28.4305,1155.7798],[24.895,-28.4283,1155.4124],[24.89,-28.4283,1154.6049],[24.8819,-28.4315,1152.9143],[24.8736,-28.4284,1149.6171],[24.8656,-28.4318,1148.5929],[24.8602,-28.4321,1146.9233],[24.8553,-28.4312,1145.6016],[24.8516,-28.4282,1143.908],[24.8451,-28.4277,1141.6158],[24.8331,-28.4383,1136.2566],[24.8148,-28.4426,1129.6342],[24.8058,-28.4418,1128.0592],[24.7988,-28.448,1126.4182],[24.7912,-28.4417,1123.6782],[24.7863,-28.4343,1121.3099],[24.779,-28.4333,1119.7151],[24.7705,-28.4233,1115.0817],[24.7661,-28.4229,1117.1135],[24.762,-28.4257,1112.6072],[24.7598,-28.4305,1111.3929],[24.7558,-28.4342,1110.5475],[24.7574,-28.4375,1109.3423],[24.7554,-28.4436,1107.8765],[24.7514,-28.4427,1106.4918],[24.7493,-28.4406,1106.6293],[24.7435,-28.4458,1102.9968],[24.7389,-28.4458,1103.0332],[24.735,-28.4506,1100.8079],[24.7301,-28.4521,1099.552],[24.7281,-28.4496,1094.5159],[24.7265,-28.4497,1102.8704],[24.7268,-28.4532,1097.1042],[24.7242,-28.4557,1093.6316],[24.7113,-28.4574,1093.8821],[24.7083,-28.4623,1099.77],[24.7026,-28.4663,1106.0732],[24.6877,-28.47,1092.6813],[24.6826,-28.4735,1093.9238],[24.6825,-28.478,1093.78],[24.6863,-28.483,1095.95],[24.688,-28.4826,1091.9542],[24.6896,-28.4787,1093.751],[24.6948,-28.4776,1096.3019],[24.7027,-28.4794,1095.4399],[24.706,-28.4821,1096.8868],[24.7069,-28.4905,1092.071],[24.7149,-28.5018,1092.3711],[24.7084,-28.5117,1091.7075],[24.7045,-28.5138,1091.8546],[24.6888,-28.5144,1093.647],[24.6842,-28.5121,1091.6699],[24.6767,-28.5121,1092.1704],[24.6634,-28.506,1096.307],[24.6494,-28.5027,1098.429],[24.6455,-28.4985,1092.7117],[24.6494,-28.4926,1095.9261],[24.6488,-28.4846,1098.1722],[24.6464,-28.4809,1093.6259],[24.6425,-28.4821,1091.2551],[24.6368,-28.4876,1090.0],[24.618,-28.491,1092.9828],[24.6054,-28.4963,1095.1782],[24.6038,-28.4988,1090.0],[24.6019,-28.5131,1089.5],[24.5974,-28.5231,1094.9056],[24.5927,-28.5403,1092.4349],[24.6044,-28.5515,1094.8954],[24.6053,-28.5588,1097.913],[24.6031,-28.5739,1094.5596],[24.6082,-28.5972,1088.5962],[24.6042,-28.6015,1088.0],[24.5953,-28.604,1091.3145],[24.5924,-28.6427,1126.594],[24.5955,-28.6426,1126.9121],[24.5597,-28.6895,1187.5153],[24.5487,-28.7137,1200.832],[24.5217,-28.6746,1167.088],[24.446,-28.6357,1165.2034],[24.4089,-28.6268,1166.7153],[24.3551,-28.5876,1130.3262],[24.3388,-28.5807,1117.8409],[24.3335,-28.5608,1119.939],[24.2449,-28.5246,1068.1763],[24.1992,-28.5166,1002.0391],[24.189,-28.5246,1001.8412],[24.1861,-28.5363,1011.171],[24.175,-28.5426,1006.6892],[24.1702,-28.5527,1002.474],[24.1593,-28.561,1001.4888],[24.1475,-28.5749,1001.6188],[24.1336,-28.5851,1001.2526],[24.122,-28.5966,1004.6407],[24.117,-28.5986,1007.2908],[24.1178,-28.5997,1000.1718],[24.1091,-28.6094,1000.0278],[24.1093,-28.6146,1002.129],[24.0926,-28.6234,998.0],[24.0873,-28.6386,1003.4941],[24.0822,-28.6467,997.5],[24.0809,-28.6517,1004.1343],[24.0815,-28.6604,1001.3725],[24.0581,-28.6659,1002.5455],[24.0627,-28.6877,1005.8572],[24.0756,-28.7042,997.0],[24.0752,-28.7088,1001.3493],[24.0732,-28.7113,999.877],[24.0766,-28.7195,1015.4559],[24.0781,-28.736,1044.8744],[24.1006,-28.7641,1036.8429],[24.1091,-28.7783,1063.7195],[24.122,-28.7856,1089.588],[24.1408,-28.7911,1086.8853],[24.1625,-28.8042,1092.3992],[24.1819,-28.8116,1068.9607],[24.1887,-28.809,1065.6458],[24.2266,-28.8186,1071.8013],[24.2584,-28.8314,1069.7722],[24.2702,-28.8335,1064.1418],[24.2549,-28.8561,1055.9883],[24.2336,-28.8824,1045.7832],[24.2374,-28.8955,1032.6155],[24.2447,-28.9018,1038.9221],[24.261,-28.9479,1033.1257],[24.2677,-28.9444,1029.2371],[24.2728,-28.9516,1027.8782],[24.28,-28.9516,1026.2388],[24.2814,-28.9498,1029.0447],[24.2829,-28.934,1031.6147],[24.286,-28.9294,1035.5819],[24.2881,-28.9286,1030.0193],[24.2931,-28.931,1032.6543],[24.3005,-28.9312,1033.9927],[24.3096,-28.9238,1031.0616],[24.3226,-28.9335,1031.1892],[24.3297,-28.9326,1034.5072],[24.3382,-28.9281,1032.1257],[24.3512,-28.9276,1034.0632],[24.3563,-28.9326,1030.7233],[24.3741,-28.9343,1035.9502],[24.3837,-28.945,1036.3842],[24.3881,-28.9416,1033.1077],[24.3944,-28.9417,1037.9919],[24.4019,-28.9478,1038.5109],[24.4051,-28.9527,1036.3225],[24.4101,-28.9543,1043.6006],[24.4098,-28.9602,1043.8196],[24.4119,-28.9664,1050.9056],[24.429,-28.9925,1045.3193],[24.4339,-28.9975,1044.4775],[24.4502,-29.0032,1058.7872],[24.4676,-28.9978,1057.8627],[24.4773,-28.999,1059.6648],[24.4855,-28.9974,1073.1667],[24.4897,-28.9981,1067.9037],[24.4933,-29.001,1070.5232],[24.495,-29.007,1065.2493],[24.4999,-29.0125,1071.8578],[24.5126,-29.0182,1070.2521],[24.5128,-29.0317,1075.0719],[24.5044,-29.0392,1092.8286],[24.5011,-29.0444,1078.3976],[24.5033,-29.0491,1081.3516],[24.5075,-29.051,1080.5326],[24.5191,-29.0495,1082.89],[24.5352,-29.0422,1086.6838],[24.5405,-29.0462,1084.8861],[24.5717,-29.0426,1098.4135],[24.5833,-29.0454,1101.4519],[24.5938,-29.0417,1103.3375],[24.6054,-29.0422,1103.5],[24.6167,-29.0379,1106.7344],[24.6223,-29.0374,1106.0702],[24.6403,-29.0424,1110.8312],[24.6419,-29.0411,1110.2297],[24.642,-29.0371,1110.2727],[24.6385,-29.0295,1110.9187],[24.6437,-29.026,1113.7415],[24.6488,-29.0277,1112.9574],[24.6554,-29.0274,1112.2883],[24.6547,-29.0397,1114.5637],[24.6566,-29.0439,1114.9587],[24.6592,-29.0448,1115.4287],[24.6612,-29.0401,1115.6201],[24.6661,-29.0395,1114.5631],[24.6683,-29.0373,1113.9307],[24.6711,-29.028,1114.4888],[24.6789,-29.0319,1116.5671],[24.6918,-29.0257,1115.5347],[24.7338,-28.9505,1143.0321]]]]}}