{"type": "Feature","bbox": [31.892443819766811,-27.478483125542169,32.067590475410157,-27.331006697849205],"geometry": {"type": "Polygon","coordinates": [[[32.021080943323369,-27.424908854404208,362.7155],[31.997826177279961,-27.419904664242949,238.133],[31.981636150287727,-27.401065360106543,132.0],[31.96927285694818,-27.368685306122046,149.3019],[31.96603485154975,-27.346607996587181,134.2219],[31.96426866678695,-27.33983762166315,140.2221],[31.958381384244319,-27.331006697849205,133.7406],[31.952494101701689,-27.332184154357719,132.0],[31.946018090904772,-27.337482708646093,132.0],[31.93924771598077,-27.340131985790265,132.0],[31.926590058514108,-27.339248893408893,135.9339],[31.909222575013331,-27.340131985790265,142.8516],[31.895387461038126,-27.345136175951524,134.4464],[31.892443819766811,-27.356616376909642,134.5164],[31.89744800992807,-27.359560018180957,146.2549],[31.917759134700134,-27.3607374746895,132.0],[31.924529509624165,-27.362798023579415,132.0],[31.933654797565254,-27.372512039774762,132.0],[31.941013900743542,-27.383403512478623,132.0],[31.958675748371434,-27.430207408692581,132.0],[31.96927285694818,-27.446986163939073,132.0],[32.001358546805534,-27.478483125542169,146.41],[32.007540193475307,-27.463764919185593,284.4344],[32.016959845543511,-27.451990354100303,191.245],[32.029028774755915,-27.443159430286357,183.5469],[32.056699002706296,-27.428146859802638,312.5035],[32.066707383028756,-27.418727207734435,132.0],[32.067590475410157,-27.412839925191804,225.4203],[32.05375536143498,-27.416077930590262,226.4559],[32.021080943323369,-27.424908854404208,362.7155]]]}
,"properties": {"featurecla": "Lake","scalerank": 8,"name": "null400","name_abb": null,"name_alt": null,"note": "_untitled_43","delta": null,"dam_name": null,"year": -99,"admin": null,"min_zoom": 6.0,"min_label": 7.0,"area_km2": 74.9918,"hist_schema_id": "Elevation0-9000","hist_area_km2": {"125": 60.5384,"150": 4.19762,"175": 1.99466,"200": 1.5619,"225": 1.01617,"250": 0.88445,"275": 0.80915,"300": 0.50807,"325": 0.39515,"350": 0.33872,"375": 0.33872,"400": 0.37636,"425": 0.35755,"450": 0.30109,"475": 0.207,"500": 0.24465,"525": 0.28228,"550": 0.20701,"575": 0.15055,"600": 0.22583,"625": 0.05646}}}