{"type":"Feature","properties":{"GID_3":"ZAF.4.3.1_1","GID_0":"ZAF","country":"SouthAfrica","GID_1":"ZAF.4_1","province":"KwaZulu-Natal","NL_NAME_1":"NA","GID_2":"ZAF.4.3_1","county":"iLembe","NL_NAME_2":"NA","city":"KwaDukuza","VARNAME_3":"NA","NL_NAME_3":"NA","TYPE_3":"LocalMunicipality","ENGTYPE_3":"LocalMunicipality","CC_3":"KZN292","HASC_3":"NA","name":"Kwa_Dukuza.city"},
"geometry":{"type": "MultiPolygon","coordinates": [[[[31.2307,-29.5168,3.7935],[31.2357,-29.5076,0.0],[31.239,-29.5054,0.0],[31.239,-29.5035,3.0648],[31.2437,-29.4976,19.7882],[31.2504,-29.4912,12.5226],[31.2546,-29.4893,0.0],[31.2551,-29.4871,2.2724],[31.2576,-29.4865,0.0],[31.2618,-29.4804,18.2591],[31.2649,-29.4788,0.0],[31.2668,-29.474,3.5432],[31.2768,-29.464,0.0],[31.2779,-29.4624,0.0],[31.2771,-29.4593,0.4692],[31.279,-29.4601,0.0],[31.2835,-29.4557,2.3298],[31.2857,-29.4554,0.0],[31.2876,-29.4515,0.0],[31.2871,-29.449,0.0],[31.294,-29.4435,0.0],[31.2926,-29.4415,5.537],[31.2943,-29.4382,4.7302],[31.3015,-29.4326,0.0],[31.3018,-29.4299,2.0819],[31.3057,-29.4276,0.0],[31.3085,-29.4232,0.0],[31.3121,-29.4215,0.0],[31.3149,-29.4135,0.0],[31.3171,-29.4126,0.0],[31.3179,-29.4099,0.0],[31.3251,-29.4032,0.0],[31.3299,-29.4021,0.0],[31.3307,-29.3999,0.0],[31.3357,-29.3968,0.0],[31.3371,-29.3924,0.0],[31.3337,-29.3907,2.4677],[31.3351,-29.3871,1.2122],[31.349,-29.376,0.0],[31.3599,-29.364,2.6822],[31.3729,-29.3549,0.0],[31.374,-29.351,6.5869],[31.3826,-29.3468,0.0],[31.3915,-29.3388,6.458],[31.3996,-29.326,21.6584],[31.406,-29.3218,0.0],[31.4096,-29.3157,10.3044],[31.4201,-29.3088,1.0954],[31.4229,-29.3088,0.0],[31.429,-29.2987,0.0],[31.4365,-29.2935,7.4199],[31.4443,-29.2832,0.0],[31.4407,-29.2763,10.1597],[31.4438,-29.2787,0.0],[31.4535,-29.2671,20.1069],[31.4751,-29.251,1.7118],[31.4332,-29.2372,76.4062],[31.4154,-29.2257,89.949],[31.4105,-29.2508,9.4034],[31.4049,-29.2495,11.5154],[31.405,-29.2441,15.9922],[31.4037,-29.2427,29.0856],[31.3983,-29.2427,15.9556],[31.3962,-29.2445,16.9421],[31.395,-29.2426,17.9275],[31.3964,-29.2391,25.0887],[31.3938,-29.2389,21.8107],[31.3755,-29.258,70.2859],[31.3683,-29.2541,120.2908],[31.3699,-29.2481,123.2429],[31.3475,-29.2381,133.2785],[31.3435,-29.2329,136.0155],[31.3442,-29.2304,134.9261],[31.3466,-29.2308,132.0387],[31.3422,-29.2252,176.2663],[31.3437,-29.2243,189.4663],[31.3427,-29.2231,189.4663],[31.3566,-29.2143,139.2175],[31.3389,-29.2112,227.6093],[31.3346,-29.2145,197.8909],[31.3325,-29.2106,204.6666],[31.354,-29.1909,258.6307],[31.3527,-29.19,269.9066],[31.3707,-29.1689,152.3751],[31.3622,-29.163,203.2287],[31.3762,-29.1383,24.5],[31.3579,-29.136,32.3808],[31.3482,-29.1406,84.3234],[31.3471,-29.1429,37.1912],[31.35,-29.1666,53.0176],[31.3451,-29.1729,34.625],[31.3416,-29.175,48.3178],[31.3362,-29.174,46.5441],[31.3367,-29.1545,56.4627],[31.3337,-29.1512,62.1984],[31.3277,-29.15,44.5531],[31.3183,-29.15,43.5995],[31.3057,-29.1559,46.9202],[31.3043,-29.1592,52.6161],[31.3081,-29.1691,60.5096],[31.3071,-29.1747,78.1422],[31.3008,-29.1727,43.4887],[31.2948,-29.1656,42.699],[31.2887,-29.164,51.6284],[31.2877,-29.1705,76.8626],[31.2816,-29.1752,71.0996],[31.2828,-29.1806,81.9754],[31.2781,-29.183,109.6427],[31.2751,-29.1885,128.2347],[31.2597,-29.1899,156.6208],[31.2569,-29.1878,147.6706],[31.2555,-29.1783,175.6942],[31.2441,-29.1782,241.9964],[31.2414,-29.177,263.7968],[31.2409,-29.1743,251.5949],[31.2366,-29.1747,268.2128],[31.2366,-29.1779,285.2096],[31.2343,-29.1807,260.4442],[31.247,-29.1846,330.9082],[31.2484,-29.2008,352.9001],[31.2602,-29.2059,359.302],[31.2621,-29.204,378.9917],[31.264,-29.2281,364.5932],[31.2561,-29.2454,366.5165],[31.2038,-29.2477,484.0526],[31.1933,-29.2507,513.3372],[31.1783,-29.2524,532.8814],[31.166,-29.2584,406.4204],[31.1722,-29.2688,310.7862],[31.1693,-29.2741,248.9326],[31.1702,-29.2795,196.4483],[31.1749,-29.2816,150.7448],[31.1751,-29.2895,124.5508],[31.1727,-29.29,99.8673],[31.1725,-29.2926,96.8924],[31.1742,-29.2972,122.8407],[31.1814,-29.3038,157.9955],[31.1514,-29.3261,431.8438],[31.1611,-29.331,285.8416],[31.16,-29.3324,230.5969],[31.1827,-29.353,167.7351],[31.2059,-29.3579,162.3496],[31.2008,-29.3755,244.7198],[31.1931,-29.3808,261.7278],[31.1631,-29.3761,339.8648],[31.1537,-29.3899,372.6748],[31.1483,-29.4116,247.5228],[31.1292,-29.4107,269.3172],[31.1043,-29.4342,306.915],[31.0856,-29.4415,340.7189],[31.0708,-29.4605,341.7705],[31.0766,-29.4627,327.7732],[31.0792,-29.4658,291.4385],[31.0798,-29.4688,316.0504],[31.0774,-29.4702,295.2402],[31.0787,-29.4742,317.5178],[31.0797,-29.4758,306.4737],[31.0813,-29.4747,293.8716],[31.0821,-29.4769,294.6498],[31.0846,-29.4751,281.0726],[31.0858,-29.4778,290.9779],[31.0828,-29.4777,294.6498],[31.086,-29.4816,285.0036],[31.0817,-29.4857,327.9577],[31.0507,-29.4863,185.55],[31.0494,-29.4879,156.7522],[31.0513,-29.4885,173.9933],[31.0495,-29.4904,144.9024],[31.0505,-29.4984,153.2562],[31.0484,-29.5012,128.7568],[31.0516,-29.5048,133.0007],[31.0533,-29.5121,126.7245],[31.0513,-29.5164,131.5205],[31.0599,-29.5156,100.7821],[31.0592,-29.5192,94.4518],[31.0652,-29.5241,83.7913],[31.0745,-29.5216,79.4685],[31.0807,-29.5262,78.1383],[31.0858,-29.5227,134.0283],[31.095,-29.539,52.7731],[31.1029,-29.5428,38.8356],[31.1087,-29.5426,39.0102],[31.1094,-29.5248,121.0514],[31.1142,-29.5094,201.4922],[31.1219,-29.5079,160.4694],[31.1211,-29.5047,170.9843],[31.1243,-29.5074,182.0199],[31.1358,-29.5011,172.6359],[31.1831,-29.528,112.245],[31.1771,-29.5333,113.9734],[31.1708,-29.5353,93.4621],[31.1682,-29.5473,101.4425],[31.1738,-29.5524,38.2047],[31.1707,-29.5572,13.2073],[31.1739,-29.5567,32.4642],[31.1744,-29.5581,26.0688],[31.1723,-29.5623,7.3043],[31.1728,-29.5669,18.1114],[31.1751,-29.5693,4.3818],[31.1854,-29.5716,0.6347],[31.2035,-29.5543,5.6257],[31.2138,-29.5462,9.8964],[31.2165,-29.5457,2.6556],[31.2185,-29.5415,0.3329],[31.2237,-29.5376,0.0],[31.2237,-29.5315,4.3688],[31.2285,-29.5249,0.0],[31.2276,-29.5218,0.0],[31.2299,-29.5207,0.0],[31.2307,-29.5168,3.7935]]]]}}