{"type": "Feature","bbox": [22.7043,-34.0946,23.2485,-33.794],"geometry": {"type": "MultiPolygon","coordinates": [[[[23.0999,-34.0804,0.9724],[23.109,-34.0824,8.6537],[23.1146,-34.0804,5.8744],[23.1235,-34.0812,15.7566],[23.129,-34.0788,2.5098],[23.1365,-34.086,23.6939],[23.1401,-34.0865,0.0],[23.1507,-34.084,22.8375],[23.1549,-34.0849,0.0],[23.1641,-34.0835,0.0],[23.1632,-34.0802,161.9057],[23.1785,-34.0457,254.1457],[23.1687,-34.0062,377.0312],[23.1845,-33.9814,387.7271],[23.2107,-33.9629,247.1495],[23.2411,-33.973,241.717],[23.2209,-33.9288,339.2555],[23.2225,-33.9086,706.936],[23.2485,-33.8995,298.7438],[23.2385,-33.8946,329.6068],[23.229,-33.8783,196.0489],[23.1837,-33.8622,465.7693],[23.0765,-33.8086,1009.1293],[23.03,-33.8068,876.0491],[23.0355,-33.794,597.3144],[22.9742,-33.8144,1353.2323],[22.9172,-33.8152,973.5786],[22.911,-33.8176,1014.9931],[22.8766,-33.816,1254.2848],[22.8515,-33.8299,1351.604],[22.8003,-33.8412,1366.6499],[22.8006,-33.8729,914.6771],[22.778,-33.8939,390.3582],[22.7744,-33.8978,279.8233],[22.7759,-33.9,238.7316],[22.7716,-33.9034,290.4404],[22.7728,-33.9052,242.5853],[22.7785,-33.906,252.7562],[22.7763,-33.9086,292.4396],[22.774,-33.92,190.2096],[22.7791,-33.9275,145.9978],[22.7269,-33.9248,294.2373],[22.72,-33.9742,85.2263],[22.7098,-33.9741,166.0432],[22.7086,-33.9773,58.9638],[22.7105,-33.9878,16.9298],[22.7089,-33.9876,21.8395],[22.7043,-33.9937,0.6202],[22.7044,-33.9969,4.7431],[22.7134,-34.0001,23.3499],[22.7176,-33.9986,2.5453],[22.7389,-34.017,196.6329],[22.7371,-34.0271,7.2906],[22.7601,-34.0335,5.6056],[22.7657,-34.0385,0.0],[22.7682,-34.0376,0.0],[22.7685,-34.036,0.0],[22.7657,-34.0349,0.0],[22.7651,-34.0315,0.0],[22.7687,-34.0279,73.7683],[22.7774,-34.0271,5.5252],[22.7949,-34.0315,0.0],[22.8004,-34.0279,4.1429],[22.8013,-34.0257,0.0],[22.7949,-34.0213,21.4946],[22.7946,-34.019,0.3604],[22.7965,-34.0171,0.3049],[22.7943,-34.0154,0.6111],[22.7915,-34.016,0.0],[22.789,-34.0196,8.4561],[22.7843,-34.0221,11.487],[22.7757,-34.0224,0.0],[22.7693,-34.0199,22.8442],[22.7646,-34.0132,0.1152],[22.7651,-34.0068,0.0876],[22.7663,-34.0079,0.1046],[22.7682,-34.0071,0.2967],[22.7682,-34.0107,0.0805],[22.7724,-34.0129,2.3118],[22.7724,-34.0179,5.7138],[22.7804,-34.0215,0.0],[22.7857,-34.0207,0.2192],[22.7907,-34.0151,0.0],[22.7965,-34.0151,0.1841],[22.7979,-34.0207,0.0],[22.8032,-34.0249,11.4345],[22.8024,-34.0274,2.3851],[22.7962,-34.0321,0.0],[22.7993,-34.0337,1.6185],[22.8146,-34.0379,21.5828],[22.8354,-34.0465,0.0],[22.9149,-34.0646,0.0],[22.9493,-34.0765,0.0],[22.9468,-34.0746,0.0],[22.9465,-34.0701,2.0244],[22.9482,-34.0687,11.3171],[22.9496,-34.0749,0.4645],[22.9551,-34.0788,0.0],[22.959,-34.0887,0.0],[22.9604,-34.089,0.0],[22.9621,-34.0857,0.0],[22.9646,-34.0857,0.0],[22.9693,-34.0896,0.0],[22.9713,-34.089,0.0],[22.9801,-34.0946,0.0],[22.9804,-34.0932,0.0],[22.9793,-34.0924,0.0],[22.9799,-34.0907,0.0],[22.9746,-34.0854,0.0],[22.9771,-34.0804,0.0],[22.9813,-34.0765,1.7495],[22.989,-34.0735,3.4167],[23.0018,-34.0715,0.0],[23.0093,-34.0715,10.7327],[23.0254,-34.076,13.672],[23.0304,-34.0757,31.8491],[23.0343,-34.0771,10.2714],[23.0365,-34.0799,0.0],[23.041,-34.079,30.0542],[23.0413,-34.0826,0.0],[23.0429,-34.084,2.8776],[23.0554,-34.0854,0.0],[23.0596,-34.0824,0.0],[23.0557,-34.074,0.0],[23.0526,-34.0746,84.7041],[23.0485,-34.0676,0.0],[23.0404,-34.0635,10.6956],[23.0376,-34.0604,0.0],[23.0338,-34.0601,7.6765],[23.0318,-34.0535,0.0],[23.0338,-34.049,0.0],[23.0304,-34.0465,0.0],[23.0349,-34.0468,0.0],[23.0379,-34.049,0.0],[23.0393,-34.0465,0.0],[23.0368,-34.0446,0.0],[23.0321,-34.0446,0.0],[23.029,-34.0426,0.0],[23.0224,-34.0526,0.0],[23.0151,-34.0554,0.0],[23.0104,-34.0557,0.8103],[23.0065,-34.0537,0.0],[23.0026,-34.0546,40.2865],[23.0004,-34.0526,0.0],[23.0001,-34.0485,0.0],[23.0043,-34.0396,0.1326],[23.0004,-34.0382,0.0],[23.0018,-34.0363,0.0],[22.9979,-34.0324,0.0],[22.9979,-34.0299,0.0],[22.9951,-34.0329,0.0],[22.9924,-34.0326,0.0],[22.989,-34.0293,0.0],[22.9882,-34.0246,0.0],[22.9976,-34.0174,0.249],[23.0113,-34.0112,0.8834],[22.9946,-34.0201,4.6657],[22.9932,-34.0226,6.0236],[22.989,-34.0257,0.0],[22.9899,-34.0293,0.0],[22.9943,-34.0324,0.0],[22.9962,-34.0274,0.0],[23.0057,-34.0293,23.3022],[23.0138,-34.0399,0.0],[23.0096,-34.0449,0.0],[23.0143,-34.0438,0.0],[23.0199,-34.0382,0.0],[23.0313,-34.0365,0.0],[23.039,-34.0379,2.096],[23.044,-34.0435,0.0],[23.0515,-34.0438,0.0],[23.0546,-34.041,0.5469],[23.0643,-34.0401,0.6429],[23.0668,-34.0424,0.3096],[23.0671,-34.0479,0.4591],[23.0596,-34.0587,0.0],[23.0613,-34.0624,0.0],[23.0646,-34.0615,0.0],[23.0657,-34.0657,0.0],[23.0574,-34.064,1.1482],[23.0554,-34.0601,0.1454],[23.0499,-34.0618,2.7514],[23.0504,-34.064,1.0196],[23.0557,-34.0657,3.6919],[23.0565,-34.0685,1.0898],[23.0649,-34.0724,1.448],[23.0604,-34.076,0.0],[23.0601,-34.0793,0.0],[23.0618,-34.0815,0.0],[23.0668,-34.0835,0.0],[23.0735,-34.0824,15.8085],[23.0851,-34.0849,0.9046],[23.0882,-34.0829,40.2177],[23.0987,-34.0818,0.0],[23.0999,-34.0804,0.9724]]],
[[[23.036,-34.051,0.0],[23.0354,-34.0496,0.0],[23.0343,-34.0521,0.0],[23.0357,-34.0521,0.0],[23.036,-34.051,0.0]]],
[[[23.0646,-34.0415,0.0],[23.0593,-34.041,0.0],[23.0521,-34.0446,0.0],[23.0462,-34.0446,0.0],[23.0462,-34.0546,0.0],[23.0537,-34.0557,0.0],[23.0557,-34.0535,0.0],[23.061,-34.0521,0.0],[23.0657,-34.0457,0.0],[23.0646,-34.0415,0.0]]],
[[[22.7687,-34.0126,0.0],[22.7654,-34.0121,0.0],[22.7685,-34.0165,0.0],[22.7701,-34.0146,0.0],[22.7687,-34.0126,0.0]]]]}
,"properties": {"GID_3": "ZAF.9.4.5_1","GID_0": "ZAF","country": "SouthAfrica","GID_1": "ZAF.9_1","province": "WesternCape","NL_NAME_1": "NA","GID_2": "ZAF.9.4_1","county": "Eden","NL_NAME_2": "NA","city": "Knysna","VARNAME_3": "NA","NL_NAME_3": "NA","TYPE_3": "LocalMunicipality","ENGTYPE_3": "LocalMunicipality","CC_3": "WC048","HASC_3": "NA","name": "Knysna.city","area_km2": 1097.6276,"hist_schema_id": "Elevation0-9000","hist_area_km2": {"0": 57.8139,"25": 32.8936,"50": 34.2296,"75": 31.1921,"100": 33.2504,"125": 40.5981,"150": 42.8686,"175": 46.1797,"200": 64.1917,"225": 101.9897,"250": 64.0458,"275": 35.0157,"300": 26.1926,"325": 30.3622,"350": 35.2358,"375": 36.0653,"400": 35.8946,"425": 34.1729,"450": 32.3984,"475": 30.0955,"500": 28.1966,"525": 25.6285,"550": 23.3945,"575": 20.033,"600": 18.2383,"625": 16.9006,"650": 14.9472,"675": 13.5038,"700": 12.5713,"725": 10.4767,"750": 9.086,"775": 8.4875,"800": 7.5193,"825": 6.3043,"850": 6.1637,"875": 5.1776,"900": 4.3499,"925": 3.7513,"950": 3.082,"975": 2.6947,"1000": 2.3952,"1025": 1.6908,"1050": 1.8317,"1075": 1.18,"1100": 1.0568,"1125": 0.9511,"1150": 0.8807,"1175": 0.5812,"1200": 0.546,"1225": 0.3523,"1250": 0.317,"1275": 0.1585,"1300": 0.1761,"1325": 0.0881,"1350": 0.0705,"1375": 0.0705,"1400": 0.0528,"1425": 0.0352}}}