{"type": "Feature","bbox": [27.7887,-28.7672,28.8048,-27.9761],"geometry": {"type": "MultiPolygon","coordinates": [[[[28.3658,-28.6658,1639.0391],[28.3722,-28.6658,1625.9686],[28.3757,-28.6606,1636.9197],[28.3852,-28.6566,1635.1833],[28.3871,-28.6529,1635.7167],[28.3889,-28.6537,1638.4011],[28.3873,-28.649,1643.5918],[28.3902,-28.6481,1651.8188],[28.3908,-28.644,1645.0669],[28.394,-28.6442,1658.0605],[28.396,-28.6465,1641.7493],[28.399,-28.6438,1645.0801],[28.4028,-28.6444,1649.8623],[28.4044,-28.6375,1652.0853],[28.4009,-28.6321,1650.5021],[28.403,-28.6276,1667.5525],[28.4009,-28.6251,1659.4316],[28.4083,-28.622,1651.46],[28.4103,-28.6222,1675.4888],[28.4132,-28.6274,1652.4093],[28.417,-28.6262,1679.2932],[28.4195,-28.6277,1657.2061],[28.4246,-28.6243,1684.4373],[28.4261,-28.6255,1655.5558],[28.4301,-28.6201,1676.476],[28.4371,-28.6204,1662.6997],[28.4376,-28.6218,1669.7816],[28.4412,-28.6181,1664.3477],[28.4426,-28.6201,1668.5642],[28.4451,-28.6154,1675.4661],[28.4466,-28.6195,1666.676],[28.4493,-28.6165,1667.2672],[28.4536,-28.6193,1669.8265],[28.4559,-28.6172,1710.0167],[28.4565,-28.6118,1673.2922],[28.4612,-28.6135,1678.999],[28.4592,-28.6108,1681.6151],[28.461,-28.6119,1674.2875],[28.4628,-28.6089,1677.8232],[28.4665,-28.6081,1677.7977],[28.4674,-28.6098,1685.9683],[28.4699,-28.6095,1678.8779],[28.47,-28.6073,1682.3488],[28.4724,-28.6053,1687.641],[28.4763,-28.6058,1693.9066],[28.4784,-28.6093,1683.4714],[28.4817,-28.6075,1684.2642],[28.4861,-28.6125,1690.1975],[28.4879,-28.6113,1693.1027],[28.4896,-28.6061,1717.0286],[28.4947,-28.6079,1694.1938],[28.4963,-28.6059,1701.9669],[28.4995,-28.6093,1697.4513],[28.5026,-28.6078,1701.4008],[28.5014,-28.6131,1702.4739],[28.5043,-28.6168,1722.4175],[28.5075,-28.6181,1817.4224],[28.5061,-28.6148,1729.0916],[28.5089,-28.6123,1740.5791],[28.5142,-28.6112,1725.8729],[28.5138,-28.6096,1725.8729],[28.5203,-28.6089,1735.1272],[28.5208,-28.6073,1744.282],[28.5176,-28.607,1744.8586],[28.5179,-28.6029,1762.5648],[28.5215,-28.6035,1773.2756],[28.5241,-28.6012,1797.8638],[28.5284,-28.6059,1786.6995],[28.5285,-28.6098,1759.5974],[28.5303,-28.6103,1761.3789],[28.5325,-28.6096,1787.3989],[28.5318,-28.6072,1764.2859],[28.5361,-28.6079,1785.2959],[28.5403,-28.6025,1801.7306],[28.5429,-28.6068,1793.1292],[28.5464,-28.6071,1792.4491],[28.5485,-28.6096,1823.5872],[28.5518,-28.6056,1866.2117],[28.554,-28.6066,1813.5222],[28.5557,-28.6024,1829.1388],[28.5637,-28.605,1822.7493],[28.5668,-28.6077,1858.173],[28.567,-28.6104,1832.6025],[28.5681,-28.6084,1818.3741],[28.5725,-28.6073,1835.0574],[28.5757,-28.6102,1836.3572],[28.5784,-28.6038,1843.7817],[28.5837,-28.6038,1853.9725],[28.590699999999998,-28.6084,1867.0249],[28.5939,-28.6024,1867.4193],[28.604,-28.6007,1881.8329],[28.604,-28.5983,1878.848],[28.6062,-28.5981,1909.7407],[28.6074,-28.5954,1889.2327],[28.6128,-28.5975,1912.1321],[28.6135,-28.5939,1898.8167],[28.6168,-28.5909,1893.6053],[28.6172,-28.5879,1905.2825],[28.6193,-28.587,1902.5236],[28.6187,-28.5858,1900.2417],[28.622,-28.5806,1958.7513],[28.6287,-28.5808,1935.3813],[28.6315,-28.5825,1926.7993],[28.63,-28.5497,2646.0391],[28.6329,-28.5468,2540.1172],[28.6341,-28.5417,2474.094],[28.6408,-28.5341,2262.3843],[28.6419,-28.5245,2086.5466],[28.6396,-28.5233,2090.1633],[28.6391,-28.5198,2035.3694],[28.6409,-28.5197,2017.3069],[28.642,-28.5167,2040.3781],[28.6521,-28.5119,2048.365],[28.654,-28.5135,2085.0229],[28.6547,-28.5048,2047.2723],[28.6518,-28.4965,2052.6777],[28.6481,-28.4964,2072.3174],[28.6383,-28.4898,2332.7905],[28.6353,-28.489,2348.5471],[28.6327,-28.4913,2427.2441],[28.6284,-28.4825,2210.6843],[28.6231,-28.4789,2269.9783],[28.6047,-28.4791,2260.7571],[28.61,-28.456,1887.3135],[28.6014,-28.4505,1992.6006],[28.6013,-28.4491,1996.2551],[28.5824,-28.4494,1911.514],[28.5822,-28.4292,1780.9031],[28.5796,-28.4239,1794.635],[28.5804,-28.4175,1804.4646],[28.6121,-28.415,1800.9666],[28.6121,-28.4122,1822.103],[28.6113,-28.4039,1761.3951],[28.5966,-28.4111,1836.3647],[28.5828,-28.3913,1822.7897],[28.604,-28.3769,1845.1067],[28.6104,-28.3824,1903.5078],[28.6322,-28.3931,1944.9343],[28.6495,-28.3912,2009.6296],[28.6314,-28.343,1920.6792],[28.6503,-28.2933,1851.0012],[28.6464,-28.2605,1732.1299],[28.6566,-28.258,1710.0795],[28.655,-28.2519,1707.4155],[28.6796,-28.2498,1762.6132],[28.6803,-28.2438,1762.5048],[28.7156,-28.2357,1728.8812],[28.7142,-28.2258,1723.4381],[28.7058,-28.2252,1732.7689],[28.7112,-28.2173,1725.5029],[28.7351,-28.2242,1723.9047],[28.7363,-28.2209,1723.9702],[28.7241,-28.2071,1723.225],[28.7262,-28.2046,1721.2377],[28.7232,-28.2051,1730.4567],[28.7276,-28.1558,1640.0153],[28.7334,-28.1471,1638.1956],[28.7288,-28.1395,1640.8644],[28.7308,-28.1355,1641.4724],[28.7241,-28.1269,1679.8837],[28.7271,-28.1231,1722.4521],[28.7365,-28.1236,1664.8596],[28.7313,-28.1292,1652.6023],[28.7392,-28.1342,1628.6316],[28.7343,-28.1385,1630.775],[28.7378,-28.1404,1632.069],[28.7529,-28.1175,1642.9952],[28.7698,-28.1246,1617.6287],[28.7707,-28.1174,1631.6862],[28.7835,-28.1195,1637.4994],[28.7843,-28.1081,1608.8098],[28.7919,-28.1092,1607.1221],[28.7787,-28.0783,1735.1072],[28.7969,-28.0506,1706.83],[28.8048,-28.0198,1625.9937],[28.7884,-28.016,1618.8975],[28.7937,-27.9857,1659.5979],[28.7575,-27.9771,1712.3704],[28.7551,-27.9904,1687.3525],[28.738,-27.9761,1726.0703],[28.7282,-28.0229,1683.1503],[28.7074,-28.0252,1708.3818],[28.7084,-28.0203,1698.8679],[28.6352,-28.0306,1751.0515],[28.5669,-28.0178,1745.9375],[28.5353,-28.0556,1663.5463],[28.5261,-28.0388,1718.5405],[28.5115,-28.0414,1693.387],[28.4902,-28.0372,1629.4845],[28.4882,-28.0357,1632.1948],[28.4834,-28.0358,1625.1433],[28.4817,-28.0328,1630.1458],[28.4831,-28.0317,1625.8179],[28.4828,-28.0265,1624.0518],[28.4851,-28.0244,1624.3424],[28.4839,-28.0189,1623.0342],[28.4819,-28.0201,1622.89],[28.4785,-28.0184,1622.7252],[28.4769,-28.024,1622.259],[28.4728,-28.0222,1626.1378],[28.4718,-28.0255,1621.2748],[28.4689,-28.0255,1621.6116],[28.4674,-28.0221,1620.8949],[28.4672,-28.0149,1621.6061],[28.4605,-28.0147,1619.8341],[28.4603,-28.0078,1619.0715],[28.4567,-28.0076,1617.8749],[28.4566,-27.9994,1624.7915],[28.4544,-27.9977,1616.8809],[28.4543,-27.9953,1616.3616],[28.4529,-27.9954,1616.7384],[28.4529,-27.9917,1616.3768],[28.4475,-27.9906,1617.1602],[28.4152,-28.048,1687.3773],[28.3725,-28.0641,1658.8428],[28.3377,-28.1019,1626.5214],[28.3204,-28.0597,1644.0149],[28.3122,-28.0602,1597.8499],[28.2999,-28.0793,1598.927],[28.3029,-28.08,1598.2241],[28.3026,-28.0853,1598.4346],[28.3002,-28.0898,1599.2289],[28.2973,-28.0887,1599.4816],[28.2951,-28.0903,1599.9575],[28.2929,-28.0896,1600.6062],[28.2882,-28.0925,1621.9907],[28.2776,-28.1192,1644.5994],[28.266,-28.1235,1654.8999],[28.2653,-28.1181,1659.2906],[28.2383,-28.1148,1638.359],[28.2218,-28.1285,1680.0269],[28.1816,-28.1082,1695.9327],[28.1445,-28.1202,1617.6301],[28.1441,-28.1306,1638.2849],[28.1319,-28.14,1620.241],[28.1136,-28.1301,1577.2069],[28.028,-28.1768,1684.2206],[28.0356,-28.1818,1701.9614],[28.0391,-28.2138,1764.2155],[28.0264,-28.2247,1712.8121],[28.0279,-28.2421,1697.8802],[27.9927,-28.232,1702.1367],[27.9652,-28.2344,1595.3618],[27.963,-28.2243,1595.0895],[27.9475,-28.2297,1689.1831],[27.8958,-28.2286,1547.6857],[27.8868,-28.2434,1549.2302],[27.8376,-28.2294,1564.9598],[27.7887,-28.248,1503.5784],[27.7899,-28.2536,1503.2444],[27.7936,-28.2578,1505.2805],[27.8306,-28.2831,1575.5015],[27.8272,-28.3234,1577.9838],[27.8658,-28.3145,1552.0159],[27.8645,-28.3174,1556.4191],[27.8634,-28.3169,1556.4191],[27.863,-28.3208,1559.3462],[27.8643,-28.3219,1564.3301],[27.8628,-28.3234,1565.5585],[27.8659,-28.3289,1568.3959],[27.8654,-28.3308,1569.2068],[27.8544,-28.3358,1637.9293],[27.8439,-28.3458,1645.1971],[27.8605,-28.3612,1650.6111],[27.836,-28.4146,1648.7867],[27.8288,-28.4152,1599.6821],[27.8085,-28.4582,1662.4807],[27.846,-28.4762,1700.4949],[27.8367,-28.5243,1734.4487],[27.8339,-28.5508,1735.1748],[27.8451,-28.5565,1709.1752],[27.8659,-28.5634,1614.2024],[27.8676,-28.5666,1613.9132],[27.8729,-28.5703,1612.9133],[27.8774,-28.5646,1654.5039],[27.9014,-28.5558,1719.6013],[27.9114,-28.5645,1682.8833],[27.93,-28.5579,1722.7308],[27.9316,-28.5759,1669.5072],[27.953,-28.5805,1680.7473],[27.9593,-28.577,1833.3716],[27.9615,-28.5779,1877.4863],[27.9641,-28.5827,1818.5536],[27.9732,-28.5798,1765.5149],[27.9784,-28.5691,1845.6256],[27.9832,-28.5702,1830.6909],[27.9782,-28.5718,1846.3212],[27.9769,-28.5812,1815.1069],[27.9709,-28.5889,1758.0198],[27.9741,-28.5889,1858.5823],[27.9833,-28.5966,1796.2319],[27.9881,-28.5976,1867.238],[27.9892,-28.5992,1898.9845],[27.9923,-28.5985,1861.6633],[28.0016,-28.6066,1967.2391],[28.0085,-28.6051,2202.2559],[28.0147,-28.5975,2192.9902],[28.0298,-28.6036,2229.1396],[28.0295,-28.6082,2118.845],[28.0318,-28.612,2185.2734],[28.0299,-28.6164,2150.6963],[28.04,-28.6249,2044.6074],[28.0417,-28.6354,2111.8057],[28.0403,-28.6394,2291.167],[28.0375,-28.6397,2248.1182],[28.0411,-28.6421,2334.7422],[28.0452,-28.6482,2226.8398],[28.0464,-28.6532,2160.0117],[28.045,-28.6602,2158.8857],[28.0339,-28.669,2231.4832],[28.0344,-28.6712,2200.522],[28.038,-28.6761,2130.1104],[28.0427,-28.677,2110.7964],[28.0449,-28.6811,2082.0303],[28.0536,-28.6891,1996.7495],[28.0528,-28.6978,1999.2477],[28.0569,-28.7047,1910.1167],[28.0558,-28.7099,1890.9104],[28.0584,-28.7128,1910.9172],[28.0562,-28.7188,1977.6061],[28.0599,-28.725,1902.3658],[28.0979,-28.7495,1827.646],[28.1017,-28.7672,1568.7651],[28.1082,-28.765,1580.8053],[28.1138,-28.7577,1600.7887],[28.1198,-28.7578,1572.9174],[28.1193,-28.7414,1569.0242],[28.1224,-28.7407,1595.5292],[28.1243,-28.7445,1584.5088],[28.128,-28.7467,1574.5463],[28.1309,-28.7458,1576.9731],[28.13,-28.7411,1590.3293],[28.1353,-28.7386,1574.5245],[28.1384,-28.7343,1590.3387],[28.1427,-28.738,1576.8074],[28.1433,-28.7294,1574.3961],[28.1467,-28.7276,1578.6456],[28.1505,-28.7227,1577.8879],[28.1551,-28.7312,1575.2449],[28.1579,-28.7306,1578.7416],[28.1553,-28.7239,1577.719],[28.1572,-28.7234,1583.546],[28.1596,-28.7258,1583.6497],[28.1607,-28.7225,1578.8116],[28.1553,-28.7191,1580.5912],[28.1624,-28.7179,1579.4698],[28.1598,-28.7152,1580.5063],[28.1662,-28.7127,1584.406],[28.1682,-28.7095,1584.3887],[28.167,-28.7055,1583.046],[28.1761,-28.7084,1586.1794],[28.184,-28.7088,1607.8879],[28.1815,-28.7014,1592.2932],[28.1852,-28.6969,1589.7223],[28.1834,-28.6937,1589.0116],[28.1902,-28.6968,1590.0297],[28.1905,-28.7056,1586.7002],[28.1962,-28.7112,1587.3342],[28.2103,-28.7073,1593.0126],[28.2138,-28.7024,1596.5621],[28.2179,-28.702,1594.8469],[28.2207,-28.7043,1597.96],[28.2288,-28.7023,1593.915],[28.2296,-28.6983,1605.34],[28.2335,-28.6951,1598.1884],[28.2414,-28.6967,1604.8151],[28.2433,-28.7026,1604.9094],[28.2478,-28.703,1600.9073],[28.2495,-28.7008,1603.2445],[28.253,-28.7016,1599.8854],[28.2576,-28.7003,1596.8793],[28.2582,-28.7062,1597.918],[28.2605,-28.7092,1595.7216],[28.2661,-28.7083,1599.4083],[28.2683,-28.7061,1600.3942],[28.2732,-28.7112,1601.9812],[28.2817,-28.7149,1603.8982],[28.2859,-28.7132,1603.0886],[28.2871,-28.7103,1601.2859],[28.2903,-28.7114,1605.8257],[28.2919,-28.7078,1605.1692],[28.295,-28.7077,1602.621],[28.2943,-28.7051,1604.3082],[28.2959,-28.7034,1602.7517],[28.2978,-28.7043,1607.6494],[28.2971,-28.7077,1601.9645],[28.299,-28.7072,1601.9645],[28.2992,-28.7048,1601.9832],[28.3018,-28.7062,1603.251],[28.3001,-28.7034,1604.0095],[28.3035,-28.7021,1605.2633],[28.3049,-28.6924,1616.8416],[28.3104,-28.6961,1612.8799],[28.3094,-28.6994,1609.3784],[28.3105,-28.7006,1608.7457],[28.317,-28.701,1617.7917],[28.3203,-28.7037,1609.197],[28.3288,-28.7058,1611.2145],[28.33,-28.7041,1619.0674],[28.3254,-28.7016,1617.5532],[28.3258,-28.7003,1613.1489],[28.3313,-28.6994,1624.1521],[28.3328,-28.6961,1617.7323],[28.3356,-28.6985,1626.8257],[28.3421,-28.6938,1615.4304],[28.344,-28.695,1615.0996],[28.3441,-28.6994,1615.3492],[28.3494,-28.6991,1619.646],[28.3496,-28.7034,1626.4099],[28.3554,-28.6951,1617.5098],[28.3573,-28.6957,1615.5688],[28.3568,-28.6922,1618.2461],[28.3603,-28.6918,1620.1438],[28.3609,-28.69,1625.8412],[28.3595,-28.6885,1618.593],[28.3643,-28.6878,1621.9333],[28.3637,-28.6857,1621.9253],[28.3672,-28.6864,1643.2114],[28.3672,-28.6838,1624.0845],[28.372,-28.6837,1625.0258],[28.3729,-28.6793,1628.1047],[28.3687,-28.675,1629.3093],[28.3706,-28.6737,1629.6603],[28.3703,-28.6704,1630.1431],[28.3658,-28.6658,1639.0391]]]]}
,"properties": {"GID_3": "ZAF.2.4.1_1","GID_0": "ZAF","country": "SouthAfrica","GID_1": "ZAF.2_1","province": "FreeState","NL_NAME_1": "NA","GID_2": "ZAF.2.4_1","county": "ThaboMofutsanyane","NL_NAME_2": "NA","city": "Dihlabeng","VARNAME_3": "NA","NL_NAME_3": "NA","TYPE_3": "LocalMunicipality","ENGTYPE_3": "LocalMunicipality","CC_3": "FS192","HASC_3": "NA","name": "Dihlabeng.city","area_km2": 4887.358,"hist_schema_id": "Elevation0-9000","hist_area_km2": {"1500": 0.448,"1525": 22.112,"1550": 55.346,"1575": 66.85,"1600": 133.322,"1625": 284.161,"1650": 449.969,"1675": 624.712,"1700": 721.87,"1725": 620.928,"1750": 449.658,"1775": 287.638,"1800": 224.581,"1825": 181.181,"1850": 139.312,"1875": 115.798,"1900": 90.459,"1925": 72.348,"1950": 55.892,"1975": 44.787,"2000": 38.099,"2025": 32.509,"2050": 27.255,"2075": 22.411,"2100": 19.355,"2125": 16.355,"2150": 14.064,"2175": 12.35,"2200": 11.549,"2225": 9.034,"2250": 8.456,"2275": 5.886,"2300": 5.252,"2325": 4.395,"2350": 3.352,"2375": 3.166,"2400": 2.067,"2425": 2.16,"2450": 1.918,"2475": 1.564,"2500": 0.968,"2525": 1.173,"2550": 0.782,"2575": 0.503,"2600": 0.447,"2625": 0.279,"2650": 0.242,"2675": 0.112,"2700": 0.149,"2725": 0.093}}}