{"type":"Feature","properties":{"GID_3":"ZAF.1.2.6_1","GID_0":"ZAF","country":"SouthAfrica","GID_1":"ZAF.1_1","province":"EasternCape","NL_NAME_1":"NA","GID_2":"ZAF.1.2_1","county":"Amathole","NL_NAME_2":"NA","city":"Nkonkobe","VARNAME_3":"NA","NL_NAME_3":"NA","TYPE_3":"LocalMunicipality","ENGTYPE_3":"LocalMunicipality","CC_3":"EC127","HASC_3":"NA","name":"Nkonkobe.city"},
"geometry":{"type": "MultiPolygon","coordinates": [[[[27.1601,-32.9363,315.3102],[27.1641,-32.9351,323.5789],[27.1636,-32.9295,353.3244],[27.1674,-32.9297,364.2112],[27.1711,-32.9274,339.8759],[27.1719,-32.9248,359.3598],[27.17,-32.9223,347.2339],[27.1767,-32.9191,391.769],[27.1827,-32.9202,384.1052],[27.1879,-32.9181,384.1473],[27.1884,-32.9162,397.6931],[27.1841,-32.9146,392.33],[27.183,-32.9111,433.2927],[27.1867,-32.9112,395.4836],[27.1869,-32.9055,408.0906],[27.1917,-32.9058,402.9266],[27.1895,-32.9028,427.4142],[27.1934,-32.9008,412.9531],[27.1966,-32.8949,416.446],[27.2096,-32.8897,441.918],[27.212,-32.8909,449.8506],[27.2179,-32.8901,468.5201],[27.2187,-32.8858,539.9614],[27.2207,-32.8876,503.7025],[27.225,-32.8863,536.9293],[27.2248,-32.8845,516.5688],[27.2216,-32.8852,513.0736],[27.2236,-32.883,516.5688],[27.2204,-32.8786,522.0175],[27.2268,-32.8638,541.0295],[27.2304,-32.8625,532.3364],[27.2333,-32.8526,540.0309],[27.2308,-32.8506,539.0944],[27.2307,-32.8518,540.9652],[27.2269,-32.8513,571.2731],[27.2234,-32.8549,575.5586],[27.2162,-32.8549,581.3195],[27.2041,-32.8493,589.1294],[27.2038,-32.8444,565.5142],[27.1772,-32.8425,578.1087],[27.1575,-32.8384,620.8601],[27.1122,-32.8388,567.8051],[27.0975,-32.842,545.4727],[27.0843,-32.8404,537.9076],[27.0759,-32.8371,537.384],[27.0653,-32.8376,581.222],[27.0587,-32.8362,589.0223],[27.0559,-32.8385,573.9533],[27.0464,-32.8372,588.7462],[27.0481,-32.8317,660.1951],[27.0598,-32.8211,590.4822],[27.0865,-32.8057,811.1753],[27.0548,-32.7852,609.8494],[27.0172,-32.7851,446.128],[27.019,-32.784,445.161],[27.0173,-32.7833,445.161],[27.0168,-32.7794,448.1075],[27.0217,-32.7734,454.4258],[27.0205,-32.7694,450.4272],[27.0231,-32.7649,450.7586],[27.0214,-32.7626,452.8477],[27.0218,-32.7576,460.0274],[27.0176,-32.7506,459.6919],[27.017,-32.7465,490.9484],[27.0214,-32.7333,469.473],[27.0238,-32.7307,479.8007],[27.0217,-32.7303,480.7824],[27.0183,-32.7331,518.0216],[27.0175,-32.7314,486.0233],[27.014,-32.7309,502.2699],[27.0178,-32.7261,585.5375],[27.0216,-32.7246,568.8298],[27.0233,-32.7208,696.5939],[27.0337,-32.7221,810.4242],[27.0428,-32.7202,839.8654],[27.0474,-32.7189,866.3152],[27.0511,-32.7143,969.165],[27.0581,-32.7113,1086.323],[27.0551,-32.711,1098.2041],[27.0478,-32.6976,1087.1106],[27.0423,-32.6934,1095.9209],[27.0373,-32.693,1086.6099],[27.0267,-32.6824,1004.9843],[27.021,-32.6816,1038.9917],[27.0216,-32.6719,1043.8645],[27.0189,-32.6686,1105.0475],[27.0169,-32.6564,1234.3398],[27.0178,-32.647,1407.3713],[27.0094,-32.6262,1393.4011],[26.9977,-32.6169,1774.1587],[27.0004,-32.6132,1818.1578],[27.0056,-32.6128,1712.1042],[27.0092,-32.6093,1639.335],[27.0045,-32.6051,1776.4349],[27.0246,-32.5943,1832.9022],[27.0266,-32.586,1613.7117],[27.0364,-32.5663,1593.5229],[27.0525,-32.5654,1592.5879],[27.0728,-32.5594,1794.5398],[27.0585,-32.5463,1698.1548],[27.0324,-32.5272,1444.7249],[27.0334,-32.5249,1464.7134],[27.037,-32.5245,1452.3439],[27.0423,-32.5178,1459.9883],[27.0466,-32.52,1471.4766],[27.0449,-32.51,1535.1169],[27.0171,-32.5112,1654.9137],[26.9777,-32.501,1703.9977],[26.9738,-32.5057,1720.7275],[26.9678,-32.5186,1385.1683],[26.9707,-32.52,1385.8145],[26.9743,-32.5184,1385.616],[26.9778,-32.5231,1389.2485],[26.9848,-32.5278,1395.8879],[26.9828,-32.5335,1388.6588],[26.9841,-32.5378,1392.1626],[26.9666,-32.5508,1555.7783],[26.9545,-32.5468,1923.0048],[26.9506,-32.5478,1952.9976],[26.8652,-32.5116,1927.4652],[26.8056,-32.4536,1637.8115],[26.8158,-32.4408,1652.8699],[26.8343,-32.439,1614.5189],[26.8324,-32.4203,1574.6816],[26.8362,-32.4064,1575.2905],[26.8257,-32.4003,1408.7631],[26.8247,-32.398,1411.1409],[26.8202,-32.3995,1408.8059],[26.8168,-32.3937,1418.6879],[26.8134,-32.3928,1419.418],[26.8158,-32.3862,1507.4114],[26.8009,-32.3725,1646.9388],[26.8044,-32.3692,1664.7207],[26.8037,-32.3554,1556.7423],[26.7936,-32.3574,1562.0515],[26.7753,-32.3331,1378.4246],[26.7717,-32.3383,1462.087],[26.7587,-32.3362,1671.8545],[26.743,-32.337,1716.2622],[26.7363,-32.3274,1599.4447],[26.7118,-32.34,1805.1104],[26.7111,-32.3445,1810.1489],[26.7208,-32.3596,1827.4291],[26.7288,-32.3626,1882.6399],[26.7351,-32.3908,1643.4458],[26.7323,-32.3971,1642.2131],[26.7261,-32.3987,1643.9392],[26.7221,-32.4053,1580.1735],[26.7047,-32.4181,1618.2891],[26.6719,-32.4155,1642.8728],[26.6625,-32.4279,1687.4172],[26.6531,-32.4217,1717.844],[26.6486,-32.4235,1712.8613],[26.6381,-32.4191,1682.7],[26.6283,-32.4123,1741.8196],[26.6148,-32.4224,1530.538],[26.6416,-32.4339,1712.865],[26.6444,-32.4508,1694.4364],[26.6138,-32.486,1748.538],[26.6105,-32.484,1749.1929],[26.6031,-32.4897,1725.8193],[26.5812,-32.513,1591.3513],[26.5677,-32.5484,1362.1863],[26.5378,-32.5457,1217.5186],[26.5234,-32.5648,1185.4263],[26.4986,-32.5864,1199.5543],[26.5052,-32.5929,1185.6554],[26.5052,-32.6039,1212.554],[26.5105,-32.6143,1132.9486],[26.52,-32.6247,968.1255],[26.5366,-32.6323,905.4932],[26.5309,-32.6374,953.6777],[26.5259,-32.6493,601.6914],[26.493,-32.6593,1064.9413],[26.4861,-32.663,1162.1788],[26.478,-32.6635,1167.9846],[26.4747,-32.6896,1121.5565],[26.4436,-32.7076,1148.0659],[26.424,-32.7147,1188.4279],[26.4147,-32.7201,1123.709],[26.4019,-32.7464,766.7387],[26.4017,-32.7574,752.5989],[26.4246,-32.7703,691.5109],[26.4599,-32.7733,732.5001],[26.4524,-32.8242,660.4927],[26.4414,-32.8272,540.4331],[26.4408,-32.8292,557.4012],[26.4417,-32.8312,537.048],[26.4489,-32.8335,529.0375],[26.4394,-32.8384,517.9008],[26.4393,-32.8407,516.5408],[26.4414,-32.8414,515.2841],[26.4417,-32.8434,512.1738],[26.4255,-32.8522,547.2199],[26.4321,-32.8605,517.3345],[26.4341,-32.8707,490.7406],[26.4327,-32.8764,479.158],[26.4366,-32.8798,466.3399],[26.4159,-32.8764,504.811],[26.4125,-32.8931,410.1243],[26.4189,-32.8972,409.8714],[26.4192,-32.9001,407.3739],[26.4169,-32.9047,405.6414],[26.4181,-32.9091,412.3276],[26.4223,-32.9095,406.8759],[26.4261,-32.9073,403.171],[26.4276,-32.9028,424.5991],[26.4342,-32.9027,422.9618],[26.4371,-32.9064,400.369],[26.4352,-32.9122,401.7495],[26.4253,-32.9214,399.074],[26.4258,-32.9241,400.5778],[26.4304,-32.9276,393.6133],[26.4329,-32.9329,394.7164],[26.4317,-32.935,420.1746],[26.4254,-32.9366,388.6335],[26.4217,-32.9412,391.8717],[26.422,-32.9445,388.412],[26.4245,-32.9474,388.3348],[26.4291,-32.9497,412.475],[26.4359,-32.9477,385.7899],[26.4385,-32.9445,403.6637],[26.4447,-32.946,398.5479],[26.4472,-32.9488,434.0732],[26.4518,-32.9626,377.285],[26.455,-32.9644,377.7365],[26.4622,-32.9622,373.6692],[26.4629,-32.9524,372.4127],[26.4662,-32.95,388.0716],[26.4707,-32.9555,379.0469],[26.47,-32.9677,365.2351],[26.4722,-32.9725,365.9709],[26.479,-32.9792,363.2752],[26.485,-32.9818,364.7834],[26.4913,-32.9812,358.2119],[26.4955,-32.9769,356.4619],[26.4964,-32.9716,355.0399],[26.4936,-32.962,350.2506],[26.4943,-32.954,352.0311],[26.497,-32.9493,361.8076],[26.507,-32.9429,350.9452],[26.5128,-32.9426,344.3822],[26.5184,-32.9468,343.4216],[26.5206,-32.9576,334.9194],[26.5236,-32.962,333.2738],[26.5233,-32.9707,349.6388],[26.5171,-32.9799,329.5966],[26.5158,-32.9859,322.5843],[26.5161,-32.9886,335.7306],[26.5207,-32.9923,326.0491],[26.5275,-32.9902,324.5153],[26.5359,-32.9811,315.1418],[26.5421,-32.9789,329.227],[26.552,-32.981,317.8205],[26.5578,-32.9871,334.3913],[26.5642,-32.991,309.7584],[26.5676,-32.9914,335.6407],[26.5732,-32.9893,306.012],[26.5773,-32.9844,304.2795],[26.5787,-32.9799,331.5436],[26.5792,-32.9637,297.0267],[26.5839,-32.9586,291.3252],[26.5885,-32.9581,289.4814],[26.5919,-32.9622,295.876],[26.5957,-32.9903,308.1885],[26.5929,-32.9993,276.5632],[26.583,-33.0097,271.3281],[26.583,-33.0126,270.5422],[26.5857,-33.0167,286.9277],[26.5921,-33.0167,278.8248],[26.6062,-33.0104,262.3149],[26.6156,-32.9979,288.8662],[26.624,-32.9973,268.6888],[26.6286,-33.0008,281.7274],[26.6301,-33.0043,255.5089],[26.6294,-33.0129,250.313],[26.6267,-33.019,250.3316],[26.6272,-33.0227,251.4413],[26.6302,-33.026,276.3777],[26.6388,-33.0296,246.3642],[26.641,-33.0321,283.2246],[26.6351,-33.0458,241.3551],[26.6365,-33.0488,241.4531],[26.6419,-33.0503,252.4003],[26.6524,-33.0482,237.1368],[26.6583,-33.0432,238.1176],[26.6618,-33.03,232.1919],[26.667,-33.0297,230.726],[26.6742,-33.0347,230.4613],[26.6803,-33.0474,229.9541],[26.6847,-33.0526,226.5443],[26.6906,-33.0564,247.6177],[26.7,-33.0536,224.0934],[26.709,-33.0428,226.5989],[26.7143,-33.0404,226.5363],[26.7196,-33.0435,216.203],[26.7237,-33.0529,215.0905],[26.7318,-33.0567,217.4891],[26.7365,-33.0556,211.9064],[26.7441,-33.0477,211.9738],[26.7478,-33.0315,209.8109],[26.7506,-33.0298,206.4896],[26.7583,-33.0303,206.9778],[26.7722,-33.0362,204.4935],[26.7785,-33.0352,207.4893],[26.7843,-33.0266,199.6147],[26.7843,-33.0179,197.1348],[26.7827,-33.0151,199.114],[26.784,-32.9953,195.1076],[26.7912,-32.9903,190.5684],[26.7984,-32.9912,239.7634],[26.8011,-32.9943,226.2449],[26.8025,-33.0009,189.0731],[26.8018,-33.0085,191.3736],[26.7949,-33.0263,182.0384],[26.7969,-33.039,238.3653],[26.7957,-33.0466,176.5881],[26.7923,-33.0552,179.3671],[26.7726,-33.0766,170.3598],[26.7717,-33.0845,167.6788],[26.7767,-33.0888,162.5037],[26.7798,-33.0887,163.1676],[26.7846,-33.0855,164.5747],[26.7924,-33.0706,160.0723],[26.8044,-33.0533,158.5344],[26.8096,-33.0405,149.2077],[26.813,-33.036,212.0648],[26.8207,-33.0366,145.9449],[26.8255,-33.0395,150.3224],[26.8256,-33.0548,137.1644],[26.8267,-33.0614,134.9267],[26.8281,-33.0624,139.2872],[26.8282,-33.0678,134.2461],[26.8391,-33.0812,128.5763],[26.8495,-33.0797,127.3135],[26.8546,-33.0764,128.5435],[26.8568,-33.0713,123.9469],[26.8552,-33.0641,122.1477],[26.8567,-33.0496,118.1455],[26.8613,-33.0446,119.8566],[26.8646,-33.0447,120.2688],[26.8697,-33.0488,116.9606],[26.8751,-33.057,113.9491],[26.8773,-33.0751,117.0125],[26.8745,-33.0828,111.9372],[26.8689,-33.0891,105.3906],[26.866,-33.0899,105.0845],[26.8582,-33.1014,174.254],[26.8562,-33.1149,94.2526],[26.8592,-33.1147,115.7415],[26.8618,-33.1171,126.5087],[26.864,-33.1148,121.8745],[26.8673,-33.1164,155.6205],[26.8679,-33.1151,126.8298],[26.8734,-33.1169,143.1512],[26.8752,-33.1161,134.4548],[26.886,-33.1205,201.3429],[26.9038,-33.1215,287.9736],[26.9114,-33.1249,344.7315],[26.912,-33.1219,345.3719],[26.9279,-33.1184,410.5611],[26.9341,-33.1148,404.3628],[26.9404,-33.1057,421.0895],[26.9368,-33.0974,497.6454],[26.9392,-33.0947,485.9741],[26.9457,-33.093,525.8931],[26.9466,-33.0874,521.2052],[26.9347,-33.0746,516.1514],[26.9364,-33.0697,516.4855],[26.9546,-33.078,513.5947],[26.9758,-33.0497,447.8799],[26.9744,-33.0234,304.835],[26.9774,-33.0215,258.9904],[26.9827,-33.0247,271.0797],[26.9874,-33.0235,255.6361],[26.9914,-33.0201,254.8674],[26.9963,-33.0237,255.366],[26.9881,-33.0328,258.7451],[26.9828,-33.0365,254.9148],[26.9824,-33.0379,254.9148],[26.9848,-33.0396,283.2287],[26.9896,-33.04,262.7864],[26.994,-33.0381,266.3587],[27.0051,-33.0269,246.0758],[27.0124,-33.0313,244.2091],[27.0135,-33.0326,261.5952],[27.0121,-33.0445,241.1951],[27.0148,-33.049,240.324],[27.0197,-33.0432,265.9695],[27.0207,-33.0336,237.4362],[27.0232,-33.0319,255.3153],[27.0311,-33.0328,264.2132],[27.0372,-33.0426,227.7007],[27.0471,-33.047,232.3437],[27.0503,-33.0464,254.7802],[27.0566,-33.0356,231.2799],[27.0617,-33.0412,231.5746],[27.0667,-33.056,229.1384],[27.0666,-33.0635,224.9949],[27.0779,-33.067,229.1779],[27.0847,-33.0634,217.7907],[27.0877,-33.0598,233.5186],[27.0878,-33.0568,252.9582],[27.0798,-33.0484,212.1655],[27.0769,-33.0364,213.3419],[27.0656,-33.0306,208.9547],[27.0646,-33.0281,208.6796],[27.0664,-33.0256,237.2921],[27.0745,-33.0215,207.5148],[27.0822,-33.0209,215.5876],[27.0864,-33.023,204.8645],[27.0857,-33.0262,203.8706],[27.1035,-33.03,206.9129],[27.1061,-33.0272,203.2148],[27.1142,-33.0278,199.5131],[27.1145,-33.0266,199.5131],[27.1203,-33.0249,200.717],[27.124,-33.028,197.2752],[27.1263,-33.0414,197.3899],[27.1222,-33.054,196.9505],[27.1302,-33.0593,199.4937],[27.138,-33.0583,194.5827],[27.139,-33.0537,190.4661],[27.136,-33.0472,195.3638],[27.139,-33.0377,189.0605],[27.1319,-33.0308,186.9206],[27.1321,-33.0266,186.4598],[27.1388,-33.0217,184.4666],[27.1542,-33.0173,197.4813],[27.1582,-33.0176,182.4392],[27.1526,-33.0143,194.4091],[27.1476,-33.0081,193.5868],[27.1455,-33.0082,194.7627],[27.1436,-33.0121,221.6954],[27.1388,-33.0123,213.6378],[27.1397,-33.0024,215.1702],[27.1315,-33.004,219.4089],[27.1299,-32.9992,220.3828],[27.1255,-32.9956,229.9269],[27.1268,-32.9944,224.232],[27.1328,-32.9956,225.1543],[27.1302,-32.9866,240.3616],[27.1369,-32.9808,244.7896],[27.1425,-32.9818,260.1959],[27.1404,-32.9749,287.0287],[27.1454,-32.973,264.5961],[27.1492,-32.9693,266.1742],[27.1552,-32.9682,300.9777],[27.1509,-32.965,268.0625],[27.1517,-32.9635,267.7944],[27.1563,-32.9624,279.7891],[27.1603,-32.9658,278.2991],[27.1658,-32.9636,327.061],[27.1597,-32.9617,286.6553],[27.1618,-32.9596,293.546],[27.1604,-32.9569,287.4197],[27.1543,-32.9536,314.8195],[27.1584,-32.9469,318.221],[27.1535,-32.9452,311.2639],[27.1526,-32.9432,348.9845],[27.1591,-32.9395,316.8745],[27.1601,-32.9363,315.3102]]]]}}