{"type":"Feature","properties":{"GID_3":"ZAF.1.8.5_1","GID_0":"ZAF","country":"SouthAfrica","GID_1":"ZAF.1_1","province":"EasternCape","NL_NAME_1":"NA","GID_2":"ZAF.1.8_1","county":"O.R.Tambo","NL_NAME_2":"NA","city":"PortStJohns","VARNAME_3":"NA","NL_NAME_3":"NA","TYPE_3":"LocalMunicipality","ENGTYPE_3":"LocalMunicipality","CC_3":"EC154","HASC_3":"NA","name":"Port_St_Johns.city"},
"geometry":{"type": "MultiPolygon","coordinates": [[[[29.2561,-31.7644,131.0973],[29.2578,-31.7672,98.8835],[29.2556,-31.7673,94.1679],[29.2545,-31.7692,97.2048],[29.2552,-31.7768,97.4863],[29.2638,-31.7796,161.4519],[29.2638,-31.773,74.4237],[29.272,-31.7706,83.9486],[29.2731,-31.7724,122.9321],[29.27,-31.7764,82.0282],[29.2715,-31.7845,45.9501],[29.283,-31.7884,85.1348],[29.2847,-31.7857,47.0476],[29.2955,-31.7865,27.1411],[29.2966,-31.7905,28.1424],[29.299,-31.7895,22.042],[29.2994,-31.7862,40.1237],[29.3006,-31.7858,40.1237],[29.3004,-31.7882,21.4361],[29.3023,-31.7898,52.4893],[29.2976,-31.7919,32.0937],[29.2958,-31.7953,14.6911],[29.3048,-31.7971,3.7925],[29.3067,-31.8025,0.7266],[29.3121,-31.8018,0.0],[29.3215,-31.8068,0.0],[29.3326,-31.8079,2.1214],[29.334,-31.8068,2.1214],[29.3382,-31.8085,0.0],[29.3435,-31.8054,0.3663],[29.3501,-31.8046,0.0],[29.3526,-31.7999,1.9387],[29.3476,-31.7951,9.5155],[29.3476,-31.7935,2.1207],[29.3532,-31.7926,0.0],[29.3557,-31.7887,7.4772],[29.3563,-31.7813,18.7106],[29.3585,-31.7774,22.3581],[29.3549,-31.7738,0.0],[29.3582,-31.7646,12.8062],[29.3574,-31.761,4.3424],[29.3593,-31.759,0.0],[29.3646,-31.7579,0.9815],[29.3724,-31.7499,0.0],[29.3813,-31.7485,0.0],[29.3865,-31.7457,0.0],[29.3882,-31.7415,0.0],[29.3946,-31.7371,11.5321],[29.4029,-31.7351,0.0],[29.4024,-31.7321,0.0],[29.4068,-31.7268,0.0],[29.404,-31.7243,13.4812],[29.4054,-31.7229,0.0],[29.4029,-31.7213,2.5711],[29.4035,-31.7187,6.8133],[29.4115,-31.714,0.0],[29.4126,-31.7076,0.0],[29.4171,-31.7054,0.0],[29.4182,-31.6996,1.5562],[29.4215,-31.6976,0.0],[29.4215,-31.6957,0.0],[29.4254,-31.6951,0.0],[29.4243,-31.6924,0.0],[29.421,-31.6921,4.0175],[29.4168,-31.6949,13.0925],[29.4154,-31.6926,0.0],[29.4093,-31.6938,0.6246],[29.4104,-31.6921,0.5522],[29.4188,-31.6918,0.0],[29.4204,-31.6893,3.9861],[29.4229,-31.691,2.3231],[29.4293,-31.6868,0.0],[29.4371,-31.6846,1.7604],[29.4413,-31.6857,0.0],[29.4438,-31.6818,2.3006],[29.4515,-31.6785,0.0],[29.4532,-31.6762,9.5758],[29.4521,-31.6729,0.7432],[29.4546,-31.6685,1.0573],[29.4538,-31.6646,2.0862],[29.4562,-31.669,4.7571],[29.4532,-31.6721,0.7432],[29.4538,-31.6743,2.4055],[29.4732,-31.6779,20.2046],[29.4768,-31.6751,0.9959],[29.4937,-31.6715,0.0],[29.4921,-31.6685,2.0925],[29.4971,-31.6649,0.0],[29.5021,-31.6646,0.0],[29.5021,-31.659,7.8307],[29.5046,-31.6599,0.0],[29.5065,-31.6554,17.2796],[29.5112,-31.6568,0.0],[29.5163,-31.6549,0.0],[29.519,-31.6518,0.0],[29.5185,-31.6496,0.0],[29.5201,-31.6474,2.0145],[29.521,-31.6499,0.0],[29.5254,-31.6493,2.5244],[29.5268,-31.6507,2.2271],[29.5293,-31.6488,3.6327],[29.5371,-31.6479,0.0],[29.5413,-31.6435,2.1761],[29.5449,-31.6432,0.0],[29.5479,-31.6385,10.179],[29.5521,-31.6382,0.0],[29.5549,-31.6357,0.0],[29.551,-31.6315,0.0],[29.5476,-31.6307,9.603],[29.5474,-31.6212,0.461],[29.5293,-31.5979,1.0],[29.5362,-31.6026,100.4088],[29.541,-31.6121,0.5],[29.5501,-31.6201,0.1236],[29.5524,-31.624,0.4273],[29.5699,-31.6162,1.5364],[29.5807,-31.6087,2.3507],[29.5904,-31.609,0.0],[29.5951,-31.6046,9.5864],[29.5999,-31.6029,0.0],[29.6046,-31.5974,1.7299],[29.6065,-31.5976,0.1164],[29.6099,-31.5951,0.0],[29.6096,-31.594,0.0],[29.6043,-31.5946,20.1415],[29.6038,-31.5921,10.4431],[29.6063,-31.594,0.0],[29.609,-31.5888,7.9707],[29.616,-31.5874,0.0],[29.6168,-31.5846,0.0],[29.6246,-31.5835,0.0],[29.6279,-31.581,14.2452],[29.6288,-31.574,3.567],[29.6338,-31.5726,0.0],[29.6343,-31.5682,0.935],[29.6374,-31.5649,0.0],[29.6371,-31.5629,0.0],[29.6349,-31.5649,1.2992],[29.6315,-31.5643,4.2998],[29.6335,-31.5626,0.0],[29.6315,-31.561,1.9358],[29.634,-31.5613,0.0],[29.6351,-31.5629,5.439],[29.646,-31.556,8.3459],[29.6493,-31.5574,0.0],[29.6501,-31.556,6.4258],[29.6571,-31.5554,0.0],[29.6585,-31.5521,0.0],[29.6624,-31.5501,0.0],[29.661,-31.5485,6.731],[29.6646,-31.5468,0.0],[29.6665,-31.5479,0.0],[29.6663,-31.5457,0.0],[29.6676,-31.5449,0.0],[29.6688,-31.5462,0.0],[29.6685,-31.5443,10.5347],[29.6718,-31.5449,0.0],[29.6782,-31.5351,0.0],[29.6821,-31.5357,0.0],[29.6857,-31.5312,0.0],[29.6887,-31.5215,0.0],[29.6849,-31.5201,17.9268],[29.6762,-31.5117,12.0283],[29.6717,-31.5104,12.15],[29.6704,-31.5069,5.3912],[29.6622,-31.5044,42.4395],[29.6586,-31.5061,10.3719],[29.6566,-31.504,46.9604],[29.6562,-31.498,18.2874],[29.6544,-31.4968,24.3919],[29.6527,-31.5008,19.8385],[29.6431,-31.4998,40.6577],[29.6433,-31.4977,37.743],[29.6484,-31.4971,54.8821],[29.6407,-31.492,36.7978],[29.6454,-31.4894,50.8845],[29.6453,-31.4864,50.8162],[29.6291,-31.4877,63.9648],[29.6256,-31.4839,84.791],[29.6282,-31.4815,72.7702],[29.6257,-31.4766,75.0821],[29.6205,-31.4793,79.9955],[29.6156,-31.479,83.9302],[29.6141,-31.4739,152.5567],[29.6113,-31.4711,134.43],[29.6162,-31.4663,154.1584],[29.6154,-31.4645,130.3103],[29.6085,-31.4647,104.7292],[29.6063,-31.4722,125.5058],[29.601,-31.4661,144.3282],[29.5952,-31.4701,162.3624],[29.5919,-31.4684,118.9772],[29.5913,-31.4651,152.328],[29.5943,-31.4652,131.1296],[29.5953,-31.4636,124.0423],[29.5925,-31.4582,160.9684],[29.5987,-31.4595,130.3832],[29.5994,-31.4584,130.3832],[29.5972,-31.451,144.5294],[29.5989,-31.4414,166.566],[29.5941,-31.4393,162.9217],[29.5944,-31.4351,167.4391],[29.5912,-31.438,191.1029],[29.5909,-31.4425,175.1697],[29.5839,-31.4442,177.4792],[29.583,-31.4409,237.6378],[29.5849,-31.4362,237.0899],[29.5816,-31.4326,269.1925],[29.5759,-31.437,245.8148],[29.5717,-31.4377,242.1552],[29.5699,-31.4306,278.4888],[29.5637,-31.4298,330.184],[29.563,-31.4325,335.0824],[29.5583,-31.4304,380.886],[29.5564,-31.4273,374.6381],[29.5546,-31.4284,370.106],[29.554,-31.4251,365.6478],[29.5507,-31.4253,362.4292],[29.5471,-31.4296,402.7662],[29.5459,-31.4287,373.6914],[29.5463,-31.4242,382.1562],[29.5373,-31.4251,392.3031],[29.5368,-31.4182,408.8884],[29.5353,-31.4162,418.5579],[29.5373,-31.415,442.4564],[29.5285,-31.4065,449.0884],[29.5312,-31.4067,436.9051],[29.532,-31.4047,437.606],[29.5294,-31.3962,475.8707],[29.5289,-31.3877,517.2446],[29.5261,-31.3857,568.7578],[29.52,-31.3941,551.2825],[29.5159,-31.393,487.6008],[29.5105,-31.399,474.6418],[29.5068,-31.3982,447.4556],[29.5076,-31.396,448.9443],[29.5146,-31.3926,449.833],[29.5135,-31.3913,449.833],[29.5084,-31.3915,453.8441],[29.5096,-31.3892,459.6352],[29.5136,-31.3895,454.0201],[29.5172,-31.387,458.4472],[29.5179,-31.3816,482.4752],[29.5141,-31.3779,463.8935],[29.5172,-31.3756,461.8248],[29.517,-31.374,474.008],[29.5058,-31.3629,560.0571],[29.5051,-31.3597,563.6885],[29.5141,-31.3638,521.3969],[29.5152,-31.3703,511.5521],[29.5179,-31.3673,504.1584],[29.5233,-31.3655,523.4688],[29.5244,-31.3631,492.9493],[29.5202,-31.3634,526.8811],[29.5141,-31.36,566.9202],[29.5051,-31.3584,582.1856],[29.5107,-31.340699999999998,645.441],[29.5014,-31.339,666.1418],[29.4983,-31.337,707.3223],[29.4974,-31.33,678.5818],[29.4931,-31.3335,684.4095],[29.4862,-31.3325,644.1057],[29.4876,-31.3369,639.2625],[29.4822,-31.3376,662.5187],[29.4606,-31.3351,674.5413],[29.4526,-31.3308,724.7816],[29.4472,-31.3315,797.6655],[29.4452,-31.3213,789.9677],[29.4406,-31.3178,756.3234],[29.4412,-31.3125,723.9786],[29.4574,-31.3082,639.0513],[29.4615,-31.303,609.3623],[29.4594,-31.302,609.3755],[29.4584,-31.3033,613.8149],[29.455,-31.3012,613.5494],[29.4541,-31.2987,616.382],[29.449,-31.2947,621.4805],[29.4407,-31.2962,669.5202],[29.4405,-31.2992,650.5278],[29.4349,-31.2981,663.9742],[29.4319,-31.3003,672.8327],[29.4334,-31.302,686.5279],[29.4296,-31.3039,698.2689],[29.4222,-31.3018,709.2208],[29.4198,-31.3026,728.4843],[29.416,-31.3075,726.4843],[29.4136,-31.3149,754.8032],[29.4094,-31.3159,817.2182],[29.3988,-31.3238,763.1913],[29.3879,-31.3293,812.9357],[29.384,-31.3276,794.0825],[29.3866,-31.3246,804.6663],[29.386,-31.3234,810.8005],[29.3833,-31.322,806.3441],[29.3785,-31.3237,803.6732],[29.3773,-31.321,820.2772],[29.3735,-31.3196,827.3819],[29.368,-31.313,829.8727],[29.3722,-31.3084,842.5971],[29.373,-31.3032,856.7183],[29.3714,-31.2983,857.9601],[29.3625,-31.2943,873.8616],[29.3589,-31.2949,881.8749],[29.354,-31.302,644.0635],[29.3479,-31.3047,520.9628],[29.345,-31.3031,466.5594],[29.3416,-31.3057,455.4437],[29.3371,-31.3101,422.7637],[29.3372,-31.3121,412.5216],[29.333,-31.3143,409.2685],[29.3336,-31.3173,391.7858],[29.3244,-31.3216,375.4078],[29.3223,-31.3266,344.6903],[29.3168,-31.3292,330.2122],[29.316,-31.3314,350.4094],[29.3098,-31.334,307.1664],[29.3091,-31.3358,299.4327],[29.3017,-31.3367,285.9777],[29.3002,-31.3385,276.8086],[29.3011,-31.3404,270.8508],[29.2994,-31.3462,267.0339],[29.2959,-31.3488,252.187],[29.2957,-31.3561,238.7086],[29.2934,-31.3573,234.8955],[29.2929,-31.3595,231.692],[29.2903,-31.3602,226.8481],[29.2889,-31.3655,236.927],[29.2852,-31.3658,217.2194],[29.2854,-31.3682,236.8081],[29.2911,-31.3691,187.9741],[29.2911,-31.3703,201.5718],[29.2832,-31.3788,177.1832],[29.2809,-31.3778,187.7488],[29.2748,-31.3834,185.4948],[29.2702,-31.3839,183.647],[29.2644,-31.3877,144.2286],[29.2681,-31.3909,121.1805],[29.2693,-31.3947,105.4767],[29.2712,-31.3953,109.7119],[29.2908,-31.3913,110.0567],[29.2969,-31.3909,110.2829],[29.3,-31.3926,127.3534],[29.2863,-31.4067,100.0025],[29.2726,-31.4105,93.5019],[29.2689,-31.4149,91.0],[29.2638,-31.4256,104.1119],[29.2663,-31.4325,97.3088],[29.2716,-31.4403,86.6904],[29.2771,-31.4436,89.5152],[29.2799,-31.4446,135.9803],[29.2908,-31.4419,82.503],[29.2908,-31.4458,95.6131],[29.2871,-31.4477,126.0578],[29.2883,-31.451,120.402],[29.2868,-31.4526,156.3096],[29.2899,-31.4573,143.0823],[29.2891,-31.4605,142.2247],[29.2925,-31.463,151.2632],[29.2913,-31.4673,175.3049],[29.2948,-31.4689,182.1658],[29.2957,-31.4717,192.4148],[29.2873,-31.4761,218.3216],[29.2878,-31.48,218.4319],[29.2861,-31.4813,232.9067],[29.2889,-31.4848,257.16],[29.2917,-31.5001,435.6319],[29.2963,-31.5099,704.2027],[29.295,-31.5149,682.1057],[29.2867,-31.5271,360.4993],[29.2882,-31.5323,339.1494],[29.2909,-31.5327,322.4771],[29.2948,-31.5375,294.9425],[29.2924,-31.5435,267.8314],[29.2903,-31.5476,206.7438],[29.2851,-31.548,192.1437],[29.2845,-31.5508,189.7548],[29.2868,-31.5525,162.2922],[29.2863,-31.554,156.2287],[29.2832,-31.5543,156.5443],[29.2821,-31.5573,150.9487],[29.2834,-31.5579,152.1417],[29.2831,-31.5598,142.0181],[29.2761,-31.564,322.6364],[29.2735,-31.5728,331.4353],[29.27,-31.5751,361.8945],[29.2667,-31.5804,313.7247],[29.2599,-31.5838,325.1365],[29.2633,-31.5875,286.2955],[29.2625,-31.5902,269.4692],[29.2643,-31.5918,262.829],[29.2641,-31.5969,279.5266],[29.2679,-31.6118,273.7751],[29.2734,-31.6249,158.2852],[29.2755,-31.6251,163.0955],[29.2771,-31.6279,175.0406],[29.272,-31.635,174.6174],[29.2781,-31.6386,150.938],[29.275,-31.6419,156.5995],[29.2763,-31.6438,153.8172],[29.2752,-31.6469,169.6365],[29.2718,-31.646,158.1588],[29.2704,-31.6471,159.6667],[29.271,-31.6517,169.2929],[29.2734,-31.6513,168.9031],[29.2744,-31.6527,168.9031],[29.2707,-31.6557,185.5207],[29.272,-31.6573,198.1396],[29.2697,-31.6578,182.174],[29.2684,-31.661,193.9035],[29.2652,-31.6631,215.087],[29.2606,-31.6718,251.325],[29.2497,-31.6803,303.6154],[29.2466,-31.6866,461.733],[29.2479,-31.7091,410.9818],[29.2568,-31.7211,347.3312],[29.2538,-31.7243,353.0175],[29.2533,-31.7292,260.1511],[29.2577,-31.733,233.5138],[29.254,-31.7326,202.0993],[29.2542,-31.7351,242.1835],[29.2493,-31.7421,179.819],[29.2526,-31.7454,156.4486],[29.2488,-31.7525,138.9877],[29.2505,-31.7538,160.7699],[29.2488,-31.7574,133.6564],[29.2527,-31.7569,119.4626],[29.2537,-31.7633,123.7462],[29.2546,-31.7649,111.5383],[29.2561,-31.7644,131.0973]]],
[[[29.6893,-31.5218,0.0],[29.6894,-31.5215,0.0],[29.6893,-31.5215,0.0],[29.6893,-31.5218,0.0]]]]}}