{"type":"Feature","properties":{"GID_2":"ZAF.8.4_1","GID_0":"ZAF","country":"SouthAfrica","GID_1":"ZAF.8_1","province":"NorthernCape","NL_NAME_1":"NA","county":"PixleykaSeme","VARNAME_2":"NA","NL_NAME_2":"NA","TYPE_2":"DistrictMunicipality","ENGTYPE_2":"DistrictMunicipality","CC_2":"DC7","HASC_2":"ZA.NC.PS","name":"Pixleyka_Seme.county"},
"geometry":{"type": "MultiPolygon","coordinates": [[[[24.7542,-31.3951,1674.7375],[24.7887,-31.3895,1779.4895],[24.8255,-31.3565,1763.6152],[24.8461,-31.3656,1859.677],[24.8602,-31.374,1903.4856],[24.8629,-31.3736,1930.9722],[24.8613,-31.3563,1849.0549],[24.853,-31.3282,1772.8783],[24.8988,-31.3137,1679.495],[24.9002,-31.3167,1824.2861],[24.9234,-31.3135,1650.4396],[24.9336,-31.3204,1547.2137],[24.942,-31.3151,1630.5909],[24.9487,-31.2983,1617.0392],[24.9605,-31.2855,1505.4429],[25.0056,-31.2631,1633.8551],[25.0445,-31.2661,1750.8337],[25.0585,-31.2694,1760.9512],[25.0735,-31.2533,1606.781],[25.0844,-31.2623,1641.4702],[25.1008,-31.2595,1678.3296],[25.1152,-31.2463,1806.2477],[25.1307,-31.2394,1710.7781],[25.1527,-31.2431,1649.1681],[25.1552,-31.2311,1644.1982],[25.1705,-31.2392,1677.9944],[25.1771,-31.2346,1665.8903],[25.1791,-31.2222,1700.5833],[25.1924,-31.2134,1614.1019],[25.1984,-31.2155,1665.2009],[25.2048,-31.2151,1655.8621],[25.2096,-31.2048,1677.9592],[25.2043,-31.2017,1655.5734],[25.211,-31.1921,1688.2432],[25.2197,-31.1904,1678.2124],[25.2238,-31.1923,1644.1108],[25.225,-31.1952,1531.1958],[25.2693,-31.2144,1540.5261],[25.2682,-31.2208,1578.8851],[25.2849,-31.2234,1629.7771],[25.2906,-31.2135,1546.5774],[25.3544,-31.236,1544.4504],[25.3688,-31.226,1504.6309],[25.3862,-31.2178,1522.6426],[25.3825,-31.2045,1495.1744],[25.3778,-31.1989,1505.3514],[25.3846,-31.151,1557.4521],[25.3982,-31.1307,1699.9844],[25.4156,-31.1344,1625.426],[25.4464,-31.1002,1582.3335],[25.4543,-31.0793,1752.4609],[25.4388,-31.0615,1686.9421],[25.4532,-31.0542,1554.201],[25.4638,-31.0547,1610.9819],[25.4867,-31.0369,1537.8043],[25.5016,-31.0074,1491.2051],[25.4848,-31.0063,1475.2864],[25.4758,-30.9912,1478.9155],[25.475,-30.9839,1471.2437],[25.4931,-30.9677,1474.0555],[25.511,-30.9557,1421.6273],[25.5064,-30.9503,1425.7302],[25.5083,-30.9422,1418.8153],[25.5046,-30.933,1450.573],[25.5104,-30.9284,1503.6636],[25.514,-30.9215,1508.8706],[25.5178,-30.9015,1469.8131],[25.5165,-30.9026,1452.4563],[25.5084,-30.8982,1492.8271],[25.5006,-30.888,1554.3239],[25.4713,-30.8698,1565.897],[25.4852,-30.8498,1579.6438],[25.5216,-30.8332,1646.0088],[25.5493,-30.791,1314.1473],[25.5479,-30.7898,1315.4014],[25.5249,-30.7964,1341.1456],[25.5084,-30.7888,1355.2605],[25.505,-30.7836,1341.8887],[25.4864,-30.7845,1576.1497],[25.4802,-30.7789,1564.3147],[25.4799,-30.7598,1372.3005],[25.4739,-30.7437,1383.6884],[25.4772,-30.7385,1409.2241],[25.4764,-30.7282,1403.8873],[25.4739,-30.7231,1431.483],[25.4624,-30.7221,1350.4558],[25.4625,-30.7155,1418.9847],[25.4665,-30.7098,1361.4369],[25.4638,-30.6894,1323.0811],[25.4602,-30.6833,1317.7456],[25.4633,-30.6777,1294.4294],[25.4719,-30.6729,1346.7124],[25.4697,-30.6688,1371.2648],[25.4713,-30.6667,1373.6936],[25.4604,-30.6608,1330.8794],[25.4585,-30.6574,1337.2618],[25.4565,-30.637,1234.1599],[25.4625,-30.6281,1267.5371],[25.4671,-30.6242,1193.4626],[25.4536,-30.609,1190.0701],[25.4213,-30.587,1188.8788],[25.4195,-30.5847,1191.1696],[25.42,-30.58,1188.1472],[25.4187,-30.5782,1185.5],[25.4057,-30.5721,1184.0],[25.3993,-30.5731,1192.9705],[25.3766,-30.5599,1183.9327],[25.3676,-30.5578,1188.0415],[25.3627,-30.5585,1182.2301],[25.3572,-30.5636,1182.3658],[25.3517,-30.5643,1187.4583],[25.3396,-30.5581,1184.4869],[25.3328,-30.5579,1189.1936],[25.3284,-30.561,1180.5],[25.326,-30.5696,1185.769],[25.3237,-30.5724,1181.4208],[25.3114,-30.5771,1178.0],[25.3054,-30.5765,1178.9298],[25.2838,-30.559,1177.0457],[25.279,-30.5441,1172.625],[25.2706,-30.5387,1178.9084],[25.2617,-30.5259,1194.8101],[25.2547,-30.519,1173.4728],[25.2434,-30.5136,1170.7534],[25.2395,-30.5046,1169.625],[25.2353,-30.4999,1169.5],[25.2313,-30.4995,1174.2668],[25.2252,-30.5037,1169.6976],[25.21,-30.5051,1169.5],[25.203,-30.504,1171.7264],[25.1896,-30.4984,1174.0376],[25.1837,-30.484,1179.4668],[25.1671,-30.4737,1175.1243],[25.1601,-30.4647,1169.5],[25.1527,-30.4593,1169.5],[25.1531,-30.4532,1169.5],[25.1612,-30.4495,1170.0942],[25.1577,-30.4426,1169.5],[25.1467,-30.4329,1171.4739],[25.1399,-30.4242,1169.5],[25.1256,-30.4202,1169.5],[25.1135,-30.4092,1215.327],[25.1112,-30.4036,1192.4869],[25.1021,-30.3913,1173.6226],[25.0989,-30.3782,1169.0],[25.0951,-30.3722,1171.2736],[25.0854,-30.3692,1171.2212],[25.0779,-30.3653,1171.2063],[25.0716,-30.3594,1189.9473],[25.064,-30.3569,1169.0],[25.0511,-30.3572,1169.0],[25.043,-30.3634,1169.0],[25.0385,-30.3625,1169.0],[25.0355,-30.3449,1169.0],[25.0424,-30.3365,1169.0],[25.0466,-30.3229,1169.0],[25.0471,-30.3162,1169.0],[25.0459,-30.3111,1169.0],[25.0397,-30.3013,1169.0],[25.035,-30.2869,1170.6732],[25.0295,-30.2837,1169.0],[25.0233,-30.2835,1169.0],[25.0079,-30.2921,1169.0],[25.0028,-30.2935,1169.0],[24.9863,-30.29,1169.0],[24.9803,-30.2842,1169.0],[24.9761,-30.2733,1169.0],[24.9632,-30.2675,1169.0],[24.9465,-30.2518,1169.0],[24.9468,-30.2467,1169.0],[24.9553,-30.2386,1169.0],[24.9558,-30.2311,1169.0],[24.9542,-30.2261,1169.0],[24.9461,-30.2253,1169.0],[24.9426,-30.2215,1169.0],[24.934,-30.2175,1169.0],[24.9302,-30.2069,1169.0],[24.9251,-30.2007,1169.0],[24.9203,-30.2008,1169.0],[24.9104,-30.2097,1169.0],[24.903199999999998,-30.209,1169.0],[24.9,-30.2067,1169.0],[24.8957,-30.1964,1169.0],[24.8952,-30.1842,1169.0],[24.8816,-30.1733,1169.0],[24.8804,-30.1589,1169.0],[24.8711,-30.1345,1169.0],[24.8673,-30.1307,1169.0],[24.8442,-30.1235,1169.0],[24.8376,-30.1178,1169.0],[24.8364,-30.1151,1169.0],[24.8385,-30.0952,1169.0],[24.8329,-30.0923,1169.0],[24.826,-30.0852,1169.0],[24.8178,-30.0821,1169.0],[24.8141,-30.0679,1169.0],[24.8034,-30.0604,1169.0],[24.7978,-30.0516,1169.0],[24.7962,-30.0459,1169.0],[24.7985,-30.0339,1169.0],[24.8073,-30.0264,1169.0],[24.8081,-30.023,1169.0],[24.8037,-30.0118,1169.0],[24.794,-29.999,1169.0],[24.7738,-29.9938,1169.0],[24.7568,-29.9928,1169.0],[24.7502,-29.9895,1169.0],[24.7237,-29.9922,1099.5577],[24.7124,-29.9887,1097.0007],[24.7036,-29.9837,1094.6857],[24.6956,-29.9827,1093.0],[24.6744,-29.9756,1095.3298],[24.6713,-29.9715,1100.1095],[24.6695,-29.9611,1097.957],[24.6628,-29.9422,1096.6405],[24.6679,-29.9091,1093.5059],[24.6651,-29.902,1096.0593],[24.6593,-29.8992,1091.6909],[24.6527,-29.8988,1089.0],[24.6498,-29.9016,1091.7758],[24.6495,-29.9069,1097.0471],[24.6453,-29.9113,1091.2598],[24.6079,-29.9113,1091.0029],[24.5841,-29.8962,1085.5],[24.5642,-29.8777,1085.0],[24.5551,-29.8626,1085.5588],[24.5507,-29.8492,1084.8013],[24.547,-29.8449,1085.5972],[24.5395,-29.8423,1084.5],[24.5237,-29.8452,1085.0281],[24.5103,-29.8415,1083.5],[24.5026,-29.8365,1083.7203],[24.5018,-29.8332,1083.0],[24.5034,-29.8241,1086.2094],[24.4977,-29.816,1082.375],[24.4872,-29.813,1086.3744],[24.459,-29.8107,1081.0],[24.4535,-29.8111,1082.6013],[24.4472,-29.8151,1091.2339],[24.439,-29.8149,1080.734],[24.4351,-29.8059,1083.4178],[24.4246,-29.8012,1081.2263],[24.4105,-29.7894,1078.7358],[24.4022,-29.7741,1078.884],[24.3879,-29.7539,1078.1293],[24.376,-29.727,1074.0],[24.365,-29.7188,1073.125],[24.357,-29.715,1072.5],[24.3514,-29.7094,1076.6418],[24.3487,-29.7018,1073.6519],[24.3535,-29.6615,1070.0],[24.3522,-29.6587,1070.0],[24.3466,-29.6559,1071.1516],[24.6918,-29.0257,1115.5347],[24.6789,-29.0319,1116.5671],[24.6711,-29.028,1114.4888],[24.6683,-29.0373,1113.9307],[24.6661,-29.0395,1114.5631],[24.6612,-29.0401,1115.6201],[24.6588,-29.045,1114.531],[24.6563,-29.0435,1114.9587],[24.6546,-29.0392,1114.9473],[24.6554,-29.0274,1112.2883],[24.6488,-29.0277,1112.9574],[24.6437,-29.026,1113.7415],[24.6385,-29.0295,1110.9187],[24.642,-29.0371,1110.2727],[24.6419,-29.0411,1110.2297],[24.6403,-29.0424,1110.8312],[24.6223,-29.0374,1106.0702],[24.6167,-29.0379,1106.7344],[24.6054,-29.0422,1103.5],[24.5938,-29.0417,1103.3375],[24.5833,-29.0454,1101.4519],[24.5717,-29.0426,1098.4135],[24.5405,-29.0462,1084.8861],[24.5352,-29.0422,1086.6838],[24.5191,-29.0495,1082.89],[24.5063,-29.0509,1080.7781],[24.5025,-29.0482,1083.6836],[24.5011,-29.0444,1078.3976],[24.5044,-29.0392,1092.8286],[24.5128,-29.0317,1075.0719],[24.5126,-29.0182,1070.2521],[24.4999,-29.0125,1071.8578],[24.495,-29.007,1065.2493],[24.4933,-29.001,1070.5232],[24.4897,-28.9981,1067.9037],[24.4855,-28.9974,1073.1667],[24.4773,-28.999,1059.6648],[24.4676,-28.9978,1057.8627],[24.4502,-29.0032,1058.7872],[24.4339,-28.9975,1044.4775],[24.429,-28.9925,1045.3193],[24.4119,-28.9664,1050.9056],[24.4098,-28.9602,1043.8196],[24.4101,-28.9543,1043.6006],[24.4051,-28.9527,1036.3225],[24.4019,-28.9478,1038.5109],[24.3944,-28.9417,1037.9919],[24.3881,-28.9416,1033.1077],[24.3837,-28.945,1036.3842],[24.3741,-28.9343,1035.9502],[24.3563,-28.9326,1030.7233],[24.3512,-28.9276,1034.0632],[24.3382,-28.9281,1032.1257],[24.3297,-28.9326,1034.5072],[24.3226,-28.9335,1031.1892],[24.3096,-28.9238,1031.0616],[24.3005,-28.9312,1033.9927],[24.2931,-28.931,1032.6543],[24.2881,-28.9286,1030.0193],[24.286,-28.9294,1035.5819],[24.2829,-28.934,1031.6147],[24.2814,-28.9498,1029.0447],[24.28,-28.9516,1026.2388],[24.2728,-28.9516,1027.8782],[24.2677,-28.9444,1029.2371],[24.261,-28.9479,1033.1257],[24.2447,-28.9018,1038.9221],[24.2374,-28.8955,1032.6155],[24.2336,-28.8824,1045.7832],[24.2549,-28.8561,1055.9883],[24.2702,-28.8335,1064.1418],[24.2584,-28.8314,1069.7722],[24.2266,-28.8186,1071.8013],[24.1887,-28.809,1065.6458],[24.1819,-28.8116,1068.9607],[24.1625,-28.8042,1092.3992],[24.1408,-28.7911,1086.8853],[24.1197,-28.7846,1086.5337],[24.1083,-28.7776,1061.3843],[24.1006,-28.7641,1036.8429],[24.0781,-28.736,1044.8744],[24.0766,-28.7195,1015.4559],[24.0732,-28.7113,999.877],[24.0752,-28.7088,1001.3493],[24.0756,-28.7042,997.0],[24.0627,-28.6877,1005.8572],[24.0581,-28.6659,1002.5455],[24.0817,-28.6602,1001.3725],[24.0809,-28.6517,1004.1343],[24.0822,-28.6467,997.5],[24.0873,-28.6386,1003.4941],[24.0915,-28.6252,1000.974],[24.0963,-28.6203,999.4615],[24.1014,-28.6197,1000.2568],[24.1092,-28.6147,1002.129],[24.1091,-28.6094,1000.0278],[24.1178,-28.5997,1000.1718],[24.0866,-28.5583,1112.5103],[24.0615,-28.5825,1087.4543],[24.0464,-28.5998,1069.9067],[23.9496,-28.6034,1315.5197],[23.9606,-28.6197,1296.7041],[24.0009,-28.6619,1088.2789],[23.9693,-28.6711,1119.1908],[23.9087,-28.6414,1317.5706],[23.8795,-28.6144,1342.7123],[23.8519,-28.5972,1355.8383],[23.8127,-28.5645,1363.0767],[23.7848,-28.5452,1373.1134],[23.7547,-28.5288,1388.3813],[23.6618,-28.6449,1390.8667],[23.6238,-28.7084,1368.5813],[23.693,-28.7369,1338.4717],[23.6685,-28.7667,1340.311],[23.6329,-28.7579,1352.9456],[23.5578,-28.751,1382.9351],[23.5424,-28.7474,1387.7239],[23.5184,-28.733,1404.3223],[23.4794,-28.7139,1451.9131],[23.4219,-28.6963,1408.239],[23.4103,-28.6953,1407.6782],[23.3791,-28.6363,1457.8724],[23.3547,-28.6471,1423.277],[23.292,-28.6499,1471.0369],[23.2551,-28.6143,1482.9211],[23.2336,-28.6373,1422.7036],[23.2022,-28.6296,1430.3408],[23.2075,-28.6013,1443.5402],[23.223,-28.5573,1466.6578],[23.1924,-28.5456,1482.6616],[23.1824,-28.5705,1501.2693],[23.1285,-28.5966,1364.4761],[23.097,-28.5993,1371.4381],[23.0142,-28.5812,1215.8832],[22.9957,-28.5803,1209.9796],[22.9625,-28.5614,1186.2134],[22.9176,-28.577,1164.416],[22.8765,-28.5797,1133.906],[22.838,-28.5763,1117.0769],[22.7962,-28.5776,1141.6122],[22.7658,-28.5419,1158.6514],[22.7298,-28.518,1188.0764],[22.6672,-28.5027,1188.4194],[22.6007,-28.5029,1526.1797],[22.5914,-28.5148,1559.5037],[22.583,-28.4991,1278.9023],[22.5243,-28.4974,1213.3806],[22.4606,-28.4445,1159.0002],[22.0419,-28.8399,893.6373],[22.0492,-28.8515,852.4094],[22.0541,-28.846,852.269],[22.062,-28.8427,854.5948],[22.0708,-28.8419,854.25],[22.0791,-28.8448,857.5477],[22.0831,-28.8508,856.0],[22.0835,-28.8597,856.0],[22.0866,-28.8655,857.3436],[22.088,-28.8744,858.0343],[22.0971,-28.8871,858.9443],[22.1108,-28.8982,857.0],[22.1312,-28.9062,860.3572],[22.1421,-28.9137,866.8541],[22.1594,-28.9511,869.569],[22.1676,-28.9608,865.5242],[22.175,-28.9667,869.6221],[22.1799,-28.9743,876.7078],[22.1794,-28.983,912.0546],[22.1621,-28.9977,868.5],[22.1614,-29.0023,868.5],[22.167,-29.0157,881.4982],[22.1695,-29.0185,869.5],[22.1837,-29.0265,881.7906],[22.1927,-29.0298,874.7119],[22.1995,-29.041,875.0802],[22.208,-29.0454,882.5],[22.2121,-29.0499,883.0],[22.2109,-29.0612,883.0],[22.2037,-29.0789,883.5],[22.2069,-29.086,883.5],[22.2125,-29.0907,888.3466],[22.2179,-29.0988,887.8514],[22.2047,-29.1091,910.7401],[22.1812,-29.0624,1110.8577],[22.117,-29.0121,1138.8669],[22.0863,-28.9506,904.3707],[21.991,-28.9461,895.7418],[21.9586,-29.0157,1219.6947],[21.8945,-29.0594,1221.2933],[21.840699999999998,-29.0998,1157.5193],[21.899,-29.1649,1108.1067],[21.9793,-29.2778,1188.4093],[21.911,-29.3538,1076.3772],[21.8457,-29.3959,1080.4647],[21.8998,-29.4491,1069.3584],[21.7849,-29.5566,1052.4442],[21.83,-29.6232,1079.3396],[21.7789,-29.666,1053.6532],[21.7216,-29.7748,1011.9358],[21.8114,-29.842,993.6964],[21.9266,-29.8796,1018.5604],[22.0103,-29.9024,1053.0336],[21.9944,-29.9538,1025.4653],[22.0143,-30.0058,1016.7625],[21.9384,-30.0243,988.1008],[21.9146,-29.9911,1011.6342],[21.8327,-30.0279,994.8627],[21.6947,-29.9954,930.0021],[21.6134,-30.013,984.2451],[21.5922,-30.0116,1006.6433],[21.5752,-30.0444,955.1118],[21.5069,-30.0312,916.2053],[21.4257,-29.9864,912.772],[21.3713,-30.0175,896.0693],[21.243,-30.0391,870.4645],[21.1652,-30.0856,905.8433],[21.1522,-30.1918,938.2393],[21.2107,-30.1793,890.3185],[21.2598,-30.2041,912.313],[21.1492,-30.2077,931.2388],[21.1431,-30.2562,967.4983],[21.0749,-30.3026,1000.4813],[21.0729,-30.3323,996.7342],[21.1085,-30.3356,1005.1993],[21.1944,-30.3384,1014.2332],[21.2201,-30.3333,967.814],[21.2517,-30.3975,1011.2071],[21.2652,-30.4744,1012.1522],[21.3081,-30.5436,1012.7977],[21.2709,-30.5895,977.2231],[21.3364,-30.6383,1012.8649],[21.3753,-30.6889,1097.1127],[21.3815,-30.6992,1078.5308],[21.4209,-30.7286,1096.981],[21.4834,-30.7461,1301.0673],[21.4477,-30.7842,1396.9138],[21.4651,-30.8204,1404.3087],[21.4933,-30.8281,1371.5105],[21.4696,-30.8752,1307.481],[21.4842,-30.8906,1313.6095],[21.5034,-30.8881,1542.1776],[21.502,-30.9148,1390.0878],[21.4831,-30.9448,1394.3928],[21.4858,-30.9574,1415.3269],[21.483,-30.9939,1366.209],[21.5256,-31.0035,1339.3801],[21.5098,-31.0572,1345.396],[21.5672,-31.0969,1370.2275],[21.5881,-31.0619,1333.4548],[21.6707,-31.0976,1290.0935],[21.688,-31.127,1294.6025],[21.7022,-31.1648,1277.416],[21.6938,-31.1701,1273.4841],[21.6219,-31.1514,1330.3933],[21.6082,-31.1973,1328.8833],[21.6148,-31.2499,1344.3201],[21.6692,-31.2619,1316.2189],[21.7261,-31.2638,1287.0715],[21.7624,-31.2714,1264.9875],[21.7473,-31.3158,1274.5867],[21.796,-31.3163,1232.9],[21.8137,-31.3334,1267.8289],[21.8228,-31.3535,1229.9016],[21.8145,-31.3978,1252.5599],[21.8802,-31.3995,1320.845],[21.9298,-31.4181,1297.4507],[21.9378,-31.4259,1245.2753],[21.9328,-31.4342,1253.6603],[21.8499,-31.4564,1292.4641],[21.8655,-31.4973,1287.4697],[21.9199,-31.4912,1295.0068],[21.9448,-31.4726,1281.9888],[21.9533,-31.4707,1273.0936],[21.962,-31.5122,1253.4198],[21.9879,-31.5581,1283.8501],[22.0005,-31.5662,1281.2717],[22.0117,-31.5905,1314.5674],[21.9497,-31.601,1257.6763],[21.9323,-31.6243,1262.7014],[21.9287,-31.6213,1261.1619],[21.9155,-31.6457,1281.621],[21.9441,-31.6822,1280.7255],[21.9854,-31.6959,1338.3173],[21.9868,-31.7199,1362.9891],[22.0496,-31.77,1330.3302],[22.1161,-31.7584,1409.6511],[22.1797,-31.7817,1377.9779],[22.1879,-31.7814,1369.0132],[22.204,-31.764,1415.7312],[22.2374,-31.703,1502.4028],[22.2499,-31.6647,1481.967],[22.2601,-31.6625,1492.2722],[22.2729,-31.5925,1384.5254],[22.3123,-31.5835,1399.4791],[22.3551,-31.6054,1392.3341],[22.4333,-31.6382,1475.5813],[22.4958,-31.6703,1479.0452],[22.5648,-31.6779,1571.9749],[22.5661,-31.7132,1553.0571],[22.6191,-31.7246,1584.8445],[22.6094,-31.7398,1569.045],[22.5783,-31.8055,1453.806],[22.6149,-31.8229,1454.0287],[22.6307,-31.8235,1715.9133],[22.6318,-31.8234,1715.9133],[22.6312,-31.8197,1732.4775],[22.6328,-31.8162,1772.7441],[22.635,-31.815,1779.0543],[22.6414,-31.8163,1793.3346],[22.6449,-31.8144,1705.3494],[22.6475,-31.8196,1780.7904],[22.6515,-31.8217,1755.4705],[22.7351,-31.7994,1321.3251],[22.7575,-31.8275,1370.4976],[22.7769,-31.8569,1358.5654],[22.8253,-31.8377,1358.2081],[22.859,-31.8183,1311.0581],[22.8747,-31.8616,1310.1007],[22.902,-31.8758,1479.0935],[22.9538,-31.863,1119.828],[22.9758,-31.8608,1304.3679],[23.0387,-31.8775,1311.9172],[23.0674,-31.8907,1135.9917],[23.0523,-31.9103,1096.6769],[23.0526,-31.9398,1094.5103],[23.0587,-31.9548,1348.5374],[23.0709,-31.9538,1171.4548],[23.0876,-31.9723,1454.2814],[23.0985,-31.9777,1373.0183],[23.1043,-31.9606,1310.0138],[23.1188,-31.9601,1165.4221],[23.1395,-31.9515,1308.1165],[23.1448,-31.9431,1362.7627],[23.1519,-31.9398,1528.7805],[23.1712,-31.9181,1556.8846],[23.2304,-31.8757,1497.3561],[23.225,-31.854,1316.0416],[23.2624,-31.8154,1349.2024],[23.2634,-31.7783,1477.4335],[23.2661,-31.7732,1459.4363],[23.3024,-31.7301,1271.4429],[23.3451,-31.7109,1228.1423],[23.3871,-31.7148,1205.2902],[23.4071,-31.7138,1188.8723],[23.4017,-31.6996,1199.2678],[23.4165,-31.6722,1238.0656],[23.4231,-31.6821,1281.2046],[23.4961,-31.7027,1185.8556],[23.5239,-31.7053,1176.6714],[23.5355,-31.6918,1191.3496],[23.5745,-31.6892,1234.818],[23.5945,-31.6623,1356.7019],[23.6191,-31.6494,1361.7665],[23.6395,-31.6601,1503.5571],[23.6887,-31.6496,1629.4742],[23.7151,-31.647,1453.8799],[23.7345,-31.6546,1460.0839],[23.7565,-31.6957,1467.3779],[23.7775,-31.6971,1397.431],[23.8157,-31.7142,1363.9945],[23.8416,-31.7151,1398.9652],[23.8476,-31.7292,1311.3788],[23.8085,-31.7637,1368.209],[23.8372,-31.7679,1368.658],[23.8293,-31.7803,1330.6938],[23.8379,-31.7833,1350.2046],[23.8786,-31.8337,1375.3915],[23.894,-31.8368,1616.3617],[23.9159,-31.822,1572.5077],[23.9179,-31.7954,1604.9609],[23.9487,-31.7733,1502.4407],[23.9513,-31.7495,1590.2087],[23.9665,-31.7154,1645.2194],[23.9631,-31.7067,1641.674],[24.0468,-31.7067,1830.5918],[24.0291,-31.722,1893.5333],[24.0285,-31.7302,1665.155],[24.0431,-31.7673,1578.692],[24.0561,-31.776,1625.6514],[24.0709,-31.8071,1704.504],[24.1022,-31.7926,1932.2883],[24.1525,-31.7886,1790.2791],[24.1474,-31.7673,1743.4369],[24.1616,-31.7402,1968.1346],[24.226,-31.7474,1804.9862],[24.2402,-31.752,1628.8665],[24.2484,-31.7604,1587.1815],[24.2682,-31.7667,1623.9646],[24.2688,-31.7559,1800.5361],[24.285,-31.7652,1965.8099],[24.3016,-31.7583,1945.5553],[24.3153,-31.7501,2029.6655],[24.3224,-31.7418,1935.5333],[24.3247,-31.7241,1887.2975],[24.340699999999998,-31.7138,1966.6567],[24.4233,-31.7116,1953.0288],[24.4126,-31.6885,2007.6428],[24.4412,-31.7126,2028.0349],[24.4699,-31.7065,2075.168],[24.5063,-31.7068,2038.8083],[24.5141,-31.705,2035.5847],[24.5173,-31.6446,2013.1226],[24.523,-31.6037,1840.7146],[24.5039,-31.5684,1738.8201],[24.5245,-31.5454,1678.4871],[24.533,-31.5098,1542.0477],[24.5194,-31.4979,1531.7209],[24.5413,-31.4868,1564.6115],[24.5588,-31.4818,1555.3594],[24.5676,-31.4272,1493.8247],[24.5672,-31.4186,1470.384],[24.5961,-31.3992,1438.4399],[24.665,-31.3837,1456.7511],[24.7048,-31.4006,1725.3347],[24.7106,-31.4095,1697.8529],[24.7243,-31.3999,1566.4132],[24.7542,-31.3951,1674.7375]]]]}}