{"type": "Feature","bbox": [28.8735,-31.0796,32.8913,-26.8048],"geometry": {"type": "MultiPolygon","coordinates": [[[[30.284,-30.9713,0.0],[30.2865,-30.9718,0.0],[30.2976,-30.9632,0.0],[30.3021,-30.9551,0.0],[30.3015,-30.9487,0.0],[30.3046,-30.9424,7.8126],[30.309,-30.9385,0.0],[30.3085,-30.936,0.0],[30.3118,-30.9332,0.0],[30.314,-30.9335,0.0],[30.3182,-30.9254,1.614],[30.3293,-30.9185,0.0],[30.3296,-30.9154,15.3413],[30.3335,-30.9151,0.0],[30.3354,-30.9104,0.0],[30.3299,-30.9088,14.215],[30.3357,-30.9088,0.0],[30.3363,-30.9071,0.0],[30.3412,-30.9049,0.0],[30.3462,-30.8999,0.3637],[30.3479,-30.8937,2.3403],[30.359,-30.8815,0.0],[30.3601,-30.8771,0.0],[30.3643,-30.8762,0.0],[30.371,-30.871,0.3783],[30.3724,-30.8679,0.8662],[30.3721,-30.8604,4.2489],[30.3751,-30.8596,0.0],[30.3779,-30.8565,0.0],[30.3824,-30.8557,2.1523],[30.391,-30.8479,1.7602],[30.3965,-30.8379,0.0],[30.3962,-30.8363,0.0],[30.3935,-30.8354,25.9396],[30.3987,-30.8337,0.7759],[30.4043,-30.8279,0.0],[30.4057,-30.8221,5.0932],[30.4043,-30.819,2.146],[30.4101,-30.8151,5.3581],[30.4121,-30.8118,0.0],[30.4129,-30.8046,0.0],[30.4163,-30.8032,0.0],[30.4179,-30.7979,11.8124],[30.4215,-30.7954,0.0],[30.4246,-30.7899,0.0],[30.4229,-30.7865,0.0],[30.4318,-30.781,0.0],[30.4368,-30.7715,8.0493],[30.4438,-30.7671,0.3834],[30.4476,-30.7562,1.4319],[30.4593,-30.7435,0.8465],[30.4596,-30.7412,1.2244],[30.4579,-30.7399,1.2244],[30.4607,-30.7337,3.9359],[30.4643,-30.7301,0.0],[30.4676,-30.7296,0.0],[30.4674,-30.7274,5.0627],[30.4804,-30.7154,0.0],[30.4826,-30.7082,0.0],[30.4912,-30.7013,0.0],[30.4996,-30.6868,0.0],[30.5096,-30.6785,0.0],[30.511,-30.6718,1.4271],[30.5174,-30.6626,0.0],[30.5185,-30.6576,4.0227],[30.5254,-30.6521,9.2969],[30.5318,-30.644,1.799],[30.5354,-30.6426,0.1654],[30.5376,-30.6346,1.7781],[30.5451,-30.6274,3.187],[30.5474,-30.6282,0.0],[30.5449,-30.6232,0.0],[30.5476,-30.6126,4.7144],[30.559,-30.6024,1.7087],[30.5637,-30.5954,2.1226],[30.5679,-30.5929,6.2237],[30.5843,-30.5596,0.0],[30.5899,-30.5554,0.0],[30.5926,-30.5496,3.4331],[30.5965,-30.5457,2.0005],[30.6063,-30.5399,0.0],[30.609,-30.5346,0.0],[30.6076,-30.5312,3.8632],[30.6112,-30.5271,0.0],[30.6104,-30.5243,4.6702],[30.6179,-30.5174,7.6814],[30.6213,-30.5171,0.0],[30.6249,-30.5135,0.0],[30.6249,-30.5076,1.0925],[30.6299,-30.504,3.1207],[30.6307,-30.4993,0.0],[30.6332,-30.4982,0.0],[30.6329,-30.4943,0.0],[30.6351,-30.491,0.0],[30.6329,-30.489,0.0],[30.6335,-30.4846,0.4523],[30.6385,-30.4818,6.9725],[30.6421,-30.4749,0.0],[30.6529,-30.4651,1.612],[30.6526,-30.4618,10.7885],[30.6549,-30.4604,2.4452],[30.654,-30.4535,0.9739],[30.6593,-30.4487,1.1187],[30.661,-30.4426,9.3117],[30.6679,-30.4379,0.0],[30.6676,-30.4346,0.0],[30.6735,-30.4304,5.7102],[30.6724,-30.4246,0.0],[30.6735,-30.4199,13.5691],[30.6815,-30.4126,2.9698],[30.6835,-30.4049,0.0],[30.686,-30.4013,1.2586],[30.6937,-30.3954,0.3095],[30.6937,-30.3929,4.7019],[30.7001,-30.3854,3.0531],[30.7018,-30.3765,0.0],[30.7065,-30.3715,2.8622],[30.7068,-30.369,4.0916],[30.7176,-30.3621,0.0],[30.7196,-30.3535,0.0],[30.736,-30.339,0.0],[30.7346,-30.3335,5.5029],[30.741,-30.3224,6.2514],[30.7462,-30.3068,0.0],[30.7501,-30.2993,7.1399],[30.7604,-30.289,0.0],[30.7607,-30.2824,1.5041],[30.7588,-30.2793,0.8943],[30.7626,-30.271,0.0],[30.7776,-30.2532,2.7369],[30.7824,-30.251,2.3617],[30.7812,-30.2449,0.0],[30.7888,-30.2362,2.3377],[30.7907,-30.2287,5.8998],[30.7985,-30.2215,0.4713],[30.7985,-30.2154,0.0],[30.8032,-30.2054,10.7966],[30.8037,-30.1996,0.0],[30.8135,-30.1857,8.2399],[30.8215,-30.1676,16.2665],[30.8276,-30.159,10.4308],[30.8307,-30.1571,0.0],[30.8315,-30.1507,12.4749],[30.8468,-30.1329,0.0],[30.8529,-30.1132,0.0],[30.8582,-30.1032,0.0],[30.861,-30.101,2.4685],[30.8646,-30.0901,5.393],[30.8713,-30.0812,0.0],[30.8729,-30.0751,5.4247],[30.8815,-30.0651,4.3987],[30.884,-30.0585,0.0],[30.8974,-30.0424,7.9754],[30.9474,-30.0004,0.0],[30.951,-29.9965,1.778],[30.9504,-29.9935,1.1722],[30.9629,-29.9879,0.0],[30.9688,-29.9824,2.8339],[30.9743,-29.9729,6.052],[30.9888,-29.9596,0.0],[30.9901,-29.956,19.9071],[30.9982,-29.9474,41.5947],[31.009,-29.9382,0.0],[31.0217,-29.9215,0.0],[31.0365,-29.9088,0.0],[31.0446,-29.8965,0.0],[31.0599,-29.8799,0.0],[31.0621,-29.8746,0.0],[31.0607,-29.8696,0.0],[31.0643,-29.8651,0.2436],[31.0615,-29.8665,0.9468],[31.059,-29.8718,9.4991],[31.0504,-29.8782,3.4963],[31.0465,-29.8838,3.321],[31.0399,-29.8849,0.0],[31.0285,-29.8912,0.5969],[31.0268,-29.8913,2.6239],[31.0257,-29.8887,0.0],[31.0287,-29.8849,0.5092],[31.0404,-29.8838,0.0],[31.0418,-29.8826,4.4483],[31.0412,-29.881,0.0],[31.0385,-29.8804,0.26],[31.0374,-29.8821,1.5759],[31.0357,-29.8804,0.0],[31.0326,-29.881,0.6481],[31.0332,-29.8757,0.0],[31.0299,-29.8768,2.416],[31.0257,-29.8826,0.47],[31.0229,-29.8824,3.6306],[31.0232,-29.8776,0.0],[31.0115,-29.879,1.0663],[31.0121,-29.8857,7.4766],[31.0096,-29.8874,0.0],[31.006,-29.8965,0.0],[31.0065,-29.9013,3.6719],[31.0035,-29.8976,2.1548],[31.0074,-29.8882,0.0],[30.9957,-29.8857,1.3127],[30.996,-29.8846,1.3127],[31.0043,-29.8838,0.6802],[31.0093,-29.8718,0.0],[31.0174,-29.8674,0.0],[31.0204,-29.8635,1.0522],[31.0254,-29.8646,0.0],[31.0257,-29.8621,2.1783],[31.0296,-29.8637,0.0],[31.0324,-29.8632,0.0],[31.0335,-29.8676,0.0],[31.0321,-29.871,0.5374],[31.0332,-29.8718,0.0],[31.0346,-29.8718,0.0],[31.0362,-29.8676,3.3528],[31.0449,-29.8743,0.0],[31.0521,-29.8746,0.0],[31.0565,-29.871,0.0],[31.0579,-29.8676,0.0],[31.0554,-29.8699,0.0],[31.0518,-29.8696,4.2685],[31.0485,-29.866,0.0],[31.0468,-29.8665,4.7984],[31.0443,-29.8646,2.8746],[31.0404,-29.8512,0.0],[31.0376,-29.8471,3.4196],[31.036,-29.8321,0.0],[31.0382,-29.8179,2.3859],[31.0415,-29.8132,0.4514],[31.0412,-29.8099,0.2894],[31.0551,-29.7787,1.5716],[31.066,-29.7607,6.4818],[31.0876,-29.7304,0.0],[31.0937,-29.7143,6.4811],[31.0976,-29.7093,4.4453],[31.0971,-29.7065,1.0408],[31.1051,-29.6982,0.0],[31.1101,-29.6863,0.0],[31.1129,-29.6837,0.0],[31.1162,-29.6737,0.0],[31.1246,-29.6624,0.0],[31.1271,-29.6551,0.0],[31.1268,-29.6504,0.0],[31.1215,-29.6476,2.2715],[31.1301,-29.649,0.0],[31.1315,-29.6476,0.0],[31.1476,-29.6254,0.0],[31.1546,-29.6187,2.4445],[31.1604,-29.6082,2.4241],[31.1699,-29.5971,0.0],[31.1721,-29.5907,3.7198],[31.184,-29.5774,0.0],[31.1849,-29.5718,0.6347],[31.2035,-29.5543,5.6257],[31.2138,-29.5462,9.8964],[31.2165,-29.5457,2.6556],[31.2185,-29.5415,0.3329],[31.2237,-29.5376,0.0],[31.2237,-29.5315,4.3688],[31.2282,-29.5254,0.0],[31.2276,-29.5218,0.0],[31.2299,-29.5207,0.0],[31.2357,-29.5076,0.0],[31.239,-29.5054,0.0],[31.2396,-29.5026,12.1681],[31.2471,-29.4943,14.1468],[31.2546,-29.4893,0.0],[31.2551,-29.4871,2.2724],[31.2576,-29.4865,0.0],[31.2618,-29.4804,18.2591],[31.2649,-29.4788,0.0],[31.2668,-29.474,3.5432],[31.2779,-29.4624,0.0],[31.2771,-29.4593,0.4692],[31.279,-29.4601,0.0],[31.2835,-29.4557,2.3298],[31.2857,-29.4554,0.0],[31.2876,-29.4515,0.0],[31.2871,-29.449,0.0],[31.294,-29.4435,0.0],[31.2926,-29.4415,5.537],[31.2943,-29.4382,4.7302],[31.3015,-29.4326,0.0],[31.3018,-29.4299,2.0819],[31.3057,-29.4276,0.0],[31.3085,-29.4232,0.0],[31.3121,-29.4215,0.0],[31.3149,-29.4135,0.0],[31.3171,-29.4126,0.0],[31.3179,-29.4099,0.0],[31.3251,-29.4032,0.0],[31.3299,-29.4021,0.0],[31.3307,-29.3999,0.0],[31.3357,-29.3968,0.0],[31.3371,-29.3924,0.0],[31.3337,-29.3907,2.4677],[31.3351,-29.3871,1.2122],[31.349,-29.376,0.0],[31.3599,-29.364,2.6822],[31.3729,-29.3549,0.0],[31.374,-29.351,6.5869],[31.3826,-29.3468,0.0],[31.3915,-29.3388,6.458],[31.3996,-29.326,21.6584],[31.406,-29.3218,0.0],[31.4096,-29.3157,10.3044],[31.4201,-29.3088,1.0954],[31.4229,-29.3088,0.0],[31.429,-29.2987,0.0],[31.4365,-29.2935,7.4199],[31.4443,-29.2832,0.0],[31.4407,-29.2763,10.1597],[31.4438,-29.2787,0.0],[31.4535,-29.2671,20.1069],[31.4626,-29.2612,11.1915],[31.469,-29.2543,14.6219],[31.4835,-29.246,0.0],[31.4826,-29.2437,0.0],[31.4882,-29.2376,11.8945],[31.4896,-29.2315,0.0],[31.4988,-29.2257,0.0],[31.5018,-29.2268,0.0],[31.5362,-29.196,5.5185],[31.5651,-29.174,0.9616],[31.5921,-29.1429,4.6371],[31.6004,-29.1357,0.0],[31.6251,-29.1043,0.0],[31.6204,-29.1076,0.0],[31.6146,-29.1151,2.1266],[31.5987,-29.1087,2.0556],[31.6093,-29.1087,0.9287],[31.616,-29.1104,0.0],[31.6204,-29.1029,0.0],[31.6243,-29.1007,2.8562],[31.6354,-29.0876,6.6168],[31.6585,-29.0729,1.2723],[31.6651,-29.0646,4.2368],[31.6735,-29.0579,7.786],[31.6774,-29.0521,3.0281],[31.7043,-29.0293,2.9027],[31.7165,-29.0165,1.6519],[31.734,-28.9937,4.0808],[31.7635,-28.9654,4.0519],[31.7796,-28.9579,11.0556],[31.8132,-28.9457,1.8669],[31.8054,-28.9451,0.0],[31.7949,-28.9493,0.0],[31.7901,-28.9487,7.0561],[31.7938,-28.9487,0.0],[31.8021,-28.9449,0.0],[31.8149,-28.9429,10.8277],[31.824,-28.9443,3.6442],[31.8418,-28.9432,0.0],[31.8793,-28.9282,0.0],[31.9212,-28.9176,3.1223],[31.9365,-28.9101,0.0],[31.9407,-28.9065,0.0],[31.9632,-28.9004,0.0],[31.991,-28.8882,0.0],[32.0004,-28.8857,0.0],[32.0101,-28.8804,0.0],[32.0365,-28.8601,0.0],[32.0399,-28.856,18.1101],[32.0424,-28.8554,0.0],[32.0457,-28.8499,2.7291],[32.0412,-28.8465,13.0199],[32.0415,-28.8449,3.3318],[32.0393,-28.8429,0.0],[32.0282,-28.8476,0.0],[32.0115,-28.8399,1.1678],[32.0071,-28.836,2.2629],[32.0032,-28.8274,0.8404],[32.0029,-28.8249,5.8975],[32.0076,-28.8243,0.0],[32.0074,-28.8199,0.0],[32.0157,-28.8229,5.9373],[32.0201,-28.8265,0.0],[32.0235,-28.8257,6.979],[32.0224,-28.8276,0.0],[32.0238,-28.8299,3.2456],[32.0276,-28.8312,6.1646],[32.0288,-28.8246,2.9988],[32.0254,-28.8176,1.9843],[32.026,-28.8149,5.2484],[32.0304,-28.8237,0.1305],[32.0301,-28.831,2.197],[32.0365,-28.8318,0.8235],[32.0376,-28.8354,0.0],[32.0415,-28.8354,1.136],[32.046,-28.8399,0.0],[32.0479,-28.8385,1.2953],[32.0493,-28.841,0.0],[32.0468,-28.8421,0.3166],[32.0521,-28.8449,1.3409],[32.0643,-28.8318,5.1327],[32.0851,-28.8149,11.3986],[32.094,-28.816,0.0],[32.0982,-28.8149,0.0],[32.0913,-28.8146,0.0],[32.0807,-28.8113,4.1124],[32.0726,-28.8062,0.0],[32.0643,-28.8049,2.1662],[32.0535,-28.8087,0.0],[32.0451,-28.8243,0.9516],[32.0401,-28.8257,0.4506],[32.0432,-28.8282,1.7355],[32.0415,-28.829,1.3475],[32.0363,-28.826,0.0],[32.0379,-28.8176,0.4645],[32.0299,-28.814,0.0],[32.0318,-28.8124,1.1833],[32.0324,-28.8146,4.3485],[32.0351,-28.8154,0.0],[32.034,-28.8115,0.0],[32.0299,-28.8099,2.5716],[32.0254,-28.8032,3.8208],[32.0299,-28.7985,2.0904],[32.036,-28.799,0.0],[32.0376,-28.8021,0.0],[32.0396,-28.8029,0.0],[32.0399,-28.8018,0.0],[32.0351,-28.7979,0.0],[32.0318,-28.7979,4.9968],[32.0324,-28.7965,0.0],[32.0282,-28.7943,0.0],[32.0282,-28.7924,0.0],[32.0313,-28.7921,0.0],[32.0354,-28.7949,0.0],[32.0374,-28.7924,4.4126],[32.0493,-28.7921,4.7691],[32.0504,-28.7951,0.0],[32.0504,-28.7924,0.0],[32.0554,-28.7868,1.6585],[32.0582,-28.7893,1.178],[32.0568,-28.7926,1.4628],[32.0579,-28.7951,0.0],[32.0649,-28.7985,0.0],[32.0679,-28.7982,0.0],[32.069,-28.7949,0.3555],[32.0785,-28.7974,0.0],[32.0812,-28.7946,0.0],[32.0818,-28.7982,4.3115],[32.0771,-28.7993,0.0],[32.0807,-28.8021,1.3042],[32.0835,-28.801,0.879],[32.0824,-28.7935,1.9165],[32.0901,-28.7935,4.2741],[32.0943,-28.7987,4.2066],[32.0915,-28.8029,0.0],[32.0929,-28.8068,0.0],[32.0926,-28.8049,1.0054],[32.0954,-28.8037,0.7862],[32.0962,-28.801,4.4394],[32.1218,-28.7843,1.2323],[32.1496,-28.7557,2.6973],[32.1935,-28.7204,0.0],[32.2149,-28.6957,60.4778],[32.2268,-28.6843,17.3366],[32.2482,-28.6671,5.945],[32.2721,-28.6535,0.0],[32.2974,-28.6349,0.0],[32.3049,-28.6226,48.0928],[32.3132,-28.6132,17.876],[32.3363,-28.5985,0.0],[32.3607,-28.5771,2.4288],[32.3815,-28.5524,11.3264],[32.399,-28.5265,0.6963],[32.4007,-28.5196,8.0781],[32.4132,-28.4912,0.0],[32.4196,-28.4468,0.0],[32.4271,-28.4235,0.0],[32.4263,-28.4085,38.0049],[32.4218,-28.4035,2.0081],[32.4115,-28.4207,5.998],[32.4124,-28.4318,4.7272],[32.411,-28.4321,4.7272],[32.4096,-28.4218,3.5567],[32.4135,-28.4124,2.8529],[32.4185,-28.4082,1.7401],[32.4176,-28.4037,3.4565],[32.4226,-28.3915,0.1692],[32.4232,-28.3818,0.9314],[32.426,-28.3796,1.406],[32.4368,-28.3546,9.5848],[32.4768,-28.2962,2.4522],[32.489,-28.2724,0.0],[32.5121,-28.2343,14.4311],[32.536,-28.1904,15.0963],[32.5543,-28.1493,16.5543],[32.5599,-28.1276,-2.7773],[32.5582,-28.121,25.6657],[32.5582,-28.1032,18.9674],[32.5599,-28.0854,2.8366],[32.5946,-27.9346,0.0],[32.5946,-27.9257,0.0],[32.5926,-27.9232,15.7819],[32.5896,-27.8935,0.829],[32.6018,-27.8154,20.061],[32.6107,-27.774,9.8074],[32.6282,-27.7132,49.7543],[32.6399,-27.6876,-0.5057],[32.6437,-27.6704,7.838],[32.6474,-27.6635,0.0],[32.6474,-27.6557,0.0],[32.6526,-27.6401,4.0708],[32.6593,-27.5979,31.4079],[32.6796,-27.5443,16.2377],[32.6799,-27.5404,1.9932],[32.676,-27.5387,0.6018],[32.6732,-27.5301,24.3089],[32.6763,-27.506,0.0],[32.6824,-27.4871,0.0],[32.6982,-27.454,6.864],[32.7051,-27.4418,0.0],[32.7132,-27.4321,0.0],[32.7201,-27.4076,0.0],[32.731,-27.3868,3.7571],[32.7329,-27.3765,7.9644],[32.7407,-27.3549,1.674],[32.7513,-27.3365,3.7068],[32.7504,-27.3349,17.4677],[32.7521,-27.3335,0.0],[32.7507,-27.3307,6.9777],[32.7524,-27.3226,0.0],[32.7715,-27.2849,0.0],[32.7732,-27.2793,0.0],[32.7724,-27.271,12.5317],[32.7751,-27.2615,0.0],[32.7935,-27.2307,0.0],[32.7949,-27.2154,20.1153],[32.8082,-27.1899,0.0],[32.8057,-27.1782,0.0],[32.8082,-27.1696,0.0],[32.814,-27.1579,0.0],[32.8268,-27.139,4.7179],[32.8315,-27.1354,0.0],[32.831,-27.1335,0.0],[32.8288,-27.1329,3.2817],[32.831,-27.1251,0.0],[32.8424,-27.1087,0.0],[32.8401,-27.0993,15.8862],[32.8479,-27.0826,23.3759],[32.8493,-27.0637,0.0],[32.8596,-27.0413,0.0],[32.8613,-27.0268,0.0],[32.8676,-27.0135,0.0],[32.864,-27.0093,5.2496],[32.864,-27.0046,4.2327],[32.8654,-26.9968,0.0],[32.8718,-26.984,0.0],[32.8754,-26.965699999999998,0.0],[32.8724,-26.956,6.5915],[32.8724,-26.9496,12.3566],[32.8771,-26.9363,0.0],[32.8807,-26.8982,8.0267],[32.8765,-26.9024,4.5283],[32.8729,-26.9021,0.0],[32.871,-26.9051,0.525],[32.861,-26.9035,0.0],[32.8632,-26.9065,0.0],[32.869,-26.9082,0.4739],[32.8593,-26.9129,0.3138],[32.8593,-26.9193,0.9672],[32.854,-26.9251,0.2076],[32.8546,-26.9262,0.2076],[32.8565,-26.9243,0.2286],[32.8615,-26.9243,4.5938],[32.8649,-26.9262,3.1047],[32.8635,-26.9326,2.4185],[32.8599,-26.9343,0.6018],[32.8596,-26.9365,0.2475],[32.8618,-26.9376,2.8593],[32.8626,-26.9421,0.4348],[32.8587,-26.9474,1.0149],[32.854,-26.9507,1.8647],[32.8493,-26.9499,0.7816],[32.8468,-26.9479,0.3435],[32.8465,-26.9443,0.2523],[32.8432,-26.9418,1.0109],[32.8432,-26.9385,0.0],[32.8468,-26.9349,0.1248],[32.8535,-26.9354,0.1237],[32.8565,-26.9335,0.7616],[32.8529,-26.9324,2.0796],[32.8549,-26.9274,2.352],[32.8529,-26.926,8.4063],[32.8526,-26.9215,11.4543],[32.8551,-26.9151,0.6823],[32.8593,-26.9101,0.1644],[32.8576,-26.9018,0.0],[32.8671,-26.8949,0.5876],[32.8765,-26.8987,0.673],[32.8771,-26.894,5.8755],[32.881,-26.8924,8.0302],[32.8846,-26.8751,0.0],[32.8913,-26.8584,16.2778],[32.8622,-26.8665,22.9395],[32.8203,-26.8687,31.4777],[32.7362,-26.8665,61.9913],[32.6829,-26.8681,58.0872],[32.5657,-26.8645,93.0665],[32.3469,-26.864,26.2059],[32.3461,-26.8551,21.2753],[32.3412,-26.8556,24.2508],[32.3387,-26.86,23.3639],[32.3311,-26.8639,24.2992],[32.3254,-26.8562,25.0941],[32.3206,-26.8527,24.3336],[32.3166,-26.8528,25.1013],[32.3082,-26.8565,29.4402],[32.2957,-26.8528,27.777],[32.2879,-26.853,37.4008],[32.2804,-26.8488,30.5545],[32.2753,-26.8496,30.5032],[32.2636,-26.8473,29.1459],[32.2569,-26.8486,30.231],[32.2534,-26.8434,29.6782],[32.2488,-26.8405,31.8598],[32.2369,-26.8389,32.0296],[32.2192,-26.8328,45.8771],[32.2078,-26.8404,36.3349],[32.2045,-26.8548,34.6533],[32.1976,-26.8566,34.0228],[32.1863,-26.863,36.9651],[32.182,-26.8631,40.5841],[32.1547,-26.8559,40.2704],[32.1439,-26.8486,41.786],[32.1405,-26.8408,45.772],[32.1202,-26.8388,48.9582],[32.1084,-26.821,46.4019],[32.1052,-26.8093,55.9361],[32.1001,-26.8051,45.6301],[32.093,-26.8048,49.173],[32.0716,-26.8097,54.3759],[32.0655,-26.8118,52.3142],[32.0602,-26.8172,56.2453],[32.054,-26.8184,58.5032],[32.0454,-26.817,56.1799],[32.0387,-26.8122,58.0969],[32.0352,-26.8073,72.295],[32.03,-26.806,71.2775],[32.0177,-26.8074,64.3272],[32.0113,-26.8102,69.3637],[32.0159,-26.8199,506.6776],[31.996,-26.9242,474.6785],[32.0005,-26.9381,696.5259],[31.9844,-27.0012,414.249],[31.9867,-27.0062,596.3918],[31.9849,-27.0386,158.3499],[31.9796,-27.091,666.5367],[31.9746,-27.1164,731.0035],[31.9767,-27.1219,724.4272],[31.977,-27.1306,735.0695],[31.9741,-27.1484,720.9359],[31.9771,-27.2228,721.8132],[31.9757,-27.3108,700.7053],[31.9778,-27.3175,590.0497],[31.4937,-27.3152,984.7741],[31.2743,-27.2432,909.6456],[31.2048,-27.3171,979.9731],[31.1659,-27.3685,861.8545],[31.1409,-27.3627,1071.3105],[31.101,-27.3358,642.7002],[31.1016,-27.3332,645.1224],[31.0988,-27.3298,646.4281],[31.084,-27.3356,671.3943],[31.0788,-27.3431,675.3405],[31.0652,-27.3383,673.4253],[31.0508,-27.3432,710.0943],[31.0484,-27.3451,683.5205],[31.0462,-27.3519,690.6534],[31.044,-27.3533,710.5215],[31.038,-27.3515,703.01],[31.0348,-27.3458,747.1113],[31.0309,-27.3463,742.0727],[31.0243,-27.3519,756.7456],[31.0205,-27.3606,753.8578],[31.0139,-27.355,783.2142],[31.0106,-27.3491,772.2509],[31.0084,-27.3488,771.8429],[31.0055,-27.3511,776.442],[31.0026,-27.3588,798.007],[30.9847,-27.3575,805.1502],[30.9815,-27.3592,802.7426],[30.9774,-27.358,802.8799],[30.97,-27.3633,807.8326],[30.9631,-27.3658,814.7347],[30.9599,-27.3641,820.6808],[30.9581,-27.3606,841.8725],[30.9554,-27.3597,831.5794],[30.948,-27.3661,848.0316],[30.9427,-27.3682,868.2864],[30.9406,-27.3662,873.2787],[30.9411,-27.3596,889.4366],[30.9382,-27.3568,898.4681],[30.9393,-27.3466,928.6],[30.9315,-27.3405,944.4356],[30.9233,-27.3305,946.3716],[30.9245,-27.3255,947.9985],[30.921,-27.3187,991.3271],[30.9245,-27.3114,966.0917],[30.9228,-27.3051,969.1285],[30.9155,-27.3054,970.8549],[30.9116,-27.3081,977.3893],[30.9097,-27.3054,969.6956],[30.9065,-27.3055,970.7543],[30.9023,-27.3081,979.3146],[30.8867,-27.3108,972.0137],[30.8841,-27.3088,977.3168],[30.8821,-27.3124,972.8119],[30.8752,-27.3143,974.0008],[30.8659,-27.3127,978.3575],[30.8637,-27.3195,976.2524],[30.8648,-27.3318,980.1606],[30.8618,-27.334,976.515],[30.8613,-27.3391,977.2339],[30.8559,-27.337,981.7503],[30.8576,-27.3433,997.642],[30.8543,-27.3444,983.3409],[30.8499,-27.3433,989.189],[30.8449,-27.3461,988.4114],[30.8437,-27.3527,988.3555],[30.8414,-27.3529,991.6047],[30.8378,-27.35,987.956],[30.8302,-27.35,989.82],[30.8225,-27.3542,991.589],[30.8233,-27.3458,990.3113],[30.8286,-27.3447,993.9338],[30.8282,-27.3433,989.9199],[30.8213,-27.3395,997.4047],[30.8205,-27.3361,1000.2722],[30.8161,-27.3401,1005.0428],[30.8083,-27.3389,996.109],[30.8114,-27.3324,1000.634],[30.8048,-27.3345,1002.595],[30.8022,-27.3321,1001.6202],[30.8088,-27.3283,1003.3862],[30.8041,-27.3243,998.9461],[30.7971,-27.3266,1024.637],[30.7969,-27.3224,1013.1401],[30.791,-27.3185,1024.0742],[30.7889,-27.3128,1031.7117],[30.7786,-27.3144,1051.1442],[30.7804,-27.3169,1047.4509],[30.7855,-27.3192,1043.3809],[30.7844,-27.3243,1043.4139],[30.7742,-27.3243,1059.7023],[30.771,-27.3264,1067.5217],[30.769,-27.319,1065.0896],[30.7662,-27.3193,1066.9277],[30.7628,-27.3145,1066.5085],[30.76,-27.3136,1080.0374],[30.7627,-27.3074,1076.78],[30.7583,-27.3044,1090.469],[30.7556,-27.3046,1073.9155],[30.7508,-27.2987,1072.7236],[30.7432,-27.3061,1074.677],[30.7419,-27.3032,1072.6096],[30.7439,-27.3006,1086.4462],[30.7404,-27.2946,1081.6259],[30.7344,-27.2952,1086.16],[30.7283,-27.2993,1086.6107],[30.7251,-27.2956,1089.1377],[30.7261,-27.2936,1084.6559],[30.7249,-27.2896,1086.5524],[30.7207,-27.2909,1086.3411],[30.7179,-27.2872,1089.505],[30.7179,-27.2838,1087.0348],[30.7132,-27.2861,1087.5688],[30.7068,-27.2833,1087.1074],[30.6606,-27.2879,1334.7247],[30.5871,-27.3231,1626.6222],[30.5577,-27.3276,1721.1089],[30.5511,-27.3255,1705.1016],[30.5462,-27.3258,1691.0135],[30.5408,-27.3216,1650.5461],[30.5257,-27.3151,1762.8434],[30.4971,-27.3124,1683.9519],[30.475,-27.3195,1807.9928],[30.4663,-27.3243,1689.1992],[30.4659,-27.3263,1724.588],[30.4621,-27.3252,1847.55],[30.4583,-27.3267,1857.1582],[30.4529,-27.3251,1868.3707],[30.4483,-27.3277,1874.9679],[30.4335,-27.3257,2043.5261],[30.426,-27.315,1819.7876],[30.4265,-27.2698,1842.0903],[30.3976,-27.2738,1717.8546],[30.3676,-27.2674,1548.7776],[30.3684,-27.2873,1649.5253],[30.3667,-27.3117,1659.821],[30.3284,-27.2996,1805.8887],[30.3175,-27.302,1845.7458],[30.3022,-27.3174,1951.0349],[30.2825,-27.3144,2073.7622],[30.2816,-27.3282,2205.0085],[30.2787,-27.3326,2175.6184],[30.2805,-27.3503,2116.0918],[30.2799,-27.3686,2180.1885],[30.2466,-27.3739,2106.054],[30.2347,-27.3807,1985.7244],[30.2286,-27.3654,2050.6616],[30.1981,-27.3552,2053.4563],[30.1901,-27.3689,1997.2207],[30.1782,-27.3783,1950.499],[30.1658,-27.3875,2033.3896],[30.1607,-27.3871,2139.876],[30.1502,-27.3923,2144.6018],[30.1541,-27.397,2059.5056],[30.1527,-27.4043,1950.9441],[30.1434,-27.4134,2001.0817],[30.1116,-27.3865,1734.3389],[30.0868,-27.3685,1965.7921],[30.079,-27.3702,2006.9668],[30.0683,-27.3659,2164.7007],[30.0522,-27.3797,2082.5181],[30.0464,-27.3868,2237.3032],[30.0396,-27.3893,2128.6313],[30.0306,-27.3867,1995.7429],[30.0245,-27.3945,1993.4424],[30.0162,-27.3976,2005.7916],[29.9951,-27.3884,1779.6521],[29.9785,-27.373,1744.7395],[29.9555,-27.3649,1742.3765],[29.9172,-27.3544,1702.4731],[29.9094,-27.3738,1703.2719],[29.8988,-27.3858,1568.2621],[29.8902,-27.3855,1591.8918],[29.8864,-27.3818,1620.1168],[29.8851,-27.3766,1636.2544],[29.8662,-27.3841,1671.7012],[29.8463,-27.3787,1710.9818],[29.8402,-27.379,1732.2274],[29.8349,-27.3903,1937.1532],[29.836,-27.3969,1931.2266],[29.8337,-27.4038,1921.9108],[29.8249,-27.407,1937.9827],[29.8217,-27.4115,1934.2252],[29.8227,-27.4273,1941.5106],[29.8145,-27.4306,1951.3782],[29.8137,-27.4339,1939.3494],[29.8113,-27.4356,1951.2017],[29.8114,-27.4461,2012.9131],[29.8058,-27.4504,1980.0869],[29.7991,-27.4512,2011.0334],[29.7962,-27.4577,2123.592],[29.7909,-27.4592,2115.9631],[29.7734,-27.4538,2133.4548],[29.7594,-27.4444,2234.1001],[29.7587,-27.4426,2234.5369],[29.7352,-27.4508,1935.8824],[29.7169,-27.4649,1761.4138],[29.7084,-27.4618,1769.176],[29.7032,-27.4718,1803.2454],[29.7143,-27.4804,1735.5831],[29.7319,-27.4879,1761.0631],[29.725,-27.4894,1755.3046],[29.7216,-27.4883,1749.7168],[29.7105,-27.4987,1750.0839],[29.7109,-27.5101,1788.1204],[29.7092,-27.5136,1795.2712],[29.7124,-27.5184,1799.2764],[29.7246,-27.5243,1797.0879],[29.736,-27.5196,1788.827],[29.7434,-27.5231,1767.3923],[29.7449,-27.5255,1749.312],[29.7584,-27.5271,1826.584],[29.7585,-27.5295,1818.1093],[29.7655,-27.5367,1776.3193],[29.766,-27.5413,1796.6873],[29.7711,-27.5464,1780.9634],[29.7721,-27.5534,1794.196],[29.7804,-27.5595,1785.6912],[29.7838,-27.5735,1913.8501],[29.7808,-27.5791,1829.5331],[29.7796,-27.5873,1785.8942],[29.7851,-27.5967,1794.1641],[29.7808,-27.5994,1794.7067],[29.774,-27.5951,1798.5278],[29.7707,-27.5956,1786.0729],[29.7589,-27.6015,1762.4343],[29.757,-27.604,1760.5814],[29.7522,-27.6051,1751.6013],[29.7489,-27.6137,1784.2474],[29.7402,-27.6056,1793.4341],[29.7348,-27.6071,1793.2538],[29.7315,-27.613,1794.0913],[29.7312,-27.6177,1785.114],[29.7281,-27.6167,1782.3032],[29.7229,-27.6188,1783.2512],[29.7196,-27.6257,1826.7643],[29.7206,-27.6268,1813.3589],[29.7183,-27.6295,1817.2533],[29.7148,-27.6319,1811.5726],[29.7121,-27.6306,1806.5881],[29.6979,-27.6408,1801.2607],[29.6844,-27.6377,1793.5863],[29.678,-27.6389,1806.0697],[29.6712,-27.6505,1864.1021],[29.6743,-27.66,1893.848],[29.6698,-27.6672,1960.2964],[29.6701,-27.6701,2048.5771],[29.6779,-27.6771,1996.5061],[29.6838,-27.6796,1975.1951],[29.6854,-27.6814,2003.2552],[29.6854,-27.6862,2057.5708],[29.6939,-27.6953,2037.4254],[29.6997,-27.698,2018.6537],[29.709,-27.6985,2041.1757],[29.7086,-27.7165,1975.8969],[29.7123,-27.7209,1973.4812],[29.71,-27.7222,1974.509],[29.7086,-27.7262,1960.8964],[29.7103,-27.7302,1960.1392],[29.7091,-27.7389,2011.1946],[29.7047,-27.7469,2137.5095],[29.7083,-27.7572,2006.7349],[29.703,-27.7614,1967.4312],[29.7035,-27.7667,1964.7792],[29.7108,-27.7717,1969.1902],[29.7078,-27.7752,1968.8547],[29.709,-27.7799,1962.5364],[29.7127,-27.7805,1960.8396],[29.7175,-27.7875,1958.9016],[29.7115,-27.7927,1973.9113],[29.7108,-27.7956,1982.6978],[29.724,-27.7968,1963.8574],[29.7283,-27.801,1979.4069],[29.7313,-27.8081,1930.657],[29.7293,-27.812,1892.1252],[29.7229,-27.8128,1897.3728],[29.7217,-27.8118,1897.3728],[29.716,-27.8147,1911.5416],[29.7134,-27.8181,1882.3865],[29.7095,-27.8157,1895.4788],[29.7038,-27.8189,1851.4441],[29.7022,-27.8222,1871.965],[29.697,-27.8245,1850.2349],[29.6963,-27.8291,1935.1589],[29.6938,-27.8323,1977.3085],[29.6931,-27.8393,2000.8611],[29.6969,-27.8437,1977.4945],[29.7028,-27.8566,1946.9016],[29.699,-27.8598,1973.3784],[29.6871,-27.8585,1924.936],[29.6896,-27.8644,1893.4521],[29.685,-27.8675,1850.3888],[29.6872,-27.878,1917.0144],[29.6859,-27.8831,1958.1313],[29.683,-27.8836,1966.2935],[29.6827,-27.888,1938.6471],[29.6869,-27.8907,1937.4037],[29.6903,-27.8957,1933.1227],[29.682,-27.9068,1959.4634],[29.678,-27.9088,1962.7522],[29.6717,-27.917,1972.0055],[29.6641,-27.9213,1972.1099],[29.6567,-27.9189,2003.9594],[29.6538,-27.9233,2008.5175],[29.6578,-27.9245,2000.7402],[29.6632,-27.93,1980.4248],[29.6576,-27.9374,1990.0684],[29.6646,-27.9418,1981.1649],[29.6732,-27.9432,1983.335],[29.6798,-27.9574,1987.1995],[29.6768,-27.9595,1985.8452],[29.6737,-27.9576,1965.2249],[29.6636,-27.9573,1988.0555],[29.6508,-27.9667,1959.9727],[29.6359,-27.9945,1932.9542],[29.6394,-28.0156,1858.6007],[29.6169,-28.0468,2096.9819],[29.6318,-28.069,1916.6262],[29.6555,-28.09,1851.8206],[29.6526,-28.0988,1853.6477],[29.6606,-28.1261,1876.7861],[29.6541,-28.1383,1904.6117],[29.6633,-28.142,1892.2695],[29.6628,-28.1772,1830.0269],[29.6263,-28.1857,1918.9664],[29.6096,-28.215,1831.6213],[29.6244,-28.225,1860.8154],[29.6198,-28.2412,1784.822],[29.5587,-28.2583,1758.4203],[29.5506,-28.2472,1740.406],[29.5099,-28.2654,1720.2786],[29.4829,-28.2722,1700.1167],[29.4793,-28.2907,1743.3143],[29.4587,-28.3104,1842.1471],[29.4376,-28.3211,1823.1554],[29.4381,-28.3321,1871.9723],[29.4277,-28.3393,1788.8467],[29.4143,-28.3759,1835.8569],[29.3734,-28.3719,1694.4805],[29.3575,-28.388,1712.2362],[29.3388,-28.3988,1997.2815],[29.3201,-28.4068,1808.7238],[29.3226,-28.424,1831.6057],[29.2901,-28.4379,1773.0728],[29.2685,-28.4319,1815.9746],[29.2615,-28.4337,1886.0714],[29.2488,-28.4249,2021.2703],[29.229,-28.4563,1843.5167],[29.1915,-28.4938,1869.4736],[29.2162,-28.5191,1889.4696],[29.1964,-28.545,1787.4575],[29.1787,-28.5427,1793.8099],[29.171,-28.53,1934.2775],[29.1615,-28.5421,1894.0406],[29.135,-28.5663,1738.9611],[29.0963,-28.5451,1866.7767],[28.974,-28.5746,2284.0674],[28.9613,-28.5972,2095.7725],[28.966,-28.6053,1944.0486],[28.9559,-28.6075,2073.8726],[28.9486,-28.6133,1949.1184],[28.9466,-28.6208,2075.3689],[28.9443,-28.6226,2057.0452],[28.9409,-28.6314,1973.1671],[28.9447,-28.6387,1961.86],[28.9428,-28.6509,2070.76],[28.9357,-28.6538,2002.2428],[28.9346,-28.6569,2034.7354],[28.9284,-28.6601,2197.8662],[28.926,-28.6638,2136.1592],[28.922,-28.6637,2150.2205],[28.9053,-28.6853,2131.2073],[28.9034,-28.6872,2137.2773],[28.8991,-28.6873,2177.4517],[28.8962,-28.6947,2216.3862],[28.9,-28.7032,2251.189],[28.8921,-28.7449,2909.0933],[28.8913,-28.7465,3051.0383],[28.883,-28.7487,3002.2686],[28.8735,-28.7722,3245.396],[28.8823,-28.775,3120.376],[28.8883,-28.775,3141.9092],[28.8934,-28.7664,3007.5332],[28.9064,-28.759,2910.7202],[28.9078,-28.7605,2953.4854],[28.9124,-28.7606,2924.8848],[28.9154,-28.7643,2986.957],[28.9154,-28.77,3144.4192],[28.9321,-28.7749,3099.4119],[28.9438,-28.7827,2987.03],[28.9452,-28.7872,3057.7126],[28.9421,-28.7875,3026.4568],[28.939,-28.7854,3038.4209],[28.9359,-28.7918,3162.9873],[28.9322,-28.7919,3185.7573],[28.9478,-28.798,3065.9143],[28.949,-28.8043,3113.3647],[28.9404,-28.8066,3007.0503],[28.9362,-28.8048,3170.7734],[28.9341,-28.8071,3110.9343],[28.9348,-28.8094,3095.0713],[28.9219,-28.8125,3223.5913],[28.9242,-28.8171,3204.6084],[28.931,-28.8203,3191.603],[28.9396,-28.8184,3187.1299],[28.9377,-28.8236,3106.9482],[28.9459,-28.8251,2960.9639],[28.945,-28.8272,3085.5269],[28.9483,-28.8286,3051.438],[28.9457,-28.8339,3068.1506],[28.9478,-28.8409,3053.6274],[28.9446,-28.843,3169.4604],[28.9462,-28.8463,3110.3074],[28.951,-28.8492,2984.5874],[28.953,-28.8534,2994.5979],[28.9521,-28.8551,2874.2603],[28.9465,-28.8539,3028.1985],[28.9434,-28.8549,2979.7273],[28.9442,-28.8571,3012.9377],[28.9391,-28.8605,3036.6689],[28.9485,-28.8689,3089.3003],[28.9535,-28.8678,3018.7139],[28.958,-28.8696,3089.7825],[28.962,-28.8688,3028.9714],[28.9609,-28.8701,3100.021],[28.9629,-28.8712,3065.3215],[28.9572,-28.8768,3083.4585],[28.9643,-28.8821,3204.9526],[28.9627,-28.8845,3192.7842],[28.9639,-28.887,3137.3213],[28.9743,-28.8912,3162.9822],[28.975,-28.9039,3195.1838],[28.9728,-28.9072,3194.9087],[28.9802,-28.9147,3147.2991],[28.9865,-28.9158,3186.0723],[28.9909,-28.9143,3157.5493],[28.9942,-28.9052,3113.6157],[29.0035,-28.9025,2958.7678],[29.0055,-28.8976,2961.4019],[29.0121,-28.8974,2916.8887],[29.0134,-28.8944,2888.9526],[29.01,-28.8904,2963.2],[29.0114,-28.8873,2909.8953],[29.0101,-28.886,2871.4709],[29.0121,-28.8853,2910.6455],[29.011,-28.8844,2784.021],[29.0123,-28.8835,2861.6731],[29.019,-28.8819,2910.4792],[29.0291,-28.888,2980.7434],[29.029,-28.8982,2911.1118],[29.0378,-28.9055,2891.5984],[29.039,-28.9079,2898.6055],[29.0381,-28.9112,3001.6042],[29.0413,-28.9151,3024.4526],[29.0488,-28.9142,3048.2737],[29.0579,-28.9185,2916.9648],[29.0599,-28.9162,2805.6736],[29.0638,-28.9157,3039.8442],[29.0711,-28.9185,2981.293],[29.0778,-28.9181,2934.9661],[29.0724,-28.9227,3020.0317],[29.0772,-28.9285,2912.7153],[29.0735,-28.9351,3161.5759],[29.0739,-28.9377,3150.938],[29.0789,-28.9394,3096.9878],[29.0856,-28.9359,2902.1809],[29.0892,-28.9375,2880.3901],[29.0933,-28.9367,2880.4189],[29.0935,-28.9386,2858.551],[29.0994,-28.9422,2916.1519],[29.1012,-28.9481,2867.5239],[29.1083,-28.9493,2893.1985],[29.1112,-28.9532,2955.2864],[29.1267,-28.9639,2890.5488],[29.1305,-28.969,2745.0347],[29.1263,-28.9682,2977.6465],[29.1233,-28.9704,3003.8057],[29.1245,-28.9803,3161.2197],[29.1336,-28.9851,3055.1284],[29.1376,-28.9837,2965.1655],[29.1378,-28.9814,2973.1814],[29.1408,-28.9817,2913.8313],[29.1434,-28.9847,2984.3091],[29.1517,-28.9878,2756.6104],[29.1492,-28.9897,2974.8193],[29.1528,-28.9902,2988.0918],[29.1546,-28.9975,3156.959],[29.1592,-29.0031,3237.9807],[29.1669,-29.002,3254.7656],[29.1782,-29.0033,2977.1396],[29.1852,-29.013,3047.3557],[29.202,-29.0154,2921.8564],[29.2088,-29.0224,2922.2654],[29.2153,-29.0261,3014.3982],[29.2173,-29.0311,3006.7957],[29.215,-29.0348,3030.5291],[29.2111,-29.0372,3042.9714],[29.2136,-29.0407,3010.0894],[29.2119,-29.0461,2938.0635],[29.2153,-29.0485,2768.1445],[29.2257,-29.0494,2734.4807],[29.2296,-29.0568,2828.1021],[29.2279,-29.0631,2975.4526],[29.2398,-29.073,3194.8374],[29.2413,-29.076,3246.9697],[29.2526,-29.0822,3329.8635],[29.2548,-29.0895,3317.624],[29.2588,-29.0906,3311.2361],[29.2611,-29.0895,3292.7554],[29.2632,-29.0856,3281.76],[29.2795,-29.0756,3285.6748],[29.3078,-29.0766,3295.9966],[29.3125,-29.0793,3299.0664],[29.3146,-29.0856,3259.9038],[29.3255,-29.0972,3306.9873],[29.3261,-29.1013,3234.0928],[29.3295,-29.1016,3179.3408],[29.338,-29.1069,3176.3445],[29.3388,-29.1096,3231.8472],[29.3494,-29.1187,2912.9907],[29.3489,-29.1208,2918.4978],[29.3564,-29.1282,3086.509],[29.3548,-29.1311,3019.646],[29.3571,-29.1352,2995.4055],[29.3536,-29.1376,2987.9395],[29.3513,-29.1423,3032.426],[29.3531,-29.1476,3030.4683],[29.3487,-29.1485,3060.02],[29.344,-29.1531,3070.0339],[29.3487,-29.1627,2997.8262],[29.3467,-29.165,3180.21],[29.3472,-29.1738,3202.9692],[29.344,-29.1777,3262.0903],[29.3446,-29.1875,3330.4536],[29.3548,-29.1949,3395.6489],[29.357,-29.202,3441.2808],[29.3628,-29.2051,3384.8652],[29.3681,-29.2052,3360.3035],[29.3811,-29.2014,3333.9014],[29.4009,-29.2081,3110.0574],[29.4083,-29.2123,3113.4529],[29.4136,-29.2212,3077.561],[29.4089,-29.2219,3161.457],[29.4069,-29.2288,3303.3154],[29.4153,-29.2318,3241.0554],[29.4182,-29.2369,3158.8525],[29.4217,-29.2384,3055.8918],[29.4261,-29.2498,3062.3706],[29.4228,-29.2525,3044.8826],[29.4187,-29.2521,3092.9224],[29.4185,-29.2581,3235.4822],[29.4209,-29.2601,3238.4592],[29.4343,-29.2628,3040.2246],[29.4401,-29.2698,2976.9509],[29.4396,-29.2798,2850.7534],[29.4352,-29.2797,2945.5815],[29.4365,-29.286,3070.585],[29.4397,-29.289,3106.2117],[29.4402,-29.2941,3026.1338],[29.4432,-29.2987,3098.2534],[29.4427,-29.3011,3104.251],[29.4393,-29.3037,3166.7324],[29.4398,-29.3078,3228.2129],[29.4383,-29.3093,3194.3672],[29.4425,-29.3119,3154.627],[29.4416,-29.3145,3108.436],[29.4471,-29.3163,3104.1641],[29.4486,-29.3208,3032.3137],[29.4517,-29.321,2981.3149],[29.4523,-29.3293,3115.8606],[29.4557,-29.3363,3059.9583],[29.4556,-29.3412,3222.6121],[29.4414,-29.346,3284.5867],[29.4433,-29.3514,3209.6357],[29.4416,-29.3578,3126.6138],[29.4446,-29.3649,2937.9651],[29.4489,-29.3684,2895.5527],[29.4483,-29.3713,2891.9175],[29.4461,-29.3725,2897.3572],[29.447,-29.3763,2879.7529],[29.4364,-29.3861,2919.9297],[29.4373,-29.3944,2814.1443],[29.4359,-29.3961,3002.5991],[29.4195,-29.3968,3197.0999],[29.4185,-29.4063,3209.1987],[29.4226,-29.4141,3289.2324],[29.42,-29.4166,3234.2566],[29.4105,-29.4171,3230.4956],[29.4066,-29.4207,3244.4658],[29.4023,-29.4297,2946.2417],[29.4019,-29.4339,2881.5449],[29.3996,-29.4358,2846.9756],[29.4034,-29.4445,2900.2693],[29.4,-29.4451,2855.2097],[29.4004,-29.447,2835.2109],[29.3974,-29.4471,2856.6196],[29.3936,-29.4513,2848.1682],[29.3885,-29.4518,2888.6135],[29.3876,-29.4557,2981.0127],[29.3771,-29.4548,3026.3699],[29.3731,-29.4632,2814.9932],[29.3679,-29.4639,2829.2756],[29.3644,-29.4666,2926.3677],[29.3631,-29.4702,2968.5771],[29.3459,-29.4652,3116.2126],[29.3404,-29.4684,2849.8157],[29.3394,-29.4722,2853.6108],[29.3278,-29.4707,2863.0161],[29.3258,-29.4742,2906.7954],[29.3211,-29.4757,2882.7686],[29.3197,-29.4779,2871.5625],[29.3238,-29.4869,2985.1548],[29.316,-29.4881,2903.6233],[29.3099,-29.4862,2997.79],[29.3071,-29.4829,3140.2595],[29.3005,-29.4863,3251.3123],[29.2966,-29.4865,3300.7886],[29.2933,-29.49,3232.8042],[29.2948,-29.4937,3249.6147],[29.3041,-29.5034,3283.7422],[29.305,-29.5098,3250.4419],[29.3069,-29.5103,3184.8193],[29.3051,-29.517,3317.2175],[29.2997,-29.5192,3296.4675],[29.2932,-29.5172,3356.8174],[29.2972,-29.5223,3219.1011],[29.3031,-29.5262,3177.8696],[29.3071,-29.5337,3078.5261],[29.313,-29.5369,3048.7502],[29.3127,-29.5458,3076.5771],[29.3069,-29.5494,3149.2544],[29.3056,-29.5543,3249.1262],[29.3148,-29.5585,3086.8762],[29.3165,-29.5625,3060.8628],[29.3205,-29.5631,3068.1355],[29.3212,-29.5661,3024.2576],[29.3241,-29.567,3027.6929],[29.3251,-29.5698,3030.988],[29.3197,-29.5814,2896.7844],[29.3162,-29.5832,2769.0007],[29.3097,-29.5846,2778.4199],[29.3049,-29.5832,2901.6445],[29.2975,-29.5854,2878.7798],[29.2852,-29.5845,2872.051],[29.2856,-29.59,2920.4248],[29.2925,-29.6008,3042.6992],[29.2931,-29.6088,3045.752],[29.2911,-29.6132,3178.1653],[29.2924,-29.6163,3177.8032],[29.2827,-29.6214,3157.6514],[29.2871,-29.6277,3083.3376],[29.2823,-29.6427,2887.0125],[29.2773,-29.6448,2821.8931],[29.269,-29.6429,2884.1821],[29.2647,-29.639,2856.7939],[29.2552,-29.6421,2823.7437],[29.2402,-29.6425,2859.9526],[29.235,-29.6397,2832.616],[29.2303,-29.6429,2819.1836],[29.2296,-29.6465,2783.7561],[29.227,-29.6451,2845.1677],[29.2219,-29.648,2942.0417],[29.218,-29.6474,2942.8723],[29.2144,-29.655,2819.1543],[29.2114,-29.6551,2820.886],[29.2086,-29.6598,2822.4417],[29.2001,-29.6599,2900.7434],[29.1911,-29.6707,3042.3357],[29.1879,-29.6715,3042.8384],[29.1828,-29.6681,3052.5957],[29.1785,-29.6759,2903.981],[29.1718,-29.6789,2857.8806],[29.1629,-29.6769,2895.8896],[29.1597,-29.6826,2928.0801],[29.1636,-29.6887,2982.8787],[29.1616,-29.6911,3021.752],[29.1627,-29.6924,3083.1094],[29.1622,-29.6973,3058.1238],[29.1591,-29.7017,2996.2275],[29.1607,-29.7068,2972.1965],[29.1507,-29.7085,3027.7192],[29.1495,-29.7122,3100.9846],[29.1465,-29.7135,3166.7339],[29.1452,-29.7164,3237.5115],[29.1516,-29.7336,3063.7803],[29.1488,-29.7349,3083.5205],[29.1499,-29.7369,3093.624],[29.1465,-29.7385,3150.7029],[29.146,-29.741,3196.8105],[29.136,-29.7391,3253.0901],[29.1358,-29.7439,3113.5247],[29.1379,-29.7485,3054.3145],[29.1407,-29.7503,3044.8462],[29.14,-29.7591,2983.7378],[29.1338,-29.7612,3043.9431],[29.1348,-29.7651,3009.3022],[29.1285,-29.7643,3072.9309],[29.1236,-29.7674,3263.2537],[29.1311,-29.7732,3110.9749],[29.1294,-29.7766,3111.3467],[29.1294,-29.7893,2953.0205],[29.1249,-29.7952,2872.5713],[29.1237,-29.8073,2658.3372],[29.1272,-29.8123,2533.4629],[29.1325,-29.8148,2521.7695],[29.1294,-29.8189,2559.3066],[29.1316,-29.8259,2622.958],[29.1288,-29.8316,2549.0891],[29.1183,-29.8334,2758.28],[29.1137,-29.8414,2839.9954],[29.1101,-29.8441,2983.5808],[29.103,-29.8451,2949.9487],[29.1012,-29.8469,2947.9014],[29.1026,-29.8501,2906.0779],[29.1083,-29.8514,2622.6064],[29.1119,-29.8542,2567.8286],[29.1159,-29.8535,2502.4326],[29.1318,-29.8599,2472.6226],[29.1388,-29.861,2369.7595],[29.1393,-29.8643,2411.7947],[29.1454,-29.8682,2407.6462],[29.1412,-29.875,2472.0422],[29.1414,-29.8771,2485.6377],[29.1459,-29.8789,2431.5796],[29.1489,-29.8839,2391.2317],[29.1543,-29.885,2364.4619],[29.1605,-29.8828,2361.105],[29.1629,-29.8838,2364.0674],[29.1621,-29.8878,2362.2471],[29.1636,-29.8928,2375.2026],[29.1609,-29.8955,2374.6978],[29.1616,-29.9031,2449.4563],[29.1582,-29.906,2470.9895],[29.1684,-29.912,2509.9512],[29.1696,-29.9161,2475.9753],[29.1621,-29.9214,2429.5791],[29.158,-29.9219,2427.6094],[29.1554,-29.9258,2448.4302],[29.1486,-29.925,2423.8442],[29.1376,-29.9293,2490.7068],[29.1256,-29.9302,2415.1577],[29.1222,-29.933,2422.6665],[29.1186,-29.9331,2392.572],[29.115,-29.9369,2383.1484],[29.1114,-29.9357,2438.1006],[29.109,-29.937,2422.4192],[29.1091,-29.9423,2395.0811],[29.1064,-29.9443,2429.0315],[29.1045,-29.9548,2482.6328],[29.1025,-29.9571,2486.1445],[29.1041,-29.9591,2494.9814],[29.1037,-29.967,2507.1594],[29.0838,-29.9531,2552.3899],[29.0671,-29.9724,2531.1113],[29.0509,-29.9822,2477.4675],[29.0446,-29.9821,2460.7544],[29.0418,-29.985,2478.0657],[29.0387,-29.9841,2457.564],[29.034,-29.986,2430.3721],[29.0322,-29.9876,2420.0059],[29.0334,-29.9923,2377.1372],[29.03,-29.9972,2376.5532],[29.0243,-29.9992,2396.9026],[29.0202,-29.9967,2381.9167],[29.0147,-30.0018,2444.009],[29.045,-30.013,2351.8459],[29.0678,-30.044,2273.6904],[29.0901,-30.0567,2153.7537],[29.1073,-30.0785,2005.7651],[29.1119,-30.0972,1628.3739],[29.1137,-30.0963,1588.4943],[29.1172,-30.1002,1587.5657],[29.1212,-30.0988,1581.7664],[29.1187,-30.1029,1583.5952],[29.1196,-30.1054,1582.6489],[29.1174,-30.1054,1586.3416],[29.1145,-30.1023,1596.5507],[29.1123,-30.1056,1585.6138],[29.1152,-30.1078,1586.6068],[29.1148,-30.1106,1577.332],[29.1186,-30.1094,1596.5684],[29.12,-30.1106,1568.9655],[29.1153,-30.1144,1578.7788],[29.1194,-30.1222,1547.4102],[29.1158,-30.1248,1553.156],[29.1177,-30.1259,1543.4724],[29.1154,-30.1328,1549.9668],[29.1163,-30.1364,1535.813],[29.1188,-30.1385,1537.1504],[29.1163,-30.1421,1532.7415],[29.1215,-30.1435,1530.0737],[29.1206,-30.1512,1509.8577],[29.118,-30.1528,1509.0598],[29.1139,-30.1518,1510.5063],[29.1104,-30.1538,1506.454],[29.1134,-30.1576,1503.4462],[29.1204,-30.1604,1503.3271],[29.1171,-30.1633,1507.1558],[29.1139,-30.1621,1505.3044],[29.1131,-30.1682,1515.6385],[29.1103,-30.1683,1497.6345],[29.1067,-30.1721,1490.7451],[29.1068,-30.1762,1489.6211],[29.1041,-30.1753,1490.6927],[29.1026,-30.1771,1490.1259],[29.1038,-30.1807,1490.7211],[29.1099,-30.1838,1492.2903],[29.1132,-30.1904,1490.6257],[29.1174,-30.1898,1484.6753],[29.1221,-30.192,1485.0286],[29.1208,-30.1943,1482.5281],[29.1141,-30.1939,1487.5012],[29.1108,-30.1969,1483.1665],[29.1124,-30.2096,1494.0125],[29.1197,-30.2059,1485.2803],[29.1216,-30.2073,1477.6594],[29.1215,-30.2099,1497.2407],[29.1271,-30.2112,1494.3726],[29.1323,-30.2149,1473.5073],[29.1318,-30.2166,1489.6212],[29.1241,-30.2179,1495.2593],[29.1224,-30.222,1472.3344],[29.1282,-30.2242,1466.2351],[29.1302,-30.2266,1472.7852],[29.1297,-30.2337,1464.6937],[29.126,-30.2387,1458.6477],[29.1292,-30.2396,1456.7284],[29.1289,-30.2478,1451.7045],[29.133,-30.2497,1460.4423],[29.1319,-30.2516,1451.248],[29.1355,-30.2562,1450.2296],[29.136,-30.2612,1449.5963],[29.1373,-30.2624,1449.5983],[29.1411,-30.2617,1459.1625],[29.1518,-30.2567,1455.3699],[29.1538,-30.262,1446.8563],[29.1518,-30.2647,1445.6989],[29.1565,-30.2648,1446.0701],[29.1556,-30.2619,1446.522],[29.1627,-30.2636,1444.9409],[29.1621,-30.2663,1444.0344],[29.156,-30.2685,1444.5989],[29.161,-30.2707,1443.9863],[29.1593,-30.2743,1443.406],[29.1618,-30.2723,1443.4867],[29.1632,-30.2738,1442.5629],[29.1612,-30.2759,1442.5809],[29.1579,-30.2744,1443.4015],[29.1568,-30.2756,1442.1572],[29.1579,-30.277,1443.347],[29.1558,-30.2775,1442.6825],[29.1674,-30.2816,1452.2291],[29.1742,-30.2808,1445.7787],[29.1757,-30.2828,1449.6528],[29.1726,-30.2834,1450.4233],[29.1881,-30.2887,1463.2203],[29.2275,-30.2974,1469.1974],[29.2334,-30.3063,1492.5768],[29.2547,-30.3048,1535.5654],[29.2315,-30.2691,1449.6864],[29.2368,-30.2669,1449.7925],[29.2622,-30.2784,1483.1565],[29.3019,-30.3201,1973.8564],[29.2987,-30.3343,1951.1742],[29.2919,-30.3456,2090.5117],[29.2988,-30.3532,2153.2332],[29.305,-30.3799,2182.478],[29.2771,-30.3762,1932.3643],[29.2824,-30.3957,2140.5684],[29.2382,-30.4049,1762.0242],[29.2276,-30.4103,1858.7583],[29.2273,-30.4263,1885.9938],[29.2185,-30.4212,1758.9662],[29.1968,-30.4344,1633.3152],[29.1984,-30.4623,1667.6935],[29.1878,-30.4842,1631.4711],[29.1773,-30.5157,1503.1471],[29.1504,-30.5104,1516.375],[29.1402,-30.5338,1369.1597],[29.1448,-30.531,1389.9825],[29.1466,-30.5316,1365.4373],[29.1455,-30.5327,1365.4373],[29.1476,-30.5412,1363.0115],[29.1531,-30.547,1369.2104],[29.1518,-30.5486,1361.8313],[29.1528,-30.5546,1380.2563],[29.1556,-30.5554,1367.2391],[29.1577,-30.5538,1384.9908],[29.1614,-30.547,1361.7117],[29.1579,-30.5476,1359.2698],[29.1578,-30.5451,1358.5614],[29.1599,-30.5447,1359.4393],[29.1611,-30.5418,1358.5083],[29.1653,-30.5436,1358.6299],[29.1663,-30.5414,1357.3541],[29.1631,-30.5396,1358.6716],[29.1651,-30.538,1357.2616],[29.1737,-30.5521,1370.4161],[29.163,-30.5582,1356.954],[29.162,-30.5601,1357.4402],[29.1515,-30.5604,1382.545],[29.1153,-30.5796,1636.6368],[29.1238,-30.5871,1722.8872],[29.146,-30.5952,1657.0587],[29.1353,-30.6051,1810.5496],[29.1681,-30.6131,1283.4346],[29.168,-30.6176,1283.6912],[29.173,-30.6243,1274.569],[29.1807,-30.6189,1267.8625],[29.1854,-30.6186,1264.1868],[29.1854,-30.6213,1278.9644],[29.1808,-30.6236,1265.2052],[29.1778,-30.6287,1258.4963],[29.1825,-30.6412,1250.528],[29.1856,-30.6404,1246.3857],[29.1919,-30.6348,1241.3179],[29.1979,-30.6344,1240.2324],[29.1987,-30.632,1234.5431],[29.1955,-30.6283,1229.0785],[29.1952,-30.6245,1237.1898],[29.2046,-30.6202,1217.1775],[29.2111,-30.6215,1252.021],[29.218,-30.6185,1209.8645],[29.2202,-30.6208,1207.1187],[29.2284,-30.6197,1430.7747],[29.2613,-30.6212,1586.881],[29.2773,-30.6373,1588.269],[29.3035,-30.6394,1838.5016],[29.3198,-30.645,1656.2654],[29.3225,-30.6445,1558.4526],[29.3456,-30.6717,1666.5428],[29.3728,-30.649,1326.8586],[29.3855,-30.6501,1371.6166],[29.4013,-30.6394,1503.8805],[29.443,-30.639,1861.2871],[29.4686,-30.6242,1655.5488],[29.5124,-30.6182,1670.9657],[29.5243,-30.6412,1682.5266],[29.5722,-30.6551,2087.1128],[29.5713,-30.6577,2109.5569],[29.5803,-30.654,1620.572],[29.5876,-30.659,1488.2903],[29.5942,-30.6674,1319.3872],[29.5958,-30.6859,1121.7174],[29.5995,-30.6895,1087.1892],[29.6143,-30.6867,1022.8585],[29.617,-30.6889,1010.4944],[29.6202,-30.6885,1002.7912],[29.6349,-30.684,1001.5188],[29.6365,-30.6859,979.8842],[29.6371,-30.6838,979.6123],[29.6487,-30.6838,937.67],[29.6515,-30.6858,920.7637],[29.6572,-30.6806,945.7415],[29.6671,-30.6763,921.7865],[29.6719,-30.6714,896.678],[29.6714,-30.67,884.2315],[29.6737,-30.6692,896.9237],[29.6766,-30.6715,882.4323],[29.6763,-30.6737,868.9133],[29.6868,-30.6795,842.6391],[29.6865,-30.6819,857.4432],[29.6831,-30.6835,836.9796],[29.6835,-30.6854,843.8051],[29.6874,-30.6883,859.8699],[29.6917,-30.6862,840.1818],[29.6936,-30.6875,851.6232],[29.6943,-30.6958,800.1991],[29.6965,-30.6967,797.2305],[29.7008,-30.7053,787.5081],[29.7048,-30.703,784.0203],[29.7079,-30.7048,781.998],[29.7153,-30.7043,788.6776],[29.7208,-30.7084,782.8552],[29.7336,-30.7074,786.6799],[29.735,-30.7091,758.1056],[29.7296,-30.7159,750.7941],[29.7344,-30.7196,794.7413],[29.7389,-30.7176,755.5935],[29.7407,-30.7187,746.1918],[29.741,-30.72,741.9097],[29.7389,-30.7215,744.0225],[29.7407,-30.7234,759.5794],[29.7497,-30.7195,735.3202],[29.7507,-30.7164,726.9865],[29.7494,-30.7126,743.4031],[29.7525,-30.707,719.3224],[29.7553,-30.7106,725.8109],[29.7566,-30.7178,702.6763],[29.7591,-30.7192,706.45],[29.7707,-30.7185,746.0157],[29.7716,-30.7162,692.2914],[29.7685,-30.7128,689.6836],[29.7719,-30.7121,695.9227],[29.7722,-30.7054,695.7764],[29.7861,-30.7101,705.5025],[29.779,-30.7012,676.6105],[29.7777,-30.6974,690.6755],[29.7806,-30.6954,680.1213],[29.7856,-30.6962,680.4866],[29.7857,-30.6988,675.8953],[29.7963,-30.7044,662.8273],[29.8003,-30.7089,654.1971],[29.8058,-30.7035,652.6276],[29.8048,-30.7003,680.2412],[29.809,-30.6985,656.938],[29.813,-30.6994,664.8002],[29.8154,-30.7016,658.895],[29.8146,-30.7067,702.0699],[29.8066,-30.7144,642.3207],[29.804,-30.7151,652.9857],[29.8044,-30.7232,642.8097],[29.808,-30.7296,633.4412],[29.8142,-30.7315,689.7443],[29.8187,-30.7236,633.8336],[29.8251,-30.7206,649.4024],[29.8275,-30.7231,631.3827],[29.8242,-30.7283,628.3715],[29.8246,-30.7346,633.9705],[29.831,-30.7349,619.785],[29.8337,-30.7381,613.7903],[29.8296,-30.7408,608.5992],[29.8298,-30.7439,604.1234],[29.8334,-30.7426,601.9329],[29.8421,-30.7439,596.5561],[29.8448,-30.7368,582.3148],[29.8477,-30.7365,584.9762],[29.8518,-30.7488,565.5241],[29.8515,-30.7524,584.2406],[29.8477,-30.7583,604.2822],[29.8519,-30.7617,589.213],[29.8594,-30.7565,545.5387],[29.8638,-30.7575,546.3262],[29.8712,-30.7548,538.9974],[29.8734,-30.7587,527.8962],[29.8766,-30.7582,525.0531],[29.882,-30.7621,521.4374],[29.8863,-30.7591,532.2895],[29.8926,-30.7589,517.7227],[29.8965,-30.766,519.5513],[29.8961,-30.769,531.0377],[29.8884,-30.7704,498.5456],[29.886,-30.7726,493.4638],[29.8867,-30.7847,499.9804],[29.8969,-30.7743,485.2969],[29.9041,-30.7754,467.194],[29.9118,-30.7699,456.1517],[29.9147,-30.771,508.7915],[29.916,-30.7745,447.9673],[29.9098,-30.7807,500.054],[29.9097,-30.7846,445.3856],[29.9063,-30.792,442.3627],[29.908,-30.7982,482.2212],[29.9219,-30.7896,424.3316],[29.9252,-30.7936,430.3604],[29.9275,-30.794,422.3588],[29.9293,-30.792,494.926],[29.9295,-30.7807,443.4401],[29.9266,-30.775,424.2531],[29.9216,-30.7708,407.6556],[29.9224,-30.7687,426.1576],[29.9342,-30.7684,406.0622],[29.9492,-30.7708,421.9175],[29.9513,-30.7744,392.4521],[29.9502,-30.7811,393.66],[29.955,-30.7869,401.4573],[29.9552,-30.7897,388.5841],[29.9406,-30.7921,401.1044],[29.9332,-30.8008,385.7319],[29.9323,-30.8072,386.2078],[29.9376,-30.8094,405.9092],[29.945,-30.8099,385.4972],[29.9658,-30.8082,380.2965],[29.9685,-30.8064,361.5237],[29.9685,-30.8037,361.9737],[29.9724,-30.8023,373.3564],[29.974,-30.8066,374.8333],[29.9673,-30.8108,382.5127],[29.9665,-30.8171,351.5258],[29.9704,-30.819,353.0681],[29.9678,-30.8251,372.568],[29.9639,-30.8248,366.327],[29.9592,-30.8215,344.0163],[29.9582,-30.823,343.3485],[29.9596,-30.8274,366.7003],[29.9648,-30.8323,339.6433],[29.9705,-30.8344,353.1341],[29.9748,-30.8381,351.3763],[29.9799,-30.8374,338.4258],[29.9833,-30.835,338.2158],[29.9898,-30.838,384.9409],[29.9937,-30.836,353.767],[30.0003,-30.8375,348.1429],[30.0015,-30.8279,336.359],[30.0037,-30.8261,344.5233],[30.0077,-30.8258,349.7592],[30.0112,-30.8284,351.4843],[30.0119,-30.8321,333.2878],[30.007,-30.8422,336.2603],[30.0098,-30.8433,359.3953],[30.0162,-30.8396,314.9733],[30.0218,-30.8392,310.409],[30.0224,-30.8475,303.477],[30.0194,-30.853,302.7396],[30.0221,-30.8568,324.0093],[30.025,-30.8566,301.0813],[30.0255,-30.8488,348.7787],[30.0364,-30.8466,313.6195],[30.039,-30.8446,298.2417],[30.046,-30.848,320.6824],[30.0532,-30.8468,283.4535],[30.0579,-30.8485,282.3198],[30.0622,-30.8481,280.6863],[30.0668,-30.8517,283.6823],[30.0702,-30.8516,281.8382],[30.0742,-30.8564,276.3211],[30.0732,-30.8658,273.9957],[30.0818,-30.8659,274.1422],[30.0828,-30.8637,283.8459],[30.0948,-30.8623,279.6625],[30.0951,-30.8649,272.47],[30.0926,-30.8687,287.9868],[30.0932,-30.878,298.9961],[30.0882,-30.8745,288.3678],[30.0739,-30.8708,271.6329],[30.0704,-30.8713,260.6935],[30.0703,-30.8747,263.0811],[30.0745,-30.8784,255.1252],[30.0757,-30.8822,258.6393],[30.081,-30.885,269.2821],[30.0914,-30.883,256.2934],[30.0984,-30.8848,272.8595],[30.1092,-30.8845,279.6425],[30.115,-30.8877,244.3681],[30.1195,-30.888,263.7611],[30.1211,-30.891,240.9261],[30.1136,-30.9005,239.1411],[30.1269,-30.9058,265.742],[30.1201,-30.9101,283.9487],[30.1323,-30.9091,242.317],[30.1362,-30.9115,242.1663],[30.1395,-30.9181,225.6682],[30.1464,-30.9224,206.3],[30.1428,-30.927,230.1705],[30.1464,-30.9311,204.7761],[30.1465,-30.9339,216.8449],[30.1447,-30.9374,202.2515],[30.1413,-30.9375,219.8121],[30.1378,-30.9406,223.0762],[30.1411,-30.951,222.9137],[30.1392,-30.9544,196.6184],[30.1347,-30.9562,178.3704],[30.1345,-30.9638,197.8833],[30.1411,-30.9664,169.0566],[30.1477,-30.9713,178.4969],[30.1551,-30.9729,172.4473],[30.1564,-30.9759,178.4279],[30.1521,-30.9853,145.6934],[30.1413,-30.9873,131.2943],[30.1409,-30.9967,126.1665],[30.1452,-30.9984,134.4149],[30.1469,-31.0026,130.0358],[30.1446,-31.0054,107.8589],[30.1362,-31.0074,141.8786],[30.1354,-31.009,115.3645],[30.14,-31.0141,150.8615],[30.1396,-31.021,115.6781],[30.1408,-31.0229,97.203],[30.1431,-31.0226,80.2499],[30.1493,-31.0156,110.6127],[30.1556,-31.0224,60.6789],[30.1632,-31.0251,65.281],[30.17,-31.0254,61.6687],[30.1675,-31.0389,26.6831],[30.1632,-31.0456,39.8607],[30.1634,-31.0499,72.6901],[30.1725,-31.0627,5.1287],[30.1779,-31.0664,5.5232],[30.188,-31.0688,1.5993],[30.1954,-31.0796,0.0],[30.2112,-31.0737,0.0],[30.2282,-31.0582,0.0],[30.231,-31.0479,0.0],[30.2279,-31.0432,0.0],[30.2362,-31.0365,0.0],[30.2349,-31.0343,9.8766],[30.2368,-31.0321,2.5555],[30.2407,-31.0296,1.9181],[30.2426,-31.031,0.4695],[30.2443,-31.0299,0.0],[30.246,-31.0218,0.0],[30.2551,-31.0187,0.0],[30.2554,-31.016,6.3],[30.2585,-31.014,0.1266],[30.2574,-31.0104,3.1693],[30.2674,-31.0026,1.5895],[30.269,-30.9963,0.0],[30.278199999999998,-30.9888,0.0],[30.2776,-30.9835,5.3513],[30.2826,-30.976,6.7971],[30.2818,-30.971,0.6823],[30.279,-30.969,6.9263],[30.284,-30.9713,0.0]]],
[[[31.6354,-29.0921,0.0],[31.6429,-29.084,0.0],[31.636,-29.0888,0.0],[31.6238,-29.1021,0.0],[31.6257,-29.1024,0.0],[31.6282,-29.0979,0.0],[31.6329,-29.0954,0.0],[31.6354,-29.0921,0.0]]],
[[[32.0396,-28.8396,0.0],[32.0399,-28.8382,0.0],[32.0385,-28.8379,0.0],[32.0385,-28.8399,0.0],[32.0404,-28.8401,0.0],[32.0396,-28.8396,0.0]]],
[[[32.0846,-28.7954,0.0],[32.0851,-28.7957,0.0],[32.0868,-28.7949,0.4594],[32.084,-28.7943,0.942],[32.0846,-28.7954,0.0]]],
[[[32.8585,-26.9176,0.0],[32.8587,-26.9157,0.166],[32.8571,-26.9154,0.166],[32.8582,-26.9171,0.0],[32.8557,-26.919,0.0],[32.8576,-26.9188,0.0],[32.8585,-26.9176,0.0]]],
[[[32.8624,-26.909,0.1996],[32.8621,-26.9079,0.0],[32.8601,-26.9071,0.1936],[32.861,-26.9104,0.1644],[32.8624,-26.909,0.1996]]]]}
,"properties": {"GID_1": "ZAF.4_1","GID_0": "ZAF","country": "SouthAfrica","province": "KwaZulu-Natal","VARNAME_1": "NatalandZululand","NL_NAME_1": "NA","TYPE_1": "Provinsie","ENGTYPE_1": "Province","CC_1": "KZN","HASC_1": "ZA.NL","ISO_1": "NA","name": "Kwa_Zulu-Natal.province","area_km2": 93413.58,"hist_schema_id": "Elevation0-9000","hist_area_km2": {"0": 1435.7,"25": 2404.95,"50": 3371.23,"75": 4049.32,"100": 2003.55,"125": 1508.1,"150": 1281.32,"175": 1149.22,"200": 1067.41,"225": 1007.67,"250": 990.14,"275": 992.3,"300": 966.32,"325": 935.49,"350": 929.11,"375": 935.71,"400": 947.79,"425": 961.45,"450": 947.18,"475": 957.12,"500": 984.74,"525": 992.7,"550": 968.19,"575": 951.85,"600": 968.88,"625": 993.08,"650": 1020.66,"675": 994.84,"700": 978.0,"725": 980.34,"750": 1007.24,"775": 993.72,"800": 988.46,"825": 988.19,"850": 1038.45,"875": 1077.15,"900": 1096.16,"925": 1125.79,"950": 1181.48,"975": 1323.49,"1000": 1472.71,"1025": 1538.22,"1050": 1683.15,"1075": 1762.27,"1100": 1830.98,"1125": 1900.56,"1150": 1942.07,"1175": 2252.07,"1200": 2428.71,"1225": 2246.28,"1250": 1993.31,"1275": 1726.65,"1300": 1562.78,"1325": 1413.53,"1350": 1310.66,"1375": 1177.54,"1400": 1068.09,"1425": 997.04,"1450": 991.11,"1475": 959.83,"1500": 961.32,"1525": 955.56,"1550": 872.41,"1575": 795.49,"1600": 719.33,"1625": 674.16,"1650": 627.06,"1675": 603.93,"1700": 508.8,"1725": 470.19,"1750": 422.97,"1775": 393.31,"1800": 348.15,"1825": 322.32,"1850": 284.2,"1875": 251.38,"1900": 244.83,"1925": 222.31,"1950": 220.39,"1975": 192.4,"2000": 155.23,"2025": 130.24,"2050": 118.28,"2075": 108.88,"2100": 102.06,"2125": 91.51,"2150": 80.27,"2175": 70.68,"2200": 59.54,"2225": 56.51,"2250": 48.27,"2275": 42.47,"2300": 40.25,"2325": 39.33,"2350": 38.31,"2375": 32.33,"2400": 26.86,"2425": 25.35,"2450": 23.78,"2475": 20.6,"2500": 16.86,"2525": 14.58,"2550": 12.74,"2575": 10.8,"2600": 11.1,"2625": 10.69,"2650": 9.93,"2675": 9.86,"2700": 9.36,"2725": 8.21,"2750": 8.38,"2775": 8.58,"2800": 7.01,"2825": 7.86,"2850": 7.97,"2875": 7.16,"2900": 7.84,"2925": 8.06,"2950": 7.23,"2975": 7.25,"3000": 7.37,"3025": 7.31,"3050": 6.89,"3075": 6.11,"3100": 6.24,"3125": 5.78,"3150": 6.35,"3175": 5.5,"3200": 4.48,"3225": 3.61,"3250": 2.76,"3275": 2.3,"3300": 1.74,"3325": 1.15}}}