{"type":"Feature","properties":{"ISO3166-1-Alpha-3":"ZAF","country":"South Africa","fill":"#000","id":"1216","name":"KwaZulu-Natal"},
"geometry":{"type": "Polygon","coordinates": [[[32.11388,-26.84001,60.1909],[32.09776,-26.8335,431.849],[32.07316,-26.81139,113.5886],[32.05714,-26.8086,376.242],[31.99007,-26.80829,90.2752],[31.99224,-26.838259999999998,131.1942],[31.97529,-26.92662,209.0519],[31.95968,-27.00879,177.2368],[31.94211,-27.10067,211.4087],[31.9442,-27.16234,204.6814],[31.94485,-27.18139,189.198],[31.94738,-27.25549,142.4832],[31.95296,-27.27017,152.7578],[31.95979,-27.28102,189.2067],[31.96485,-27.29167,253.1625],[31.96774,-27.30304,279.0988],[31.96826,-27.31626,278.7491],[31.8786,-27.31523,175.0018],[31.78254,-27.31399,255.4813],[31.63691,-27.31223,308.5219],[31.52653,-27.31089,524.2904],[31.45945,-27.29869,774.9634],[31.35667,-27.26707,775.8273],[31.28014,-27.2435,917.3043],[31.24471,-27.23259,926.4625],[31.18764,-27.29735,957.8128],[31.15105,-27.32402,954.1232],[31.10542,-27.32396,667.8953],[31.07622,-27.33125,779.1581],[31.06087,-27.33533,831.634],[30.98005,-27.35466,915.8213],[30.95365,-27.3511,985.6634],[30.92853,-27.33451,947.8982],[30.91716,-27.31885,984.662],[30.90161,-27.3112,983.3951],[30.86373,-27.31906,976.2524],[30.85148,-27.32552,1004.7034],[30.84285,-27.33187,1053.0779],[30.83329,-27.33425,1081.2725],[30.81867,-27.32851,1059.0791],[30.79505,-27.31471,1073.6382],[30.75852,-27.29859,1094.2407],[30.75138,-27.29678,1091.0437],[30.73779,-27.28898,1126.4366],[30.72663,-27.28448,1116.0986],[30.69092,-27.27461,1089.5839],[30.67945,-27.27461,1098.3551],[30.66193,-27.27668,1167.4038],[30.6332,-27.28454,1211.3245],[30.62018,-27.28976,1164.0616],[30.61165,-27.2943,1204.8965],[30.59692,-27.30867,1259.1877],[30.57486,-27.31084,1411.2589],[30.50365,-27.30205,1631.1173],[30.44375,-27.30882,1827.7538],[30.42887,-27.30216,1675.8904],[30.42624,-27.29802,1662.1921],[30.42391,-27.29224,1642.7245],[30.42376,-27.28056,1694.3895],[30.42252,-27.27523,1737.932],[30.41926,-27.27141,1753.8137],[30.4143,-27.26903,1738.4155],[30.39595,-27.26521,1534.8044],[30.38851,-27.26562,1524.4888],[30.38061,-27.26769,1631.9139],[30.37053,-27.27508,1620.2761],[30.36014,-27.28516,1576.3633],[30.35497,-27.28764,1598.5874],[30.33125,-27.28686,1755.2572],[30.32412,-27.28795,1791.318],[30.31653,-27.29022,1812.1046],[30.30578,-27.29523,1836.3568],[30.29555,-27.2989,1858.5173],[30.28097,-27.302,1942.9862],[30.26315,-27.31208,1955.9749],[30.23178,-27.33404,1914.5337],[30.22356,-27.33776,1936.9514],[30.17002,-27.35668,1886.1558],[30.16584,-27.35988,1814.2832],[30.16212,-27.3635,1846.193],[30.15933,-27.36779,1897.2393],[30.15437,-27.37704,1975.9351],[30.13339,-27.37921,1768.8777],[30.05597,-27.3604,1847.9651],[30.04109,-27.36748,1814.5044],[30.02259,-27.37983,1802.6492],[30.01701,-27.38184,1789.3505],[30.01065,-27.38267,1778.4585],[29.95743,-27.37166,1730.7094],[29.94797,-27.36841,1720.0874],[29.94146,-27.36536,1696.3596],[29.9351,-27.36515,1675.509],[29.92921,-27.36438,1682.0999],[29.88808,-27.37492,1654.168],[29.87071,-27.37719,1683.0277],[29.86374,-27.3789,1699.0697],[29.85671,-27.38215,1689.3477],[29.84911,-27.38789,1706.5938],[29.84307,-27.39698,1805.5968],[29.83966,-27.40365,1817.0931],[29.83392,-27.41998,1799.2115],[29.824,-27.43848,1783.1897],[29.81532,-27.45104,1882.0073],[29.80788,-27.45858,1938.5145],[29.79718,-27.46189,2083.0476],[29.77124,-27.45233,2102.5852],[29.72344,-27.47331,1686.642],[29.71941,-27.48287,1732.0334],[29.72142,-27.4885,1749.7168],[29.72065,-27.49651,1689.9709],[29.71646,-27.51,1772.9005],[29.71615,-27.5177,1777.4901],[29.71863,-27.52282,1795.9723],[29.72359,-27.52504,1799.1182],[29.75775,-27.53542,1734.8945],[29.76256,-27.53811,1772.3379],[29.76721,-27.54576,1788.1516],[29.77093,-27.55734,1781.0847],[29.77496,-27.58307,1759.4119],[29.77372,-27.59465,1798.5278],[29.77077,-27.60219,1750.7],[29.76643,-27.60529,1617.4966],[29.7101,-27.63242,1804.0574],[29.70561,-27.63516,1837.6829],[29.69662,-27.64234,1791.6193],[29.69176,-27.6473,1733.0891],[29.68576,-27.65485,1699.7751],[29.68339,-27.66162,1703.6877],[29.68261,-27.66803,1743.4211],[29.6837,-27.67387,1822.0287],[29.68576,-27.67893,1955.4402],[29.68835,-27.68374,1960.9421],[29.70127,-27.70001,2025.3625],[29.70406,-27.70461,2021.5444],[29.70607,-27.70988,1993.938],[29.70716,-27.71593,1981.8281],[29.70731,-27.7228,1968.5179],[29.70266,-27.76218,1967.4312],[29.70266,-27.77619,1960.3026],[29.70623,-27.78704,1954.4393],[29.71848,-27.79717,1976.8805],[29.72049,-27.80233,1916.1831],[29.72189,-27.81096,1898.8545],[29.72003,-27.8167,1757.4226],[29.71693,-27.8212,1744.9905],[29.71274,-27.82616,1727.8748],[29.70809,-27.83375,1632.8774],[29.69243,-27.87406,1845.0562],[29.68494,-27.88791,1919.4479],[29.67362,-27.90207,1911.0222],[29.66804,-27.91049,1930.3772],[29.66587,-27.91747,1946.3915],[29.66463,-27.92439,1970.6838],[29.66695,-27.96119,1881.4199],[29.66571,-27.96884,1626.7419],[29.66261,-27.97442,1584.7474],[29.65905,-27.97809,1574.6909],[29.65471,-27.98134,1749.5359],[29.64184,-27.99989,1737.2443],[29.63006,-28.0248,1863.7195],[29.62566,-28.03772,1918.6587],[29.62411,-28.04806,1989.4552],[29.62551,-28.05374,1975.377],[29.62737,-28.05906,1937.5986],[29.63006,-28.06366,1893.7958],[29.63326,-28.06785,1891.1442],[29.63703,-28.07152,1830.484],[29.65858,-28.08686,1752.7133],[29.66246,-28.09027,1712.2456],[29.66587,-28.09415,1528.1277],[29.67114,-28.10438,1472.6843],[29.67533,-28.12097,1510.442],[29.67037,-28.15254,1676.8411],[29.66385,-28.16469,1835.6975],[29.6361,-28.18231,1796.2222],[29.62287,-28.1958,1737.4633],[29.6145,-28.20898,1757.7203],[29.60241,-28.23285,1733.2822],[29.59621,-28.24272,1740.5707],[29.5914,-28.24887,1732.8104],[29.59001,-28.24964,1742.7834],[29.58892,-28.25016,1749.0341],[29.57683,-28.25249,1782.6331],[29.51875,-28.25543,1701.5225],[29.50603,-28.25833,1719.2623],[29.49441,-28.2636,1705.0369],[29.48836,-28.26825,1688.1189],[29.42227,-28.34344,1748.5071],[29.40733,-28.35693,1686.1263],[29.3895,-28.36545,1700.3101],[29.36392,-28.37315,1683.8281],[29.351,-28.37868,1681.0811],[29.34403,-28.38302,1696.0396],[29.3386,-28.38726,1737.6973],[29.3045,-28.42514,1700.416],[29.25235,-28.43325,1792.738],[29.23478,-28.43956,1822.6985],[29.2306,-28.4426,1769.5869],[29.20905,-28.46307,1830.4946],[29.19866,-28.47578,1749.4783],[29.19401,-28.4855,1756.7632],[29.19324,-28.49051,1795.6414],[29.19432,-28.4949,1825.9669],[29.19572,-28.49831,1806.8268],[29.19944,-28.50544,1808.2219],[29.20052,-28.51139,1755.986],[29.19975,-28.51919,1723.9526],[29.19494,-28.53056,1749.3511],[29.1889,-28.53547,1775.9171],[29.17954,-28.53919,1779.4912],[29.16838,-28.54157,1699.0879],[29.15009,-28.54787,1817.9985],[29.13939,-28.55035,1772.9701],[29.13086,-28.55092,1693.2986],[29.12477,-28.54988,1728.7081],[29.10167,-28.54337,1787.6355],[29.09515,-28.54291,1766.465],[29.04255,-28.55247,2069.3655],[28.97304,-28.57484,2284.0674],[28.9595,-28.592,2044.6654],[28.93935,-28.60756,1894.0105],[28.93423,-28.61443,1871.1875],[28.9316,-28.62156,1887.9678],[28.93222,-28.64275,2025.4929],[28.93144,-28.65169,2061.9617],[28.92896,-28.65732,2084.991],[28.92555,-28.66176,2155.2803],[28.89977,-28.68223,2111.4551],[28.89558,-28.68879,2249.7551],[28.89279,-28.69504,2157.5725],[28.8869,-28.71365,2100.6392],[28.86597,-28.76155,3131.6169],[28.85901,-28.77299,3120.5342],[28.87284,-28.78356,3044.3596],[28.88566,-28.79721,2935.1418],[28.92586,-28.85953,2911.5542],[28.98085,-28.90904,3093.0081],[28.99542,-28.90831,3038.4009],[29.01898,-28.914,2909.7876],[29.04053,-28.92299,2839.2495],[29.04968,-28.93301,2979.6406],[29.04999,-28.95265,2866.5339],[29.05578,-28.96536,2997.1084],[29.06901,-28.97332,2691.2307],[29.09154,-28.97859,3121.0286],[29.12595,-28.99244,2814.1177],[29.20843,-29.06892,2873.5439],[29.2414,-29.07771,3210.2378],[29.2814,-29.07864,3157.3745],[29.31178,-29.0898,3104.3184],[29.31685,-29.14737,2994.1709],[29.32806,-29.15936,3215.8545],[29.34372,-29.16979,3121.8762],[29.35746,-29.18333,3193.2742],[29.36501,-29.20028,3298.3123],[29.37596,-29.23553,3022.4712],[29.40387,-29.2687,3106.9888],[29.414,-29.2903,2818.7183],[29.41493,-29.2964,3113.8286],[29.414,-29.3117,3014.1313],[29.41503,-29.31893,3026.4343],[29.41948,-29.32503,3018.0081],[29.43281,-29.33661,3252.2197],[29.43591,-29.34239,3255.563],[29.43224,-29.35697,2950.2329],[29.41374,-29.38012,3092.8799],[29.41188,-29.39583,3099.6624],[29.41255,-29.4103,3113.614],[29.4079,-29.42146,3228.7417],[29.39953,-29.43035,2944.458],[29.38816,-29.43779,2816.1877],[29.3618,-29.44792,2890.6519],[29.33204,-29.45598,2803.8765],[29.30382,-29.46683,3057.4438],[29.28274,-29.48564,3237.7976],[29.2755,-29.50662,3328.8438],[29.2752,-29.52829,2931.7144],[29.27514,-29.53225,2890.2139],[29.28202,-29.55613,3068.0757],[29.29628,-29.57163,2903.8208],[29.27995,-29.58145,2871.6091],[29.2784,-29.59706,2936.4194],[29.27861,-29.61359,2987.6292],[29.26734,-29.6261,2967.5847],[29.19034,-29.64687,2804.218],[29.1613,-29.66692,2818.1104],[29.14507,-29.69193,3013.9968],[29.13241,-29.72025,2973.0833],[29.11376,-29.75012,2996.8677],[29.1136,-29.75285,2984.2373],[29.11231,-29.77513,3067.6589],[29.10632,-29.80159,2548.1255],[29.1058,-29.82557,2510.304],[29.12037,-29.84345,2474.5095],[29.13298,-29.85203,2249.1372],[29.13577,-29.85916,2427.291],[29.13515,-29.86805,2385.8936],[29.13732,-29.8821,2433.1089],[29.14828,-29.90133,2399.4827],[29.15065,-29.91114,2381.4353],[29.14425,-29.91972,2353.5518],[29.13277,-29.92468,2411.3486],[29.10632,-29.93151,2346.9155],[29.09412,-29.93626,2301.0117],[29.01579,-29.97859,2261.7886],[29.02255,-29.98959,2361.4766],[29.07361,-30.04519,2182.5046],[29.11562,-30.07811,1783.2231],[29.12042,-30.08623,1744.92],[29.12275,-30.09465,1639.0889],[29.12228,-30.10209,1614.5247],[29.12089,-30.11113,1571.5682],[29.11779,-30.11682,1565.1018],[29.11391,-30.12111,1650.5018],[29.09283,-30.13738,1677.5298],[29.08926,-30.14142,1701.6378],[29.07593,-30.1626,1648.4109],[29.0705,-30.1656,1663.3568],[29.06456,-30.16601,1693.783],[29.04518,-30.16245,1687.4183],[29.03914,-30.16291,1694.5383],[29.03449,-30.16514,1787.4277],[29.02115,-30.17433,1626.6511],[29.01149,-30.17929,1587.6697],[28.998,-30.18369,1631.1248],[28.99304,-30.18596,1621.8871],[28.98793,-30.18984,1564.6956],[28.98762,-30.19418,1545.9197],[28.98932,-30.19836,1522.8049],[28.99568,-30.20777,1498.2289],[28.99847,-30.21371,1501.6426],[28.99862,-30.21697,1527.0415],[28.99661,-30.22084,1506.285],[28.99289,-30.22348,1514.6339],[28.98808,-30.22622,1551.3494],[28.97289,-30.23314,1591.2407],[28.96684,-30.23872,1608.9331],[28.95981,-30.24684,1666.5476],[28.94865,-30.26379,1701.7817],[28.94059,-30.26937,1573.3324],[28.93408,-30.27076,1565.1953],[28.92292,-30.26632,1644.1143],[28.91439,-30.26957,1706.9565],[28.9038,-30.27841,1973.2576],[28.88442,-30.30611,1780.6428],[28.87434,-30.31768,1632.8231],[28.8655,-30.32342,1532.5216],[28.85977,-30.32233,1507.9413],[28.79228,-30.29665,1437.8533],[28.78773,-30.29603,1456.6807],[28.78479,-30.29898,1471.2947],[28.75812,-30.35231,1808.7604],[28.75378,-30.36424,1842.5701],[28.75285,-30.37293,1900.0076],[28.75518,-30.37799,1852.7762],[28.77238,-30.40388,2117.4163],[28.773,-30.41179,2081.9712],[28.77161,-30.42321,1937.1573],[28.76076,-30.45881,1832.2582],[28.76014,-30.46811,2021.8674],[28.76169,-30.47292,2106.093],[28.76928,-30.48816,2131.3069],[28.77362,-30.49437,2160.5532],[28.77796,-30.49876,2000.4476],[28.78308,-30.5017,2145.2983],[28.78918,-30.50325,2103.8457],[28.79646,-30.50413,2047.0839],[28.81119,-30.50434,2051.2866],[28.81755,-30.50511,2012.0901],[28.8222,-30.50785,1931.8906],[28.84582,-30.5417,1723.3342],[28.85605,-30.55317,1728.4824],[28.86039,-30.55658,1703.4763],[28.86566,-30.55927,1667.0977],[28.96136,-30.57612,1722.9288],[28.96762,-30.5756,1650.925],[28.97227,-30.57286,1613.5254],[28.97552,-30.56862,1591.5664],[28.978,-30.56346,1643.9163],[28.97971,-30.55772,1533.9277],[28.98079,-30.55198,1467.9351],[28.98172,-30.52082,1728.1812],[28.9825,-30.51421,1704.4573],[28.98514,-30.5093,1657.9921],[28.98886,-30.50558,1624.9117],[28.9932,-30.50289,1567.8771],[28.998,-30.50165,1560.531],[29.00141,-30.50155,1536.1775],[29.00622,-30.50248,1550.7197],[29.07123,-30.5308,1828.7783],[29.07702,-30.53462,1732.9722],[29.08213,-30.54113,1555.309],[29.08446,-30.55007,1366.5933],[29.08539,-30.55741,1328.5568],[29.08477,-30.57286,1276.9374],[29.0857,-30.58309,1239.8606],[29.0936,-30.58821,1219.5546],[29.10368,-30.59209,1235.218],[29.26073,-30.62867,1423.3071],[29.29592,-30.64702,1676.155],[29.32015,-30.65529,1482.55],[29.32651,-30.65622,1489.3923],[29.33333,-30.65637,1585.6536],[29.33938,-30.65529,1447.2181],[29.34418,-30.65286,1217.4985],[29.34821,-30.64945,1107.1991],[29.35504,-30.64108,1171.0465],[29.35958,-30.63834,1170.8486],[29.36547,-30.63673,1142.066],[29.41033,-30.63725,1756.8883],[29.41762,-30.63673,1832.6008],[29.42366,-30.63524,1749.0092],[29.42909,-30.63307,1877.0188],[29.44769,-30.62201,1413.8018],[29.45265,-30.61958,1399.0449],[29.45808,-30.61777,1522.3309],[29.46418,-30.61741,1568.1482],[29.47053,-30.61823,1590.9521],[29.47611,-30.6202,1579.4651],[29.54639,-30.66324,1524.499],[29.57869,-30.67332,1411.0332],[29.60241,-30.68826,1078.5547],[29.61156,-30.69167,1077.4716],[29.62008,-30.69311,1050.2715],[29.62722,-30.69275,1082.8865],[29.6606,-30.68531,985.6272],[29.66804,-30.68676,1151.7094],[29.67672,-30.68965,1101.8521],[29.68773,-30.69523,896.3776],[29.70235,-30.69818,846.9108],[29.72576,-30.70794,778.4504],[29.74002,-30.71161,829.348],[29.75465,-30.71957,733.7938],[29.75853,-30.7188,706.45],[29.76116,-30.715699999999998,713.1451],[29.76674,-30.7113,691.6942],[29.77496,-30.70851,686.9],[29.79387,-30.70882,668.421],[29.8009,-30.71291,747.1362],[29.80586,-30.71849,654.8942],[29.80834,-30.72407,654.1678],[29.82245,-30.7344,630.0664],[29.85785,-30.75373,648.4593],[29.88126,-30.77073,658.2512],[29.90017,-30.78019,597.4814],[29.91087,-30.78303,514.0497],[29.91929,-30.78303,561.3726],[29.92472,-30.78024,472.6985],[29.93092,-30.77833,530.6149],[29.93851,-30.77693,518.3974],[29.9427,-30.77957,564.6266],[29.94456,-30.78396,629.7966],[29.9441,-30.79001,405.0964],[29.94534,-30.79585,550.0362],[29.94859,-30.80329,589.9906],[29.95867,-30.80794,371.9624],[29.96347,-30.81347,450.734],[29.96709,-30.81951,374.2823],[29.96967,-30.82551,366.0013],[29.97422,-30.83176,477.8449],[29.98027,-30.83455,396.6131],[29.98647,-30.83543,375.6871],[29.99236,-30.8345,404.3975],[29.99686,-30.83264,405.0753],[30.00151,-30.83202,351.1818],[30.00647,-30.83502,382.1543],[30.01344,-30.84179,327.5836],[30.0198,-30.84535,337.3906],[30.02652,-30.84783,354.9373],[30.05086,-30.84861,287.4734],[30.05675,-30.85088,300.9589],[30.06078,-30.8545,297.5672],[30.06357,-30.85899,292.763],[30.06543,-30.86411,363.1502],[30.06667,-30.86964,535.6428],[30.06714,-30.87579,391.7842],[30.06884,-30.88158,395.1768],[30.07334,-30.88855,343.8552],[30.08533,-30.89041,286.8177],[30.10936,-30.90535,299.7648],[30.12021,-30.9178,348.8005],[30.12455,-30.9271,376.4153],[30.12579,-30.93444,379.2308],[30.12548,-30.94111,381.0338],[30.12439,-30.94824,397.5738],[30.1247,-30.95589,420.3541],[30.12672,-30.96772,420.4028],[30.13297,-30.97594,402.2093],[30.13452,-30.98369,383.9522],[30.13463,-31.00348,306.1885],[30.137,-31.01046,100.7273],[30.14103,-31.01557,211.8172],[30.14568,-31.01816,88.5198],[30.15747,-31.02265,113.9885],[30.16367,-31.02622,50.4325],[30.16646,-31.02901,165.4911],[30.16847,-31.03351,66.688],[30.16987,-31.0394,268.5207],[30.17157,-31.055,147.5909],[30.17281,-31.05903,100.3072],[30.17623,-31.06353,18.4447],[30.17964,-31.06591,7.6115],[30.1925,-31.07299,30.9051],[30.19599,-31.07787,25.8814],[30.28875,-30.97112,0.0],[30.32032,-30.91229,57.5275],[30.33375,-30.90228,31.2126],[30.34816,-30.89658,0.415],[30.36402,-30.88226,0.0],[30.39234,-30.8471,0.0],[30.56235,-30.57391,21.4729],[30.60955,-30.52955,4.1861],[30.61769,-30.51531,23.0851],[30.62143,-30.5001,35.5991],[30.64161,-30.45957,54.8],[30.78647,-30.23748,29.7766],[30.84254,-30.1233,5.311],[30.89064,-30.05006,4.6809],[30.91993,-30.01849,90.3745],[31.02377,-29.9358,0.0],[31.04957,-29.90862,0.0],[31.05828,-29.89593,0.0],[31.06153,-29.88893,0.0],[31.06332,-29.88193,0.0],[31.06332,-29.87444,0.0],[31.05047,-29.88519,58.7142],[31.01637,-29.8952,3.4586],[31.00123,-29.90244,4.4786],[31.00611,-29.87615,7.1027],[31.0158,-29.8681,0.0],[31.05584,-29.86826,0.4444],[31.04526,-29.82952,0.0],[31.05551,-29.78981,0.0],[31.18686,-29.56032,64.158],[31.31861,-29.40203,42.4339],[31.32651,-29.38421,6.0102],[31.33399,-29.3764,7.6852],[31.34213,-29.37005,46.3163],[31.35467,-29.36338,54.8681],[31.36004,-29.34246,23.9129],[31.365,-29.33261,52.4236],[31.37859,-29.32187,73.2968],[31.41261,-29.30316,56.3133],[31.42701,-29.29217,60.4351],[31.46534,-29.24489,77.9156],[31.4782,-29.23699,80.8799],[31.48219,-29.23333,85.7528],[31.48609,-29.21575,34.6988],[31.48845,-29.20965,26.0508],[31.49448,-29.20566,33.7648],[31.51026,-29.19899,51.8018],[31.55747,-29.16188,38.2133],[31.75213,-28.96624,18.3536],[31.78273,-28.94964,11.7964],[31.78273,-28.94345,2.7708],[31.77605,-28.94052,2.0038],[31.77231,-28.93662,2.3455],[31.77036,-28.93084,7.8944],[31.76905,-28.9223,21.9481],[31.81373,-28.93011,12.8038],[31.85206,-28.93133,36.3956],[31.88836,-28.92474,11.0378],[32.01205,-28.86647,45.0609],[32.05104,-28.83782,1.8299],[32.07008,-28.8056,4.052],[32.0534,-28.80706,0.0],[32.03736,-28.81471,0.0],[32.0241,-28.82497,10.5002],[32.01612,-28.83359,0.0],[31.99399,-28.80625,1.4361],[32.01686,-28.78493,5.0652],[32.05633,-28.77947,2.3345],[32.08375,-28.79949,0.0],[32.19361,-28.71624,55.7468],[32.2068,-28.70135,56.6655],[32.22543,-28.67262,49.6928],[32.23512,-28.66155,24.9371],[32.24789,-28.6539,20.9084],[32.28004,-28.64007,43.3676],[32.29314,-28.63095,41.389],[32.37941,-28.55283,15.3671],[32.3921,-28.53533,0.0],[32.40073,-28.5027,72.3972],[32.41725,-28.46649,0.2096],[32.42823,-28.42938,0.0],[32.42018,-28.39471,0.3795],[32.41212,-28.3987,1.2407],[32.40699,-28.40032,1.0307],[32.40333,-28.39756,3.3892],[32.39967,-28.38787,4.9031],[32.42205,-28.38193,0.2775],[32.43922,-28.36663,0.0],[32.45037,-28.34564,0.0],[32.45427,-28.32269,73.0791],[32.45997,-28.30674,73.7007],[32.54396,-28.19012,0.0],[32.55055,-28.17156,0.0],[32.59832,-27.92246,0.0],[32.59693,-27.9118,0.0],[32.59132,-27.893,0.829],[32.59148,-27.88079,29.8855],[32.59441,-27.87005,0.0],[32.60377,-27.84637,0.0],[32.60572,-27.83611,0.0],[32.60719,-27.81373,0.0],[32.67652,-27.52068,0.0],[32.78102,-27.25595,0.0],[32.78541,-27.22967,37.7185],[32.79469,-27.21429,30.4169],[32.79689,-27.20574,48.9451],[32.80104,-27.17685,11.6526],[32.80372,-27.16823,23.4259],[32.83937,-27.12363,0.0],[32.84457,-27.10272,0.0],[32.84693,-27.08099,39.3439],[32.86524,-27.01735,59.4324],[32.88054,-26.8869,31.2028],[32.89308,-26.84612,27.4998],[32.73845,-26.85025,63.533],[32.59809,-26.85397,53.2217],[32.4689,-26.85738,58.9504],[32.35222,-26.86027,31.0992],[32.29584,-26.852,27.777],[32.22302,-26.84136,35.1932],[32.19409,-26.84032,53.1693],[32.14318,-26.8457,45.823],[32.11388,-26.84001,60.1909]],
[[29.70499,-30.51416,1374.2522],[29.68153,-30.514,1389.2534],[29.63171,-30.50263,1445.0845],[29.58598,-30.39427,1506.5245],[29.54391,-30.35153,1466.8049],[29.51833,-30.27763,1621.728],[29.51709,-30.25583,1630.6317],[29.50293,-30.22777,1786.8727],[29.48355,-30.20751,1783.5537],[29.44366,-30.17795,1829.2349],[29.44189,-30.14197,1785.6863],[29.44493,-30.11254,1839.0789],[29.48309,-30.07021,1909.5685],[29.48619,-30.05217,1434.8907],[29.47642,-30.03956,1611.3665],[29.47146,-30.02354,1617.5759],[29.49053,-30.00204,1550.5964],[29.49952,-29.99646,1468.2555],[29.53864,-30.02401,1510.7993],[29.55445,-30.02556,1405.2125],[29.57848,-30.03217,1283.1987],[29.65409,-30.06664,1084.7195],[29.70127,-30.07816,1022.9302],[29.77496,-30.08679,1083.1185],[29.79015,-30.08664,1090.4136],[29.8226,-30.07599,955.2797],[29.83919,-30.08762,990.5683],[29.8457,-30.09796,950.6812],[29.85826,-30.13604,877.8372],[29.86296,-30.14364,873.2563],[29.86777,-30.14917,886.0015],[29.87599,-30.15444,925.3367],[29.87924,-30.15609,948.742],[29.89598,-30.16214,965.3728],[29.90575,-30.16948,780.5101],[29.92038,-30.19252,754.3374],[29.92813,-30.2009,762.0715],[29.94983,-30.21945,744.5107],[29.95386,-30.22596,749.8649],[29.95278,-30.22921,756.6571],[29.94844,-30.22921,739.1189],[29.94518,-30.22839,744.6559],[29.94254,-30.2273,782.5224],[29.94022,-30.22668,798.1143],[29.93557,-30.22591,783.4655],[29.92952,-30.22642,734.4365],[29.92379,-30.2287,801.7749],[29.92022,-30.23273,763.774],[29.91805,-30.23846,781.0398],[29.91976,-30.24156,763.8433],[29.92115,-30.24322,749.2308],[29.94859,-30.26647,725.6873],[29.95309,-30.26942,742.0029],[29.95588,-30.26983,784.4849],[29.96099,-30.26988,786.6418],[29.96843,-30.27081,793.3275],[29.97639,-30.2734,766.5341],[29.98864,-30.28229,747.0443],[29.99391,-30.28854,868.8444],[29.9967,-30.2952,750.9474],[29.99608,-30.30053,730.754],[29.99717,-30.30823,733.5099],[30.00058,-30.31257,851.5829],[30.00507,-30.31608,821.8802],[30.01438,-30.32109,733.7723],[30.01872,-30.32228,752.4641],[30.0228,-30.32032,872.4913],[30.02915,-30.31272,955.8607],[30.03396,-30.30998,854.3358],[30.04125,-30.30905,915.843],[30.04853,-30.30983,655.4817],[30.05644,-30.31184,659.5573],[30.05799,-30.31598,606.2166],[30.0569,-30.32001,730.4886],[30.0538,-30.3242,653.7573],[30.05024,-30.32802,584.1879],[30.0476,-30.33334,618.8494],[30.04652,-30.34001,590.799],[30.04977,-30.35143,606.1428],[30.05427,-30.35696,649.3457],[30.0597,-30.36073,660.2373],[30.06807,-30.36399,571.3285],[30.07789,-30.36921,584.8677],[30.09432,-30.38156,602.874],[30.10176,-30.3892,633.2048],[30.10641,-30.39603,649.7561],[30.11044,-30.40667,691.0566],[30.11122,-30.41205,689.9568],[30.11029,-30.41639,578.2532],[30.1061,-30.41783,522.4011],[30.10129,-30.4167,490.5655],[30.0923,-30.41127,629.0802],[30.0875,-30.41003,663.516],[30.08264,-30.41086,629.8087],[30.07913,-30.41406,709.5469],[30.07603,-30.41814,694.1593],[30.07365,-30.42279,651.9562],[30.0707,-30.42693,561.709],[30.06698,-30.43013,624.3604],[30.0614,-30.43127,667.6815],[30.05597,-30.43091,525.9766],[30.04574,-30.42812,517.3571],[30.04109,-30.42894,634.9207],[30.03892,-30.43354,554.7485],[30.03892,-30.44052,430.4737],[30.04171,-30.45091,479.5374],[30.0428,-30.45861,478.1764],[30.04311,-30.46388,413.2401],[30.03954,-30.4724,602.9889],[30.02435,-30.47488,718.6566],[30.02187,-30.48708,650.1455],[30.0167,-30.5031,465.8357],[30.0122,-30.53059,702.807],[30.0029,-30.54671,840.5798],[29.99407,-30.55726,829.6106],[29.97701,-30.56775,841.3314],[29.96719,-30.56961,851.6448],[29.95355,-30.56692,918.6614],[29.91929,-30.54826,858.4728],[29.89102,-30.54403,868.4783],[29.87009,-30.53607,1022.096],[29.84059,-30.51648,860.2825],[29.81377,-30.5031,863.9293],[29.77914,-30.4969,1015.772],[29.74922,-30.50062,1002.3277],[29.70499,-30.51416,1374.2522]]]}}