{"type":"Feature","properties":{"GID_1":"ZAF.6_1","GID_0":"ZAF","country":"SouthAfrica","province":"Mpumalanga","VARNAME_1":"EasternTransvaal","NL_NAME_1":"NA","TYPE_1":"Provinsie","ENGTYPE_1":"Province","CC_1":"MP","HASC_1":"ZA.MP","ISO_1":"ZA-MP","name":"Mpumalanga.province"},
"geometry":{"type": "MultiPolygon","coordinates": [[[[29.9085,-27.3749,1693.907],[29.9172,-27.3544,1702.4731],[29.9555,-27.3649,1742.3765],[29.9785,-27.373,1744.7395],[29.9951,-27.3884,1779.6521],[30.0162,-27.3976,2005.7916],[30.0245,-27.3945,1993.4424],[30.0306,-27.3867,1995.7429],[30.0396,-27.3893,2128.6313],[30.0464,-27.3868,2237.3032],[30.0522,-27.3797,2082.5181],[30.0683,-27.3659,2164.7007],[30.079,-27.3702,2006.9668],[30.0868,-27.3685,1965.7921],[30.1116,-27.3865,1734.3389],[30.1434,-27.4134,2001.0817],[30.1527,-27.4043,1950.9441],[30.1541,-27.397,2059.5056],[30.1502,-27.3923,2144.6018],[30.1607,-27.3871,2139.876],[30.1658,-27.3875,2033.3896],[30.1782,-27.3783,1950.499],[30.1901,-27.3689,1997.2207],[30.1981,-27.3552,2053.4563],[30.2286,-27.3654,2050.6616],[30.2347,-27.3807,1985.7244],[30.2466,-27.3739,2106.054],[30.2799,-27.3686,2180.1885],[30.2805,-27.3503,2116.0918],[30.2787,-27.3326,2175.6184],[30.2816,-27.3282,2205.0085],[30.2825,-27.3144,2073.7622],[30.3022,-27.3174,1951.0349],[30.3175,-27.302,1845.7458],[30.3284,-27.2996,1805.8887],[30.3667,-27.3117,1659.821],[30.3684,-27.2873,1649.5253],[30.3676,-27.2674,1548.7776],[30.3976,-27.2738,1717.8546],[30.4265,-27.2698,1842.0903],[30.426,-27.315,1819.7876],[30.4335,-27.3257,2043.5261],[30.4483,-27.3277,1874.9679],[30.4529,-27.3251,1868.3707],[30.4583,-27.3267,1857.1582],[30.4621,-27.3252,1847.55],[30.4659,-27.3263,1724.588],[30.4663,-27.3243,1689.1992],[30.475,-27.3195,1807.9928],[30.4971,-27.3124,1683.9519],[30.5257,-27.3151,1762.8434],[30.5408,-27.3216,1650.5461],[30.5462,-27.3258,1691.0135],[30.5511,-27.3255,1705.1016],[30.5577,-27.3276,1721.1089],[30.5871,-27.3231,1626.6222],[30.6606,-27.2879,1334.7247],[30.7068,-27.2833,1087.1074],[30.7132,-27.2861,1087.5688],[30.7176,-27.2838,1087.0348],[30.7188,-27.2845,1087.0348],[30.7179,-27.2872,1089.505],[30.7207,-27.2909,1086.3411],[30.7249,-27.2896,1086.5524],[30.7261,-27.2936,1084.6559],[30.7251,-27.2956,1089.1377],[30.7283,-27.2993,1086.6107],[30.7344,-27.2952,1086.16],[30.7404,-27.2946,1081.6259],[30.7439,-27.3006,1086.4462],[30.7419,-27.3032,1072.6096],[30.7432,-27.3061,1074.677],[30.7508,-27.2987,1072.7236],[30.7556,-27.3046,1073.9155],[30.7583,-27.3044,1090.469],[30.7627,-27.3074,1076.78],[30.76,-27.3136,1080.0374],[30.7628,-27.3145,1066.5085],[30.7662,-27.3193,1066.9277],[30.769,-27.319,1065.0896],[30.771,-27.3264,1067.5217],[30.7742,-27.3243,1059.7023],[30.7844,-27.3243,1043.4139],[30.7855,-27.3192,1043.3809],[30.7804,-27.3169,1047.4509],[30.7786,-27.3144,1051.1442],[30.7889,-27.3128,1031.7117],[30.791,-27.3185,1024.0742],[30.7969,-27.3224,1013.1401],[30.7971,-27.3266,1024.637],[30.8041,-27.3243,998.9461],[30.8088,-27.3283,1003.3862],[30.8022,-27.3321,1001.6202],[30.8048,-27.3345,1002.595],[30.8114,-27.3324,1000.634],[30.8083,-27.3389,996.109],[30.8161,-27.3401,1005.0428],[30.8205,-27.3361,1000.2722],[30.8213,-27.3395,997.4047],[30.8282,-27.3433,989.9199],[30.8286,-27.3447,993.9338],[30.8233,-27.3458,990.3113],[30.8223,-27.3542,991.589],[30.8302,-27.35,989.82],[30.8378,-27.35,987.956],[30.8414,-27.3529,991.6047],[30.8437,-27.3527,988.3555],[30.8449,-27.3461,988.4114],[30.8499,-27.3433,989.189],[30.8543,-27.3444,983.3409],[30.8576,-27.3433,997.642],[30.8559,-27.337,981.7503],[30.8613,-27.3391,977.2339],[30.8618,-27.334,976.515],[30.8648,-27.3318,980.1606],[30.8637,-27.3195,976.2524],[30.8659,-27.3127,978.3575],[30.8752,-27.3143,974.0008],[30.8821,-27.3124,972.8119],[30.8841,-27.3088,977.3168],[30.8867,-27.3108,972.0137],[30.9023,-27.3081,979.3146],[30.9065,-27.3055,970.7543],[30.9097,-27.3054,969.6956],[30.9116,-27.3081,977.3893],[30.9155,-27.3054,970.8549],[30.9222,-27.305,969.2174],[30.9238,-27.306,969.1285],[30.9245,-27.3113,966.0917],[30.921,-27.3182,991.3271],[30.9245,-27.3255,947.9985],[30.9233,-27.3305,946.3716],[30.9315,-27.3405,944.4356],[30.9393,-27.3466,928.6],[30.9382,-27.3568,898.4681],[30.9411,-27.3596,889.4366],[30.9405,-27.3658,873.2787],[30.9424,-27.3682,868.2864],[30.948,-27.3661,848.0316],[30.9554,-27.3597,831.5794],[30.9581,-27.3606,841.8725],[30.9599,-27.3641,820.6808],[30.9631,-27.3658,814.7347],[30.97,-27.3633,807.8326],[30.9774,-27.358,802.8799],[30.9815,-27.3592,802.7426],[30.9847,-27.3575,805.1502],[31.0026,-27.3588,798.007],[31.0055,-27.3511,776.442],[31.0084,-27.3488,771.8429],[31.0106,-27.3491,772.2509],[31.0139,-27.355,783.2142],[31.0205,-27.3606,753.8578],[31.0243,-27.3519,756.7456],[31.0309,-27.3463,742.0727],[31.0348,-27.3458,747.1113],[31.038,-27.3515,703.01],[31.044,-27.3533,710.5215],[31.0462,-27.3519,690.6534],[31.0484,-27.3451,683.5205],[31.0508,-27.3432,710.0943],[31.0652,-27.3383,673.4253],[31.0788,-27.3431,675.3405],[31.084,-27.3356,671.3943],[31.0988,-27.3298,646.4281],[31.1016,-27.3332,645.1224],[31.101,-27.3358,642.7002],[31.1409,-27.3627,1071.3105],[31.1659,-27.3685,861.8545],[31.2048,-27.3171,979.9731],[31.2748,-27.2429,902.6168],[31.1506,-27.2021,931.7006],[31.0613,-27.0963,1187.6685],[31.0218,-27.0678,1176.1912],[30.9848,-27.037,1253.9819],[30.9583,-26.9921,1302.5374],[30.9737,-26.9645,1314.8663],[30.9765,-26.9534,1310.9526],[30.9768,-26.9216,1146.5834],[30.9736,-26.9082,1068.2157],[30.943,-26.8882,1094.1613],[30.9407,-26.8839,1091.5775],[30.9372,-26.8831,1091.0962],[30.9252,-26.8718,1113.1516],[30.9074,-26.8599,1121.9949],[30.9069,-26.8549,1124.1661],[30.9023,-26.8518,1138.7007],[30.893,-26.8053,1307.9581],[30.8919,-26.7851,1178.4563],[30.89,-26.7876,1199.771],[30.8877,-26.7992,1263.9548],[30.8888,-26.802,1273.0986],[30.8873,-26.8036,1280.9307],[30.8249,-26.8404,1301.0095],[30.8132,-26.8445,1395.636],[30.8125,-26.8435,1395.636],[30.8027,-26.824,1413.3882],[30.7908,-26.7123,1367.5377],[30.7918,-26.5691,1519.0706],[30.8051,-26.4667,1528.0162],[30.831,-26.4112,1511.4534],[30.8576,-26.3838,1370.7834],[30.8919,-26.3208,1616.8959],[30.9614,-26.2617,1612.0822],[31.071,-26.0673,1520.1746],[31.0896,-26.0262,1304.5626],[31.1127,-25.9826,1489.2003],[31.1266,-25.9212,1831.856],[31.2636,-25.8096,1347.9276],[31.3159,-25.743,1328.3103],[31.4163,-25.7188,1171.3298],[31.8679,-25.9996,720.4838],[31.9737,-25.9532,745.307],[31.9305,-25.8408,586.61],[31.9786,-25.6937,436.4996],[31.9959,-25.6767,415.3765],[32.0061,-25.6452,397.2691],[32.0056,-25.626,250.6066],[31.9958,-25.5263,305.9691],[31.9813,-25.5238,348.7969],[31.9774,-25.5098,362.9562],[31.9774,-25.4747,388.5603],[31.9796,-25.4571,341.9621],[31.9895,-25.4377,105.631],[31.9905,-25.429,252.1388],[32.0135,-25.3881,363.4351],[32.0153,-25.3825,368.2343],[32.0288,-25.2414,305.694],[32.032,-25.1831,110.5],[32.0336,-25.1325,271.5422],[32.0302,-25.0657,303.8351],[32.0155,-24.9251,403.6624],[31.9983,-24.6897,362.5546],[32.0089,-24.5751,288.8507],[32.0131,-24.4546,157.9758],[31.9871,-24.3022,310.5925],[31.9813,-24.2973,312.619],[31.908,-24.1824,383.9952],[31.8838,-23.9846,240.2158],[31.8527,-23.9869,183.7233],[31.825,-23.9862,155.1718],[31.8216,-23.9909,166.491],[31.8221,-23.9965,154.2216],[31.8204,-23.9984,137.2109],[31.8125,-23.9993,141.1137],[31.8047,-23.9972,174.8029],[31.8012,-23.9941,148.7221],[31.7946,-23.9919,153.2176],[31.7827,-23.9821,145.047],[31.7764,-23.9812,170.0869],[31.77,-23.9832,168.1136],[31.7466,-24.0035,172.14],[31.7349,-24.0113,176.092],[31.7336,-24.0184,174.2788],[31.7376,-24.039,185.6992],[31.7358,-24.0461,180.1823],[31.7187,-24.0568,181.125],[31.7019,-24.0599,186.0474],[31.6837,-24.0595,191.607],[31.68,-24.0567,191.0403],[31.6743,-24.043,193.6214],[31.6688,-24.021,196.7436],[31.666,-24.0167,212.1032],[31.6593,-24.0141,210.8795],[31.6326,-24.0179,214.3075],[31.6209,-24.0233,205.163],[31.6096,-24.0363,218.504],[31.6083,-24.0476,209.9762],[31.5981,-24.0563,210.4803],[31.5947,-24.0564,208.9532],[31.5869,-24.0528,210.1764],[31.5803,-24.0471,211.3924],[31.5737,-24.0373,213.2165],[31.5682,-24.0331,218.1344],[31.5487,-24.0372,244.218],[31.5446,-24.0424,230.5433],[31.5426,-24.054,221.7982],[31.5291,-24.0567,223.5296],[31.5209,-24.0543,224.8384],[31.5099,-24.0432,233.5779],[31.5055,-24.0408,235.866],[31.482,-24.0316,229.9831],[31.4625,-24.0296,237.7224],[31.4476,-24.0199,233.441],[31.4409,-24.021,251.2215],[31.4406,-24.0383,249.8926],[31.4312,-24.0523,247.7111],[31.42,-24.0564,242.3847],[31.399,-24.0676,254.6326],[31.3926,-24.0658,242.7989],[31.3864,-24.0522,246.3887],[31.3791,-24.0522,267.5557],[31.3651,-24.0685,264.5912],[31.36,-24.0712,262.7986],[31.3495,-24.0727,270.4736],[31.3206,-24.0826,268.5325],[31.3132,-24.0814,265.7547],[31.3016,-24.0738,258.5803],[31.2934,-24.0744,278.8795],[31.2751,-24.0938,275.2755],[31.2641,-24.0998,270.8895],[31.2572,-24.101,275.0723],[31.2523,-24.0977,271.9108],[31.2452,-24.0714,282.5845],[31.2347,-24.0576,277.7687],[31.22,-24.0456,273.6205],[31.206,-24.041,279.0201],[31.1934,-24.031,286.9501],[31.1757,-24.0364,283.9176],[31.1713,-24.0442,293.6113],[31.1698,-24.0586,292.7978],[31.1626,-24.06,292.3432],[31.1471,-24.0697,304.7169],[31.1338,-24.0737,305.0],[31.1206,-24.0682,306.8308],[31.1015,-24.0706,312.2483],[31.0942,-24.0755,308.9205],[31.0721,-24.0833,310.4499],[31.0669,-24.0896,318.1919],[31.0634,-24.0915,315.3948],[31.086,-24.0945,401.5623],[31.1206,-24.0903,340.3636],[31.1151,-24.1192,391.706],[31.0961,-24.1174,400.926],[31.1073,-24.1457,431.757],[31.0499,-24.1873,430.8296],[31.0544,-24.2319,478.8547],[31.0604,-24.2718,477.6372],[31.056,-24.3219,476.8023],[31.1022,-24.3237,479.6738],[31.1525,-24.3187,448.2609],[31.2001,-24.305,465.144],[31.242,-24.3654,470.2492],[31.16,-24.3756,467.9514],[31.16,-24.4374,509.602],[31.2032,-24.4265,517.5305],[31.2537,-24.4991,518.1112],[31.2262,-24.556,520.9554],[31.0537,-24.5703,655.5724],[30.9593,-24.5821,685.8248],[30.9543,-24.5213,664.8846],[30.9089,-24.5258,837.8264],[30.8717,-24.5385,1814.5959],[30.7993,-24.4989,1492.2078],[30.759,-24.4602,1776.6821],[30.7302,-24.4985,1357.801],[30.7323,-24.5481,892.2186],[30.7303,-24.6087,1291.3612],[30.7015,-24.5864,1501.1938],[30.6792,-24.6237,1378.0264],[30.7097,-24.6674,1567.5801],[30.7201,-24.7052,1532.6078],[30.6855,-24.7324,1808.7985],[30.6786,-24.7358,1758.0704],[30.6366,-24.7341,1366.4037],[30.6337,-24.7585,1373.2845],[30.6642,-24.7746,1593.1965],[30.6562,-24.8117,1636.6355],[30.6349,-24.8528,1589.667],[30.6187,-24.8442,1417.776],[30.6084,-24.8724,1723.8284],[30.58,-24.8874,1236.4258],[30.5812,-24.9169,1720.1592],[30.5629,-24.8965,1487.5796],[30.4963,-24.9147,1519.0037],[30.4942,-24.9533,1515.2627],[30.4515,-24.912,1425.9489],[30.438,-24.8643,1379.3173],[30.4251,-24.8549,1281.8212],[30.3897,-24.8495,878.6819],[30.3908,-24.8521,882.0217],[30.3897,-24.8603,927.925],[30.3916,-24.8623,892.7285],[30.396,-24.861,947.9929],[30.3986,-24.8683,921.0901],[30.3965,-24.8712,909.4311],[30.3542,-24.8493,1352.9545],[30.3529,-24.8834,1649.874],[30.3109,-24.8729,947.2689],[30.3086,-24.8754,955.334],[30.31,-24.8806,954.822],[30.3124,-24.8825,960.2652],[30.3117,-24.8838,960.1416],[30.3088,-24.8827,972.3098],[30.308,-24.885,966.892],[30.3063,-24.8843,985.9506],[30.3068,-24.8815,994.5568],[30.2973,-24.8677,1426.7808],[30.192,-24.8555,1599.1931],[30.1785,-24.9221,1350.5686],[30.1717,-24.9698,1305.5529],[30.1721,-24.9892,1381.6886],[30.1795,-24.9896,1377.8092],[30.1792,-24.9991,1474.1637],[30.1972,-25.0309,1817.0413],[30.1987,-25.0364,1838.2549],[30.1593,-25.028,1415.2583],[30.1485,-25.0324,1301.1158],[30.1486,-25.09,1666.2716],[30.1444,-25.0912,1560.8577],[30.1444,-25.1238,1549.7026],[30.1211,-25.1209,1170.5193],[30.0909,-25.1255,2030.3224],[30.0902,-25.1081,2091.6641],[30.0299,-25.0641,1887.5096],[30.0298,-25.0846,1952.0972],[29.979,-25.0921,1698.2791],[30.0054,-25.1444,1894.5951],[30.0098,-25.2313,1867.6292],[30.0129,-25.231,1845.4772],[30.0007,-25.2795,1806.0634],[30.0062,-25.3403,1842.3058],[29.9376,-25.331,1774.454],[29.8879,-25.3386,1474.3289],[29.8878,-25.3643,1497.7518],[29.8403,-25.3863,1446.9564],[29.8373,-25.3818,1439.2964],[29.8372,-25.3768,1436.2859],[29.8327,-25.37,1435.1334],[29.832,-25.3655,1431.3171],[29.8273,-25.365,1431.0071],[29.8258,-25.3621,1430.323],[29.8229,-25.3623,1427.1697],[29.8203,-25.3589,1431.0981],[29.8201,-25.3607,1426.0204],[29.8171,-25.362,1434.2218],[29.7932,-25.3621,1480.6885],[29.7702,-25.4015,1784.0336],[29.7276,-25.3842,1731.0808],[29.6739,-25.3722,1640.7322],[29.6128,-25.4006,1482.6124],[29.587,-25.3952,1422.7622],[29.5226,-25.405,1279.4856],[29.5188,-25.4228,1235.939],[29.453,-25.4065,1295.6638],[29.399,-25.4148,1276.7278],[29.35,-25.4046,1011.3369],[29.3421,-25.3731,977.5097],[29.3214,-25.3799,1015.9812],[29.2644,-25.3755,1288.5026],[29.2531,-25.3835,1316.7013],[29.243,-25.4036,1357.811],[29.2375,-25.4023,1348.2861],[29.2073,-25.4146,1425.1552],[29.1957,-25.3703,1391.7755],[29.1313,-25.3902,1408.6228],[29.142,-25.3858,1409.7351],[29.1641,-25.3545,1168.265],[29.1746,-25.3185,1068.8785],[29.167,-25.3034,1047.974],[29.1184,-25.3132,1072.1863],[29.0959,-25.3212,1158.5276],[29.0902,-25.2894,1030.1276],[29.0844,-25.2929,1052.1995],[29.0827,-25.2871,1023.6481],[29.0761,-25.2846,1027.4524],[29.0728,-25.2869,1030.5115],[29.0565,-25.2793,1162.6426],[29.0503,-25.2802,1202.457],[29.0384,-25.2765,1298.7957],[29.0349,-25.2646,1231.0018],[29.0414,-25.261,1175.1208],[29.0318,-25.2509,1164.5105],[29.0449,-25.2022,1041.6168],[29.0425,-25.1405,961.8878],[29.0898,-25.1485,975.8448],[29.0869,-25.1365,962.6976],[29.1284,-25.113,948.3602],[29.1058,-25.1004,919.0217],[29.1016,-25.1027,917.8971],[29.0979,-25.1003,914.616],[29.0942,-25.1032,915.7372],[29.0912,-25.1002,912.1144],[29.0883,-25.1036,910.1466],[29.0849,-25.0977,903.6767],[29.0903,-25.0918,901.7196],[29.0857,-25.0888,886.5391],[29.0707,-25.0655,948.611],[29.0188,-25.0549,978.7997],[28.9764,-25.0708,958.0494],[28.9754,-25.0687,958.0379],[28.9717,-25.0702,962.8127],[28.9462,-25.017,1006.7723],[28.9349,-25.0,1009.9091],[28.9103,-25.0071,990.4467],[28.9053,-24.996,992.6898],[28.9094,-24.9955,993.0339],[28.8916,-24.9555,1046.8612],[28.9418,-24.9336,1010.3162],[28.937,-24.9228,1014.7595],[28.9241,-24.9015,1020.8388],[28.8464,-24.9333,1020.0236],[28.8374,-24.916,1018.3555],[28.7594,-24.9114,1038.6354],[28.7138,-24.9536,1024.4514],[28.6588,-24.9722,1028.7234],[28.6338,-24.9844,1027.5366],[28.6057,-25.0034,1021.084],[28.6191,-25.0308,1005.6243],[28.6343,-25.0582,991.0466],[28.6095,-25.0599,1000.9346],[28.6069,-25.0704,1006.7924],[28.4737,-25.0893,1047.0042],[28.4952,-25.1318,1051.2],[28.4466,-25.1359,1069.5332],[28.443,-25.129,1070.1079],[28.4005,-25.1478,1095.3468],[28.3793,-25.1553,1089.7759],[28.3919,-25.1642,1110.7148],[28.411,-25.2048,1075.2112],[28.3869,-25.2134,1063.2268],[28.4616,-25.2015,1075.606],[28.4977,-25.1818,1046.4249],[28.5321,-25.1698,1025.3793],[28.5366,-25.1524,1045.7395],[28.5961,-25.1426,1006.1946],[28.5967,-25.1385,1004.2089],[28.6361,-25.1281,994.7316],[28.635,-25.1183,1001.1304],[28.6489,-25.1129,1000.2932],[28.6516,-25.1429,996.2341],[28.6683,-25.1385,979.7917],[28.7101,-25.1161,975.3374],[28.7446,-25.1096,971.5077],[28.7592,-25.1497,949.1703],[28.7574,-25.1499,949.1472],[28.7765,-25.1837,979.2057],[28.7754,-25.1838,979.2057],[28.7846,-25.2287,1246.6497],[28.7791,-25.2308,1295.5961],[28.7638,-25.2211,1261.1262],[28.7324,-25.2692,1238.4305],[28.7396,-25.2885,1228.6077],[28.7329,-25.2827,1225.8896],[28.6956,-25.2945,1348.0072],[28.6792,-25.303,1229.2178],[28.6413,-25.3276,1211.9967],[28.6332,-25.3315,1233.0223],[28.6226,-25.3337,1219.6377],[28.6389,-25.394,1289.4829],[28.6198,-25.4114,1283.8563],[28.6253,-25.4476,1241.51],[28.6295,-25.4594,1241.5413],[28.6208,-25.4632,1248.407],[28.6154,-25.4679,1249.675],[28.621,-25.4707,1251.1144],[28.6321,-25.4884,1271.6382],[28.634,-25.5199,1379.917],[28.6257,-25.5231,1361.2886],[28.6267,-25.5312,1371.1902],[28.635,-25.5592,1399.6643],[28.6455,-25.5858,1459.4897],[28.6473,-25.5856,1462.4158],[28.6425,-25.5899,1427.0248],[28.6747,-25.6588,1437.5992],[28.6727,-25.665,1435.4285],[28.6838,-25.6754,1467.9746],[28.7088,-25.6828,1507.4701],[28.7221,-25.6442,1506.5077],[28.7239,-25.6318,1470.7167],[28.7382,-25.6339,1461.3406],[28.7663,-25.647,1421.4012],[28.759,-25.678,1451.542],[28.7528,-25.6939,1491.8165],[28.7574,-25.6953,1481.3092],[28.7572,-25.7059,1496.6562],[28.7649,-25.7036,1501.4138],[28.7653,-25.7006,1491.9684],[28.7681,-25.7009,1493.9215],[28.7693,-25.6988,1489.9418],[28.7793,-25.7019,1489.7267],[28.7927,-25.7024,1454.692],[28.8082,-25.689,1412.0679],[28.8193,-25.6951,1443.1589],[28.847,-25.6824,1487.8167],[28.8229,-25.6589,1388.5105],[28.81,-25.6591,1420.141],[28.8115,-25.643,1381.7113],[28.836,-25.6374,1371.9175],[28.8355,-25.6456,1379.3531],[28.8416,-25.6545,1387.9808],[28.8457,-25.6523,1382.5674],[28.8693,-25.6581,1393.7377],[28.872,-25.6416,1359.2899],[28.8629,-25.6355,1361.4984],[28.8584,-25.6348,1363.0272],[28.8431,-25.5664,1512.9442],[28.8085,-25.5732,1503.4114],[28.7971,-25.542,1488.1505],[28.8219,-25.5224,1431.7354],[28.8518,-25.5018,1360.6699],[28.8699,-25.5247,1443.4504],[28.8741,-25.5271,1443.2012],[28.8582,-25.5691,1501.1733],[28.9101,-25.5245,1430.3088],[28.9152,-25.558,1383.0764],[28.9465,-25.5998,1624.7455],[29.0078,-25.5742,1246.5859],[28.9869,-25.5402,1349.7576],[28.9881,-25.5395,1354.6414],[28.9932,-25.5425,1329.031],[29.0067,-25.5376,1358.4523],[29.0106,-25.5332,1360.4094],[29.019,-25.5278,1413.3502],[29.0137,-25.5132,1360.7089],[29.036,-25.5213,1284.1631],[29.0422,-25.521,1262.9933],[29.0474,-25.517,1257.5815],[29.0482,-25.5202,1253.73],[29.0587,-25.5272,1234.2681],[29.0787,-25.4996,1413.4529],[29.0774,-25.4962,1446.8688],[29.08,-25.4946,1462.3619],[29.0914,-25.5306,1301.1926],[29.0984,-25.5377,1234.4933],[29.0869,-25.5486,1202.5187],[29.0684,-25.5523,1248.5698],[29.0343,-25.5634,1323.1147],[29.042,-25.5733,1278.1433],[29.0456,-25.5808,1243.0344],[29.04,-25.6175,1453.1716],[29.0642,-25.6207,1349.0653],[29.0661,-25.6305,1518.6494],[29.0565,-25.6326,1524.537],[29.0646,-25.6424,1560.248],[28.9688,-25.6733,1352.8721],[28.9507,-25.7283,1405.1477],[28.9813,-25.7425,1350.0485],[28.9576,-25.7746,1448.1257],[28.9382,-25.8233,1500.3746],[28.9433,-25.8244,1480.1958],[28.9504,-25.8374,1551.6729],[28.9382,-25.8886,1549.2202],[28.8868,-25.8714,1449.011],[28.8839,-25.8783,1436.5209],[28.889,-25.8803,1447.8713],[28.8795,-25.9252,1429.9817],[28.8825,-25.9698,1512.8762],[28.8833,-25.9714,1517.1105],[28.8852,-25.9714,1518.1599],[28.885,-25.9744,1513.5593],[28.8673,-26.007,1453.0421],[28.8648,-26.0013,1452.7549],[28.8329,-26.0048,1505.7949],[28.7939,-26.0046,1537.5439],[28.7739,-26.0137,1535.6116],[28.7624,-25.9831,1546.3005],[28.7579,-25.9837,1551.3909],[28.7575,-25.9906,1545.0604],[28.7108,-25.9906,1501.5925],[28.6527,-25.9743,1487.1128],[28.6323,-25.9708,1510.3308],[28.591,-26.0025,1561.7325],[28.5867,-26.016,1539.1907],[28.5789,-26.0596,1562.8827],[28.5386,-26.0478,1598.1165],[28.5308,-26.0616,1589.1638],[28.5158,-26.0585,1581.4004],[28.5031,-26.0638,1600.9934],[28.5158,-26.0812,1592.0378],[28.5012,-26.0896,1609.9274],[28.5052,-26.0992,1617.3489],[28.497,-26.1039,1624.1477],[28.4905,-26.1264,1629.738],[28.5213,-26.1445,1621.3582],[28.5271,-26.1787,1626.1859],[28.5343,-26.1722,1631.7723],[28.5305,-26.2253,1613.5417],[28.6223,-26.2484,1636.3892],[28.6269,-26.2924,1617.3829],[28.6728,-26.3117,1639.1514],[28.6727,-26.3209,1655.701],[28.7101,-26.3412,1640.1895],[28.7394,-26.3245,1643.5028],[28.7536,-26.3207,1651.49],[28.7789,-26.3169,1645.4865],[28.8051,-26.3066,1631.6313],[28.8178,-26.3457,1638.0272],[28.8384,-26.340699999999998,1599.59],[28.8503,-26.367,1628.4857],[28.8613,-26.3986,1685.3751],[28.8321,-26.4078,1681.5762],[28.8055,-26.4222,1648.4325],[28.7991,-26.4212,1660.4954],[28.8,-26.424,1651.8077],[28.7899,-26.4265,1663.9924],[28.7838,-26.4381,1655.043],[28.7865,-26.4492,1639.4449],[28.7803,-26.4505,1638.1836],[28.7659,-26.4715,1631.4041],[28.7639,-26.518,1649.1124],[28.6889,-26.5131,1631.9128],[28.6618,-26.5059,1600.6617],[28.6534,-26.5087,1597.5223],[28.6502,-26.5079,1598.7389],[28.6499,-26.5111,1597.1666],[28.6416,-26.5076,1596.9955],[28.6312,-26.5246,1650.8939],[28.6381,-26.5473,1649.1484],[28.5849,-26.5386,1614.3438],[28.5867,-26.52,1602.8774],[28.58,-26.518,1611.6442],[28.5772,-26.5268,1594.5825],[28.569,-26.525,1622.8994],[28.5738,-26.5161,1617.5084],[28.5437,-26.507,1681.6989],[28.5406,-26.5036,1696.5006],[28.5418,-26.501,1751.9723],[28.5375,-26.5033,1720.1139],[28.5332,-26.5009,1768.0679],[28.5277,-26.5022,1800.5898],[28.5242,-26.5285,1734.8585],[28.526,-26.5625,1578.1682],[28.5285,-26.5649,1675.6882],[28.533,-26.5779,1673.4583],[28.5278,-26.5906,1594.8501],[28.5054,-26.5897,1552.6865],[28.5089,-26.5938,1550.1155],[28.5063,-26.5965,1557.8435],[28.5076,-26.6038,1545.6561],[28.4988,-26.6039,1544.8577],[28.4911,-26.6105,1543.6752],[28.4877,-26.6086,1541.7234],[28.486,-26.6096,1541.0854],[28.4831,-26.6187,1541.8068],[28.4798,-26.6175,1546.8822],[28.4903,-26.6353,1658.8091],[28.4431,-26.6392,1643.9014],[28.4438,-26.6544,1688.2029],[28.422,-26.6547,1691.9683],[28.415,-26.6562,1672.1094],[28.4001,-26.655,1607.9921],[28.383,-26.7175,1549.5452],[28.394,-26.7167,1545.8324],[28.4069,-26.7617,1582.8833],[28.3482,-26.7729,1551.3917],[28.3491,-26.7779,1554.4166],[28.3426,-26.7791,1552.4337],[28.3435,-26.7855,1544.0675],[28.3394,-26.7856,1542.7686],[28.3194,-26.7927,1511.9227],[28.3216,-26.8117,1504.4761],[28.3183,-26.8118,1503.198],[28.3193,-26.8194,1501.3981],[28.3226,-26.8202,1505.146],[28.325,-26.8411,1506.7849],[28.3095,-26.8794,1523.884],[28.2835,-26.8771,1492.0475],[28.2843,-26.8644,1508.1161],[28.2633,-26.8665,1502.722],[28.2619,-26.8752,1504.4313],[28.2435,-26.8737,1508.1514],[28.2484,-26.8841,1516.0725],[28.2443,-26.8848,1483.0],[28.2515,-26.8892,1483.0],[28.2517,-26.893,1483.0],[28.2618,-26.9027,1483.0],[28.2618,-26.914,1483.0],[28.267,-26.9143,1483.0],[28.2775,-26.9065,1483.0],[28.2815,-26.9061,1483.0],[28.2814,-26.9148,1483.0],[28.2886,-26.9281,1483.0],[28.3022,-26.941,1483.0],[28.3069,-26.9401,1483.0],[28.3111,-26.9359,1483.0],[28.3143,-26.9249,1483.0],[28.3219,-26.9226,1483.0],[28.3299,-26.9238,1483.0],[28.3312,-26.9255,1483.0],[28.3305,-26.9281,1483.0],[28.3197,-26.9367,1483.0],[28.3206,-26.9419,1483.0],[28.3248,-26.949,1483.0],[28.3529,-26.9316,1483.0],[28.3621,-26.9318,1483.0],[28.3726,-26.9347,1483.0],[28.389,-26.9307,1483.0],[28.3968,-26.9339,1483.0],[28.4014,-26.9389,1483.0],[28.4004,-26.9509,1483.0],[28.405,-26.9551,1483.0],[28.4149,-26.973,1483.0],[28.4207,-26.9781,1483.0],[28.4291,-26.9892,1483.0],[28.4261,-26.994,1483.0],[28.4135,-27.0062,1483.0],[28.4148,-27.0104,1483.0],[28.4185,-27.013,1483.0],[28.4317,-27.0057,1483.0],[28.4513,-26.9813,1483.0],[28.4515,-26.9789,1483.7692],[28.4365,-26.9669,1485.5961],[28.4366,-26.9646,1484.1924],[28.4438,-26.9603,1483.0],[28.4514,-26.9638,1483.0],[28.4613,-26.9723,1483.0],[28.4616,-26.9774,1491.8732],[28.4645,-26.9829,1483.765],[28.4676,-26.9828,1483.3228],[28.4724,-26.98,1483.0],[28.4702,-26.9728,1483.0],[28.476,-26.9627,1483.0],[28.4757,-26.9602,1483.0],[28.4712,-26.9584,1483.0],[28.4703,-26.9565,1483.0],[28.4754,-26.9505,1483.0],[28.4779,-26.9503,1483.0],[28.4858,-26.9711,1483.0],[28.4924,-26.9756,1483.0],[28.5005,-26.9778,1485.1873],[28.5096,-26.9866,1485.5005],[28.5109,-26.9928,1483.0],[28.5043,-27.0021,1488.715],[28.5036,-27.008,1483.0],[28.5276,-27.018,1483.6206],[28.5308,-27.0271,1484.3676],[28.5385,-27.0337,1483.7909],[28.5429,-27.0347,1483.2952],[28.5495,-27.0413,1486.3552],[28.5497,-27.045,1485.262],[28.5457,-27.0529,1484.5634],[28.5364,-27.056,1484.4487],[28.5327,-27.0638,1488.5292],[28.5344,-27.067,1483.5745],[28.5546,-27.0604,1484.882],[28.5599,-27.0542,1487.1769],[28.5607,-27.0479,1488.301],[28.5592,-27.0411,1493.094],[28.5608,-27.0394,1484.6423],[28.569,-27.035,1485.025],[28.5762,-27.0392,1485.9086],[28.5833,-27.0378,1484.7642],[28.5933,-27.0238,1488.8585],[28.6089,-27.0207,1485.8085],[28.6083,-27.0082,1486.7031],[28.6255,-27.0107,1485.5378],[28.6394,-27.0199,1486.1396],[28.6444,-27.0203,1485.6958],[28.6473,-27.0166,1487.8931],[28.649,-27.0109,1486.6923],[28.6513,-27.0094,1486.8203],[28.6558,-26.9986,1486.7256],[28.6535,-26.9953,1487.3275],[28.6458,-26.9924,1487.614],[28.633,-26.9909,1490.6913],[28.6233,-26.9951,1487.6742],[28.6172,-27.0002,1487.397],[28.6097,-26.9938,1487.7235],[28.6059,-26.9944,1487.4979],[28.605,-26.9932,1486.8519],[28.6215,-26.9688,1490.6777],[28.6345,-26.962,1488.1797],[28.6369,-26.955,1487.3053],[28.6455,-26.9527,1489.2354],[28.6545,-26.9602,1490.9735],[28.6614,-26.9608,1491.8447],[28.6834,-26.9752,1490.4033],[28.7,-26.9757,1490.2454],[28.7062,-26.9687,1501.3896],[28.7109,-26.9692,1494.4274],[28.7138,-26.9716,1488.76],[28.715699999999998,-26.9791,1488.9636],[28.7254,-26.9846,1490.1403],[28.7311,-26.9955,1490.6886],[28.7365,-27.0017,1491.7456],[28.7437,-27.0034,1494.7394],[28.7552,-26.9974,1492.3723],[28.7639,-27.0019,1492.8672],[28.7707,-27.003,1492.8823],[28.7768,-27.0091,1492.5231],[28.7738,-27.019,1490.9011],[28.7922,-27.0254,1491.4449],[28.795,-27.0289,1499.7349],[28.7978,-27.0264,1495.4336],[28.802,-27.0172,1491.7457],[28.8013,-27.0126,1492.3145],[28.8049,-27.0115,1495.5206],[28.8098,-27.0193,1495.1592],[28.8117,-27.0334,1493.0452],[28.8108,-27.0383,1499.6205],[28.814,-27.0426,1493.932],[28.8259,-27.037,1492.9106],[28.8344,-27.0417,1497.615],[28.839,-27.0416,1499.3379],[28.8436,-27.0391,1493.8879],[28.8522,-27.0273,1495.3462],[28.8579,-27.0249,1495.9817],[28.8645,-27.0305,1496.1837],[28.8699,-27.0316,1493.9547],[28.8799,-27.0552,1497.3925],[28.8886,-27.0593,1496.5925],[28.8963,-27.0539,1498.8303],[28.9004,-27.0481,1501.7815],[28.8962,-27.0427,1500.5938],[28.8991,-27.0347,1496.9918],[28.898,-27.0296,1501.1748],[28.8939,-27.0265,1496.3065],[28.8853,-27.0248,1505.7528],[28.8936,-27.0134,1504.8647],[28.9042,-27.0198,1501.3473],[28.9075,-27.0201,1500.5796],[28.9128,-27.018,1506.8843],[28.9204,-27.0111,1505.7087],[28.9289,-27.0147,1498.8254],[28.9346,-27.0154,1499.8779],[28.9412,-27.0155,1500.21],[28.9543,-27.0117,1500.6133],[28.9615,-26.9989,1502.1769],[28.9661,-26.9949,1502.2136],[28.9672,-26.9916,1499.7814],[28.9695,-26.9916,1500.7338],[28.9935,-27.0032,1502.4779],[29.0097,-27.0064,1501.2006],[29.0227,-27.0153,1503.9603],[29.027,-27.0164,1503.08],[29.0281,-27.0184,1502.2622],[29.0262,-27.0221,1502.5388],[29.0312,-27.029,1505.4564],[29.0352,-27.0273,1503.6869],[29.0388,-27.0225,1502.0593],[29.0388,-27.0048,1502.3217],[29.0435,-27.0038,1502.493],[29.0504,-27.0057,1503.6509],[29.0572,-27.0093,1502.1466],[29.0598,-27.0164,1505.1052],[29.0536,-27.0299,1503.7195],[29.0533,-27.0337,1504.1753],[29.0649,-27.0428,1506.1445],[29.0615,-27.046,1504.9938],[29.0618,-27.0489,1505.085],[29.0683,-27.055,1507.3704],[29.072,-27.0563,1505.4689],[29.0708,-27.0601,1506.9148],[29.0742,-27.0632,1506.2356],[29.0733,-27.065,1508.7651],[29.0708,-27.064,1506.4161],[29.072,-27.0659,1506.0408],[29.0701,-27.0678,1506.9316],[29.0682,-27.0674,1506.3516],[29.0674,-27.0647,1506.0803],[29.0654,-27.0651,1506.9114],[29.061,-27.0718,1507.2979],[29.0621,-27.0755,1507.6418],[29.0609,-27.0785,1507.8971],[29.0557,-27.0787,1507.7725],[29.0557,-27.0813,1508.0367],[29.0619,-27.0853,1507.4937],[29.0647,-27.0837,1509.5632],[29.0673,-27.0855,1507.688],[29.0718,-27.0857,1509.8411],[29.0737,-27.0908,1508.3331],[29.0777,-27.0926,1508.6803],[29.0833,-27.1054,1508.8423],[29.0864,-27.1067,1509.3473],[29.0857,-27.1103,1509.3109],[29.0886,-27.113,1509.7858],[29.0862,-27.116,1509.9265],[29.0888,-27.1185,1510.175],[29.0927,-27.1182,1509.137],[29.0917,-27.1211,1510.4492],[29.097,-27.1227,1511.3651],[29.0992,-27.1269,1510.9304],[29.104,-27.1303,1513.2749],[29.1054,-27.1338,1511.0507],[29.1018,-27.1342,1511.2709],[29.1014,-27.1372,1511.5055],[29.1075,-27.1419,1511.5505],[29.1106,-27.1477,1511.4978],[29.1134,-27.1496,1512.1361],[29.1121,-27.1528,1512.7373],[29.1141,-27.1589,1513.5955],[29.1137,-27.1632,1512.212],[29.1169,-27.1724,1513.8225],[29.1206,-27.1719,1513.2662],[29.1244,-27.1672,1513.1217],[29.1265,-27.1671,1513.1699],[29.1269,-27.169,1513.9425],[29.1296,-27.1684,1513.6713],[29.1296,-27.1628,1514.5073],[29.1316,-27.1624,1514.9904],[29.1321,-27.1602,1513.9507],[29.1334,-27.1626,1514.5781],[29.1372,-27.1612,1514.3076],[29.138,-27.1584,1514.3225],[29.1363,-27.1546,1514.6268],[29.1377,-27.1524,1514.0557],[29.1417,-27.1538,1515.2235],[29.146,-27.1528,1514.7227],[29.1474,-27.1491,1514.6321],[29.151,-27.1519,1516.3818],[29.1527,-27.146,1515.511],[29.1562,-27.1449,1515.6414],[29.1588,-27.1461,1514.9448],[29.1595,-27.1431,1515.7668],[29.1701,-27.1414,1515.7778],[29.1782,-27.1465,1516.3992],[29.1798,-27.1441,1516.4033],[29.1831,-27.1454,1516.8322],[29.1902,-27.1432,1518.2324],[29.1897,-27.1409,1517.844],[29.1926,-27.1403,1517.4767],[29.1927,-27.1371,1520.5173],[29.195,-27.1402,1517.4276],[29.204,-27.1449,1518.2217],[29.2097,-27.1424,1518.5474],[29.2158,-27.1476,1517.5555],[29.2239,-27.1447,1519.106],[29.2278,-27.1471,1518.4348],[29.2271,-27.1499,1519.3279],[29.2292,-27.151,1519.144],[29.227,-27.1553,1524.0829],[29.2286,-27.1568,1518.1866],[29.2281,-27.1611,1517.4832],[29.2307,-27.1604,1518.4786],[29.2298,-27.1672,1518.915],[29.2355,-27.1731,1522.9524],[29.2365,-27.1776,1521.2158],[29.2347,-27.1832,1524.8932],[29.2412,-27.1823,1520.8811],[29.2437,-27.1835,1524.4758],[29.2434,-27.1852,1520.6895],[29.2406,-27.1846,1520.5449],[29.2396,-27.1863,1521.0724],[29.2419,-27.1884,1520.1842],[29.2426,-27.1861,1520.6895],[29.2443,-27.1862,1523.1394],[29.2465,-27.1885,1523.4443],[29.2453,-27.1909,1521.6892],[29.2463,-27.192,1521.907],[29.2541,-27.1897,1523.1298],[29.2535,-27.194,1522.8768],[29.2563,-27.1946,1526.8152],[29.2583,-27.1843,1522.282],[29.2604,-27.1813,1522.2114],[29.2629,-27.183,1523.2904],[29.2602,-27.1838,1522.1688],[29.2633,-27.1874,1522.4548],[29.2658,-27.1868,1522.4073],[29.2668,-27.184,1522.6605],[29.2682,-27.1849,1522.334],[29.2657,-27.1916,1522.8291],[29.2703,-27.1893,1523.1545],[29.2694,-27.1929,1523.1675],[29.2708,-27.1958,1523.6555],[29.2683,-27.1961,1524.7328],[29.2682,-27.1983,1526.2823],[29.2719,-27.1962,1523.6555],[29.2722,-27.1916,1523.6213],[29.2747,-27.1927,1528.7212],[29.2732,-27.1956,1523.9156],[29.2767,-27.1943,1524.3107],[29.282,-27.195,1524.4202],[29.2807,-27.1989,1524.8806],[29.2819,-27.1996,1525.0588],[29.285,-27.195,1525.1644],[29.2819,-27.1921,1524.5127],[29.2839,-27.1936,1524.0188],[29.2841,-27.1907,1525.182],[29.2864,-27.1903,1525.4191],[29.2871,-27.1911,1525.2753],[29.2849,-27.1925,1525.2053],[29.2876,-27.1927,1525.116],[29.2887,-27.1965,1526.2739],[29.2917,-27.1996,1526.806],[29.2957,-27.201,1527.0771],[29.2954,-27.2031,1527.0472],[29.298,-27.2041,1526.6821],[29.2972,-27.2058,1527.4602],[29.2988,-27.2092,1527.6379],[29.3019,-27.2097,1527.2855],[29.3005,-27.2119,1527.9501],[29.309,-27.2162,1527.8827],[29.312,-27.2141,1527.9656],[29.3112,-27.2113,1529.8956],[29.3255,-27.2085,1529.0283],[29.3299,-27.2036,1557.4932],[29.3308,-27.208,1528.4211],[29.3351,-27.2074,1529.1124],[29.3312,-27.2103,1528.8573],[29.3311,-27.213,1531.1216],[29.3341,-27.2141,1529.6899],[29.3315,-27.2182,1531.4531],[29.3329,-27.2191,1529.5782],[29.3329,-27.217,1530.085],[29.3355,-27.2173,1531.1437],[29.3359,-27.2145,1530.6255],[29.3371,-27.2181,1529.8337],[29.3356,-27.2219,1530.0598],[29.3377,-27.2239,1530.3342],[29.3365,-27.2246,1531.1924],[29.3351,-27.2226,1530.0598],[29.3335,-27.2239,1531.1766],[29.3362,-27.2267,1531.3086],[29.3321,-27.2305,1544.3297],[29.3361,-27.232,1531.0461],[29.3382,-27.2351,1531.5824],[29.3344,-27.2364,1532.616],[29.3352,-27.2398,1535.7529],[29.3321,-27.2446,1532.4008],[29.3281,-27.2466,1533.3522],[29.3253,-27.2521,1532.9097],[29.3312,-27.2634,1536.715],[29.3392,-27.2637,1535.2501],[29.3408,-27.2604,1547.8036],[29.3397,-27.252,1565.2307],[29.3427,-27.2485,1537.3602],[29.3532,-27.2498,1537.3013],[29.3619,-27.247,1535.0159],[29.3698,-27.2515,1550.4631],[29.3751,-27.251,1535.6665],[29.3807,-27.2474,1547.4436],[29.3845,-27.249,1537.1101],[29.3884,-27.246,1535.8923],[29.389,-27.2475,1535.917],[29.3863,-27.2489,1535.3982],[29.3875,-27.2499,1539.6853],[29.3902,-27.2477,1541.3672],[29.3869,-27.2436,1539.2092],[29.3909,-27.2427,1542.0404],[29.4002,-27.2429,1536.8083],[29.4015,-27.2496,1549.266],[29.4043,-27.2523,1538.2283],[29.4107,-27.2523,1537.2483],[29.4151,-27.2505,1539.1115],[29.4194,-27.2554,1556.2147],[29.422,-27.254,1540.2429],[29.4213,-27.2566,1544.6877],[29.4233,-27.2576,1538.9655],[29.4265,-27.2563,1540.3992],[29.4248,-27.2547,1537.5015],[29.4282,-27.2539,1539.2106],[29.432,-27.2622,1538.0417],[29.4343,-27.2613,1538.3641],[29.4357,-27.2628,1538.7311],[29.4364,-27.261,1539.5027],[29.4395,-27.2677,1542.1781],[29.4434,-27.2669,1540.2739],[29.4481,-27.273,1543.701],[29.4483,-27.2754,1541.4991],[29.4507,-27.2748,1540.079],[29.4506,-27.2781,1540.3723],[29.4517,-27.2763,1540.4531],[29.4533,-27.277,1540.4531],[29.4552,-27.2796,1541.1483],[29.4548,-27.2826,1546.144],[29.4566,-27.2815,1541.5068],[29.4565,-27.2842,1541.1566],[29.4603,-27.2844,1543.2731],[29.4591,-27.2863,1545.9929],[29.4611,-27.2867,1541.3787],[29.4617,-27.2853,1542.2386],[29.4637,-27.2877,1541.5302],[29.4663,-27.299,1542.7515],[29.4687,-27.2987,1543.5179],[29.47,-27.3003,1543.8718],[29.4687,-27.3015,1543.5326],[29.4709,-27.3015,1543.3102],[29.4697,-27.3036,1551.3572],[29.4722,-27.3095,1547.7604],[29.4676,-27.3156,1576.5251],[29.4702,-27.3204,1564.4166],[29.4694,-27.3248,1568.6882],[29.4807,-27.3328,1572.957],[29.4826,-27.3322,1584.5894],[29.4833,-27.3281,1576.6304],[29.4864,-27.3274,1581.793],[29.4837,-27.3388,1585.6466],[29.4865,-27.340699999999998,1586.5358],[29.4878,-27.3375,1587.302],[29.4901,-27.3369,1584.5961],[29.4899,-27.3447,1587.0366],[29.4848,-27.347,1593.4655],[29.4871,-27.3506,1587.9399],[29.483,-27.3569,1595.786],[29.4828,-27.36,1595.4634],[29.4865,-27.3628,1598.7961],[29.5029,-27.3582,1602.8265],[29.5052,-27.365,1606.834],[29.5124,-27.3678,1608.2866],[29.5095,-27.3692,1607.3345],[29.5087,-27.3727,1608.7075],[29.5088,-27.3764,1612.0908],[29.5119,-27.3796,1614.0103],[29.52,-27.3844,1617.3953],[29.5222,-27.3828,1619.1624],[29.5184,-27.3779,1625.05],[29.5239,-27.3772,1626.105],[29.5271,-27.3783,1624.4772],[29.5304,-27.3828,1640.4822],[29.5298,-27.3864,1664.2318],[29.5257,-27.3863,1637.9852],[29.5271,-27.3941,1642.0073],[29.5381,-27.387,1649.9124],[29.5416,-27.3915,1660.506],[29.5435,-27.399,1654.795],[29.552,-27.3988,1663.9519],[29.5489,-27.4047,1660.1826],[29.5492,-27.4092,1661.9716],[29.552,-27.4136,1664.045],[29.5474,-27.4141,1663.1609],[29.5425,-27.42,1665.8577],[29.55,-27.4241,1666.3022],[29.5465,-27.4311,1667.5491],[29.5599,-27.4322,1673.9812],[29.5613,-27.4413,1677.7812],[29.5633,-27.4427,1679.1213],[29.5691,-27.4421,1683.3795],[29.5791,-27.4545,1680.2448],[29.5787,-27.4565,1679.908],[29.5767,-27.4569,1680.0601],[29.5781,-27.4596,1680.2769],[29.58,-27.4584,1680.0992],[29.581,-27.4607,1680.3135],[29.5846,-27.4619,1680.4569],[29.5836,-27.4623,1680.4569],[29.5845,-27.4644,1681.0779],[29.589,-27.4632,1681.2712],[29.5897,-27.4663,1681.4072],[29.6007,-27.4701,1683.0415],[29.5998,-27.4728,1681.6503],[29.6016,-27.4718,1681.6503],[29.6029,-27.4741,1682.4215],[29.601,-27.4768,1682.2612],[29.6039,-27.4802,1682.7141],[29.6018,-27.4816,1682.3369],[29.6049,-27.4854,1682.3931],[29.604,-27.4942,1683.6121],[29.6068,-27.4966,1683.9536],[29.6093,-27.4964,1683.9913],[29.6192,-27.5061,1686.3408],[29.6255,-27.5057,1685.8519],[29.6297,-27.5023,1694.666],[29.6368,-27.5047,1689.4786],[29.6494,-27.5042,1687.1792],[29.6505,-27.4998,1687.1575],[29.6551,-27.4962,1698.5436],[29.6669,-27.4959,1688.4631],[29.6741,-27.498,1692.2092],[29.6795,-27.4968,1690.0519],[29.681,-27.5001,1691.9998],[29.6858,-27.4978,1698.4897],[29.6883,-27.4935,1695.8401],[29.6936,-27.4923,1715.1636],[29.6989,-27.4947,1710.6305],[29.7014,-27.4939,1713.7563],[29.7065,-27.4879,1712.1068],[29.7049,-27.4858,1714.1211],[29.7063,-27.4817,1723.2559],[29.6992,-27.4778,1735.5747],[29.6977,-27.4754,1756.5044],[29.6993,-27.4747,1734.3416],[29.6984,-27.4726,1734.5935],[29.7024,-27.4659,1737.2427],[29.6994,-27.4591,1748.3719],[29.6991,-27.4508,1757.9196],[29.7044,-27.4454,1757.7306],[29.7172,-27.4403,1803.2804],[29.717,-27.4384,1793.0175],[29.7197,-27.4383,1800.8245],[29.721,-27.4332,1790.9347],[29.7226,-27.4323,1792.5486],[29.7325,-27.4309,1808.6331],[29.7446,-27.4326,1885.0098],[29.7734,-27.4538,2133.4548],[29.7909,-27.4592,2115.9631],[29.7962,-27.4577,2123.592],[29.7991,-27.4512,2011.0334],[29.8058,-27.4504,1980.0869],[29.8114,-27.4461,2012.9131],[29.8113,-27.4356,1951.2017],[29.8137,-27.4339,1939.3494],[29.8145,-27.4306,1951.3782],[29.8227,-27.4273,1941.5106],[29.8217,-27.4115,1934.2252],[29.8249,-27.407,1937.9827],[29.8337,-27.4038,1921.9108],[29.836,-27.3969,1931.2266],[29.8349,-27.3903,1937.1532],[29.8402,-27.379,1732.2274],[29.8463,-27.3787,1710.9818],[29.8662,-27.3841,1671.7012],[29.8851,-27.3766,1636.2544],[29.8864,-27.3818,1620.1168],[29.8902,-27.3855,1591.8918],[29.8988,-27.3858,1568.2621],[29.9085,-27.3749,1693.907]]]]}}