{"type": "Feature","id": "1209","bbox": [28.28874,-27.51088,31.99575,-23.96296],"geometry": {"type": "Polygon","coordinates": [[[31.92631,-24.27674,251.4932],[31.86945,-24.1638,302.0509],[31.86305,-24.12142,266.9317],[31.85649,-23.96296,218.4569],[31.85623,-23.96308,218.4569],[31.85256,-23.96484,214.4641],[31.84419,-23.9682,230.9516],[31.83535,-23.96996,223.6842],[31.82,-23.97084,223.5913],[31.80739,-23.97037,228.6068],[31.80166,-23.96836,178.8641],[31.79158,-23.9636,189.1333],[31.78646,-23.96339,181.848],[31.77995,-23.96531,157.7003],[31.73525,-24.00138,212.2823],[31.7337,-24.00365,195.6439],[31.73215,-24.00778,194.6343],[31.72611,-24.03817,210.2972],[31.72471,-24.04153,215.6806],[31.72176,-24.04484,218.2942],[31.71742,-24.04763,210.4021],[31.71231,-24.04995,220.2583],[31.70342,-24.05099,203.8804],[31.69288,-24.05057,204.3849],[31.67365,-24.04634,221.5621],[31.66621,-24.04081,241.9504],[31.66203,-24.03429,217.548],[31.66094,-24.02825,233.441],[31.65924,-24.02267,215.7301],[31.65614,-24.01848,211.9721],[31.65205,-24.01528,198.3835],[31.64699,-24.01311,211.0865],[31.64043,-24.0128,215.829],[31.63345,-24.01373,223.103],[31.62477,-24.01864,217.2222],[31.61934,-24.02282,219.0426],[31.615,-24.02716,220.7628],[31.60368,-24.04386,229.0558],[31.60027,-24.04747,245.9722],[31.595,-24.04964,233.0381],[31.58921,-24.05006,224.0636],[31.58208,-24.04727,217.9869],[31.57805,-24.04323,218.2868],[31.57139,-24.03486,215.0851],[31.56611,-24.0329,227.9292],[31.55914,-24.03393,221.2924],[31.54395,-24.04313,229.4477],[31.53692,-24.04623,257.4562],[31.52421,-24.04499,276.5404],[31.51692,-24.04251,247.3026],[31.50266,-24.03471,257.0241],[31.47377,-24.02639,260.5766],[31.46803,-24.02561,256.1921],[31.45718,-24.02256,258.7927],[31.4516,-24.02158,232.8383],[31.44555,-24.02267,244.2115],[31.43703,-24.02995,251.8662],[31.4207,-24.04758,266.913],[31.41264,-24.05414,284.3708],[31.40736,-24.05672,272.1024],[31.40101,-24.05812,283.4724],[31.39078,-24.05662,243.4698],[31.38427,-24.05429,255.3085],[31.37682,-24.05352,280.0209],[31.36918,-24.05553,307.8909],[31.35662,-24.06318,276.6176],[31.3498,-24.06835,306.2664],[31.34081,-24.07667,252.7128],[31.33553,-24.07931,258.2134],[31.32871,-24.0806,257.0329],[31.29099,-24.07403,283.9066],[31.27549,-24.07719,328.9476],[31.24846,-24.1007,304.1805],[31.39248,-24.10783,298.9125],[31.45238,-24.11703,308.8699],[31.47873,-24.15269,361.3229],[31.45532,-24.19708,371.9088],[31.45067,-24.25723,412.3051],[31.38504,-24.40859,467.1796],[31.4024,-24.4397,433.3313],[31.37527,-24.48352,428.1707],[31.45113,-24.48522,418.2761],[31.45082,-24.49484,431.0972],[31.45672,-24.49871,427.6071],[31.45424,-24.50393,430.1408],[31.45284,-24.51148,438.6425],[31.45486,-24.5278,461.5256],[31.46292,-24.54382,432.4477],[31.57433,-24.61214,374.8474],[31.5919,-24.63452,387.1657],[31.5995,-24.64971,374.3509],[31.595,-24.66103,361.7065],[31.58472,-24.6695,361.0522],[31.56844,-24.67234,385.3802],[31.55077,-24.67188,390.307],[31.53867,-24.67911,402.7299],[31.52917,-24.69348,413.795],[31.51707,-24.72056,396.1655],[31.48932,-24.73069,383.368],[31.44726,-24.73616,392.4933],[31.40132,-24.74795,394.5481],[31.3653,-24.77012,378.6877],[31.35398,-24.82706,457.7348],[31.35615,-24.84835,465.7388],[31.36732,-24.85688,443.6861],[31.38179,-24.85817,458.0844],[31.40287,-24.86494,443.8502],[31.45579,-24.87657,399.8624],[31.46633,-24.89063,367.5645],[31.46726,-24.91677,376.4798],[31.46989,-24.936,372.1265],[31.43114,-24.98654,312.7147],[31.42085,-24.98271,327.9201],[31.39016,-24.97713,340.5207],[31.32189,-24.97796,378.4782],[31.31564,-24.97904,379.9615],[31.30959,-24.98307,376.8868],[31.30339,-24.98638,383.5877],[31.29595,-24.98871,384.2993],[31.27673,-24.98793,397.1677],[31.27099,-24.98871,394.1816],[31.26556,-24.99062,418.3458],[31.25931,-24.99615,415.9917],[31.25683,-24.99868,413.9464],[31.2558,-25.00054,412.4064],[31.25487,-25.00566,406.8114],[31.25342,-25.0101,404.377],[31.25079,-25.01439,405.0032],[31.22195,-25.02126,418.9191],[31.11038,-25.02989,489.2502],[31.11224,-24.97698,589.0004],[31.12371,-24.9529,671.9893],[31.15803,-24.93724,569.6443],[31.21079,-24.92701,588.7026],[31.21947,-24.90716,502.898],[31.19823,-24.88892,497.5656],[31.17927,-24.84996,518.4149],[31.16454,-24.79962,538.6984],[31.15353,-24.78557,515.2209],[31.13317,-24.76991,554.3655],[31.0955,-24.75823,574.8613],[31.08868,-24.73647,589.438],[31.10371,-24.72288,542.7562],[31.15617,-24.70836,512.1798],[31.17477,-24.68438,516.2523],[31.18159,-24.66904,489.741],[31.17616,-24.65849,507.829],[31.16686,-24.65483,519.9908],[31.15601,-24.65415,511.749],[31.13503,-24.65653,549.2703],[31.11627,-24.65405,593.1493],[31.0986,-24.64227,600.8582],[31.08087,-24.62527,628.7913],[31.05281,-24.56708,635.1952],[30.98486,-24.55592,621.3872],[30.96729,-24.52703,639.8755],[30.86879,-24.5061,875.2211],[30.83619,-24.49142,560.1865],[30.75908,-24.42099,661.6687],[30.73919,-24.45737,1461.7706],[30.73345,-24.4721,1406.5826],[30.72725,-24.51411,1094.8203],[30.65992,-24.53023,1127.6042],[30.64374,-24.52434,1176.8403],[30.62126,-24.53525,1237.6519],[30.61475,-24.55674,1034.158],[30.60405,-24.58196,967.0597],[30.58617,-24.59834,1142.9608],[30.54556,-24.61137,1136.8436],[30.49636,-24.59111,1518.282],[30.37844,-24.56537,683.9745],[30.33823,-24.57679,676.314],[30.29183,-24.58331,850.3209],[30.25431,-24.58455,1191.9558],[30.23581,-24.60827,956.4478],[30.22604,-24.61354,856.0061],[30.21426,-24.61255,885.8501],[30.19085,-24.59736,1062.0322],[30.17297,-24.58971,968.329],[30.15499,-24.59504,907.8621],[30.11587,-24.611,948.4739],[30.11308,-24.694,1182.9675],[30.13669,-24.73508,810.6608],[30.1339,-24.76774,801.0199],[30.11726,-24.79885,766.3777],[30.06838,-24.8252,1070.9624],[29.93619,-24.91683,961.1578],[29.82927,-24.99971,1449.2529],[29.82896,-25.00561,1415.6523],[29.81082,-25.02974,1253.6863],[29.78069,-25.04255,1697.5837],[29.77527,-25.06131,1717.698],[29.78348,-25.07366,1376.314],[29.79594,-25.08188,1200.9563],[29.8195,-25.1104,1147.2115],[29.81237,-25.13511,1140.5135],[29.79294,-25.14384,1574.4463],[29.78069,-25.17014,1667.5469],[29.69755,-25.19304,1328.0953],[29.63171,-25.18601,1427.406],[29.58474,-25.17474,1320.6884],[29.55787,-25.15123,1378.6904],[29.52453,-25.11593,1310.5031],[29.50898,-25.10322,1365.6541],[29.4989,-25.09785,1207.9298],[29.491,-25.09645,1147.3643],[29.48231,-25.08891,1150.5331],[29.46542,-25.06772,1195.3523],[29.45668,-25.04602,1155.0383],[29.40506,-24.9963,930.2147],[29.39648,-24.99542,898.3153],[29.38873,-24.99723,909.1288],[29.38625,-24.99925,914.0611],[29.36904,-25.01031,869.7089],[29.36454,-25.01217,867.559],[29.3602,-25.0117,854.2191],[29.35788,-25.00948,858.6678],[29.35535,-25.00623,856.8808],[29.35255,-24.99832,864.1487],[29.35245,-24.99651,861.2526],[29.35571,-24.99072,853.9255],[29.36811,-24.97966,853.5396],[29.36981,-24.97868,848.8038],[29.37555,-24.97605,857.9318],[29.37943,-24.97315,856.7556],[29.38222,-24.9668,865.1171],[29.38392,-24.95796,881.1656],[29.38377,-24.94137,853.9432],[29.38253,-24.93212,860.4463],[29.3802,-24.92499,856.0312],[29.36129,-24.88597,828.3668],[29.36175,-24.87889,829.9257],[29.36485,-24.87042,823.9606],[29.37509,-24.85724,822.2101],[29.3816,-24.85058,821.0],[29.38702,-24.84618,826.3491],[29.39136,-24.8453,821.0],[29.39493,-24.84748,821.0],[29.40237,-24.85378,821.7411],[29.40723,-24.85523,821.4188],[29.4125,-24.85445,821.0],[29.41731,-24.85228,827.7174],[29.42211,-24.84975,827.6006],[29.42614,-24.84639,833.9068],[29.43343,-24.83916,821.0],[29.43482,-24.83027,824.6149],[29.43498,-24.81621,826.9965],[29.42893,-24.78805,821.0],[29.42738,-24.75771,790.7282],[29.35442,-24.78376,946.4886],[29.31147,-24.8096,1034.1987],[29.23494,-24.82934,927.5874],[29.20889,-24.85027,942.8397],[29.19339,-24.86747,929.4647],[29.18936,-24.88954,918.9034],[29.16978,-24.93315,904.9542],[29.16047,-24.94292,914.798],[29.07454,-24.97992,944.0655],[29.03697,-24.9129,959.9567],[29.02891,-24.90845,967.5897],[29.01294,-24.88551,958.6785],[28.98141,-24.8807,972.0538],[28.93625,-24.88556,1015.0597],[28.9364,-24.94514,1015.3856],[28.91082,-24.93533,1034.6033],[28.83259,-24.94029,1013.7031],[28.77843,-24.93533,1023.3594],[28.75626,-24.93688,1029.4397],[28.73156,-24.94277,1032.5601],[28.71048,-24.95197,1025.5568],[28.68117,-24.96819,1024.4163],[28.59736,-25.00297,1019.5019],[28.59301,-25.01909,1018.672],[28.59332,-25.03563,1015.7319],[28.58697,-25.06601,1008.9467],[28.56893,-25.08188,1017.6642],[28.52832,-25.09433,1037.0261],[28.50206,-25.09971,1043.2147],[28.47772,-25.10787,1053.0336],[28.45881,-25.11733,1062.9885],[28.44775,-25.13495,1068.9807],[28.40931,-25.15417,1102.391],[28.37329,-25.1673,1082.3301],[28.35964,-25.17727,1074.4423],[28.35453,-25.18864,1067.5109],[28.35794,-25.19996,1061.7825],[28.3691,-25.21779,1059.9155],[28.39205,-25.22368,1065.0917],[28.43349,-25.21913,1077.4175],[28.46749,-25.21061,1063.7489],[28.48858,-25.20079,1043.5062],[28.5061,-25.18931,1038.6802],[28.51715,-25.18384,1043.7914],[28.60573,-25.1579,1010.5038],[28.62454,-25.15128,995.3876],[28.71141,-25.14069,974.6569],[28.75176,-25.1149,969.0418],[28.82933,-25.11051,950.3154],[28.85295,-25.14105,970.413],[28.8593,-25.15113,989.302],[28.86783,-25.15293,971.6678],[28.89356,-25.1395,961.1415],[28.9085,-25.13485,964.7166],[28.9178,-25.13671,975.4315],[28.92214,-25.1426,969.3779],[28.92028,-25.15169,979.1723],[28.91532,-25.15914,990.2127],[28.90183,-25.17185,1007.8488],[28.89868,-25.1782,1017.6273],[28.89853,-25.18807,1067.5981],[28.90059,-25.20353,1072.4451],[28.89961,-25.2182,1011.3155],[28.8962,-25.22781,1038.8771],[28.89077,-25.23277,1057.1851],[28.88612,-25.23391,1071.8032],[28.88147,-25.23019,1042.0125],[28.86969,-25.21185,1066.0281],[28.86054,-25.20632,1121.1055],[28.84892,-25.21495,1125.9177],[28.85248,-25.24575,1050.3643],[28.86039,-25.26745,1227.9111],[28.86132,-25.27939,1209.1118],[28.85853,-25.2907,1242.715],[28.85202,-25.30145,1251.0677],[28.84375,-25.31065,1325.5297],[28.80282,-25.34155,1418.6769],[28.80546,-25.36155,1433.2505],[28.86333,-25.38238,1395.3271],[28.90679,-25.37008,1346.8794],[28.92927,-25.35313,1255.719],[28.96762,-25.3507,1250.7708],[28.99258,-25.34372,1201.2555],[29.04115,-25.35706,1324.9707],[29.06534,-25.34409,1204.231],[29.14078,-25.32595,1180.4697],[29.15861,-25.32812,1105.3718],[29.19401,-25.33943,1113.0249],[29.22703,-25.33504,1066.4688],[29.24491,-25.3431,1146.8682],[29.246,-25.3598,1191.5718],[29.23866,-25.37897,1245.4456],[29.21587,-25.42238,1432.02],[29.15923,-25.41938,1451.9244],[29.13908,-25.43969,1476.7295],[29.13241,-25.45545,1493.2129],[29.12089,-25.47447,1484.1085],[29.09593,-25.48237,1502.9617],[29.09035,-25.49441,1498.2604],[29.08663,-25.49787,1458.5382],[29.08895,-25.50247,1472.0007],[29.08477,-25.50981,1423.3135],[29.07996,-25.53126,1266.6776],[29.052,-25.56009,1257.6794],[29.0317,-25.62619,1470.6959],[28.97599,-25.67368,1347.2966],[28.96229,-25.70148,1317.1951],[28.96731,-25.72551,1364.7971],[28.95795,-25.76556,1416.8967],[28.94168,-25.80065,1510.4827],[28.94106,-25.82178,1491.9406],[28.93764,-25.84514,1464.1843],[28.93113,-25.85682,1495.2261],[28.91641,-25.87408,1496.7545],[28.88147,-25.89568,1451.4927],[28.84551,-25.98622,1469.9401],[28.83755,-26.0241,1529.4537],[28.7651,-26.02229,1549.7977],[28.74727,-26.00849,1525.8281],[28.71869,-26.00337,1499.9321],[28.70955,-26.00017,1486.6235],[28.60201,-25.9997,1524.6128],[28.59767,-26.00358,1538.4238],[28.57069,-26.03588,1538.4222],[28.56118,-26.05681,1594.5436],[28.54971,-26.07603,1574.7727],[28.53653,-26.08058,1582.4156],[28.50098,-26.08001,1592.0364],[28.4878,-26.08321,1609.0554],[28.47586,-26.0874,1620.5454],[28.45085,-26.1043,1613.0869],[28.47292,-26.15101,1596.8276],[28.4861,-26.15768,1611.3832],[28.50346,-26.19277,1618.35],[28.51452,-26.22915,1595.533],[28.52723,-26.24837,1583.7303],[28.57829,-26.27989,1586.855],[28.5848,-26.28661,1596.9875],[28.58945,-26.29633,1607.8567],[28.59038,-26.32764,1600.2253],[28.65694,-26.33922,1659.0065],[28.70009,-26.35147,1632.4585],[28.81863,-26.33576,1629.8218],[28.86209,-26.41704,1689.1685],[28.75967,-26.49213,1633.7023],[28.74882,-26.50257,1626.5404],[28.74231,-26.50737,1621.7136],[28.72877,-26.5204,1614.8724],[28.63012,-26.5404,1659.0349],[28.61518,-26.55414,1653.7305],[28.57565,-26.55569,1638.0132],[28.54273,-26.56685,1630.3933],[28.52165,-26.58473,1632.2367],[28.50641,-26.61295,1575.217],[28.50129,-26.61677,1576.9244],[28.49323,-26.61853,1567.0022],[28.4771,-26.62359,1536.8118],[28.4661,-26.63264,1563.9634],[28.45307,-26.65134,1611.2535],[28.42992,-26.66183,1680.3864],[28.37763,-26.69925,1530.9479],[28.35577,-26.7423,1529.9275],[28.35561,-26.74927,1526.3379],[28.35639,-26.74979,1523.0154],[28.35825,-26.75067,1526.9438],[28.36166,-26.75423,1530.9031],[28.36476,-26.76322,1531.39],[28.36197,-26.781,1556.8218],[28.33618,-26.79707,1526.8855],[28.32239,-26.81423,1506.2512],[28.30378,-26.82942,1522.3322],[28.29929,-26.85495,1490.3085],[28.30363,-26.86947,1502.3357],[28.28874,-26.9135,1486.6943],[28.32332,-26.93035,1488.7949],[28.34083,-26.93293,1483.0],[28.36305,-26.93153,1483.0],[28.38584,-26.93293,1483.0],[28.39582,-26.93634,1483.676],[28.40202,-26.94104,1483.0],[28.40651,-26.95804,1483.0],[28.40884,-26.96311,1483.0],[28.41225,-26.96884,1483.0],[28.41737,-26.97474,1483.0],[28.42636,-26.98264,1483.4874],[28.4338,-26.98445,1492.8865],[28.43969,-26.98383,1483.2831],[28.44434,-26.98078,1483.0],[28.45473,-26.96946,1485.7463],[28.46036,-26.96611,1494.5601],[28.46765,-26.96404,1503.8707],[28.48036,-26.96357,1491.8691],[28.48718,-26.96605,1488.5289],[28.49245,-26.96962,1493.1274],[28.50253,-26.98264,1483.0],[28.51436,-26.99251,1489.2827],[28.51917,-27.00321,1513.335],[28.54671,-27.01391,1508.7726],[28.54986,-27.02212,1524.7817],[28.54211,-27.03489,1483.2952],[28.53483,-27.0583,1484.281],[28.54702,-27.05411,1501.7837],[28.59317,-27.01716,1533.4003],[28.60604,-27.01127,1497.137],[28.62009,-27.00972,1491.0972],[28.64128,-27.00988,1501.7941],[28.65771,-27.00584,1491.234],[28.65503,-26.99685,1489.8206],[28.63787,-26.98259,1501.347],[28.62934,-26.97778,1502.396],[28.62268,-26.97949,1502.2816],[28.62009,-26.97939,1493.444],[28.62361,-26.96952,1495.9606],[28.65182,-26.95572,1490.2693],[28.69704,-26.97132,1516.9421],[28.7744,-27.01732,1491.0098],[28.78628,-27.02181,1494.3562],[28.79404,-27.02285,1509.2056],[28.80148,-27.02522,1500.4271],[28.81228,-27.03411,1493.0452],[28.82266,-27.03912,1494.3778],[28.83362,-27.03721,1498.0],[28.84416,-27.03287,1502.043],[28.85357,-27.03034,1503.3246],[28.86246,-27.03334,1501.3069],[28.86799,-27.03928,1502.4514],[28.87393,-27.04424,1498.5447],[28.88426,-27.04403,1512.9526],[28.89294,-27.03923,1512.34],[28.90483,-27.02445,1521.2068],[28.91222,-27.01732,1501.6182],[28.92183,-27.01282,1501.9233],[28.93057,-27.01143,1502.6952],[28.93945,-27.00864,1522.0369],[28.94943,-26.99995,1524.1196],[28.95857,-26.99499,1513.5146],[28.97072,-26.99422,1502.7217],[28.99041,-26.99623,1506.2356],[29.03511,-27.02352,1505.0347],[29.04446,-27.02641,1514.417],[29.05278,-27.02662,1505.8586],[29.05743,-27.03034,1505.8491],[29.05619,-27.04403,1505.7012],[29.05945,-27.0523,1506.0182],[29.06007,-27.05525,1506.0852],[29.05929,-27.06646,1506.6841],[29.06038,-27.07173,1506.7406],[29.06317,-27.07592,1507.2761],[29.07154,-27.08227,1532.6614],[29.07516,-27.08599,1517.4933],[29.07826,-27.09013,1508.7209],[29.08322,-27.09959,1508.5],[29.09159,-27.12031,1510.4492],[29.10074,-27.13721,1511.5055],[29.10477,-27.14279,1510.3915],[29.11267,-27.15131,1512.7373],[29.11965,-27.15421,1539.9207],[29.12559,-27.15395,1556.0381],[29.13004,-27.15116,1518.942],[29.13799,-27.14423,1522.1626],[29.1428,-27.1416,1515.2633],[29.15536,-27.1386,1517.1473],[29.17768,-27.13814,1530.9434],[29.1999,-27.14046,1517.4858],[29.21122,-27.14268,1519.1788],[29.21928,-27.14568,1518.571],[29.22331,-27.14909,1519.4821],[29.23075,-27.15876,1519.6512],[29.23856,-27.1649,1531.051],[29.25282,-27.17338,1537.8868],[29.2722,-27.17901,1556.7578],[29.28228,-27.18346,1538.6069],[29.28848,-27.188,1534.0028],[29.29271,-27.19245,1526.5698],[29.29953,-27.19772,1549.7615],[29.3217,-27.20185,1552.7731],[29.32915,-27.20433,1557.4932],[29.33426,-27.20743,1529.1124],[29.33659,-27.21074,1531.0298],[29.33581,-27.21446,1530.6255],[29.33364,-27.21834,1529.5782],[29.33209,-27.22361,1532.7612],[29.3324,-27.2296,1531.3665],[29.33597,-27.23622,1532.1549],[29.34155,-27.23906,1570.0057],[29.34821,-27.24025,1607.2738],[29.35535,-27.23984,1617.4354],[29.3616,-27.23844,1611.4313],[29.37912,-27.23203,1611.2498],[29.38625,-27.23022,1633.4294],[29.40067,-27.23162,1592.6401],[29.40826,-27.23451,1561.0046],[29.44227,-27.25317,1597.0483],[29.45715,-27.27172,1623.7944],[29.46211,-27.28609,1542.9973],[29.46676,-27.30515,1568.3647],[29.47115,-27.31136,1544.0364],[29.47627,-27.31637,1655.6342],[29.48262,-27.32055,1601.3611],[29.48479,-27.32552,1602.4575],[29.48479,-27.33125,1579.5125],[29.48324,-27.33776,1585.5198],[29.48464,-27.34221,1595.0627],[29.51673,-27.37352,1647.6443],[29.52154,-27.37719,1623.9686],[29.53384,-27.38386,1680.6565],[29.54128,-27.38949,1661.4668],[29.54267,-27.39424,1665.1537],[29.54081,-27.39884,1670.6342],[29.53818,-27.40355,1690.0448],[29.53678,-27.41006,1679.1854],[29.53833,-27.41497,1667.0465],[29.54112,-27.41946,1670.5929],[29.54469,-27.42318,1668.0013],[29.54872,-27.42654,1665.8429],[29.61528,-27.50184,1685.4282],[29.62597,-27.51031,1703.105],[29.63254,-27.51088,1698.7402],[29.63905,-27.51,1722.1309],[29.64432,-27.50783,1700.2354],[29.64882,-27.50519,1688.4941],[29.65579,-27.49915,1689.4115],[29.65796,-27.49775,1687.8081],[29.66215,-27.49563,1688.0825],[29.66773,-27.49408,1689.0015],[29.67409,-27.49341,1689.6787],[29.68649,-27.49393,1694.1697],[29.69135,-27.49253,1705.2937],[29.6946,-27.48938,1814.1346],[29.69553,-27.48432,1794.1949],[29.6946,-27.47398,1762.6322],[29.69476,-27.46887,1751.563],[29.69677,-27.46432,1750.47],[29.69956,-27.46018,1743.6248],[29.70344,-27.45662,1742.9332],[29.70793,-27.45378,1761.2319],[29.7132,-27.45135,1780.0732],[29.72545,-27.44825,1911.8423],[29.73243,-27.44716,1887.3473],[29.7486,-27.44737,1957.0378],[29.77124,-27.45233,2102.5852],[29.79718,-27.46189,2083.0476],[29.80788,-27.45858,1938.5145],[29.81532,-27.45104,1882.0073],[29.824,-27.43848,1783.1897],[29.83392,-27.41998,1799.2115],[29.83966,-27.40365,1817.0931],[29.84307,-27.39698,1805.5968],[29.84911,-27.38789,1706.5938],[29.85671,-27.38215,1689.3477],[29.86374,-27.3789,1699.0697],[29.87071,-27.37719,1683.0277],[29.88808,-27.37492,1654.168],[29.92921,-27.36438,1682.0999],[29.9351,-27.36515,1675.509],[29.94146,-27.36536,1696.3596],[29.94797,-27.36841,1720.0874],[29.95743,-27.37166,1730.7094],[30.01065,-27.38267,1778.4585],[30.01701,-27.38184,1789.3505],[30.02259,-27.37983,1802.6492],[30.04109,-27.36748,1814.5044],[30.05597,-27.3604,1847.9651],[30.13339,-27.37921,1768.8777],[30.15437,-27.37704,1975.9351],[30.15933,-27.36779,1897.2393],[30.16212,-27.3635,1846.193],[30.16584,-27.35988,1814.2832],[30.17002,-27.35668,1886.1558],[30.22356,-27.33776,1936.9514],[30.23178,-27.33404,1914.5337],[30.26315,-27.31208,1955.9749],[30.28097,-27.302,1942.9862],[30.29555,-27.2989,1858.5173],[30.30578,-27.29523,1836.3568],[30.31653,-27.29022,1812.1046],[30.32412,-27.28795,1791.318],[30.33125,-27.28686,1755.2572],[30.35497,-27.28764,1598.5874],[30.36014,-27.28516,1576.3633],[30.37053,-27.27508,1620.2761],[30.38061,-27.26769,1631.9139],[30.38851,-27.26562,1524.4888],[30.39595,-27.26521,1534.8044],[30.4143,-27.26903,1738.4155],[30.41926,-27.27141,1753.8137],[30.42252,-27.27523,1737.932],[30.42376,-27.28056,1694.3895],[30.42391,-27.29224,1642.7245],[30.42624,-27.29802,1662.1921],[30.42887,-27.30216,1675.8904],[30.44375,-27.30882,1827.7538],[30.50365,-27.30205,1631.1173],[30.57486,-27.31084,1411.2589],[30.59692,-27.30867,1259.1877],[30.61165,-27.2943,1204.8965],[30.62018,-27.28976,1164.0616],[30.6332,-27.28454,1211.3245],[30.66193,-27.27668,1167.4038],[30.67945,-27.27461,1098.3551],[30.69092,-27.27461,1089.5839],[30.72663,-27.28448,1116.0986],[30.73779,-27.28898,1126.4366],[30.75138,-27.29678,1091.0437],[30.75852,-27.29859,1094.2407],[30.79505,-27.31471,1073.6382],[30.81867,-27.32851,1059.0791],[30.83329,-27.33425,1081.2725],[30.84285,-27.33187,1053.0779],[30.85148,-27.32552,1004.7034],[30.86373,-27.31906,976.2524],[30.90161,-27.3112,983.3951],[30.91716,-27.31885,984.662],[30.92853,-27.33451,947.8982],[30.95365,-27.3511,985.6634],[30.98005,-27.35466,915.8213],[31.06087,-27.33533,831.634],[31.07622,-27.33125,779.1581],[31.10542,-27.32396,667.8953],[31.15105,-27.32402,954.1232],[31.18764,-27.29735,957.8128],[31.24471,-27.23259,926.4625],[31.15704,-27.20557,908.5298],[31.14195,-27.19648,890.2451],[31.1265,-27.18263,891.6002],[31.07875,-27.11824,967.8949],[30.97607,-27.03504,1208.3818],[30.95365,-27.00031,1286.3296],[30.94941,-26.97541,1231.2709],[30.95974,-26.93613,1184.1907],[30.96098,-26.91122,1187.1151],[30.95509,-26.89138,1114.1849],[30.94445,-26.8766,1269.0288],[30.91582,-26.84942,1181.7566],[30.90259,-26.83133,1246.3359],[30.88529,-26.78564,1188.0247],[30.88021,-26.77221,1251.078],[30.86874,-26.78493,1258.5266],[30.85339,-26.79661,1113.6316],[30.83644,-26.80508,1297.7449],[30.8198,-26.80797,1190.943],[30.80244,-26.80891,1341.8771],[30.79567,-26.78555,1154.7968],[30.7857,-26.71692,1383.4922],[30.78415,-26.57884,1503.9312],[30.78291,-26.47239,1501.8641],[30.80456,-26.39746,1478.7971],[30.89732,-26.29173,1453.5227],[30.89733,-26.29171,1453.5227],[30.96987,-26.20915,1508.7803],[31.03777,-26.10011,966.8622],[31.09162,-25.98363,807.5198],[31.10687,-25.93092,1448.2393],[31.11984,-25.91005,1482.5629],[31.20841,-25.83863,1081.0535],[31.30928,-25.75739,1088.3076],[31.33739,-25.74468,989.6824],[31.37202,-25.73641,996.174],[31.40147,-25.736,491.1873],[31.4269,-25.74365,391.6748],[31.53283,-25.80556,467.5414],[31.63877,-25.86746,390.5374],[31.7306,-25.92121,280.5094],[31.74697,-25.930789999999998,270.2007],[31.83457,-25.98208,300.0114],[31.86336,-25.98994,608.9243],[31.89188,-25.98384,342.604],[31.94924,-25.9581,479.2084],[31.90997,-25.84297,374.6763],[31.90584,-25.813,340.8008],[31.91193,-25.7853,317.6216],[31.95441,-25.68494,248.7585],[31.96227,-25.67285,248.2531],[31.97508,-25.66169,279.0178],[31.9848,-25.65631,259.5968],[31.99162,-25.65022,248.6428],[31.99575,-25.63688,238.5335],[31.99565,-25.61518,216.5101],[31.9864,-25.55244,245.6016],[31.98056,-25.53157,322.7911],[31.97012,-25.5109,152.084],[31.9664,-25.47968,145.7521],[31.96764,-25.44682,136.8901],[31.97167,-25.4215,154.7352],[31.98872,-25.37261,206.3629],[31.98723,-25.15536,154.4025],[31.9863,-24.9963,244.7729],[31.98562,-24.87693,305.5496],[31.98459,-24.70846,327.3524],[31.98376,-24.56915,274.3724],[31.99193,-24.50042,225.4214],[31.98655,-24.42311,234.3135],[31.96134,-24.34632,230.7706],[31.92631,-24.27674,251.4932]]]}
,"properties": {"ISO3166-1-Alpha-3": "ZAF","country": "South Africa","fill": "#F00","name": "Mpumalanga","area_km2": 77503.61,"hist_schema_id": "Elevation0-9000","hist_area_km2": {"125": 9.25,"150": 101.25,"175": 372.25,"200": 707.96,"225": 968.62,"250": 1330.84,"275": 1607.53,"300": 1535.33,"325": 1259.59,"350": 1054.75,"375": 884.82,"400": 639.62,"425": 466.89,"450": 322.72,"475": 261.58,"500": 279.06,"525": 297.8,"550": 298.95,"575": 300.82,"600": 274.79,"625": 266.03,"650": 281.73,"675": 309.95,"700": 305.16,"725": 311.45,"750": 330.26,"775": 356.22,"800": 367.87,"825": 417.96,"850": 504.01,"875": 644.72,"900": 743.57,"925": 821.52,"950": 977.1,"975": 1059.17,"1000": 1042.13,"1025": 932.09,"1050": 754.15,"1075": 703.46,"1100": 653.6,"1125": 609.39,"1150": 608.24,"1175": 660.13,"1200": 729.11,"1225": 798.17,"1250": 838.32,"1275": 853.89,"1300": 963.65,"1325": 1043.6,"1350": 1053.23,"1375": 1103.01,"1400": 1157.36,"1425": 1234.18,"1450": 1258.65,"1475": 1310.89,"1500": 1564.21,"1525": 2116.61,"1550": 3135.35,"1575": 4024.89,"1600": 4463.9,"1625": 4505.36,"1650": 4076.94,"1675": 3627.37,"1700": 2875.24,"1725": 2028.24,"1750": 1437.89,"1775": 1002.83,"1800": 688.12,"1825": 536.7,"1850": 475.77,"1875": 395.18,"1900": 337.16,"1925": 270.99,"1950": 211.86,"1975": 168.1,"2000": 128.41,"2025": 97.51,"2050": 75.86,"2075": 62.62,"2100": 55.49,"2125": 49.15,"2150": 39.41,"2175": 32.38,"2200": 20.3,"2225": 12.77,"2250": 4.98,"2275": 2.17,"2300": 1.3}}}