{"type": "Feature","bbox": [29.12,-24.2969,29.9282,-23.6125],"geometry": {"type": "MultiPolygon","coordinates": [[[[29.18,-23.9495,1526.6797],[29.1818,-23.9769,1442.717],[29.1363,-23.9924,1355.4614],[29.12,-23.9965,1396.0745],[29.1485,-24.0091,1410.0127],[29.1838,-24.0091,1539.585],[29.1994,-24.0137,1483.1874],[29.1537,-24.0568,1515.5327],[29.1527,-24.0648,1503.6577],[29.1621,-24.0793,1469.994],[29.1853,-24.0704,1547.7635],[29.188,-24.0929,1687.0315],[29.2105,-24.0984,1728.5872],[29.23,-24.1091,1590.511],[29.2342,-24.1454,1890.0363],[29.2285,-24.1441,1891.49],[29.1917,-24.1703,1753.4066],[29.1903,-24.2026,1741.3909],[29.1953,-24.2311,1757.0905],[29.189,-24.2569,1774.343],[29.2106,-24.2587,1590.9806],[29.2224,-24.2285,1654.861],[29.233,-24.2344,1806.9647],[29.2665,-24.2839,1383.7393],[29.288,-24.295,1207.1567],[29.318,-24.2739,1068.8772],[29.3323,-24.2969,1337.1531],[29.3683,-24.279,1495.8081],[29.3864,-24.2733,1655.4608],[29.3932,-24.2731,1544.5009],[29.409,-24.2623,1452.6946],[29.4215,-24.2577,1536.8086],[29.4461,-24.2407,1615.6279],[29.4465,-24.2586,1283.7128],[29.4505,-24.28,1161.2397],[29.4716,-24.278,1183.4199],[29.5036,-24.2632,1324.6758],[29.4981,-24.2428,1357.0212],[29.4847,-24.2531,1274.1074],[29.4738,-24.2305,1770.5344],[29.4815,-24.2263,1806.7019],[29.5073,-24.2205,1500.6437],[29.5368,-24.2045,1779.9794],[29.562,-24.1956,1750.8376],[29.6062,-24.1765,1793.7743],[29.6932,-24.1264,1725.5602],[29.7201,-24.1133,1566.061],[29.7359,-24.1072,1291.9761],[29.7555,-24.1044,1067.318],[29.7796,-24.1079,1735.7501],[29.7568,-24.0917,1589.4514],[29.7421,-24.0925,1033.1427],[29.7824,-24.0595,1285.223],[29.8273,-24.0406,1323.9102],[29.8101,-23.9685,1215.3007],[29.8385,-23.9525,1576.4633],[29.8638,-23.9514,1592.4604],[29.8544,-23.9219,1272.9827],[29.8703,-23.9176,1299.7039],[29.8757,-23.9178,1304.2238],[29.8851,-23.9139,1321.2109],[29.8896,-23.9081,1332.9744],[29.8899,-23.9049,1342.208],[29.897,-23.8973,1373.3254],[29.8952,-23.8884,1404.1154],[29.8962,-23.8849,1452.5894],[29.8933,-23.8739,1524.53],[29.8979,-23.8626,1581.7463],[29.8865,-23.8551,1858.9222],[29.8968,-23.8277,1596.5684],[29.8791,-23.8228,1499.8062],[29.907,-23.8134,1410.5647],[29.9282,-23.7977,1529.1921],[29.9145,-23.773,1255.1644],[29.9181,-23.7602,1430.55],[29.8884,-23.7416,1354.892],[29.8897,-23.7301,1318.2072],[29.8946,-23.7127,1261.4048],[29.8879,-23.6794,1294.3762],[29.8457,-23.6961,1277.5171],[29.8258,-23.7268,1341.9529],[29.7952,-23.6808,1212.0596],[29.7398,-23.6996,1238.5398],[29.7362,-23.716,1272.2764],[29.676,-23.7513,1211.3125],[29.597,-23.7777,1175.9288],[29.5982,-23.781,1180.6832],[29.5476,-23.806,1214.9231],[29.5416,-23.7907,1206.6617],[29.5382,-23.7955,1215.5253],[29.5321,-23.7805,1194.3677],[29.513,-23.7989,1219.9456],[29.5151,-23.8004,1216.6237],[29.5117,-23.803,1220.2081],[29.51,-23.8019,1223.6525],[29.5008,-23.8114,1245.5188],[29.4659,-23.7635,1186.1222],[29.4685,-23.7263,1191.662],[29.4644,-23.7115,1217.1394],[29.4459,-23.7127,1220.6804],[29.4345,-23.6962,1277.3452],[29.4244,-23.6576,1208.079],[29.4326,-23.6246,1169.2397],[29.4137,-23.6211,1176.2859],[29.3554,-23.6401,1163.2611],[29.3436,-23.6125,1144.6099],[29.3186,-23.622,1151.9877],[29.2763,-23.6223,1157.1434],[29.2666,-23.6427,1177.8636],[29.2528,-23.6415,1209.2904],[29.2229,-23.6535,1233.0446],[29.193,-23.733,1346.0308],[29.1877,-23.7549,1368.7544],[29.1824,-23.7907,1355.2572],[29.1975,-23.7966,1293.7468],[29.1874,-23.8159,1341.897],[29.1726,-23.8272,1362.9009],[29.1718,-23.8144,1354.2654],[29.1497,-23.8482,1358.7871],[29.1533,-23.867,1428.8903],[29.2138,-23.8844,1409.2108],[29.1797,-23.9441,1544.8684],[29.18,-23.9495,1526.6797]]]]}
,"properties": {"GID_3": "ZAF.5.1.5_1","GID_0": "ZAF","country": "SouthAfrica","GID_1": "ZAF.5_1","province": "Limpopo","NL_NAME_1": "NA","GID_2": "ZAF.5.1_1","county": "Capricorn","NL_NAME_2": "NA","city": "Polokwane","VARNAME_3": "NA","NL_NAME_3": "NA","TYPE_3": "LocalMunicipality","ENGTYPE_3": "LocalMunicipality","CC_3": "LIM354","HASC_3": "NA","name": "Polokwane.city","area_km2": 3774.171,"hist_schema_id": "Elevation0-9000","hist_area_km2": {"975": 0.194,"1000": 0.446,"1025": 1.124,"1050": 3.853,"1075": 16.638,"1100": 30.586,"1125": 48.467,"1150": 84.597,"1175": 181.485,"1200": 263.046,"1225": 328.035,"1250": 357.771,"1275": 365.253,"1300": 362.806,"1325": 358.143,"1350": 326.117,"1375": 278.046,"1400": 227.292,"1425": 159.355,"1450": 110.341,"1475": 75.378,"1500": 53.919,"1525": 32.363,"1550": 19.696,"1575": 11.869,"1600": 8.111,"1625": 6.987,"1650": 6.25,"1675": 8.048,"1700": 6.983,"1725": 7.08,"1750": 7.253,"1775": 6.712,"1800": 5.726,"1825": 4.294,"1850": 3.637,"1875": 2.844,"1900": 2.109,"1925": 0.87,"1950": 0.348,"1975": 0.097}}}