{"type":"Feature","properties":{"GID_3":"ZAF.2.5.4_1","GID_0":"ZAF","country":"SouthAfrica","GID_1":"ZAF.2_1","province":"FreeState","NL_NAME_1":"NA","GID_2":"ZAF.2.5_1","county":"Xhariep","NL_NAME_2":"NA","city":"Naledi","VARNAME_3":"NA","NL_NAME_3":"NA","TYPE_3":"LocalMunicipality","ENGTYPE_3":"LocalMunicipality","CC_3":"FS164","HASC_3":"NA","name":"Naledi.city"},
"geometry":{"type": "MultiPolygon","coordinates": [[[[27.0681,-29.7076,1626.2152],[27.0385,-29.677,1592.6372],[27.0284,-29.6711,1472.6948],[27.0243,-29.6661,1445.0729],[27.0196,-29.6667,1430.9336],[27.0196,-29.6642,1429.1198],[27.0133,-29.6609,1422.178],[27.0116,-29.6485,1422.8499],[27.026,-29.642,1427.4089],[27.0281,-29.6388,1425.2155],[27.025,-29.6282,1433.2944],[27.0174,-29.6182,1431.3309],[27.0199,-29.6158,1425.5933],[27.028,-29.6158,1425.6943],[27.0339,-29.6134,1430.0618],[27.0368,-29.6215,1427.6873],[27.0457,-29.6319,1431.6973],[27.05,-29.6348,1436.1477],[27.0577,-29.6368,1429.2457],[27.066,-29.6187,1431.8794],[27.064,-29.6122,1431.2871],[27.0666,-29.6064,1431.8315],[27.0654,-29.598,1427.5],[27.0685,-29.5973,1431.5789],[27.0754,-29.6021,1431.8881],[27.0784,-29.6107,1453.7371],[27.0827,-29.6151,1452.6835],[27.0859,-29.6146,1441.0359],[27.0893,-29.6084,1438.6636],[27.0954,-29.6042,1434.8213],[27.1056,-29.6034,1439.7157],[27.1065,-29.6005,1436.1499],[27.104,-29.5903,1441.3524],[27.1145,-29.5852,1439.4863],[27.1197,-29.5775,1441.9287],[27.1274,-29.5747,1438.9861],[27.1233,-29.5591,1506.011],[27.1115,-29.553,1451.4131],[27.0814,-29.5592,1546.3275],[27.0688,-29.5435,1581.4636],[27.0607,-29.5228,1679.4198],[27.016,-29.5275,1618.4039],[27.0079,-29.5168,1601.5118],[26.9538,-29.5339,1577.7135],[26.9654,-29.4977,1575.5649],[26.9121,-29.486,1627.9231],[26.9084,-29.4675,1626.9181],[26.8849,-29.4462,1555.7279],[26.8387,-29.4393,1522.7419],[26.8345,-29.456,1526.8687],[26.7992,-29.4526,1504.0205],[26.7824,-29.4353,1516.1758],[26.7741,-29.4527,1517.4701],[26.7546,-29.4355,1533.7051],[26.7547,-29.4294,1493.5271],[26.7444,-29.4352,1552.5282],[26.7113,-29.4383,1432.1699],[26.7083,-29.4373,1428.7758],[26.707,-29.4385,1427.9036],[26.7038,-29.4368,1426.1888],[26.7023,-29.4378,1425.2491],[26.699,-29.4308,1424.0769],[26.7002,-29.4272,1428.0566],[26.6993,-29.424,1425.5956],[26.7016,-29.4193,1422.5741],[26.7005,-29.4172,1422.396],[26.7026,-29.4134,1421.2068],[26.6989,-29.4092,1418.5643],[26.6994,-29.4028,1417.5562],[26.6963,-29.3998,1418.7181],[26.6896,-29.3988,1415.5958],[26.6873,-29.3959,1419.4452],[26.6822,-29.3953,1413.7706],[26.6788,-29.3908,1411.5009],[26.6775,-29.3856,1410.2826],[26.6671,-29.3837,1408.5459],[26.6652,-29.378,1406.2742],[26.6665,-29.3746,1411.9403],[26.6637,-29.3744,1404.8447],[26.662,-29.3618,1401.1355],[26.6604,-29.358,1399.3174],[26.6578,-29.3565,1398.5015],[26.6595,-29.3533,1412.6653],[26.6518,-29.3482,1392.4293],[26.6527,-29.3532,1385.9347],[26.6507,-29.3549,1392.2771],[26.6485,-29.3528,1392.4111],[26.6474,-29.3479,1387.2837],[26.6442,-29.3484,1380.5094],[26.6429,-29.3452,1384.9468],[26.6434,-29.3418,1405.033],[26.6416,-29.34,1379.7117],[26.6701,-29.3161,1396.6484],[26.6529,-29.3074,1379.3656],[26.6675,-29.2857,1424.1326],[26.6541,-29.2813,1415.511],[26.642,-29.2858,1412.1692],[26.6234,-29.2957,1372.0],[26.6228,-29.2932,1372.0],[26.6172,-29.2935,1372.0],[26.6159,-29.2915,1372.0],[26.6078,-29.2939,1372.0],[26.6053,-29.2896,1372.0],[26.594,-29.2904,1383.8547],[26.5914,-29.2977,1393.4434],[26.5903,-29.3136,1425.9713],[26.566,-29.3187,1418.6067],[26.564,-29.3234,1433.86],[26.5467,-29.3402,1462.0442],[26.5391,-29.3443,1472.3156],[26.5358,-29.3497,1487.094],[26.5193,-29.3464,1475.8197],[26.5135,-29.3476,1507.5519],[26.5047,-29.3877,1513.9171],[26.4978,-29.3986,1507.2739],[26.4742,-29.3899,1465.756],[26.4665,-29.3967,1487.0299],[26.4527,-29.3994,1553.3984],[26.4517,-29.4429,1512.3143],[26.4547,-29.4482,1505.0834],[26.4074,-29.4556,1455.2264],[26.4077,-29.4393,1452.7203],[26.3742,-29.4448,1432.0325],[26.3738,-29.4422,1431.6553],[26.3702,-29.4414,1431.1243],[26.3691,-29.4396,1430.8126],[26.3639,-29.4397,1429.4725],[26.3589,-29.4356,1429.5376],[26.3523,-29.4349,1426.4631],[26.3495,-29.4375,1426.233],[26.3444,-29.4387,1425.0439],[26.3423,-29.4377,1426.099],[26.3411,-29.4436,1423.666],[26.3357,-29.4436,1423.4901],[26.3253,-29.4344,1420.9474],[26.3248,-29.4364,1419.0935],[26.314,-29.4324,1416.3086],[26.3088,-29.4325,1415.0303],[26.3068,-29.4245,1414.2333],[26.3017,-29.4203,1413.0251],[26.2958,-29.423,1411.7261],[26.2936,-29.4268,1410.5576],[26.289,-29.4267,1410.6953],[26.2779,-29.4306,1407.3346],[26.2735,-29.4291,1407.4628],[26.2585,-29.4323,1403.9417],[26.2541,-29.4296,1405.099],[26.2509,-29.4247,1401.7756],[26.2483,-29.4251,1405.1047],[26.2458,-29.4331,1411.6263],[26.238,-29.4294,1423.5111],[26.2097,-29.4352,1394.5469],[26.21,-29.4412,1398.8789],[26.2124,-29.4464,1399.2625],[26.2107,-29.4492,1401.5409],[26.2118,-29.4524,1401.5221],[26.2139,-29.4532,1406.6855],[26.2093,-29.4766,1439.0031],[26.2242,-29.4796,1424.0339],[26.2502,-29.4937,1456.8828],[26.2437,-29.5017,1449.6033],[26.259,-29.5089,1479.4321],[26.2554,-29.5137,1473.373],[26.2753,-29.5227,1461.5521],[26.2841,-29.5251,1476.9261],[26.2725,-29.541,1483.6423],[26.2826,-29.5385,1485.8271],[26.2853,-29.5982,1464.7664],[26.36,-29.6141,1603.084],[26.3641,-29.6126,1637.233],[26.3882,-29.6173,1574.3489],[26.4007,-29.5851,1541.8997],[26.4201,-29.5727,1507.2517],[26.4542,-29.5848,1523.626],[26.4691,-29.581,1504.2944],[26.4686,-29.5764,1503.8265],[26.4746,-29.5758,1497.6617],[26.4752,-29.5816,1500.6641],[26.4848,-29.5814,1508.4012],[26.4916,-29.5972,1524.9125],[26.4999,-29.5922,1515.0964],[26.5105,-29.5688,1561.5547],[26.5246,-29.5727,1599.0803],[26.5511,-29.5718,1591.2737],[26.5554,-29.5774,1577.2579],[26.5487,-29.6016,1534.8657],[26.5523,-29.6038,1542.1049],[26.5531,-29.6082,1543.1312],[26.5502,-29.6272,1576.2407],[26.5425,-29.6302,1586.2101],[26.5545,-29.6411,1605.0979],[26.5454,-29.6471,1581.6583],[26.5455,-29.6484,1586.3104],[26.5577,-29.6569,1598.7559],[26.5621,-29.6479,1609.3025],[26.627,-29.6345,1636.6434],[26.6551,-29.6228,1593.4658],[26.6602,-29.6299,1577.7159],[26.6544,-29.6403,1578.2006],[26.6362,-29.6571,1611.0839],[26.6338,-29.6564,1623.865],[26.6197,-29.7018,1581.2852],[26.6364,-29.7004,1565.266],[26.6383,-29.7139,1539.6278],[26.6423,-29.7154,1528.2113],[26.6442,-29.7185,1528.9072],[26.6584,-29.7154,1529.3564],[26.6602,-29.7268,1545.5305],[26.6832,-29.7039,1518.4536],[26.6826,-29.702,1522.0481],[26.7054,-29.6909,1558.5399],[26.7061,-29.6858,1541.4122],[26.7092,-29.6847,1541.5737],[26.7155,-29.7112,1498.0909],[26.7185,-29.7121,1495.6252],[26.7286,-29.7059,1507.8921],[26.735,-29.7061,1496.3616],[26.7381,-29.7081,1487.4548],[26.737,-29.7051,1490.1119],[26.738,-29.7012,1491.5],[26.7493,-29.6993,1533.7192],[26.754,-29.7179,1518.2673],[26.7803,-29.739,1487.4236],[26.7767,-29.7417,1492.2131],[26.7701,-29.7537,1532.2778],[26.7566,-29.806,1557.8142],[26.7333,-29.8422,1613.3707],[26.7652,-29.8846,1528.7297],[26.7842,-29.882,1523.9926],[26.8011,-29.8887,1590.757],[26.7998,-29.8932,1544.1035],[26.7952,-29.8961,1523.8608],[26.8056,-29.9057,1500.8528],[26.8038,-29.9146,1516.9869],[26.7964,-29.9193,1515.8892],[26.8128,-29.9337,1547.022],[26.8174,-29.9456,1494.439],[26.8065,-29.9585,1417.2039],[26.8072,-29.9674,1413.1099],[26.8046,-29.9708,1411.2432],[26.8049,-29.9762,1407.6426],[26.8002,-29.9823,1403.1096],[26.8017,-29.9836,1402.8937],[26.8239,-29.9647,1526.5676],[26.8469,-29.9793,1569.7645],[26.8465,-29.9822,1533.3777],[26.861,-29.9891,1472.3218],[26.8691,-29.9887,1405.0115],[26.869,-29.9937,1403.5281],[26.8659,-29.9966,1371.6111],[26.8594,-29.9979,1370.2289],[26.8543,-30.0019,1368.6528],[26.8568,-30.0064,1371.3191],[26.8636,-30.0059,1365.6957],[26.8682,-30.0016,1364.8163],[26.8707,-30.0037,1362.0265],[26.8707,-30.0104,1361.9716],[26.8615,-30.0239,1360.6461],[26.8358,-30.0222,1359.0897],[26.8248,-30.0249,1360.2848],[26.8192,-30.0229,1363.3478],[26.8152,-30.0304,1363.7024],[26.8534,-30.051,1494.9237],[26.9468,-30.1086,1971.0785],[26.9641,-30.1072,1793.8739],[26.9913,-30.1119,1494.7863],[26.9989,-30.07,1635.9043],[27.0232,-30.0813,1549.8196],[27.0666,-30.0826,1571.0096],[27.0654,-30.0758,1524.6154],[27.0898,-30.0534,1515.4388],[27.122,-30.0368,1534.2589],[27.0919,-30.0268,1557.4486],[27.1303,-30.0093,1523.354],[27.1474,-30.0255,1542.0544],[27.1522,-30.0261,1543.6892],[27.1632,-30.0022,1623.0005],[27.192,-29.9981,1800.031],[27.2164,-29.983,2025.3311],[27.0966,-29.7299,1660.6165],[27.0833,-29.723,1662.58],[27.088,-29.7195,1650.0562],[27.0681,-29.7076,1626.2152]]]]}}