{"type": "Feature","bbox": [24.5217,-31.4186,25.5493,-30.2248],"geometry": {"type": "MultiPolygon","coordinates": [[[[25.3771,-31.2221,1556.5531],[25.3862,-31.2178,1522.6426],[25.3825,-31.2045,1495.1744],[25.3778,-31.1989,1505.3514],[25.3846,-31.151,1557.4521],[25.3982,-31.1307,1699.9844],[25.4156,-31.1344,1625.426],[25.4464,-31.1002,1582.3335],[25.4543,-31.0793,1752.4609],[25.4388,-31.0615,1686.9421],[25.4532,-31.0542,1554.201],[25.4638,-31.0547,1610.9819],[25.4867,-31.0369,1537.8043],[25.5016,-31.0074,1491.2051],[25.4848,-31.0063,1475.2864],[25.4758,-30.9912,1478.9155],[25.475,-30.9839,1471.2437],[25.4931,-30.9677,1474.0555],[25.511,-30.9557,1421.6273],[25.5064,-30.9503,1425.7302],[25.5083,-30.9422,1418.8153],[25.5046,-30.933,1450.573],[25.5104,-30.9284,1503.6636],[25.514,-30.9215,1508.8706],[25.5178,-30.9015,1469.8131],[25.5165,-30.9026,1452.4563],[25.5084,-30.8982,1492.8271],[25.5006,-30.888,1554.3239],[25.4713,-30.8698,1565.897],[25.4852,-30.8498,1579.6438],[25.5216,-30.8332,1646.0088],[25.5493,-30.791,1314.1473],[25.5479,-30.7898,1315.4014],[25.5249,-30.7964,1341.1456],[25.5084,-30.7888,1355.2605],[25.505,-30.7836,1341.8887],[25.4864,-30.7845,1576.1497],[25.4802,-30.7789,1564.3147],[25.4799,-30.7598,1372.3005],[25.4739,-30.7437,1383.6884],[25.4772,-30.7385,1409.2241],[25.4764,-30.7282,1403.8873],[25.4739,-30.7231,1431.483],[25.4624,-30.7221,1350.4558],[25.4625,-30.7155,1418.9847],[25.4665,-30.7098,1361.4369],[25.4638,-30.6894,1323.0811],[25.4602,-30.6833,1317.7456],[25.4633,-30.6777,1294.4294],[25.4719,-30.6729,1346.7124],[25.4697,-30.6688,1371.2648],[25.4713,-30.6667,1373.6936],[25.4604,-30.6608,1330.8794],[25.4585,-30.6574,1337.2618],[25.4565,-30.637,1234.1599],[25.4625,-30.6281,1267.5371],[25.4671,-30.6242,1193.4626],[25.456,-30.6112,1198.2185],[25.4224,-30.5879,1203.5344],[25.4195,-30.5847,1191.1696],[25.42,-30.58,1188.1472],[25.418,-30.5777,1185.5],[25.4057,-30.5721,1184.0],[25.3993,-30.5731,1192.9705],[25.3723,-30.5584,1182.0],[25.3636,-30.5581,1183.6794],[25.3572,-30.5636,1182.3658],[25.3504,-30.5643,1187.4583],[25.3396,-30.5581,1184.4869],[25.3328,-30.5579,1189.1936],[25.3284,-30.561,1180.5],[25.326,-30.5696,1185.769],[25.3237,-30.5724,1181.4208],[25.3114,-30.5771,1178.0],[25.3054,-30.5765,1178.9298],[25.2838,-30.559,1177.0457],[25.279,-30.5441,1172.625],[25.2706,-30.5387,1178.9084],[25.2617,-30.5259,1194.8101],[25.2547,-30.519,1173.4728],[25.2434,-30.5136,1170.7534],[25.2395,-30.5046,1169.625],[25.2353,-30.4999,1169.5],[25.2313,-30.4995,1174.2668],[25.2252,-30.5037,1169.6976],[25.21,-30.5051,1169.5],[25.203,-30.504,1171.7264],[25.1896,-30.4984,1174.0376],[25.1837,-30.484,1179.4668],[25.1671,-30.4737,1175.1243],[25.1601,-30.4647,1169.5],[25.1527,-30.4593,1169.5],[25.1531,-30.4532,1169.5],[25.1612,-30.4495,1170.0942],[25.1577,-30.4426,1169.5],[25.1467,-30.4329,1171.4739],[25.1399,-30.4242,1169.5],[25.1256,-30.4202,1169.5],[25.1135,-30.4092,1215.327],[25.1112,-30.4036,1192.4869],[25.1021,-30.3913,1173.6226],[25.0989,-30.3782,1169.0],[25.0961,-30.3732,1175.8496],[25.0809,-30.3669,1172.0211],[25.0716,-30.3594,1189.9473],[25.064,-30.3569,1169.0],[25.0511,-30.3572,1169.0],[25.043,-30.3634,1169.0],[25.0385,-30.3625,1169.0],[25.0355,-30.3449,1169.0],[25.0424,-30.3365,1169.0],[25.0466,-30.3229,1169.0],[25.0471,-30.3162,1169.0],[25.0459,-30.3111,1169.0],[25.0397,-30.3013,1169.0],[25.035,-30.2869,1170.6732],[25.0295,-30.2837,1169.0],[25.0233,-30.2835,1169.0],[25.0079,-30.2921,1169.0],[25.0028,-30.2935,1169.0],[24.9863,-30.29,1169.0],[24.9803,-30.2842,1169.0],[24.9761,-30.2733,1169.0],[24.9632,-30.2675,1169.0],[24.9467,-30.2521,1169.0],[24.9468,-30.2467,1169.0],[24.9545,-30.2403,1169.0],[24.9558,-30.2365,1169.0],[24.9548,-30.2268,1169.0],[24.9502,-30.2248,1169.0],[24.9267,-30.2405,1218.4705],[24.9114,-30.2474,1228.7041],[24.9068,-30.2521,1255.4985],[24.921,-30.2717,1215.9277],[24.9048,-30.2745,1276.8258],[24.8796,-30.2707,1313.9424],[24.8711,-30.2819,1321.0177],[24.8711,-30.2882,1305.6191],[24.8661,-30.2976,1321.9664],[24.8592,-30.3055,1332.6079],[24.8476,-30.356,1363.4099],[24.8416,-30.3636,1376.4363],[24.8015,-30.3822,1420.4779],[24.7863,-30.4154,1369.984],[24.7623,-30.414,1392.3644],[24.7482,-30.4055,1401.9402],[24.727,-30.4047,1379.0477],[24.7275,-30.421,1422.089],[24.7335,-30.4253,1427.6748],[24.7398,-30.4368,1373.9644],[24.7648,-30.4414,1371.0432],[24.7571,-30.4561,1378.9756],[24.7597,-30.484,1413.5211],[24.7513,-30.5053,1361.7234],[24.7525,-30.5231,1347.3435],[24.7276,-30.5263,1361.5515],[24.7243,-30.5414,1363.9531],[24.7147,-30.56,1400.9104],[24.7139,-30.5642,1398.1804],[24.7096,-30.5684,1428.5582],[24.7092,-30.5751,1418.7507],[24.6989,-30.585,1403.5365],[24.6957,-30.5943,1430.6654],[24.6964,-30.6046,1416.5249],[24.6789,-30.6241,1418.782],[24.6801,-30.6254,1396.6246],[24.6743,-30.6512,1377.0594],[24.6565,-30.6946,1376.2068],[24.6463,-30.7532,1407.8995],[24.6506,-30.7656,1397.119],[24.6673,-30.767,1380.6541],[24.6493,-30.7889,1372.7351],[24.6359,-30.8194,1341.8505],[24.622,-30.8271,1334.8792],[24.6292,-30.8364,1322.7272],[24.6591,-30.8497,1312.2657],[24.6647,-30.8479,1310.8884],[24.6717,-30.8517,1310.2666],[24.6813,-30.8515,1309.4677],[24.7038,-30.8285,1315.0703],[24.7393,-30.8552,1303.5419],[24.7452,-30.8456,1304.1151],[24.7511,-30.8498,1305.1843],[24.7557,-30.8603,1329.2395],[24.7578,-30.8706,1341.3499],[24.8026,-30.9724,1469.5322],[24.8322,-30.9871,1521.5326],[24.8473,-30.9919,1521.5095],[24.8214,-31.0215,1391.5179],[24.8222,-31.0381,1400.9044],[24.7821,-31.0537,1387.4417],[24.7899,-31.0693,1391.3313],[24.7509,-31.096,1463.7998],[24.7515,-31.1403,1455.0728],[24.729,-31.1307,1445.0865],[24.6832,-31.1357,1422.5972],[24.676,-31.1495,1454.1302],[24.7085,-31.1424,1435.1085],[24.7176,-31.1567,1522.5988],[24.7173,-31.1603,1477.8943],[24.7257,-31.1681,1484.3662],[24.727,-31.174,1475.5396],[24.7264,-31.1869,1513.9127],[24.7085,-31.2052,1421.661],[24.6791,-31.258,1422.9298],[24.6444,-31.2477,1407.4434],[24.6615,-31.2878,1423.0342],[24.642,-31.2948,1408.3351],[24.6405,-31.3099,1414.395],[24.6026,-31.3326,1430.4072],[24.5941,-31.3417,1418.8466],[24.6125,-31.3553,1444.5627],[24.564,-31.3774,1445.8594],[24.5293,-31.3648,1442.2091],[24.5217,-31.3752,1431.2937],[24.5694,-31.4057,1443.6024],[24.5672,-31.4186,1470.384],[24.5961,-31.3992,1438.4399],[24.665,-31.3837,1456.7511],[24.7048,-31.4006,1725.3347],[24.7106,-31.4095,1697.8529],[24.7243,-31.3999,1566.4132],[24.7887,-31.3895,1779.4895],[24.8255,-31.3565,1763.6152],[24.8461,-31.3656,1859.677],[24.8602,-31.374,1903.4856],[24.8629,-31.3736,1930.9722],[24.8613,-31.3563,1849.0549],[24.853,-31.3282,1772.8783],[24.8988,-31.3137,1679.495],[24.9002,-31.3167,1824.2861],[24.9234,-31.3135,1650.4396],[24.9336,-31.3204,1547.2137],[24.942,-31.3151,1630.5909],[24.9487,-31.2983,1617.0392],[24.9605,-31.2855,1505.4429],[25.0056,-31.2631,1633.8551],[25.0445,-31.2661,1750.8337],[25.0585,-31.2694,1760.9512],[25.0735,-31.2533,1606.781],[25.0844,-31.2623,1641.4702],[25.1008,-31.2595,1678.3296],[25.1152,-31.2463,1806.2477],[25.1307,-31.2394,1710.7781],[25.1527,-31.2431,1649.1681],[25.1552,-31.2311,1644.1982],[25.1705,-31.2392,1677.9944],[25.1771,-31.2346,1665.8903],[25.1791,-31.2222,1700.5833],[25.1924,-31.2134,1614.1019],[25.1984,-31.2155,1665.2009],[25.2048,-31.2151,1655.8621],[25.2096,-31.2048,1677.9592],[25.2043,-31.2017,1655.5734],[25.211,-31.1921,1688.2432],[25.2197,-31.1904,1678.2124],[25.2238,-31.1923,1644.1108],[25.225,-31.1952,1531.1958],[25.2693,-31.2144,1540.5261],[25.2682,-31.2208,1578.8851],[25.2849,-31.2234,1629.7771],[25.2906,-31.2135,1546.5774],[25.3544,-31.236,1544.4504],[25.3688,-31.226,1504.6309],[25.3771,-31.2221,1556.5531]]]]}
,"properties": {"GID_3": "ZAF.8.4.8_1","GID_0": "ZAF","country": "SouthAfrica","GID_1": "ZAF.8_1","province": "NorthernCape","NL_NAME_1": "NA","GID_2": "ZAF.8.4_1","county": "PixleykaSeme","NL_NAME_2": "NA","city": "Umsobomvu","VARNAME_3": "NA","NL_NAME_3": "NA","TYPE_3": "LocalMunicipality","ENGTYPE_3": "LocalMunicipality","CC_3": "NC072","HASC_3": "NA","name": "Umsobomvu.city","area_km2": 6825.262,"hist_schema_id": "Elevation0-9000","hist_area_km2": {"1175": 53.614,"1200": 150.504,"1225": 236.441,"1250": 264.3,"1275": 334.303,"1300": 459.499,"1325": 514.853,"1350": 564.393,"1375": 513.063,"1400": 545.651,"1425": 636.09,"1450": 608.301,"1475": 492.9,"1500": 384.664,"1525": 278.449,"1550": 184.334,"1575": 110.899,"1600": 77.63,"1625": 54.964,"1650": 53.498,"1675": 49.155,"1700": 48.076,"1725": 54.8,"1750": 53.279,"1775": 44.533,"1800": 28.174,"1825": 14.412,"1850": 5.568,"1875": 3.049,"1900": 2.614,"1925": 1.253,"1950": 0.726,"1975": 0.436,"2000": 0.309,"2025": 0.309,"2050": 0.182}}}