{"type": "Feature","bbox": [29.9708,-28.7646,30.3378,-28.3405],"geometry": {"type": "MultiPolygon","coordinates": [[[[30.2564,-28.6501,633.4926],[30.2539,-28.6459,645.7812],[30.244,-28.6444,651.809],[30.2492,-28.6394,652.3283],[30.25,-28.6365,661.1207],[30.2435,-28.6284,688.5135],[30.234,-28.6212,1141.8713],[30.2364,-28.5896,1136.3738],[30.2261,-28.5872,1348.7876],[30.2207,-28.5733,1606.7562],[30.2227,-28.5667,1292.1036],[30.2314,-28.5629,1334.4973],[30.2466,-28.5502,1385.2424],[30.2325,-28.5019,1111.21],[30.3007,-28.5341,1277.3638],[30.3039,-28.5313,1276.5293],[30.3082,-28.5303,1290.6859],[30.3198,-28.5302,1318.1333],[30.3216,-28.5273,1338.9829],[30.3209,-28.5114,1339.8979],[30.3183,-28.507,1326.8206],[30.3378,-28.4739,1262.2814],[30.2938,-28.4484,1117.9573],[30.2714,-28.4414,1120.8418],[30.2152,-28.3928,1089.5636],[30.1781,-28.4397,1006.7727],[30.1726,-28.4221,1005.1655],[30.1627,-28.4228,1012.5713],[30.1704,-28.4148,998.5772],[30.1623,-28.3888,1022.1583],[30.175,-28.3872,1048.2313],[30.1754,-28.3711,1053.2029],[30.1743,-28.3693,1060.2142],[30.153,-28.3601,1024.9071],[30.1597,-28.3458,1097.2017],[30.1497,-28.3431,1071.5807],[30.1426,-28.3418,1064.79],[30.1402,-28.3432,1070.6101],[30.1356,-28.3405,1080.8547],[30.1251,-28.3438,1238.0796],[30.128,-28.3492,1279.2377],[30.0989,-28.3673,1253.3662],[30.0959,-28.3631,1254.2487],[30.0703,-28.3565,1218.4827],[30.0567,-28.3621,1193.9143],[30.0467,-28.3559,1151.0927],[30.0453,-28.3576,1173.9812],[30.0415,-28.3561,1179.5681],[30.0409,-28.3573,1199.9304],[30.0352,-28.3571,1202.6315],[30.0377,-28.3654,1194.8145],[30.0316,-28.37,1203.332],[30.0105,-28.3857,1111.9674],[29.9868,-28.3932,1123.062],[30.0477,-28.4228,1115.3606],[30.055,-28.4297,1137.2793],[29.9988,-28.5227,1042.5057],[29.9868,-28.5311,1115.188],[29.9708,-28.5622,1141.2767],[29.9827,-28.5845,1059.7898],[29.9769,-28.6373,1047.5125],[29.9779,-28.645,769.7341],[29.9875,-28.6413,769.7974],[29.9946,-28.6419,759.8583],[29.9946,-28.6506,786.1148],[30.0004,-28.654,750.8295],[30.0036,-28.6581,749.2578],[30.0093,-28.668,787.6677],[30.0123,-28.6774,738.11],[30.0234,-28.6728,749.179],[30.026,-28.6748,794.1166],[30.0256,-28.6808,745.1646],[30.0268,-28.6826,729.5322],[30.0399,-28.6786,726.0842],[30.0434,-28.6792,731.8771],[30.0452,-28.6815,721.0092],[30.0453,-28.6893,721.7623],[30.044,-28.6941,712.1649],[30.0403,-28.6977,721.1482],[30.0407,-28.704,704.6691],[30.0439,-28.7057,703.4909],[30.0527,-28.7024,715.6711],[30.0597,-28.7048,697.0396],[30.0612,-28.7068,718.6889],[30.0616,-28.7145,697.5493],[30.0673,-28.7211,686.8034],[30.0757,-28.7219,685.6489],[30.0855,-28.7175,700.8052],[30.0972,-28.7304,679.2081],[30.1124,-28.7302,684.6148],[30.1194,-28.733,688.048],[30.1211,-28.7323,673.6288],[30.127,-28.7211,676.9984],[30.1307,-28.7186,669.554],[30.1464,-28.722,658.4467],[30.1475,-28.7257,685.2559],[30.1438,-28.7358,649.7739],[30.1369,-28.7405,646.3719],[30.1368,-28.7421,647.6934],[30.1445,-28.7462,646.8517],[30.1501,-28.7552,643.458],[30.1486,-28.7588,641.7139],[30.1658,-28.7646,659.7131],[30.1711,-28.7631,641.5469],[30.1703,-28.7467,633.9642],[30.1742,-28.7469,632.7736],[30.1859,-28.7539,630.1088],[30.1895,-28.7527,632.4022],[30.1927,-28.7493,632.0602],[30.1973,-28.7505,630.674],[30.2047,-28.7477,631.0075],[30.2102,-28.7491,626.0991],[30.2159,-28.7437,627.1903],[30.2217,-28.7438,626.7611],[30.2296,-28.7406,625.8515],[30.2383,-28.7405,621.1984],[30.2484,-28.7335,621.9664],[30.2579,-28.7336,618.3243],[30.269,-28.7298,612.8599],[30.2645,-28.7142,609.5551],[30.2703,-28.7064,608.6688],[30.2717,-28.6957,597.7925],[30.2796,-28.6927,600.1793],[30.2843,-28.693,593.9083],[30.2764,-28.6804,607.9863],[30.267,-28.6733,616.9468],[30.2623,-28.6631,627.3142],[30.2621,-28.6551,638.4278],[30.2564,-28.6501,633.4926]]]]}
,"properties": {"GID_3": "ZAF.4.9.3_1","GID_0": "ZAF","country": "SouthAfrica","GID_1": "ZAF.4_1","province": "KwaZulu-Natal","NL_NAME_1": "NA","GID_2": "ZAF.4.9_1","county": "Uthukela","NL_NAME_2": "NA","city": "Indaka","VARNAME_3": "NA","NL_NAME_3": "NA","TYPE_3": "LocalMunicipality","ENGTYPE_3": "LocalMunicipality","CC_3": "KZN233","HASC_3": "NA","name": "Indaka.city","area_km2": 993.463,"hist_schema_id": "Elevation0-9000","hist_area_km2": {"600": 0.9299,"625": 5.3175,"650": 11.7689,"675": 8.1831,"700": 9.2256,"725": 8.7428,"750": 10.5099,"775": 13.2268,"800": 20.4304,"825": 20.8227,"850": 33.6001,"875": 43.1588,"900": 52.756,"925": 51.1713,"950": 48.4493,"975": 60.3513,"1000": 98.5636,"1025": 113.2762,"1050": 98.4957,"1075": 63.9347,"1100": 51.7168,"1125": 43.2112,"1150": 34.8099,"1175": 22.9727,"1200": 16.5824,"1225": 14.1229,"1250": 9.6865,"1275": 7.4124,"1300": 5.4002,"1325": 5.196,"1350": 1.9732,"1375": 1.2099,"1400": 1.0981,"1425": 1.3212,"1450": 1.2654,"1475": 0.5585,"1500": 0.3165,"1525": 0.2793,"1550": 0.149,"1575": 0.1676,"1600": 0.149,"1625": 0.242,"1650": 0.2234,"1675": 0.149,"1700": 0.1303,"1725": 0.2048}}}