{"type":"Feature","properties":{"GID_1":"ZAF.3_1","GID_0":"ZAF","country":"SouthAfrica","province":"Gauteng","VARNAME_1":"Pretoria/Witwatersrand/Vaal","NL_NAME_1":"NA","TYPE_1":"Provinsie","ENGTYPE_1":"Province","CC_1":"GT","HASC_1":"ZA.GT","ISO_1":"ZA-GP","name":"Gauteng.province"},
"geometry":{"type": "MultiPolygon","coordinates": [[[[27.8389,-26.7491,1419.9113],[27.8494,-26.7456,1420.4153],[27.8722,-26.7477,1424.6233],[27.8806,-26.7459,1420.1992],[27.8832,-26.7436,1420.8669],[27.8847,-26.7343,1423.2719],[27.893,-26.7256,1421.2394],[27.8956,-26.7193,1419.5],[27.8918,-26.7144,1422.6757],[27.8932,-26.711,1425.1505],[27.908,-26.7059,1423.8872],[27.9135,-26.7065,1423.6014],[27.9256,-26.7038,1420.728],[27.9352,-26.6927,1419.5],[27.9387,-26.6797,1424.2896],[27.9425,-26.6746,1423.798],[27.953,-26.6717,1421.7654],[27.9636,-26.6712,1425.2954],[27.9691,-26.6688,1420.0],[27.9743,-26.6697,1421.5853],[27.9782,-26.6726,1425.8004],[27.9827,-26.6801,1424.002],[27.9996,-26.696,1429.1864],[28.0004,-26.7058,1420.5],[27.992,-26.7275,1421.0],[27.993,-26.7346,1423.1143],[28.0017,-26.7483,1424.0854],[28.0068,-26.7631,1430.6951],[28.0069,-26.7689,1427.4261],[28.0201,-26.7754,1422.7932],[28.0245,-26.7796,1426.4376],[28.0284,-26.7805,1421.0],[28.0265,-26.7844,1422.8181],[28.0155,-26.7896,1423.8556],[28.0142,-26.7916,1425.531],[28.0151,-26.7942,1427.0485],[28.0226,-26.7959,1425.8414],[28.035,-26.7948,1423.348],[28.0378,-26.7973,1423.325],[28.0455,-26.7999,1427.5671],[28.0491,-26.8032,1424.5344],[28.051,-26.8141,1425.4309],[28.0656,-26.8209,1429.9049],[28.0657,-26.8235,1439.9539],[28.0709,-26.8264,1433.6055],[28.0763,-26.8323,1432.5],[28.088,-26.8379,1455.9172],[28.1148,-26.8444,1451.9874],[28.1213,-26.8558,1445.7531],[28.1208,-26.8694,1444.5],[28.1162,-26.8735,1452.4884],[28.1156,-26.8774,1447.5],[28.117,-26.886,1483.0],[28.1211,-26.8903,1483.0],[28.1251,-26.8909,1483.0],[28.1324,-26.8877,1483.0],[28.1429,-26.8898,1483.0],[28.1501,-26.8846,1483.0],[28.1539,-26.8841,1483.0],[28.1581,-26.8849,1483.0],[28.1638,-26.8904,1483.0],[28.1687,-26.89,1483.0],[28.1711,-26.8873,1483.0],[28.1713,-26.8837,1483.0],[28.1678,-26.868,1483.0],[28.1538,-26.8506,1483.0],[28.1562,-26.847,1483.0],[28.1598,-26.8454,1483.0],[28.1735,-26.8467,1483.0],[28.1786,-26.8532,1483.0],[28.1799,-26.8618,1483.0],[28.1852,-26.872,1483.0],[28.185,-26.8907,1483.0],[28.1932,-26.8962,1483.0],[28.203,-26.9116,1483.0],[28.2162,-26.9121,1483.0],[28.2246,-26.9229,1483.0],[28.2294,-26.9235,1483.0],[28.2402,-26.916,1483.0],[28.2385,-26.913,1483.0],[28.2298,-26.9066,1483.0],[28.2274,-26.8939,1483.0],[28.2354,-26.8814,1483.0],[28.2443,-26.8848,1483.0],[28.2484,-26.8841,1516.0725],[28.2435,-26.8737,1508.1514],[28.2619,-26.8752,1504.4313],[28.2633,-26.8665,1502.722],[28.2843,-26.8644,1508.1161],[28.2835,-26.8771,1492.0475],[28.3095,-26.8794,1523.884],[28.325,-26.8411,1506.7849],[28.3226,-26.8202,1505.146],[28.3193,-26.8194,1501.3981],[28.3183,-26.8118,1503.198],[28.3216,-26.8117,1504.4761],[28.3194,-26.7927,1511.9227],[28.3394,-26.7856,1542.7686],[28.3435,-26.7855,1544.0675],[28.3426,-26.7791,1552.4337],[28.3491,-26.7779,1554.4166],[28.3482,-26.7729,1551.3917],[28.4069,-26.7617,1582.8833],[28.394,-26.7167,1545.8324],[28.383,-26.7175,1549.5452],[28.4001,-26.655,1607.9921],[28.415,-26.6562,1672.1094],[28.422,-26.6547,1691.9683],[28.4438,-26.6544,1688.2029],[28.4431,-26.6392,1643.9014],[28.4903,-26.6353,1658.8091],[28.4798,-26.6175,1546.8822],[28.4831,-26.6187,1541.8068],[28.486,-26.6096,1541.0854],[28.4877,-26.6086,1541.7234],[28.4911,-26.6105,1543.6752],[28.4988,-26.6039,1544.8577],[28.5076,-26.6038,1545.6561],[28.5063,-26.5965,1557.8435],[28.5089,-26.5938,1550.1155],[28.5054,-26.5897,1552.6865],[28.5278,-26.5906,1594.8501],[28.533,-26.5779,1673.4583],[28.5285,-26.5649,1675.6882],[28.526,-26.5625,1578.1682],[28.5242,-26.5285,1734.8585],[28.5277,-26.5022,1800.5898],[28.5332,-26.5009,1768.0679],[28.5375,-26.5033,1720.1139],[28.5418,-26.501,1751.9723],[28.5406,-26.5036,1696.5006],[28.5437,-26.507,1681.6989],[28.5738,-26.5161,1617.5084],[28.569,-26.525,1622.8994],[28.5772,-26.5268,1594.5825],[28.58,-26.518,1611.6442],[28.5867,-26.52,1602.8774],[28.5849,-26.5386,1614.3438],[28.6381,-26.5473,1649.1484],[28.6312,-26.5246,1650.8939],[28.6416,-26.5076,1596.9955],[28.6499,-26.5111,1597.1666],[28.6502,-26.5079,1598.7389],[28.6534,-26.5087,1597.5223],[28.6618,-26.5059,1600.6617],[28.6889,-26.5131,1631.9128],[28.7639,-26.518,1649.1124],[28.7659,-26.4715,1631.4041],[28.7803,-26.4505,1638.1836],[28.7865,-26.4492,1639.4449],[28.7838,-26.4381,1655.043],[28.7899,-26.4265,1663.9924],[28.8,-26.424,1651.8077],[28.7991,-26.4212,1660.4954],[28.8055,-26.4222,1648.4325],[28.8321,-26.4078,1681.5762],[28.8613,-26.3986,1685.3751],[28.8503,-26.367,1628.4857],[28.8384,-26.340699999999998,1599.59],[28.8178,-26.3457,1638.0272],[28.8051,-26.3066,1631.6313],[28.7789,-26.3169,1645.4865],[28.7536,-26.3207,1651.49],[28.7394,-26.3245,1643.5028],[28.7101,-26.3412,1640.1895],[28.6727,-26.3209,1655.701],[28.6728,-26.3117,1639.1514],[28.6269,-26.2924,1617.3829],[28.6223,-26.2484,1636.3892],[28.5305,-26.2253,1613.5417],[28.5343,-26.1722,1631.7723],[28.5271,-26.1787,1626.1859],[28.5213,-26.1445,1621.3582],[28.4905,-26.1264,1629.738],[28.497,-26.1039,1624.1477],[28.5052,-26.0992,1617.3489],[28.5012,-26.0896,1609.9274],[28.5158,-26.0812,1592.0378],[28.5031,-26.0638,1600.9934],[28.5158,-26.0585,1581.4004],[28.5308,-26.0616,1589.1638],[28.5386,-26.0478,1598.1165],[28.5789,-26.0596,1562.8827],[28.5867,-26.016,1539.1907],[28.591,-26.0025,1561.7325],[28.6323,-25.9708,1510.3308],[28.6527,-25.9743,1487.1128],[28.7108,-25.9906,1501.5925],[28.7575,-25.9906,1545.0604],[28.7579,-25.9837,1551.3909],[28.7624,-25.9831,1546.3005],[28.7739,-26.0137,1535.6116],[28.7939,-26.0046,1537.5439],[28.8329,-26.0048,1505.7949],[28.8648,-26.0013,1452.7549],[28.8673,-26.007,1453.0421],[28.885,-25.9744,1513.5593],[28.8852,-25.9714,1518.1599],[28.8833,-25.9714,1517.1105],[28.8825,-25.9698,1512.8762],[28.8795,-25.9252,1429.9817],[28.889,-25.8803,1447.8713],[28.8839,-25.8783,1436.5209],[28.8868,-25.8714,1449.011],[28.9382,-25.8886,1549.2202],[28.9504,-25.8374,1551.6729],[28.9433,-25.8244,1480.1958],[28.9382,-25.8233,1500.3746],[28.9576,-25.7746,1448.1257],[28.9813,-25.7425,1350.0485],[28.9507,-25.7283,1405.1477],[28.9688,-25.6733,1352.8721],[29.0646,-25.6424,1560.248],[29.0565,-25.6326,1524.537],[29.0661,-25.6305,1518.6494],[29.0642,-25.6207,1349.0653],[29.04,-25.6175,1453.1716],[29.0456,-25.5808,1243.0344],[29.042,-25.5733,1278.1433],[29.0343,-25.5634,1323.1147],[29.0684,-25.5523,1248.5698],[29.0869,-25.5486,1202.5187],[29.0984,-25.5377,1234.4933],[29.0914,-25.5306,1301.1926],[29.08,-25.4946,1462.3619],[29.0774,-25.4962,1446.8688],[29.0787,-25.4996,1413.4529],[29.0587,-25.5272,1234.2681],[29.0482,-25.5202,1253.73],[29.0474,-25.517,1257.5815],[29.0422,-25.521,1262.9933],[29.036,-25.5213,1284.1631],[29.0137,-25.5132,1360.7089],[29.019,-25.5278,1413.3502],[29.0106,-25.5332,1360.4094],[29.0067,-25.5376,1358.4523],[28.9932,-25.5425,1329.031],[28.9881,-25.5395,1354.6414],[28.9869,-25.5402,1349.7576],[29.0078,-25.5742,1246.5859],[28.9465,-25.5998,1624.7455],[28.9152,-25.558,1383.0764],[28.9101,-25.5245,1430.3088],[28.8582,-25.5691,1501.1733],[28.8741,-25.5271,1443.2012],[28.8699,-25.5247,1443.4504],[28.8518,-25.5018,1360.6699],[28.8219,-25.5224,1431.7354],[28.7971,-25.542,1488.1505],[28.8085,-25.5732,1503.4114],[28.8431,-25.5664,1512.9442],[28.8584,-25.6348,1363.0272],[28.8629,-25.6355,1361.4984],[28.872,-25.6416,1359.2899],[28.8693,-25.6581,1393.7377],[28.8457,-25.6523,1382.5674],[28.8416,-25.6545,1387.9808],[28.8355,-25.6456,1379.3531],[28.836,-25.6374,1371.9175],[28.8115,-25.643,1381.7113],[28.81,-25.6591,1420.141],[28.8229,-25.6589,1388.5105],[28.847,-25.6824,1487.8167],[28.8193,-25.6951,1443.1589],[28.8082,-25.689,1412.0679],[28.7927,-25.7024,1454.692],[28.7793,-25.7019,1489.7267],[28.7693,-25.6988,1489.9418],[28.7681,-25.7009,1493.9215],[28.7653,-25.7006,1491.9684],[28.7649,-25.7036,1501.4138],[28.7572,-25.7059,1496.6562],[28.7574,-25.6953,1481.3092],[28.7528,-25.6939,1491.8165],[28.759,-25.678,1451.542],[28.7663,-25.647,1421.4012],[28.7382,-25.6339,1461.3406],[28.7239,-25.6318,1470.7167],[28.7221,-25.6442,1506.5077],[28.7088,-25.6828,1507.4701],[28.6838,-25.6754,1467.9746],[28.6727,-25.665,1435.4285],[28.6747,-25.6588,1437.5992],[28.6425,-25.5899,1427.0248],[28.6473,-25.5856,1462.4158],[28.6455,-25.5858,1459.4897],[28.635,-25.5592,1399.6643],[28.6267,-25.5312,1371.1902],[28.6257,-25.5231,1361.2886],[28.634,-25.5199,1379.917],[28.6321,-25.4884,1271.6382],[28.621,-25.4707,1251.1144],[28.6154,-25.4679,1249.675],[28.6208,-25.4632,1248.407],[28.6295,-25.4594,1241.5413],[28.6253,-25.4476,1241.51],[28.6198,-25.4114,1283.8563],[28.6389,-25.394,1289.4829],[28.6226,-25.3337,1219.6377],[28.6332,-25.3315,1233.0223],[28.6413,-25.3276,1211.9967],[28.6792,-25.303,1229.2178],[28.6956,-25.2945,1348.0072],[28.7329,-25.2827,1225.8896],[28.7396,-25.2885,1228.6077],[28.7324,-25.2692,1238.4305],[28.7638,-25.2211,1261.1262],[28.7791,-25.2308,1295.5961],[28.7846,-25.2287,1246.6497],[28.7754,-25.1838,979.2057],[28.7765,-25.1837,979.2057],[28.7574,-25.1499,949.1472],[28.7592,-25.1497,949.1703],[28.7446,-25.1096,971.5077],[28.7101,-25.1161,975.3374],[28.6683,-25.1385,979.7917],[28.6159,-25.1516,1003.2106],[28.6381,-25.1839,977.3893],[28.6381,-25.1866,976.2468],[28.6553,-25.2135,985.9887],[28.6786,-25.2108,987.8907],[28.6791,-25.212,987.8859],[28.6768,-25.2171,991.0802],[28.6799,-25.2202,995.5546],[28.6756,-25.227,1000.3626],[28.6757,-25.2347,1008.7713],[28.6691,-25.2414,1014.3054],[28.6712,-25.2477,1017.4661],[28.6643,-25.2518,1052.9321],[28.6593,-25.2348,1007.1438],[28.6326,-25.28,1055.7605],[28.6313,-25.2802,1056.0458],[28.6044,-25.2521,1029.344],[28.6047,-25.2535,1031.4563],[28.6029,-25.2542,1033.8601],[28.5948,-25.2494,1047.2666],[28.5637,-25.2494,1092.5542],[28.5643,-25.2521,1126.0602],[28.5133,-25.2561,1132.7595],[28.5012,-25.2654,1076.6293],[28.5036,-25.3088,1158.9054],[28.4393,-25.3102,1082.0006],[28.4337,-25.3224,1103.2545],[28.3826,-25.3211,1097.0343],[28.3792,-25.2921,1087.4193],[28.2982,-25.3104,1058.1809],[28.2981,-25.3393,1073.1198],[28.2896,-25.3412,1067.6851],[28.2895,-25.3383,1067.7415],[28.2834,-25.3381,1061.4097],[28.2826,-25.3426,1060.479],[28.2283,-25.3542,1082.2572],[28.2015,-25.3237,1063.651],[28.1768,-25.3286,1066.1274],[28.1767,-25.3659,1093.5044],[28.1107,-25.3789,1091.8843],[28.108,-25.367,1082.6528],[28.0834,-25.3848,1092.2902],[28.0555,-25.4,1100.9191],[28.0447,-25.4017,1102.5331],[28.0004,-25.3594,1064.6896],[27.9708,-25.3629,1070.1451],[27.9456,-25.4067,1064.0156],[27.9582,-25.4263,1075.275],[27.9604,-25.4273,1078.6703],[27.9697,-25.4391,1087.3077],[27.9917,-25.4245,1131.2686],[28.0359,-25.4706,1161.1721],[28.0119,-25.4805,1110.3134],[28.0075,-25.4841,1129.3004],[27.9924,-25.518,1238.9093],[28.0244,-25.5307,1167.6539],[28.0524,-25.5358,1271.1144],[28.0495,-25.5596,1216.4949],[28.0306,-25.5584,1199.2283],[27.9815,-25.5427,1235.4814],[27.9576,-25.5926,1213.3674],[27.9722,-25.5979,1226.6377],[27.9806,-25.6328,1366.8726],[27.9649,-25.6348,1285.9045],[27.9652,-25.6454,1254.4489],[27.9571,-25.6436,1243.6838],[27.9573,-25.6477,1250.519],[27.9523,-25.6536,1269.3972],[27.9519,-25.6713,1319.3354],[27.9538,-25.6729,1322.6753],[27.9575,-25.6937,1579.7479],[27.9482,-25.6952,1575.4894],[27.9795,-25.7514,1447.3115],[27.9732,-25.7568,1422.9508],[27.9558,-25.7566,1415.0756],[27.9527,-25.7596,1354.8535],[27.9493,-25.7598,1351.7007],[27.9546,-25.7869,1257.3928],[27.9632,-25.7871,1305.6167],[27.9622,-25.7919,1389.1753],[27.9636,-25.7991,1363.5343],[27.9572,-25.8005,1310.7737],[27.9602,-25.816,1491.0203],[27.9401,-25.8197,1414.6418],[27.9258,-25.8241,1304.3606],[27.9395,-25.8368,1269.7627],[27.9005,-25.8408,1302.3518],[27.8982,-25.8597,1368.9429],[27.8826,-25.8619,1414.5594],[27.8847,-25.8517,1358.145],[27.8835,-25.8457,1350.7676],[27.8844,-25.8388,1341.9843],[27.8853,-25.8354,1352.46],[27.8901,-25.8298,1279.3643],[27.8917,-25.8229,1234.4253],[27.8587,-25.8188,1293.0768],[27.8482,-25.8393,1429.2283],[27.8518,-25.8464,1496.6194],[27.844,-25.8489,1459.7629],[27.8315,-25.8602,1549.434],[27.791,-25.8747,1408.6896],[27.7446,-25.8946,1481.3904],[27.7427,-25.8502,1443.4706],[27.7358,-25.8553,1461.6412],[27.7303,-25.8552,1456.6143],[27.7046,-25.8683,1579.7156],[27.6849,-25.8754,1542.4753],[27.6639,-25.84,1226.8115],[27.6546,-25.8453,1230.2455],[27.6497,-25.8435,1230.7787],[27.6504,-25.8427,1235.0746],[27.6471,-25.8406,1242.2313],[27.6488,-25.835,1255.824],[27.6455,-25.8198,1286.3267],[27.6411,-25.8128,1319.0562],[27.6418,-25.8114,1319.0562],[27.6466,-25.8141,1307.587],[27.6436,-25.7959,1664.9641],[27.6056,-25.8082,1580.134],[27.5993,-25.8127,1562.5923],[27.5983,-25.8196,1625.9224],[27.5746,-25.836,1764.8308],[27.5599,-25.8428,1784.5549],[27.546,-25.8462,1794.8007],[27.5474,-25.8514,1701.8506],[27.5336,-25.8521,1724.3008],[27.5323,-25.85,1705.3772],[27.5133,-25.8603,1799.5585],[27.5002,-25.8613,1715.8962],[27.4975,-25.8596,1707.9077],[27.4619,-25.8676,1776.1158],[27.47,-25.8881,1463.272],[27.457,-25.8883,1473.8423],[27.4633,-25.9215,1454.4919],[27.4536,-25.9202,1469.1182],[27.457,-25.9818,1540.7271],[27.4498,-26.0163,1531.3214],[27.4389,-26.0143,1548.0135],[27.4357,-26.0226,1513.054],[27.434,-26.0225,1514.6366],[27.4352,-26.027,1532.858],[27.4314,-26.0523,1587.9537],[27.4252,-26.0894,1593.6136],[27.4224,-26.0892,1597.9056],[27.4194,-26.1175,1562.1724],[27.3617,-26.1157,1599.6279],[27.3583,-26.1546,1575.0657],[27.2914,-26.1446,1560.4008],[27.3084,-26.2252,1532.6445],[27.3301,-26.2818,1524.8071],[27.2993,-26.3045,1496.0912],[27.2748,-26.3143,1517.2743],[27.2348,-26.3383,1488.1581],[27.188,-26.3779,1460.8429],[27.2248,-26.444,1527.1558],[27.2238,-26.4518,1546.4259],[27.2314,-26.5055,1609.9104],[27.2125,-26.5148,1593.3629],[27.1828,-26.5203,1464.2904],[27.1882,-26.5258,1469.6418],[27.1786,-26.521,1456.947],[27.1563,-26.5243,1471.6904],[27.1588,-26.5254,1493.2244],[27.1671,-26.5514,1455.5103],[27.1745,-26.5492,1463.0203],[27.1826,-26.5631,1483.792],[27.1826,-26.5746,1557.7754],[27.2284,-26.5711,1407.8915],[27.2345,-26.5949,1397.4995],[27.2332,-26.5955,1393.1603],[27.235,-26.6186,1378.2864],[27.2419,-26.6365,1348.912],[27.2474,-26.6344,1349.6139],[27.2488,-26.636,1349.4884],[27.2494,-26.6341,1350.3225],[27.2512,-26.6347,1350.1829],[27.2537,-26.6325,1351.6467],[27.2575,-26.632,1351.0397],[27.2574,-26.6308,1352.0541],[27.2605,-26.6315,1352.2333],[27.2617,-26.6335,1353.2866],[27.2671,-26.6306,1354.0869],[27.2683,-26.6329,1353.8215],[27.2718,-26.6304,1355.1901],[27.2731,-26.6322,1355.3971],[27.2769,-26.629,1355.469],[27.2768,-26.6259,1356.6687],[27.2789,-26.6265,1356.573],[27.2793,-26.6245,1359.5935],[27.2797,-26.6258,1357.4784],[27.2855,-26.625,1357.6479],[27.2842,-26.6222,1361.1394],[27.2862,-26.6214,1361.496],[27.2933,-26.6223,1359.8534],[27.2969,-26.6203,1360.5414],[27.2991,-26.6221,1361.6697],[27.3442,-26.6131,1381.6736],[27.3315,-26.5903,1372.28],[27.3389,-26.5781,1376.8665],[27.3386,-26.5717,1379.2317],[27.3658,-26.5738,1408.1537],[27.3854,-26.6043,1393.5317],[27.3783,-26.6107,1389.7351],[27.4258,-26.6495,1409.6362],[27.4347,-26.6318,1425.2566],[27.4548,-26.6303,1438.2335],[27.5065,-26.6462,1445.2256],[27.5691,-26.6472,1499.1606],[27.5702,-26.6836,1604.5844],[27.5742,-26.6841,1589.5878],[27.5742,-26.7158,1435.9105],[27.6028,-26.6924,1523.7415],[27.6022,-26.7229,1441.0083],[27.5891,-26.7241,1456.9739],[27.5814,-26.731,1444.2992],[27.5888,-26.7357,1431.7606],[27.5904,-26.7384,1406.6616],[27.5967,-26.7373,1411.8555],[27.6009,-26.7406,1406.9452],[27.6061,-26.7413,1411.4843],[27.6087,-26.7392,1409.9707],[27.6105,-26.7326,1412.4296],[27.6295,-26.7323,1409.3237],[27.6334,-26.7337,1407.5],[27.6346,-26.7388,1409.6945],[27.6323,-26.7455,1408.5],[27.6358,-26.7515,1409.0],[27.6284,-26.766,1410.0],[27.6297,-26.7697,1424.9219],[27.6328,-26.7721,1414.4119],[27.6388,-26.7711,1413.2529],[27.6431,-26.7685,1411.0],[27.6667,-26.7735,1413.308],[27.676,-26.7714,1419.4515],[27.6882,-26.7618,1416.625],[27.7017,-26.764,1419.2528],[27.7265,-26.7604,1417.5],[27.732,-26.7624,1417.5],[27.7415,-26.77,1417.5],[27.7466,-26.7797,1417.5],[27.7477,-26.7859,1419.9609],[27.759,-26.7964,1418.0],[27.7698,-26.7993,1422.3516],[27.7721,-26.7971,1418.0],[27.7726,-26.7935,1425.6406],[27.768,-26.7865,1422.6432],[27.7669,-26.7811,1418.0],[27.7685,-26.7753,1418.0],[27.768,-26.7659,1421.4131],[27.7708,-26.7587,1419.1027],[27.7834,-26.7505,1419.6108],[27.7911,-26.7496,1420.5016],[27.8098,-26.7509,1418.5],[27.8216,-26.7495,1430.6598],[27.8306,-26.7511,1423.5031],[27.8389,-26.7491,1419.9113]]]]}}