{"type":"Feature","properties":{"featurecla":"Reservoir","scalerank":7,"name":"Vaal Dam","name_abb":"Vaal Dam","name_alt":null,"note":null,"delta":null,"dam_name":null,"year":-99,"admin":null,"min_zoom":5.7,"min_label":6.7},
"geometry":{"type": "Polygon","coordinates": [[[28.505490172989823,-26.973059919257082,1504.0137],[28.500485982828593,-26.969527549731509,1490.6763],[28.492243787268904,-26.946861511942359,1496.478],[28.469283385352639,-26.943917870671044,1506.5212],[28.444556798673574,-26.955103707502047,1513.1868],[28.43160477707977,-26.975709196401283,1509.8964],[28.418947119613108,-26.962757174807479,1494.2832],[28.419535847867394,-26.944800963052444,1493.8622],[28.423068217392967,-26.927139115424552,1485.2594],[28.418652755485994,-26.914187093830748,1504.6644],[28.402168364366617,-26.910360360178032,1500.9209],[28.332404066236421,-26.914187093830748,1502.9038],[28.312976033845729,-26.908005447160974,1513.7971],[28.280007251606975,-26.880335219210622,1483.3723],[28.270587599538771,-26.873859208413705,1483.0],[28.231731534757387,-26.876508485557906,1487.5632],[28.215835871892267,-26.880335219210622,1523.2838],[28.198762752518633,-26.887105594134653,1492.1909],[28.181100904890741,-26.843834067446295,1485.4839],[28.166677062661279,-26.82587785569126,1486.0229],[28.144305388999271,-26.812042741716056,1484.2999],[28.143422296617871,-26.834708779505206,1508.2661],[28.139889927092298,-26.848543893480382,1488.9988],[28.13164773153261,-26.859729730311386,1493.533],[28.106038052472144,-26.884750681117595,1496.6978],[28.097207128658198,-26.897408338584256,1513.0411],[28.093086030878368,-26.91359836557649,1484.949],[28.096324036276798,-26.934203854475697,1495.8068],[28.106332416599287,-26.953926250993533,1483.9917],[28.113985883904718,-26.951276973849332,1483.0],[28.130470275024095,-26.921251832881921,1496.6777],[28.1407730194737,-26.911537816686575,1483.0],[28.15666868233879,-26.902118164618344,1483.0],[28.173153073458167,-26.900351979855571,1485.1897],[28.185222002670571,-26.914187093830748,1492.3309],[28.17521362234811,-26.915070186212148,1498.0945],[28.166971426788422,-26.918602555737721,1495.8384],[28.160789780118648,-26.925372930661752,1498.2832],[28.157257410593076,-26.934203854475697,1506.1482],[28.181395269017855,-26.937147495747013,1483.0],[28.204650035061263,-26.9453896913067,1488.0547],[28.215835871892267,-26.958636077027649,1500.7319],[28.205238763315521,-26.975709196401283,1503.0879],[28.196407839501575,-26.978358473545455,1509.5022],[28.170798160441137,-26.982479571325314,1493.8566],[28.165205242025621,-26.986011940850887,1496.6444],[28.144305388999271,-27.023690549123728,1488.0726],[28.157846138847333,-27.0272229186493,1487.1323],[28.161967236627163,-27.036936934844647,1496.9958],[28.163144693135706,-27.049594592311308,1507.0808],[28.168148883296936,-27.061663521523712,1495.4015],[28.180806540763598,-27.068433896447743,1485.1514],[28.1911092852132,-27.061074793269455,1483.3926],[28.202000757917091,-27.044001673895821,1490.418],[28.28295089287829,-27.073438086608974,1485.2629],[28.301201468760439,-27.085507015821378,1483.0],[28.295608550344951,-27.097870309160925,1496.2152],[28.301201468760439,-27.106112504720613,1483.0],[28.310326756701528,-27.10169704281364,1483.0],[28.3165084033713,-27.050183320565594,1506.6102],[28.321806957659675,-27.048417135802794,1501.8669],[28.343295538940282,-27.078442276770232,1500.0625],[28.370082674509263,-27.09904776566944,1504.4319],[28.378030505941808,-27.113177243771759,1483.8661],[28.359779930059659,-27.119653254568647,1491.5873],[28.355070104025543,-27.129955999018279,1509.2858],[28.361840478949574,-27.152327672680286,1502.1074],[28.376853049433294,-27.188240096190327,1509.5471],[28.393926168806928,-27.183824634283354,1483.6757],[28.401579636112359,-27.178820444122124,1485.6165],[28.403934549129417,-27.17175570507095,1483.0],[28.404817641510789,-27.161452960621347,1483.0],[28.399519087222444,-27.134665825052366,1508.6313],[28.399519087222444,-27.11994761869579,1483.0],[28.413942929451878,-27.109350510119043,1483.1757],[28.415414750087535,-27.099636493923697,1485.4298],[28.409821831672048,-27.089922477728351,1511.5852],[28.393926168806928,-27.085507015821378,1523.9803],[28.39068816340847,-27.083446466931463,1522.1415],[28.385978337374382,-27.078736640897347,1517.5197],[28.380091054831752,-27.074026814863259,1491.1519],[28.361840478949574,-27.068433896447743,1508.8237],[28.359779930059659,-27.05989733676094,1484.3705],[28.363312299585232,-27.044001673895821,1483.0],[28.353009555135628,-27.015153989436925,1483.0],[28.338291348779052,-26.996609049427633,1483.0],[28.317980224006959,-26.992193587520632,1496.41],[28.291193088437979,-27.006911793877237,1524.5909],[28.283539621132547,-27.019569451343898,1500.0466],[28.276180517954259,-27.036936934844647,1508.4078],[28.267938322394571,-27.049594592311308,1499.0204],[28.25704684969071,-27.047828407548536,1487.9232],[28.23614699666436,-27.020746907852413,1490.736],[28.223489339197698,-27.011032891657067,1505.3313],[28.205238763315521,-27.009855435148552,1498.127],[28.209654225222494,-27.00131887546172,1483.0],[28.217013328400782,-26.994842864664832,1483.0],[28.225844252214756,-26.991016131012117,1487.0895],[28.247332833495364,-26.9871893973594,1483.0],[28.25704684969071,-26.982479571325314,1502.3062],[28.261756675724797,-26.978064109418312,1513.9241],[28.244094828096905,-26.968350093222966,1497.8323],[28.229376621740329,-26.93273203384004,1483.0],[28.212303502366694,-26.921251832881921,1483.8309],[28.212303502366694,-26.914187093830748,1483.0],[28.22525552396047,-26.915070186212148,1483.0],[28.235558268410102,-26.91359836557649,1483.0],[28.242917371588391,-26.90859417541526,1483.0],[28.246449741113963,-26.900057615728429,1488.4236],[28.257635577944967,-26.909182903669517,1485.818],[28.295019822090694,-26.921251832881921,1503.4082],[28.30473383828604,-26.927727843678809,1511.4463],[28.322984414168189,-26.946567147815244,1483.0],[28.329166060837963,-26.95539807162919,1483.0],[28.34653354433874,-26.948922060832302,1483.0],[28.359779930059659,-26.942151685908271,1483.0],[28.37155449514492,-26.93861931638267,1483.0],[28.383917788484439,-26.941562957653986,1497.1066],[28.388921978645698,-26.948627696705159,1498.2716],[28.39068816340847,-26.958047348773363,1499.2289],[28.393337440552671,-26.965995180205937,1500.8688],[28.401285271985216,-26.969527549731509,1503.0374],[28.411293652307705,-26.972471191002825,1484.3234],[28.415709114214678,-26.97953593005397,1488.0454],[28.415414750087535,-26.988366853867944,1486.9181],[28.411293652307705,-26.99631468530049,1497.1699],[28.428955499935597,-27.00131887546172,1487.3596],[28.467517200589839,-26.976592288782655,1491.7554],[28.486945232980531,-26.975709196401283,1493.8516],[28.504018352354166,-26.99631468530049,1508.2324],[28.515498553312312,-27.005734337368693,1500.0498],[28.5210914717278,-27.000141418953206,1506.8409],[28.518442194583628,-26.990133038630717,1502.8213],[28.505490172989823,-26.973059919257082,1504.0137]]]}}