{"type":"Feature","properties":{"featurecla":"River","scalerank":4,"rivernum":101,"dissolve":"101River","name":"Vaal3","name_alt":null,"note":null,"min_zoom":4.0,"strokeweig":0.2,"name_en":"Vaal","min_label":5.0},
"geometry":{"type": "LineString","coordinates": [[28.123632812500006,-26.86663176875588,1454.575],[28.11083984375,-26.853057550005886,1487.1782],[28.09130859375,-26.839385675005886,1437.6119],[28.071679687500023,-26.828643487505886,1432.9797],[28.043701171875,-26.81804778438088,1461.1553],[28.031347656250006,-26.80315520625588,1447.2346],[27.990478515625,-26.73650481563088,1427.4553],[27.98095703125,-26.71282317500588,1458.3967],[27.989990234375,-26.70208098750588,1426.0],[27.99560546875,-26.69744231563088,1427.8595],[27.987695312500023,-26.68694426875588,1431.1688],[27.969482421875,-26.671416925005886,1426.7285],[27.95859375,-26.66668059688088,1430.0781],[27.946386718750006,-26.66912200313088,1429.5823],[27.925195312500023,-26.680987237505889,1440.1793],[27.910400390625,-26.694659112505889,1438.6248],[27.897705078125,-26.710772393755889,1427.4878],[27.882080078125,-26.724444268755889,1440.1809],[27.859619140625,-26.730010675005886,1464.6765],[27.8134765625,-26.735381768755886,1466.7454],[27.790283203125,-26.74187590938088,1449.3467],[27.773681640625,-26.750518487505886,1429.0924],[27.76953125,-26.75823333125588,1425.3519],[27.770117187500006,-26.76604583125588,1419.0939],[27.769140625,-26.77288176875588,1418.0],[27.759960937500011,-26.777862237505886,1435.1476],[27.7490234375,-26.77629973750588,1427.2334],[27.741113281250023,-26.768877862505889,1417.5],[27.73486328125,-26.760577081255889,1435.8948],[27.729248046875,-26.75676848750588,1438.6843],[27.658398437500011,-26.764971612505889,1425.3346],[27.643310546875,-26.76409270625588,1439.1458],[27.640625,-26.75676848750588,1436.1621],[27.628808593750023,-26.73992278438088,1434.658],[27.615966796875,-26.727373956255889,1434.0875],[27.60986328125,-26.73308684688088,1409.3691],[27.600488281250023,-26.737334893755886,1442.075],[27.582275390625,-26.73772551875588,1428.2239],[27.5693359375,-26.74358489375588,1411.4637],[27.575585937500023,-26.76409270625588,1420.2056],[27.552441406250011,-26.765166925005886,1425.5869],[27.5328125,-26.76970794063088,1511.4771],[27.519238281250011,-26.780791925005886,1406.5732],[27.51416015625,-26.80169036250588,1394.875],[27.513671875,-26.822100518755889,1397.899],[27.510644531250023,-26.832549737505886,1403.5302],[27.480078125,-26.87395598750588,1388.0],[27.46923828125,-26.88005950313088,1381.7092],[27.407324218750006,-26.894561456255886,1384.7338],[27.393945312500023,-26.895538018755886,1359.1892],[27.381103515625,-26.891631768755886,1366.3456],[27.34912109375,-26.864092706255889,1382.4243],[27.3359375,-26.85857512813088,1331.9524],[27.307226562500006,-26.86248137813088,1407.1831],[27.283105468750023,-26.88103606563088,1331.3093],[27.241308593750006,-26.925616143755889,1330.126],[27.2021484375,-26.951983331255889,1382.7913],[27.180419921875,-26.960479425005886,1318.6263],[27.170996093750006,-26.951983331255889,1371.8638],[27.173730468750023,-26.94255950313088,1359.2563],[27.177832031250006,-26.93254973750588,1333.1801],[27.177734375,-26.92449309688088,1315.9595],[27.167578125,-26.921221612505889,1317.0967],[27.158935546875,-26.92229583125588,1376.1318],[27.141992187500023,-26.92693450313088,1332.5029],[27.043701171875,-26.92888762813088,1318.7004],[26.999414062500023,-26.92327239375588,1292.0],[26.966064453125,-26.907549737505889,1294.3579],[26.945703125000023,-26.87566497188088,1298.9684],[26.932373046875,-26.86492278438088,1310.8838],[26.917724609375,-26.87395598750588,1312.2207],[26.913964843750023,-26.89006926875588,1319.3444],[26.917724609375,-26.955401300005889,1302.269],[26.893164062500006,-26.94036223750588,1299.5602],[26.8623046875,-26.915069268755886,1294.7817],[26.857421875,-26.91301848750588,1303.5658],[26.836181640625,-26.92449309688088,1311.6453],[26.823828125,-26.934600518755886,1292.6552],[26.817285156250023,-26.943389581255886,1292.0415],[26.80810546875,-26.93914153438088,1293.7209],[26.793554687500006,-26.928057550005889,1302.7738],[26.7880859375,-26.930694268755886,1304.7317],[26.77734375,-26.939776300005889,1290.7665],[26.754638671875,-26.94573333125588,1305.2158],[26.737207031250023,-26.955596612505886,1295.6702],[26.708251953125,-26.97918059688088,1289.223],[26.704003906250023,-26.98479583125588,1289.7104],[26.70078125,-26.992022393755889,1288.1519],[26.69873046875,-26.999541925005886,1288.875],[26.697998046875,-27.006866143755886,1286.4402],[26.6943359375,-27.01702239375588,1289.999],[26.6865234375,-27.017120050005886,1284.9042],[26.679296875,-27.01287200313088,1284.5088],[26.677441406250011,-27.00994231563088,1280.0],[26.66943359375,-27.00750090938088,1309.2111],[26.658300781250006,-27.00237395625588,1294.2979],[26.644628906250006,-26.99944426875588,1286.6294],[26.629150390625,-27.00383880000588,1275.1705],[26.614990234375,-27.013995050005889,1276.3351],[26.587646484375,-27.041534112505886,1272.0],[26.581298828125,-27.051592706255889,1273.543],[26.580175781250006,-27.068682550005889,1288.783],[26.58349609375,-27.08269622188088,1289.621],[26.582275390625,-27.094756768755886,1284.8214],[26.567626953125,-27.10613372188088,1282.644],[26.543701171875,-27.098174737505886,1282.3167],[26.531640625000023,-27.09856536250588,1290.0758],[26.505615234375,-27.127276300005889,1266.4055],[26.489501953125,-27.13860442500588,1280.3623],[26.431054687500023,-27.15398528438088,1271.4467],[26.410839843750011,-27.17693450313088,1271.9368],[26.432861328125,-27.204913018755889,1251.3259],[26.467480468750011,-27.23235442500588,1246.891],[26.485742187500023,-27.25383880000588,1254.2181],[26.484960937500006,-27.31096770625588,1239.5],[26.482324218750023,-27.312823175005889,1247.1934],[26.477294921875,-27.311065362505886,1250.6479],[26.468994140625,-27.31560637813088,1241.2827],[26.455761718750011,-27.334014581255886,1243.0847],[26.449951171875,-27.35295989375588,1240.9779],[26.457128906250006,-27.367705987505886,1258.4648],[26.482666015625,-27.37371184688088,1249.7919],[26.49267578125,-27.374834893755889,1248.3668],[26.502539062500006,-27.377959893755886,1247.043],[26.509960937500011,-27.38323333125588,1239.4125],[26.513085937500023,-27.390655206255886,1238.0],[26.508203125000023,-27.393877862505889,1247.9851],[26.409277343750006,-27.392901300005889,1252.2344],[26.39013671875,-27.387237237505886,1249.561],[26.361914062500006,-27.38689544063088,1241.9917],[26.349365234375,-27.389678643755886,1245.0062],[26.338623046875,-27.39788176875588,1237.3418],[26.329345703125,-27.41692473750588,1233.889],[26.328027343750023,-27.41863372188088,1233.8293],[26.324609375000023,-27.421416925005886,1239.7704],[26.31640625,-27.41716887813088,1242.9171],[26.307226562500006,-27.410967706255889,1249.2192],[26.30078125,-27.40789153438088,1254.6853],[26.273535156250006,-27.412627862505886,1239.4124],[26.249414062500023,-27.426104425005889,1238.24],[26.232177734375,-27.446612237505889,1237.3551],[26.2255859375,-27.472686456255886,1236.0415],[26.226806640625,-27.482940362505886,1234.3142],[26.228417968750023,-27.489288018755886,1234.5591],[26.226660156250006,-27.494952081255889,1234.4387],[26.218164062500023,-27.50335051875588,1243.6689],[26.213134765625,-27.50530364375588,1241.1685],[26.197021484375,-27.50872161250588,1254.5989],[26.19091796875,-27.51091887813088,1261.7938],[26.101318359375,-27.586455987505886,1234.9259],[26.0908203125,-27.60344817500588,1241.5751]]}}