{"type": "Feature","id": "1208","bbox": [27.16871,-26.9135,29.246,-25.11051],"geometry": {"type": "Polygon","coordinates": [[[28.86783,-25.15293,971.6678],[28.8593,-25.15113,989.302],[28.85295,-25.14105,970.413],[28.82933,-25.11051,950.3154],[28.75176,-25.1149,969.0418],[28.71141,-25.14069,974.6569],[28.62454,-25.15128,995.3876],[28.60573,-25.1579,1010.5038],[28.61534,-25.18435,982.6351],[28.62371,-25.19283,981.5389],[28.64175,-25.21681,992.1489],[28.66066,-25.22735,1001.3823],[28.66236,-25.24316,1015.691],[28.66314,-25.24745,1023.3597],[28.66112,-25.25117,1033.4565],[28.65585,-25.25541,1059.0143],[28.64392,-25.26295,1077.3174],[28.611,-25.27179,1045.1849],[28.57906,-25.26662,1129.9026],[28.52708,-25.26972,1163.1635],[28.50206,-25.27934,1078.621],[28.48548,-25.29918,1128.8831],[28.43318,-25.32207,1103.2545],[28.37468,-25.32217,1096.4541],[28.36367,-25.31065,1094.4015],[28.2937,-25.31711,1064.2365],[28.28358,-25.39948,1089.394],[28.24265,-25.42589,1133.2606],[28.21686,-25.43287,1166.1678],[28.16302,-25.43628,1127.3862],[28.14984,-25.44057,1140.3479],[28.13992,-25.44573,1145.5415],[28.12302,-25.4463,1156.2368],[28.11676,-25.43886,1157.0964],[28.11645,-25.42558,1137.8899],[28.12689,-25.41447,1129.3389],[28.12751,-25.40377,1123.016],[28.1179,-25.39964,1122.0917],[28.0977,-25.40191,1106.3218],[28.07243,-25.41287,1119.9954],[28.06374,-25.42749,1137.7882],[28.06416,-25.44506,1170.7122],[28.07739,-25.50067,1212.848],[28.07863,-25.50309,1217.8209],[28.08142,-25.51121,1224.3885],[28.08204,-25.52774,1267.1381],[28.07615,-25.55374,1286.6479],[28.04974,-25.58898,1220.5797],[28.02571,-25.60986,1272.8417],[28.00039,-25.62541,1266.6785],[27.92484,-25.64071,1227.363],[27.95652,-25.70959,1267.1049],[27.96117,-25.72127,1239.7079],[27.96396,-25.73414,1209.1041],[27.96287,-25.74148,1212.2301],[27.95388,-25.74778,1219.687],[27.94747,-25.75021,1240.3237],[27.94654,-25.75181,1260.7625],[27.94422,-25.75677,1340.3981],[27.94623,-25.76835,1248.2461],[27.94737,-25.78664,1264.6738],[27.94282,-25.80685,1324.5284],[27.92422,-25.83036,1358.0499],[27.89135,-25.84064,1328.8143],[27.87564,-25.853,1383.8599],[27.80536,-25.86602,1397.8738],[27.72764,-25.87842,1467.1479],[27.70992,-25.86416,1508.4087],[27.67266,-25.86581,1269.8042],[27.65157,-25.84881,1248.1305],[27.62506,-25.83537,1282.5042],[27.60842,-25.81537,1406.7095],[27.52559,-25.84375,1659.6313],[27.45934,-25.88529,1481.3461],[27.43355,-25.99986,1576.1815],[27.40952,-26.09903,1599.8208],[27.38482,-26.12843,1591.757],[27.35102,-26.13923,1580.49],[27.33469,-26.15975,1574.292],[27.27263,-26.16543,1553.0891],[27.30756,-26.30325,1499.788],[27.22018,-26.35989,1465.8798],[27.16871,-26.40159,1447.1998],[27.20499,-26.46567,1566.083],[27.21026,-26.47973,1517.431],[27.21413,-26.49507,1502.5764],[27.21429,-26.49874,1516.3168],[27.21382,-26.50184,1537.2808],[27.21853,-26.50324,1551.7856],[27.22643,-26.50892,1621.3928],[27.26038,-26.50184,1531.1626],[27.27294,-26.4975,1514.007],[27.28555,-26.49037,1513.3147],[27.33376,-26.47079,1531.7925],[27.35211,-26.4528,1609.9775],[27.47453,-26.41937,1728.6085],[27.49065,-26.43239,1596.5547],[27.49422,-26.43673,1580.8033],[27.49923,-26.44443,1545.8914],[27.51179,-26.44981,1585.0034],[27.52171,-26.4574,1566.8677],[27.61096,-26.4588,1545.6821],[27.60532,-26.49006,1530.6921],[27.59478,-26.49507,1526.5432],[27.59091,-26.49942,1523.9891],[27.58734,-26.50029,1523.0547],[27.58517,-26.50433,1520.7908],[27.58083,-26.51673,1494.1812],[27.57602,-26.573,1544.9446],[27.56031,-26.58696,1579.1154],[27.54714,-26.61295,1502.4764],[27.55008,-26.6377,1486.7229],[27.54093,-26.76782,1437.9171],[27.55266,-26.76508,1425.5869],[27.57587,-26.7641,1420.2056],[27.56951,-26.74343,1411.4637],[27.58253,-26.73764,1428.2239],[27.60078,-26.73723,1442.075],[27.60997,-26.73304,1409.3691],[27.61612,-26.72726,1434.0875],[27.62899,-26.73981,1434.658],[27.64082,-26.75671,1437.2755],[27.64351,-26.7641,1439.1458],[27.65855,-26.76488,1425.3346],[27.7295,-26.75666,1438.6843],[27.73508,-26.76054,1435.8948],[27.74128,-26.76875,1417.5],[27.74924,-26.77619,1429.3473],[27.7602,-26.77775,1435.0973],[27.76934,-26.77278,1418.0],[27.77038,-26.76596,1434.1599],[27.76965,-26.75811,1425.3519],[27.77384,-26.75041,1429.0924],[27.79048,-26.74173,1449.3467],[27.81373,-26.73532,1467.8978],[27.85983,-26.72994,1464.6765],[27.88231,-26.72431,1440.1809],[27.89786,-26.71072,1427.3425],[27.91063,-26.69449,1437.9216],[27.9253,-26.6809,1440.1793],[27.94665,-26.66897,1429.5823],[27.95884,-26.66654,1430.0781],[27.96969,-26.67129,1426.7285],[27.98794,-26.68679,1431.1688],[27.99584,-26.69728,1427.8595],[27.99016,-26.70204,1426.0],[27.98117,-26.71274,1458.3967],[27.99073,-26.7364,1427.4553],[28.0316,-26.80312,1447.2346],[28.04395,-26.818,1461.1553],[28.07196,-26.82865,1432.9797],[28.09155,-26.83934,1437.6119],[28.11113,-26.85309,1487.1782],[28.12395,-26.86653,1454.575],[28.13108,-26.87273,1469.4037],[28.13713,-26.87681,1488.7278],[28.15821,-26.86043,1483.0],[28.16984,-26.86074,1492.3365],[28.17557,-26.88172,1483.0],[28.17826,-26.88627,1483.0],[28.18291,-26.89236,1483.0],[28.18648,-26.89552,1483.0],[28.19919,-26.90404,1483.0],[28.22616,-26.90058,1483.0],[28.24466,-26.89407,1484.0242],[28.25583,-26.8936,1483.0],[28.26265,-26.89521,1488.8416],[28.26745,-26.89965,1503.1396],[28.27102,-26.90342,1498.7908],[28.28874,-26.9135,1486.6943],[28.30363,-26.86947,1502.3357],[28.29929,-26.85495,1490.3085],[28.30378,-26.82942,1522.3322],[28.32239,-26.81423,1506.2512],[28.33618,-26.79707,1526.8855],[28.36197,-26.781,1556.8218],[28.36476,-26.76322,1531.39],[28.36166,-26.75423,1530.9031],[28.35825,-26.75067,1526.9438],[28.35639,-26.74979,1523.0154],[28.35561,-26.74927,1526.3379],[28.35577,-26.7423,1529.9275],[28.37763,-26.69925,1530.9479],[28.42992,-26.66183,1680.3864],[28.45307,-26.65134,1611.2535],[28.4661,-26.63264,1563.9634],[28.4771,-26.62359,1536.8118],[28.49323,-26.61853,1567.0022],[28.50129,-26.61677,1576.9244],[28.50641,-26.61295,1575.217],[28.52165,-26.58473,1632.2367],[28.54273,-26.56685,1630.3933],[28.57565,-26.55569,1638.0132],[28.61518,-26.55414,1653.7305],[28.63012,-26.5404,1659.0349],[28.72877,-26.5204,1614.8724],[28.74231,-26.50737,1621.7136],[28.74882,-26.50257,1626.5404],[28.75967,-26.49213,1633.7023],[28.86209,-26.41704,1689.1685],[28.81863,-26.33576,1629.8218],[28.70009,-26.35147,1632.4585],[28.65694,-26.33922,1659.0065],[28.59038,-26.32764,1600.2253],[28.58945,-26.29633,1607.8567],[28.5848,-26.28661,1596.9875],[28.57829,-26.27989,1586.855],[28.52723,-26.24837,1583.7303],[28.51452,-26.22915,1595.533],[28.50346,-26.19277,1618.35],[28.4861,-26.15768,1611.3832],[28.47292,-26.15101,1596.8276],[28.45085,-26.1043,1613.0869],[28.47586,-26.0874,1620.5454],[28.4878,-26.08321,1609.0554],[28.50098,-26.08001,1592.0364],[28.53653,-26.08058,1582.4156],[28.54971,-26.07603,1574.7727],[28.56118,-26.05681,1594.5436],[28.57069,-26.03588,1538.4222],[28.59767,-26.00358,1538.4238],[28.60201,-25.9997,1524.6128],[28.70955,-26.00017,1486.6235],[28.71869,-26.00337,1499.9321],[28.74727,-26.00849,1525.8281],[28.7651,-26.02229,1549.7977],[28.83755,-26.0241,1529.4537],[28.84551,-25.98622,1469.9401],[28.88147,-25.89568,1451.4927],[28.91641,-25.87408,1496.7545],[28.93113,-25.85682,1495.2261],[28.93764,-25.84514,1464.1843],[28.94106,-25.82178,1491.9406],[28.94168,-25.80065,1510.4827],[28.95795,-25.76556,1416.8967],[28.96731,-25.72551,1364.7971],[28.96229,-25.70148,1317.1951],[28.97599,-25.67368,1347.2966],[29.0317,-25.62619,1470.6959],[29.052,-25.56009,1257.6794],[29.07996,-25.53126,1266.6776],[29.08477,-25.50981,1423.3135],[29.08895,-25.50247,1472.0007],[29.08663,-25.49787,1458.5382],[29.09035,-25.49441,1498.2604],[29.09593,-25.48237,1502.9617],[29.12089,-25.47447,1484.1085],[29.13241,-25.45545,1493.2129],[29.13908,-25.43969,1476.7295],[29.15923,-25.41938,1451.9244],[29.21587,-25.42238,1432.02],[29.23866,-25.37897,1245.4456],[29.246,-25.3598,1191.5718],[29.24491,-25.3431,1146.8682],[29.22703,-25.33504,1066.4688],[29.19401,-25.33943,1113.0249],[29.15861,-25.32812,1105.3718],[29.14078,-25.32595,1180.4697],[29.06534,-25.34409,1204.231],[29.04115,-25.35706,1324.9707],[28.99258,-25.34372,1201.2555],[28.96762,-25.3507,1250.7708],[28.92927,-25.35313,1255.719],[28.90679,-25.37008,1346.8794],[28.86333,-25.38238,1395.3271],[28.80546,-25.36155,1433.2505],[28.80282,-25.34155,1418.6769],[28.84375,-25.31065,1325.5297],[28.85202,-25.30145,1251.0677],[28.85853,-25.2907,1242.715],[28.86132,-25.27939,1209.1118],[28.86039,-25.26745,1227.9111],[28.85248,-25.24575,1050.3643],[28.84892,-25.21495,1125.9177],[28.86054,-25.20632,1121.1055],[28.86969,-25.21185,1066.0281],[28.88147,-25.23019,1042.0125],[28.88612,-25.23391,1071.8032],[28.89077,-25.23277,1057.1851],[28.8962,-25.22781,1038.8771],[28.89961,-25.2182,1011.3155],[28.90059,-25.20353,1072.4451],[28.89853,-25.18807,1067.5981],[28.89868,-25.1782,1017.6273],[28.90183,-25.17185,1007.8488],[28.91532,-25.15914,990.2127],[28.92028,-25.15169,979.1723],[28.92214,-25.1426,969.3779],[28.9178,-25.13671,975.4315],[28.9085,-25.13485,964.7166],[28.89356,-25.1395,961.1415],[28.86783,-25.15293,971.6678]]]}
,"properties": {"ISO3166-1-Alpha-3": "ZAF","country": "South Africa","fill": "#F0F","name": "Gauteng","area_km2": 18901.91,"hist_schema_id": "Elevation0-9000","hist_area_km2": {"950": 74.29,"975": 109.49,"1000": 56.04,"1025": 24.76,"1050": 32.73,"1075": 88.26,"1100": 121.41,"1125": 172.67,"1150": 245.11,"1175": 312.43,"1200": 326.9,"1225": 370.44,"1250": 398.05,"1275": 408.36,"1300": 423.31,"1325": 410.66,"1350": 455.11,"1375": 559.66,"1400": 669.4,"1425": 833.36,"1450": 1109.23,"1475": 1399.14,"1500": 1482.88,"1525": 1338.28,"1550": 1393.61,"1575": 1436.55,"1600": 1301.36,"1625": 1235.18,"1650": 870.01,"1675": 497.63,"1700": 311.92,"1725": 229.44,"1750": 113.66,"1775": 53.29,"1800": 17.15,"1825": 8.98,"1850": 5.73,"1875": 4.14,"1900": 1.29}}}