{"type":"Feature","properties":{"GID_3":"ZAF.1.1.2_1","GID_0":"ZAF","country":"SouthAfrica","GID_1":"ZAF.1_1","province":"EasternCape","NL_NAME_1":"NA","GID_2":"ZAF.1.1_1","county":"AlfredNzo","NL_NAME_2":"NA","city":"Mbizana","VARNAME_3":"NA","NL_NAME_3":"NA","TYPE_3":"LocalMunicipality","ENGTYPE_3":"LocalMunicipality","CC_3":"EC443","HASC_3":"NA","name":"Mbizana.city"},
"geometry":{"type": "MultiPolygon","coordinates": [[[[29.9656,-30.8326,339.6433],[29.9615,-30.8299,366.7034],[29.9581,-30.8232,343.3485],[29.9592,-30.8215,344.0163],[29.9639,-30.8248,366.327],[29.9678,-30.8251,372.568],[29.9704,-30.819,353.0681],[29.9665,-30.8171,351.5258],[29.9673,-30.8108,382.5127],[29.974,-30.8066,374.8333],[29.9724,-30.8023,373.3564],[29.9685,-30.8037,361.9737],[29.9685,-30.8064,361.5237],[29.9658,-30.8082,380.2965],[29.945,-30.8099,385.4972],[29.9376,-30.8094,405.9092],[29.9323,-30.8072,386.2078],[29.9332,-30.8008,385.7319],[29.9406,-30.7921,401.1044],[29.9552,-30.7897,388.5841],[29.955,-30.7869,401.4573],[29.9502,-30.7811,393.66],[29.9513,-30.7744,392.4521],[29.9492,-30.7708,421.9175],[29.9342,-30.7684,406.0622],[29.9224,-30.7687,426.1576],[29.9216,-30.7708,407.6556],[29.9266,-30.775,424.2531],[29.9295,-30.7807,443.4401],[29.9293,-30.792,494.926],[29.9275,-30.794,422.3588],[29.9252,-30.7936,430.3604],[29.9219,-30.7896,424.3316],[29.908,-30.7982,482.2212],[29.9063,-30.792,442.3627],[29.9097,-30.7846,445.3856],[29.9098,-30.7807,500.054],[29.916,-30.7745,447.9673],[29.9149,-30.7712,508.7915],[29.9118,-30.7699,456.1517],[29.9041,-30.7754,467.194],[29.8969,-30.7743,485.2969],[29.8869,-30.7847,499.9804],[29.8857,-30.7834,476.9548],[29.886,-30.7726,493.4638],[29.8884,-30.7704,498.5456],[29.8952,-30.7696,547.0374],[29.8965,-30.7675,511.0345],[29.8925,-30.7588,517.7227],[29.8863,-30.7591,532.2895],[29.882,-30.7621,521.4374],[29.8766,-30.7582,525.0531],[29.8732,-30.7586,540.9959],[29.8716,-30.7548,530.5762],[29.8638,-30.7575,546.3262],[29.8594,-30.7565,545.5387],[29.8524,-30.7617,589.213],[29.8496,-30.7608,553.4933],[29.8477,-30.758,604.2822],[29.8515,-30.7524,584.2406],[29.8518,-30.7488,565.5241],[29.8477,-30.7365,584.9762],[29.8448,-30.7368,582.3148],[29.8421,-30.7439,596.5561],[29.8334,-30.7426,601.9329],[29.8298,-30.7439,604.1234],[29.8296,-30.7408,608.5992],[29.8337,-30.7381,613.7903],[29.831,-30.7349,619.785],[29.8246,-30.7346,633.9705],[29.8242,-30.7283,628.3715],[29.8275,-30.7231,631.3827],[29.8251,-30.7206,649.4024],[29.8187,-30.7236,633.8336],[29.8142,-30.7315,689.7443],[29.8089,-30.7304,633.4412],[29.8068,-30.7281,633.8458],[29.8043,-30.7224,645.3987],[29.8041,-30.7149,652.9857],[29.8067,-30.7143,642.3207],[29.8146,-30.7067,702.0699],[29.8154,-30.704,654.6068],[29.8152,-30.7012,686.4265],[29.8108,-30.6985,653.4218],[29.8044,-30.7007,680.2412],[29.8058,-30.7035,652.6276],[29.8003,-30.7089,654.1971],[29.7963,-30.7044,662.8273],[29.7857,-30.6988,675.8953],[29.7856,-30.6962,680.4866],[29.7805,-30.6954,680.1213],[29.7777,-30.6974,690.6755],[29.779,-30.7012,676.6105],[29.7861,-30.7101,705.5025],[29.7722,-30.7054,695.7764],[29.7719,-30.7121,695.9227],[29.7685,-30.7128,689.6836],[29.7716,-30.7162,692.2914],[29.7707,-30.7185,746.0157],[29.7591,-30.7192,706.45],[29.7566,-30.7178,702.6763],[29.7553,-30.7106,725.8109],[29.7525,-30.707,719.3224],[29.7494,-30.7126,743.4031],[29.7507,-30.7164,726.9865],[29.7497,-30.7195,735.3202],[29.7442,-30.7229,735.6334],[29.7403,-30.7233,759.5794],[29.739,-30.7212,750.0793],[29.741,-30.72,741.9097],[29.7407,-30.7187,746.1918],[29.7389,-30.7176,755.5935],[29.7344,-30.7196,794.7413],[29.7296,-30.7159,750.7941],[29.735,-30.7091,758.1056],[29.7336,-30.7074,786.6799],[29.7208,-30.7084,782.8552],[29.7153,-30.7043,788.6776],[29.7079,-30.7048,781.998],[29.7048,-30.703,784.0203],[29.7008,-30.7053,787.5081],[29.6965,-30.6967,797.2305],[29.6943,-30.6958,800.1991],[29.6936,-30.6875,851.6232],[29.6917,-30.6862,840.1818],[29.6874,-30.6883,859.8699],[29.6835,-30.6854,843.8051],[29.6831,-30.6835,836.9796],[29.6865,-30.6819,857.4432],[29.6868,-30.6795,842.6391],[29.6763,-30.6737,868.9133],[29.6766,-30.6715,882.4323],[29.6737,-30.6692,896.9237],[29.6714,-30.67,884.2315],[29.6719,-30.6714,896.678],[29.6671,-30.6763,921.7865],[29.6572,-30.6806,945.7415],[29.6515,-30.6858,920.7637],[29.6487,-30.6838,937.67],[29.6371,-30.6838,979.6123],[29.6365,-30.6859,979.8842],[29.6349,-30.684,1001.5188],[29.6202,-30.6885,1002.7912],[29.617,-30.6889,1010.4944],[29.6143,-30.6867,1022.8585],[29.5995,-30.6895,1087.1892],[29.5958,-30.6859,1121.7174],[29.5942,-30.6674,1319.3872],[29.5876,-30.659,1488.2903],[29.5803,-30.654,1620.572],[29.5713,-30.6577,2109.5569],[29.5722,-30.6551,2087.1128],[29.5447,-30.6475,1930.3079],[29.5327,-30.6641,1474.9724],[29.5309,-30.6765,1414.0142],[29.5278,-30.6842,1442.8682],[29.5236,-30.6891,1497.6196],[29.5153,-30.6928,1454.0026],[29.5239,-30.7013,1464.6765],[29.5285,-30.7016,1413.7062],[29.5363,-30.7053,1381.3752],[29.5449,-30.7187,1411.9514],[29.544,-30.7254,1446.6309],[29.5411,-30.7295,1472.8223],[29.5428,-30.7335,1447.4673],[29.556,-30.7429,1418.9751],[29.5555,-30.7897,1343.2618],[29.5466,-30.7968,1272.5535],[29.5412,-30.8065,1266.5168],[29.5309,-30.8129,1231.1046],[29.5374,-30.8209,1045.7272],[29.5465,-30.8182,1076.1998],[29.5543,-30.8207,1081.4885],[29.5595,-30.8252,1110.9799],[29.5591,-30.8286,1102.3186],[29.556,-30.8292,1123.814],[29.5532,-30.8254,1139.9376],[29.5487,-30.8237,1144.3206],[29.5404,-30.8246,1151.627],[29.5422,-30.8267,1210.9196],[29.5459,-30.841,1101.4885],[29.5499,-30.8451,1218.4858],[29.5564,-30.8436,1237.0054],[29.5591,-30.8475,1136.7841],[29.5508,-30.8498,1073.1504],[29.5488,-30.8539,1042.5979],[29.552,-30.8561,1086.629],[29.5602,-30.8547,1193.3804],[29.5572,-30.8579,1257.2998],[29.5609,-30.8687,1026.6528],[29.5619,-30.8748,1090.8567],[29.5607,-30.8772,1051.5947],[29.5623,-30.883,920.3515],[29.5599,-30.8862,897.0164],[29.5577,-30.8821,888.7313],[29.5533,-30.8799,887.8661],[29.5493,-30.8843,880.9487],[29.55,-30.8875,882.7449],[29.5373,-30.8925,910.175],[29.537,-30.8962,878.2398],[29.539,-30.8978,869.0653],[29.5359,-30.9054,865.1818],[29.5418,-30.9056,864.0119],[29.5424,-30.91,877.2993],[29.5335,-30.912,884.527],[29.5289,-30.9093,865.8111],[29.5257,-30.9097,855.8395],[29.5285,-30.9179,846.7414],[29.5217,-30.9254,844.0135],[29.5191,-30.9261,833.7192],[29.5129,-30.9219,855.1522],[29.5183,-30.9188,848.7272],[29.5172,-30.9163,824.4826],[29.5087,-30.915,819.2482],[29.5067,-30.917,891.3661],[29.5089,-30.9198,813.9209],[29.5114,-30.9299,820.2721],[29.5165,-30.9282,862.0657],[29.5208,-30.9297,888.7919],[29.5289,-30.9268,912.5145],[29.5192,-30.9341,955.1161],[29.5266,-30.938,858.2574],[29.5325,-30.9331,861.1093],[29.5333,-30.9391,886.4034],[29.5383,-30.9431,897.2679],[29.5491,-30.9429,934.7982],[29.5538,-30.9461,944.7982],[29.5529,-30.9507,968.6375],[29.5586,-30.9568,944.1821],[29.578,-30.9621,884.7043],[29.5813,-30.9661,867.6028],[29.5844,-30.9661,856.2662],[29.5862,-30.9706,839.7167],[29.5898,-30.9698,832.6949],[29.5907,-30.9736,818.5773],[29.5929,-30.9737,812.2146],[29.5983,-30.9795,773.4255],[29.6007,-30.9788,771.8931],[29.6021,-30.9809,755.7985],[29.6043,-30.9802,775.5966],[29.6097,-30.983,737.337],[29.6087,-30.9865,724.8063],[29.6064,-30.986,715.9753],[29.6075,-30.9879,703.3717],[29.6065,-30.9906,702.8924],[29.5918,-30.9905,810.8886],[29.5744,-30.9942,851.8473],[29.5754,-30.9971,839.692],[29.5829,-31.0038,803.9009],[29.5827,-31.0079,805.3259],[29.585,-31.01,786.6973],[29.5842,-31.0139,764.8174],[29.5864,-31.0158,759.2538],[29.5857,-31.0184,767.2766],[29.5918,-31.0184,713.2712],[29.5925,-31.025,685.3308],[29.591,-31.025,693.4677],[29.59,-31.0273,681.6378],[29.5848,-31.0284,662.5917],[29.5841,-31.0379,624.9336],[29.5936,-31.0393,623.4802],[29.5962,-31.0425,575.6869],[29.599,-31.0416,572.2775],[29.599,-31.0434,581.2411],[29.6025,-31.0447,575.6782],[29.6054,-31.045,585.3007],[29.6075,-31.0431,555.7609],[29.6103,-31.0444,550.3934],[29.6123,-31.0429,596.9023],[29.6192,-31.0459,543.5056],[29.6222,-31.0489,536.3218],[29.6217,-31.0516,561.787],[29.6266,-31.0582,510.3174],[29.6229,-31.0582,501.4562],[29.6246,-31.0616,525.7722],[29.6259,-31.0607,497.1232],[29.6293,-31.062,494.2363],[29.6293,-31.0586,494.4485],[29.6324,-31.0592,478.9431],[29.6338,-31.0614,495.9825],[29.6377,-31.059,484.8453],[29.6453,-31.0631,484.3844],[29.6488,-31.0624,461.5783],[29.6504,-31.0643,438.1408],[29.6534,-31.0607,463.6013],[29.6569,-31.0636,460.4136],[29.6581,-31.0604,419.891],[29.6616,-31.0604,423.2091],[29.6631,-31.0628,411.3964],[29.6725,-31.0625,402.4308],[29.6752,-31.0594,423.6599],[29.6778,-31.0597,393.1294],[29.6811,-31.0686,394.255],[29.688,-31.0728,380.0786],[29.6884,-31.0777,382.0883],[29.687,-31.0815,380.7577],[29.6914,-31.0876,371.0533],[29.6994,-31.0842,363.187],[29.6958,-31.0803,384.4968],[29.6995,-31.0759,427.313],[29.7076,-31.0803,339.1648],[29.7083,-31.0834,400.8795],[29.7167,-31.0834,330.5111],[29.726,-31.0869,322.5922],[29.7297,-31.0965,319.2247],[29.7411,-31.1066,313.8637],[29.7348,-31.1119,361.726],[29.7391,-31.12,301.3193],[29.7364,-31.1244,296.2496],[29.7377,-31.1287,331.733],[29.7434,-31.1232,289.9109],[29.7454,-31.1295,287.93],[29.7486,-31.1284,286.2156],[29.7551,-31.1304,284.4525],[29.7616,-31.1295,279.0723],[29.7653,-31.1335,295.4087],[29.767,-31.1333,315.7587],[29.7692,-31.1323,276.4441],[29.7697,-31.1297,274.2864],[29.7623,-31.1266,271.0826],[29.7604,-31.1234,280.0559],[29.7615,-31.1194,352.4849],[29.7664,-31.119,268.2764],[29.7741,-31.121,266.377],[29.7788,-31.1286,253.8492],[29.7813,-31.1295,253.5277],[29.7844,-31.1273,250.2979],[29.7827,-31.1202,267.8573],[29.7859,-31.1181,246.7072],[29.7874,-31.1233,286.1628],[29.7914,-31.1235,252.395],[29.7947,-31.1213,237.6733],[29.7943,-31.1166,238.012],[29.7971,-31.1157,276.1805],[29.8001,-31.119,242.2547],[29.7972,-31.1303,223.4626],[29.8033,-31.1308,221.7319],[29.8044,-31.1347,219.308],[29.803,-31.1401,260.9482],[29.8046,-31.1431,244.0863],[29.8087,-31.1409,211.2773],[29.8142,-31.1322,248.4533],[29.8186,-31.1368,232.5312],[29.8223,-31.135,218.6584],[29.8269,-31.1292,226.2274],[29.8288,-31.1315,208.6076],[29.8261,-31.1336,196.4002],[29.8286,-31.1356,211.2225],[29.832,-31.1354,197.9054],[29.8399,-31.1309,208.3059],[29.8443,-31.1318,190.0071],[29.8466,-31.1356,188.8486],[29.8452,-31.1427,184.4332],[29.8367,-31.1454,183.9532],[29.8366,-31.1483,191.8494],[29.8453,-31.1487,186.6265],[29.8511,-31.1464,181.172],[29.8627,-31.1479,195.8813],[29.8635,-31.1493,199.2607],[29.8604,-31.1533,209.7083],[29.8665,-31.1542,184.1437],[29.8703,-31.1576,191.337],[29.8658,-31.1623,170.2242],[29.8661,-31.1644,176.2798],[29.8746,-31.1628,179.8076],[29.8824,-31.1672,165.685],[29.8871,-31.1627,212.2811],[29.892,-31.1739,155.039],[29.9047,-31.1796,170.0696],[29.9065,-31.1796,222.4997],[29.9052,-31.1756,147.1929],[29.9061,-31.1735,155.495],[29.913,-31.1694,171.5605],[29.9154,-31.1708,136.7916],[29.9116,-31.1757,132.9302],[29.9123,-31.178,232.8955],[29.9166,-31.1784,134.7517],[29.9217,-31.1816,158.856],[29.932,-31.1778,181.1128],[29.9344,-31.1807,126.8161],[29.9401,-31.1803,109.2798],[29.9359,-31.186,118.7042],[29.942,-31.1884,124.0347],[29.9475,-31.1858,104.9032],[29.9512,-31.1859,103.3095],[29.9538,-31.1926,112.2256],[29.9496,-31.195,98.3775],[29.9487,-31.1972,83.5034],[29.9582,-31.203,75.7862],[29.9636,-31.2106,85.1642],[29.966,-31.2114,177.8258],[29.97,-31.2091,72.9867],[29.9736,-31.2091,144.5487],[29.9838,-31.2158,83.5526],[29.9947,-31.2188,89.4713],[30.004,-31.224,46.6145],[30.0095,-31.2279,100.3205],[30.0119,-31.2336,29.3449],[30.0151,-31.2341,8.5938],[30.018,-31.2312,26.8023],[30.0202,-31.2314,13.3325],[30.0295,-31.2379,19.6091],[30.0395,-31.2419,0.0],[30.0459,-31.2465,0.0],[30.049,-31.2468,0.0],[30.0515,-31.2454,0.0],[30.0515,-31.2435,0.0],[30.0549,-31.2437,0.0],[30.066,-31.2365,0.3564],[30.0693,-31.2316,0.0],[30.0688,-31.2213,0.0],[30.0626,-31.2193,1.5754],[30.0676,-31.2188,2.3147],[30.0696,-31.2204,0.0],[30.0849,-31.209,10.0112],[30.0951,-31.1985,3.5134],[30.0943,-31.1957,20.1177],[30.0965,-31.1918,1.9274],[30.1029,-31.1874,12.4347],[30.1032,-31.1863,12.4347],[30.0999,-31.1849,0.0],[30.1057,-31.1857,5.6873],[30.1099,-31.1835,2.5601],[30.124,-31.1715,0.0],[30.126,-31.1676,5.274],[30.1251,-31.161,3.9837],[30.1332,-31.1518,0.0],[30.1249,-31.1499,12.4724],[30.1238,-31.1479,4.1642],[30.1329,-31.149,8.8297],[30.1332,-31.151,2.2303],[30.1346,-31.151,2.2303],[30.1532,-31.1393,0.0],[30.1549,-31.1354,12.255],[30.1571,-31.1346,1.9309],[30.1574,-31.1293,0.0],[30.1596,-31.126,0.0],[30.1579,-31.1243,8.0636],[30.1621,-31.1215,0.0],[30.1615,-31.1212,0.3467],[30.1596,-31.1215,5.486],[30.1579,-31.1196,1.5478],[30.1607,-31.121,1.3874],[30.169,-31.1179,16.1493],[30.1754,-31.111,0.0],[30.1693,-31.1074,11.4612],[30.169,-31.0999,3.1718],[30.1643,-31.0993,4.4525],[30.1693,-31.0985,1.7789],[30.1701,-31.1046,0.5175],[30.1724,-31.1071,1.4842],[30.1801,-31.1035,0.0],[30.1832,-31.0987,0.0],[30.1832,-31.0901,1.3719],[30.1921,-31.0854,9.9982],[30.1932,-31.0782,0.0],[30.1917,-31.0732,18.4778],[30.1883,-31.0691,44.638],[30.1759,-31.0655,5.064],[30.1698,-31.0598,6.3134],[30.1633,-31.0498,72.6901],[30.1635,-31.0449,33.6752],[30.1677,-31.0383,150.0662],[30.1697,-31.025,61.6687],[30.1632,-31.0251,65.281],[30.1556,-31.0224,60.6789],[30.1493,-31.0156,110.6127],[30.1428,-31.0228,97.203],[30.1398,-31.022,89.6366],[30.1401,-31.0144,150.8615],[30.1355,-31.008,115.3645],[30.1446,-31.0054,107.8589],[30.1469,-31.0019,130.0358],[30.1452,-30.9984,134.4149],[30.1409,-30.9967,126.1665],[30.1412,-30.9874,131.2943],[30.1521,-30.9853,145.6934],[30.1564,-30.9752,178.4279],[30.1549,-30.9728,172.4473],[30.1477,-30.9713,178.4969],[30.1411,-30.9664,169.0566],[30.1345,-30.9638,197.8833],[30.1347,-30.9562,178.3704],[30.1392,-30.9544,196.6184],[30.1411,-30.951,222.9137],[30.1378,-30.9406,223.0762],[30.1413,-30.9375,219.8121],[30.1447,-30.9374,202.2515],[30.1465,-30.9339,216.8449],[30.1464,-30.9311,204.7761],[30.1428,-30.927,230.1705],[30.1464,-30.9225,206.3],[30.1395,-30.9181,225.6682],[30.1362,-30.9115,242.1663],[30.1323,-30.9091,242.317],[30.1201,-30.9101,283.9487],[30.1269,-30.906,265.742],[30.1136,-30.9005,239.1411],[30.1204,-30.8924,240.8882],[30.1203,-30.8887,248.2417],[30.1092,-30.8845,279.6425],[30.0984,-30.8848,272.8595],[30.0913,-30.883,256.2934],[30.0821,-30.8851,269.5532],[30.0757,-30.8823,258.6393],[30.0745,-30.8784,255.1252],[30.0703,-30.8747,263.0811],[30.0704,-30.8713,260.6935],[30.0739,-30.8708,271.6329],[30.0881,-30.8744,288.3678],[30.0927,-30.8782,298.9961],[30.0926,-30.8687,287.9868],[30.0953,-30.863,282.0411],[30.0941,-30.862,279.6625],[30.0874,-30.8641,289.8701],[30.0828,-30.8637,283.8459],[30.0817,-30.8659,274.1422],[30.0727,-30.8656,292.9656],[30.0742,-30.8564,276.3211],[30.0702,-30.8517,281.8382],[30.0668,-30.8517,283.6823],[30.0622,-30.8481,280.6863],[30.0579,-30.8485,282.3198],[30.0532,-30.8468,283.4535],[30.046,-30.848,320.6824],[30.0387,-30.8445,328.6034],[30.0364,-30.8466,313.6195],[30.0255,-30.8488,348.7787],[30.0249,-30.857,301.0813],[30.0215,-30.8565,324.0093],[30.0194,-30.8529,304.4919],[30.0224,-30.8475,303.477],[30.0218,-30.8392,310.409],[30.0162,-30.8396,314.9733],[30.0098,-30.8433,359.3953],[30.007,-30.8422,336.2603],[30.0119,-30.8321,333.2878],[30.0112,-30.8284,351.4843],[30.0077,-30.8258,349.7592],[30.0037,-30.8261,344.5233],[30.0015,-30.8279,336.359],[30.0003,-30.8375,348.1429],[29.9937,-30.836,353.767],[29.9898,-30.838,384.9409],[29.9833,-30.835,338.2158],[29.9799,-30.8374,338.4258],[29.9748,-30.8381,351.3763],[29.9705,-30.8344,353.1341],[29.9656,-30.8326,339.6433]]],
[[[30.1944,-31.0785,6.4258],[30.1943,-31.0784,6.4258],[30.1943,-31.0784,6.4258],[30.1943,-31.0785,6.4258],[30.1944,-31.0785,6.4258]]]]}}