{"type": "Feature","bbox": [31.0324,-27.8382,32.0501,-27.2432],"geometry": {"type": "MultiPolygon","coordinates": [[[[31.4129,-27.5963,678.6439],[31.4076,-27.6081,752.4409],[31.4553,-27.6092,676.4944],[31.4405,-27.6528,702.9426],[31.4783,-27.6486,809.648],[31.5199,-27.67,757.3548],[31.5322,-27.6254,738.1202],[31.5708,-27.6486,550.5568],[31.5493,-27.6899,628.5641],[31.5368,-27.726,762.416],[31.5228,-27.7564,649.572],[31.5043,-27.8125,804.7477],[31.5114,-27.8382,847.414],[31.5167,-27.8339,779.4352],[31.535,-27.8329,708.3599],[31.538,-27.831,709.8486],[31.539,-27.8249,676.8033],[31.5427,-27.8198,670.4819],[31.5422,-27.8175,635.2045],[31.5462,-27.8134,617.4175],[31.5451,-27.8056,603.546],[31.546,-27.7995,602.1093],[31.5499,-27.7993,590.3202],[31.5518,-27.796,587.5631],[31.5567,-27.7938,568.4247],[31.5609,-27.7969,556.3957],[31.5644,-27.7971,554.3998],[31.5812,-27.7833,531.9689],[31.5834,-27.7864,530.7344],[31.5889,-27.7868,523.7469],[31.5881,-27.7841,523.7011],[31.5899,-27.7841,516.7021],[31.5917,-27.7816,514.0159],[31.5865,-27.7776,507.6733],[31.5884,-27.7741,521.6872],[31.6015,-27.7748,496.9141],[31.6097,-27.7734,477.3228],[31.6165,-27.7695,475.1495],[31.6223,-27.7696,467.8885],[31.6251,-27.771,492.9511],[31.6233,-27.7742,465.7246],[31.6243,-27.7773,460.4567],[31.6278,-27.7785,459.4548],[31.633,-27.7741,463.2431],[31.6332,-27.7675,444.2719],[31.6498,-27.7533,447.6758],[31.6522,-27.7484,426.2941],[31.6546,-27.7562,431.5795],[31.6588,-27.7614,429.7817],[31.6674,-27.7561,403.2592],[31.6757,-27.7463,392.548],[31.6972,-27.746,373.7759],[31.6957,-27.743,378.2211],[31.6968,-27.7412,370.3552],[31.7056,-27.7365,364.4594],[31.7158,-27.7372,350.6685],[31.7229,-27.7345,352.7127],[31.7278,-27.7281,349.7815],[31.7276,-27.7221,337.7585],[31.7326,-27.7218,340.8865],[31.7347,-27.7189,340.5236],[31.7367,-27.7102,333.8914],[31.7333,-27.7068,341.4335],[31.7404,-27.7025,323.9853],[31.7479,-27.703,327.0263],[31.7451,-27.7065,317.1167],[31.7471,-27.7116,313.799],[31.7517,-27.7115,310.6746],[31.7572,-27.7154,310.0686],[31.7569,-27.7201,303.6272],[31.7649,-27.7221,308.9184],[31.7651,-27.7107,300.7867],[31.76,-27.7076,315.8033],[31.7598,-27.7058,310.0025],[31.7699,-27.7031,286.8961],[31.7695,-27.6964,286.7864],[31.7649,-27.6921,279.7126],[31.7708,-27.6869,299.0262],[31.7666,-27.6824,275.4574],[31.7761,-27.6786,270.2569],[31.7683,-27.6733,282.7118],[31.7787,-27.6651,266.1541],[31.769,-27.6577,259.6349],[31.7654,-27.651,260.5873],[31.7759,-27.636,254.5347],[31.775,-27.6285,249.3463],[31.7804,-27.6267,253.9402],[31.7862,-27.6312,248.3038],[31.7933,-27.6318,254.1608],[31.8063,-27.6227,283.6544],[31.803,-27.6174,243.2588],[31.7955,-27.6124,243.4043],[31.7904,-27.6119,241.0324],[31.79,-27.6184,245.499],[31.7847,-27.6196,247.8566],[31.7816,-27.6178,241.2033],[31.7791,-27.6124,238.8953],[31.7841,-27.6084,234.6639],[31.7907,-27.6061,235.7049],[31.7948,-27.5977,239.6973],[31.8016,-27.5938,235.4654],[31.8093,-27.6009,227.6832],[31.8143,-27.6108,229.5866],[31.8182,-27.6112,225.8536],[31.8211,-27.6096,239.7725],[31.8236,-27.6058,225.6687],[31.8234,-27.6011,223.4427],[31.8168,-27.5902,219.293],[31.8193,-27.5802,216.4867],[31.8241,-27.5807,273.0479],[31.8297,-27.5851,212.3036],[31.8367,-27.5967,211.8824],[31.8358,-27.6084,208.7667],[31.8332,-27.614,212.4523],[31.8286,-27.6172,205.3519],[31.8182,-27.6191,208.648],[31.8146,-27.6249,204.058],[31.8134,-27.6325,216.2145],[31.8143,-27.639,202.7614],[31.8179,-27.6426,199.6769],[31.8242,-27.6448,207.1011],[31.8337,-27.6431,194.9861],[31.8384,-27.6405,198.3065],[31.8338,-27.6314,189.1102],[31.8351,-27.6268,186.8981],[31.846,-27.6248,190.2537],[31.8563,-27.6171,188.0475],[31.867,-27.6239,196.7747],[31.8737,-27.6249,192.1728],[31.8777,-27.6223,205.0761],[31.8793,-27.6135,177.2811],[31.8852,-27.6096,170.4843],[31.8926,-27.6196,191.1501],[31.8966,-27.6202,181.9068],[31.9025,-27.6149,165.0117],[31.9059,-27.6153,160.5748],[31.9071,-27.6186,173.8221],[31.9059,-27.6267,184.3401],[31.9111,-27.6308,157.1808],[31.9164,-27.6266,151.2883],[31.9179,-27.616,206.8965],[31.9256,-27.6073,150.416],[31.9325,-27.6026,172.6016],[31.9388,-27.6051,142.3633],[31.9441,-27.6176,137.8375],[31.9525,-27.6189,133.8574],[31.9561,-27.6119,145.646],[31.9571,-27.6045,130.8408],[31.9554,-27.5969,133.6297],[31.9568,-27.5935,125.9717],[31.9582,-27.5923,130.7106],[31.9803,-27.5966,125.2302],[31.9879,-27.5794,123.4669],[31.9963,-27.5818,116.1098],[32.0061,-27.5915,119.9181],[32.014,-27.5943,113.0196],[32.0238,-27.5928,109.922],[32.0374,-27.5871,107.3773],[32.0406,-27.5897,108.172],[32.0417,-27.5949,106.8587],[32.0501,-27.5838,504.4133],[32.0427,-27.5552,623.3044],[32.0449,-27.5532,616.7393],[32.0377,-27.5458,566.313],[32.0315,-27.5422,458.3775],[32.0276,-27.5258,471.4312],[32.0293,-27.5242,526.5394],[32.0238,-27.5149,458.5294],[32.0207,-27.5128,523.2969],[32.0182,-27.5056,545.2585],[32.0195,-27.5026,565.5642],[32.0159,-27.4968,541.7903],[32.0135,-27.4755,525.6256],[32.015,-27.4601,410.4532],[32.0102,-27.4569,398.0535],[32.0056,-27.4205,643.5292],[32.0047,-27.4013,574.5182],[31.9998,-27.3836,611.9872],[31.991,-27.3851,470.7019],[31.9891,-27.3822,611.1298],[31.9909,-27.3731,663.093],[31.9851,-27.3696,653.7323],[31.9885,-27.3602,678.9818],[31.9867,-27.3505,720.2416],[31.9904,-27.3435,718.2745],[31.9895,-27.3286,630.6031],[31.9848,-27.3175,716.0941],[31.4937,-27.3152,984.7741],[31.2743,-27.2432,909.6456],[31.2048,-27.3171,979.9731],[31.1659,-27.3685,861.8545],[31.1409,-27.3627,1071.3105],[31.1075,-27.3898,608.9728],[31.1078,-27.3966,644.7416],[31.1109,-27.399,579.4271],[31.1272,-27.4005,572.676],[31.1357,-27.4041,566.1168],[31.1331,-27.4074,565.8973],[31.1212,-27.4095,561.9207],[31.1164,-27.4123,558.5056],[31.1153,-27.4171,555.9109],[31.1175,-27.4205,565.3109],[31.1246,-27.4194,549.9612],[31.1307,-27.4143,644.1484],[31.1332,-27.417,585.8453],[31.1341,-27.4234,549.2432],[31.1392,-27.4211,608.7254],[31.141,-27.4273,539.5817],[31.1434,-27.428,604.2736],[31.1501,-27.4246,549.0765],[31.1591,-27.4164,525.4514],[31.1614,-27.4183,527.4307],[31.165,-27.4268,529.9829],[31.1675,-27.4253,523.2158],[31.1661,-27.4209,517.9587],[31.1689,-27.4201,519.6105],[31.1718,-27.4243,513.8036],[31.1741,-27.4228,572.8411],[31.1766,-27.424,542.6924],[31.1807,-27.4314,559.9034],[31.1847,-27.4294,575.4532],[31.1893,-27.432,514.5099],[31.1958,-27.4327,504.2697],[31.2074,-27.4379,489.2192],[31.2088,-27.4424,489.8702],[31.2051,-27.4438,476.4821],[31.2025,-27.4492,480.1293],[31.1926,-27.4594,513.4055],[31.1871,-27.4503,491.5716],[31.1879,-27.4443,512.2038],[31.1799,-27.4445,507.5229],[31.1756,-27.4425,521.5338],[31.1709,-27.4469,519.3785],[31.157,-27.449,528.3599],[31.1546,-27.4515,547.157],[31.1548,-27.4559,541.6386],[31.1589,-27.4547,526.2189],[31.1704,-27.4567,530.0807],[31.1685,-27.4591,534.2198],[31.165,-27.4601,541.5118],[31.1591,-27.4668,562.281],[31.1546,-27.4628,551.0624],[31.1553,-27.4608,600.6163],[31.1446,-27.4551,562.4048],[31.1424,-27.4557,565.6752],[31.1399,-27.4604,566.1781],[31.1426,-27.4645,568.9135],[31.143,-27.4681,606.7368],[31.1399,-27.4706,575.9551],[31.1425,-27.4782,586.2275],[31.1407,-27.4815,603.9147],[31.1286,-27.4881,612.4254],[31.1278,-27.4911,601.4003],[31.1179,-27.4856,618.2975],[31.1144,-27.4864,621.7861],[31.1137,-27.4944,621.9043],[31.0994,-27.5022,647.6013],[31.097,-27.5061,639.2809],[31.0963,-27.5124,686.9669],[31.0896,-27.5173,646.0185],[31.0891,-27.5192,645.4941],[31.0843,-27.5188,653.5715],[31.083,-27.5128,654.5703],[31.0794,-27.5088,714.8854],[31.0755,-27.5109,659.9207],[31.0702,-27.5228,662.6403],[31.0762,-27.5272,668.0607],[31.076,-27.5357,673.3337],[31.0734,-27.5399,710.7477],[31.0713,-27.5394,687.8418],[31.071,-27.5367,705.2951],[31.0645,-27.5285,689.5944],[31.0562,-27.5224,720.8229],[31.0528,-27.5165,744.0],[31.0457,-27.5174,744.0],[31.0442,-27.5195,744.0],[31.0389,-27.516,744.0],[31.0369,-27.5124,744.0],[31.0339,-27.5148,744.0],[31.0324,-27.5204,744.0],[31.0429,-27.5549,851.2883],[31.0398,-27.5914,906.0751],[31.0484,-27.6222,1045.2517],[31.0634,-27.6302,1433.5654],[31.0993,-27.6276,1052.932],[31.1365,-27.6196,1063.0359],[31.1232,-27.5892,1011.1566],[31.1265,-27.5888,1081.9489],[31.1194,-27.547,918.8081],[31.1085,-27.5208,1091.4197],[31.1782,-27.4914,1052.2577],[31.1709,-27.5381,949.6287],[31.1714,-27.564,916.0148],[31.2108,-27.5564,782.6122],[31.202,-27.5893,850.9071],[31.2607,-27.5964,1141.8522],[31.2646,-27.5874,1310.5289],[31.2546,-27.5816,1324.7721],[31.2578,-27.5757,1229.0256],[31.2648,-27.572,1295.8096],[31.2718,-27.5634,1403.6357],[31.2733,-27.5566,1392.7732],[31.2775,-27.5576,1410.0492],[31.2974,-27.5117,903.9701],[31.3398,-27.5195,814.5633],[31.3384,-27.5229,857.3856],[31.386,-27.5392,919.7468],[31.3764,-27.5577,877.6331],[31.4185,-27.584,796.9905],[31.4129,-27.5963,678.6439]]]]}
,"properties": {"GID_3": "ZAF.4.11.5_1","GID_0": "ZAF","country": "SouthAfrica","GID_1": "ZAF.4_1","province": "KwaZulu-Natal","NL_NAME_1": "NA","GID_2": "ZAF.4.11_1","county": "Zululand","NL_NAME_2": "NA","city": "UPhongolo","VARNAME_3": "NA","NL_NAME_3": "NA","TYPE_3": "LocalMunicipality","ENGTYPE_3": "LocalMunicipality","CC_3": "KZN262","HASC_3": "NA","name": "U_Phongolo.city","area_km2": 3244.553,"hist_schema_id": "Elevation0-9000","hist_area_km2": {"100": 0.338,"125": 128.032,"150": 91.393,"175": 81.529,"200": 85.844,"225": 94.013,"250": 120.765,"275": 148.661,"300": 143.769,"325": 136.927,"350": 134.148,"375": 117.848,"400": 109.33,"425": 103.639,"450": 92.87,"475": 88.321,"500": 87.83,"525": 89.839,"550": 90.332,"575": 87.52,"600": 91.08,"625": 89.613,"650": 90.249,"675": 85.566,"700": 81.19,"725": 79.537,"750": 80.201,"775": 72.198,"800": 66.393,"825": 66.688,"850": 69.253,"875": 66.713,"900": 66.416,"925": 51.954,"950": 35.363,"975": 28.285,"1000": 20.946,"1025": 16.788,"1050": 13.459,"1075": 11.504,"1100": 8.101,"1125": 7.179,"1150": 5.769,"1175": 2.837,"1200": 0.752,"1225": 0.639,"1250": 0.526,"1275": 0.489,"1300": 0.676,"1325": 0.395,"1350": 0.357,"1375": 0.15,"1400": 0.113,"1425": 0.188,"1450": 0.038}}}