{"type":"Feature","properties":{"GID_3":"ZAF.9.6.4_1","GID_0":"ZAF","country":"SouthAfrica","GID_1":"ZAF.9_1","province":"WesternCape","NL_NAME_1":"NA","GID_2":"ZAF.9.6_1","county":"WestCoast","NL_NAME_2":"NA","city":"SaldanhaBay","VARNAME_3":"NA","NL_NAME_3":"NA","TYPE_3":"LocalMunicipality","ENGTYPE_3":"LocalMunicipality","CC_3":"WC014","HASC_3":"NA","name":"Saldanha_Bay.city"},
"geometry":{"type": "MultiPolygon","coordinates": [[[[18.1571,-33.3226,2.0599],[18.1569,-33.3224,2.0599],[18.1568,-33.3221,2.0599],[18.1568,-33.3226,2.0599],[18.1571,-33.3226,2.0599]]],
[[[18.1032,-33.1868,0.0],[18.0976,-33.1857,0.0],[18.1021,-33.1926,0.0666],[18.1043,-33.1921,0.0],[18.1051,-33.1882,0.0],[18.1074,-33.1885,0.0],[18.1032,-33.1868,0.0]]],
[[[18.3305,-32.9494,28.1353],[18.2926,-32.962,62.3525],[18.2719,-32.9533,54.1862],[18.2404,-32.9323,35.4278],[18.2416,-32.9137,24.3255],[18.2328,-32.8968,22.9367],[18.2217,-32.9004,24.2986],[18.2003,-32.9022,24.2899],[18.2053,-32.8918,24.3321],[18.1642,-32.8883,33.4439],[18.1709,-32.8641,20.6291],[18.1817,-32.8655,18.3065],[18.1964,-32.8559,11.9911],[18.1717,-32.8511,12.8962],[18.1449,-32.8371,13.275],[18.1482,-32.8345,11.0373],[18.1551,-32.8133,8.2604],[18.1245,-32.8105,8.5472],[18.101,-32.8252,15.9973],[18.1157,-32.8062,8.4764],[18.1248,-32.7778,0.0],[18.1287,-32.7774,1.1048],[18.1215,-32.7774,0.0],[18.1126,-32.7804,1.1626],[18.1074,-32.7804,0.8483],[18.1051,-32.7785,0.0],[18.1046,-32.7799,1.7136],[18.0982,-32.781,0.3794],[18.096,-32.7776,0.0],[18.0899,-32.7804,0.0],[18.0876,-32.7774,0.0],[18.079,-32.7768,1.214],[18.0671,-32.7818,2.9224],[18.0629,-32.7818,0.0],[18.061,-32.7837,2.2524],[18.0554,-32.7843,0.0],[18.0518,-32.7782,0.3728],[18.0515,-32.7746,1.2436],[18.0493,-32.7746,9.8383],[18.0407,-32.7657,0.2415],[18.0357,-32.7629,0.0745],[18.0354,-32.7607,0.0],[18.0313,-32.7604,0.0865],[18.0287,-32.756,0.0],[18.0243,-32.7554,1.315],[18.0199,-32.7518,0.1645],[18.0176,-32.7518,3.6784],[18.0179,-32.7507,0.2153],[18.0143,-32.7504,2.2319],[18.0107,-32.7432,0.0],[18.0143,-32.7438,0.0],[18.0193,-32.7412,0.0],[18.0154,-32.7404,0.7347],[18.0151,-32.739,0.0],[18.0107,-32.7393,0.0],[18.0099,-32.7368,0.124],[18.0065,-32.7368,1.2374],[18.0054,-32.7346,0.6129],[17.9946,-32.7329,0.0],[17.9912,-32.7299,3.804],[17.9876,-32.7299,3.4716],[17.979,-32.7262,0.8909],[17.9788,-32.7229,0.0],[17.9754,-32.7212,4.8458],[17.9749,-32.7187,4.4357],[17.9782,-32.7168,0.0],[17.9776,-32.7099,0.0],[17.9832,-32.7024,0.0],[17.9735,-32.704,0.0],[17.9699,-32.6999,0.0],[17.9654,-32.699,0.0],[17.9657,-32.7032,0.0],[17.9682,-32.706,5.8875],[17.9638,-32.7121,2.3712],[17.9574,-32.7179,1.7098],[17.9476,-32.7224,0.5477],[17.9404,-32.721,4.2953],[17.9396,-32.7199,4.2953],[17.9415,-32.7179,0.0],[17.9396,-32.7151,0.3744],[17.9371,-32.716,0.0],[17.9368,-32.7182,5.8369],[17.931,-32.7201,3.1591],[17.9257,-32.7154,0.1421],[17.9199,-32.7135,0.3153],[17.9185,-32.7176,0.0065],[17.9215,-32.7176,-0.0291],[17.9221,-32.721,4.1806],[17.9201,-32.7254,0.0],[17.9151,-32.7279,0.0],[17.916,-32.7324,7.8698],[17.9107,-32.736,0.0],[17.9051,-32.7354,1.6859],[17.9046,-32.734,0.0],[17.901,-32.7351,0.0],[17.8957,-32.7429,0.0],[17.896,-32.7474,0.0],[17.8935,-32.7471,0.0],[17.8929,-32.7487,0.0],[17.8935,-32.7515,0.0],[17.8982,-32.7512,10.4651],[17.9049,-32.7649,0.0],[17.9071,-32.7776,0.0],[17.9071,-32.7899,0.0],[17.904,-32.7979,0.0],[17.8999,-32.8018,0.0],[17.8971,-32.8012,0.0],[17.8974,-32.804,1.7765],[17.8935,-32.8068,1.4649],[17.8849,-32.8065,3.2087],[17.8843,-32.8024,0.0249],[17.8821,-32.801,0.0],[17.881,-32.8115,4.3853],[17.8718,-32.8146,1.5509],[17.8685,-32.8118,0.0],[17.8632,-32.8126,0.0],[17.8613,-32.8107,0.0],[17.864,-32.8157,0.0831],[17.8632,-32.8171,0.5088],[17.8613,-32.8154,0.0],[17.859,-32.8168,0.0],[17.8554,-32.8154,0.0],[17.8524,-32.8162,0.0],[17.8501,-32.8221,0.2268],[17.8474,-32.8224,0.0],[17.8468,-32.8257,2.2352],[17.8432,-32.8254,0.0],[17.8438,-32.8299,0.0],[17.8471,-32.8299,0.0],[17.8485,-32.8376,0.4476],[17.8501,-32.839,0.0],[17.8524,-32.8379,0.0],[17.8513,-32.8349,1.362],[17.8524,-32.8343,8.1739],[17.8565,-32.8379,1.0047],[17.8557,-32.8393,0.0],[17.8596,-32.841,0.0],[17.8587,-32.844,0.0],[17.8621,-32.8432,1.5807],[17.864,-32.8454,0.0],[17.866,-32.8426,9.1345],[17.8699,-32.8465,0.0],[17.8726,-32.846,32.5918],[17.8715,-32.8499,0.0],[17.876,-32.8507,0.0],[17.8782,-32.8532,0.0],[17.879,-32.8604,4.3141],[17.8818,-32.8637,0.0],[17.8793,-32.866,0.3721],[17.8793,-32.8679,1.8122],[17.8799,-32.8696,0.0],[17.8829,-32.8696,0.0],[17.8835,-32.8743,0.0],[17.8801,-32.8826,0.0],[17.8738,-32.8862,0.0],[17.8701,-32.8851,0.0],[17.8654,-32.8865,0.784],[17.8632,-32.8893,0.4109],[17.8646,-32.891,2.8413],[17.8624,-32.8913,2.524],[17.8621,-32.8929,0.0],[17.8671,-32.8951,0.0],[17.8635,-32.8987,0.0],[17.8579,-32.899,0.0],[17.8571,-32.901,0.0],[17.8601,-32.9032,0.0],[17.8563,-32.906,0.183],[17.8585,-32.9065,1.8193],[17.8571,-32.9096,0.0],[17.8585,-32.9124,0.0],[17.869,-32.9124,2.0871],[17.8685,-32.9182,0.0],[17.8732,-32.9174,2.7398],[17.8768,-32.9193,5.8705],[17.8843,-32.9357,0.0],[17.8851,-32.9501,0.0],[17.8832,-32.9521,0.0],[17.8813,-32.9507,0.0],[17.8807,-32.954,0.0],[17.8757,-32.9543,0.0],[17.8726,-32.9557,0.0],[17.8726,-32.9571,0.1936],[17.8762,-32.9568,0.0],[17.8776,-32.9588,0.0],[17.8832,-32.9593,3.9523],[17.884,-32.9626,0.0],[17.879,-32.9643,0.0],[17.881,-32.9665,0.0],[17.8843,-32.9663,0.0],[17.884,-32.9679,0.0],[17.8818,-32.9685,0.0],[17.8826,-32.9751,0.0],[17.8785,-32.9749,0.0],[17.8779,-32.9762,0.0],[17.8799,-32.9782,0.0],[17.8838,-32.9779,2.4403],[17.8851,-32.9793,0.0376],[17.8843,-32.9807,0.771],[17.8818,-32.9796,0.4703],[17.8807,-32.9821,0.2959],[17.8751,-32.9837,0.0],[17.8754,-32.9893,0.087],[17.871,-32.991,1.1152],[17.8704,-32.994,0.0],[17.8726,-32.9951,2.3388],[17.8726,-32.9968,2.1587],[17.8704,-32.9985,0.0],[17.8721,-33.0007,0.0],[17.8776,-33.0021,0.0],[17.8765,-33.006,0.0],[17.8788,-33.0074,0.2832],[17.8829,-33.0068,0.0],[17.8838,-33.0026,1.2843],[17.8907,-33.0029,2.8525],[17.8971,-33.0074,0.0],[17.9024,-33.0149,0.0],[17.9038,-33.0215,0.0],[17.9007,-33.0279,0.0],[17.8954,-33.0288,1.4606],[17.891,-33.0251,0.0],[17.8874,-33.0268,0.0],[17.8871,-33.0285,0.0],[17.8896,-33.0285,0.0],[17.8915,-33.0307,0.4977],[17.8915,-33.0335,0.0],[17.8954,-33.0351,0.0],[17.8954,-33.0387,0.0],[17.8924,-33.0415,0.0],[17.8957,-33.0426,0.0],[17.8988,-33.0401,0.0],[17.9007,-33.0407,0.0],[17.901,-33.0432,0.0],[17.9026,-33.0438,0.0],[17.9015,-33.0474,0.0],[17.9082,-33.0493,1.9233],[17.9076,-33.0515,0.0],[17.9104,-33.0529,0.9407],[17.9085,-33.0551,0.0],[17.9104,-33.0554,0.0],[17.9143,-33.0496,0.0],[17.9243,-33.0446,0.0],[17.926,-33.0421,1.5176],[17.931,-33.0424,0.0],[17.939,-33.0387,0.4534],[17.9374,-33.0346,0.5636],[17.9335,-33.0321,0.0],[17.9351,-33.0285,2.3398],[17.9474,-33.0254,4.0144],[17.9521,-33.0271,0.0],[17.9554,-33.0307,0.0],[17.959,-33.0293,13.0459],[17.959,-33.031,0.0],[17.9662,-33.0326,1.1117],[17.9715,-33.0385,0.8251],[17.9715,-33.0412,1.0118],[17.9696,-33.0432,4.9917],[17.9654,-33.0424,0.0],[17.9649,-33.044,0.0],[17.9674,-33.0462,2.6671],[17.9715,-33.0457,0.0],[17.9749,-33.0396,1.9427],[17.9735,-33.0357,0.0],[17.9651,-33.0299,3.2196],[17.9651,-33.0274,3.3909],[17.9629,-33.0262,1.4244],[17.9651,-33.024,0.0],[17.9599,-33.0232,0.0],[17.961,-33.0254,0.0],[17.9588,-33.0271,1.0236],[17.9554,-33.0235,0.5653],[17.9524,-33.0226,0.0],[17.9538,-33.0201,0.0],[17.9496,-33.0215,0.6023],[17.9488,-33.0196,0.0],[17.9507,-33.0137,0.0],[17.9496,-33.0126,1.5902],[17.9513,-33.0104,0.0],[17.9468,-33.0071,0.0],[17.9468,-33.0049,0.5927],[17.9524,-33.001,6.4462],[17.966,-32.9968,0.9593],[17.9837,-32.9957,2.3382],[17.9915,-32.9965,0.0],[17.996,-32.9996,4.5139],[17.9951,-33.0035,1.6653],[17.9921,-33.0026,0.0],[17.9951,-33.0049,3.2821],[17.9918,-33.0124,0.7381],[17.9899,-33.0112,0.0],[17.9888,-33.0163,2.7546],[17.9865,-33.0174,0.0],[17.9882,-33.0218,1.1825],[17.9857,-33.0249,0.0],[17.9821,-33.036,0.0],[17.9835,-33.0357,0.0],[17.9907,-33.0213,0.0],[17.9949,-33.0099,0.0],[17.9974,-33.0079,2.8285],[18.0065,-33.0101,0.0],[18.0096,-33.0079,2.7786],[18.0135,-33.0101,1.3331],[18.0107,-33.0104,0.0],[18.0174,-33.0126,5.6694],[18.0268,-33.0207,0.0],[18.0313,-33.026,22.8927],[18.0374,-33.0385,11.8628],[18.0357,-33.0443,0.0],[18.0388,-33.0479,0.0],[18.0424,-33.0479,8.2261],[18.0429,-33.0496,0.0],[18.0413,-33.0537,1.6248],[18.0426,-33.0574,1.1934],[18.0393,-33.0624,0.8548],[18.0413,-33.0635,8.0097],[18.0413,-33.066,9.404],[18.0404,-33.0682,7.2361],[18.0374,-33.0693,0.0],[18.0382,-33.0732,2.0583],[18.0304,-33.084,0.0],[18.0307,-33.0915,1.6015],[18.0279,-33.0982,0.0],[18.0354,-33.109,2.06],[18.0482,-33.1151,1.9355],[18.0518,-33.1215,0.0],[18.0574,-33.1232,0.137],[18.0585,-33.1287,0.2229],[18.0904,-33.1432,0.6327],[18.0932,-33.1501,0.7158],[18.0921,-33.1579,0.2474],[18.089,-33.1632,0.0],[18.0912,-33.1668,0.0],[18.0865,-33.1643,0.0],[18.0829,-33.1646,0.0702],[18.0807,-33.166,0.0],[18.0826,-33.1718,0.1103],[18.0868,-33.1751,0.0],[18.101,-33.1799,0.0],[18.1018,-33.184,0.0],[18.1051,-33.1849,0.0],[18.1112,-33.1899,0.0],[18.1151,-33.1901,0.0],[18.1168,-33.1879,0.0],[18.1126,-33.1871,0.0],[18.1115,-33.1832,0.0],[18.1076,-33.1829,0.0744],[18.1179,-33.1801,0.1238],[18.1235,-33.181,0.2026],[18.1254,-33.1871,0.1145],[18.1213,-33.194,0.0],[18.1115,-33.199,0.0],[18.1087,-33.2021,0.0],[18.0974,-33.2043,0.0],[18.091,-33.2012,0.0],[18.0893,-33.1974,0.0],[18.0918,-33.1932,0.0],[18.0899,-33.1896,0.0],[18.0871,-33.1868,0.0],[18.0843,-33.1868,6.8723],[18.0793,-33.1813,0.3145],[18.0735,-33.1813,2.7046],[18.0699,-33.1768,0.3119],[18.064,-33.1754,0.0],[18.0604,-33.1712,1.1178],[18.0601,-33.1685,0.0],[18.054,-33.1632,0.0],[18.0521,-33.1546,0.0883],[18.0462,-33.1515,0.0],[18.0332,-33.1501,8.0092],[18.0326,-33.1476,0.0],[18.0254,-33.1451,10.0353],[18.0237,-33.1432,6.8223],[18.024,-33.1401,2.563],[18.0257,-33.1379,6.4632],[18.0276,-33.1379,2.1006],[18.0282,-33.134,29.6296],[18.0313,-33.1321,0.0],[18.031,-33.1276,0.0],[18.0271,-33.1249,0.7076],[18.019,-33.1237,1.7212],[18.0132,-33.121,0.0],[18.0149,-33.1135,0.0],[18.0107,-33.1001,0.0],[18.0143,-33.0957,0.0],[18.0063,-33.0921,0.0],[18.0007,-33.0935,0.8748],[17.9904,-33.0924,0.0],[17.9865,-33.0937,0.2002],[17.986,-33.0965,3.0173],[17.9815,-33.0954,3.2989],[17.9846,-33.0901,0.0],[18.0046,-33.0879,0.0],[18.0051,-33.0862,0.0],[18.0026,-33.0818,0.0],[18.0049,-33.0782,0.0],[17.9957,-33.0776,0.0],[17.9949,-33.0757,0.0],[17.9968,-33.0718,0.0],[17.9954,-33.0701,1.3302],[17.9924,-33.0696,0.6262],[17.9893,-33.0713,10.1289],[17.9888,-33.0685,0.0],[17.981,-33.0682,15.8559],[17.9796,-33.0665,0.0],[17.9726,-33.0674,0.0],[17.9724,-33.0699,0.0],[17.9757,-33.0724,19.3878],[17.9735,-33.0743,0.0],[17.9743,-33.0793,0.0],[17.976,-33.0826,0.4403],[17.9793,-33.0824,3.5544],[17.979,-33.0851,0.0],[17.9804,-33.0854,3.6183],[17.979,-33.0921,0.9859],[17.9751,-33.0965,17.9803],[17.9707,-33.0946,1.9203],[17.9699,-33.0982,19.777],[17.9668,-33.0993,0.0],[17.9576,-33.0946,1.1454],[17.9557,-33.099,0.0],[17.9576,-33.1018,4.4938],[17.954,-33.1026,0.0],[17.951,-33.1068,0.5027],[17.9562,-33.1121,0.0],[17.969,-33.1157,0.0],[17.9704,-33.1196,0.0],[17.9732,-33.1215,0.0],[17.9749,-33.1304,0.0],[17.9687,-33.1315,0.0],[17.9704,-33.1343,0.0],[17.9696,-33.1376,0.6192],[17.9743,-33.1399,0.0],[17.9771,-33.1432,0.0],[17.9921,-33.1454,0.5797],[17.9912,-33.1487,0.0],[17.9951,-33.1471,0.0],[17.9979,-33.1476,0.0],[17.999,-33.1504,0.0],[18.0015,-33.1496,0.0],[18.0029,-33.151,0.0],[18.0054,-33.1485,0.0],[18.0088,-33.1504,2.6142],[18.0537,-33.1862,21.6234],[18.081,-33.2123,15.463],[18.1112,-33.2468,0.0],[18.1307,-33.2735,3.1205],[18.1565,-33.3221,2.0599],[18.1568,-33.3221,2.0599],[18.1562,-33.3206,0.0],[18.1828,-33.318,4.4318],[18.1835,-33.3118,0.318],[18.1884,-33.3167,0.293],[18.1913,-33.2956,9.2374],[18.2049,-33.308,16.9591],[18.2266,-33.3095,60.8704],[18.2062,-33.2733,38.9397],[18.2021,-33.2112,117.6632],[18.2066,-33.2131,146.3902],[18.2384,-33.1957,115.0377],[18.2317,-33.1527,96.0836],[18.2444,-33.1534,103.7283],[18.2879,-33.13,104.2029],[18.3084,-33.1799,108.7714],[18.3276,-33.1636,100.2786],[18.3637,-33.1602,80.6014],[18.368,-33.1554,79.4222],[18.3939,-33.186,43.2049],[18.4067,-33.1941,33.6507],[18.4201,-33.1922,40.9766],[18.4466,-33.2091,58.5975],[18.4443,-33.2181,60.4903],[18.4993,-33.2276,61.5193],[18.5169,-33.1983,76.0274],[18.5048,-33.1777,81.6441],[18.4909,-33.1669,45.9316],[18.4871,-33.1587,66.2926],[18.4977,-33.1454,74.5045],[18.4941,-33.1431,75.1835],[18.4944,-33.1263,72.9118],[18.5026,-33.1238,83.3636],[18.5065,-33.1169,80.151],[18.505,-33.1108,68.3494],[18.5354,-33.0816,71.3227],[18.5207,-33.058,62.9239],[18.5039,-33.0464,66.2557],[18.5384,-33.0347,63.9896],[18.5315,-33.0115,77.0628],[18.5385,-33.0051,73.3586],[18.5313,-32.9825,59.9446],[18.5204,-32.9562,13.9777],[18.5113,-32.946,5.9459],[18.5062,-32.9487,4.3537],[18.4972,-32.9458,13.564],[18.4927,-32.9524,5.0779],[18.4888,-32.9538,5.5447],[18.4779,-32.95,4.3175],[18.4705,-32.9446,5.6025],[18.4562,-32.9546,9.1328],[18.4538,-32.9517,5.3128],[18.4553,-32.9394,4.2361],[18.4457,-32.938,4.3659],[18.4437,-32.9399,4.8046],[18.4447,-32.946,3.5917],[18.4238,-32.9446,3.171],[18.4165,-32.9491,2.9269],[18.4151,-32.9535,6.345],[18.4125,-32.9519,9.5927],[18.4113,-32.9438,3.7387],[18.4048,-32.9434,4.1041],[18.3998,-32.9536,2.7625],[18.3998,-32.9575,1.9149],[18.3921,-32.9585,3.4829],[18.3802,-32.9585,2.5669],[18.3771,-32.9569,3.2769],[18.3732,-32.9586,1.9101],[18.3685,-32.9572,1.4828],[18.37,-32.9458,2.3526],[18.3682,-32.9408,1.3544],[18.3688,-32.9376,8.3661],[18.3667,-32.938,1.0718],[18.3654,-32.9419,0.8888],[18.3622,-32.9442,1.4831],[18.3415,-32.9426,1.5182],[18.3403,-32.943,1.1478],[18.3401,-32.9465,12.1165],[18.3305,-32.9494,28.1353]]],
[[[17.9863,-33.1549,0.0],[17.9874,-33.151,0.0],[17.9799,-33.151,0.0],[17.9779,-33.1524,0.0],[17.9826,-33.1557,0.0],[17.9863,-33.1549,0.0]]],
[[[18.0229,-33.0885,0.0],[18.019,-33.0887,2.012],[18.0174,-33.0929,0.0],[18.019,-33.0943,4.0777],[18.0237,-33.0943,1.5939],[18.0263,-33.0901,1.0857],[18.0229,-33.0885,0.0]]],
[[[18.0096,-33.0843,0.0],[18.0068,-33.084,0.0],[18.006,-33.0854,0.0],[18.011,-33.0871,0.0],[18.0096,-33.0843,0.0]]],
[[[17.9521,-33.079,0.0],[17.9499,-33.0779,0.0],[17.9496,-33.0826,0.0],[17.9546,-33.0879,0.0],[17.9585,-33.0865,0.0],[17.9599,-33.0849,0.0],[17.959,-33.0821,0.0],[17.9521,-33.079,0.0]]],
[[[17.926,-33.0507,0.0],[17.9226,-33.0501,0.0],[17.9226,-33.0551,0.0],[17.926,-33.056,0.0],[17.929,-33.0537,0.0],[17.926,-33.0507,0.0]]],
[[[17.9296,-33.0496,0.0],[17.9287,-33.0479,0.0],[17.9257,-33.0482,0.0],[17.9257,-33.0493,0.0],[17.9296,-33.0496,0.0]]],
[[[17.8874,-32.741,0.0],[17.8846,-32.7407,0.0],[17.8835,-32.7424,0.0],[17.8887,-32.7438,0.0],[17.889,-32.741,0.0],[17.8874,-32.741,0.0]]],
[[[17.8838,-32.7399,0.0],[17.884,-32.7379,0.0],[17.8793,-32.7396,0.4861],[17.8796,-32.7404,0.4861],[17.8838,-32.7399,0.0]]],
[[[17.8704,-32.7371,0.0],[17.8671,-32.7368,0.0],[17.8721,-32.7401,0.0],[17.8729,-32.7385,0.0],[17.8704,-32.7371,0.0]]],
[[[17.8807,-32.7368,0.0],[17.8801,-32.7354,0.0],[17.8754,-32.736,0.0],[17.8762,-32.7379,0.0],[17.8807,-32.7368,0.0]]]]}}