{"type": "Feature","bbox": [24.3466,-30.0342,25.7716,-28.8283],"geometry": {"type": "MultiPolygon","coordinates": [[[[24.9746,-29.8963,1312.4113],[24.9731,-29.8736,1304.7563],[24.9673,-29.8475,1281.7139],[24.9981,-29.8462,1315.9905],[24.9982,-29.8438,1310.3871],[24.9692,-29.8312,1280.2642],[24.9646,-29.8109,1306.4904],[24.9838,-29.8174,1300.4652],[24.9845,-29.8027,1337.4647],[24.9597,-29.7878,1380.5586],[24.9558,-29.788,1365.988],[24.9527,-29.749,1377.5884],[24.9559,-29.7128,1335.2939],[24.9545,-29.7125,1328.527],[24.9538,-29.6474,1301.434],[24.9729,-29.6253,1322.5933],[24.9949,-29.6241,1330.1324],[25.0133,-29.6355,1316.2666],[25.0281,-29.6254,1316.8523],[25.0259,-29.6165,1308.4841],[25.0329,-29.6148,1314.8997],[25.0526,-29.601,1304.0889],[25.067,-29.5465,1269.4143],[25.0745,-29.5465,1277.0532],[25.0887,-29.5611,1309.9923],[25.0972,-29.558,1322.7505],[25.0998,-29.5652,1330.6477],[25.1085,-29.5612,1292.9863],[25.1656,-29.5333,1245.9514],[25.1714,-29.5249,1227.4429],[25.1769,-29.5209,1218.6902],[25.1788,-29.5169,1214.9413],[25.1783,-29.5093,1206.33],[25.1803,-29.5018,1201.0846],[25.1773,-29.491,1186.723],[25.1825,-29.4927,1190.7388],[25.1947,-29.508,1302.5709],[25.1878,-29.5814,1404.8058],[25.1931,-29.5843,1365.9246],[25.2047,-29.5808,1311.4602],[25.206,-29.5827,1309.3693],[25.2007,-29.6106,1305.9011],[25.2007,-29.625,1298.5051],[25.2267,-29.6224,1283.4302],[25.2429,-29.5906,1280.9407],[25.2828,-29.5975,1236.614],[25.2866,-29.5938,1243.3696],[25.2906,-29.5942,1235.9434],[25.3056,-29.6289,1290.46],[25.3343,-29.6631,1495.7987],[25.37,-29.6416,1272.6178],[25.3943,-29.638,1256.1548],[25.4066,-29.6245,1241.2241],[25.4028,-29.621,1247.7535],[25.402,-29.6181,1243.6505],[25.399,-29.6181,1242.1346],[25.4007,-29.6154,1249.5931],[25.4106,-29.6076,1360.9136],[25.4195,-29.6091,1386.5338],[25.4216,-29.6047,1372.6296],[25.4303,-29.6015,1387.1553],[25.4236,-29.5993,1410.3556],[25.4275,-29.5955,1360.4475],[25.4605,-29.5847,1436.3092],[25.4578,-29.5799,1429.0632],[25.4442,-29.5699,1247.1024],[25.4408,-29.5656,1241.6031],[25.4477,-29.5559,1243.822],[25.4408,-29.5239,1319.9165],[25.4479,-29.5229,1311.8984],[25.4507,-29.5253,1308.4718],[25.4522,-29.5317,1306.8689],[25.462,-29.5299,1300.5228],[25.4665,-29.5485,1243.1859],[25.4693,-29.55,1243.6461],[25.4692,-29.5559,1243.1097],[25.4796,-29.5619,1243.8367],[25.4824,-29.5621,1245.7318],[25.4868,-29.5588,1245.8939],[25.4872,-29.5549,1244.6893],[25.4956,-29.5466,1244.9253],[25.4966,-29.5419,1246.2383],[25.5057,-29.5418,1246.6808],[25.5152,-29.5361,1247.9711],[25.4965,-29.5196,1304.1056],[25.465699999999998,-29.4724,1332.2258],[25.5025,-29.484,1316.8368],[25.5146,-29.4748,1354.641],[25.5111,-29.4531,1315.2347],[25.4966,-29.4561,1320.0073],[25.49,-29.4342,1343.5991],[25.5458,-29.4295,1347.1018],[25.5401,-29.412,1403.6589],[25.5145,-29.3965,1361.1348],[25.5265,-29.3419,1352.5077],[25.4802,-29.3609,1348.8923],[25.4609,-29.3404,1357.2605],[25.4633,-29.3331,1352.8389],[25.4585,-29.335,1354.5354],[25.4511,-29.3069,1338.0474],[25.4613,-29.3063,1351.4972],[25.467,-29.3016,1359.1809],[25.4583,-29.2922,1362.4426],[25.4581,-29.2852,1349.5396],[25.4771,-29.282,1364.3464],[25.4811,-29.3073,1365.1578],[25.4973,-29.2998,1381.5569],[25.5073,-29.2853,1386.8966],[25.5176,-29.2962,1378.7987],[25.5515,-29.2841,1377.6001],[25.5739,-29.2719,1358.3633],[25.5396,-29.2561,1351.792],[25.5629,-29.2061,1354.1901],[25.6113,-29.2237,1377.1909],[25.6855,-29.2267,1317.7589],[25.7067,-29.2389,1306.3179],[25.7412,-29.2343,1295.5846],[25.7411,-29.1935,1288.1006],[25.7433,-29.1921,1282.0701],[25.7437,-29.1893,1273.5861],[25.7411,-29.1904,1287.0471],[25.7397,-29.1881,1283.1023],[25.7443,-29.1769,1279.3597],[25.7716,-29.1692,1285.296],[25.7347,-29.1412,1298.8237],[25.7552,-29.1342,1298.266],[25.7624,-29.1167,1288.1906],[25.7344,-29.1139,1284.5332],[25.7326,-29.1021,1280.1519],[25.7339,-29.0934,1281.0504],[25.7394,-29.0807,1313.4097],[25.7313,-29.077,1308.0112],[25.7609,-29.0258,1248.5248],[25.7194,-29.0063,1255.8141],[25.7472,-28.9779,1263.4402],[25.7374,-28.9608,1231.6079],[25.7453,-28.9064,1220.2877],[25.7438,-28.9043,1216.4392],[25.7382,-28.903199999999998,1218.3804],[25.7233,-28.9087,1213.4875],[25.7115,-28.9057,1213.4547],[25.7054,-28.9092,1211.033],[25.7045,-28.9054,1212.0881],[25.7003,-28.9072,1211.9312],[25.6959,-28.9061,1212.2017],[25.6922,-28.9039,1213.6841],[25.6897,-28.8999,1213.9136],[25.6806,-28.8958,1211.0634],[25.672,-28.9004,1210.4358],[25.6676,-28.8927,1213.7075],[25.6632,-28.8892,1209.5924],[25.6606,-28.8891,1208.9625],[25.6604,-28.8925,1208.2882],[25.6545,-28.8913,1213.1827],[25.6497,-28.8875,1208.6511],[25.641,-28.8916,1210.6484],[25.6385,-28.8871,1207.4628],[25.636,-28.8859,1207.3262],[25.6292,-28.8871,1203.1011],[25.626,-28.894,1206.4178],[25.622,-28.8964,1208.3909],[25.616,-28.8914,1203.9059],[25.6137,-28.8833,1207.6027],[25.601,-28.8804,1204.4829],[25.5993,-28.8747,1206.2435],[25.5935,-28.8708,1201.4272],[25.5914,-28.8809,1202.4939],[25.5889,-28.883,1205.0093],[25.5819,-28.8807,1200.6331],[25.5778,-28.8761,1203.4065],[25.5723,-28.8748,1201.745],[25.567,-28.8808,1199.4691],[25.5607,-28.878,1200.4835],[25.5567,-28.8822,1201.3979],[25.5535,-28.8822,1199.2313],[25.5503,-28.8802,1199.0867],[25.5463,-28.8722,1201.0569],[25.5394,-28.871,1198.5072],[25.5413,-28.865,1199.4613],[25.5388,-28.8584,1197.1921],[25.5347,-28.8547,1198.905],[25.5288,-28.8525,1198.1807],[25.515,-28.8564,1196.0981],[25.5138,-28.8643,1192.4082],[25.5112,-28.8694,1192.948],[25.4944,-28.8764,1191.5227],[25.4855,-28.8832,1192.7135],[25.476,-28.882,1191.0093],[25.4703,-28.8884,1189.9639],[25.4504,-28.9002,1188.7412],[25.4482,-28.9004,1188.2908],[25.442,-28.8968,1188.0135],[25.4177,-28.8968,1186.2286],[25.4165,-28.9109,1184.02],[25.4066,-28.9172,1185.8424],[25.4012,-28.9161,1184.1719],[25.3907,-28.917,1183.6071],[25.3816,-28.9134,1183.1418],[25.3771,-28.9135,1182.6604],[25.3694,-28.9068,1181.7124],[25.3627,-28.9089,1180.7245],[25.3594,-28.9081,1182.8148],[25.3515,-28.8999,1179.7085],[25.347,-28.9009,1180.2719],[25.3442,-28.8975,1181.6034],[25.3361,-28.8945,1178.8052],[25.3302,-28.8984,1181.6361],[25.3199,-28.8987,1179.0869],[25.3162,-28.8982,1177.5981],[25.3125,-28.8929,1179.6299],[25.3104,-28.8926,1178.6497],[25.3059,-28.8947,1177.5718],[25.3036,-28.8998,1179.9958],[25.2999,-28.9019,1178.1666],[25.2966,-28.9012,1177.483],[25.2955,-28.8947,1177.1394],[25.2935,-28.8933,1177.6031],[25.2822,-28.902,1176.0784],[25.2728,-28.893,1175.0699],[25.2704,-28.8924,1175.6346],[25.2674,-28.894,1172.8932],[25.2663,-28.9001,1175.4277],[25.2641,-28.9024,1174.5555],[25.2602,-28.9037,1173.3345],[25.2507,-28.9031,1173.1295],[25.2423,-28.9075,1171.3359],[25.2302,-28.9009,1169.2673],[25.2235,-28.8943,1169.2289],[25.2109,-28.9017,1170.4424],[25.2064,-28.9028,1167.8851],[25.2025,-28.9072,1170.78],[25.2053,-28.912,1166.1011],[25.206,-28.9225,1165.5317],[25.2002,-28.9254,1164.4259],[25.1927,-28.9377,1165.1495],[25.1881,-28.9383,1163.0223],[25.1843,-28.936,1163.9819],[25.1813,-28.936,1164.521],[25.1764,-28.9433,1163.8428],[25.1707,-28.9472,1163.0376],[25.1661,-28.9481,1162.3257],[25.1582,-28.9475,1162.2069],[25.1489,-28.9435,1162.0408],[25.1456,-28.949,1159.553],[25.1312,-28.9631,1158.9563],[25.1141,-28.9654,1160.5172],[25.0856,-28.9076,1187.2203],[25.0878,-28.9062,1182.0164],[25.0059,-28.9081,1160.7589],[24.9925,-28.903199999999998,1161.4944],[24.9827,-28.9445,1155.5154],[24.9745,-28.9485,1152.9824],[24.9593,-28.9449,1146.037],[24.8692,-28.8947,1216.8248],[24.811,-28.9131,1197.8868],[24.7977,-28.8538,1142.5554],[24.8018,-28.8283,1155.2842],[24.6619,-29.0792,1113.6951],[24.3466,-29.6559,1071.1516],[24.3522,-29.6587,1070.0],[24.3535,-29.6619,1070.0],[24.3489,-29.7032,1072.5574],[24.3545,-29.7131,1072.5],[24.3678,-29.7205,1073.5],[24.3763,-29.7273,1074.0],[24.3879,-29.7539,1078.1293],[24.4022,-29.7741,1078.884],[24.4105,-29.7894,1078.7358],[24.4246,-29.8012,1081.2263],[24.4351,-29.8059,1083.4178],[24.4389,-29.8148,1080.734],[24.4472,-29.8151,1091.2339],[24.4535,-29.8111,1082.6013],[24.459,-29.8107,1081.0],[24.4872,-29.813,1086.3744],[24.4977,-29.816,1082.375],[24.5034,-29.8241,1086.2094],[24.5018,-29.8332,1083.0],[24.5026,-29.8365,1083.7203],[24.5103,-29.8415,1083.5],[24.5237,-29.8452,1085.0281],[24.5395,-29.8423,1084.5],[24.547,-29.8449,1085.5972],[24.5507,-29.8492,1084.8013],[24.5551,-29.8626,1085.5588],[24.5642,-29.8777,1085.0],[24.5841,-29.8962,1085.5],[24.6079,-29.9113,1091.0029],[24.6453,-29.9113,1091.2598],[24.6495,-29.9069,1097.0471],[24.6496,-29.9021,1091.7758],[24.652,-29.8992,1089.0],[24.6557,-29.8986,1089.0],[24.6637,-29.9011,1091.0454],[24.6679,-29.9076,1094.0179],[24.6628,-29.9422,1096.6405],[24.6695,-29.9611,1097.957],[24.6713,-29.9715,1100.1095],[24.6736,-29.9749,1095.3298],[24.6793,-29.978,1098.8556],[24.7036,-29.9837,1094.6857],[24.7124,-29.9887,1097.0007],[24.7237,-29.9922,1099.5577],[24.7502,-29.9895,1169.0],[24.7571,-29.9929,1169.0],[24.7738,-29.9938,1169.0],[24.7924,-29.998,1169.0],[24.8033,-30.0112,1169.0],[24.8081,-30.023,1169.0],[24.8073,-30.0264,1169.0],[24.8001,-30.0313,1169.0],[24.7985,-30.0342,1169.0],[24.8359,-30.034,1169.0],[24.8526,-30.028,1344.793],[24.8567,-30.0274,1312.7253],[24.8581,-30.0295,1333.9639],[24.8692,-30.0256,1353.8979],[24.8702,-30.022,1345.6179],[24.8813,-30.0119,1346.1584],[24.9025,-29.9761,1389.145],[24.8936,-29.9684,1319.8335],[24.8912,-29.9619,1327.4424],[24.8892,-29.9606,1319.6624],[24.8885,-29.9526,1346.0471],[24.882,-29.9403,1323.6981],[24.8792,-29.9381,1311.2732],[24.9024,-29.9387,1288.9008],[24.8988,-29.9229,1275.6667],[24.9112,-29.9209,1287.4797],[24.9382,-29.9219,1353.0558],[24.9399,-29.916,1378.4308],[24.9539,-29.9175,1383.8992],[24.9713,-29.9144,1323.0234],[24.9756,-29.9149,1322.8137],[24.9746,-29.8963,1312.4113]]]]}
,"properties": {"GID_3": "ZAF.2.5.2_1","GID_0": "ZAF","country": "SouthAfrica","GID_1": "ZAF.2_1","province": "FreeState","NL_NAME_1": "NA","GID_2": "ZAF.2.5_1","county": "Xhariep","NL_NAME_2": "NA","city": "Letsemeng","VARNAME_3": "NA","NL_NAME_3": "NA","TYPE_3": "LocalMunicipality","ENGTYPE_3": "LocalMunicipality","CC_3": "FS161","HASC_3": "NA","name": "Letsemeng.city","area_km2": 9842.641,"hist_schema_id": "Elevation0-9000","hist_area_km2": {"1075": 12.814,"1100": 132.166,"1125": 500.771,"1150": 1213.439,"1175": 1427.767,"1200": 1475.135,"1225": 1476.265,"1250": 1061.383,"1275": 868.308,"1300": 767.938,"1325": 500.119,"1350": 250.656,"1375": 104.487,"1400": 22.905,"1425": 11.535,"1450": 9.957,"1475": 6.145,"1500": 0.72}}}