{"type":"Feature","properties":{"GID_3":"ZAF.4.8.3_1","GID_0":"ZAF","country":"SouthAfrica","GID_1":"ZAF.4_1","province":"KwaZulu-Natal","NL_NAME_1":"NA","GID_2":"ZAF.4.8_1","county":"Umzinyathi","NL_NAME_2":"NA","city":"Nqutu","VARNAME_3":"NA","NL_NAME_3":"NA","TYPE_3":"LocalMunicipality","ENGTYPE_3":"LocalMunicipality","CC_3":"KZN242","HASC_3":"NA","name":"Nqutu.city"},
"geometry":{"type": "MultiPolygon","coordinates": [[[[30.6696,-28.6413,607.0474],[30.6721,-28.6432,610.0244],[30.6799,-28.6414,617.6345],[30.6903,-28.645,683.4792],[30.7053,-28.6527,833.4064],[30.7155,-28.6559,1050.8281],[30.7324,-28.6652,1598.3883],[30.7378,-28.6589,1725.5922],[30.7339,-28.642,1718.021],[30.7533,-28.6288,1695.447],[30.7814,-28.6269,1617.8203],[30.7885,-28.6289,1641.129],[30.8383,-28.5749,1501.5439],[30.8214,-28.5816,1309.4614],[30.8025,-28.572,1337.5322],[30.8055,-28.5712,1376.1635],[30.7946,-28.5609,1138.2234],[30.7848,-28.5575,1079.1492],[30.7732,-28.5482,997.0645],[30.7573,-28.5417,967.355],[30.7633,-28.5389,1005.0564],[30.7691,-28.5335,1107.5259],[30.7714,-28.5175,1499.9617],[30.7848,-28.5201,1510.8032],[30.804,-28.5178,1551.7015],[30.8327,-28.4637,1599.8662],[30.9654,-28.4063,1241.0366],[30.961,-28.3409,1346.3442],[30.9207,-28.3592,1209.6136],[30.9287,-28.3385,1095.3699],[30.9422,-28.3123,1059.1653],[30.9704,-28.2889,1110.3596],[31.0015,-28.2602,1007.8975],[31.0268,-28.2306,886.6172],[31.0476,-28.2001,902.8065],[31.0177,-28.184,883.2585],[31.0116,-28.1912,807.3777],[30.9941,-28.1541,939.9868],[30.9717,-28.1686,893.5405],[30.9505,-28.1436,873.5571],[30.9443,-28.1441,890.5543],[30.9433,-28.1475,888.175],[30.9389,-28.1489,890.5283],[30.9361,-28.1542,915.7315],[30.936,-28.1564,911.5134],[30.9392,-28.1593,913.1346],[30.9425,-28.1675,903.6677],[30.9406,-28.1716,912.9307],[30.9319,-28.1687,909.9003],[30.9251,-28.1708,915.3052],[30.9135,-28.17,916.942],[30.9097,-28.1662,930.9979],[30.9052,-28.166,926.0814],[30.8957,-28.1598,929.0082],[30.8955,-28.1584,926.3948],[30.8997,-28.1574,932.9802],[30.8992,-28.1558,932.7397],[30.8956,-28.1534,939.1175],[30.8939,-28.1497,945.9553],[30.8902,-28.1511,943.4187],[30.8903,-28.1479,953.1609],[30.8871,-28.1453,950.3024],[30.8852,-28.1469,947.8265],[30.8871,-28.1493,952.87],[30.8857,-28.1505,954.4166],[30.882,-28.1478,958.867],[30.8775,-28.1473,951.8215],[30.8788,-28.1443,954.8006],[30.8771,-28.1418,954.3293],[30.8827,-28.142,956.9389],[30.8834,-28.1389,962.5156],[30.8791,-28.1369,962.3212],[30.8787,-28.1326,963.0277],[30.8757,-28.1308,965.6608],[30.8787,-28.1273,966.4581],[30.8739,-28.1274,963.892],[30.8746,-28.1242,966.3009],[30.8719,-28.1223,967.5322],[30.8717,-28.12,970.4351],[30.867,-28.1185,975.4924],[30.8656,-28.1164,968.5864],[30.8595,-28.1235,983.5422],[30.8541,-28.1247,976.7761],[30.848,-28.1304,983.314],[30.8461,-28.1303,984.3018],[30.8474,-28.1285,983.7975],[30.844,-28.1259,991.6968],[30.8405,-28.1309,991.4428],[30.8374,-28.1283,988.85],[30.8286,-28.1283,993.5785],[30.8234,-28.1233,992.375],[30.8153,-28.1323,998.4852],[30.8131,-28.131,1000.2077],[30.8129,-28.1279,1009.4044],[30.8073,-28.1292,1004.2607],[30.8045,-28.1328,1005.6531],[30.8001,-28.1341,1007.138],[30.79,-28.1415,1024.0718],[30.7822,-28.1383,1024.0657],[30.7772,-28.1381,1028.5771],[30.774,-28.1396,1041.4507],[30.771,-28.1366,1028.9482],[30.7657,-28.1353,1032.0308],[30.7614,-28.136,1035.8833],[30.7558,-28.1344,1035.8361],[30.7496,-28.1355,1040.1013],[30.7464,-28.1339,1040.9855],[30.7476,-28.1322,1042.0293],[30.746,-28.1293,1060.5161],[30.7385,-28.1287,1051.7188],[30.7339,-28.1226,1055.2045],[30.7295,-28.1276,1059.7407],[30.7225,-28.1302,1065.0011],[30.7021,-28.1283,1074.8408],[30.6919,-28.1318,1085.7578],[30.6875,-28.1291,1092.7783],[30.6862,-28.1313,1090.8922],[30.6838,-28.1311,1096.1155],[30.6731,-28.1364,1113.3757],[30.6675,-28.1357,1115.3538],[30.6625,-28.1377,1126.8105],[30.6577,-28.1375,1134.8229],[30.6546,-28.1398,1152.0314],[30.6472,-28.1412,1168.0381],[30.642,-28.1457,1238.3191],[30.6341,-28.1452,1285.481],[30.6316,-28.1399,1342.5332],[30.6606,-28.1025,1478.1626],[30.6684,-28.1024,1513.0337],[30.6626,-28.0977,1393.8118],[30.6555,-28.0959,1334.9982],[30.6524,-28.0904,1251.3293],[30.6449,-28.084,1215.967],[30.6423,-28.0764,1204.1465],[30.6399,-28.0747,1201.7006],[30.632,-28.0613,1236.5984],[30.6292,-28.0518,1233.626],[30.6128,-28.0352,1238.0574],[30.6719,-27.985,1228.1912],[30.685,-27.9859,1163.2986],[30.6857,-27.9779,1178.9443],[30.6845,-27.9712,1213.9513],[30.6815,-27.9658,1240.5717],[30.6771,-27.962,1281.5388],[30.6735,-27.9664,1353.668],[30.6725,-27.9565,1263.8185],[30.666,-27.952,1231.339],[30.6657,-27.9493,1221.2843],[30.6595,-27.9491,1219.3081],[30.6581,-27.9457,1210.5266],[30.646,-27.9399,1199.7842],[30.6397,-27.9351,1193.7234],[30.6388,-27.9321,1194.9604],[30.6282,-27.932,1187.8315],[30.6244,-27.9336,1186.5333],[30.6236,-27.9324,1185.162],[30.6166,-27.9352,1183.2617],[30.6108,-27.932,1181.9304],[30.6062,-27.9315,1180.2665],[30.6051,-27.9335,1179.7443],[30.5994,-27.9346,1178.8939],[30.5977,-27.9388,1178.188],[30.5939,-27.9378,1177.6257],[30.593,-27.9412,1177.899],[30.5914,-27.9404,1179.4619],[30.594,-27.9425,1177.5],[30.5933,-27.944,1177.5],[30.597,-27.9441,1177.5],[30.5954,-27.9482,1177.7153],[30.5967,-27.9492,1177.5],[30.5981,-27.9474,1177.5],[30.6,-27.9482,1178.2848],[30.5989,-27.9497,1177.5],[30.601,-27.9525,1177.5],[30.5966,-27.9558,1175.6478],[30.5956,-27.9594,1175.9839],[30.5901,-27.9578,1177.4738],[30.5902,-27.9598,1174.4814],[30.5862,-27.9628,1174.2234],[30.5874,-27.9644,1173.7457],[30.5836,-27.9662,1174.2271],[30.5838,-27.9703,1173.5322],[30.5859,-27.9703,1180.0232],[30.5864,-27.972,1178.819],[30.5827,-27.9741,1172.5935],[30.5868,-27.9774,1176.3354],[30.5839,-27.9806,1171.7856],[30.5873,-27.9822,1172.4379],[30.5872,-27.9886,1173.3113],[30.5836,-27.9872,1172.6086],[30.5813,-27.9921,1171.4023],[30.5856,-27.9958,1173.1758],[30.5778,-27.9963,1170.4371],[30.578,-27.9986,1171.4033],[30.5714,-27.9998,1170.8571],[30.5665,-28.0046,1170.4395],[30.5666,-28.007,1169.7983],[30.5701,-28.0096,1173.4895],[30.5653,-28.0115,1168.3101],[30.5671,-28.0135,1169.8503],[30.563,-28.0145,1168.4365],[30.5646,-28.0155,1167.6252],[30.5631,-28.0197,1167.5048],[30.5664,-28.0215,1167.4773],[30.5651,-28.0278,1166.399],[30.5696,-28.0288,1168.1758],[30.5705,-28.0307,1166.2603],[30.568,-28.0403,1168.6682],[30.5705,-28.0428,1165.6678],[30.575,-28.0433,1165.7615],[30.5798,-28.0495,1164.2928],[30.5777,-28.0535,1164.8246],[30.578,-28.0571,1164.6418],[30.5761,-28.0576,1164.1064],[30.5741,-28.0554,1164.6926],[30.5707,-28.0576,1171.7393],[30.5661,-28.069,1162.0112],[30.562,-28.0663,1161.6821],[30.5627,-28.0648,1162.7136],[30.559,-28.0646,1161.2257],[30.5568,-28.0656,1162.2365],[30.5585,-28.0679,1161.5105],[30.5545,-28.0679,1163.4532],[30.5504,-28.0728,1161.1882],[30.5424,-28.0711,1158.9575],[30.5411,-28.0749,1162.2827],[30.5443,-28.0819,1169.7954],[30.5408,-28.0863,1158.1897],[30.5391,-28.0855,1157.4622],[30.5395,-28.0901,1158.3136],[30.5351,-28.090699999999998,1156.8048],[30.5365,-28.0929,1157.9222],[30.5354,-28.0948,1157.74],[30.5432,-28.0965,1156.8844],[30.5443,-28.108,1154.6345],[30.5462,-28.1097,1155.5548],[30.5433,-28.11,1153.9314],[30.5419,-28.124,1156.1512],[30.5498,-28.1354,1150.9807],[30.5443,-28.1369,1150.4417],[30.5457,-28.1393,1149.8926],[30.5437,-28.1438,1150.2124],[30.5411,-28.143,1160.4403],[30.5384,-28.1388,1151.6805],[30.5334,-28.1385,1142.3428],[30.5288,-28.1404,1141.9767],[30.528,-28.1518,1136.9352],[30.5301,-28.1539,1137.076],[30.5264,-28.1603,1137.0267],[30.5234,-28.1602,1136.8333],[30.5213,-28.1627,1136.4268],[30.5231,-28.166,1131.7671],[30.5134,-28.1716,1124.6501],[30.5177,-28.178,1126.3608],[30.5223,-28.1796,1124.5636],[30.5223,-28.1863,1125.0872],[30.5241,-28.189,1120.9011],[30.5301,-28.1878,1141.1677],[30.5315,-28.1905,1119.1528],[30.53,-28.195,1121.1591],[30.5334,-28.1947,1121.0066],[30.5362,-28.187,1113.8027],[30.5418,-28.1838,1111.7572],[30.5441,-28.1857,1109.7067],[30.5413,-28.1872,1115.386],[30.5429,-28.1905,1112.8878],[30.5403,-28.1922,1107.9159],[30.543,-28.1956,1113.2466],[30.542,-28.1982,1108.949],[30.5368,-28.1999,1106.1466],[30.5301,-28.2074,1105.335],[30.5346,-28.2115,1106.927],[30.5366,-28.2186,1100.01],[30.5358,-28.2205,1098.4575],[30.5285,-28.2211,1100.3944],[30.5269,-28.2244,1091.0139],[30.5207,-28.2275,1092.3772],[30.5177,-28.2327,1084.2413],[30.5089,-28.2311,1087.8191],[30.5077,-28.238,1082.5367],[30.5141,-28.2376,1082.1238],[30.5162,-28.2419,1084.4734],[30.5111,-28.2436,1080.5469],[30.5082,-28.2476,1078.1018],[30.5073,-28.2519,1083.1107],[30.5023,-28.2529,1079.5651],[30.5013,-28.2548,1079.2563],[30.5036,-28.2615,1080.0653],[30.5089,-28.2658,1078.2227],[30.5298,-28.2689,1099.1494],[30.5303,-28.274,1084.7344],[30.5247,-28.2805,1075.0299],[30.5207,-28.2812,1075.2086],[30.5129,-28.2784,1074.9689],[30.5089,-28.2838,1074.834],[30.5113,-28.2871,1074.847],[30.5221,-28.2902,1073.2267],[30.5226,-28.2936,1072.9702],[30.5303,-28.3056,1073.028],[30.5308,-28.3092,1072.3972],[30.5275,-28.3129,1073.9286],[30.5228,-28.3092,1079.2104],[30.5176,-28.3188,1077.4108],[30.5023,-28.3134,1071.3315],[30.4971,-28.3177,1072.1901],[30.4957,-28.3211,1069.3193],[30.5055,-28.326,1072.13],[30.5045,-28.3313,1074.7494],[30.5301,-28.3335,1062.2231],[30.5358,-28.3436,1059.8359],[30.5415,-28.3486,1060.3322],[30.5462,-28.3485,1061.3977],[30.5592,-28.3409,1058.377],[30.5679,-28.3403,1045.832],[30.5692,-28.349,1036.1866],[30.5763,-28.3539,1015.0823],[30.5747,-28.357,1023.1606],[30.5877,-28.3669,1041.1813],[30.5874,-28.3695,1033.4144],[30.5812,-28.3785,995.9964],[30.5821,-28.3818,977.4064],[30.5853,-28.3828,967.8829],[30.5995,-28.3792,977.4054],[30.604,-28.3823,945.848],[30.6106,-28.3835,936.3044],[30.6162,-28.3894,970.7257],[30.6248,-28.389,923.1046],[30.6277,-28.3913,917.6164],[30.628,-28.3951,911.4536],[30.6258,-28.4004,895.9955],[30.6293,-28.4046,955.0],[30.6357,-28.408,899.304],[30.6361,-28.4142,880.5352],[30.6311,-28.4157,876.9444],[30.6252,-28.4116,872.9978],[30.6183,-28.4137,865.7668],[30.6132,-28.4091,876.4711],[30.6021,-28.424,853.8793],[30.5901,-28.4278,843.2491],[30.5914,-28.4428,850.2419],[30.5943,-28.4468,833.5778],[30.5972,-28.4472,834.4139],[30.6059,-28.4433,826.8597],[30.6092,-28.4439,831.2996],[30.6124,-28.4525,820.2534],[30.6168,-28.4534,817.8962],[30.6223,-28.4444,827.4697],[30.6247,-28.444,832.8327],[30.6299,-28.4486,839.76],[30.6351,-28.4571,803.0624],[30.6443,-28.4625,804.0438],[30.6427,-28.469,810.0818],[30.6362,-28.4681,790.9716],[30.6305,-28.4756,789.5339],[30.6142,-28.4729,790.3631],[30.6134,-28.4755,779.6006],[30.6168,-28.4814,780.6682],[30.6169,-28.4864,788.5557],[30.6237,-28.4955,778.7693],[30.6234,-28.4995,774.353],[30.6203,-28.5038,778.1965],[30.6202,-28.5092,784.0778],[30.6236,-28.5093,763.8947],[30.6282,-28.5049,764.3221],[30.6292,-28.4969,768.7889],[30.6317,-28.4927,782.7807],[30.639,-28.4937,764.9871],[30.649,-28.4922,746.5445],[30.654,-28.495,749.6691],[30.6568,-28.4945,741.8814],[30.6583,-28.4921,741.3307],[30.6633,-28.4924,740.4321],[30.6668,-28.4954,741.4257],[30.67,-28.5026,734.5654],[30.6763,-28.5101,732.0258],[30.6764,-28.5194,725.4118],[30.6701,-28.5222,726.1257],[30.667,-28.5285,714.1881],[30.6729,-28.5337,713.0494],[30.6789,-28.5363,746.7581],[30.6817,-28.5408,759.5181],[30.6722,-28.5517,689.7411],[30.6632,-28.5528,685.0367],[30.6521,-28.5507,680.0889],[30.6482,-28.5552,684.7029],[30.6488,-28.5612,686.2823],[30.6447,-28.5635,668.9286],[30.6413,-28.5635,667.1436],[30.6357,-28.5664,674.462],[30.6264,-28.5669,661.1755],[30.6173,-28.5708,654.8239],[30.6137,-28.5679,689.7468],[30.6085,-28.5688,659.2843],[30.6036,-28.5657,687.9564],[30.6017,-28.5697,671.3863],[30.6056,-28.5741,655.095],[30.6066,-28.577,652.204],[30.6053,-28.5807,638.4278],[30.6104,-28.586,651.557],[30.6105,-28.5897,641.9526],[30.6141,-28.5959,701.575],[30.6126,-28.6063,652.2883],[30.6153,-28.6146,616.8588],[30.616,-28.6276,597.1317],[30.6189,-28.6297,605.2316],[30.6235,-28.6301,593.9587],[30.6258,-28.635,594.312],[30.6295,-28.6364,595.129],[30.632,-28.6348,586.2869],[30.6338,-28.6294,582.1191],[30.6411,-28.6272,571.4239],[30.6466,-28.6312,586.421],[30.6505,-28.6315,591.2422],[30.6576,-28.6241,562.1548],[30.6646,-28.6219,561.9775],[30.6669,-28.6263,573.206],[30.6629,-28.6282,578.0552],[30.6595,-28.6383,577.1283],[30.6622,-28.6401,573.9857],[30.667,-28.6386,546.7606],[30.6696,-28.6413,607.0474]]]]}}