{"type": "Feature","bbox": [24.7756,-27.5454,25.6871,-26.8553],"geometry": {"type": "MultiPolygon","coordinates": [[[[24.8969,-27.4511,1215.6233],[24.919,-27.4592,1258.5881],[24.9541,-27.4545,1240.2111],[24.9574,-27.4566,1207.7283],[24.9629,-27.4669,1209.5037],[24.9662,-27.4666,1216.1162],[24.9691,-27.4616,1212.3994],[24.9739,-27.4597,1219.6735],[24.977,-27.4645,1238.2021],[24.9737,-27.5174,1325.9686],[24.9823,-27.523,1337.1243],[25.0064,-27.5242,1340.8342],[25.0159,-27.4929,1297.4734],[25.0637,-27.4789,1317.2267],[25.0943,-27.463,1305.4598],[25.114,-27.5454,1328.584],[25.1465,-27.533,1324.1604],[25.161,-27.5064,1339.4939],[25.189,-27.4481,1330.209],[25.2552,-27.4506,1364.2489],[25.2726,-27.4055,1365.134],[25.2801,-27.408,1364.3781],[25.3475,-27.4102,1335.8832],[25.3459,-27.4027,1340.6353],[25.4128,-27.4071,1314.9316],[25.4045,-27.3967,1321.1847],[25.4712,-27.3911,1310.7783],[25.5201,-27.3841,1314.0269],[25.571,-27.3734,1301.9626],[25.6261,-27.3528,1305.2954],[25.6834,-27.3364,1313.9894],[25.6751,-27.2872,1334.939],[25.6465,-27.2711,1339.3933],[25.6744,-27.2221,1354.1908],[25.6537,-27.2228,1366.688],[25.6286,-27.176,1387.0618],[25.6101,-27.1763,1369.0264],[25.6163,-27.1429,1388.6436],[25.6616,-27.1095,1410.4669],[25.6871,-27.098,1413.8502],[25.6831,-27.0735,1401.9958],[25.6571,-27.0335,1371.2422],[25.6322,-26.9886,1394.1038],[25.6446,-26.9845,1396.009],[25.6371,-26.9712,1400.355],[25.646,-26.9614,1404.6168],[25.6656,-26.9627,1405.1208],[25.6658,-26.8991,1393.2529],[25.6109,-26.9231,1375.998],[25.6305,-26.8585,1371.4875],[25.6045,-26.9065,1372.6782],[25.5693,-26.9363,1380.1884],[25.4834,-26.9203,1327.4865],[25.4926,-26.9179,1328.0796],[25.3985,-26.8553,1354.8358],[25.3827,-26.8617,1362.0468],[25.4215,-26.9201,1354.3147],[25.3888,-26.9291,1350.2047],[25.3491,-26.9524,1360.2356],[25.3736,-26.9793,1356.6006],[25.3908,-27.0043,1346.7596],[25.3991,-27.0377,1341.4104],[25.3869,-27.0409,1345.0369],[25.3654,-27.0637,1331.7965],[25.3329,-27.0312,1350.4008],[25.3245,-27.0143,1357.7903],[25.2922,-27.024,1369.0737],[25.2606,-27.0073,1366.5153],[25.2226,-27.0293,1345.1674],[25.1874,-26.9794,1313.2656],[25.1472,-27.0028,1299.8325],[25.1081,-27.0179,1287.0653],[25.1346,-27.0708,1323.6859],[25.1623,-27.1014,1357.2535],[25.1472,-27.1119,1365.8262],[25.1536,-27.1587,1354.8115],[25.1336,-27.1704,1360.2947],[25.1323,-27.1681,1359.249],[25.0764,-27.2015,1345.4268],[25.0382,-27.1354,1352.5879],[25.0073,-27.0933,1283.1865],[24.9962,-27.1034,1262.2576],[24.9896,-27.1073,1257.23],[24.9859,-27.1164,1257.8226],[24.9745,-27.1269,1248.9219],[24.9725,-27.1315,1247.8889],[24.965699999999998,-27.1371,1244.6459],[24.9487,-27.1467,1236.7526],[24.9393,-27.1551,1238.9902],[24.9187,-27.1641,1251.6572],[24.9164,-27.1678,1249.7061],[24.912,-27.1685,1235.9863],[24.8953,-27.179,1230.9171],[24.8703,-27.2085,1242.1713],[24.8608,-27.2378,1233.0864],[24.8532,-27.2526,1204.726],[24.8481,-27.2554,1200.4514],[24.8447,-27.2629,1199.6459],[24.8286,-27.2794,1193.9304],[24.8053,-27.2988,1180.0881],[24.7992,-27.3073,1183.7504],[24.7839,-27.3131,1162.2451],[24.7756,-27.3207,1150.9154],[24.7756,-27.3268,1151.4086],[24.7794,-27.3363,1171.3322],[24.7804,-27.3435,1182.9835],[24.7801,-27.3654,1183.4653],[24.7849,-27.373,1192.722],[24.7856,-27.3804,1178.3887],[24.7915,-27.3816,1177.4086],[24.79,-27.3837,1179.7754],[24.7824,-27.3845,1168.0737],[24.779,-27.3877,1171.9896],[24.7812,-27.3938,1187.1941],[24.7797,-27.4013,1180.696],[24.7824,-27.4069,1191.1777],[24.7907,-27.4082,1218.6558],[24.7959,-27.4176,1236.925],[24.8186,-27.4119,1276.9995],[24.8478,-27.3988,1257.4086],[24.8922,-27.3972,1302.2968],[24.9117,-27.4241,1306.5038],[24.8909,-27.4489,1256.9707],[24.8969,-27.4511,1215.6233]]]]}
,"properties": {"GID_3": "ZAF.7.3.4_1","GID_0": "ZAF","country": "SouthAfrica","GID_1": "ZAF.7_1","province": "NorthWest","NL_NAME_1": "NA","GID_2": "ZAF.7.3_1","county": "DrRuthSegomotsiMompati","NL_NAME_2": "NA","city": "Mamusa","VARNAME_3": "NA","NL_NAME_3": "NA","TYPE_3": "LocalMunicipality","ENGTYPE_3": "LocalMunicipality","CC_3": "NW393","HASC_3": "NA","name": "Mamusa.city","area_km2": 3620.801,"hist_schema_id": "Elevation0-9000","hist_area_km2": {"1150": 0.678,"1175": 4.934,"1200": 19.869,"1225": 40.318,"1250": 82.836,"1275": 220.429,"1300": 525.024,"1325": 901.839,"1350": 953.97,"1375": 751.929,"1400": 117.708,"1425": 1.266}}}