{"type":"Feature","properties":{"GID_2":"ZAF.4.8_1","GID_0":"ZAF","country":"SouthAfrica","GID_1":"ZAF.4_1","province":"KwaZulu-Natal","NL_NAME_1":"NA","county":"Umzinyathi","VARNAME_2":"NA","NL_NAME_2":"NA","TYPE_2":"DistrictMunicipality","ENGTYPE_2":"DistrictMunicipality","CC_2":"DC24","HASC_2":"ZA.NL.UZ","name":"Umzinyathi.county"},
"geometry":{"type": "MultiPolygon","coordinates": [[[[30.6398,-29.2454,1037.9675],[30.6415,-29.2467,1038.9893],[30.6603,-29.2242,1069.6995],[30.7149,-29.2088,1029.2546],[30.7231,-29.2185,690.1339],[30.7329,-29.2221,674.1955],[30.7335,-29.211,657.4911],[30.7381,-29.2115,671.2503],[30.7453,-29.2074,661.0031],[30.7509,-29.207,646.7181],[30.7514,-29.2024,681.7456],[30.7562,-29.1937,742.4636],[30.7554,-29.1897,795.8671],[30.7588,-29.1868,849.296],[30.763,-29.1784,951.8244],[30.7691,-29.1763,1098.8756],[30.7693,-29.1793,1080.3101],[30.7661,-29.1834,1023.6854],[30.7712,-29.1895,908.3076],[30.7658,-29.1954,907.0575],[30.7722,-29.2042,828.6161],[30.7756,-29.2046,844.884],[30.7824,-29.2101,794.6465],[30.788,-29.2083,632.386],[30.7876,-29.2012,572.8068],[30.7905,-29.2009,579.801],[30.7941,-29.2036,558.8541],[30.8012,-29.2026,562.8462],[30.7986,-29.2073,563.3436],[30.7937,-29.2086,569.1923],[30.7972,-29.2174,645.2711],[30.8061,-29.2223,713.2151],[30.8039,-29.2253,694.4803],[30.8073,-29.2285,821.8534],[30.8058,-29.2301,842.1936],[30.8074,-29.2318,826.436],[30.7983,-29.247,877.4079],[30.7988,-29.25,862.558],[30.8072,-29.2558,900.5663],[30.8278,-29.2651,717.1241],[30.839,-29.2902,764.4061],[30.8454,-29.2826,757.5263],[30.8429,-29.2717,864.4968],[30.8367,-29.2605,912.7184],[30.8351,-29.2538,794.8044],[30.8402,-29.2529,722.929],[30.8395,-29.2511,696.4487],[30.8418,-29.2463,792.1459],[30.8524,-29.2448,729.4437],[30.8555,-29.2422,681.9575],[30.8536,-29.2351,435.9162],[30.8616,-29.2266,709.9172],[30.8613,-29.2236,743.1243],[30.865,-29.2207,676.3176],[30.8856,-29.2185,702.6846],[30.8859,-29.2221,759.4421],[30.8836,-29.2242,590.9529],[30.8818,-29.2313,645.0682],[30.8833,-29.2341,621.1215],[30.8854,-29.234,740.6147],[30.8849,-29.2368,694.4815],[30.8873,-29.238,703.0348],[30.8857,-29.2402,633.6382],[30.8876,-29.2382,703.0348],[30.8877,-29.2367,738.3349],[30.8923,-29.2399,446.3383],[30.8986,-29.2404,374.7862],[30.8958,-29.2441,379.5274],[30.8962,-29.2489,404.5712],[30.8944,-29.2522,395.2727],[30.8816,-29.2593,393.4886],[30.8801,-29.262,400.9235],[30.8842,-29.275,452.6302],[30.877,-29.2752,438.5365],[30.8947,-29.2875,883.2364],[30.898,-29.2884,965.8519],[30.8978,-29.2853,845.1174],[30.905,-29.2704,910.8235],[30.9174,-29.2808,883.2872],[30.9265,-29.2716,904.0225],[30.9313,-29.2738,894.5226],[30.936,-29.2709,828.0929],[30.9512,-29.27,829.1945],[30.9725,-29.2737,593.8007],[30.9743,-29.2713,600.8055],[30.9812,-29.2693,576.5458],[30.9837,-29.2663,463.6674],[30.9822,-29.2604,287.726],[30.9847,-29.2569,295.6223],[30.9825,-29.2534,282.1785],[30.9806,-29.243,309.9552],[30.9827,-29.24,267.821],[30.9845,-29.24,267.5828],[30.9856,-29.234,414.7009],[30.9834,-29.2325,470.9877],[30.9859,-29.2288,555.6714],[30.9847,-29.2241,785.5118],[30.9862,-29.2228,759.3212],[30.9804,-29.222,764.1107],[30.969,-29.2142,802.3635],[30.9663,-29.2099,855.7859],[30.959,-29.2051,793.1701],[30.9552,-29.206,818.5398],[30.9486,-29.1998,894.8317],[30.946,-29.1968,811.953],[30.9493,-29.1955,794.6769],[30.9503,-29.1918,814.661],[30.9403,-29.188,940.486],[30.9382,-29.1843,935.4688],[30.9416,-29.1825,918.3105],[30.9473,-29.1843,908.3912],[30.9485,-29.1828,817.8248],[30.9435,-29.1818,923.9777],[30.9439,-29.1804,894.6909],[30.9422,-29.181,885.2255],[30.9391,-29.1784,934.233],[30.9346,-29.1808,871.4572],[30.9327,-29.1845,919.2853],[30.9278,-29.1795,790.7644],[30.9217,-29.1776,736.8369],[30.9206,-29.1746,753.6937],[30.9176,-29.1795,672.4656],[30.9147,-29.176,632.5271],[30.9083,-29.1769,685.1931],[30.9058,-29.181,751.3755],[30.9048,-29.1787,702.5024],[30.9028,-29.1783,791.247],[30.8948,-29.1803,825.6512],[30.8912,-29.1736,848.4061],[30.8969,-29.1767,771.8052],[30.8981,-29.1744,852.6326],[30.9025,-29.1725,700.5364],[30.9025,-29.1697,724.7754],[30.8974,-29.1694,843.6022],[30.8978,-29.1669,842.5048],[30.8925,-29.1672,858.303],[30.8904,-29.1655,899.2468],[30.8895,-29.1619,903.0097],[30.8841,-29.1632,922.407],[30.8841,-29.1616,831.2655],[30.8811,-29.1601,957.5266],[30.8757,-29.1605,940.6772],[30.8748,-29.1624,922.937],[30.8699,-29.1636,943.8907],[30.8659,-29.1569,738.3927],[30.8684,-29.1512,658.4021],[30.8635,-29.1521,689.0381],[30.8622,-29.1465,847.4004],[30.851,-29.1408,1051.9446],[30.8668,-29.1341,746.9017],[30.873,-29.1266,617.358],[30.8766,-29.1246,561.8684],[30.8795,-29.1263,578.0029],[30.8804,-29.1243,570.8912],[30.888,-29.1231,592.0487],[30.8927,-29.1257,625.5876],[30.8958,-29.1232,643.7717],[30.8948,-29.1211,679.0521],[30.9111,-29.1158,742.7005],[30.9118,-29.1075,788.3769],[30.9062,-29.1038,894.704],[30.9053,-29.0997,976.4796],[30.9367,-29.0802,1076.423],[30.9427,-29.0879,1093.2944],[30.9511,-29.0921,1032.8365],[30.9741,-29.0806,1009.3852],[31.0042,-29.0839,888.6368],[31.0238,-29.0788,829.8066],[31.0012,-29.0433,930.0255],[30.9802,-28.9699,658.4492],[30.9682,-28.9719,609.5283],[30.9471,-28.9698,725.1627],[30.9624,-28.9636,535.8345],[30.9664,-28.9594,533.0244],[30.9603,-28.9534,740.7232],[30.9451,-28.9594,786.8744],[30.9471,-28.957,1001.9073],[30.9458,-28.9506,1091.7328],[30.9441,-28.9518,1074.2766],[30.9221,-28.9484,1130.0728],[30.9244,-28.9396,1176.8562],[30.9296,-28.9354,1187.0977],[30.9379,-28.9335,1124.5796],[30.9319,-28.9304,1148.6609],[30.9328,-28.9275,1123.6782],[30.929,-28.926,1014.8644],[30.9192,-28.9085,471.0647],[30.9255,-28.9002,428.6021],[30.9357,-28.8954,398.0345],[30.9398,-28.89,380.6198],[30.964,-28.8825,337.4774],[30.9691,-28.875,311.7536],[30.9739,-28.8737,306.5738],[30.9822,-28.8807,279.9794],[30.9853,-28.8762,279.4018],[30.9882,-28.8758,269.8203],[30.9933,-28.8565,223.6134],[30.9883,-28.8573,224.8933],[30.9841,-28.8551,224.0],[30.9751,-28.8436,226.2445],[30.9728,-28.8382,228.0909],[30.9679,-28.8339,227.625],[30.9668,-28.8302,228.5],[30.9684,-28.8269,230.5981],[30.9797,-28.8205,229.5],[30.9849,-28.8153,234.4834],[30.9872,-28.811,230.5],[30.9866,-28.8045,246.889],[30.9769,-28.7986,233.0],[30.9635,-28.7968,243.2847],[30.9556,-28.7886,239.9407],[30.9515,-28.7885,240.6248],[30.9387,-28.7984,243.8167],[30.9261,-28.8151,251.0597],[30.9268,-28.82,257.6869],[30.9304,-28.8267,255.9113],[30.9414,-28.8363,261.8858],[30.9401,-28.843,263.2468],[30.9343,-28.8464,267.1534],[30.9232,-28.8479,264.7934],[30.9074,-28.8457,269.3924],[30.9004,-28.8411,270.8217],[30.8996,-28.8363,273.2141],[30.9044,-28.8254,275.1205],[30.9139,-28.8128,274.3613],[30.9135,-28.8031,278.1489],[30.9087,-28.7953,280.3635],[30.9072,-28.7841,284.5842],[30.8904,-28.7636,289.2069],[30.8865,-28.7612,322.3965],[30.8794,-28.7622,299.9377],[30.8654,-28.78,316.3937],[30.8612,-28.7813,307.9683],[30.8479,-28.7736,311.4536],[30.8335,-28.7717,330.3399],[30.8173,-28.7772,331.2461],[30.804,-28.7764,346.5109],[30.7988,-28.7729,336.5436],[30.7985,-28.7711,337.7783],[30.8027,-28.7666,340.3766],[30.8137,-28.7611,360.5526],[30.8166,-28.7574,349.1588],[30.8232,-28.7427,352.48],[30.8227,-28.7341,388.6365],[30.8106,-28.7355,361.4581],[30.7946,-28.7296,359.8536],[30.7836,-28.7326,360.5],[30.7723,-28.7234,364.25],[30.7638,-28.7218,366.375],[30.7546,-28.7242,368.5],[30.7537,-28.7319,371.0],[30.7642,-28.7424,378.377],[30.7678,-28.7492,375.0],[30.7668,-28.7538,382.6541],[30.7615,-28.7576,443.5647],[30.7597,-28.7616,387.717],[30.7457,-28.7658,394.3373],[30.7416,-28.7709,426.6414],[30.7397,-28.7772,385.374],[30.7444,-28.7865,393.7219],[30.7481,-28.7986,393.1572],[30.746,-28.8027,394.3335],[30.7382,-28.8039,397.25],[30.7282,-28.7953,411.228],[30.7074,-28.7855,407.25],[30.6995,-28.7834,430.2382],[30.6964,-28.7792,411.6368],[30.6966,-28.7753,411.9009],[30.7001,-28.7707,434.2318],[30.7206,-28.7686,421.3138],[30.7261,-28.7655,421.3119],[30.7297,-28.7609,433.4491],[30.7292,-28.7567,426.3734],[30.7188,-28.7502,432.8838],[30.7148,-28.7385,432.6785],[30.6922,-28.7325,434.0],[30.6878,-28.7334,435.2426],[30.6786,-28.739,444.4058],[30.6714,-28.7453,441.0628],[30.6653,-28.7469,445.8321],[30.6538,-28.7406,453.7933],[30.6539,-28.7303,447.75],[30.6497,-28.7203,461.8363],[30.6432,-28.7169,459.633],[30.6375,-28.716,465.0182],[30.6337,-28.7122,463.8299],[30.6214,-28.7108,469.0294],[30.6206,-28.7051,506.9232],[30.6249,-28.699,481.4778],[30.6357,-28.6988,495.3902],[30.6517,-28.6891,501.0087],[30.6674,-28.6859,510.851],[30.6706,-28.6841,508.9956],[30.6741,-28.6772,538.6738],[30.6816,-28.6695,587.2203],[30.6846,-28.6627,543.4456],[30.6841,-28.6608,625.8171],[30.6787,-28.6585,537.9486],[30.6715,-28.6503,629.0638],[30.6704,-28.6424,562.6748],[30.6799,-28.6414,617.6345],[30.6903,-28.645,683.4792],[30.7053,-28.6527,833.4064],[30.7155,-28.6559,1050.8281],[30.7324,-28.6652,1598.3883],[30.7378,-28.6589,1725.5922],[30.7339,-28.642,1718.021],[30.7533,-28.6288,1695.447],[30.7814,-28.6269,1617.8203],[30.7885,-28.6289,1641.129],[30.8383,-28.5749,1501.5439],[30.8214,-28.5816,1309.4614],[30.8025,-28.572,1337.5322],[30.8055,-28.5712,1376.1635],[30.7946,-28.5609,1138.2234],[30.7848,-28.5575,1079.1492],[30.7732,-28.5482,997.0645],[30.7573,-28.5417,967.355],[30.7633,-28.5389,1005.0564],[30.7691,-28.5335,1107.5259],[30.7714,-28.5175,1499.9617],[30.7848,-28.5201,1510.8032],[30.804,-28.5178,1551.7015],[30.8327,-28.4637,1599.8662],[30.9654,-28.4063,1241.0366],[30.961,-28.3409,1346.3442],[30.9207,-28.3592,1209.6136],[30.9287,-28.3385,1095.3699],[30.9422,-28.3123,1059.1653],[30.9704,-28.2889,1110.3596],[31.0015,-28.2602,1007.8975],[31.0268,-28.2306,886.6172],[31.0476,-28.2001,902.8065],[31.0177,-28.184,883.2585],[31.0116,-28.1912,807.3777],[30.9941,-28.1541,939.9868],[30.9717,-28.1686,893.5405],[30.9505,-28.1436,873.5571],[30.9443,-28.1441,890.5543],[30.9433,-28.1475,888.175],[30.9389,-28.1489,890.5283],[30.9361,-28.1542,915.7315],[30.936,-28.1564,911.5134],[30.9392,-28.1593,913.1346],[30.9425,-28.1675,903.6677],[30.9406,-28.1716,912.9307],[30.9319,-28.1687,909.9003],[30.9251,-28.1708,915.3052],[30.9135,-28.17,916.942],[30.9097,-28.1662,930.9979],[30.9052,-28.166,926.0814],[30.8957,-28.1598,929.0082],[30.8955,-28.1584,926.3948],[30.8997,-28.1574,932.9802],[30.8992,-28.1558,932.7397],[30.8956,-28.1534,939.1175],[30.8939,-28.1497,945.9553],[30.8902,-28.1511,943.4187],[30.8903,-28.1479,953.1609],[30.8871,-28.1453,950.3024],[30.8852,-28.1469,947.8265],[30.8871,-28.1493,952.87],[30.8857,-28.1505,954.4166],[30.882,-28.1478,958.867],[30.8775,-28.1473,951.8215],[30.8788,-28.1443,954.8006],[30.8771,-28.1418,954.3293],[30.8827,-28.142,956.9389],[30.8834,-28.1389,962.5156],[30.8791,-28.1369,962.3212],[30.8787,-28.1326,963.0277],[30.8757,-28.1308,965.6608],[30.8787,-28.1273,966.4581],[30.8739,-28.1274,963.892],[30.8746,-28.1242,966.3009],[30.8719,-28.1223,967.5322],[30.8717,-28.12,970.4351],[30.867,-28.1185,975.4924],[30.8656,-28.1164,968.5864],[30.8595,-28.1235,983.5422],[30.8541,-28.1247,976.7761],[30.848,-28.1304,983.314],[30.8461,-28.1303,984.3018],[30.8474,-28.1285,983.7975],[30.844,-28.1259,991.6968],[30.8405,-28.1309,991.4428],[30.8374,-28.1283,988.85],[30.8286,-28.1283,993.5785],[30.8234,-28.1233,992.375],[30.8153,-28.1323,998.4852],[30.8131,-28.131,1000.2077],[30.8129,-28.1279,1009.4044],[30.8073,-28.1292,1004.2607],[30.8045,-28.1328,1005.6531],[30.8001,-28.1341,1007.138],[30.79,-28.1415,1024.0718],[30.7822,-28.1383,1024.0657],[30.7772,-28.1381,1028.5771],[30.774,-28.1396,1041.4507],[30.771,-28.1366,1028.9482],[30.7657,-28.1353,1032.0308],[30.7614,-28.136,1035.8833],[30.7558,-28.1344,1035.8361],[30.7496,-28.1355,1040.1013],[30.7464,-28.1339,1040.9855],[30.7476,-28.1322,1042.0293],[30.746,-28.1293,1060.5161],[30.7385,-28.1287,1051.7188],[30.7339,-28.1226,1055.2045],[30.7295,-28.1276,1059.7407],[30.7225,-28.1302,1065.0011],[30.7021,-28.1283,1074.8408],[30.6919,-28.1318,1085.7578],[30.6875,-28.1291,1092.7783],[30.6862,-28.1313,1090.8922],[30.6838,-28.1311,1096.1155],[30.6731,-28.1364,1113.3757],[30.6671,-28.1357,1115.3538],[30.6483,-28.1408,1168.0381],[30.642,-28.1457,1238.3191],[30.6336,-28.145,1285.481],[30.6316,-28.1399,1342.5332],[30.6606,-28.1025,1478.1626],[30.6684,-28.1024,1513.0337],[30.6626,-28.0977,1393.8118],[30.6555,-28.0959,1334.9982],[30.6524,-28.0904,1251.3293],[30.6449,-28.084,1215.967],[30.6423,-28.0764,1204.1465],[30.6399,-28.0747,1201.7006],[30.632,-28.0613,1236.5984],[30.6292,-28.0518,1233.626],[30.6128,-28.0352,1238.0574],[30.6719,-27.985,1228.1912],[30.685,-27.9859,1163.2986],[30.6857,-27.9786,1174.9531],[30.6845,-27.9712,1213.9513],[30.6815,-27.9658,1240.5717],[30.6771,-27.962,1281.5388],[30.6735,-27.9664,1353.668],[30.6725,-27.9565,1263.8185],[30.666,-27.952,1231.339],[30.6657,-27.9493,1221.2843],[30.6595,-27.9491,1219.3081],[30.6581,-27.9457,1210.5266],[30.646,-27.9399,1199.7842],[30.6397,-27.9351,1193.7234],[30.6388,-27.9321,1194.9604],[30.6282,-27.932,1187.8315],[30.6244,-27.9336,1186.5333],[30.6236,-27.9324,1185.162],[30.6166,-27.9352,1183.2617],[30.6108,-27.932,1181.9304],[30.6062,-27.9315,1180.2665],[30.6051,-27.9335,1179.7443],[30.5994,-27.9346,1178.8939],[30.5977,-27.9388,1178.188],[30.5931,-27.9382,1178.7122],[30.593,-27.9412,1177.899],[30.5914,-27.9407,1179.4619],[30.594,-27.9425,1177.5],[30.5933,-27.944,1177.5],[30.597,-27.9441,1177.5],[30.5954,-27.9482,1177.7153],[30.5967,-27.9492,1177.5],[30.5981,-27.9474,1177.5],[30.6,-27.9482,1178.2848],[30.5989,-27.9497,1177.5],[30.6009,-27.9529,1177.5],[30.5994,-27.9526,1177.5],[30.5966,-27.9558,1175.6478],[30.5956,-27.9594,1175.9839],[30.5901,-27.9578,1177.4738],[30.5902,-27.9598,1174.4814],[30.5862,-27.9628,1174.2234],[30.5874,-27.9643,1173.7457],[30.5863,-27.965699999999998,1173.4974],[30.584,-27.9652,1174.2271],[30.585,-27.9663,1173.4602],[30.5833,-27.9669,1173.4602],[30.5847,-27.9684,1172.821],[30.5838,-27.9703,1173.5322],[30.5859,-27.9703,1180.0232],[30.5864,-27.972,1178.819],[30.5827,-27.9741,1172.5935],[30.5868,-27.9774,1176.3354],[30.5839,-27.9806,1171.7856],[30.5873,-27.9822,1172.4379],[30.5872,-27.9886,1173.3113],[30.5836,-27.9872,1172.6086],[30.5813,-27.9921,1171.4023],[30.5856,-27.9958,1173.1758],[30.5778,-27.9963,1170.4371],[30.578,-27.9986,1171.4033],[30.5714,-27.9998,1170.8571],[30.5665,-28.0046,1170.4395],[30.5666,-28.007,1169.7983],[30.5697,-28.0089,1172.863],[30.5307,-28.0039,1224.7559],[30.4825,-27.9853,1522.3856],[30.4572,-27.9862,1433.2483],[30.4324,-27.9737,1215.4734],[30.3862,-27.9306,1212.6725],[30.3533,-27.9347,1206.2126],[30.2965,-27.9309,1176.7269],[30.2923,-27.9512,1149.8086],[30.2953,-27.9575,1145.7479],[30.3081,-27.9611,1145.0256],[30.315,-27.9609,1146.9756],[30.3159,-27.9646,1149.4565],[30.3053,-27.9761,1157.5721],[30.2823,-27.9825,1209.2731],[30.2584,-27.9787,1236.1802],[30.2453,-27.9953,1308.5991],[30.2469,-28.0095,1464.7745],[30.2553,-28.0352,1482.3833],[30.2841,-28.0419,1392.2729],[30.2792,-28.0494,1416.944],[30.2794,-28.0511,1436.301],[30.2709,-28.0557,1283.9005],[30.2558,-28.0779,1237.3853],[30.2385,-28.0731,1234.2438],[30.1977,-28.0715,1277.2478],[30.1934,-28.0795,1305.9207],[30.1901,-28.0956,1349.9171],[30.201,-28.099,1421.536],[30.2013,-28.1033,1574.2401],[30.1909,-28.1063,1575.2886],[30.1889,-28.1088,1563.585],[30.1918,-28.1166,1508.2854],[30.1809,-28.146,1346.8301],[30.1842,-28.1615,1261.887],[30.1657,-28.1616,1281.9641],[30.1619,-28.1566,1343.0786],[30.1581,-28.1449,1368.3236],[30.1461,-28.1465,1358.6193],[30.1413,-28.1346,1345.098],[30.1238,-28.1294,1368.9899],[30.1182,-28.1533,1318.3044],[30.1292,-28.1536,1349.6476],[30.1321,-28.1774,1379.8615],[30.0723,-28.1649,1352.5909],[30.0484,-28.1653,1351.6931],[30.0156,-28.1531,1361.8396],[29.9959,-28.1898,1650.2916],[29.9904,-28.1849,1631.1421],[29.9781,-28.2065,1516.2765],[29.9859,-28.2204,1462.9258],[29.9768,-28.2396,1290.7109],[29.9912,-28.2531,1281.0198],[30.0342,-28.2712,1216.3257],[30.0654,-28.3051,1184.7811],[30.067,-28.3278,1226.6611],[30.0737,-28.345,1180.3229],[30.0715,-28.352,1207.4376],[30.0786,-28.3494,1108.5382],[30.0755,-28.3578,1124.0138],[30.0959,-28.3631,1254.2487],[30.0989,-28.3673,1253.3662],[30.128,-28.3492,1279.2377],[30.1251,-28.3438,1238.0796],[30.1356,-28.3405,1080.8547],[30.1402,-28.3432,1070.6101],[30.1426,-28.3418,1064.79],[30.1597,-28.3458,1097.2017],[30.153,-28.3601,1024.9071],[30.1743,-28.3693,1060.2142],[30.1754,-28.3711,1053.2029],[30.175,-28.3872,1048.2313],[30.1623,-28.3888,1022.1583],[30.1704,-28.4148,998.5772],[30.1627,-28.4228,1012.5713],[30.1726,-28.4221,1005.1655],[30.1781,-28.4397,1006.7727],[30.2152,-28.3928,1089.5636],[30.2714,-28.4414,1120.8418],[30.2938,-28.4484,1117.9573],[30.3378,-28.4741,1262.2814],[30.3183,-28.507,1326.8206],[30.3209,-28.5114,1339.8979],[30.3216,-28.5273,1338.9829],[30.3198,-28.5302,1318.1333],[30.3082,-28.5303,1290.6859],[30.3039,-28.5313,1276.5293],[30.3007,-28.5341,1277.3638],[30.2325,-28.5019,1111.21],[30.2466,-28.5502,1385.2424],[30.2314,-28.5629,1334.4973],[30.2227,-28.5667,1292.1036],[30.2207,-28.5733,1606.7562],[30.2261,-28.5872,1348.7876],[30.2364,-28.5896,1136.3738],[30.234,-28.6212,1141.8713],[30.2435,-28.6284,688.5135],[30.25,-28.6365,661.1207],[30.2492,-28.6394,652.3283],[30.244,-28.6444,651.809],[30.2539,-28.6459,645.7812],[30.2571,-28.651,633.4926],[30.2612,-28.6537,632.7201],[30.2646,-28.6695,621.3468],[30.2684,-28.6749,615.5668],[30.2764,-28.6804,607.9863],[30.2843,-28.693,593.9083],[30.2796,-28.6927,600.1793],[30.2718,-28.6955,597.7925],[30.2703,-28.7064,608.6688],[30.2645,-28.7142,609.5551],[30.2693,-28.7274,613.5341],[30.2675,-28.731,617.7081],[30.2787,-28.7318,696.1298],[30.2832,-28.8111,940.4218],[30.2745,-28.8345,982.1746],[30.2724,-28.8447,1017.4635],[30.2731,-28.877,1180.6338],[30.2681,-28.9053,1139.5142],[30.2875,-28.9149,1254.8936],[30.3214,-28.9387,1262.1396],[30.3404,-28.9718,1025.6718],[30.37,-28.9825,875.5186],[30.3617,-28.9869,856.153],[30.3602,-28.9891,875.5396],[30.3602,-28.9918,869.4434],[30.3626,-28.9945,867.324],[30.367,-28.9958,834.6057],[30.3668,-28.9971,855.7579],[30.3474,-28.9987,979.5649],[30.3447,-29.0077,937.8048],[30.3507,-29.0107,885.8582],[30.3495,-29.0172,1027.6421],[30.3374,-29.0311,1168.5435],[30.3588,-29.0307,907.3943],[30.3597,-29.0329,852.6993],[30.3639,-29.0342,859.4498],[30.3678,-29.0405,874.9339],[30.3596,-29.0415,876.8065],[30.3741,-29.0685,1160.4574],[30.3659,-29.0997,1261.4827],[30.3636,-29.123,1438.6382],[30.3359,-29.1639,1522.3301],[30.3486,-29.1699,1535.4373],[30.3486,-29.1929,1510.6895],[30.376,-29.1862,1431.3082],[30.3845,-29.2022,1336.4551],[30.3975,-29.2058,1245.8599],[30.4,-29.2095,1181.7787],[30.3978,-29.2117,1197.2463],[30.398,-29.2193,1333.7549],[30.42,-29.2176,1174.2087],[30.4188,-29.2627,1331.97],[30.4554,-29.2407,1451.9705],[30.4794,-29.2317,1369.4678],[30.4797,-29.2327,1369.4678],[30.5042,-29.23,1207.0803],[30.5106,-29.2208,1152.9269],[30.5228,-29.22,1084.1531],[30.5548,-29.2501,1108.181],[30.556,-29.2554,1092.3311],[30.5658,-29.2493,1095.0228],[30.5788,-29.2581,1074.9852],[30.6003,-29.2479,1068.4697],[30.6329,-29.2401,1051.0797],[30.6398,-29.2454,1037.9675]]]]}}