{"type": "Feature","bbox": [26.396,-28.4071,27.4718,-27.5161],"geometry": {"type": "MultiPolygon","coordinates": [[[[26.6025,-28.3305,1389.9263],[26.6271,-28.3313,1406.0952],[26.6431,-28.3647,1413.7941],[26.6526,-28.3498,1482.0392],[26.654,-28.344,1423.244],[26.6659,-28.3325,1413.3314],[26.6548,-28.3322,1405.5197],[26.6521,-28.3116,1394.8589],[26.6396,-28.2879,1382.8591],[26.646,-28.2861,1381.0168],[26.6333,-28.2712,1363.9395],[26.6131,-28.2681,1382.1689],[26.6202,-28.2578,1363.4336],[26.5995,-28.2481,1366.7625],[26.5984,-28.2442,1360.5906],[26.6394,-28.2181,1354.0394],[26.6889,-28.2346,1375.6479],[26.6836,-28.256,1403.7926],[26.7121,-28.257,1372.0128],[26.7124,-28.2735,1382.3833],[26.7083,-28.2946,1404.9963],[26.7191,-28.2979,1405.7614],[26.7412,-28.2858,1393.8785],[26.7474,-28.2868,1394.9883],[26.7504,-28.2949,1402.0676],[26.7653,-28.2982,1415.2357],[26.76,-28.2587,1383.9945],[26.7675,-28.229,1365.9683],[26.804,-28.215,1333.1548],[26.8186,-28.2049,1331.3386],[26.8323,-28.1992,1362.4186],[26.8572,-28.1641,1369.2705],[26.8768,-28.1689,1376.4744],[26.885,-28.2228,1418.3423],[26.908,-28.2303,1439.5796],[26.9425,-28.257,1428.241],[26.9633,-28.2762,1442.3804],[26.9741,-28.3051,1455.3765],[26.9785,-28.3452,1441.974],[26.9716,-28.3678,1456.3894],[26.9491,-28.3828,1491.913],[26.96,-28.4053,1495.8435],[26.9652,-28.4043,1505.8918],[26.9767,-28.3976,1496.551],[26.9874,-28.4071,1492.8884],[26.9957,-28.3953,1505.5923],[27.0154,-28.4065,1441.064],[27.0372,-28.3989,1420.2382],[27.0661,-28.3419,1432.3679],[27.0654,-28.2964,1417.3282],[27.0909,-28.2936,1379.4324],[27.091,-28.2798,1376.958],[27.0893,-28.2711,1402.8174],[27.1014,-28.2781,1364.4562],[27.1047,-28.2779,1357.7732],[27.1187,-28.259,1338.3248],[27.1236,-28.2558,1339.9377],[27.1293,-28.2561,1344.0304],[27.1297,-28.2577,1339.7483],[27.1257,-28.2623,1339.1879],[27.1217,-28.2626,1356.4276],[27.1212,-28.2692,1371.0197],[27.1116,-28.2774,1349.7567],[27.1144,-28.2772,1355.4502],[27.1304,-28.2841,1374.1378],[27.1319,-28.2763,1373.9435],[27.1383,-28.2816,1367.0709],[27.1538,-28.2638,1366.3561],[27.1668,-28.2689,1388.7455],[27.1935,-28.2576,1410.358],[27.2166,-28.2534,1439.7391],[27.2294,-28.2406,1434.9918],[27.2491,-28.2622,1503.8103],[27.2468,-28.2687,1491.8774],[27.2768,-28.2828,1444.5995],[27.3058,-28.2627,1510.6494],[27.3197,-28.2685,1445.8208],[27.3262,-28.2265,1466.7795],[27.3439,-28.2267,1446.3773],[27.3879,-28.2141,1497.9646],[27.3833,-28.1901,1525.8051],[27.3701,-28.1703,1463.1373],[27.3867,-28.1588,1474.0658],[27.4068,-28.105,1506.9929],[27.4275,-28.1077,1509.8049],[27.4718,-28.1071,1534.9863],[27.4338,-28.0498,1525.4946],[27.4345,-28.0401,1505.3489],[27.423,-28.037,1516.6182],[27.4263,-28.0231,1522.9187],[27.4056,-28.0261,1524.1418],[27.4023,-28.0136,1482.4934],[27.3736,-28.0196,1498.4233],[27.3779,-28.0058,1509.212],[27.3634,-28.0015,1518.4996],[27.3658,-27.9452,1453.2732],[27.359,-27.9325,1457.5759],[27.3351,-27.9454,1454.707],[27.3008,-27.9607,1483.0898],[27.2926,-27.9381,1474.5439],[27.2922,-27.923,1465.3816],[27.2386,-27.9086,1463.2205],[27.2152,-27.9151,1438.6874],[27.1928,-27.8997,1423.8488],[27.1938,-27.9045,1417.6951],[27.1873,-27.9061,1419.6991],[27.1796,-27.9222,1428.7083],[27.1786,-27.9085,1409.0557],[27.1716,-27.911,1405.4396],[27.1728,-27.9347,1441.3141],[27.1578,-27.9333,1430.4631],[27.1594,-27.9151,1404.0649],[27.1409,-27.9227,1400.0758],[27.0938,-27.8859,1450.8829],[27.0757,-27.8905,1453.658],[27.0566,-27.8574,1419.9027],[27.0525,-27.8593,1425.9421],[27.0409,-27.8091,1386.1115],[27.0772,-27.7892,1410.2148],[27.0449,-27.749,1374.9492],[27.0168,-27.7271,1356.5105],[27.0308,-27.7168,1351.5813],[27.0201,-27.707,1344.844],[27.0015,-27.715699999999998,1349.5684],[26.9892,-27.7062,1346.2793],[26.9699,-27.6945,1331.2706],[27.0062,-27.6655,1349.8615],[26.9941,-27.6552,1333.323],[26.9745,-27.6429,1342.8057],[27.0163,-27.5982,1395.2466],[26.9663,-27.5625,1375.0699],[26.9633,-27.5492,1379.5627],[26.9453,-27.5595,1361.7441],[26.9335,-27.5578,1357.48],[26.9491,-27.5303,1362.54],[26.9501,-27.5225,1341.2466],[26.9227,-27.5161,1341.8083],[26.9229,-27.5228,1343.6608],[26.8894,-27.5226,1351.0905],[26.8704,-27.5338,1337.0193],[26.8854,-27.5759,1330.6757],[26.8739,-27.5896,1313.4594],[26.8577,-27.586,1311.6951],[26.8491,-27.6199,1315.2637],[26.8466,-27.6236,1315.0973],[26.8366,-27.623,1299.2826],[26.8192,-27.6385,1318.5306],[26.7988,-27.652,1336.7821],[26.7896,-27.6653,1341.3347],[26.7419,-27.6936,1321.9773],[26.692,-27.677,1297.4927],[26.6846,-27.6826,1300.5594],[26.6363,-27.6591,1292.4758],[26.598,-27.6998,1299.9929],[26.5609,-27.7241,1303.2737],[26.5229,-27.7328,1293.0056],[26.5445,-27.7464,1295.3733],[26.5152,-27.787,1290.3199],[26.5557,-27.7905,1294.7124],[26.5594,-27.7972,1300.6501],[26.5519,-27.8331,1306.3369],[26.5576,-27.8341,1308.355],[26.5488,-27.874,1307.2925],[26.4926,-27.8643,1283.4077],[26.5147,-27.8954,1294.1418],[26.4971,-27.9034,1290.3979],[26.4911,-27.9128,1297.3521],[26.5281,-27.9197,1302.4987],[26.5598,-27.9392,1306.387],[26.5055,-27.9521,1288.1989],[26.5097,-27.9932,1298.4275],[26.4912,-28.0366,1298.4943],[26.5065,-28.0414,1299.4048],[26.4987,-28.053,1297.5315],[26.4959,-28.0526,1298.0552],[26.4912,-28.0984,1269.3905],[26.4829,-28.0958,1268.9155],[26.4811,-28.0861,1267.0369],[26.4726,-28.0783,1268.2847],[26.4666,-28.0792,1266.624],[26.468,-28.0819,1268.2731],[26.4632,-28.0833,1267.6462],[26.4611,-28.0827,1268.1788],[26.4627,-28.0808,1265.4415],[26.457,-28.0784,1266.6816],[26.4564,-28.0459,1295.8179],[26.4456,-28.0395,1294.4985],[26.4434,-28.0786,1266.0854],[26.4451,-28.0815,1267.0178],[26.441,-28.0833,1267.2424],[26.4407,-28.0798,1266.6714],[26.4387,-28.0791,1266.9187],[26.4376,-28.0828,1265.8451],[26.4302,-28.0833,1265.3488],[26.4289,-28.088,1266.4656],[26.4211,-28.0943,1265.1044],[26.4146,-28.0921,1265.0404],[26.4142,-28.0947,1265.5831],[26.4121,-28.0937,1265.7865],[26.41,-28.0951,1265.5023],[26.4116,-28.0979,1264.3098],[26.4164,-28.0966,1264.3087],[26.4172,-28.1007,1265.1511],[26.413,-28.1017,1263.5306],[26.4095,-28.1053,1264.2223],[26.41,-28.1066,1264.0898],[26.4123,-28.108,1264.0206],[26.4164,-28.1072,1265.027],[26.4198,-28.1098,1264.5164],[26.4167,-28.1134,1264.7517],[26.4176,-28.1179,1265.5295],[26.4083,-28.1239,1264.8341],[26.4226,-28.1261,1268.7646],[26.412,-28.1307,1266.2476],[26.4152,-28.1394,1266.4808],[26.4217,-28.1488,1266.1195],[26.4233,-28.1545,1266.9067],[26.4461,-28.1664,1269.6879],[26.4394,-28.1692,1268.3374],[26.4441,-28.1721,1268.6626],[26.4459,-28.1757,1268.1794],[26.4423,-28.1836,1268.45],[26.4489,-28.1871,1267.9456],[26.4505,-28.1922,1268.7407],[26.4556,-28.1929,1270.1843],[26.4569,-28.197,1269.9393],[26.4557,-28.2028,1271.3754],[26.4628,-28.2081,1271.8613],[26.4615,-28.2125,1271.3671],[26.4671,-28.2122,1270.6447],[26.4682,-28.2144,1270.9834],[26.4654,-28.2187,1271.4635],[26.4566,-28.2238,1271.6593],[26.4559,-28.2185,1271.3425],[26.4438,-28.2244,1294.9893],[26.4436,-28.2314,1295.9875],[26.4363,-28.2356,1300.2979],[26.417,-28.2298,1301.5643],[26.411,-28.2454,1305.5496],[26.4203,-28.2475,1304.861],[26.4231,-28.2557,1307.5133],[26.4415,-28.2508,1301.5332],[26.4455,-28.2624,1307.1095],[26.427,-28.2673,1316.8917],[26.425,-28.2614,1313.4016],[26.4086,-28.2595,1315.5325],[26.4062,-28.274,1326.9092],[26.396,-28.2917,1346.1678],[26.4054,-28.292,1341.4404],[26.4071,-28.3125,1368.1259],[26.448,-28.313,1336.4504],[26.538,-28.291,1325.7784],[26.5489,-28.2902,1333.7766],[26.5505,-28.3013,1350.4949],[26.5494,-28.3109,1359.1371],[26.5849,-28.3065,1361.468],[26.5845,-28.301,1363.7756],[26.6019,-28.2985,1383.3846],[26.6097,-28.3052,1386.0198],[26.6025,-28.3305,1389.9263]]]]}
,"properties": {"GID_3": "ZAF.2.2.2_1","GID_0": "ZAF","country": "SouthAfrica","GID_1": "ZAF.2_1","province": "FreeState","NL_NAME_1": "NA","GID_2": "ZAF.2.2_1","county": "Lejweleputswa","NL_NAME_2": "NA","city": "Matjhabeng","VARNAME_3": "NA","NL_NAME_3": "NA","TYPE_3": "LocalMunicipality","ENGTYPE_3": "LocalMunicipality","CC_3": "FS184","HASC_3": "NA","name": "Matjhabeng.city","area_km2": 5163.91,"hist_schema_id": "Elevation0-9000","hist_area_km2": {"1250": 0.056,"1275": 146.837,"1300": 774.056,"1325": 952.235,"1350": 888.33,"1375": 661.704,"1400": 525.971,"1425": 406.063,"1450": 370.892,"1475": 237.371,"1500": 139.319,"1525": 53.781,"1550": 5.331,"1575": 1.964}}}