{"type":"Feature","properties":{"GID_3":"ZAF.7.4.1_1","GID_0":"ZAF","country":"SouthAfrica","GID_1":"ZAF.7_1","province":"NorthWest","NL_NAME_1":"NA","GID_2":"ZAF.7.4_1","county":"NgakaModiriMolema","NL_NAME_2":"NA","city":"Ditsobotla","VARNAME_3":"NA","NL_NAME_3":"NA","TYPE_3":"LocalMunicipality","ENGTYPE_3":"LocalMunicipality","CC_3":"NW384","HASC_3":"NA","name":"Ditsobotla.city"},
"geometry":{"type": "MultiPolygon","coordinates": [[[[26.102,-26.4618,1492.2732],[26.1282,-26.5106,1467.1825],[26.0996,-26.5131,1453.5465],[26.1032,-26.5784,1494.5963],[26.1296,-26.5839,1504.6472],[26.1303,-26.5793,1505.0186],[26.1496,-26.5815,1509.6765],[26.1489,-26.5867,1512.8956],[26.2481,-26.5873,1563.1693],[26.3337,-26.5552,1539.5437],[26.3294,-26.5462,1543.6411],[26.3847,-26.4999,1515.1304],[26.4056,-26.4964,1491.1316],[26.4786,-26.4791,1402.0413],[26.4584,-26.4351,1440.8948],[26.5007,-26.4166,1391.7523],[26.4837,-26.3864,1407.4432],[26.5183,-26.3675,1434.0725],[26.5228,-26.3551,1451.3857],[26.5716,-26.3344,1457.3281],[26.5783,-26.3377,1447.7546],[26.5807,-26.3359,1455.3364],[26.555,-26.3259,1465.9213],[26.553,-26.314,1481.5225],[26.5587,-26.3098,1496.6331],[26.5347,-26.2642,1504.1074],[26.5714,-26.252,1515.1316],[26.5861,-26.2452,1516.6807],[26.5458,-26.1727,1514.0139],[26.6296,-26.1361,1523.2568],[26.6177,-26.0649,1513.355],[26.7092,-26.0476,1594.611],[26.7331,-26.1016,1510.983],[26.8071,-26.084,1545.6846],[26.7636,-25.9911,1550.13],[26.7705,-25.9523,1635.9797],[26.7606,-25.9354,1660.5391],[26.7515,-25.9308,1667.9214],[26.7493,-25.9261,1649.8584],[26.7075,-25.9224,1666.1624],[26.7031,-25.9283,1684.6577],[26.6644,-25.8789,1579.474],[26.6633,-25.8715,1564.0375],[26.6435,-25.868,1572.3098],[26.6437,-25.838,1565.491],[26.58,-25.7827,1504.1421],[26.5714,-25.7892,1520.9186],[26.5204,-25.7553,1493.375],[26.5095,-25.7561,1487.6572],[26.4624,-25.7454,1453.9421],[26.4464,-25.7693,1428.1859],[26.4393,-25.77,1308.8125],[26.3904,-25.7576,1428.6853],[26.4093,-25.7213,1278.6733],[26.399,-25.6991,1295.0443],[26.4301,-25.6959,1233.0398],[26.4289,-25.6946,1233.0398],[26.43,-25.6934,1223.7583],[26.4259,-25.6928,1242.3201],[26.427,-25.6915,1228.7177],[26.4047,-25.6866,1386.4008],[26.3964,-25.6929,1422.5507],[26.3622,-25.6946,1493.302],[26.3728,-25.684,1425.1541],[26.3375,-25.6817,1492.5343],[26.299,-25.6672,1493.7561],[26.2625,-25.6441,1441.843],[26.2488,-25.6573,1525.7068],[26.2259,-25.652,1538.9187],[26.2265,-25.6541,1544.2866],[26.1889,-25.6733,1451.8246],[26.1548,-25.6769,1343.9813],[26.1092,-25.7021,1390.8068],[26.0964,-25.7313,1468.1069],[26.0999,-25.7344,1469.099],[26.0717,-25.768,1498.4045],[26.1005,-25.787,1529.6801],[26.1124,-25.8253,1537.8972],[26.1539,-25.8155,1533.0983],[26.1148,-25.8297,1506.3796],[26.0947,-25.8572,1525.8779],[26.0569,-25.9193,1491.168],[26.0262,-25.8892,1466.7368],[26.0246,-25.8859,1466.4564],[26.0115,-25.8761,1458.564],[26.0048,-25.8664,1456.9574],[25.9944,-25.8644,1457.1422],[25.9896,-25.8658,1460.0669],[25.9808,-25.8652,1456.4243],[25.9688,-25.8628,1457.1183],[25.9553,-25.855,1455.9844],[25.9433,-25.8511,1455.1239],[25.9384,-25.8525,1452.2749],[25.9316,-25.8512,1449.6735],[25.9075,-25.8573,1434.9413],[25.9246,-25.9116,1459.1841],[25.8019,-25.9001,1405.4893],[25.8061,-25.915,1414.7662],[25.8054,-25.9517,1399.5221],[25.7873,-26.0196,1417.2234],[25.777,-26.0289,1413.1282],[25.7721,-26.0358,1412.8542],[25.7649,-26.028,1406.4545],[25.7495,-26.0274,1401.4791],[25.7383,-26.0472,1404.3741],[25.7465,-26.0582,1411.2542],[25.7529,-26.0592,1413.1804],[25.752,-26.0655,1416.8639],[25.7585,-26.0742,1420.8455],[25.7498,-26.0778,1420.4961],[25.7516,-26.0932,1418.4226],[25.7572,-26.0847,1421.3989],[25.7656,-26.0837,1423.7018],[25.7667,-26.0852,1424.0916],[25.7504,-26.1385,1414.2583],[25.7441,-26.1673,1407.802],[25.7337,-26.1855,1402.3219],[25.721,-26.2132,1392.2864],[25.7129,-26.2248,1387.8093],[25.7228,-26.2569,1382.4167],[25.7708,-26.238,1398.5048],[25.8269,-26.2004,1421.0464],[25.8657,-26.2745,1434.9326],[25.8791,-26.2653,1439.1366],[25.8833,-26.2706,1436.1576],[25.8688,-26.2806,1434.2935],[25.8892,-26.3205,1424.8983],[25.8345,-26.3577,1417.9868],[25.8668,-26.3599,1411.5779],[25.8984,-26.423,1389.0958],[25.948,-26.4004,1412.4324],[25.9533,-26.4296,1411.6306],[25.9793,-26.4228,1421.626],[26.0152,-26.4488,1439.6163],[26.0417,-26.4497,1459.6975],[26.08,-26.4641,1488.0782],[26.102,-26.4618,1492.2732]]]]}}