{"type": "Feature","bbox": [26.498,-32.4279,27.5143,-31.6918],"geometry": {"type": "MultiPolygon","coordinates": [[[[26.7158,-32.3506,1815.5392],[26.7111,-32.3445,1810.1489],[26.7118,-32.34,1805.1104],[26.7363,-32.3274,1599.4447],[26.743,-32.337,1716.2622],[26.7587,-32.3362,1671.8545],[26.7717,-32.3383,1462.087],[26.7738,-32.334,1398.0184],[26.7761,-32.3331,1378.4246],[26.782,-32.3355,1365.087],[26.7854,-32.335,1355.4906],[26.7936,-32.34,1341.0182],[26.8012,-32.3382,1331.8298],[26.8026,-32.3358,1329.4473],[26.8073,-32.3335,1321.7465],[26.8112,-32.3362,1316.3511],[26.8139,-32.3306,1316.343],[26.8299,-32.3245,1277.3103],[26.8307,-32.3227,1303.4333],[26.8282,-32.3228,1281.3719],[26.8283,-32.3204,1287.5143],[26.812,-32.3091,1543.3413],[26.8121,-32.2958,1415.9491],[26.8299,-32.2886,1596.2089],[26.8327,-32.2715,1276.203],[26.8397,-32.2718,1224.7275],[26.8449,-32.2704,1169.1931],[26.848,-32.2668,1144.7637],[26.8511,-32.2665,1125.9067],[26.8498,-32.2617,1123.3811],[26.8482,-32.2617,1160.3079],[26.8461,-32.265,1120.8096],[26.8437,-32.2633,1120.6753],[26.8423,-32.2522,1151.0718],[26.8432,-32.2482,1116.9194],[26.8465,-32.2463,1117.3656],[26.8511,-32.2469,1102.8911],[26.8541,-32.251,1100.4186],[26.8566,-32.2595,1118.8373],[26.8694,-32.2696,1417.6433],[26.893,-32.2716,1420.4365],[26.9002,-32.2514,1402.1152],[26.9251,-32.2388,1300.2069],[26.9336,-32.2266,1243.9543],[26.9595,-32.2052,1205.7712],[26.9581,-32.2039,1200.7365],[26.9627,-32.1994,1180.973],[26.9634,-32.194,1194.687],[26.9654,-32.1916,1162.5471],[26.9704,-32.193,1168.8875],[26.9795,-32.2064,1373.105],[27.0109,-32.2225,1337.8364],[27.0493,-32.2197,1129.4849],[27.0513,-32.2354,1001.4716],[27.0541,-32.2325,992.2523],[27.0572,-32.2331,1001.7443],[27.0618,-32.2292,981.3998],[27.0675,-32.2275,981.7332],[27.0721,-32.2281,971.1704],[27.0916,-32.2209,950.6384],[27.1243,-32.2287,1028.1088],[27.1199,-32.2389,1059.9373],[27.1607,-32.2385,1272.1594],[27.1643,-32.2308,1226.4517],[27.1806,-32.2331,1224.9918],[27.1851,-32.2511,1237.8491],[27.1844,-32.2528,1247.8982],[27.1984,-32.2494,1353.3374],[27.2059,-32.2661,1221.222],[27.2436,-32.2819,1262.7938],[27.261,-32.2762,1261.7987],[27.2742,-32.2698,1227.7566],[27.2925,-32.2893,1318.7881],[27.3025,-32.2885,1356.8195],[27.3049,-32.2922,1310.5616],[27.3042,-32.2953,1258.3907],[27.3197,-32.3006,1042.97],[27.3249,-32.3098,808.6465],[27.3225,-32.3129,804.8295],[27.3242,-32.3154,797.699],[27.3294,-32.316,792.8205],[27.3327,-32.3143,795.8979],[27.3331,-32.3125,788.2915],[27.3365,-32.3206,917.422],[27.3478,-32.3117,891.8034],[27.3656,-32.3305,1037.7898],[27.3706,-32.3401,1074.4117],[27.3662,-32.3511,1005.4437],[27.3869,-32.3588,1171.6931],[27.411,-32.3549,1029.9792],[27.4138,-32.3384,1084.1692],[27.4315,-32.3563,1231.6061],[27.4411,-32.3588,1281.634],[27.4513,-32.3522,1123.0669],[27.4519,-32.3486,1102.623],[27.4492,-32.3408,1067.3124],[27.4413,-32.3344,1033.0742],[27.4609,-32.3343,1245.2295],[27.4747,-32.3263,1231.8865],[27.4921,-32.3066,1237.9126],[27.4901,-32.2903,1105.873],[27.4855,-32.2793,1111.2563],[27.4925,-32.2648,830.025],[27.4858,-32.2526,877.9434],[27.5063,-32.2346,679.0702],[27.5143,-32.2179,539.5549],[27.5007,-32.2092,538.5684],[27.483,-32.1905,547.9525],[27.4818,-32.1857,584.1998],[27.4844,-32.1829,569.3492],[27.4967,-32.1909,552.1339],[27.4989,-32.1904,567.4326],[27.5001,-32.1872,554.7313],[27.4925,-32.1813,555.1927],[27.4894,-32.1766,578.639],[27.4882,-32.1693,559.4353],[27.4809,-32.1622,566.121],[27.4755,-32.1629,567.9365],[27.4677,-32.1721,568.9581],[27.4624,-32.1749,576.2369],[27.4598,-32.1729,591.2135],[27.4547,-32.1628,577.9694],[27.4495,-32.1563,579.6257],[27.4458,-32.1547,596.6735],[27.4401,-32.1554,585.3712],[27.4344,-32.1582,586.1509],[27.4334,-32.1609,587.6249],[27.4457,-32.1719,597.2133],[27.4464,-32.1749,594.8171],[27.4441,-32.1813,622.5095],[27.4392,-32.1841,601.1756],[27.4283,-32.1855,602.1927],[27.4204,-32.1851,666.3412],[27.4157,-32.1824,615.1885],[27.4147,-32.1782,606.1276],[27.4185,-32.1518,625.1503],[27.4155,-32.1476,633.8431],[27.4002,-32.1404,630.8651],[27.3974,-32.1364,626.1356],[27.3995,-32.1326,633.8337],[27.4004,-32.1254,636.4125],[27.4027,-32.1229,667.059],[27.4196,-32.1263,677.6223],[27.4232,-32.1239,655.6455],[27.4233,-32.1199,656.9102],[27.4192,-32.1146,656.0361],[27.41,-32.1119,663.3248],[27.4014,-32.1151,663.962],[27.3942,-32.1152,667.181],[27.3879,-32.1082,680.278],[27.3887,-32.1021,672.1202],[27.3921,-32.0998,675.2497],[27.3977,-32.0986,673.473],[27.4068,-32.1001,694.2182],[27.4133,-32.0975,701.9436],[27.4148,-32.0927,695.2059],[27.412,-32.0786,701.9494],[27.4054,-32.0703,712.1033],[27.4029,-32.0695,738.3788],[27.4002,-32.0701,695.3146],[27.3954,-32.0785,737.4174],[27.3912,-32.0811,703.8474],[27.3789,-32.0817,708.6776],[27.3685,-32.0774,712.5568],[27.3691,-32.075,726.769],[27.3799,-32.0709,726.7927],[27.3817,-32.0685,738.3377],[27.3749,-32.0651,743.8132],[27.3713,-32.0535,759.364],[27.3675,-32.0522,747.4551],[27.3544,-32.0544,740.7714],[27.3523,-32.0508,740.8264],[27.3666,-32.0469,748.5721],[27.3668,-32.0429,752.9929],[27.3635,-32.0365,751.615],[27.3722,-32.0329,761.0126],[27.3635,-32.0303,762.8787],[27.3629,-32.0281,759.574],[27.3713,-32.0251,769.3389],[27.3746,-32.0156,770.7225],[27.3737,-32.0131,767.2662],[27.3714,-32.0123,768.9153],[27.3652,-32.02,779.4446],[27.3622,-32.0209,772.192],[27.3603,-32.0196,775.0964],[27.3595,-32.0129,793.5247],[27.3532,-32.0105,775.9381],[27.3512,-32.0068,779.093],[27.3513,-32.0023,776.8605],[27.3561,-32.0029,777.8784],[27.3582,-32.001,782.8352],[27.3582,-31.9969,785.4045],[27.3558,-31.9932,783.623],[27.341,-31.9889,788.1443],[27.3378,-31.9962,790.9071],[27.3337,-31.9972,789.1754],[27.3304,-31.9902,788.923],[27.3295,-31.9782,791.0012],[27.3157,-31.9813,803.4117],[27.3146,-31.9801,802.8401],[27.3104,-31.9841,805.7469],[27.3051,-31.9824,812.3727],[27.3046,-31.9846,813.0826],[27.3011,-31.9831,813.7039],[27.2981,-31.9844,814.1979],[27.2946,-31.9827,818.4316],[27.2887,-31.9877,820.2917],[27.2864,-31.9868,820.9001],[27.2857,-31.9886,821.7714],[27.2855,-31.9867,820.9001],[27.2806,-31.9888,824.7224],[27.2779,-31.9871,829.3958],[27.2751,-31.9918,829.6372],[27.2731,-31.9903,830.5195],[27.2697,-31.9922,834.6169],[27.2587,-31.9928,845.2048],[27.2505,-31.9872,848.0435],[27.2505,-31.9859,848.4177],[27.2451,-31.9865,854.666],[27.2412,-31.9851,856.9977],[27.2404,-31.9834,853.8899],[27.2388,-31.9837,855.5804],[27.2396,-31.9827,860.8376],[27.2327,-31.9812,861.4351],[27.2314,-31.9777,867.1414],[27.2288,-31.9777,867.5918],[27.2271,-31.9783,867.9755],[27.2262,-31.9854,878.9094],[27.2244,-31.988,889.4658],[27.2147,-31.9896,898.8518],[27.207,-31.9877,887.5214],[27.2033,-31.992,902.3755],[27.1976,-31.9936,915.1463],[27.1895,-31.9907,931.4651],[27.1627,-31.994,952.8618],[27.1568,-31.993,954.6583],[27.1525,-31.9946,966.2563],[27.1193,-31.9801,1257.9855],[27.1209,-31.9733,1286.479],[27.1189,-31.9621,1298.2288],[27.106,-31.9156,1285.4429],[27.0996,-31.9105,1396.9559],[27.0812,-31.9015,1417.3481],[27.0794,-31.8949,1353.7961],[27.0731,-31.894,1468.4315],[27.0493,-31.8769,1376.8481],[27.037,-31.8641,1451.4075],[27.0257,-31.8585,1338.0262],[27.0137,-31.8604,1508.6035],[27.0075,-31.8562,1476.7373],[26.9727,-31.8551,1405.5981],[26.9772,-31.8458,1452.3492],[26.9808,-31.8272,1554.2858],[26.9664,-31.792,1564.4202],[26.9725,-31.787,1673.7443],[26.9583,-31.781,1603.8416],[26.9244,-31.7784,1682.3213],[26.9127,-31.7747,1812.1265],[26.9135,-31.7677,1810.8979],[26.9063,-31.7413,1446.0791],[26.8801,-31.7388,1773.9858],[26.8823,-31.7153,1850.0972],[26.868,-31.7017,1923.5536],[26.8488,-31.6918,1821.2534],[26.8046,-31.7067,1911.567],[26.7787,-31.7336,1926.6666],[26.7763,-31.7342,1760.6309],[26.7626,-31.7474,1288.2318],[26.7431,-31.7455,1261.9871],[26.7159,-31.7601,1287.4871],[26.7073,-31.7661,1298.6809],[26.6998,-31.7854,1413.3691],[26.68,-31.8049,1495.7997],[26.6644,-31.8416,1600.3694],[26.6563,-31.8475,1582.7041],[26.6626,-31.8536,1586.1008],[26.6709,-31.866,1526.3252],[26.6583,-31.8939,1227.0052],[26.6504,-31.9174,1119.5828],[26.659,-31.9168,1119.6804],[26.6644,-31.9229,1117.2601],[26.6696,-31.9209,1115.6366],[26.6716,-31.9252,1128.1991],[26.6991,-31.9423,1182.8657],[26.7004,-31.9493,1346.1757],[26.6531,-31.9444,1423.7961],[26.662,-32.0056,1263.8086],[26.6651,-32.0172,1108.8867],[26.6649,-32.0237,1098.845],[26.6592,-32.0254,1099.8481],[26.6587,-32.0338,1110.6758],[26.6481,-32.0331,1108.9524],[26.6447,-32.0346,1115.0092],[26.6437,-32.0321,1114.0349],[26.6395,-32.0313,1117.1599],[26.636,-32.0268,1118.0118],[26.6363,-32.0241,1118.0322],[26.6379,-32.0241,1115.7103],[26.6371,-32.021,1118.5243],[26.6418,-32.0204,1123.4174],[26.6437,-32.0175,1122.8307],[26.639,-32.0119,1123.8494],[26.6369,-32.0065,1129.1506],[26.6344,-32.0087,1218.9988],[26.6115,-32.0005,1407.5637],[26.5992,-32.0047,1546.7979],[26.5621,-32.0089,1368.0768],[26.5699,-32.0145,1400.5225],[26.5716,-32.0192,1437.24],[26.5652,-32.0272,1371.8651],[26.5652,-32.0477,1619.3472],[26.5418,-32.0509,1692.2688],[26.5543,-32.0779,1456.5261],[26.5633,-32.0881,1389.8877],[26.5709,-32.118,1458.8235],[26.5621,-32.116,1459.7544],[26.5577,-32.122,1429.0482],[26.5425,-32.1352,1421.2804],[26.5364,-32.1468,1431.0212],[26.541,-32.1579,1456.7393],[26.5552,-32.1551,1582.0725],[26.5975,-32.1791,1573.9667],[26.5884,-32.1869,1443.1409],[26.5669,-32.1993,1579.373],[26.5608,-32.2314,1713.2739],[26.5381,-32.2402,1489.9283],[26.5293,-32.2402,1490.6307],[26.5248,-32.2368,1485.1776],[26.5219,-32.2378,1492.5243],[26.5216,-32.241,1501.0895],[26.525,-32.2432,1517.1091],[26.5248,-32.2453,1539.0004],[26.5269,-32.2469,1527.1615],[26.5262,-32.2494,1522.531],[26.5287,-32.2509,1535.8459],[26.5284,-32.2539,1509.7638],[26.5346,-32.2547,1527.8719],[26.5324,-32.2585,1539.6805],[26.5332,-32.261,1546.7129],[26.5357,-32.2633,1550.8436],[26.5391,-32.2626,1553.416],[26.546,-32.2671,1560.3647],[26.5463,-32.2727,1562.5219],[26.5497,-32.2735,1572.9763],[26.5478,-32.2762,1607.1271],[26.5444,-32.2771,1606.9536],[26.5437,-32.2798,1691.6577],[26.5454,-32.2841,1612.3232],[26.5404,-32.2853,1621.4027],[26.5394,-32.2874,1633.4573],[26.5403,-32.2897,1676.8096],[26.5437,-32.2885,1639.3228],[26.5455,-32.2915,1669.9089],[26.5421,-32.2935,1678.6438],[26.5459,-32.2948,1683.1937],[26.5431,-32.298,1714.7141],[26.5468,-32.302,1691.5186],[26.5451,-32.304,1693.1522],[26.5424,-32.3035,1704.601],[26.5397,-32.2988,1712.2102],[26.5351,-32.2975,1710.5],[26.5317,-32.2936,1710.5],[26.5256,-32.2936,1710.5],[26.5249,-32.2965,1716.2771],[26.5278,-32.3023,1713.2988],[26.5275,-32.3083,1711.9288],[26.5299,-32.3115,1714.0725],[26.5275,-32.315,1715.691],[26.5303,-32.3154,1725.1895],[26.5316,-32.3214,1732.8385],[26.5336,-32.32,1726.2969],[26.5359,-32.3206,1732.4216],[26.5348,-32.3304,1749.0286],[26.5078,-32.3455,1801.3074],[26.498,-32.3595,1807.9539],[26.5156,-32.3546,1783.0909],[26.5337,-32.3602,1828.2097],[26.5393,-32.3764,1862.3866],[26.5392,-32.386,1816.995],[26.5667,-32.4019,1769.7877],[26.5804,-32.3871,1771.6797],[26.5877,-32.3965,1771.4941],[26.6011,-32.3973,1786.4799],[26.6082,-32.4043,1777.415],[26.6281,-32.4119,1743.1534],[26.6381,-32.4191,1682.7],[26.6486,-32.4235,1712.8613],[26.6531,-32.4217,1717.844],[26.6625,-32.4279,1687.4172],[26.6719,-32.4155,1642.8728],[26.7047,-32.4181,1618.2891],[26.7221,-32.4053,1580.1735],[26.7261,-32.3987,1643.9392],[26.7323,-32.3971,1642.2131],[26.735,-32.3903,1643.4458],[26.729,-32.3632,1877.8876],[26.7208,-32.3596,1827.4291],[26.7158,-32.3506,1815.5392]]]]}
,"properties": {"GID_3": "ZAF.1.5.6_1","GID_0": "ZAF","country": "SouthAfrica","GID_1": "ZAF.1_1","province": "EasternCape","NL_NAME_1": "NA","GID_2": "ZAF.1.5_1","county": "ChrisHani","NL_NAME_2": "NA","city": "Lukanji","VARNAME_3": "NA","NL_NAME_3": "NA","TYPE_3": "LocalMunicipality","ENGTYPE_3": "LocalMunicipality","CC_3": "EC134","HASC_3": "NA","name": "Lukanji.city","area_km2": 3814.657,"hist_schema_id": "Elevation0-9000","hist_area_km2": {"525": 0.179,"550": 3.588,"575": 4.019,"600": 4.664,"625": 6.082,"650": 7.984,"675": 11.717,"700": 14.462,"725": 18.123,"750": 26.217,"775": 41.031,"800": 52.419,"825": 61.945,"850": 68.601,"875": 77.176,"900": 85.597,"925": 97.401,"950": 112.058,"975": 111.565,"1000": 127.492,"1025": 163.333,"1050": 195.318,"1075": 228.913,"1100": 215.242,"1125": 200.21,"1150": 194.253,"1175": 181.002,"1200": 174.25,"1225": 156.563,"1250": 135.742,"1275": 116.185,"1300": 101.657,"1325": 97.221,"1350": 90.109,"1375": 78.002,"1400": 67.002,"1425": 55.966,"1450": 48.724,"1475": 44.078,"1500": 39.208,"1525": 32.509,"1550": 28.486,"1575": 26.999,"1600": 23.921,"1625": 19.145,"1650": 17.155,"1675": 16.612,"1700": 20.546,"1725": 27.216,"1750": 35.651,"1775": 29.068,"1800": 14.108,"1825": 4.629,"1850": 1.331,"1875": 0.559,"1900": 0.307,"1925": 0.307,"1950": 0.234,"1975": 0.252,"2000": 0.252,"2025": 0.036,"2050": 0.036}}}