{"type":"Feature","properties":{"GID_3":"ZAF.6.2.4_1","GID_0":"ZAF","country":"SouthAfrica","GID_1":"ZAF.6_1","province":"Mpumalanga","NL_NAME_1":"NA","GID_2":"ZAF.6.2_1","county":"GertSibande","NL_NAME_2":"NA","city":"Lekwa","VARNAME_3":"NA","NL_NAME_3":"NA","TYPE_3":"LocalMunicipality","ENGTYPE_3":"LocalMunicipality","CC_3":"MP305","HASC_3":"NA","name":"Lekwa.city"},
"geometry":{"type": "MultiPolygon","coordinates": [[[[29.4182,-27.2534,1546.2446],[29.4189,-27.2545,1539.3531],[29.4224,-27.2505,1582.5645],[29.4339,-27.2343,1595.5632],[29.4601,-27.2325,1605.1577],[29.4926,-27.1947,1682.9537],[29.4864,-27.1728,1631.5579],[29.5504,-27.1856,1659.2727],[29.5728,-27.1054,1643.022],[29.632,-27.1001,1646.4233],[29.6202,-27.0746,1624.3279],[29.6372,-27.0321,1693.0044],[29.6476,-27.032,1687.7744],[29.6558,-27.0045,1650.8058],[29.6481,-26.9958,1655.3021],[29.6586,-26.9579,1611.5647],[29.6652,-26.9432,1612.0393],[29.6685,-26.9011,1625.9716],[29.6574,-26.8693,1571.178],[29.6589,-26.8627,1576.2871],[29.669,-26.857,1567.615],[29.6842,-26.8575,1567.9009],[29.691,-26.8504,1568.9207],[29.6969,-26.855,1571.8899],[29.7013,-26.854,1570.1241],[29.701,-26.8511,1567.9893],[29.7039,-26.8499,1568.2585],[29.7046,-26.8427,1568.2255],[29.7078,-26.8412,1568.7368],[29.7183,-26.8437,1570.4926],[29.7222,-26.841,1574.1017],[29.7247,-26.8416,1570.1418],[29.7239,-26.8484,1569.8933],[29.7327,-26.8561,1570.4895],[29.7379,-26.8517,1570.8931],[29.7363,-26.8495,1570.9865],[29.7372,-26.8479,1573.1309],[29.7422,-26.848,1575.3591],[29.7407,-26.8394,1578.6749],[29.7443,-26.8369,1576.4331],[29.745,-26.8327,1574.3025],[29.7469,-26.8321,1572.2065],[29.7471,-26.834,1570.0171],[29.7498,-26.8349,1571.6544],[29.749,-26.8326,1571.4426],[29.7526,-26.8316,1570.6033],[29.7589,-26.8316,1574.0121],[29.7626,-26.8339,1593.0844],[29.7645,-26.8379,1576.847],[29.7616,-26.8403,1575.05],[29.7657,-26.8458,1570.9713],[29.7674,-26.8575,1572.5052],[29.7694,-26.8577,1572.9419],[29.7714,-26.8564,1578.2217],[29.7724,-26.8529,1581.5999],[29.7801,-26.8486,1575.1696],[29.7785,-26.8449,1583.8976],[29.7814,-26.8424,1574.7909],[29.7861,-26.8449,1572.7593],[29.7879,-26.8495,1572.5764],[29.7926,-26.8478,1574.2998],[29.8,-26.8479,1572.6887],[29.8022,-26.8404,1572.9315],[29.7983,-26.8356,1573.7858],[29.7938,-26.8338,1575.6077],[29.79,-26.8261,1574.2936],[29.791,-26.8238,1574.064],[29.7931,-26.8235,1575.0117],[29.8002,-26.8297,1583.7444],[29.804,-26.8259,1574.4595],[29.8038,-26.8216,1573.799],[29.7948,-26.8187,1577.3322],[29.7943,-26.8147,1579.8171],[29.7968,-26.8129,1576.8809],[29.7998,-26.8127,1574.6017],[29.802,-26.8107,1575.3933],[29.812,-26.8125,1590.6398],[29.8137,-26.8155,1583.2285],[29.8125,-26.8171,1575.0581],[29.8143,-26.8174,1576.8315],[29.8137,-26.8201,1573.3868],[29.823,-26.8252,1574.5376],[29.8255,-26.8291,1574.4611],[29.8291,-26.8309,1574.7435],[29.8326,-26.829,1581.427],[29.8327,-26.8216,1575.3311],[29.8376,-26.823,1578.0378],[29.8411,-26.8183,1575.5441],[29.844,-26.8192,1575.4508],[29.8369,-26.8132,1581.3334],[29.8383,-26.8096,1573.7584],[29.8363,-26.8101,1573.7584],[29.8368,-26.8087,1577.1727],[29.8445,-26.81,1574.4536],[29.8453,-26.8086,1574.2053],[29.8438,-26.8088,1574.0538],[29.843,-26.8067,1574.0735],[29.8469,-26.8081,1574.2526],[29.8481,-26.8071,1574.4735],[29.84,-26.8025,1602.9509],[29.843,-26.7995,1579.9602],[29.8443,-26.7566,1612.9388],[29.8699,-26.6502,1626.1055],[29.8226,-26.6694,1634.2477],[29.7992,-26.6547,1635.0874],[29.7422,-26.6563,1614.6656],[29.7419,-26.6447,1628.8878],[29.7042,-26.6499,1660.1406],[29.6404,-26.6279,1704.6049],[29.6418,-26.5808,1731.3538],[29.6396,-26.5297,1700.6438],[29.5609,-26.5267,1652.7146],[29.5683,-26.5616,1652.9434],[29.4868,-26.5533,1645.5466],[29.4891,-26.5886,1639.0283],[29.4563,-26.5916,1613.7449],[29.4594,-26.6467,1602.6335],[29.3785,-26.654,1636.3021],[29.3255,-26.6613,1628.4187],[29.291,-26.6401,1627.5604],[29.2475,-26.646,1635.9031],[29.2475,-26.6562,1627.2972],[29.2238,-26.6583,1638.7788],[29.2301,-26.6906,1602.8884],[29.2414,-26.7168,1608.3269],[29.1711,-26.7107,1604.7881],[29.1446,-26.7376,1597.8955],[29.1252,-26.7074,1566.6552],[29.1104,-26.7111,1576.667],[29.112,-26.7122,1572.2582],[29.1077,-26.7171,1582.6372],[29.104,-26.7126,1593.498],[29.0705,-26.7209,1599.2509],[29.0859,-26.6991,1613.2072],[29.0231,-26.6816,1541.0653],[29.0212,-26.6824,1542.0132],[29.0239,-26.6856,1541.7419],[29.0235,-26.688,1543.1995],[29.0192,-26.6896,1541.895],[29.0198,-26.6927,1543.3811],[28.9912,-26.686,1553.0049],[28.9881,-26.6488,1566.5789],[28.9923,-26.6085,1578.4487],[28.9443,-26.611,1628.396],[28.8975,-26.624,1626.1571],[28.8895,-26.6166,1638.7699],[28.9111,-26.59,1619.1184],[28.8553,-26.5682,1666.2438],[28.8389,-26.6059,1667.7197],[28.8541,-26.6184,1670.5696],[28.88,-26.6283,1680.6218],[28.9002,-26.6526,1642.8752],[28.9321,-26.7111,1571.9872],[28.919,-26.7129,1619.373],[28.9128,-26.7153,1564.2645],[28.9121,-26.7185,1557.5796],[28.9134,-26.7216,1556.2533],[28.912,-26.7258,1554.4587],[28.9138,-26.7271,1553.5266],[28.9138,-26.733,1556.2251],[28.916,-26.7322,1552.158],[28.9164,-26.7344,1551.9681],[28.9031,-26.7416,1563.4],[28.8827,-26.7574,1605.6975],[28.9217,-26.7976,1581.6946],[28.9298,-26.7995,1577.3916],[28.9308,-26.7971,1576.8333],[28.9377,-26.7997,1572.2019],[28.9383,-26.7982,1571.6666],[28.9516,-26.8036,1568.0562],[28.9498,-26.8073,1571.5172],[28.9747,-26.8159,1530.9901],[28.9775,-26.8149,1531.4429],[28.9776,-26.8232,1535.0391],[28.9806,-26.8258,1530.3799],[28.9864,-26.8234,1530.3142],[28.988,-26.8246,1530.6028],[28.9843,-26.8284,1530.4077],[28.9873,-26.8353,1528.9208],[28.9761,-26.8402,1529.4518],[28.9733,-26.8393,1529.1842],[28.9746,-26.8351,1530.2007],[28.9722,-26.8337,1532.0983],[28.9639,-26.8397,1530.7855],[28.9605,-26.8401,1528.3103],[28.9488,-26.8356,1530.757],[28.9468,-26.8331,1528.8529],[28.9449,-26.8336,1533.6138],[28.945,-26.84,1528.2192],[28.9425,-26.8422,1526.3104],[28.9363,-26.836,1526.9126],[28.9254,-26.8396,1527.9639],[28.9233,-26.8384,1525.6553],[28.9225,-26.8348,1528.1838],[28.9142,-26.8316,1525.5103],[28.9122,-26.8359,1525.1317],[28.9147,-26.8402,1525.3369],[28.9183,-26.8418,1527.5527],[28.9155,-26.8454,1525.2134],[28.9088,-26.8479,1525.8118],[28.9055,-26.8532,1525.2266],[28.9002,-26.8521,1523.2776],[28.8985,-26.8559,1523.6292],[28.8929,-26.8554,1524.627],[28.8911,-26.8522,1523.265],[28.8888,-26.8521,1521.2534],[28.8902,-26.8579,1521.7395],[28.8827,-26.8637,1526.4263],[28.8884,-26.8656,1520.8933],[28.8911,-26.8687,1519.5428],[28.8889,-26.8758,1519.6499],[28.8849,-26.8799,1522.392],[28.886,-26.883,1526.4985],[28.8727,-26.8972,1517.9077],[28.8621,-26.8927,1518.8434],[28.8536,-26.898,1517.923],[28.8533,-26.9005,1517.7109],[28.8624,-26.91,1516.0356],[28.8539,-26.9135,1515.2739],[28.8533,-26.9207,1517.4283],[28.8516,-26.923,1525.7224],[28.8351,-26.9235,1513.8765],[28.8317,-26.9203,1515.9468],[28.8282,-26.9197,1515.9927],[28.8544,-26.9706,1558.3761],[28.8919,-26.9766,1532.2208],[28.9111,-27.0185,1500.4237],[28.9204,-27.0111,1505.7087],[28.9293,-27.0149,1498.8254],[28.9408,-27.0155,1500.0625],[28.9546,-27.0116,1500.6133],[28.9615,-26.9989,1502.1769],[28.9661,-26.9949,1502.2136],[28.9675,-26.9915,1499.7814],[28.9737,-26.9927,1501.2711],[28.9935,-27.0032,1502.4779],[29.0097,-27.0064,1501.2006],[29.0227,-27.0153,1503.9603],[29.027,-27.0164,1503.08],[29.0281,-27.0184,1502.2622],[29.0262,-27.0221,1502.5388],[29.031,-27.0289,1505.4564],[29.0352,-27.0273,1503.6869],[29.0388,-27.0225,1502.0593],[29.0388,-27.0048,1502.3217],[29.0445,-27.004,1502.6357],[29.0563,-27.0084,1503.1404],[29.0598,-27.0173,1505.1052],[29.0536,-27.0299,1503.7195],[29.0533,-27.0335,1504.1753],[29.0649,-27.0428,1506.1445],[29.0615,-27.046,1504.9938],[29.0618,-27.0489,1505.085],[29.0683,-27.055,1507.3704],[29.072,-27.0563,1505.4689],[29.0708,-27.0601,1506.9148],[29.0742,-27.0635,1506.2356],[29.0733,-27.065,1508.7651],[29.0708,-27.064,1506.4161],[29.072,-27.0659,1506.0408],[29.0701,-27.0678,1506.9316],[29.0682,-27.0674,1506.3516],[29.0674,-27.0647,1506.0803],[29.0654,-27.0651,1506.9114],[29.061,-27.0718,1507.2979],[29.0621,-27.0755,1507.6418],[29.0609,-27.0785,1507.8971],[29.0557,-27.0787,1507.7725],[29.0557,-27.0813,1508.0367],[29.0619,-27.0853,1507.4937],[29.0647,-27.0837,1509.5632],[29.0673,-27.0855,1507.688],[29.0718,-27.0857,1509.8411],[29.0737,-27.0908,1508.3331],[29.0777,-27.0926,1508.6803],[29.0833,-27.1054,1508.8423],[29.0864,-27.1067,1509.3473],[29.0857,-27.1103,1509.3109],[29.0886,-27.113,1509.7858],[29.0862,-27.116,1509.9265],[29.0888,-27.1185,1510.175],[29.0927,-27.1182,1509.137],[29.0917,-27.1211,1510.4492],[29.097,-27.1227,1511.3651],[29.0992,-27.1269,1510.9304],[29.104,-27.1303,1513.2749],[29.1054,-27.1338,1511.0507],[29.1018,-27.1342,1511.2709],[29.1014,-27.1372,1511.5055],[29.1075,-27.1419,1511.5505],[29.1106,-27.1477,1511.4978],[29.1134,-27.1496,1512.1361],[29.1121,-27.1528,1512.7373],[29.1141,-27.1589,1513.5955],[29.1137,-27.1632,1512.212],[29.1171,-27.1725,1513.8225],[29.121,-27.1716,1513.2662],[29.1244,-27.1672,1513.1217],[29.1265,-27.1671,1513.1699],[29.1269,-27.169,1513.9425],[29.1296,-27.1684,1513.6713],[29.1296,-27.1628,1514.5073],[29.1316,-27.1624,1514.9904],[29.1321,-27.1602,1513.9507],[29.1334,-27.1626,1514.5781],[29.1372,-27.1612,1514.3076],[29.138,-27.1584,1514.3225],[29.1363,-27.1546,1514.6268],[29.1377,-27.1524,1514.0557],[29.1417,-27.1538,1515.2235],[29.146,-27.1528,1514.7227],[29.1474,-27.1491,1514.6321],[29.151,-27.1519,1516.3818],[29.1527,-27.146,1515.511],[29.1562,-27.1449,1515.6414],[29.1588,-27.1461,1514.9448],[29.1595,-27.1431,1515.7668],[29.1701,-27.1414,1515.7778],[29.1782,-27.1465,1516.3992],[29.1798,-27.1441,1516.4033],[29.1831,-27.1454,1516.8322],[29.1902,-27.1432,1518.2324],[29.1897,-27.1409,1517.844],[29.1926,-27.1403,1517.4767],[29.1927,-27.1371,1520.5173],[29.195,-27.1402,1517.4276],[29.204,-27.1449,1518.2217],[29.2097,-27.1424,1518.5474],[29.2158,-27.1476,1517.5555],[29.2239,-27.1447,1519.106],[29.2278,-27.1471,1518.4348],[29.2271,-27.1499,1519.3279],[29.2292,-27.151,1519.144],[29.227,-27.1553,1524.0829],[29.2286,-27.1568,1518.1866],[29.2281,-27.1611,1517.4832],[29.2307,-27.1604,1518.4786],[29.2298,-27.1672,1518.915],[29.2355,-27.1731,1522.9524],[29.2365,-27.1776,1521.2158],[29.2347,-27.1832,1524.8932],[29.2412,-27.1823,1520.8811],[29.2437,-27.1835,1524.4758],[29.2434,-27.1852,1520.6895],[29.2406,-27.1846,1520.5449],[29.2396,-27.1863,1521.0724],[29.2419,-27.1884,1520.1842],[29.2426,-27.1861,1520.6895],[29.2443,-27.1862,1523.1394],[29.2465,-27.1885,1523.4443],[29.2453,-27.1909,1521.6892],[29.2463,-27.192,1521.907],[29.2541,-27.1897,1523.1298],[29.2535,-27.194,1522.8768],[29.2563,-27.1946,1526.8152],[29.2583,-27.1843,1522.282],[29.2604,-27.1813,1522.2114],[29.2629,-27.183,1523.2904],[29.2602,-27.1838,1522.1688],[29.2633,-27.1874,1522.4548],[29.2658,-27.1868,1522.4073],[29.2668,-27.184,1522.6605],[29.2682,-27.1849,1522.334],[29.2657,-27.1916,1522.8291],[29.2703,-27.1893,1523.1545],[29.2694,-27.1929,1523.1675],[29.2708,-27.1958,1523.6555],[29.2683,-27.1961,1524.7328],[29.2682,-27.1983,1526.2823],[29.2719,-27.1962,1523.6555],[29.2722,-27.1916,1523.6213],[29.2747,-27.1927,1528.7212],[29.2732,-27.1956,1523.9156],[29.2767,-27.1943,1524.3107],[29.282,-27.195,1524.4202],[29.2807,-27.1989,1524.8806],[29.2819,-27.1996,1525.0588],[29.285,-27.195,1525.1644],[29.2819,-27.1921,1524.5127],[29.2839,-27.1936,1524.0188],[29.2841,-27.1907,1525.182],[29.2864,-27.1903,1525.4191],[29.2871,-27.1911,1525.2753],[29.2849,-27.1925,1525.2053],[29.2876,-27.1927,1525.116],[29.2887,-27.1965,1526.2739],[29.2917,-27.1996,1526.806],[29.2957,-27.201,1527.0771],[29.2954,-27.2031,1527.0472],[29.298,-27.2041,1526.6821],[29.2972,-27.2058,1527.4602],[29.2988,-27.2092,1527.6379],[29.3019,-27.2097,1527.2855],[29.3005,-27.2119,1527.9501],[29.309,-27.2162,1527.8827],[29.312,-27.2141,1527.9656],[29.3112,-27.2113,1529.8956],[29.3255,-27.2085,1529.0283],[29.3299,-27.2036,1557.4932],[29.3308,-27.208,1528.4211],[29.3351,-27.2074,1529.1124],[29.3312,-27.2103,1528.8573],[29.3311,-27.213,1531.1216],[29.3341,-27.2141,1529.6899],[29.3315,-27.2182,1531.4531],[29.3329,-27.2191,1529.5782],[29.3329,-27.217,1530.085],[29.3355,-27.2173,1531.1437],[29.3359,-27.2145,1530.6255],[29.3371,-27.2181,1529.8337],[29.3356,-27.2219,1530.0598],[29.3377,-27.2239,1530.3342],[29.3365,-27.2246,1531.1924],[29.3351,-27.2226,1530.0598],[29.3335,-27.2239,1531.1766],[29.3362,-27.2267,1531.3086],[29.3321,-27.2305,1544.3297],[29.3361,-27.232,1531.0461],[29.3382,-27.2351,1531.5824],[29.3344,-27.2364,1532.616],[29.3352,-27.2398,1535.7529],[29.3321,-27.2446,1532.4008],[29.3281,-27.2466,1533.3522],[29.3253,-27.2521,1532.9097],[29.3312,-27.2634,1536.715],[29.3392,-27.2637,1535.2501],[29.3408,-27.2604,1547.8036],[29.3397,-27.252,1565.2307],[29.3427,-27.2485,1537.3602],[29.3532,-27.2498,1537.3013],[29.3619,-27.247,1535.0159],[29.3698,-27.2515,1550.4631],[29.3751,-27.251,1535.6665],[29.3807,-27.2474,1547.4436],[29.3845,-27.249,1537.1101],[29.3884,-27.246,1535.8923],[29.389,-27.2475,1535.917],[29.3863,-27.2489,1535.3982],[29.3875,-27.2499,1539.6853],[29.3902,-27.2477,1541.3672],[29.3869,-27.2436,1539.2092],[29.3909,-27.2427,1542.0404],[29.4002,-27.2429,1536.8083],[29.4015,-27.2496,1549.266],[29.4043,-27.2523,1538.2283],[29.4107,-27.2523,1537.2483],[29.4151,-27.2505,1539.1115],[29.4182,-27.2534,1546.2446]]]]}}