{"type": "Feature","bbox": [31.0298,-29.1745,31.8346,-28.697],"geometry": {"type": "MultiPolygon","coordinates": [[[[31.3178,-29.1503,39.5],[31.3173,-29.1442,61.3801],[31.3228,-29.1427,56.0909],[31.3256,-29.1383,58.1011],[31.3183,-29.1306,59.5695],[31.3183,-29.1284,62.519],[31.3207,-29.1272,65.9073],[31.3278,-29.1318,88.227],[31.3323,-29.1311,89.0756],[31.3339,-29.1274,78.4546],[31.3266,-29.1244,80.2493],[31.3257,-29.1206,94.4769],[31.333,-29.1211,86.4165],[31.3377,-29.1169,95.2406],[31.3358,-29.1147,98.2709],[31.3241,-29.1121,105.5658],[31.3245,-29.109,108.8006],[31.3315,-29.1103,121.3785],[31.3341,-29.1089,124.765],[31.3285,-29.1056,123.4139],[31.3276,-29.103,146.858],[31.3325,-29.1024,160.6534],[31.3324,-29.0994,132.01],[31.3447,-29.1019,148.6264],[31.3469,-29.1006,144.9802],[31.3408,-29.096,157.5871],[31.3419,-29.0938,153.4264],[31.3471,-29.0936,162.8551],[31.3401,-29.0892,181.923],[31.3403,-29.0868,174.596],[31.3459,-29.088,185.1708],[31.3559,-29.0871,185.6997],[31.3588,-29.091,202.603],[31.3615,-29.092,214.5817],[31.365,-29.0871,255.629],[31.3702,-29.0841,284.1353],[31.3729,-29.079,335.6016],[31.3769,-29.0794,386.3837],[31.3832,-29.0727,403.0837],[31.3845,-29.069,421.0183],[31.387,-29.0677,430.5808],[31.3856,-29.0581,293.5278],[31.3788,-29.0628,260.6388],[31.3756,-29.0625,252.9433],[31.3722,-29.0594,259.2653],[31.3633,-29.0599,218.2072],[31.3719,-29.055,241.0632],[31.3744,-29.0508,241.8647],[31.3748,-29.0428,296.8026],[31.3758,-29.0386,287.7063],[31.378,-29.0383,291.7318],[31.3792,-29.0357,331.2303],[31.3783,-29.0328,340.2068],[31.3804,-29.0247,302.1572],[31.3777,-29.0151,272.8557],[31.3788,-29.0061,257.2528],[31.3809,-29.0063,255.3383],[31.3821,-29.0028,253.6396],[31.388,-29.0019,247.6314],[31.3879,-28.9969,236.1992],[31.3927,-28.9963,228.2732],[31.3938,-28.9977,228.2732],[31.3949,-28.9961,237.3186],[31.3996,-28.9954,230.7446],[31.4023,-28.9991,223.9661],[31.4054,-28.9973,228.0144],[31.4062,-29.0018,228.0298],[31.4107,-28.997,206.1694],[31.4142,-28.9981,202.8],[31.4145,-28.9959,194.5811],[31.4127,-28.9937,198.5529],[31.4138,-28.9926,214.7546],[31.4198,-28.9943,211.6698],[31.4237,-28.9993,172.0634],[31.4275,-28.9943,174.8961],[31.4319,-28.9962,165.6111],[31.437,-28.9919,188.0714],[31.4424,-28.9968,147.9563],[31.4457,-28.99,138.2289],[31.4566,-28.989,138.5116],[31.4577,-28.9869,130.224],[31.4559,-28.9827,127.4161],[31.458,-28.9819,140.4232],[31.4606,-28.9874,125.3468],[31.459,-28.9917,127.8641],[31.4617,-28.9977,149.3253],[31.4617,-29.0015,146.2639],[31.4602,-29.0042,126.3621],[31.4501,-29.0042,133.207],[31.4479,-29.0096,105.0248],[31.4496,-29.0141,110.1164],[31.4541,-29.0168,146.4904],[31.458,-29.0098,89.2082],[31.4674,-29.0093,77.1334],[31.4676,-29.004,135.4898],[31.4699,-29.0043,99.6715],[31.4717,-29.0082,69.5675],[31.4683,-29.0158,58.9725],[31.4721,-29.025,134.2637],[31.4755,-29.0259,51.0356],[31.4834,-29.0243,53.9098],[31.4997,-29.0278,52.237],[31.5008,-29.0366,42.1956],[31.5121,-29.0347,38.4715],[31.5099,-29.0433,35.5838],[31.5106,-29.0458,35.2099],[31.5128,-29.0471,37.8063],[31.519,-29.046,35.6104],[31.5138,-29.0417,33.5181],[31.5145,-29.0383,36.0594],[31.5178,-29.0368,31.7434],[31.5243,-29.038,29.6955],[31.5258,-29.0408,36.3316],[31.5222,-29.0483,37.6489],[31.5266,-29.0513,24.7396],[31.5296,-29.0567,24.8306],[31.5418,-29.0575,27.3457],[31.5423,-29.056,27.1484],[31.538,-29.0527,27.3756],[31.5386,-29.0505,22.7314],[31.5433,-29.0523,27.644],[31.5493,-29.0596,34.3512],[31.5592,-29.0588,24.9605],[31.5632,-29.0617,21.071],[31.5777,-29.0536,80.7947],[31.6754,-29.0549,0.0],[31.7113,-29.0224,0.0],[31.734,-28.9937,4.0808],[31.7635,-28.9654,4.0519],[31.7987,-28.9504,6.0248],[31.8129,-28.9468,3.5335],[31.8117,-28.9452,1.8669],[31.8035,-28.9456,0.0],[31.7949,-28.9493,0.0],[31.7851,-28.9508,0.6912],[31.7789,-28.9553,12.3419],[31.7755,-28.9541,1.2854],[31.7753,-28.9517,1.1346],[31.7823,-28.9484,9.0162],[31.786,-28.9434,2.2371],[31.7848,-28.9396,3.7072],[31.7802,-28.9359,1.586],[31.7813,-28.9351,2.6776],[31.7919,-28.9317,7.1484],[31.7974,-28.9342,6.5678],[31.8017,-28.933,7.3538],[31.7859,-28.9027,47.5631],[31.7468,-28.9198,5.514],[31.7442,-28.9184,4.9146],[31.7399,-28.9202,6.1922],[31.7377,-28.9182,5.1354],[31.7335,-28.9186,4.8524],[31.7304,-28.9171,10.77],[31.7285,-28.9186,6.9108],[31.7275,-28.9172,10.367],[31.7209,-28.9168,6.8988],[31.7169,-28.919,9.1777],[31.7125,-28.9149,8.9512],[31.7098,-28.9148,7.9287],[31.7112,-28.9116,15.7371],[31.7058,-28.9085,17.5997],[31.7123,-28.903,59.6673],[31.7177,-28.9021,66.1724],[31.7201,-28.8994,70.8081],[31.7219,-28.9004,71.5574],[31.7256,-28.8994,83.9212],[31.7265,-28.8958,81.7055],[31.7404,-28.8883,98.222],[31.7455,-28.8834,50.5823],[31.7473,-28.8794,70.1836],[31.7514,-28.8792,55.5335],[31.7478,-28.8727,84.9244],[31.7542,-28.871,117.4087],[31.7554,-28.8645,94.4792],[31.7615,-28.8665,67.4533],[31.7645,-28.862,136.8311],[31.7665,-28.8527,149.2079],[31.7699,-28.8534,155.1847],[31.7794,-28.8506,108.2364],[31.7804,-28.8487,97.788],[31.7875,-28.8482,97.0552],[31.7886,-28.8526,82.1252],[31.7983,-28.8458,120.0493],[31.8013,-28.8463,114.2841],[31.8048,-28.8505,71.2994],[31.8151,-28.8461,51.0904],[31.8205,-28.842,82.6151],[31.8239,-28.8369,131.7225],[31.8323,-28.8316,80.0108],[31.8346,-28.8248,22.4399],[31.828,-28.822,25.7492],[31.8269,-28.8058,26.5316],[31.8243,-28.7988,31.8506],[31.8177,-28.7905,29.4344],[31.8192,-28.7818,26.3941],[31.8233,-28.772,32.4907],[31.8225,-28.7703,34.3014],[31.8176,-28.7671,30.3538],[31.8132,-28.7666,28.1655],[31.8064,-28.7781,44.9569],[31.8007,-28.7802,38.3722],[31.7845,-28.7771,43.1482],[31.7734,-28.7666,39.9037],[31.7674,-28.7722,37.8819],[31.7554,-28.7732,45.549],[31.7539,-28.7691,45.0814],[31.7558,-28.7656,47.6883],[31.7676,-28.7631,49.483],[31.7712,-28.7598,56.353],[31.7613,-28.7571,43.4241],[31.7487,-28.7587,53.6263],[31.7447,-28.7547,46.9147],[31.7457,-28.7484,46.806399999999996],[31.7546,-28.7467,55.7701],[31.7592,-28.7424,46.8835],[31.7601,-28.7374,53.5229],[31.7579,-28.735,50.7559],[31.7426,-28.7299,51.9266],[31.7342,-28.7387,53.2138],[31.7276,-28.7397,63.0688],[31.7262,-28.7354,54.5332],[31.7278,-28.7233,61.9509],[31.7238,-28.7172,55.858],[31.7167,-28.7116,57.5879],[31.708,-28.715699999999998,71.0704],[31.7029,-28.7219,67.8545],[31.6967,-28.7221,60.5738],[31.6959,-28.7184,64.7313],[31.6984,-28.7075,63.7511],[31.6961,-28.6992,64.0065],[31.6871,-28.7016,64.7959],[31.6763,-28.7083,65.9177],[31.6758,-28.7168,67.5281],[31.674,-28.721,73.3885],[31.6699,-28.7237,71.7053],[31.6654,-28.7235,104.6135],[31.6563,-28.7176,73.8414],[31.6531,-28.7065,71.3953],[31.6445,-28.697,169.1494],[31.5902,-28.7017,253.5183],[31.5209,-28.7134,289.3433],[31.4655,-28.7404,251.6843],[31.4604,-28.777,209.5],[31.4563,-28.7688,209.5],[31.4502,-28.7622,209.5],[31.4425,-28.758,209.5],[31.4357,-28.7598,209.5],[31.4388,-28.7737,209.5],[31.437,-28.7758,209.5],[31.4316,-28.7743,209.5],[31.4187,-28.7656,209.5],[31.4149,-28.7648,209.5],[31.4128,-28.766,209.5],[31.4136,-28.7726,209.5],[31.4117,-28.7758,209.5],[31.4027,-28.775,211.2955],[31.3999,-28.7772,210.8359],[31.3958,-28.7732,210.1821],[31.3855,-28.7713,222.8439],[31.3795,-28.7684,212.4226],[31.3714,-28.7748,243.9263],[31.3628,-28.7688,225.8086],[31.3559,-28.7764,250.0858],[31.3503,-28.7781,245.9351],[31.3465,-28.7773,238.3542],[31.3462,-28.7746,234.3588],[31.3431,-28.7722,240.1615],[31.3375,-28.7705,262.5621],[31.3355,-28.773,250.0492],[31.3382,-28.7789,253.2828],[31.3351,-28.7808,256.22],[31.33,-28.7804,284.9852],[31.3293,-28.7901,273.2214],[31.3238,-28.7902,281.8918],[31.3244,-28.7949,300.7023],[31.319,-28.8009,295.6031],[31.3193,-28.8042,307.0229],[31.3247,-28.8069,330.2721],[31.3224,-28.8089,329.8985],[31.3194,-28.8069,312.6742],[31.3116,-28.8087,336.4124],[31.3104,-28.8114,334.6514],[31.3133,-28.8131,330.529],[31.31,-28.8153,338.3286],[31.3068,-28.8117,345.8793],[31.3004,-28.8099,366.8708],[31.2997,-28.8057,378.3748],[31.2875,-28.8091,385.6917],[31.2874,-28.8111,399.5572],[31.2849,-28.8127,394.2826],[31.2834,-28.8109,392.5125],[31.2851,-28.8089,402.6819],[31.2802,-28.81,405.4752],[31.2808,-28.807,412.2716],[31.2794,-28.8052,407.7991],[31.2769,-28.8058,404.4477],[31.2731,-28.8028,425.5005],[31.2676,-28.808,442.0934],[31.2656,-28.8045,456.5724],[31.2617,-28.804,441.6318],[31.2616,-28.8025,444.326],[31.2517,-28.8092,491.8634],[31.2505,-28.815,463.4159],[31.2381,-28.8139,472.196],[31.2397,-28.8133,468.7324],[31.2372,-28.8093,575.369],[31.2386,-28.8094,587.1354],[31.226,-28.7988,678.9765],[31.2206,-28.7893,719.0817],[31.2165,-28.7878,714.8127],[31.2248,-28.7811,700.3779],[31.2227,-28.7764,749.4145],[31.2233,-28.7727,776.6817],[31.2204,-28.7716,826.5802],[31.2092,-28.774,834.9258],[31.2086,-28.7668,795.9672],[31.2105,-28.7583,774.4967],[31.2055,-28.7574,783.1751],[31.2016,-28.761,786.459],[31.1947,-28.7616,814.1433],[31.1896,-28.7602,832.949],[31.1843,-28.7622,844.2339],[31.1845,-28.7713,900.2211],[31.1802,-28.7762,982.5537],[31.1791,-28.7801,1035.5171],[31.1768,-28.7802,1048.7596],[31.1815,-28.7863,916.3615],[31.1771,-28.7961,782.2293],[31.1801,-28.8032,733.8056],[31.1844,-28.8063,708.3302],[31.1701,-28.8174,741.6656],[31.1645,-28.8309,593.6827],[31.1489,-28.8368,481.2627],[31.1385,-28.8367,483.2454],[31.1339,-28.8348,474.8636],[31.1296,-28.8301,454.6547],[31.1227,-28.8279,467.4005],[31.1156,-28.8339,435.3494],[31.112,-28.8436,415.8135],[31.1078,-28.8472,423.1219],[31.1013,-28.8476,440.6798],[31.0969,-28.8454,437.7453],[31.0943,-28.8467,428.8235],[31.0882,-28.8554,429.5779],[31.0874,-28.86,423.5096],[31.0848,-28.862,415.9841],[31.0853,-28.8673,407.5266],[31.078,-28.8758,391.3388],[31.0648,-28.8809,393.9521],[31.0601,-28.8888,371.3562],[31.0516,-28.8914,321.9522],[31.0485,-28.8905,291.9899],[31.0409,-28.8952,276.6405],[31.039,-28.8944,263.4582],[31.033,-28.8978,224.0905],[31.0298,-28.9015,196.022],[31.035,-28.9076,196.2944],[31.0366,-28.9133,188.2298],[31.0319,-28.934,175.556],[31.0492,-28.9491,168.375],[31.0636,-28.9497,166.375],[31.0718,-28.9572,168.4411],[31.0762,-28.9645,164.0079],[31.0743,-28.9789,163.1435],[31.075,-28.9881,171.0849],[31.083,-28.9933,166.9186],[31.0932,-28.9943,157.199],[31.0982,-28.99,176.5939],[31.099,-28.9839,155.0],[31.0972,-28.9797,155.0],[31.0937,-28.977,154.758],[31.0888,-28.9759,156.8878],[31.0849,-28.9713,152.1146],[31.0799,-28.9607,146.375],[31.0819,-28.9576,149.2919],[31.0914,-28.9552,143.5],[31.1055,-28.9599,141.9205],[31.1188,-28.9587,138.2322],[31.1259,-28.9597,133.0562],[31.129,-28.9704,127.5],[31.1271,-28.9768,125.5],[31.1201,-28.9877,123.6784],[31.1174,-29.0004,117.75],[31.1189,-29.004,117.2876],[31.1229,-29.0071,134.1623],[31.1341,-29.0319,105.0],[31.1429,-29.0369,108.1857],[31.1483,-29.0434,103.4612],[31.154,-29.0468,107.574],[31.1616,-29.0478,101.503],[31.168,-29.0457,96.0],[31.1743,-29.0458,97.4268],[31.181,-29.0503,93.0],[31.1813,-29.0592,92.3698],[31.177,-29.0632,91.0138],[31.1751,-29.0696,90.6361],[31.1757,-29.0737,88.7881],[31.1914,-29.0829,90.6668],[31.198,-29.0843,88.2701],[31.2073,-29.0891,79.0],[31.2098,-29.1011,77.6478],[31.2134,-29.1053,74.125],[31.2184,-29.1078,74.4794],[31.234,-29.1098,72.9659],[31.2383,-29.1155,73.0506],[31.2448,-29.1196,67.0323],[31.2498,-29.1259,68.0762],[31.2472,-29.132,63.3057],[31.2472,-29.1433,65.1844],[31.2489,-29.147,68.7989],[31.2574,-29.1468,62.5888],[31.2686,-29.1407,60.076],[31.2737,-29.1243,58.7055],[31.2794,-29.1171,62.8039],[31.2873,-29.1138,53.7923],[31.2913,-29.1161,64.1691],[31.2984,-29.1419,59.5795],[31.2939,-29.1506,46.8298],[31.2849,-29.1582,59.8103],[31.2853,-29.1645,45.5273],[31.2948,-29.1656,42.699],[31.3008,-29.1727,43.4887],[31.3074,-29.1745,44.0487],[31.3081,-29.1691,60.5096],[31.3046,-29.1577,75.3699],[31.3102,-29.153,50.9332],[31.3178,-29.1503,39.5]]]]}
,"properties": {"GID_3": "ZAF.4.10.6_1","GID_0": "ZAF","country": "SouthAfrica","GID_1": "ZAF.4_1","province": "KwaZulu-Natal","NL_NAME_1": "NA","GID_2": "ZAF.4.10_1","county": "Uthungulu","NL_NAME_2": "NA","city": "uMlalazi","VARNAME_3": "NA","NL_NAME_3": "NA","TYPE_3": "LocalMunicipality","ENGTYPE_3": "LocalMunicipality","CC_3": "KZN284","HASC_3": "NA","name": "u_Mlalazi.city","area_km2": 2215.872,"hist_schema_id": "Elevation0-9000","hist_area_km2": {"0": 20.794,"25": 66.51,"50": 130.452,"75": 134.594,"100": 108.192,"125": 108.258,"150": 101.179,"175": 92.013,"200": 95.938,"225": 88.903,"250": 89.05,"275": 88.347,"300": 82.705,"325": 75.949,"350": 72.127,"375": 70.754,"400": 66.281,"425": 63.884,"450": 59.572,"475": 61.944,"500": 69.854,"525": 79.733,"550": 66.982,"575": 53.47,"600": 49.277,"625": 44.437,"650": 40.244,"675": 32.451,"700": 24.153,"725": 17.675,"750": 14.91,"775": 10.807,"800": 12.368,"825": 12.554,"850": 5.609,"875": 2.508,"900": 0.687,"925": 0.316,"950": 0.204,"975": 0.093,"1000": 0.037,"1025": 0.056}}}