{"type": "Feature","bbox": [32.0329,-28.153199999999998,32.679,-27.5457],"geometry": {"type": "MultiPolygon","coordinates": [[[[32.5145,-28.1153,13.1739],[32.5228,-28.1194,15.3029],[32.5588,-28.1247,-0.6952],[32.5582,-28.1032,18.9674],[32.5599,-28.0854,2.8366],[32.5946,-27.9346,0.0],[32.5946,-27.9257,0.0],[32.5926,-27.9232,15.7819],[32.5896,-27.8935,0.829],[32.6054,-27.7974,7.9149],[32.6107,-27.774,9.8074],[32.6293,-27.7096,0.0],[32.6399,-27.6876,-0.5057],[32.6437,-27.6704,7.838],[32.6474,-27.6635,0.0],[32.6474,-27.6557,0.0],[32.6526,-27.6401,4.0708],[32.6613,-27.5912,42.3969],[32.679,-27.5457,18.3938],[32.6537,-27.5474,36.3016],[32.4067,-27.5863,18.0],[32.4106,-27.5911,24.1185],[32.4109,-27.5942,18.0],[32.4086,-27.5993,18.0],[32.4086,-27.6041,18.0],[32.4045,-27.6104,18.0],[32.4053,-27.6168,18.0],[32.4013,-27.626,18.9564],[32.4031,-27.6317,18.0],[32.4012,-27.6361,18.0],[32.4021,-27.6475,19.1916],[32.4076,-27.653199999999998,19.0634],[32.4058,-27.6563,19.8511],[32.4102,-27.6622,20.2094],[32.4136,-27.6608,23.6319],[32.4191,-27.6639,28.1802],[32.4172,-27.6702,23.258],[32.4264,-27.6885,22.135],[32.4302,-27.6889,21.4514],[32.4369,-27.6869,23.0452],[32.4356,-27.693,31.3102],[32.4058,-27.7026,25.9733],[32.3941,-27.7113,29.0609],[32.3976,-27.6825,29.8949],[32.3885,-27.6837,27.6869],[32.3841,-27.6794,30.7675],[32.3679,-27.6931,75.8645],[32.3637,-27.6988,68.7612],[32.3528,-27.6911,25.4138],[32.3523,-27.6991,30.0525],[32.3465,-27.7013,30.2452],[32.347,-27.7068,30.3788],[32.3451,-27.7073,28.7609],[32.3427,-27.7051,31.3761],[32.3379,-27.707,32.2765],[32.3492,-27.7202,48.0262],[32.3436,-27.7277,39.5444],[32.3331,-27.7488,45.4275],[32.3373,-27.7536,50.1962],[32.2773,-27.7976,173.3962],[32.2598,-27.8074,193.6227],[32.2464,-27.7971,108.1415],[32.2434,-27.7986,92.254],[32.2413,-27.7931,89.1889],[32.2347,-27.7871,89.336],[32.2216,-27.7822,94.2751],[32.2114,-27.7802,97.5587],[32.2062,-27.7857,94.8084],[32.2008,-27.7826,122.6758],[32.1857,-27.786,100.0958],[32.1856,-27.7887,100.0802],[32.1893,-27.7932,100.9492],[32.1867,-27.7945,103.4649],[32.1888,-27.7995,103.0254],[32.1871,-27.8012,106.5704],[32.1878,-27.805,106.1721],[32.1866,-27.8058,106.1721],[32.1908,-27.8073,110.2224],[32.1908,-27.8145,113.3956],[32.1857,-27.8164,112.6953],[32.1849,-27.8235,117.3688],[32.1784,-27.8253,118.1581],[32.1799,-27.8283,120.0765],[32.1771,-27.8321,119.9672],[32.1716,-27.8319,123.8377],[32.1752,-27.8354,124.1806],[32.1732,-27.8361,127.7151],[32.1735,-27.8392,126.5221],[32.1716,-27.8421,132.2615],[32.1718,-27.8501,133.2694],[32.1694,-27.8504,131.921],[32.1688,-27.8524,132.1909],[32.1659,-27.8489,133.928],[32.1559,-27.8505,137.4822],[32.1512,-27.8485,144.6377],[32.1508,-27.8528,143.3178],[32.1609,-27.8551,143.0279],[32.1573,-27.8563,145.8975],[32.157,-27.8578,145.8975],[32.1515,-27.8586,148.9592],[32.1495,-27.8575,153.6421],[32.1473,-27.8594,151.2902],[32.1391,-27.8557,156.6027],[32.139,-27.8673,173.2004],[32.134,-27.8675,163.3008],[32.1284,-27.8632,168.5751],[32.1273,-27.8651,166.5825],[32.1246,-27.8643,170.8032],[32.1236,-27.8658,167.859],[32.1211,-27.8633,170.9177],[32.1206,-27.8663,170.4748],[32.1168,-27.8647,172.4165],[32.1151,-27.8655,172.9931],[32.1173,-27.8698,176.34],[32.1127,-27.8704,176.647],[32.1087,-27.8687,182.3757],[32.1008,-27.8739,187.6442],[32.0967,-27.871,186.9084],[32.0984,-27.8685,190.9236],[32.0969,-27.8651,192.2832],[32.0912,-27.866,195.0705],[32.0857,-27.8646,196.1349],[32.0826,-27.8702,200.4613],[32.0704,-27.8707,207.2199],[32.0702,-27.8722,206.1553],[32.0745,-27.8735,208.0377],[32.0679,-27.8781,223.3367],[32.0692,-27.8805,214.6781],[32.0743,-27.8803,217.9806],[32.0752,-27.8855,230.881],[32.0739,-27.8885,221.6613],[32.0659,-27.896,225.8267],[32.0618,-27.8967,227.4],[32.0329,-27.9299,313.4916],[32.0536,-27.955,633.4731],[32.0632,-27.9526,377.7423],[32.0661,-27.9502,362.1898],[32.0738,-27.951,338.4619],[32.0793,-27.949,306.8808],[32.083,-27.9423,285.2452],[32.0872,-27.9394,291.1681],[32.0909,-27.9402,270.6269],[32.0943,-27.938,273.7764],[32.0957,-27.9355,267.6184],[32.0949,-27.9295,238.7524],[32.1014,-27.9233,225.9282],[32.101,-27.9185,229.12],[32.1032,-27.9176,214.5252],[32.1021,-27.9159,218.7715],[32.104,-27.9148,219.2888],[32.1092,-27.9152,213.8912],[32.1263,-27.9243,180.616],[32.138,-27.9257,171.1767],[32.1462,-27.9306,161.2642],[32.1502,-27.931,156.2083],[32.1576,-27.9258,145.9633],[32.1646,-27.9266,141.4144],[32.1682,-27.9182,134.7538],[32.1738,-27.9168,131.4247],[32.1744,-27.9196,127.215],[32.1761,-27.9191,142.7092],[32.1777,-27.9215,127.4677],[32.1759,-27.9239,124.2179],[32.1771,-27.9316,122.4993],[32.1816,-27.9325,115.1089],[32.1885,-27.939,110.122],[32.1918,-27.9388,109.1777],[32.1912,-27.9432,105.8447],[32.1931,-27.9458,104.937],[32.1893,-27.9502,263.0886],[32.208,-28.0145,92.9396],[32.1914,-28.1213,98.733],[32.189,-28.1265,69.6405],[32.1805,-28.1328,59.4027],[32.1816,-28.1375,65.3083],[32.1862,-28.1425,54.1606],[32.19,-28.1431,83.3389],[32.1936,-28.1341,45.695],[32.2,-28.1253,50.0649],[32.204,-28.1239,60.9645],[32.2098,-28.1258,71.5017],[32.2185,-28.1406,33.854],[32.226,-28.1344,30.1386],[32.2379,-28.1285,27.9074],[32.2508,-28.1342,23.1854],[32.2636,-28.1305,21.5142],[32.2671,-28.134,23.4232],[32.266,-28.1433,27.4197],[32.2678,-28.146,22.5814],[32.294,-28.153199999999998,17.3535],[32.3052,-28.15,15.2387],[32.3045,-28.1292,12.3068],[32.3064,-28.1221,11.6991],[32.3088,-28.1218,11.2439],[32.3089,-28.1276,11.918],[32.311,-28.1293,10.5517],[32.3214,-28.1253,9.559],[32.3243,-28.1215,11.1926],[32.3223,-28.1138,9.2514],[32.3282,-28.1091,7.6714],[32.3322,-28.1035,6.5019],[32.3393,-28.1,5.4205],[32.3365,-28.093,5.6276],[32.3369,-28.0897,4.8456],[32.3336,-28.0877,5.6441],[32.3302,-28.0882,4.7219],[32.3294,-28.0865,6.2467],[32.3362,-28.0832,4.3614],[32.3377,-28.0803,3.9012],[32.3442,-28.0617,2.4193],[32.3436,-28.0597,2.995],[32.3409,-28.0589,3.256],[32.3398,-28.052,3.5471],[32.3439,-28.044,2.1854],[32.3489,-28.0399,2.2595],[32.3596,-28.0396,0.7286],[32.3695,-28.0434,-2.0],[32.3676,-28.0446,-2.0],[32.3649,-28.0426,0.2475],[32.3615,-28.0431,-0.5175],[32.3577,-28.0502,-1.7822],[32.3492,-28.0476,0.57],[32.3451,-28.0506,0.8067],[32.3466,-28.0544,1.7053],[32.3477,-28.0512,-0.0472],[32.3502,-28.0508,0.1564],[32.3521,-28.055,2.6003],[32.3587,-28.0591,-0.7485],[32.3687,-28.0688,-0.1336],[32.3803,-28.0703,-0.2801],[32.3746,-28.0799,2.064],[32.3712,-28.0897,-0.0488],[32.372,-28.093,0.0884],[32.3745,-28.094,-0.1289],[32.3814,-28.0905,-2.0],[32.3809,-28.0993,-0.0946],[32.391,-28.0917,34.0759],[32.4144,-28.0844,40.185],[32.4435,-28.1096,-0.0096],[32.4594,-28.0958,-0.1866],[32.4732,-28.0978,-0.3507],[32.4791,-28.1113,2.9801],[32.4898,-28.1157,11.358],[32.5005,-28.1188,16.52],[32.5145,-28.1153,13.1739]]]]}
,"properties": {"GID_3": "ZAF.4.7.4_1","GID_0": "ZAF","country": "SouthAfrica","GID_1": "ZAF.4_1","province": "KwaZulu-Natal","NL_NAME_1": "NA","GID_2": "ZAF.4.7_1","county": "Umkhanyakude","NL_NAME_2": "NA","city": "TheBig5FalseBay","VARNAME_3": "NA","NL_NAME_3": "NA","TYPE_3": "LocalMunicipality","ENGTYPE_3": "LocalMunicipality","CC_3": "KZN273","HASC_3": "NA","name": "The_Big5_False_Bay.city","area_km2": 2124.062,"hist_schema_id": "Elevation0-9000","hist_area_km2": {"0": 603.812,"25": 616.118,"50": 343.651,"75": 209.357,"100": 113.135,"125": 71.744,"150": 48.678,"175": 30.057,"200": 18.497,"225": 15.462,"250": 12.856,"275": 10.213,"300": 8.076,"325": 5.939,"350": 4.459,"375": 3.541,"400": 2.922,"425": 2.529,"450": 1.499,"475": 0.956,"500": 0.393,"525": 0.075,"575": 0.075,"600": 0.019}}}