{"type": "Feature","bbox": [30.3964,-30.1447,30.701,-29.5466],"geometry": {"type": "MultiPolygon","coordinates": [[[[30.6358,-30.0776,199.6992],[30.6361,-30.0739,185.9939],[30.6424,-30.0701,172.4058],[30.6437,-30.0735,172.0118],[30.6486,-30.0747,233.8508],[30.6525,-30.0729,186.4877],[30.6585,-30.0746,173.7501],[30.6619,-30.0736,149.455],[30.6628,-30.0747,149.038],[30.6578,-30.0797,143.8532],[30.6622,-30.0854,131.6145],[30.6556,-30.0933,131.7746],[30.6564,-30.0951,139.1204],[30.6705,-30.0936,117.2424],[30.6759,-30.091,144.2899],[30.6754,-30.0871,113.8838],[30.6773,-30.0861,139.8245],[30.6768,-30.0755,447.0472],[30.6726,-30.0726,431.9169],[30.6754,-30.0675,458.98],[30.6721,-30.0656,478.9423],[30.6706,-30.0669,449.3352],[30.666,-30.0639,486.8578],[30.6653,-30.0619,399.4203],[30.667,-30.0584,440.3609],[30.667,-30.0534,475.8988],[30.6713,-30.0529,503.5645],[30.6742,-30.0278,555.9207],[30.6666,-30.0253,572.3808],[30.6626,-30.0144,571.5221],[30.6662,-30.0094,497.0261],[30.6765,-30.0056,482.2922],[30.6833,-30.0005,469.3956],[30.6929,-29.9999,505.1636],[30.7004,-29.9918,504.7858],[30.6988,-29.9881,511.6842],[30.701,-29.9866,537.8414],[30.6884,-29.978,590.4638],[30.6827,-29.9807,584.5045],[30.6787,-29.9805,576.4653],[30.6693,-29.9853,632.6245],[30.6565,-29.9847,648.3992],[30.6537,-29.9791,620.1856],[30.6533,-29.9733,691.2844],[30.6753,-29.9222,699.4736],[30.6662,-29.9247,729.6198],[30.6586,-29.9217,572.6666],[30.6641,-29.911,515.1857],[30.6566,-29.9083,512.1992],[30.6579,-29.8951,694.8989],[30.6501,-29.8932,584.7256],[30.6461,-29.9044,646.3926],[30.6364,-29.9009,719.6054],[30.6214,-29.8851,718.2591],[30.6194,-29.877,586.4435],[30.625,-29.8691,491.4014],[30.6216,-29.8614,442.2114],[30.6218,-29.8551,425.5858],[30.6204,-29.8527,463.4764],[30.6154,-29.8533,445.7013],[30.6135,-29.8469,414.6192],[30.6141,-29.8437,479.8665],[30.6119,-29.8401,429.9371],[30.6088,-29.8396,451.8144],[30.6086,-29.8347,458.0497],[30.6038,-29.8342,453.4639],[30.6018,-29.8369,466.7628],[30.5945,-29.8357,439.3417],[30.5749,-29.8472,649.5503],[30.576,-29.8315,654.511],[30.5857,-29.7842,733.2723],[30.5852,-29.781,671.0208],[30.5865,-29.7807,679.0661],[30.5845,-29.7592,746.9312],[30.582,-29.7595,758.9902],[30.5806,-29.7506,737.9102],[30.5762,-29.7511,760.0165],[30.576,-29.7461,720.5676],[30.5657,-29.746,702.2543],[30.5694,-29.7316,746.0048],[30.56,-29.7283,759.5365],[30.5724,-29.7066,736.1082],[30.5853,-29.6544,603.1693],[30.6222,-29.6684,435.9587],[30.6363,-29.6434,372.8007],[30.6369,-29.6525,368.0946],[30.6346,-29.6609,366.6681],[30.6405,-29.6614,364.5405],[30.6452,-29.6646,389.1833],[30.6469,-29.6643,361.476],[30.6472,-29.6608,361.0074],[30.6522,-29.6598,355.8453],[30.6445,-29.6542,382.2764],[30.6453,-29.6502,353.8595],[30.6505,-29.643,353.2188],[30.6578,-29.6417,347.9703],[30.6654,-29.6473,351.3008],[30.6712,-29.6475,339.7855],[30.6675,-29.6453,347.7034],[30.6683,-29.6399,340.9487],[30.6653,-29.6371,343.0887],[30.6629,-29.6361,346.0368],[30.6608,-29.6385,338.4741],[30.6482,-29.639,326.3213],[30.6443,-29.6317,329.027],[30.6487,-29.6333,334.8437],[30.6548,-29.6317,317.0922],[30.6589,-29.6337,304.9346],[30.6645,-29.6322,301.4439],[30.67,-29.6292,296.7873],[30.6732,-29.6227,302.0419],[30.6761,-29.6204,282.1695],[30.6631,-29.6219,291.8861],[30.6551,-29.6253,315.3066],[30.6517,-29.6217,311.7693],[30.6429,-29.6238,320.4401],[30.6439,-29.6156,331.2529],[30.6389,-29.6095,353.9963],[30.6357,-29.6017,343.0509],[30.6427,-29.6017,492.1619],[30.6463,-29.5973,419.7543],[30.6477,-29.5927,458.8601],[30.6456,-29.585,585.9604],[30.6156,-29.5726,568.0395],[30.6268,-29.564,626.8058],[30.6246,-29.5528,485.7719],[30.6181,-29.55,487.2065],[30.5912,-29.5514,616.3007],[30.5857,-29.5595,465.7801],[30.5824,-29.5598,502.6249],[30.5793,-29.5559,469.7666],[30.5787,-29.5494,485.083],[30.5729,-29.5466,467.8304],[30.5558,-29.5533,477.1289],[30.5486,-29.5597,484.2123],[30.5445,-29.5685,521.2466],[30.5423,-29.5702,514.4109],[30.539,-29.5702,490.6991],[30.5365,-29.5682,487.7927],[30.535,-29.5645,493.6546],[30.5372,-29.5604,500.3288],[30.5358,-29.5574,673.1228],[30.5331,-29.5615,668.806],[30.5278,-29.562,681.3776],[30.5128,-29.5679,730.595],[30.5127,-29.5833,624.8096],[30.5307,-29.5825,724.5379],[30.5439,-29.629,650.9726],[30.492,-29.6256,671.059],[30.4801,-29.6278,554.5552],[30.4762,-29.6303,564.5421],[30.4761,-29.6396,576.7371],[30.481,-29.6402,590.1151],[30.48,-29.6443,606.7609],[30.4832,-29.6465,577.6815],[30.466,-29.6722,647.9038],[30.4954,-29.7055,793.9074],[30.497,-29.7082,808.0639],[30.4954,-29.7139,822.3851],[30.4977,-29.7195,809.607],[30.4919,-29.7229,817.9324],[30.493,-29.7243,812.6708],[30.491,-29.7236,814.5594],[30.4897,-29.7202,825.9574],[30.4873,-29.7198,824.8024],[30.4765,-29.7248,822.2418],[30.4715,-29.7248,831.6591],[30.463,-29.7291,839.6567],[30.4545,-29.7309,846.2854],[30.4441,-29.7306,861.2703],[30.4445,-29.7277,873.2866],[30.4285,-29.7299,918.6841],[30.4277,-29.7287,906.7101],[30.4245,-29.7303,888.2139],[30.4263,-29.7363,916.2217],[30.4172,-29.7343,858.9328],[30.4165,-29.7442,889.012],[30.4112,-29.7476,903.7594],[30.4044,-29.7467,914.4931],[30.3995,-29.7486,915.1302],[30.3965,-29.7584,915.5691],[30.3964,-29.7646,919.8136],[30.3998,-29.7616,897.2951],[30.4265,-29.7926,734.9439],[30.4228,-29.795,727.7767],[30.4307,-29.8046,867.5592],[30.4361,-29.8021,872.6041],[30.437,-29.792,674.5111],[30.4411,-29.7908,672.4132],[30.4413,-29.7935,690.9331],[30.4396,-29.7956,673.9064],[30.447,-29.8035,672.1689],[30.445,-29.8062,680.5889],[30.4471,-29.8076,675.8031],[30.4465,-29.8109,670.0412],[30.4495,-29.8135,665.4476],[30.4491,-29.8167,686.3586],[30.4393,-29.8151,908.7962],[30.4091,-29.8387,914.3697],[30.474,-29.8403,786.1693],[30.4624,-29.8774,922.7115],[30.4529,-29.8885,901.3918],[30.493,-29.8996,797.9103],[30.4916,-29.9203,779.4486],[30.4782,-29.9291,1025.9597],[30.4875,-29.9334,793.6625],[30.4918,-29.9326,767.4866],[30.4918,-29.9404,864.6974],[30.4886,-29.9384,906.8036],[30.5031,-29.9664,753.3517],[30.5066,-29.9628,705.2736],[30.5143,-29.9671,732.0587],[30.5085,-29.9716,769.0475],[30.4818,-29.9617,887.7134],[30.4888,-29.9809,777.3128],[30.4833,-29.9823,744.1476],[30.4833,-29.9882,663.073],[30.4768,-29.9933,610.6891],[30.4715,-29.9944,540.8024],[30.4765,-30.0049,615.0789],[30.4747,-30.0076,587.4472],[30.4783,-30.0128,617.8794],[30.478,-30.0187,671.7092],[30.4666,-30.0198,648.8254],[30.4533,-30.0139,684.394],[30.4415,-30.035,802.277],[30.4445,-30.0463,716.1666],[30.4476,-30.039,916.4404],[30.5091,-30.0349,480.6424],[30.5093,-30.0418,358.1886],[30.5163,-30.0402,347.7629],[30.5254,-30.0511,340.3735],[30.5235,-30.0578,515.8458],[30.5191,-30.0608,611.8744],[30.52,-30.0643,621.3886],[30.5135,-30.0797,354.7101],[30.5138,-30.0871,145.8738],[30.5228,-30.0929,141.8167],[30.5381,-30.094,150.5164],[30.542,-30.0979,145.2946],[30.5448,-30.1057,131.2451],[30.5531,-30.1056,130.5242],[30.5568,-30.1073,128.7257],[30.5619,-30.1205,130.547],[30.5607,-30.1227,155.218],[30.552,-30.1239,120.8512],[30.5522,-30.1181,116.8876],[30.5492,-30.1144,150.0881],[30.5411,-30.1174,115.3617],[30.5356,-30.1157,113.8317],[30.534,-30.1181,154.4619],[30.5344,-30.1217,111.9747],[30.5527,-30.134,101.617],[30.5611,-30.1346,97.6676],[30.569,-30.1382,96.6992],[30.5751,-30.1447,98.5819],[30.5792,-30.1413,144.2985],[30.5798,-30.1332,91.2097],[30.5875,-30.1246,120.3906],[30.5889,-30.1185,82.113],[30.5911,-30.1179,101.9534],[30.595,-30.1199,86.0934],[30.5959,-30.124,79.6051],[30.5988,-30.1228,91.4236],[30.5982,-30.1206,93.7791],[30.6004,-30.12,97.7391],[30.5987,-30.117,104.6151],[30.6016,-30.1113,133.8441],[30.6057,-30.1092,118.9334],[30.6038,-30.106,139.2082],[30.6185,-30.0971,174.7023],[30.6254,-30.0978,217.2187],[30.6374,-30.0876,255.3591],[30.6375,-30.0793,204.0931],[30.6358,-30.0776,199.6992]]]]}
,"properties": {"GID_3": "ZAF.4.6.2_1","GID_0": "ZAF","country": "SouthAfrica","GID_1": "ZAF.4_1","province": "KwaZulu-Natal","NL_NAME_1": "NA","GID_2": "ZAF.4.6_1","county": "Umgungundlovu","NL_NAME_2": "NA","city": "Mkhambathini","VARNAME_3": "NA","NL_NAME_3": "NA","TYPE_3": "LocalMunicipality","ENGTYPE_3": "LocalMunicipality","CC_3": "KZN226","HASC_3": "NA","name": "Mkhambathini.city","area_km2": 891.5735,"hist_schema_id": "Elevation0-9000","hist_area_km2": {"75": 0.2934,"100": 1.3387,"125": 3.1912,"150": 4.8421,"175": 5.0809,"200": 5.7417,"225": 6.2926,"250": 6.8801,"275": 6.3485,"300": 6.7366,"325": 8.0978,"350": 9.9026,"375": 11.8944,"400": 16.6276,"425": 19.5171,"450": 20.4021,"475": 21.3573,"500": 24.8136,"525": 27.8617,"550": 33.4346,"575": 40.8614,"600": 52.6423,"625": 65.1418,"650": 78.8618,"675": 80.4318,"700": 84.6679,"725": 77.745,"750": 60.413,"775": 40.2515,"800": 24.2133,"825": 15.8418,"850": 11.6103,"875": 7.9108,"900": 5.7793,"925": 3.1672,"950": 1.0671,"975": 0.2941,"1000": 0.0184}}}