{"type":"Feature","properties":{"GID_3":"ZAF.1.4.8_1","GID_0":"ZAF","country":"SouthAfrica","GID_1":"ZAF.1_1","province":"EasternCape","NL_NAME_1":"NA","GID_2":"ZAF.1.4_1","county":"Cacadu","NL_NAME_2":"NA","city":"Ndlambe","VARNAME_3":"NA","NL_NAME_3":"NA","TYPE_3":"LocalMunicipality","ENGTYPE_3":"LocalMunicipality","CC_3":"EC105","HASC_3":"NA","name":"Ndlambe.city"},
"geometry":{"type": "MultiPolygon","coordinates": [[[[27.1344,-33.4935,0.0],[27.1343,-33.4934,0.0],[27.1343,-33.4935,0.0],[27.1344,-33.4935,0.0]]],
[[[27.1222,-33.4874,6.7603],[27.1221,-33.4873,6.7603],[27.1221,-33.4874,6.7603],[27.1222,-33.4874,6.7603]]],
[[[27.1215,-33.4871,0.2561],[27.1216,-33.4871,0.2561],[27.1215,-33.487,0.2561],[27.1215,-33.4871,0.2561]]],
[[[27.121,-33.4868,0.2561],[27.1207,-33.4866,0.2561],[27.1207,-33.4868,0.2561],[27.121,-33.4868,0.2561]]],
[[[26.7468,-33.651,10.6797],[26.7624,-33.6485,0.0],[26.7649,-33.646,8.457],[26.7813,-33.644,1.6722],[26.7932,-33.6407,3.753],[26.7932,-33.6396,3.753],[26.804,-33.639,0.0],[26.809,-33.6351,5.0605],[26.8113,-33.6365,0.0],[26.8218,-33.6326,1.9768],[26.8485,-33.6296,0.0],[26.854,-33.6304,0.0],[26.8671,-33.6279,0.0],[26.8699,-33.6249,0.0],[26.8743,-33.6249,0.0],[26.8787,-33.6221,0.0],[26.8821,-33.6168,0.0],[26.8918,-33.6146,0.0],[26.8932,-33.609,1.4836],[26.9035,-33.6046,0.0],[26.9037,-33.5996,0.0],[26.9163,-33.5946,0.741],[26.9199,-33.5946,0.0],[26.9271,-33.5857,4.9164],[26.9326,-33.5843,0.7683],[26.9357,-33.5815,0.2112],[26.9418,-33.581,0.0],[26.9449,-33.579,3.8621],[26.9468,-33.5799,0.0],[26.9518,-33.5765,1.6583],[26.9557,-33.5771,0.0],[26.9579,-33.5751,0.0],[26.9726,-33.5715,1.6273],[26.9918,-33.5701,1.172],[27.0065,-33.5713,0.0],[27.0132,-33.5632,0.0],[27.0413,-33.5537,1.9303],[27.0429,-33.546,20.656],[27.0513,-33.5387,2.277],[27.0696,-33.5324,1.5459],[27.0876,-33.5293,0.0],[27.0915,-33.5268,1.417],[27.1124,-33.524,3.0686],[27.1254,-33.5076,0.5603],[27.1332,-33.5026,0.0],[27.1324,-33.4999,0.0],[27.1343,-33.4954,1.9639],[27.1288,-33.4935,1.0988],[27.126,-33.4896,0.4661],[27.0993,-33.4767,1.1787],[27.0904,-33.4749,1.057],[27.0766,-33.4686,7.6473],[27.0695,-33.4574,2.1118],[27.0692,-33.4444,70.3089],[27.0558,-33.4373,8.1745],[27.0543,-33.4317,25.1628],[27.05,-33.4272,24.6612],[27.0496,-33.422,5.8661],[27.0458,-33.4184,11.3966],[27.0437,-33.4121,9.8407],[27.0385,-33.4083,7.8293],[27.0353,-33.4026,7.3141],[27.026,-33.4009,9.5383],[27.0207,-33.3955,11.8031],[27.0163,-33.3792,7.5427],[27.0092,-33.3735,8.6729],[27.0061,-33.3684,9.943],[26.9853,-33.3562,9.6112],[26.9824,-33.3504,17.1382],[26.9835,-33.343,8.4066],[26.9883,-33.3383,15.4511],[26.9925,-33.3372,43.6821],[26.9986,-33.3306,17.8802],[27.0029,-33.318,19.5717],[26.9985,-33.3155,52.4259],[27.0038,-33.302,14.8615],[27.0005,-33.2862,9.0],[26.9973,-33.2805,16.1351],[26.9864,-33.2701,17.443],[26.98,-33.268,42.0559],[26.9298,-33.2642,305.3304],[26.9259,-33.2675,368.9491],[26.9439,-33.2727,364.5571],[26.9333,-33.2835,386.0952],[26.9093,-33.2943,422.8448],[26.8902,-33.2838,507.9452],[26.8829,-33.3056,317.9441],[26.8847,-33.3069,298.7865],[26.8837,-33.3081,302.6685],[26.8673,-33.304,324.7527],[26.863,-33.3075,318.1827],[26.8403,-33.2975,388.9886],[26.8339,-33.2924,419.4684],[26.8018,-33.2846,433.797],[26.7908,-33.3133,659.5887],[26.7662,-33.3037,634.4448],[26.7566,-33.3262,607.327],[26.7972,-33.3463,464.2013],[26.7918,-33.354,512.1057],[26.7752,-33.3513,501.2181],[26.7349,-33.3383,454.6844],[26.7197,-33.3524,301.446],[26.7224,-33.3577,280.3261],[26.7197,-33.3587,297.8198],[26.716,-33.3652,315.5727],[26.7171,-33.3665,318.725],[26.7209,-33.3649,273.6064],[26.7257,-33.3654,264.3862],[26.7207,-33.3693,281.3547],[26.7199,-33.378,238.6523],[26.7253,-33.3782,236.4574],[26.7239,-33.3714,230.026],[26.7294,-33.3743,263.4791],[26.7304,-33.3767,230.34],[26.7232,-33.3837,210.6555],[26.7274,-33.385,214.0602],[26.7277,-33.3863,264.32],[26.7198,-33.3868,203.7463],[26.7131,-33.3914,215.4077],[26.7072,-33.391,191.7708],[26.7062,-33.3887,196.2292],[26.7008,-33.3882,196.3143],[26.6976,-33.3942,181.384],[26.6939,-33.3959,179.8532],[26.6902,-33.3936,186.0378],[26.6863,-33.3879,205.8734],[26.6797,-33.3862,200.9287],[26.6787,-33.3885,171.668],[26.6819,-33.393,174.6651],[26.6822,-33.3973,167.3473],[26.6728,-33.3957,174.9047],[26.6749,-33.4011,167.4529],[26.6733,-33.4076,159.0193],[26.6635,-33.4029,214.4214],[26.6607,-33.4071,161.2973],[26.6177,-33.425,324.4018],[26.6405,-33.4596,284.5923],[26.6543,-33.4684,284.5799],[26.632,-33.4908,197.2654],[26.6273,-33.4905,217.6105],[26.6269,-33.4852,209.2144],[26.5939,-33.4914,175.9824],[26.5697,-33.5289,185.1089],[26.5473,-33.5516,260.1202],[26.5358,-33.5727,225.6744],[26.5046,-33.5715,16.3921],[26.503,-33.5683,24.9705],[26.507,-33.562,35.0628],[26.5108,-33.5603,44.2134],[26.5176,-33.5631,95.3937],[26.5221,-33.5631,60.0431],[26.5246,-33.5595,37.4344],[26.5227,-33.5531,120.3],[26.5167,-33.5501,210.7768],[26.5082,-33.5531,74.2939],[26.513,-33.5467,84.4511],[26.5133,-33.5441,73.0676],[26.4988,-33.5423,56.8429],[26.4976,-33.5435,53.4758],[26.4995,-33.5473,144.2077],[26.4987,-33.5491,144.2936],[26.4879,-33.5492,50.1236],[26.4825,-33.5471,52.8038],[26.4804,-33.5403,65.7337],[26.4787,-33.5393,72.9753],[26.4759,-33.54,62.6973],[26.478,-33.5437,56.687],[26.475,-33.5458,61.637],[26.4618,-33.5453,62.9937],[26.4611,-33.5436,79.8392],[26.4653,-33.5386,85.1028],[26.4653,-33.5356,72.8938],[26.4564,-33.53,75.5354],[26.4444,-33.5346,102.6504],[26.4376,-33.5328,89.2063],[26.4155,-33.5408,209.6505],[26.4146,-33.5575,260.9781],[26.3812,-33.5583,251.1337],[26.3756,-33.6022,181.7307],[26.3497,-33.605,211.5762],[26.3486,-33.6039,203.4428],[26.344,-33.6103,271.7392],[26.3521,-33.611,267.7581],[26.3319,-33.6332,203.7669],[26.3355,-33.6336,201.2252],[26.3394,-33.6365,216.2086],[26.3395,-33.6387,215.4706],[26.345,-33.6439,228.4306],[26.3597,-33.6433,236.5482],[26.3459,-33.6848,195.7411],[26.3501,-33.6839,184.0123],[26.3478,-33.6898,207.6582],[26.3883,-33.7071,162.7143],[26.4402,-33.6991,138.2224],[26.4615,-33.7052,126.2799],[26.4593,-33.7155,138.8338],[26.464,-33.7315,124.7012],[26.4635,-33.7439,154.1517],[26.4656,-33.7443,141.6501],[26.4649,-33.7542,144.8835],[26.463,-33.7543,135.0945],[26.4629,-33.7566,97.1079],[26.5281,-33.7503,30.8549],[26.5299,-33.7541,0.0],[26.5318,-33.754,0.0],[26.5462,-33.7513,0.0],[26.5471,-33.7493,7.3287],[26.5585,-33.7468,0.0],[26.5646,-33.7424,2.5447],[26.5737,-33.7388,0.0],[26.579,-33.7326,0.0],[26.586,-33.731,0.0],[26.5954,-33.7246,0.0],[26.6079,-33.7224,0.0],[26.6099,-33.7199,0.0],[26.6249,-33.719,0.0],[26.6293,-33.7163,0.0],[26.6321,-33.7101,0.0],[26.6396,-33.7088,0.0],[26.644,-33.7024,1.0284],[26.6476,-33.7001,0.2785],[26.6554,-33.6971,0.0],[26.6679,-33.6963,0.0],[26.6712,-33.6932,2.0773],[26.6746,-33.6926,1.6848],[26.681,-33.6846,0.0],[26.6949,-33.6807,1.8176],[26.7065,-33.6701,-0.1682],[26.7262,-33.6637,1.5116],[26.7346,-33.656,4.9815],[26.7468,-33.651,10.6797]]],
[[[27.1201,-33.4863,0.2561],[27.1201,-33.4865,0.2561],[27.1205,-33.4865,0.2561],[27.1202,-33.4864,0.2561],[27.1201,-33.4863,0.2561]]],
[[[27.1198,-33.4861,3.7095],[27.1196,-33.4863,0.9327],[27.12,-33.4863,0.9327],[27.1198,-33.4861,3.7095]]],
[[[27.1193,-33.486,3.7095],[27.1194,-33.486,3.7095],[27.1193,-33.4859,3.7095],[27.1193,-33.486,3.7095]]],
[[[27.1188,-33.4857,3.7095],[27.1189,-33.4857,3.7095],[27.1187,-33.4856,3.7095],[27.1188,-33.4857,3.7095]]],
[[[27.1182,-33.4854,3.7095],[27.1184,-33.4854,3.7095],[27.1182,-33.4853,3.7095],[27.1182,-33.4854,3.7095]]]]}}