{"type":"Feature","properties":{"GID_3":"ZAF.4.6.4_1","GID_0":"ZAF","country":"SouthAfrica","GID_1":"ZAF.4_1","province":"KwaZulu-Natal","NL_NAME_1":"NA","GID_2":"ZAF.4.6_1","county":"Umgungundlovu","NL_NAME_2":"NA","city":"Richmond","VARNAME_3":"NA","NL_NAME_3":"NA","TYPE_3":"LocalMunicipality","ENGTYPE_3":"LocalMunicipality","CC_3":"KZN227","HASC_3":"NA","name":"Richmond.city"},
"geometry":{"type": "MultiPolygon","coordinates": [[[[30.4452,-30.0842,190.1001],[30.4561,-30.0895,207.4853],[30.4576,-30.0993,182.6196],[30.4606,-30.1014,185.5043],[30.4682,-30.1002,178.5523],[30.4784,-30.1058,173.8956],[30.4821,-30.1016,178.5844],[30.4824,-30.0987,214.0789],[30.4765,-30.0944,167.7982],[30.4759,-30.0899,186.043],[30.4783,-30.0875,170.672],[30.483,-30.088,167.1478],[30.4963,-30.0979,159.8397],[30.4916,-30.1023,158.2198],[30.4915,-30.1073,157.1198],[30.4993,-30.1125,158.5855],[30.5059,-30.1134,155.4865],[30.5079,-30.1111,167.3289],[30.5082,-30.1034,151.484],[30.5056,-30.1002,157.5009],[30.5055,-30.0976,159.0837],[30.5111,-30.0884,145.7008],[30.5138,-30.0871,145.8738],[30.5135,-30.0797,354.7101],[30.52,-30.0643,621.3886],[30.5191,-30.0608,611.8744],[30.5235,-30.0578,515.8458],[30.5254,-30.0511,340.3735],[30.5163,-30.0402,347.7629],[30.5093,-30.0418,358.1886],[30.5091,-30.0349,480.6424],[30.4476,-30.039,916.4404],[30.4445,-30.0463,716.1666],[30.4415,-30.035,802.277],[30.4533,-30.0139,684.394],[30.4666,-30.0198,648.8254],[30.478,-30.0187,671.7092],[30.4783,-30.0128,617.8794],[30.4747,-30.0076,587.4472],[30.4765,-30.0049,615.0789],[30.4715,-29.9944,540.8024],[30.4768,-29.9933,610.6891],[30.4833,-29.9882,663.073],[30.4833,-29.9823,744.1476],[30.4888,-29.9809,777.3128],[30.4818,-29.9617,887.7134],[30.5085,-29.9716,769.0475],[30.5143,-29.9671,732.0587],[30.5066,-29.9628,705.2736],[30.5031,-29.9664,753.3517],[30.4886,-29.9384,906.8036],[30.4918,-29.9404,864.6974],[30.4918,-29.9326,767.4866],[30.4875,-29.9334,793.6625],[30.4782,-29.9291,1025.9597],[30.4916,-29.9203,779.4486],[30.493,-29.8996,797.9103],[30.4529,-29.8885,901.3918],[30.4624,-29.8774,922.7115],[30.474,-29.8403,786.1693],[30.4091,-29.8387,914.3697],[30.4393,-29.8151,908.7962],[30.4491,-29.8167,686.3586],[30.4494,-29.8132,664.8219],[30.4465,-29.8109,670.0412],[30.4471,-29.8076,675.8031],[30.445,-29.8062,680.5889],[30.447,-29.8035,672.1689],[30.4396,-29.7956,673.9064],[30.4413,-29.7935,690.9331],[30.4411,-29.7908,672.4132],[30.437,-29.792,674.5111],[30.4361,-29.8021,872.6041],[30.4307,-29.8046,867.5592],[30.4228,-29.795,727.7767],[30.4265,-29.7926,734.9439],[30.3998,-29.7616,897.2951],[30.3964,-29.7646,919.8136],[30.3965,-29.7584,915.5691],[30.3995,-29.7486,915.1302],[30.3983,-29.7436,924.1103],[30.391,-29.7366,906.2067],[30.3848,-29.7345,916.4236],[30.3857,-29.7323,910.8446],[30.3823,-29.7311,897.868],[30.3845,-29.729,883.9297],[30.3724,-29.7268,1010.8103],[30.3593,-29.7278,1003.4773],[30.3391,-29.7244,1025.0593],[30.2852,-29.7227,1271.8578],[30.241,-29.7315,1136.4615],[30.2253,-29.7284,1358.8342],[30.2007,-29.7273,1502.8628],[30.1875,-29.724,1464.408],[30.1534,-29.7214,1532.2223],[30.1137,-29.752,1509.7759],[30.0924,-29.7473,1444.4373],[30.0884,-29.7601,1405.074],[30.0706,-29.7655,1440.8241],[30.0785,-29.7801,1359.7458],[30.0609,-29.8038,1294.4058],[30.0534,-29.8048,1409.5283],[30.0466,-29.8193,1410.6161],[30.0454,-29.83,1370.219],[30.049,-29.8351,1249.1146],[30.0394,-29.8459,792.1753],[30.0362,-29.8474,704.179],[30.038,-29.8528,718.8389],[30.0364,-29.8664,645.4474],[30.0444,-29.8693,646.1405],[30.0553,-29.8702,634.4645],[30.0616,-29.8664,646.6168],[30.064,-29.8594,623.1478],[30.0669,-29.8597,609.3671],[30.068,-29.8649,603.2531],[30.0636,-29.8725,600.4298],[30.0662,-29.8853,590.8977],[30.0607,-29.8902,602.6743],[30.0611,-29.8974,581.2991],[30.0632,-29.8983,591.5487],[30.0679,-29.895,571.5997],[30.0701,-29.9026,879.9442],[30.0781,-29.9079,632.5474],[30.0811,-29.9055,559.7039],[30.0831,-29.9064,595.1266],[30.0886,-29.904,567.2795],[30.1009,-29.9115,540.649],[30.0995,-29.9154,537.882],[30.0889,-29.9189,538.7683],[30.0841,-29.9225,568.2457],[30.0832,-29.9252,523.2924],[30.084,-29.9281,534.9826],[30.0911,-29.9352,512.3246],[30.0876,-29.939,509.9838],[30.0863,-29.9433,509.9483],[30.0881,-29.9478,510.4025],[30.0928,-29.9498,507.3543],[30.0961,-29.9494,506.5262],[30.1008,-29.9422,492.7283],[30.104,-29.9403,516.5873],[30.1061,-29.942,539.9756],[30.105,-29.9461,484.3462],[30.119,-29.9487,474.134],[30.1185,-29.9509,476.0298],[30.1107,-29.9571,478.0477],[30.1143,-29.9617,513.6685],[30.1135,-29.9667,490.3807],[30.1102,-29.969,459.1326],[30.1056,-29.9687,462.673],[30.1028,-29.9717,477.545],[30.1035,-29.9733,529.2492],[30.1089,-29.977,445.9606],[30.1149,-29.9778,475.1292],[30.1251,-29.982,436.4424],[30.1347,-29.9798,430.0452],[30.1503,-29.9822,413.4599],[30.1614,-29.9886,411.4443],[30.1645,-29.9988,401.7923],[30.1721,-30.0015,416.0972],[30.1891,-30.0028,394.0035],[30.1952,-30.008,383.3138],[30.1965,-30.0122,382.4226],[30.2124,-30.0173,376.1146],[30.2159,-30.0162,373.1337],[30.2214,-30.0108,378.9087],[30.2349,-30.0123,363.5531],[30.2376,-30.0087,362.4259],[30.2426,-30.0078,362.6514],[30.249,-30.0107,368.6992],[30.2511,-30.0142,357.4751],[30.2572,-30.0111,392.3942],[30.262,-30.0115,358.0115],[30.2739,-30.0219,358.892],[30.2764,-30.0195,350.7182],[30.277,-30.0154,375.8489],[30.2729,-30.0104,344.9293],[30.2728,-30.008,346.8162],[30.2771,-30.0041,353.352],[30.2829,-30.0056,332.1279],[30.2845,-30.0144,365.9268],[30.2902,-30.0187,331.516],[30.2996,-30.014,345.875],[30.3052,-30.0146,338.0376],[30.3133,-30.0205,332.1781],[30.3134,-30.0235,321.9736],[30.3101,-30.0305,315.191],[30.3167,-30.0359,340.3262],[30.315,-30.0412,306.4359],[30.3172,-30.0459,302.965],[30.3215,-30.0433,302.9366],[30.3226,-30.0348,320.4282],[30.3277,-30.0322,297.9991],[30.3328,-30.0347,304.2377],[30.3341,-30.0404,306.7957],[30.338,-30.0468,345.5777],[30.3409,-30.0487,289.1833],[30.3463,-30.0488,285.3415],[30.3484,-30.0469,286.8583],[30.3474,-30.0372,290.4024],[30.3513,-30.0364,277.6468],[30.3557,-30.0392,274.0909],[30.3561,-30.0479,272.703],[30.3518,-30.0556,272.7152],[30.352,-30.0586,288.6077],[30.3559,-30.0621,287.993],[30.3629,-30.0602,260.6638],[30.3658,-30.0613,275.7777],[30.3646,-30.0639,256.9905],[30.3583,-30.0683,279.0639],[30.3579,-30.0706,323.2184],[30.364,-30.0725,249.6858],[30.3701,-30.0711,300.1435],[30.3729,-30.0744,247.4157],[30.3823,-30.078,241.9903],[30.3822,-30.0851,265.9184],[30.3742,-30.0872,245.3524],[30.3735,-30.0924,234.8756],[30.3857,-30.0942,257.8203],[30.3966,-30.1023,223.1296],[30.399,-30.1013,236.9081],[30.4005,-30.0959,229.9871],[30.4074,-30.0918,218.2425],[30.4133,-30.0922,228.8103],[30.422,-30.0966,229.5526],[30.4244,-30.0926,211.1975],[30.4219,-30.0848,208.3439],[30.4223,-30.0782,204.1579],[30.4243,-30.0766,206.3364],[30.428,-30.0793,206.588],[30.4311,-30.0928,201.4325],[30.4367,-30.0915,195.6334],[30.4398,-30.082,191.5592],[30.4452,-30.0842,190.1001]]]]}}