{"type":"Feature","properties":{"GID_3":"ZAF.9.2.1_1","GID_0":"ZAF","country":"SouthAfrica","GID_1":"ZAF.9_1","province":"WesternCape","NL_NAME_1":"NA","GID_2":"ZAF.9.2_1","county":"CentralKaroo","NL_NAME_2":"NA","city":"BeaufortWest","VARNAME_3":"NA","NL_NAME_3":"NA","TYPE_3":"LocalMunicipality","ENGTYPE_3":"LocalMunicipality","CC_3":"WC053","HASC_3":"NA","name":"Beaufort_West.city"},
"geometry":{"type": "MultiPolygon","coordinates": [[[[23.3784,-32.825,824.6968],[23.3977,-32.7635,830.0782],[23.3516,-32.7638,806.8699],[23.3535,-32.7294,831.3633],[23.3329,-32.7036,853.9132],[23.2696,-32.6715,880.832],[23.3013,-32.6518,885.3963],[23.3073,-32.6116,910.5219],[23.2882,-32.5512,896.0569],[23.2445,-32.5132,906.355],[23.2475,-32.4653,898.2769],[23.2216,-32.425,889.6756],[23.2721,-32.4007,918.8413],[23.2872,-32.4042,920.8407],[23.3073,-32.3959,930.8704],[23.333,-32.3511,1227.8136],[23.3493,-32.3644,1250.9423],[23.4098,-32.3892,1144.3912],[23.4247,-32.3562,1144.7106],[23.449,-32.3233,1027.1962],[23.5236,-32.3288,890.5175],[23.5918,-32.3408,906.5576],[23.6651,-32.3442,918.7472],[23.6784,-32.3291,932.4925],[23.6569,-32.3039,980.0035],[23.6489,-32.298,985.5958],[23.6705,-32.2377,1014.3979],[23.6924,-32.2335,1146.474],[23.7082,-32.2192,1157.6567],[23.7261,-32.2085,1112.3767],[23.7471,-32.2007,1271.1455],[23.7662,-32.1787,1379.7062],[23.7978,-32.1941,1607.899],[23.8511,-32.2425,1593.5292],[23.8645,-32.249,1774.4081],[23.8923,-32.255,1591.9761],[23.921,-32.2334,1610.6055],[23.9354,-32.2319,1487.0837],[23.953,-32.2165,1220.7563],[23.9611,-32.2065,1444.609],[23.9847,-32.1984,1663.1334],[23.9845,-32.1964,1726.5029],[23.9858,-32.1978,1726.5029],[24.0305,-32.1935,1908.0254],[24.0441,-32.1819,1601.3894],[24.038,-32.1581,2032.7769],[24.1001,-32.164,1488.4185],[24.1129,-32.1509,1523.5972],[24.1022,-32.1488,1838.8894],[24.1176,-32.1352,1678.366],[24.1304,-32.132,1703.1636],[24.1355,-32.1231,1814.9357],[24.1354,-32.0979,1334.8937],[24.1097,-32.0843,1508.8844],[24.0979,-32.1108,2053.5171],[24.0979,-32.0852,1845.2865],[24.1028,-32.0699,1864.4041],[24.1044,-32.0676,1880.4391],[24.1126,-32.07,1821.6897],[24.1119,-32.0616,1737.8376],[24.1233,-32.0559,1782.775],[24.1348,-32.0602,1802.1836],[24.1411,-32.0514,1738.3478],[24.1286,-32.0412,1736.4739],[24.1409,-32.0117,1659.3748],[24.1745,-32.0199,1762.978],[24.1749,-32.0126,1714.5076],[24.1894,-32.0122,1720.1436],[24.1878,-32.0082,1706.1804],[24.1937,-32.0048,1753.3087],[24.183,-31.9959,1644.1321],[24.2224,-31.9556,1488.5005],[24.2054,-31.9417,1492.7097],[24.1998,-31.9426,1483.0154],[24.188,-31.9336,1461.6674],[24.1912,-31.9268,1494.8497],[24.1972,-31.9235,1468.3541],[24.1642,-31.9024,1479.5962],[24.1466,-31.8969,1548.1248],[24.1468,-31.9027,1522.4807],[24.1387,-31.9054,1528.6201],[24.1054,-31.9069,1639.2148],[24.1047,-31.8868,1793.1796],[24.1083,-31.8861,1729.2566],[24.1236,-31.8472,1586.072],[24.1533,-31.8549,1536.1584],[24.1548,-31.8225,1629.573],[24.1598,-31.8231,1607.1871],[24.1798,-31.8194,1662.3403],[24.1837,-31.8133,1628.2136],[24.1543,-31.7983,1845.7866],[24.1525,-31.7886,1790.2791],[24.1022,-31.7926,1932.2883],[24.0709,-31.8071,1704.504],[24.0561,-31.776,1625.6514],[24.0431,-31.7673,1578.692],[24.0285,-31.7302,1665.155],[24.0291,-31.722,1893.5333],[24.0468,-31.7067,1830.5918],[23.9631,-31.7067,1641.674],[23.9665,-31.7154,1645.2194],[23.9513,-31.7495,1590.2087],[23.9487,-31.7733,1502.4407],[23.9179,-31.7954,1604.9609],[23.9159,-31.822,1572.5077],[23.894,-31.8368,1616.3617],[23.8786,-31.8337,1375.3915],[23.8379,-31.7833,1350.2046],[23.8293,-31.7803,1330.6938],[23.8372,-31.7679,1368.658],[23.8085,-31.7637,1368.209],[23.8476,-31.7292,1311.3788],[23.8416,-31.7151,1398.9652],[23.8157,-31.7142,1363.9945],[23.7775,-31.6971,1397.431],[23.7565,-31.6957,1467.3779],[23.7345,-31.6546,1460.0839],[23.7151,-31.647,1453.8799],[23.6887,-31.6496,1629.4742],[23.6395,-31.6601,1503.5571],[23.6191,-31.6494,1361.7665],[23.5945,-31.6623,1356.7019],[23.5745,-31.6892,1234.818],[23.5355,-31.6918,1191.3496],[23.5239,-31.7053,1176.6714],[23.4961,-31.7027,1185.8556],[23.4231,-31.6821,1281.2046],[23.4165,-31.6722,1238.0656],[23.4017,-31.6996,1199.2678],[23.4071,-31.7138,1188.8723],[23.3871,-31.7148,1205.2902],[23.3451,-31.7109,1228.1423],[23.3024,-31.7301,1271.4429],[23.2661,-31.7732,1459.4363],[23.2634,-31.7783,1477.4335],[23.2624,-31.8154,1349.2024],[23.225,-31.854,1316.0416],[23.2304,-31.8757,1497.3561],[23.1712,-31.9181,1556.8846],[23.1519,-31.9398,1528.7805],[23.1448,-31.9431,1362.7627],[23.1395,-31.9515,1308.1165],[23.1188,-31.9601,1165.4221],[23.1043,-31.9606,1310.0138],[23.0985,-31.9777,1373.0183],[23.0876,-31.9723,1454.2814],[23.0709,-31.9538,1171.4548],[23.0587,-31.9548,1348.5374],[23.0526,-31.9398,1094.5103],[23.0523,-31.9103,1096.6769],[23.0674,-31.8907,1135.9917],[23.0387,-31.8775,1311.9172],[22.9758,-31.8608,1304.3679],[22.9538,-31.863,1119.828],[22.902,-31.8758,1479.0935],[22.8747,-31.8616,1310.1007],[22.859,-31.8183,1311.0581],[22.8253,-31.8377,1358.2081],[22.7769,-31.8569,1358.5654],[22.7575,-31.8275,1370.4976],[22.7351,-31.7994,1321.3251],[22.6515,-31.8217,1755.4705],[22.6475,-31.8196,1780.7904],[22.6463,-31.8155,1768.6776],[22.6443,-31.8143,1704.7786],[22.6421,-31.8162,1742.4648],[22.6332,-31.8157,1772.7441],[22.6312,-31.8197,1732.4775],[22.6318,-31.8234,1715.9133],[22.6149,-31.8229,1454.0287],[22.5783,-31.8055,1453.806],[22.6094,-31.7398,1569.045],[22.6191,-31.7246,1584.8445],[22.5661,-31.7132,1553.0571],[22.5648,-31.6779,1571.9749],[22.4958,-31.6703,1479.0452],[22.4333,-31.6382,1475.5813],[22.3551,-31.6054,1392.3341],[22.3123,-31.5835,1399.4791],[22.2729,-31.5925,1384.5254],[22.2601,-31.6625,1492.2722],[22.2499,-31.6647,1481.967],[22.2374,-31.703,1502.4028],[22.204,-31.764,1415.7312],[22.2063,-31.7922,1399.1962],[22.1599,-31.8097,1357.1692],[22.1769,-31.8207,1346.0004],[22.1666,-31.8931,1563.6682],[22.1315,-31.8843,1530.7739],[22.1159,-31.8626,1517.6877],[22.0789,-31.8549,1313.1665],[22.08,-31.8637,1315.7683],[22.0824,-31.8685,1316.6375],[22.0843,-31.8688,1317.4778],[22.084,-31.8757,1319.5576],[22.0917,-31.8854,1323.0078],[22.0972,-31.8886,1343.1034],[22.1005,-31.893,1327.5889],[22.1017,-31.9005,1330.3813],[22.1004,-31.9243,1352.6687],[22.0713,-31.9393,1366.2985],[22.0892,-31.9743,1482.3125],[22.095,-32.0011,1499.6077],[22.0741,-32.0179,1423.8335],[22.0936,-32.0459,1509.8789],[22.134,-32.0644,1558.4232],[22.1199,-32.077,1522.7838],[22.0896,-32.1464,1532.7303],[22.0696,-32.0815,1414.5044],[22.0164,-32.1143,1412.2646],[22.0035,-32.1742,1370.0342],[21.9995,-32.206,1280.8728],[21.9959,-32.203,1362.8032],[21.9712,-32.2164,1599.0779],[21.9362,-32.2229,1415.1775],[21.9246,-32.262,911.0541],[21.9074,-32.2528,1134.6398],[21.9046,-32.2564,1216.8517],[21.9016,-32.2709,1350.0858],[21.8742,-32.2766,1552.1125],[21.8551,-32.2755,1451.0067],[21.7806,-32.2509,1567.1237],[21.7703,-32.2384,1443.9731],[21.773,-32.2268,1322.3574],[21.746,-32.2252,1532.8815],[21.7359,-32.205,1605.4451],[21.7114,-32.2248,1617.4097],[21.6917,-32.2486,1653.5713],[21.6738,-32.2433,1699.8137],[21.6655,-32.2314,1685.687],[21.6446,-32.2087,1358.4851],[21.6065,-32.2097,1409.8356],[21.5944,-32.2169,1509.8901],[21.5786,-32.2215,1502.3228],[21.5489,-32.2284,1493.7092],[21.536,-32.2292,1624.9363],[21.549,-32.2908,1833.0488],[21.5618,-32.3147,1481.9401],[21.5504,-32.3269,1310.4189],[21.5191,-32.337,1595.6145],[21.4756,-32.3315,1578.032],[21.4436,-32.3548,1486.2245],[21.4299,-32.3752,1499.9863],[21.4084,-32.3688,1607.2904],[21.3528,-32.3915,1646.6675],[21.3015,-32.3773,1702.451],[21.303,-32.4024,1448.5283],[21.2815,-32.4397,1768.1074],[21.2695,-32.4503,1789.4546],[21.2311,-32.4632,1675.6997],[21.1975,-32.4998,1268.4801],[21.1883,-32.5031,1187.0238],[21.1875,-32.5071,1050.3356],[21.1878,-32.5101,1043.183],[21.1922,-32.5139,1045.3762],[21.2012,-32.5142,1012.0569],[21.2035,-32.5167,999.5699],[21.2286,-32.523,962.4764],[21.2317,-32.5291,955.1068],[21.2345,-32.5294,948.7413],[21.2367,-32.537,930.0214],[21.2421,-32.5398,921.8033],[21.2433,-32.5426,918.5623],[21.2482,-32.5444,914.1711],[21.2505,-32.5479,902.8186],[21.2638,-32.5477,891.4246],[21.2896,-32.5578,854.8435],[21.2919,-32.5643,846.3513],[21.296,-32.566,839.8554],[21.3005,-32.575,824.8425],[21.3001,-32.5792,821.6261],[21.2948,-32.5851,810.46],[21.2956,-32.591,805.3039],[21.3036,-32.5972,796.4877],[21.3091,-32.5984,793.5929],[21.3131,-32.6016,784.963],[21.315,-32.6061,782.3825],[21.3206,-32.6092,775.5511],[21.325,-32.6142,767.7426],[21.3244,-32.6181,768.6583],[21.3327,-32.6264,753.5035],[21.3372,-32.6394,742.6715],[21.3417,-32.6419,738.925],[21.3441,-32.6471,735.734],[21.3467,-32.6479,744.9569],[21.3504,-32.6521,731.3914],[21.3522,-32.6577,725.2625],[21.4266,-32.6671,713.046],[21.4249,-32.7059,730.5195],[21.4321,-32.7567,719.4414],[21.4798,-32.7866,615.5002],[21.5247,-32.7591,707.9767],[21.5771,-32.7595,709.2986],[21.649,-32.7282,764.0161],[21.6912,-32.7144,727.3124],[21.6828,-32.6844,741.0424],[21.7178,-32.6417,733.7889],[21.7484,-32.6376,710.4567],[21.7604,-32.6584,681.6282],[21.8464,-32.636,650.1777],[21.8765,-32.6255,630.1952],[21.9144,-32.6193,635.9507],[21.9459,-32.6098,649.7502],[21.9938,-32.576,646.0399],[22.0334,-32.5549,634.6606],[22.0366,-32.5997,630.1819],[22.0718,-32.6427,652.7051],[22.0431,-32.6724,645.538],[22.012,-32.7242,594.4224],[22.0557,-32.7149,574.1781],[22.065,-32.7106,575.1959],[22.1242,-32.7328,642.8911],[22.1914,-32.7906,706.7385],[22.2173,-32.7441,690.217],[22.3013,-32.7399,741.2397],[22.2993,-32.7569,728.1101],[22.3154,-32.7823,781.5281],[22.3213,-32.8206,812.0306],[22.384,-32.8708,972.7221],[22.4557,-32.8765,1005.0552],[22.5219,-32.864,1058.2295],[22.5175,-32.8927,1087.4036],[22.6646,-32.9288,1082.6512],[22.7831,-32.9306,983.0293],[22.7678,-32.9785,997.4322],[22.8003,-32.9853,1016.53],[22.8354,-33.0377,957.8983],[22.8775,-33.031,939.095],[22.873,-33.0244,956.8131],[22.912,-33.0145,961.3164],[22.9341,-33.0217,963.0685],[22.9352,-33.013,964.5876],[22.9692,-32.9934,931.4141],[22.9487,-32.95,900.505],[23.0037,-32.8983,839.9606],[23.0074,-32.8728,822.5931],[23.098,-32.8737,784.8064],[23.1164,-32.858,769.9338],[23.0893,-32.7992,775.0548],[23.1493,-32.7667,800.1511],[23.1875,-32.7674,813.3972],[23.2011,-32.7854,800.0457],[23.2504,-32.7886,810.2542],[23.3052,-32.8095,793.2446],[23.3784,-32.825,824.6968]]]]}}