{"type":"Feature","properties":{"GID_3":"ZAF.1.5.1_1","GID_0":"ZAF","country":"SouthAfrica","GID_1":"ZAF.1_1","province":"EasternCape","NL_NAME_1":"NA","GID_2":"ZAF.1.5_1","county":"ChrisHani","NL_NAME_2":"NA","city":"Emalahleni","VARNAME_3":"NA","NL_NAME_3":"NA","TYPE_3":"LocalMunicipality","ENGTYPE_3":"LocalMunicipality","CC_3":"EC136","HASC_3":"NA","name":"Emalahleni.city"},
"geometry":{"type": "MultiPolygon","coordinates": [[[[27.2932,-31.866,1073.249],[27.3013,-31.8626,1411.4678],[27.3177,-31.8816,1459.9692],[27.3288,-31.8909,1293.4531],[27.3522,-31.889,1221.8613],[27.3788,-31.8899,1162.8151],[27.4079,-31.8959,969.5909],[27.4097,-31.8996,842.4642],[27.412,-31.8927,852.6059],[27.4094,-31.8909,848.4343],[27.4096,-31.8776,859.5031],[27.4139,-31.8662,882.8507],[27.4102,-31.8602,871.7565],[27.411,-31.8567,877.504],[27.4152,-31.8544,904.7761],[27.4243,-31.8664,942.5786],[27.4272,-31.8653,901.7083],[27.4265,-31.8609,916.5934],[27.4239,-31.8588,914.6705],[27.4244,-31.8535,916.5688],[27.4203,-31.8435,926.7466],[27.4255,-31.8259,938.0242],[27.4325,-31.8191,955.9299],[27.4342,-31.8106,962.3012],[27.4304,-31.804,984.4937],[27.4307,-31.7936,1016.0],[27.4196,-31.7704,1016.0],[27.4206,-31.7619,1016.0],[27.4192,-31.756,1016.0],[27.4233,-31.7512,1016.3389],[27.4191,-31.7476,1019.8185],[27.4091,-31.7469,1019.823],[27.407,-31.7455,1020.2991],[27.4063,-31.7418,1021.9819],[27.4075,-31.7403,1034.384],[27.4147,-31.742,1038.1592],[27.4168,-31.7409,1031.8854],[27.4086,-31.7368,1040.2588],[27.406,-31.7383,1054.1224],[27.4045,-31.7375,1057.527],[27.4025,-31.7352,1050.5922],[27.4016,-31.7288,1070.2805],[27.3987,-31.7257,1055.2622],[27.405,-31.7238,1054.0669],[27.4078,-31.7273,1058.9242],[27.4142,-31.7258,1053.8639],[27.4099,-31.7185,1069.6863],[27.4118,-31.7161,1070.3982],[27.4139,-31.7164,1062.6542],[27.4124,-31.7085,1061.657],[27.4189,-31.707,1061.3301],[27.418,-31.7032,1065.7419],[27.4214,-31.7022,1063.3138],[27.4224,-31.7,1064.4159],[27.4291,-31.701,1069.0981],[27.4313,-31.6969,1066.4172],[27.4352,-31.6947,1071.7944],[27.4362,-31.6891,1068.2808],[27.4396,-31.6872,1072.5918],[27.4361,-31.6801,1075.3066],[27.4383,-31.6787,1072.1536],[27.4365,-31.6782,1072.7312],[27.437,-31.6758,1074.1731],[27.4351,-31.6736,1069.7444],[27.4379,-31.6733,1074.6567],[27.4366,-31.6713,1073.4785],[27.4382,-31.6676,1081.2163],[27.4354,-31.6653,1073.9135],[27.4354,-31.6635,1073.3801],[27.4382,-31.6616,1082.0522],[27.4373,-31.6596,1077.0839],[27.4394,-31.6572,1073.4707],[27.4433,-31.6572,1076.0007],[27.4462,-31.654,1075.0774],[27.4432,-31.6474,1076.0466],[27.4364,-31.6476,1082.0648],[27.4357,-31.6459,1080.7144],[27.4281,-31.6451,1087.7615],[27.4259,-31.6417,1088.17],[27.4305,-31.6365,1091.4945],[27.4296,-31.6349,1088.5836],[27.4337,-31.6348,1115.0039],[27.4352,-31.625,1165.9662],[27.4276,-31.6182,1248.072],[27.4223,-31.6158,1112.3357],[27.4327,-31.6115,1130.479],[27.4426,-31.6126,1140.5648],[27.4421,-31.6108,1145.8296],[27.4367,-31.6075,1170.0942],[27.4344,-31.6032,1161.4746],[27.4341,-31.5963,1152.4944],[27.4296,-31.5909,1166.0784],[27.4319,-31.5895,1167.9475],[27.4312,-31.5854,1166.5984],[27.4357,-31.5825,1168.3535],[27.4398,-31.5851,1196.3481],[27.4422,-31.58,1174.8442],[27.437,-31.5765,1177.2947],[27.4345,-31.5706,1180.1199],[27.4284,-31.5707,1179.7085],[27.4266,-31.569,1182.7069],[27.4258,-31.5664,1181.557],[27.4272,-31.5633,1182.0299],[27.4241,-31.559,1183.4645],[27.4202,-31.5584,1188.2489],[27.4212,-31.5561,1184.3187],[27.4232,-31.5564,1187.793],[27.4232,-31.5535,1184.6166],[27.4221,-31.5513,1183.8706],[27.4179,-31.5495,1185.3687],[27.4162,-31.544,1187.6901],[27.4193,-31.5411,1189.093],[27.416,-31.5399,1189.7874],[27.4217,-31.5363,1198.097],[27.424,-31.5327,1202.8879],[27.4334,-31.5324,1215.7063],[27.4362,-31.5381,1233.022],[27.4395,-31.54,1246.1711],[27.4437,-31.5462,1283.4258],[27.4451,-31.5518,1326.4313],[27.4506,-31.5551,1366.417],[27.4612,-31.555,1481.0507],[27.4619,-31.5476,1388.1593],[27.4597,-31.5464,1384.0725],[27.4615,-31.543,1368.561],[27.4573,-31.539,1326.1882],[27.4567,-31.5351,1301.0603],[27.4584,-31.5329,1285.9945],[27.4568,-31.5272,1271.0133],[27.4505,-31.5257,1263.9539],[27.4419,-31.5296,1259.2816],[27.4315,-31.5153,1462.153],[27.4323,-31.5066,1315.6763],[27.4348,-31.5034,1365.7095],[27.4364,-31.4965,1352.6639],[27.4426,-31.4958,1358.9247],[27.4467,-31.4986,1370.2649],[27.4544,-31.4989,1386.798],[27.4629,-31.49,1428.1553],[27.4727,-31.4882,1460.3864],[27.4754,-31.4804,1491.4768],[27.4842,-31.4787,1514.5913],[27.4867,-31.4806,1578.1401],[27.4865,-31.4854,1553.7808],[27.4898,-31.4869,1525.6921],[27.4964,-31.4784,1500.4641],[27.5029,-31.4764,1473.0107],[27.5123,-31.4774,1459.8866],[27.5126,-31.4717,1466.0071],[27.5163,-31.4652,1488.8972],[27.5244,-31.4598,1478.6787],[27.5691,-31.4525,1469.866],[27.5986,-31.4437,1473.2717],[27.5986,-31.4359,1439.2502],[27.5893,-31.417,1446.209],[27.5765,-31.417,1338.7607],[27.5774,-31.3892,1335.58],[27.5911,-31.3824,1400.4734],[27.5791,-31.3605,1345.6443],[27.5792,-31.3572,1326.4698],[27.5838,-31.3601,1307.9949],[27.5877,-31.3587,1328.6121],[27.5898,-31.3629,1310.1226],[27.5926,-31.3367,1316.1726],[27.596,-31.335,1311.9388],[27.5994,-31.3368,1306.9871],[27.613,-31.303,1382.2432],[27.629,-31.2929,1453.9698],[27.6255,-31.2766,1461.7986],[27.6173,-31.2685,1498.4766],[27.6178,-31.2525,1746.8588],[27.6163,-31.2365,1952.188],[27.6241,-31.224,2295.8228],[27.6052,-31.212,2277.9768],[27.5696,-31.2091,2196.1885],[27.5577,-31.2197,2240.4375],[27.559,-31.225,2224.9438],[27.5515,-31.2303,2146.7642],[27.526,-31.2271,2233.2537],[27.5145,-31.2367,2241.614],[27.4907,-31.2526,2146.9624],[27.4513,-31.2572,2434.0234],[27.4339,-31.2795,2381.7915],[27.4567,-31.301,2345.0889],[27.443,-31.3774,1862.1687],[27.4398,-31.3847,1808.0281],[27.4085,-31.4185,1794.7294],[27.3859,-31.4155,1370.5826],[27.3626,-31.4223,1374.072],[27.3446,-31.3803,1925.2323],[27.3363,-31.3754,2070.1279],[27.334,-31.3823,2086.0371],[27.3225,-31.3792,1969.2249],[27.3218,-31.3741,2082.0825],[27.3038,-31.3463,2016.0864],[27.3043,-31.3483,1972.1012],[27.2979,-31.3552,1695.7056],[27.2935,-31.3542,1677.9716],[27.2908,-31.3562,1704.2614],[27.2962,-31.375,1598.2723],[27.2814,-31.3807,1532.9359],[27.276,-31.3398,2007.8324],[27.1752,-31.3678,1676.6631],[27.1308,-31.4266,1707.1213],[27.1168,-31.421,1703.2513],[27.0996,-31.3939,1682.1552],[27.0866,-31.3975,1756.8044],[27.0673,-31.3739,1767.002],[27.0635,-31.3726,1761.7506],[27.0676,-31.3614,1921.0433],[27.0475,-31.3445,1670.9277],[27.0171,-31.361,1713.9127],[27.0113,-31.3562,1701.2814],[26.9778,-31.3408,1597.1586],[26.9613,-31.3611,1740.6572],[26.9346,-31.344,1818.8865],[26.8823,-31.378,2027.255],[26.8845,-31.3981,2037.4534],[26.8558,-31.4121,1979.8574],[26.8469,-31.4359,1994.7673],[26.8657,-31.4343,1934.2965],[26.8749,-31.4441,1934.7828],[26.8789,-31.4456,1928.8127],[26.8639,-31.4807,1536.5056],[26.8423,-31.4829,1562.4501],[26.8466,-31.5079,1549.4242],[26.8584,-31.5084,1475.3328],[26.8749,-31.5155,1530.3667],[26.8917,-31.5433,1575.7397],[26.8766,-31.5607,1629.9482],[26.8669,-31.5849,1805.2046],[26.8436,-31.5839,1872.4868],[26.8254,-31.604,1769.4836],[26.8198,-31.6235,1783.1952],[26.799,-31.64,1960.8419],[26.7696,-31.6668,2024.3328],[26.8046,-31.7067,1911.567],[26.8488,-31.6918,1821.2534],[26.868,-31.7017,1923.5536],[26.8823,-31.7153,1850.0972],[26.8801,-31.7388,1773.9858],[26.9063,-31.7413,1446.0791],[26.9135,-31.7677,1810.8979],[26.9127,-31.7747,1812.1265],[26.9244,-31.7784,1682.3213],[26.9583,-31.781,1603.8416],[26.9725,-31.787,1673.7443],[26.9664,-31.792,1564.4202],[26.9808,-31.8272,1554.2858],[26.9772,-31.8458,1452.3492],[26.9727,-31.8551,1405.5981],[27.0075,-31.8562,1476.7373],[27.0137,-31.8604,1508.6035],[27.0257,-31.8585,1338.0262],[27.037,-31.8641,1451.4075],[27.0493,-31.8769,1376.8481],[27.0731,-31.894,1468.4315],[27.0794,-31.8949,1353.7961],[27.0812,-31.9015,1417.3481],[27.0996,-31.9105,1396.9559],[27.106,-31.9156,1285.4429],[27.1118,-31.9365,1383.4093],[27.1478,-31.9286,1143.5664],[27.1699,-31.9444,1179.5416],[27.1776,-31.9341,1285.6438],[27.208,-31.9622,1326.6387],[27.2285,-31.9618,1234.2551],[27.2369,-31.9471,1253.104],[27.2548,-31.9391,1044.7349],[27.2673,-31.944,1221.3767],[27.2722,-31.9333,830.3364],[27.2837,-31.9316,981.5054],[27.2788,-31.9138,1047.8831],[27.2823,-31.9102,894.9003],[27.2955,-31.9061,876.1898],[27.2977,-31.904,879.3231],[27.2983,-31.9003,884.8282],[27.2972,-31.8967,892.2405],[27.2906,-31.8909,906.1697],[27.2921,-31.888,911.8519],[27.2907,-31.8826,929.7568],[27.2939,-31.882,960.0764],[27.2965,-31.8693,1115.094],[27.2932,-31.866,1073.249]]]]}}