{"type": "Feature","bbox": [28.4905,-26.3457,29.0267,-25.8697],"geometry": {"type": "MultiPolygon","coordinates": [[[[28.5248,-26.1649,1627.4006],[28.5271,-26.1787,1626.1859],[28.5343,-26.1722,1631.7723],[28.5305,-26.2253,1613.5417],[28.6223,-26.2484,1636.3892],[28.6269,-26.2924,1617.3829],[28.6728,-26.3117,1639.1514],[28.6727,-26.3209,1655.701],[28.7101,-26.3412,1640.1895],[28.7394,-26.3245,1643.5028],[28.7536,-26.3207,1651.49],[28.7789,-26.3169,1645.4865],[28.8051,-26.3066,1631.6313],[28.8178,-26.3457,1638.0272],[28.8384,-26.340699999999998,1599.59],[28.8676,-26.3277,1599.9215],[28.8876,-26.28,1556.0492],[28.8863,-26.2577,1543.5419],[28.9395,-26.2658,1568.0759],[28.95,-26.2547,1587.364],[28.9708,-26.2384,1608.3069],[28.9835,-26.2421,1630.4994],[28.9822,-26.1963,1643.0608],[29.0203,-26.1932,1619.4592],[29.0196,-26.1466,1608.6075],[28.9978,-26.1472,1601.3403],[28.9993,-26.1209,1629.9014],[28.9196,-26.1,1541.1205],[28.931,-26.0705,1565.5514],[28.9207,-26.0581,1564.1484],[28.9249,-26.0238,1566.7388],[28.9676,-26.027,1583.7043],[28.9568,-25.9911,1573.2834],[28.9537,-25.9748,1571.2543],[28.9687,-25.9693,1560.3596],[28.969,-25.9485,1571.6296],[28.9657,-25.9179,1579.7228],[28.9937,-25.9395,1543.593],[29.0267,-25.9167,1493.1637],[29.0161,-25.9094,1493.1899],[28.9911,-25.8697,1456.3625],[28.9817,-25.8866,1572.968],[28.9563,-25.9055,1544.6797],[28.9506,-25.9002,1551.0032],[28.9597,-25.8809,1483.5547],[28.9582,-25.88,1478.797],[28.9515,-25.8769,1506.1902],[28.9411,-25.8773,1551.1305],[28.9382,-25.8886,1549.2202],[28.8868,-25.8714,1449.011],[28.8839,-25.8783,1436.5209],[28.889,-25.8803,1447.8713],[28.8795,-25.9252,1429.9817],[28.8825,-25.9698,1512.8762],[28.8833,-25.9714,1517.1105],[28.8852,-25.9714,1518.1599],[28.885,-25.9744,1513.5593],[28.8673,-26.007,1453.0421],[28.8648,-26.0013,1452.7549],[28.8329,-26.0048,1505.7949],[28.7939,-26.0046,1537.5439],[28.7739,-26.0137,1535.6116],[28.7624,-25.9831,1546.3005],[28.7579,-25.9837,1551.3909],[28.7575,-25.9906,1545.0604],[28.7108,-25.9906,1501.5925],[28.6527,-25.9743,1487.1128],[28.6323,-25.9708,1510.3308],[28.591,-26.0025,1561.7325],[28.5867,-26.016,1539.1907],[28.5789,-26.0596,1562.8827],[28.5386,-26.0478,1598.1165],[28.5308,-26.0616,1589.1638],[28.5158,-26.0585,1581.4004],[28.5031,-26.0638,1600.9934],[28.5158,-26.0812,1592.0378],[28.5012,-26.0896,1609.9274],[28.5052,-26.0992,1617.3489],[28.497,-26.1039,1624.1477],[28.4905,-26.1264,1629.738],[28.5213,-26.1445,1621.3582],[28.5248,-26.1649,1627.4006]]]]}
,"properties": {"GID_3": "ZAF.6.3.6_1","GID_0": "ZAF","country": "SouthAfrica","GID_1": "ZAF.6_1","province": "Mpumalanga","NL_NAME_1": "NA","GID_2": "ZAF.6.3_1","county": "Nkangala","NL_NAME_2": "NA","city": "VictorKhanye","VARNAME_3": "NA","NL_NAME_3": "NA","TYPE_3": "LocalMunicipality","ENGTYPE_3": "LocalMunicipality","CC_3": "MP311","HASC_3": "NA","name": "Victor_Khanye.city","area_km2": 1570.944,"hist_schema_id": "Elevation0-9000","hist_area_km2": {"1425": 3.909,"1450": 20.151,"1475": 56.188,"1500": 115.487,"1525": 188.644,"1550": 305.567,"1575": 405.071,"1600": 312.066,"1625": 147.288,"1650": 16.575}}}