{"type": "Feature","bbox": [24.3466,-30.6939,27.4101,-28.8283],"geometry": {"type": "MultiPolygon","coordinates": [[[[26.4838,-30.6298,1281.6807],[26.5042,-30.6318,1282.6294],[26.5105,-30.636,1279.0],[26.5217,-30.6402,1279.5],[26.5512,-30.6618,1285.2954],[26.5579,-30.6641,1281.9305],[26.5755,-30.6667,1284.9445],[26.5909,-30.6626,1287.5002],[26.6077,-30.664,1283.6316],[26.629,-30.6617,1286.3103],[26.6365,-30.6728,1286.7883],[26.6278,-30.6782,1286.5648],[26.6249,-30.6832,1285.5],[26.6253,-30.6912,1288.9866],[26.6294,-30.6939,1286.0],[26.6396,-30.6936,1290.2512],[26.6535,-30.6901,1291.6736],[26.6608,-30.6853,1287.5],[26.6698,-30.6706,1288.0],[26.6753,-30.6675,1297.4681],[26.6773,-30.6682,1288.5],[26.6807,-30.6784,1289.0],[26.6857,-30.686,1289.5],[26.6932,-30.6879,1293.6521],[26.7031,-30.6869,1294.7739],[26.7091,-30.684,1290.5],[26.7257,-30.6664,1296.0437],[26.7366,-30.6646,1297.5293],[26.7519,-30.6661,1296.7202],[26.762,-30.658,1301.5779],[26.7687,-30.6555,1295.4838],[26.7761,-30.6484,1296.0474],[26.8053,-30.6394,1301.7092],[26.8141,-30.6427,1297.8734],[26.8283,-30.6596,1298.4178],[26.8388,-30.6694,1301.2291],[26.8443,-30.6826,1302.751],[26.8543,-30.6848,1305.616],[26.8669,-30.6834,1302.5399],[26.8735,-30.6808,1299.5],[26.8767,-30.6771,1304.0908],[26.8758,-30.6649,1302.744],[26.8787,-30.6596,1302.5035],[26.8862,-30.6595,1312.3276],[26.8962,-30.6671,1302.678],[26.903,-30.6689,1302.3389],[26.9181,-30.6651,1303.8582],[26.9346,-30.6651,1308.1891],[26.9488,-30.6586,1307.5752],[26.9493,-30.6529,1328.3921],[26.9301,-30.6276,1310.4047],[26.9293,-30.6245,1318.7273],[26.933,-30.619,1308.8916],[26.9398,-30.6174,1305.5],[26.9479,-30.6076,1306.0],[26.9794,-30.5979,1346.0923],[27.0005,-30.5946,1319.8932],[27.0056,-30.5957,1313.3096],[27.0103,-30.6041,1313.594],[27.0138,-30.6064,1348.3195],[27.0279,-30.6046,1387.0732],[27.0344,-30.5999,1328.1915],[27.0426,-30.5876,1326.7373],[27.0415,-30.5815,1338.5303],[27.0392,-30.5791,1325.5033],[27.0265,-30.5786,1311.0],[27.0178,-30.5613,1315.7932],[27.0054,-30.5579,1327.2695],[27.0012,-30.5545,1335.8849],[26.9981,-30.5487,1358.2925],[27.0048,-30.5377,1321.99],[27.0129,-30.5363,1329.8176],[27.0226,-30.5375,1318.0],[27.026,-30.5344,1328.2997],[27.0349,-30.5374,1327.9856],[27.0427,-30.537,1324.5311],[27.065,-30.5297,1351.6858],[27.0853,-30.528,1335.2734],[27.089,-30.5305,1325.4667],[27.0871,-30.5393,1381.0293],[27.0913,-30.5477,1349.2969],[27.0963,-30.5536,1328.0645],[27.1061,-30.5583,1343.0062],[27.1135,-30.5534,1327.4409],[27.1213,-30.5409,1357.4536],[27.1327,-30.538,1374.5017],[27.138,-30.5322,1356.1948],[27.1349,-30.5238,1345.5565],[27.1272,-30.5153,1329.0106],[27.1282,-30.5118,1354.4253],[27.1305,-30.5102,1352.0099],[27.1395,-30.5097,1339.0719],[27.1611,-30.5142,1338.1021],[27.1697,-30.5123,1340.0223],[27.1763,-30.52,1335.2168],[27.1864,-30.5246,1354.1848],[27.206,-30.5074,1340.933],[27.2057,-30.5006,1342.9148],[27.2095,-30.4935,1337.5],[27.2099,-30.489,1363.7621],[27.2128,-30.487,1338.0],[27.2153,-30.4876,1343.6753],[27.219,-30.4923,1369.3077],[27.2183,-30.5054,1367.5381],[27.2197,-30.5086,1338.5],[27.2215,-30.5104,1339.7583],[27.2297,-30.5096,1358.6482],[27.2295,-30.4992,1342.2537],[27.2336,-30.4933,1342.6813],[27.2332,-30.4848,1347.4995],[27.2395,-30.4806,1344.0166],[27.2456,-30.4818,1347.5828],[27.2481,-30.4868,1349.1985],[27.2482,-30.4953,1341.5],[27.2511,-30.5025,1346.1621],[27.2621,-30.5037,1357.72],[27.2665,-30.5063,1350.4675],[27.2747,-30.5023,1349.4894],[27.2833,-30.5031,1353.6425],[27.2902,-30.5103,1348.6819],[27.2975,-30.5122,1352.641],[27.3007,-30.5088,1351.8584],[27.3012,-30.5016,1381.9399],[27.2984,-30.4946,1356.3622],[27.3064,-30.4906,1361.2651],[27.3243,-30.4877,1352.4912],[27.3284,-30.4834,1350.5217],[27.3261,-30.4783,1363.6296],[27.3211,-30.4756,1366.0071],[27.3148,-30.469,1357.1781],[27.299,-30.4639,1363.1968],[27.2959,-30.4616,1382.3746],[27.2935,-30.4552,1360.4697],[27.3006,-30.4437,1363.6531],[27.3049,-30.4413,1375.7324],[27.3111,-30.4411,1375.9722],[27.3235,-30.4468,1381.8285],[27.3396,-30.4506,1369.4969],[27.3479,-30.4492,1380.3021],[27.3556,-30.4431,1370.0778],[27.3687,-30.437,1359.0],[27.3684,-30.4334,1365.7657],[27.3615,-30.4253,1366.9875],[27.340699999999998,-30.431,1384.3667],[27.3338,-30.4294,1390.1173],[27.3242,-30.4232,1378.9935],[27.3236,-30.4177,1420.7589],[27.3319,-30.4157,1390.1002],[27.3346,-30.4121,1384.7025],[27.3391,-30.4035,1372.7058],[27.3389,-30.3983,1369.6497],[27.3446,-30.3973,1377.9177],[27.3522,-30.4011,1372.55],[27.366,-30.403,1388.1628],[27.3734,-30.4053,1376.5439],[27.3769,-30.4088,1381.0544],[27.3809,-30.4064,1374.5969],[27.3832,-30.4013,1383.009],[27.4035,-30.3924,1374.9421],[27.4018,-30.385,1409.4336],[27.4029,-30.3804,1385.7799],[27.3959,-30.3703,1383.4436],[27.3967,-30.3611,1396.0485],[27.3914,-30.3575,1380.9332],[27.3834,-30.3583,1378.8518],[27.3799,-30.3619,1382.8982],[27.3787,-30.3745,1375.0],[27.3721,-30.3745,1378.1232],[27.3683,-30.3709,1375.5],[27.3629,-30.3552,1383.5936],[27.367,-30.3452,1417.2329],[27.3664,-30.3387,1377.6638],[27.3583,-30.3358,1380.0575],[27.3534,-30.3359,1378.0],[27.3489,-30.3324,1379.0],[27.3489,-30.3308,1381.9226],[27.3627,-30.3237,1381.0],[27.3773,-30.3271,1385.0956],[27.3773,-30.3248,1397.8057],[27.3841,-30.3199,1391.0549],[27.3865,-30.3239,1388.7333],[27.3883,-30.3238,1393.4915],[27.3909,-30.3222,1391.1838],[27.3919,-30.3192,1394.0404],[27.3856,-30.3123,1405.6216],[27.3857,-30.3099,1406.1149],[27.3883,-30.3082,1396.2097],[27.3925,-30.3103,1395.8975],[27.3952,-30.3098,1408.705],[27.3934,-30.3036,1396.6855],[27.3835,-30.3043,1396.4089],[27.3799,-30.3002,1393.988],[27.3892,-30.2934,1396.9717],[27.385,-30.2894,1408.2455],[27.3893,-30.2855,1399.5007],[27.3893,-30.2835,1401.3373],[27.3874,-30.2817,1405.0342],[27.3827,-30.2823,1401.9011],[27.3798,-30.2742,1410.152],[27.3773,-30.2761,1400.2919],[27.3766,-30.2797,1401.631],[27.3738,-30.2806,1400.4697],[27.3693,-30.279,1405.6296],[27.367,-30.274,1410.4091],[27.3708,-30.2672,1399.8109],[27.3658,-30.2591,1404.0841],[27.3706,-30.2486,1404.2209],[27.3666,-30.2372,1420.4738],[27.3701,-30.2274,1415.2],[27.3654,-30.218,1410.8917],[27.3678,-30.2133,1414.4996],[27.3729,-30.2086,1413.1375],[27.3748,-30.2033,1415.7599],[27.3753,-30.1984,1409.7831],[27.3712,-30.1977,1414.2346],[27.3683,-30.1938,1409.4033],[27.3686,-30.1911,1412.5836],[27.3721,-30.1901,1412.3071],[27.3822,-30.1948,1415.91],[27.3862,-30.1933,1430.5042],[27.3862,-30.1826,1422.5735],[27.3811,-30.1808,1415.7086],[27.381,-30.1775,1416.9828],[27.3895,-30.178,1416.2656],[27.3916,-30.1761,1420.7661],[27.3923,-30.167,1416.7167],[27.4017,-30.1637,1417.578],[27.4014,-30.1584,1425.239],[27.409,-30.1557,1420.7013],[27.4101,-30.1521,1422.9604],[27.4045,-30.1498,1418.6416],[27.4073,-30.1445,1420.624],[27.4021,-30.1391,1429.5541],[27.39,-30.1434,1483.8931],[27.3411,-30.146,1596.637],[27.336,-30.1478,1640.0593],[27.3269,-30.1481,1686.9133],[27.323,-30.1399,1769.0963],[27.2965,-30.0561,1842.1208],[27.2909,-30.0503,1879.8085],[27.2685,-30.043,1845.6139],[27.2654,-30.0332,1934.5924],[27.2695,-30.026,1967.2493],[27.2539,-30.0261,1930.4525],[27.2347,-30.0083,1886.0607],[27.2189,-30.01,1911.6077],[27.2241,-30.0058,1862.7614],[27.2229,-29.9968,1755.8762],[27.0966,-29.7299,1660.6165],[27.0833,-29.723,1662.58],[27.088,-29.7195,1650.0562],[27.0644,-29.7051,1617.3984],[27.0385,-29.677,1592.6372],[27.0284,-29.6711,1472.6948],[27.0243,-29.6661,1445.0729],[27.0196,-29.6667,1430.9336],[27.0196,-29.6642,1429.1198],[27.0132,-29.6607,1422.178],[27.0116,-29.6485,1422.8499],[27.026,-29.642,1427.4089],[27.0281,-29.6388,1425.2155],[27.025,-29.6282,1433.2944],[27.0175,-29.6194,1431.3309],[27.0183,-29.6168,1424.449],[27.028,-29.6158,1425.6943],[27.0339,-29.6134,1430.0618],[27.0368,-29.6215,1427.6873],[27.0433,-29.6295,1431.6664],[27.0487,-29.6343,1427.9182],[27.0572,-29.6371,1429.2457],[27.0659,-29.6192,1431.8794],[27.064,-29.6122,1431.2871],[27.0666,-29.6064,1431.8315],[27.0654,-29.598,1427.5],[27.0685,-29.5973,1431.5789],[27.0754,-29.6021,1431.8881],[27.0784,-29.6107,1453.7371],[27.0827,-29.6151,1452.6835],[27.0859,-29.6146,1441.0359],[27.0893,-29.6084,1438.6636],[27.0954,-29.6042,1434.8213],[27.1056,-29.6034,1439.7157],[27.1065,-29.6005,1436.1499],[27.104,-29.5903,1441.3524],[27.1145,-29.5852,1439.4863],[27.1197,-29.5775,1441.9287],[27.1274,-29.5747,1438.9861],[27.1233,-29.5591,1506.011],[27.1115,-29.553,1451.4131],[27.0814,-29.5592,1546.3275],[27.0688,-29.5435,1581.4636],[27.0607,-29.5228,1679.4198],[27.016,-29.5275,1618.4039],[27.0079,-29.5168,1601.5118],[26.9538,-29.5339,1577.7135],[26.9654,-29.4977,1575.5649],[26.9121,-29.486,1627.9231],[26.9084,-29.4675,1626.9181],[26.8849,-29.4462,1555.7279],[26.8387,-29.4393,1522.7419],[26.8345,-29.456,1526.8687],[26.7992,-29.4526,1504.0205],[26.7824,-29.4353,1516.1758],[26.7741,-29.4527,1517.4701],[26.7546,-29.4355,1533.7051],[26.7547,-29.4294,1493.5271],[26.7444,-29.4352,1552.5282],[26.7113,-29.4383,1432.1699],[26.7083,-29.4373,1428.7758],[26.707,-29.4385,1427.9036],[26.7038,-29.4368,1426.1888],[26.7023,-29.4378,1425.2491],[26.699,-29.4308,1424.0769],[26.7002,-29.4272,1428.0566],[26.6993,-29.424,1425.5956],[26.7016,-29.4193,1422.5741],[26.7005,-29.4172,1422.396],[26.7026,-29.4134,1421.2068],[26.6989,-29.4092,1418.5643],[26.6994,-29.4028,1417.5562],[26.6963,-29.3998,1418.7181],[26.6896,-29.3988,1415.5958],[26.6873,-29.3959,1419.4452],[26.6822,-29.3953,1413.7706],[26.6788,-29.3908,1411.5009],[26.6775,-29.3856,1410.2826],[26.6671,-29.3837,1408.5459],[26.6652,-29.378,1406.2742],[26.6665,-29.3746,1411.9403],[26.6637,-29.3744,1404.8447],[26.662,-29.3618,1401.1355],[26.6604,-29.358,1399.3174],[26.6578,-29.3565,1398.5015],[26.6595,-29.3533,1412.6653],[26.6518,-29.3482,1392.4293],[26.6527,-29.3532,1385.9347],[26.6507,-29.3549,1392.2771],[26.6485,-29.3528,1392.4111],[26.6474,-29.3479,1387.2837],[26.6442,-29.3484,1380.5094],[26.6429,-29.3452,1384.9468],[26.6434,-29.3418,1405.033],[26.6416,-29.34,1379.7117],[26.6701,-29.3161,1396.6484],[26.6529,-29.3074,1379.3656],[26.6675,-29.2857,1424.1326],[26.6541,-29.2813,1415.511],[26.642,-29.2858,1412.1692],[26.6234,-29.2957,1372.0],[26.6228,-29.2932,1372.0],[26.6172,-29.2935,1372.0],[26.6159,-29.2915,1372.0],[26.6078,-29.2939,1372.0],[26.6053,-29.2896,1372.0],[26.594,-29.2904,1383.8547],[26.5914,-29.2977,1393.4434],[26.5903,-29.3136,1425.9713],[26.566,-29.3187,1418.6067],[26.564,-29.3234,1433.86],[26.5467,-29.3402,1462.0442],[26.5391,-29.3443,1472.3156],[26.5358,-29.3497,1487.094],[26.5193,-29.3464,1475.8197],[26.5135,-29.3476,1507.5519],[26.5047,-29.3877,1513.9171],[26.4978,-29.3986,1507.2739],[26.4742,-29.3899,1465.756],[26.4665,-29.3967,1487.0299],[26.4527,-29.3994,1553.3984],[26.4517,-29.4429,1512.3143],[26.4547,-29.4482,1505.0834],[26.4074,-29.4556,1455.2264],[26.4077,-29.4393,1452.7203],[26.3742,-29.4448,1432.0325],[26.3738,-29.4422,1431.6553],[26.3702,-29.4414,1431.1243],[26.3691,-29.4396,1430.8126],[26.3639,-29.4397,1429.4725],[26.3589,-29.4356,1429.5376],[26.3523,-29.4349,1426.4631],[26.3495,-29.4375,1426.233],[26.3444,-29.4387,1425.0439],[26.3423,-29.4377,1426.099],[26.3411,-29.4436,1423.666],[26.3357,-29.4436,1423.4901],[26.3253,-29.4344,1420.9474],[26.3248,-29.4364,1419.0935],[26.314,-29.4324,1416.3086],[26.3088,-29.4325,1415.0303],[26.3068,-29.4245,1414.2333],[26.3015,-29.4203,1413.0251],[26.2958,-29.423,1411.7261],[26.2936,-29.4268,1410.5576],[26.289,-29.4267,1410.6953],[26.2779,-29.4306,1407.3346],[26.2735,-29.4291,1407.4628],[26.2585,-29.4323,1403.9417],[26.2541,-29.4296,1405.099],[26.2509,-29.4247,1401.7756],[26.2483,-29.4251,1405.1047],[26.2458,-29.4331,1411.6263],[26.238,-29.4294,1423.5111],[26.2097,-29.4352,1394.5469],[26.21,-29.4412,1398.8789],[26.2124,-29.4464,1399.2625],[26.2107,-29.4492,1401.5409],[26.2118,-29.4524,1401.5221],[26.2139,-29.4532,1406.6855],[26.2093,-29.4766,1439.0031],[26.1634,-29.4678,1416.4446],[26.1422,-29.4565,1448.7711],[26.1354,-29.4773,1441.05],[26.1304,-29.4741,1435.0406],[26.1074,-29.4755,1404.0669],[26.107,-29.4704,1395.9474],[26.0919,-29.4645,1372.9459],[26.0936,-29.4786,1388.8322],[26.0909,-29.4767,1392.2113],[26.0778,-29.4797,1399.5609],[26.06,-29.4422,1356.0658],[26.0409,-29.4375,1350.3076],[26.0405,-29.4452,1349.5],[26.0377,-29.4442,1349.2714],[26.035,-29.4454,1347.3862],[26.0323,-29.4171,1389.3235],[25.9794,-29.4016,1411.3069],[25.9724,-29.3902,1407.6851],[25.966,-29.3911,1411.838],[25.9594,-29.3655,1372.3375],[25.9988,-29.3582,1363.8483],[26.0235,-29.3393,1375.6007],[26.0112,-29.3109,1349.3962],[26.0045,-29.3103,1344.0668],[25.9926,-29.2731,1320.4917],[25.9798,-29.2847,1324.5641],[25.9784,-29.2839,1324.761],[25.9662,-29.2927,1327.5854],[25.9434,-29.2968,1331.2281],[25.9149,-29.3061,1398.6259],[25.9118,-29.2999,1394.3281],[25.9132,-29.2858,1339.6277],[25.9055,-29.2543,1347.6239],[25.8636,-29.2521,1309.6619],[25.8599,-29.2603,1315.1594],[25.8456,-29.2355,1317.3438],[25.8415,-29.2323,1308.9598],[25.8076,-29.2601,1304.8982],[25.7917,-29.2567,1305.3726],[25.8012,-29.2329,1290.6135],[25.7824,-29.2242,1287.387],[25.7598,-29.2264,1290.2806],[25.7412,-29.226,1292.6786],[25.7411,-29.1935,1288.1006],[25.7433,-29.1921,1282.0701],[25.7437,-29.1893,1273.5861],[25.7411,-29.1904,1287.0471],[25.7397,-29.1881,1283.1023],[25.7443,-29.1769,1279.3597],[25.7716,-29.1692,1285.296],[25.7347,-29.1412,1298.8237],[25.7552,-29.1342,1298.266],[25.7624,-29.1167,1288.1906],[25.7344,-29.1139,1284.5332],[25.7326,-29.1021,1280.1519],[25.7339,-29.0934,1281.0504],[25.7394,-29.0807,1313.4097],[25.7313,-29.077,1308.0112],[25.7609,-29.0258,1248.5248],[25.7194,-29.0063,1255.8141],[25.7472,-28.9779,1263.4402],[25.7374,-28.9608,1231.6079],[25.7453,-28.9064,1220.2877],[25.7435,-28.9042,1216.4392],[25.7382,-28.903199999999998,1218.3804],[25.7233,-28.9087,1213.4875],[25.7115,-28.9057,1213.4547],[25.7054,-28.9092,1211.033],[25.7045,-28.9054,1212.0881],[25.7003,-28.9072,1211.9312],[25.6959,-28.9061,1212.2017],[25.6922,-28.9039,1213.6841],[25.6897,-28.8999,1213.9136],[25.6806,-28.8958,1211.0634],[25.672,-28.9004,1210.4358],[25.6676,-28.8927,1213.7075],[25.6632,-28.8892,1209.5924],[25.6606,-28.8891,1208.9625],[25.6604,-28.8925,1208.2882],[25.6545,-28.8913,1213.1827],[25.6497,-28.8875,1208.6511],[25.641,-28.8916,1210.6484],[25.6385,-28.8871,1207.4628],[25.636,-28.8859,1207.3262],[25.6292,-28.8871,1203.1011],[25.626,-28.894,1206.4178],[25.622,-28.8964,1208.3909],[25.616,-28.8914,1203.9059],[25.6137,-28.8833,1207.6027],[25.601,-28.8804,1204.4829],[25.5993,-28.8747,1206.2435],[25.5935,-28.8708,1201.4272],[25.5914,-28.8809,1202.4939],[25.5889,-28.883,1205.0093],[25.5819,-28.8807,1200.6331],[25.5778,-28.8761,1203.4065],[25.5723,-28.8748,1201.745],[25.567,-28.8808,1199.4691],[25.5607,-28.878,1200.4835],[25.5567,-28.8822,1201.3979],[25.5535,-28.8822,1199.2313],[25.5503,-28.8802,1199.0867],[25.5463,-28.8722,1201.0569],[25.5394,-28.871,1198.5072],[25.5413,-28.865,1199.4613],[25.5388,-28.8584,1197.1921],[25.5347,-28.8547,1198.905],[25.5288,-28.8525,1198.1807],[25.515,-28.8564,1196.0981],[25.5138,-28.8643,1192.4082],[25.5112,-28.8694,1192.948],[25.4944,-28.8764,1191.5227],[25.4855,-28.8832,1192.7135],[25.476,-28.882,1191.0093],[25.4703,-28.8884,1189.9639],[25.4504,-28.9002,1188.7412],[25.4482,-28.9004,1188.2908],[25.442,-28.8968,1188.0135],[25.4177,-28.8968,1186.2286],[25.4165,-28.9109,1184.02],[25.4066,-28.9172,1185.8424],[25.4012,-28.9161,1184.1719],[25.3907,-28.917,1183.6071],[25.3816,-28.9134,1183.1418],[25.3771,-28.9135,1182.6604],[25.3694,-28.9068,1181.7124],[25.3627,-28.9089,1180.7245],[25.3594,-28.9081,1182.8148],[25.3515,-28.8999,1179.7085],[25.347,-28.9009,1180.2719],[25.3442,-28.8975,1181.6034],[25.3361,-28.8945,1178.8052],[25.3302,-28.8984,1181.6361],[25.3199,-28.8987,1179.0869],[25.3162,-28.8982,1177.5981],[25.3125,-28.8929,1179.6299],[25.3104,-28.8926,1178.6497],[25.3059,-28.8947,1177.5718],[25.3036,-28.8998,1179.9958],[25.2999,-28.9019,1178.1666],[25.2966,-28.9012,1177.483],[25.2955,-28.8947,1177.1394],[25.2935,-28.8933,1177.6031],[25.2822,-28.902,1176.0784],[25.2728,-28.893,1175.0699],[25.2704,-28.8924,1175.6346],[25.2674,-28.894,1172.8932],[25.2663,-28.9001,1175.4277],[25.2641,-28.9024,1174.5555],[25.2602,-28.9037,1173.3345],[25.2507,-28.9031,1173.1295],[25.2423,-28.9075,1171.3359],[25.2302,-28.9009,1169.2673],[25.2235,-28.8943,1169.2289],[25.2109,-28.9017,1170.4424],[25.2064,-28.9028,1167.8851],[25.2025,-28.9072,1170.78],[25.2053,-28.912,1166.1011],[25.206,-28.9225,1165.5317],[25.2002,-28.9254,1164.4259],[25.1927,-28.9377,1165.1495],[25.1881,-28.9383,1163.0223],[25.1843,-28.936,1163.9819],[25.1813,-28.936,1164.521],[25.1764,-28.9433,1163.8428],[25.1707,-28.9472,1163.0376],[25.1661,-28.9481,1162.3257],[25.1582,-28.9475,1162.2069],[25.1489,-28.9435,1162.0408],[25.1456,-28.949,1159.553],[25.1312,-28.9631,1158.9563],[25.1141,-28.9654,1160.5172],[25.0856,-28.9076,1187.2203],[25.0878,-28.9062,1182.0164],[25.0059,-28.9081,1160.7589],[24.9925,-28.903199999999998,1161.4944],[24.9827,-28.9445,1155.5154],[24.9745,-28.9485,1152.9824],[24.9593,-28.9449,1146.037],[24.8692,-28.8947,1216.8248],[24.811,-28.9131,1197.8868],[24.7977,-28.8538,1142.5554],[24.8018,-28.8283,1155.2842],[24.6619,-29.0792,1113.6951],[24.3466,-29.6559,1071.1516],[24.3522,-29.6587,1070.0],[24.3535,-29.6615,1070.0],[24.3487,-29.7018,1073.6519],[24.351,-29.7086,1076.6418],[24.356,-29.7143,1072.5],[24.3678,-29.7205,1073.5],[24.3763,-29.7273,1074.0],[24.3879,-29.7539,1078.1293],[24.4022,-29.7741,1078.884],[24.4112,-29.7904,1078.6245],[24.4246,-29.8012,1081.2263],[24.4351,-29.8059,1083.4178],[24.44,-29.8154,1080.734],[24.4472,-29.8151,1091.2339],[24.4535,-29.8111,1082.6013],[24.459,-29.8107,1081.0],[24.4953,-29.8149,1083.3306],[24.503,-29.8228,1088.4001],[24.5018,-29.8344,1083.0],[24.5077,-29.8402,1085.2271],[24.5251,-29.8454,1085.0281],[24.5395,-29.8423,1084.5],[24.547,-29.8449,1085.5972],[24.5507,-29.8492,1084.8013],[24.5551,-29.8626,1085.5588],[24.5642,-29.8777,1085.0],[24.5841,-29.8962,1085.5],[24.6079,-29.9113,1091.0029],[24.6453,-29.9113,1091.2598],[24.6495,-29.9069,1097.0471],[24.6498,-29.9016,1091.7758],[24.6527,-29.8988,1089.0],[24.6593,-29.8992,1091.6909],[24.6651,-29.902,1096.0593],[24.6679,-29.9091,1093.5059],[24.6653,-29.9295,1090.5],[24.6628,-29.9376,1095.2535],[24.6632,-29.9445,1091.0],[24.6695,-29.9611,1097.957],[24.6713,-29.9715,1100.1095],[24.6766,-29.9768,1093.6956],[24.6956,-29.9827,1093.0],[24.703,-29.9835,1094.6857],[24.7124,-29.9887,1097.0007],[24.7237,-29.9922,1099.5577],[24.7502,-29.9895,1169.0],[24.7568,-29.9928,1169.0],[24.7738,-29.9938,1169.0],[24.794,-29.999,1169.0],[24.8037,-30.0118,1169.0],[24.8081,-30.023,1169.0],[24.8073,-30.0264,1169.0],[24.7985,-30.0339,1169.0],[24.7962,-30.0459,1169.0],[24.7978,-30.0516,1169.0],[24.8034,-30.0604,1169.0],[24.8141,-30.0679,1169.0],[24.8178,-30.0821,1169.0],[24.826,-30.0852,1169.0],[24.8329,-30.0923,1169.0],[24.8385,-30.0952,1169.0],[24.8364,-30.1151,1169.0],[24.8376,-30.1178,1169.0],[24.8442,-30.1235,1169.0],[24.8673,-30.1307,1169.0],[24.8711,-30.1345,1169.0],[24.8804,-30.1589,1169.0],[24.8816,-30.1733,1169.0],[24.8952,-30.1842,1169.0],[24.8957,-30.1964,1169.0],[24.9003,-30.207,1169.0],[24.9042,-30.2093,1169.0],[24.9104,-30.2097,1169.0],[24.9203,-30.2008,1169.0],[24.9251,-30.2007,1169.0],[24.9302,-30.2069,1169.0],[24.934,-30.2175,1169.0],[24.9426,-30.2215,1169.0],[24.9461,-30.2253,1169.0],[24.9542,-30.2261,1169.0],[24.9558,-30.2311,1169.0],[24.9553,-30.2386,1169.0],[24.9468,-30.2467,1169.0],[24.9465,-30.2518,1169.0],[24.9632,-30.2675,1169.0],[24.9761,-30.2733,1169.0],[24.9803,-30.2842,1169.0],[24.9863,-30.29,1169.0],[25.0028,-30.2935,1169.0],[25.0079,-30.2921,1169.0],[25.0233,-30.2835,1169.0],[25.0295,-30.2837,1169.0],[25.0344,-30.2862,1169.0],[25.0397,-30.3013,1169.0],[25.0459,-30.3111,1169.0],[25.0471,-30.3162,1169.0],[25.0466,-30.3229,1169.0],[25.0424,-30.3365,1169.0],[25.0355,-30.3449,1169.0],[25.0385,-30.3625,1169.0],[25.043,-30.3634,1169.0],[25.0511,-30.3572,1169.0],[25.064,-30.3569,1169.0],[25.0716,-30.3594,1189.9473],[25.0779,-30.3653,1171.2063],[25.0854,-30.3692,1171.2212],[25.0951,-30.3722,1171.2736],[25.0989,-30.3782,1169.0],[25.1021,-30.3913,1173.6226],[25.1112,-30.4036,1192.4869],[25.1135,-30.4092,1215.327],[25.1256,-30.4202,1169.5],[25.1399,-30.4242,1169.5],[25.1467,-30.4329,1171.4739],[25.1577,-30.4426,1169.5],[25.1612,-30.4495,1170.0942],[25.1531,-30.4532,1169.5],[25.1527,-30.4593,1169.5],[25.1601,-30.4647,1169.5],[25.1671,-30.4737,1175.1243],[25.1837,-30.484,1179.4668],[25.1896,-30.4984,1174.0376],[25.203,-30.504,1171.7264],[25.21,-30.5051,1169.5],[25.2252,-30.5037,1169.6976],[25.2313,-30.4995,1174.2668],[25.2353,-30.4999,1169.5],[25.2395,-30.5046,1169.625],[25.2434,-30.5136,1170.7534],[25.2547,-30.519,1173.4728],[25.2617,-30.5259,1194.8101],[25.2706,-30.5387,1178.9084],[25.279,-30.5441,1172.625],[25.2838,-30.559,1177.0457],[25.3054,-30.5765,1178.9298],[25.3114,-30.5771,1178.0],[25.3237,-30.5724,1181.4208],[25.326,-30.5696,1185.769],[25.3284,-30.561,1180.5],[25.3337,-30.5577,1189.1936],[25.34,-30.5583,1184.4869],[25.3504,-30.5643,1187.4583],[25.3572,-30.5636,1182.3658],[25.3636,-30.5581,1183.6794],[25.3747,-30.5591,1182.0],[25.3993,-30.5731,1192.9705],[25.4057,-30.5721,1184.0],[25.4187,-30.5782,1185.5],[25.4208,-30.5865,1188.8788],[25.4536,-30.609,1190.0701],[25.4664,-30.623,1193.4626],[25.4682,-30.6326,1193.457],[25.4744,-30.635,1214.2603],[25.4841,-30.6319,1200.3462],[25.4878,-30.6292,1196.4496],[25.5037,-30.625,1200.8928],[25.5169,-30.617,1258.0],[25.5256,-30.6139,1258.0],[25.5385,-30.6134,1258.0],[25.5563,-30.6166,1258.0],[25.564,-30.6158,1258.0],[25.5746,-30.6088,1258.0],[25.5901,-30.5911,1258.0],[25.5967,-30.5904,1258.0],[25.6031,-30.5944,1258.0],[25.609,-30.6072,1258.0],[25.617,-30.6189,1258.0],[25.6248,-30.6243,1258.0],[25.6229,-30.6324,1258.0],[25.61,-30.6482,1258.0],[25.6093,-30.6515,1258.0],[25.6119,-30.655,1258.0],[25.6241,-30.659,1258.0],[25.6417,-30.6577,1258.0],[25.654,-30.6524,1258.0],[25.6716,-30.6409,1258.0],[25.6755,-30.6401,1258.0],[25.6853,-30.6471,1258.0],[25.6854,-30.6506,1258.0],[25.6801,-30.6598,1258.0],[25.6797,-30.6662,1258.0],[25.6932,-30.6761,1258.0],[25.7006,-30.6796,1258.0],[25.7166,-30.6825,1258.0],[25.7498,-30.6825,1258.0],[25.7568,-30.6875,1258.0],[25.7631,-30.6887,1258.0],[25.7706,-30.6865,1258.0],[25.7769,-30.6816,1258.0],[25.7789,-30.6759,1258.0],[25.7791,-30.6566,1258.0],[25.7808,-30.649,1258.0],[25.7831,-30.6452,1258.0],[25.793,-30.6371,1258.0],[25.8003,-30.6347,1258.0],[25.819,-30.635,1258.0],[25.8338,-30.6324,1258.0],[25.8467,-30.6336,1258.0],[25.8512,-30.6293,1258.0],[25.8562,-30.6175,1258.0],[25.8606,-30.6129,1258.0],[25.8724,-30.6107,1258.0],[25.8873,-30.6122,1258.0],[25.891,-30.6103,1258.0],[25.8932,-30.6045,1258.0],[25.892,-30.5968,1258.0],[25.8748,-30.5728,1258.0],[25.8718,-30.5622,1258.0],[25.8726,-30.5581,1258.0],[25.8792,-30.549,1258.0],[25.8856,-30.5438,1258.0],[25.8952,-30.5406,1258.0],[25.903199999999998,-30.5432,1258.0],[25.9238,-30.5644,1258.0],[25.9268,-30.5713,1258.0],[25.9227,-30.579,1258.0],[25.923,-30.5813,1258.0],[25.931,-30.585,1258.0],[25.9377,-30.5836,1258.0],[25.9413,-30.5796,1258.0],[25.9406,-30.5649,1258.0],[25.9438,-30.5569,1258.0],[25.9552,-30.5471,1258.0],[25.977,-30.5382,1258.0],[25.9991,-30.5369,1258.0],[26.0295,-30.5321,1258.9365],[26.052,-30.5227,1258.0],[26.0696,-30.5235,1258.0],[26.0974,-30.5165,1258.9163],[26.1084,-30.5214,1258.5],[26.1182,-30.5354,1261.2172],[26.1341,-30.5406,1259.0],[26.1421,-30.5402,1260.4395],[26.1493,-30.5359,1262.0608],[26.1487,-30.5175,1262.4294],[26.1435,-30.5104,1261.298],[26.1367,-30.5098,1261.4854],[26.1319,-30.5074,1262.8372],[26.1301,-30.5049,1261.528],[26.1301,-30.5001,1262.1628],[26.1357,-30.4924,1263.1683],[26.1455,-30.4853,1260.8506],[26.1518,-30.4835,1260.0],[26.1626,-30.4835,1260.0],[26.1794,-30.4912,1260.5],[26.1941,-30.5038,1265.1501],[26.1962,-30.513,1263.02],[26.1938,-30.528,1261.5],[26.1973,-30.5316,1261.5],[26.206,-30.5336,1261.5],[26.2186,-30.5317,1263.1196],[26.2298,-30.5354,1262.3972],[26.2563,-30.5394,1264.0347],[26.2631,-30.543,1262.5],[26.2651,-30.5494,1265.1307],[26.2653,-30.5663,1263.0],[26.2696,-30.5715,1269.2023],[26.2805,-30.5781,1275.6416],[26.2804,-30.5814,1269.022],[26.2768,-30.5855,1264.0],[26.2802,-30.5896,1269.7307],[26.291,-30.5918,1264.5],[26.3092,-30.584,1266.395],[26.3164,-30.5825,1269.0974],[26.344,-30.5937,1266.5],[26.356,-30.595,1267.0],[26.3616,-30.5928,1267.0],[26.3723,-30.5816,1268.0],[26.3897,-30.5815,1272.0786],[26.3956,-30.5778,1270.1667],[26.4016,-30.5716,1269.0],[26.4179,-30.5664,1270.8203],[26.4257,-30.5652,1269.5],[26.4356,-30.5665,1270.0],[26.4501,-30.5697,1271.0],[26.4606,-30.5783,1273.0],[26.4789,-30.5893,1277.5012],[26.489,-30.5931,1278.0433],[26.49,-30.6,1280.4987],[26.4857,-30.6131,1278.0],[26.4807,-30.6213,1278.0],[26.4809,-30.6271,1279.6045],[26.4838,-30.6298,1281.6807]]]]}
,"properties": {"GID_2": "ZAF.2.5_1","GID_0": "ZAF","country": "SouthAfrica","GID_1": "ZAF.2_1","province": "FreeState","NL_NAME_1": "NA","county": "Xhariep","VARNAME_2": "NA","NL_NAME_2": "NA","TYPE_2": "DistrictMunicipality","ENGTYPE_2": "DistrictMunicipality","CC_2": "DC16","HASC_2": "ZA.FS.XH","name": "Xhariep.county","area_km2": 37721.06,"hist_schema_id": "Elevation0-9000","hist_area_km2": {"1075": 13.26,"1100": 132.17,"1125": 500.77,"1150": 1213.44,"1175": 1490.69,"1200": 1551.07,"1225": 1597.84,"1250": 1493.99,"1275": 1556.62,"1300": 1930.14,"1325": 2186.12,"1350": 2422.24,"1375": 2320.98,"1400": 2284.52,"1425": 2376.33,"1450": 2427.4,"1475": 2418.85,"1500": 2294.47,"1525": 2117.43,"1550": 1770.03,"1575": 1413.89,"1600": 1010.87,"1625": 589.41,"1650": 281.18,"1675": 110.82,"1700": 59.58,"1725": 39.54,"1750": 25.1,"1775": 20.71,"1800": 15.13,"1825": 11.02,"1850": 10.04,"1875": 8.46,"1900": 5.93,"1925": 4.3,"1950": 4.85,"1975": 3.28,"2000": 3.11,"2025": 2.09,"2050": 2.07,"2075": 0.71}}}