{"type":"Feature","properties":{"GID_3":"ZAF.6.1.2_1","GID_0":"ZAF","country":"SouthAfrica","GID_1":"ZAF.6_1","province":"Mpumalanga","NL_NAME_1":"NA","GID_2":"ZAF.6.1_1","county":"Ehlanzeni","NL_NAME_2":"NA","city":"Mbombela","VARNAME_3":"NA","NL_NAME_3":"NA","TYPE_3":"LocalMunicipality","ENGTYPE_3":"LocalMunicipality","CC_3":"MP322","HASC_3":"NA","name":"Mbombela.city"},
"geometry":{"type": "MultiPolygon","coordinates": [[[[31.1157,-25.6346,925.8463],[31.1233,-25.6407,834.975],[31.1379,-25.6456,1079.9816],[31.1591,-25.6464,1010.9097],[31.1685,-25.6448,973.6159],[31.173,-25.656,759.3859],[31.1942,-25.6438,976.3411],[31.2046,-25.6215,804.247],[31.2371,-25.607,429.873],[31.2387,-25.6027,428.9089],[31.2486,-25.6005,414.6057],[31.2554,-25.6034,409.3696],[31.2673,-25.6031,408.1759],[31.2688,-25.608,409.8968],[31.2732,-25.6134,387.0751],[31.2813,-25.614,389.5655],[31.287,-25.6087,391.1356],[31.2796,-25.6065,458.9998],[31.2929,-25.5828,587.9149],[31.2905,-25.5675,779.8941],[31.2759,-25.5602,867.8182],[31.2787,-25.5411,502.2904],[31.2836,-25.5319,344.03],[31.2927,-25.5386,340.7709],[31.3001,-25.5415,337.8753],[31.3113,-25.5392,325.7543],[31.3134,-25.535,327.7369],[31.3373,-25.522,315.1273],[31.3447,-25.5245,318.6532],[31.3503,-25.5289,311.2793],[31.3567,-25.5296,312.0381],[31.3594,-25.5321,306.4334],[31.3855,-25.5268,302.587],[31.3901,-25.5251,304.0657],[31.3942,-25.5154,298.6771],[31.398,-25.5134,298.2017],[31.4105,-25.5146,303.4012],[31.4143,-25.5106,300.8967],[31.4221,-25.5095,311.2817],[31.4348,-25.5121,289.7736],[31.4461,-25.5061,296.3421],[31.4827,-25.4966,297.9417],[31.4994,-25.4885,295.9088],[31.5154,-25.4768,293.0252],[31.5361,-25.4659,289.6988],[31.5368,-25.4641,291.516],[31.5342,-25.4584,290.3501],[31.5227,-25.4531,277.5043],[31.5207,-25.4508,276.9261],[31.5221,-25.4432,275.3551],[31.5263,-25.4406,272.875],[31.5455,-25.4371,269.5714],[31.5584,-25.4273,263.5161],[31.5602,-25.4181,264.7126],[31.5624,-25.4145,258.8575],[31.5603,-25.4115,272.8788],[31.5634,-25.4017,285.5468],[31.5665,-25.3826,314.4333],[31.5754,-25.3717,289.4559],[31.5816,-25.3596,309.7707],[31.5813,-25.344,335.5518],[31.5848,-25.3349,335.6692],[31.5873,-25.3298,345.2293],[31.6023,-25.3129,316.559],[31.613,-25.2959,306.3869],[31.6142,-25.2888,294.6061],[31.6275,-25.2714,278.8941],[31.6266,-25.2535,299.2737],[31.6213,-25.2423,319.6265],[31.6206,-25.2321,323.9025],[31.6233,-25.2238,335.8663],[31.6224,-25.2124,357.5701],[31.6177,-25.2053,326.2415],[31.6212,-25.1971,333.2177],[31.6228,-25.1874,327.0233],[31.6179,-25.1685,358.9998],[31.6196,-25.1656,349.9839],[31.6126,-25.1545,338.8568],[31.6078,-25.1391,343.6493],[31.608,-25.1325,348.9782],[31.6018,-25.107,361.7625],[31.6031,-25.0956,380.0545],[31.6017,-25.0929,376.0909],[31.6014,-25.0741,371.5657],[31.5987,-25.0615,340.7778],[31.5887,-25.046,334.4046],[31.5893,-25.041,338.165],[31.5864,-25.0251,325.1599],[31.5885,-25.0117,309.9259],[31.5929,-25.0075,299.619],[31.5942,-25.004,300.2628],[31.602,-25.0038,289.1985],[31.6085,-24.9992,280.8393],[31.6109,-24.9892,257.8264],[31.5919,-24.9916,264.469],[31.5871,-24.9859,260.0359],[31.5853,-24.9762,265.1832],[31.5823,-24.9716,263.7251],[31.5718,-24.9671,264.9663],[31.5693,-24.9628,273.3936],[31.5655,-24.9604,267.2256],[31.5513,-24.9626,270.9988],[31.5488,-24.9689,268.3777],[31.5455,-24.9713,274.5026],[31.5338,-24.9707,279.0148],[31.5303,-24.9752,272.9695],[31.5165,-24.9686,273.7338],[31.5046,-24.9703,278.8619],[31.5004,-24.9678,284.9822],[31.4954,-24.9687,279.9389],[31.4911,-24.9752,285.3059],[31.4842,-24.9773,287.7691],[31.4795,-24.9839,289.3204],[31.4742,-24.9872,289.1493],[31.4604,-24.9855,295.2226],[31.455,-24.9881,299.2697],[31.4474,-24.9862,304.8446],[31.4392,-24.9879,307.8152],[31.428,-24.9819,312.5802],[31.4216,-24.9727,313.4626],[31.4118,-24.9691,313.496],[31.3944,-24.9718,315.5469],[31.3811,-24.9646,321.3551],[31.3688,-24.9687,328.4937],[31.3638,-24.9734,329.8877],[31.363,-24.9764,332.8546],[31.3566,-24.9764,340.251],[31.352,-24.9734,339.1934],[31.3448,-24.9775,341.7625],[31.3381,-24.9711,345.1878],[31.3158,-24.9645,356.3286],[31.312,-24.9674,354.6451],[31.3126,-24.977,359.0261],[31.3115,-24.9792,362.3011],[31.3065,-24.9811,367.342],[31.2994,-24.9804,367.7128],[31.2904,-24.9883,373.3015],[31.2868,-24.9883,383.1496],[31.2789,-24.9835,379.2357],[31.2677,-24.9797,382.062],[31.2528,-24.9811,391.5387],[31.2546,-24.9866,396.5135],[31.2495,-24.9943,396.2972],[31.2496,-24.9974,397.1262],[31.2541,-25.0019,409.5385],[31.2531,-25.0053,399.563],[31.2486,-25.0099,399.4913],[31.253,-25.0147,400.3543],[31.2507,-25.018,404.4553],[31.2355,-25.0194,407.1988],[31.183,-25.0189,426.7061],[31.1794,-25.0215,426.5328],[31.1664,-25.0242,435.4118],[31.153199999999998,-25.0226,444.9503],[31.1481,-25.0061,626.7623],[31.1394,-25.0032,633.8834],[31.1413,-24.9966,662.0501],[31.1362,-24.9893,646.2822],[31.1395,-24.9822,704.722],[31.0611,-24.9939,840.2578],[31.0607,-24.9954,871.9694],[31.0642,-25.0005,770.8472],[31.0866,-25.0296,487.0813],[31.082,-25.0314,492.4223],[31.0668,-25.0285,496.365],[31.0611,-25.0316,503.3454],[31.0518,-25.028,501.606],[31.0487,-25.0312,500.6224],[31.037,-25.027,519.6791],[31.0312,-25.031,510.7027],[31.0252,-25.0301,515.3677],[31.0189,-25.0353,534.0544],[31.022,-25.0392,540.0751],[31.0212,-25.0422,551.3914],[31.0072,-25.0467,589.8499],[31.0002,-25.0555,650.1531],[30.9918,-25.0592,677.3245],[30.9899,-25.063,690.6262],[30.9813,-25.0611,716.1428],[30.9816,-25.0649,716.4791],[30.9791,-25.071,726.6553],[30.9824,-25.074,739.0],[30.9781,-25.0751,753.1464],[30.9766,-25.0777,747.2151],[30.9748,-25.0887,765.9333],[30.9731,-25.0898,750.9969],[30.9715,-25.1048,774.3652],[30.9664,-25.1135,782.8164],[30.9679,-25.1217,827.9113],[30.9506,-25.1331,1136.7747],[30.9411,-25.1289,1204.8176],[30.9383,-25.1674,1326.073],[30.9172,-25.2083,1195.282],[30.9302,-25.2181,1191.5442],[30.9541,-25.2558,1022.7414],[30.9782,-25.2902,997.4944],[30.9009,-25.321,1143.775],[30.9457,-25.3577,747.9092],[30.9348,-25.3645,845.6039],[30.8818,-25.3837,891.5662],[30.8973,-25.3972,799.0185],[30.8774,-25.4137,923.6489],[30.7907,-25.3533,1359.1417],[30.7457,-25.3767,1227.4987],[30.7386,-25.3754,1169.8696],[30.7129,-25.3638,1192.9775],[30.7032,-25.3615,1223.5765],[30.7034,-25.3667,1121.1322],[30.6989,-25.365,1155.2095],[30.6972,-25.367,1108.4344],[30.6952,-25.3614,1144.5487],[30.6986,-25.3574,1194.478],[30.6817,-25.3374,1293.9792],[30.6534,-25.3116,1514.7817],[30.6299,-25.285,1446.3132],[30.5889,-25.3218,1387.865],[30.5483,-25.3131,1728.4653],[30.532,-25.3496,1517.5627],[30.485,-25.3489,1071.1455],[30.4492,-25.345,1545.9799],[30.4424,-25.3808,1099.8535],[30.4525,-25.4103,1394.8947],[30.4596,-25.4108,1255.2981],[30.4801,-25.4524,1680.9669],[30.4807,-25.4618,1723.1104],[30.5005,-25.4511,1397.8245],[30.5105,-25.4758,1782.0056],[30.5309,-25.4664,1868.9333],[30.5501,-25.4693,1887.5426],[30.5572,-25.4781,1921.3259],[30.5623,-25.478,1825.2847],[30.5653,-25.4812,2000.2141],[30.5341,-25.536,1927.7889],[30.5408,-25.5544,1824.9664],[30.5739,-25.557,1759.9963],[30.5862,-25.5516,1700.86],[30.5937,-25.5541,1620.9269],[30.6108,-25.5919,942.0434],[30.6326,-25.6297,1709.2119],[30.6257,-25.6373,1718.536],[30.6152,-25.6395,1697.292],[30.6081,-25.6553,1628.556],[30.6656,-25.673,1208.6942],[30.6466,-25.7124,1601.09],[30.7327,-25.7414,1840.2207],[30.75,-25.6389,1638.8602],[30.7606,-25.6343,1651.0127],[30.7789,-25.594,1542.1492],[30.7872,-25.6011,1286.8611],[30.8054,-25.5961,1006.1034],[30.8206,-25.5729,1022.1309],[30.8354,-25.5589,1086.4739],[30.8566,-25.5593,1044.0306],[30.8601,-25.5511,1121.5161],[30.8882,-25.5574,1251.4465],[30.9084,-25.5589,1209.0957],[30.9187,-25.5761,786.236],[30.925,-25.5778,772.9152],[30.9254,-25.5857,746.6252],[30.931,-25.5825,748.3091],[30.933,-25.5894,732.1763],[30.9373,-25.5895,736.7751],[30.9403,-25.5923,725.012],[30.9403,-25.5946,728.1351],[30.9448,-25.5933,714.2233],[30.9486,-25.5947,707.5629],[30.9483,-25.5994,705.6418],[30.9517,-25.5989,705.417],[30.954,-25.6012,703.5553],[30.9575,-25.6012,699.5623],[30.9589,-25.6007,692.3858],[30.9592,-25.5978,710.1235],[30.9615,-25.5977,705.215],[30.9642,-25.6002,682.9777],[30.9676,-25.5999,682.9207],[30.9743,-25.6028,721.7412],[30.9777,-25.6006,764.5123],[30.9872,-25.6048,792.6992],[31.0039,-25.6047,870.9143],[31.0313,-25.6136,859.2475],[31.0481,-25.6141,1006.2949],[31.0821,-25.6209,1258.4761],[31.0979,-25.6292,1080.1976],[31.1157,-25.6346,925.8463]]]]}}