{"type": "Feature","bbox": [26.4075,-25.3224,29.4005,-22.8111],"geometry": {"type": "MultiPolygon","coordinates": [[[[28.3914,-25.3214,1104.6678],[28.4337,-25.3224,1103.2545],[28.4393,-25.3102,1082.0006],[28.5036,-25.3088,1158.9054],[28.5012,-25.2654,1076.6293],[28.5133,-25.2561,1132.7595],[28.5643,-25.2521,1126.0602],[28.5637,-25.2494,1092.5542],[28.5948,-25.2494,1047.2666],[28.6029,-25.2542,1033.8601],[28.6047,-25.2535,1031.4563],[28.6044,-25.2521,1029.344],[28.6313,-25.2802,1056.0458],[28.6593,-25.2348,1007.1438],[28.6643,-25.2518,1052.9321],[28.6712,-25.2477,1017.4661],[28.6691,-25.2414,1014.3054],[28.6757,-25.2347,1008.7713],[28.6756,-25.227,1000.3626],[28.6799,-25.2202,995.5546],[28.6768,-25.2171,991.0802],[28.6786,-25.2108,987.8907],[28.6553,-25.2135,985.9887],[28.6381,-25.1866,976.2468],[28.6381,-25.1839,977.3893],[28.6159,-25.1516,1003.2106],[28.6516,-25.1429,996.2341],[28.6489,-25.1129,1000.2932],[28.635,-25.1183,1001.1304],[28.6361,-25.1281,994.7316],[28.5967,-25.1385,1004.2089],[28.5961,-25.1426,1006.1946],[28.5366,-25.1524,1045.7395],[28.5321,-25.1698,1025.3793],[28.4977,-25.1818,1046.4249],[28.4616,-25.2015,1075.606],[28.4514,-25.2033,1086.3804],[28.3869,-25.2134,1063.2268],[28.411,-25.2048,1075.2112],[28.3919,-25.1642,1110.7148],[28.3793,-25.1553,1089.7759],[28.4005,-25.1478,1095.3468],[28.443,-25.129,1070.1079],[28.4466,-25.1359,1069.5332],[28.4952,-25.1318,1051.2],[28.4737,-25.0893,1047.0042],[28.6069,-25.0704,1006.7924],[28.6095,-25.0599,1000.9346],[28.6343,-25.0582,991.0466],[28.6057,-25.0034,1021.084],[28.6338,-24.9844,1027.5366],[28.6588,-24.9722,1028.7234],[28.7138,-24.9536,1024.4514],[28.7594,-24.9114,1038.6354],[28.8374,-24.916,1018.3555],[28.8464,-24.9333,1020.0236],[28.9241,-24.9015,1020.8388],[28.9142,-24.8891,1013.1633],[28.9384,-24.8732,994.96],[28.9618,-24.9139,987.1351],[28.9894,-24.903199999999998,968.5723],[28.9937,-24.912,967.8374],[29.0559,-24.9123,953.6993],[29.0718,-24.9406,992.7421],[29.0829,-24.9812,935.328],[29.1586,-24.9527,912.8586],[29.1737,-24.9493,896.5772],[29.1831,-24.9399,890.8103],[29.1789,-24.9141,896.7073],[29.1758,-24.9054,902.1364],[29.2039,-24.8957,929.6324],[29.2163,-24.8522,949.8863],[29.2298,-24.8127,937.7599],[29.2644,-24.8122,990.6979],[29.2756,-24.7914,999.101],[29.2707,-24.7785,975.3054],[29.272,-24.7426,934.8972],[29.2474,-24.7136,889.2766],[29.3043,-24.6916,868.41],[29.3699,-24.6634,858.6968],[29.3941,-24.6584,874.8472],[29.3749,-24.6174,845.4281],[29.4005,-24.6085,835.0063],[29.3872,-24.5743,863.4949],[29.3575,-24.5881,845.9878],[29.3345,-24.5557,882.0342],[29.2922,-24.4497,925.371],[29.271,-24.4181,964.7674],[29.2536,-24.3754,1065.3237],[29.2595,-24.3372,1073.7548],[29.2304,-24.3377,1105.8707],[29.1705,-24.3587,1100.5198],[29.1122,-24.3741,1074.6885],[29.0508,-24.3711,1075.5243],[29.0632,-24.2998,1545.2533],[29.0441,-24.298,1334.7159],[29.032,-24.2478,1166.3069],[29.0727,-24.2064,1251.8978],[29.0995,-24.2321,1752.5713],[29.148,-24.2238,1703.2048],[29.1688,-24.2702,1652.636],[29.189,-24.2569,1774.343],[29.1953,-24.2311,1757.0905],[29.1903,-24.2026,1741.3909],[29.1917,-24.1703,1753.4066],[29.2285,-24.1441,1891.49],[29.2342,-24.1454,1890.0363],[29.23,-24.1091,1590.511],[29.2105,-24.0984,1728.5872],[29.188,-24.0929,1687.0315],[29.1853,-24.0704,1547.7635],[29.1621,-24.0793,1469.994],[29.1527,-24.0648,1503.6577],[29.1537,-24.0568,1515.5327],[29.1994,-24.0137,1483.1874],[29.1838,-24.0091,1539.585],[29.1485,-24.0091,1410.0127],[29.0934,-23.9846,1491.5266],[29.0739,-23.9431,1366.7997],[29.0449,-23.9056,1322.046],[29.0055,-23.8982,1222.9905],[28.9821,-23.8778,1195.2937],[28.9984,-23.8412,1226.5833],[28.966,-23.8268,1169.4128],[28.9214,-23.8112,1124.8339],[28.9054,-23.8586,1151.1777],[28.8775,-23.8645,1129.7507],[28.8432,-23.834,1084.3834],[28.8494,-23.8299,1095.262],[28.8549,-23.8068,1077.066],[28.8482,-23.7901,1077.7385],[28.8843,-23.7847,1075.08],[28.8578,-23.7572,1061.0442],[28.8788,-23.6972,1029.4457],[28.8755,-23.6466,1010.0118],[28.9202,-23.6166,1029.7917],[28.9314,-23.5983,1026.2332],[28.9693,-23.5979,1055.575],[28.9101,-23.5445,1002.466],[28.8961,-23.5216,993.8143],[28.8655,-23.4864,976.5878],[28.8274,-23.4538,981.3135],[28.7956,-23.4161,941.4141],[28.7772,-23.3793,940.2253],[28.7605,-23.364,952.9459],[28.7358,-23.3309,981.7885],[28.6851,-23.3361,829.6146],[28.6822,-23.3456,832.1949],[28.6755,-23.353,831.4219],[28.6778,-23.3584,836.7665],[28.6772,-23.3612,833.8569],[28.6698,-23.3643,834.5449],[28.6581,-23.3734,837.505],[28.6576,-23.3792,837.5714],[28.6597,-23.3857,838.0095],[28.6403,-23.394,880.6947],[28.5959,-23.4047,896.8735],[28.593,-23.3785,966.8361],[28.5658,-23.3769,934.2854],[28.5396,-23.351,932.9211],[28.4975,-23.3449,988.9816],[28.474,-23.3122,996.0139],[28.4511,-23.3253,992.2599],[28.4133,-23.3517,1028.9916],[28.387,-23.3163,1077.2084],[28.377,-23.2999,1082.3442],[28.351,-23.304,1018.9709],[28.3555,-23.2834,984.3539],[28.3315,-23.2329,947.1779],[28.3201,-23.204,949.1305],[28.3533,-23.1842,951.9682],[28.3371,-23.1228,981.9988],[28.2912,-23.091,950.9404],[28.2576,-23.1042,932.369],[28.2518,-23.1087,937.5494],[28.2243,-23.0493,902.4067],[28.2211,-23.0014,895.068],[28.2452,-22.998,900.4785],[28.2346,-22.967,867.0445],[28.2001,-22.9314,843.8506],[28.1827,-22.9492,847.8586],[28.1476,-22.916,830.9271],[28.1692,-22.9059,829.8595],[28.1313,-22.8788,805.6862],[28.1534,-22.8692,803.573],[28.1135,-22.845,785.1386],[28.1352,-22.8324,781.689],[28.0969,-22.8111,759.782],[28.0948,-22.8137,759.7665],[28.0861,-22.8155,760.5541],[28.0745,-22.8218,761.1555],[28.068,-22.8278,765.9467],[28.0468,-22.8296,762.9994],[28.0414,-22.8331,765.4343],[28.0392,-22.8425,763.1123],[28.0474,-22.8606,765.5347],[28.0445,-22.8719,766.2629],[28.05,-22.8797,769.2355],[28.0513,-22.8846,766.9526],[28.05,-22.8891,771.4569],[28.0455,-22.8931,766.7651],[28.0456,-22.899,768.4277],[28.0436,-22.9037,765.634],[28.0371,-22.9128,770.2184],[28.0244,-22.92,769.4465],[28.0138,-22.931,769.0413],[27.9936,-22.9374,771.2114],[27.9788,-22.9486,771.9677],[27.9662,-22.9546,775.9693],[27.9611,-22.9599,772.1515],[27.955,-22.9616,775.5002],[27.9484,-22.9611,774.5893],[27.941,-22.9556,773.8259],[27.9358,-22.9618,772.9121],[27.9353,-22.9656,772.9369],[27.9405,-22.9802,775.6829],[27.9427,-22.9942,776.1105],[27.9414,-23.0005,777.4227],[27.9379,-23.0049,781.188],[27.9373,-23.0139,780.9108],[27.9431,-23.028199999999998,780.6698],[27.9436,-23.0357,777.5363],[27.936,-23.0517,779.2751],[27.9276,-23.0574,780.491],[27.9201,-23.0683,784.1125],[27.9159,-23.0699,780.8953],[27.9102,-23.0751,781.8927],[27.8997,-23.0781,781.1218],[27.8949,-23.0828,779.951],[27.8818,-23.0902,782.5962],[27.854,-23.0998,785.0479],[27.8479,-23.1048,782.5863],[27.8327,-23.1089,783.8218],[27.8284,-23.107,784.0199],[27.8226,-23.1081,784.0723],[27.8196,-23.1046,786.7227],[27.8141,-23.1065,783.7279],[27.812,-23.1102,781.9985],[27.8133,-23.1151,786.9822],[27.8189,-23.1196,786.6651],[27.8195,-23.1248,783.0111],[27.8184,-23.1281,785.5469],[27.8121,-23.1304,783.92],[27.8098,-23.1343,784.0376],[27.807,-23.1356,786.1494],[27.7938,-23.1375,784.1649],[27.7911,-23.1414,787.0251],[27.7876,-23.141,787.3627],[27.7819,-23.1431,786.2226],[27.7798,-23.1407,784.0927],[27.7808,-23.1354,787.2021],[27.7785,-23.1318,790.4619],[27.7745,-23.1309,786.9872],[27.7664,-23.1342,785.1555],[27.7653,-23.1424,786.5568],[27.7711,-23.146,790.3562],[27.7833,-23.1577,787.7908],[27.7856,-23.1647,783.9603],[27.7851,-23.1708,785.0851],[27.7809,-23.1769,791.3962],[27.7696,-23.1805,785.9846],[27.7684,-23.1846,790.5591],[27.7596,-23.1906,787.0143],[27.7593,-23.1965,789.3081],[27.7561,-23.1989,793.0347],[27.7541,-23.2038,793.5759],[27.7508,-23.2057,788.2738],[27.7521,-23.2193,788.3344],[27.7416,-23.2304,790.0779],[27.7353,-23.2332,790.8936],[27.726,-23.2329,786.4663],[27.7241,-23.229,792.6064],[27.7199,-23.2305,789.7001],[27.714,-23.2286,791.1647],[27.7118,-23.226,791.4304],[27.7113,-23.2201,791.5067],[27.7037,-23.2037,792.8129],[27.6998,-23.2,795.3467],[27.6893,-23.1962,792.4164],[27.672,-23.2005,791.4106],[27.6677,-23.2052,796.8592],[27.6669,-23.2111,795.2317],[27.6602,-23.2176,793.363],[27.6604,-23.2207,793.5791],[27.6587,-23.2222,794.2234],[27.6524,-23.2219,794.106],[27.6495,-23.2257,793.9475],[27.6408,-23.2248,798.1073],[27.639,-23.2261,794.9141],[27.6213,-23.2181,794.9138],[27.6131,-23.2197,796.6844],[27.6041,-23.2158,792.5878],[27.5997,-23.2176,792.3895],[27.5966,-23.2237,793.6771],[27.5978,-23.2261,795.7325],[27.5961,-23.2344,795.7223],[27.6009,-23.2434,796.1874],[27.6012,-23.2472,800.6867],[27.5915,-23.2568,796.9547],[27.5808,-23.2582,796.0638],[27.5761,-23.2608,796.1878],[27.5729,-23.2653,799.9522],[27.574,-23.2693,797.2371],[27.5731,-23.2722,798.4314],[27.5763,-23.2809,799.7386],[27.5726,-23.2904,798.7213],[27.5731,-23.2942,797.5799],[27.5686,-23.2989,801.5441],[27.5683,-23.303,798.9766],[27.5638,-23.3058,796.8599],[27.5602,-23.3149,801.4844],[27.5707,-23.326,800.8545],[27.5671,-23.3411,797.9335],[27.5628,-23.3496,802.7371],[27.5575,-23.3505,798.6953],[27.5539,-23.3571,801.381],[27.548,-23.3582,797.6195],[27.5417,-23.365,801.233],[27.5385,-23.3658,801.525],[27.5366,-23.3757,802.7857],[27.5323,-23.3778,803.039],[27.5286,-23.3828,800.7258],[27.5287,-23.3853,800.334],[27.523,-23.3873,804.0575],[27.5138,-23.3855,801.9297],[27.5044,-23.3881,803.8499],[27.4956,-23.3841,800.1558],[27.4941,-23.3843,802.6707],[27.4932,-23.3871,804.4319],[27.4828,-23.3846,806.0109],[27.474,-23.3866,804.9712],[27.4711,-23.3845,804.0114],[27.4673,-23.3864,805.2934],[27.4584,-23.3839,806.5438],[27.4553,-23.3858,807.1749],[27.4484,-23.3865,805.228],[27.442,-23.3847,803.7224],[27.4414,-23.3922,806.0151],[27.435,-23.3979,806.5925],[27.4333,-23.4129,805.7529],[27.4306,-23.4164,805.9716],[27.4283,-23.4247,806.8472],[27.4218,-23.4265,805.3472],[27.41,-23.4243,806.6156],[27.4052,-23.42,806.2043],[27.4012,-23.413,810.0104],[27.4102,-23.3996,807.1993],[27.4105,-23.391,809.0931],[27.4072,-23.3888,807.6989],[27.3877,-23.39,809.7323],[27.3772,-23.399,810.1483],[27.3767,-23.4039,812.4781],[27.373,-23.4077,810.5454],[27.3728,-23.41,809.8062],[27.3808,-23.4203,809.5427],[27.3757,-23.4228,812.0543],[27.3743,-23.4271,810.5848],[27.3581,-23.4278,810.6481],[27.352,-23.4272,810.3682],[27.3489,-23.4253,808.46],[27.348,-23.4224,811.8397],[27.3505,-23.4202,814.2065],[27.3523,-23.4139,810.2354],[27.3564,-23.4106,815.1884],[27.3555,-23.4037,809.6058],[27.3571,-23.4016,808.6793],[27.3559,-23.3992,812.0703],[27.3485,-23.3976,810.0148],[27.3298,-23.4031,811.6444],[27.3252,-23.4066,813.7821],[27.3248,-23.4173,813.0908],[27.3201,-23.4207,811.5015],[27.3161,-23.4294,811.8896],[27.3122,-23.4318,812.3092],[27.3119,-23.434,812.3307],[27.3156,-23.4352,815.2994],[27.313,-23.4407,814.4893],[27.3166,-23.4446,814.4704],[27.3167,-23.4466,814.8935],[27.3104,-23.4471,816.7009],[27.3132,-23.4505,817.9677],[27.311,-23.4524,812.4407],[27.3084,-23.4509,816.0863],[27.3054,-23.4532,818.9479],[27.3059,-23.4575,817.0671],[27.303,-23.4627,817.25],[27.2944,-23.4601,818.4345],[27.2876,-23.4623,815.9916],[27.2843,-23.4706,818.5046],[27.2672,-23.4779,819.8131],[27.2636,-23.4781,816.7897],[27.2603,-23.4722,818.0324],[27.2586,-23.4723,818.545],[27.2552,-23.4772,817.8459],[27.2466,-23.4786,820.2016],[27.2428,-23.483,817.37],[27.2391,-23.4829,818.7062],[27.2364,-23.4849,817.8752],[27.2355,-23.4944,816.9913],[27.2333,-23.4959,817.1503],[27.2265,-23.4972,817.1949],[27.2238,-23.4947,817.1631],[27.2261,-23.4851,819.0497],[27.2093,-23.49,819.2017],[27.2073,-23.4921,819.4448],[27.1924,-23.4981,822.8405],[27.194,-23.5146,820.5704],[27.1996,-23.5155,820.6569],[27.2026,-23.519,820.5531],[27.209,-23.5214,820.7994],[27.2109,-23.526,818.913],[27.2104,-23.5274,820.5858],[27.2048,-23.5268,822.401],[27.2019,-23.5287,821.4106],[27.201,-23.5343,820.3212],[27.197,-23.5347,820.5952],[27.1937,-23.5315,821.4673],[27.1918,-23.534,822.2879],[27.1882,-23.533,822.3558],[27.1722,-23.5219,822.3371],[27.1661,-23.5247,825.2238],[27.1674,-23.5286,824.9064],[27.1647,-23.5364,821.6096],[27.1599,-23.5371,822.3757],[27.159,-23.5332,822.6953],[27.1564,-23.5354,820.4447],[27.1548,-23.5346,823.1694],[27.1544,-23.5304,821.065],[27.1479,-23.5238,822.0547],[27.1437,-23.5248,823.5173],[27.1382,-23.5228,822.4913],[27.1348,-23.5239,823.6774],[27.1333,-23.5286,823.072],[27.1376,-23.5269,823.1401],[27.1395,-23.5288,825.7563],[27.1348,-23.5336,823.6401],[27.1346,-23.5436,827.6207],[27.14,-23.5533,825.0106],[27.1484,-23.5513,826.2643],[27.15,-23.5594,827.4142],[27.1548,-23.5692,820.111],[27.1508,-23.5676,827.1378],[27.1508,-23.5721,824.3832],[27.1458,-23.5748,825.6461],[27.1408,-23.5728,828.0615],[27.1299,-23.5741,827.1007],[27.1312,-23.5694,828.6941],[27.1245,-23.5686,828.5374],[27.1172,-23.5622,827.0504],[27.1171,-23.5665,827.7811],[27.1133,-23.5705,826.6523],[27.1101,-23.5704,830.5123],[27.108,-23.5674,830.2809],[27.1083,-23.5791,826.418],[27.1065,-23.5833,826.1115],[27.1086,-23.5903,824.3615],[27.1055,-23.5975,828.7315],[27.0997,-23.599,829.1768],[27.0997,-23.6029,829.2238],[27.0941,-23.6006,830.6792],[27.0816,-23.5989,829.2794],[27.0795,-23.6001,829.5003],[27.0797,-23.6072,831.7535],[27.0851,-23.609,829.4487],[27.08,-23.6135,829.1713],[27.0736,-23.6145,831.8004],[27.071,-23.6119,831.1804],[27.0726,-23.6094,832.0279],[27.0594,-23.6126,829.3033],[27.063,-23.6256,832.837],[27.0649,-23.6273,828.7125],[27.0688,-23.6256,832.0146],[27.0699,-23.6301,829.8303],[27.0742,-23.6321,828.3644],[27.0752,-23.6358,828.9987],[27.0812,-23.6433,837.3304],[27.0788,-23.6481,831.5662],[27.0813,-23.6551,829.083],[27.0776,-23.6539,830.4499],[27.0746,-23.6548,830.577],[27.0775,-23.6576,830.8062],[27.0778,-23.6608,829.5804],[27.0737,-23.6637,828.8757],[27.0706,-23.6707,829.1499],[27.0644,-23.6709,830.4379],[27.0588,-23.6762,832.5961],[27.0456,-23.6827,831.8304],[27.038,-23.6827,835.0762],[27.0311,-23.6757,832.7104],[27.035,-23.6677,832.2736],[27.0366,-23.6565,834.2758],[27.0329,-23.6569,831.8328],[27.031,-23.6598,835.3648],[27.0274,-23.66,835.1593],[27.0213,-23.6552,837.4203],[27.026,-23.651,838.314],[27.0257,-23.6445,837.0922],[27.0194,-23.6438,834.6485],[27.0111,-23.6378,839.088],[27.0081,-23.6427,836.4902],[27.0028,-23.6443,837.1497],[26.9997,-23.6524,829.0],[26.9957,-23.6527,836.1081],[26.9971,-23.6559,835.0433],[27.0009,-23.6579,838.4133],[27.0026,-23.6647,834.1647],[27.0018,-23.6702,835.103],[26.9993,-23.6719,834.9413],[26.9978,-23.6772,838.8157],[27.0024,-23.6881,836.5892],[26.9794,-23.6966,837.2338],[26.9711,-23.7028,837.9062],[26.9735,-23.7071,839.4888],[26.9743,-23.7134,839.8405],[26.9701,-23.7163,839.3235],[26.9683,-23.7234,838.4713],[26.9705,-23.728,840.0764],[26.9666,-23.7299,840.3378],[26.9667,-23.7337,840.2864],[26.9614,-23.7469,839.2529],[26.9654,-23.7545,839.2814],[26.9628,-23.7635,840.2938],[26.9655,-23.7689,840.1239],[26.9638,-23.7714,841.3066],[26.964,-23.7771,841.1418],[26.9575,-23.784,842.3207],[26.9519,-23.794,839.2546],[26.9534,-23.8055,841.3667],[26.9491,-23.8139,840.0287],[26.9488,-23.8235,841.2059],[26.9545,-23.8262,840.9797],[26.9587,-23.8308,840.245],[26.9509,-23.8415,842.6231],[26.9398,-23.8439,841.5726],[26.9323,-23.8511,840.6716],[26.9339,-23.8568,844.0752],[26.937,-23.8564,846.3513],[26.9432,-23.8595,846.7482],[26.9474,-23.8598,843.8619],[26.951,-23.8627,843.6326],[26.9539,-23.8671,845.2082],[26.9553,-23.8736,849.0642],[26.9527,-23.8784,845.451],[26.9485,-23.8804,844.6447],[26.9428,-23.8867,844.0469],[26.9434,-23.89,847.1341],[26.9412,-23.894,845.868],[26.9425,-23.9034,845.2347],[26.9278,-23.9224,848.2306],[26.9317,-23.9368,846.5283],[26.9322,-23.9554,846.9504],[26.9268,-23.9613,850.0333],[26.9214,-23.9637,848.4271],[26.9146,-23.9714,849.0782],[26.9111,-23.9889,854.3986],[26.9128,-23.9962,850.9832],[26.9106,-23.9995,853.288],[26.9101,-24.004,855.444],[26.9125,-24.012,854.9637],[26.9093,-24.0284,853.0966],[26.9038,-24.0327,854.0634],[26.8942,-24.0446,857.9766],[26.8892,-24.0548,852.176],[26.8889,-24.0746,856.2685],[26.8838,-24.0916,854.1312],[26.8779,-24.0957,856.167],[26.8632,-24.0997,858.5613],[26.8602,-24.1066,857.6653],[26.8642,-24.1124,859.2156],[26.8676,-24.1239,861.6573],[26.8617,-24.1385,859.1552],[26.8665,-24.1437,858.9019],[26.8745,-24.147,858.258],[26.8791,-24.1601,859.5461],[26.8787,-24.1656,857.7258],[26.8759,-24.1691,862.7544],[26.8715,-24.1714,861.5681],[26.8655,-24.172,860.2631],[26.8645,-24.1791,863.1843],[26.8675,-24.1821,863.8079],[26.8687,-24.1904,861.6989],[26.8718,-24.1912,861.4899],[26.8755,-24.1895,865.0538],[26.8798,-24.1914,865.2139],[26.8812,-24.1877,864.47],[26.8833,-24.1896,863.725],[26.8801,-24.1929,865.2139],[26.8809,-24.1965,863.0081],[26.8786,-24.1962,865.2753],[26.8794,-24.201,864.1378],[26.873,-24.2069,863.7704],[26.871,-24.2152,862.1852],[26.8622,-24.2163,863.0587],[26.8626,-24.2197,863.3784],[26.8593,-24.2231,863.0587],[26.8605,-24.2299,864.7745],[26.8618,-24.2315,863.9329],[26.8639,-24.2305,864.4414],[26.8646,-24.2351,865.2037],[26.8625,-24.2362,864.5359],[26.8626,-24.238,864.5923],[26.866,-24.2392,864.6736],[26.8668,-24.2427,865.6041],[26.8691,-24.2441,864.3915],[26.8653,-24.2457,865.3781],[26.8664,-24.2481,865.6333],[26.8644,-24.2495,867.4487],[26.8659,-24.251,865.5347],[26.8595,-24.2531,865.5339],[26.8591,-24.2554,866.265],[26.8575,-24.2549,865.3058],[26.8548,-24.2597,866.0036],[26.8561,-24.2604,866.0036],[26.8557,-24.2635,866.3528],[26.854,-24.2637,866.6527],[26.8537,-24.2622,865.1501],[26.8513,-24.263,865.4114],[26.8517,-24.2643,865.4114],[26.85,-24.265,865.4104],[26.8514,-24.2675,865.6716],[26.8495,-24.2663,865.6277],[26.8473,-24.2696,865.3458],[26.8457,-24.2693,865.9382],[26.8427,-24.2744,865.3316],[26.8408,-24.2747,865.7105],[26.8389,-24.2709,866.7169],[26.8385,-24.2726,865.9492],[26.8356,-24.2734,867.7313],[26.834,-24.2701,867.129],[26.8328,-24.2742,868.1275],[26.8286,-24.2708,868.1931],[26.829,-24.273,867.5307],[26.825,-24.273,867.9715],[26.8233,-24.2797,867.7469],[26.8223,-24.2783,867.8625],[26.8188,-24.2792,868.9735],[26.8194,-24.2819,868.2235],[26.8144,-24.2852,869.1931],[26.8156,-24.2866,868.311],[26.8108,-24.2855,868.9767],[26.8099,-24.2882,868.7059],[26.8077,-24.2876,868.8658],[26.8084,-24.2894,869.3218],[26.8054,-24.2877,869.0505],[26.8013,-24.2881,868.3646],[26.8033,-24.2919,869.191],[26.8019,-24.2944,869.6774],[26.803,-24.2964,869.7657],[26.8008,-24.2998,871.2905],[26.7975,-24.2986,870.6766],[26.7978,-24.3009,870.6362],[26.7897,-24.3013,870.3114],[26.7858,-24.3066,870.173],[26.7839,-24.3054,870.534],[26.7816,-24.299,870.9267],[26.7807,-24.3003,870.8965],[26.7757,-24.3007,870.7989],[26.7765,-24.3022,871.1388],[26.7733,-24.3051,871.1563],[26.7668,-24.3058,871.2086],[26.7653,-24.3044,871.5135],[26.7635,-24.3057,871.3573],[26.7625,-24.3104,872.3152],[26.7545,-24.3112,873.5393],[26.755,-24.3126,872.3273],[26.7519,-24.3132,872.5878],[26.7461,-24.3114,872.1932],[26.7471,-24.3065,872.6244],[26.742,-24.3044,872.9563],[26.7412,-24.3067,873.8064],[26.7392,-24.3043,873.4795],[26.7334,-24.3041,873.7722],[26.7311,-24.3085,873.9078],[26.729,-24.3089,873.3557],[26.731,-24.3111,874.1771],[26.7286,-24.3115,874.004],[26.7296,-24.3125,874.1615],[26.7277,-24.3128,874.004],[26.7279,-24.315,874.4879],[26.7264,-24.3136,874.2309],[26.7228,-24.3165,874.4445],[26.7201,-24.3167,874.5906],[26.7201,-24.3198,875.0812],[26.7165,-24.3189,874.5574],[26.7156,-24.3206,874.7432],[26.7113,-24.3209,875.2651],[26.7116,-24.3192,875.2577],[26.7099,-24.3182,874.8906],[26.7096,-24.32,875.0818],[26.7076,-24.3202,875.3053],[26.709,-24.3216,875.6199],[26.7064,-24.3202,875.3108],[26.704,-24.3218,875.168],[26.7052,-24.3248,875.6301],[26.7021,-24.3255,876.1663],[26.7008,-24.3306,876.3681],[26.7025,-24.3323,875.7476],[26.7005,-24.333,876.9636],[26.7026,-24.3347,876.4779],[26.6969,-24.3357,877.0789],[26.697,-24.3392,877.2167],[26.689,-24.3367,876.9529],[26.6852,-24.3381,877.2126],[26.6841,-24.342,877.9173],[26.6757,-24.344,877.5582],[26.6755,-24.3461,877.8489],[26.6767,-24.345,878.4243],[26.6776,-24.3463,878.3774],[26.6748,-24.3487,878.2159],[26.6757,-24.3512,878.2778],[26.6742,-24.3502,878.2657],[26.674,-24.3518,878.6589],[26.6724,-24.3512,878.4082],[26.671,-24.3546,878.7675],[26.6686,-24.3536,878.4694],[26.6702,-24.3559,878.7675],[26.6678,-24.3551,878.965],[26.6672,-24.3605,879.4636],[26.6641,-24.362,878.9846],[26.6657,-24.362,879.7947],[26.6681,-24.3669,880.311],[26.6701,-24.3675,879.9111],[26.6689,-24.3727,879.7959],[26.667,-24.3719,880.1897],[26.6652,-24.3737,880.4987],[26.6671,-24.3744,879.3962],[26.6647,-24.3775,880.735],[26.6657,-24.3787,880.6017],[26.6629,-24.3795,881.5827],[26.6637,-24.3812,881.7336],[26.6576,-24.3816,881.2858],[26.6587,-24.385,881.9432],[26.6551,-24.3859,882.2318],[26.6466,-24.3818,882.7948],[26.6441,-24.383,882.6844],[26.6444,-24.3845,882.6844],[26.6356,-24.3875,882.4466],[26.6373,-24.3902,883.2119],[26.6354,-24.3899,883.0143],[26.636,-24.392,883.3055],[26.6346,-24.392,883.3055],[26.6327,-24.3956,884.1487],[26.6256,-24.3937,884.2211],[26.619,-24.3995,884.7134],[26.6171,-24.3984,885.2107],[26.6139,-24.4025,884.6864],[26.6131,-24.4066,884.7859],[26.6085,-24.4071,885.7111],[26.6031,-24.4103,886.0468],[26.6001,-24.409,885.6287],[26.5975,-24.4102,887.1664],[26.5959,-24.4086,886.0175],[26.5946,-24.4102,886.1755],[26.5902,-24.4092,886.6195],[26.5875,-24.4107,886.7982],[26.5898,-24.4123,888.3365],[26.5882,-24.4127,886.8892],[26.5861,-24.4207,888.7189],[26.5853,-24.4223,888.2966],[26.5816,-24.4229,888.1265],[26.5818,-24.4263,888.2147],[26.5841,-24.4264,888.4356],[26.5814,-24.429,888.3829],[26.5789,-24.4286,888.5178],[26.5752,-24.431,888.8696],[26.5737,-24.4329,888.9449],[26.5762,-24.4332,888.755],[26.5746,-24.4346,889.6675],[26.5713,-24.4336,889.1569],[26.5656,-24.4361,888.5289],[26.5677,-24.4364,889.498],[26.5682,-24.438,889.7405],[26.566,-24.4392,889.616],[26.566,-24.4445,890.3144],[26.5624,-24.4478,889.8345],[26.5597,-24.4536,890.5374],[26.5527,-24.4518,890.4561],[26.5509,-24.4544,891.2975],[26.5502,-24.461,891.5731],[26.5467,-24.4654,892.7776],[26.5407,-24.4634,892.4863],[26.538,-24.4662,892.7545],[26.5386,-24.4697,893.3951],[26.536,-24.4727,893.2964],[26.5363,-24.4751,892.7881],[26.528199999999998,-24.4763,894.3013],[26.528199999999998,-24.4776,894.3013],[26.53,-24.4776,894.8906],[26.5292,-24.479,894.4403],[26.5266,-24.4785,894.6529],[26.5194,-24.4842,895.004],[26.5103,-24.488,895.4191],[26.5117,-24.4952,896.1986],[26.5096,-24.4946,896.5001],[26.511,-24.4995,897.5348],[26.5102,-24.5028,896.8434],[26.5065,-24.5049,899.0834],[26.506,-24.5069,899.7568],[26.5029,-24.5064,899.6641],[26.5015,-24.5084,899.4006],[26.5011,-24.51,899.0212],[26.5028,-24.5106,899.0832],[26.5011,-24.5138,900.5115],[26.5002,-24.5228,899.7529],[26.4925,-24.5344,901.4237],[26.4927,-24.5361,901.1507],[26.4897,-24.5386,899.4133],[26.4877,-24.5511,901.7959],[26.4812,-24.5571,902.5099],[26.482,-24.5669,902.6058],[26.4716,-24.5882,904.7097],[26.4616,-24.5963,905.0057],[26.4518,-24.6106,906.3752],[26.4474,-24.6131,906.498],[26.4415,-24.6119,907.2721],[26.4394,-24.6152,910.3019],[26.4331,-24.6185,907.6917],[26.4282,-24.6195,909.7352],[26.4263,-24.6178,906.4877],[26.4222,-24.6251,907.675],[26.4214,-24.634,908.1089],[26.4153,-24.6408,911.2783],[26.4101,-24.6438,916.7165],[26.4075,-24.6494,917.0706],[26.4276,-24.6582,917.9784],[26.427,-24.6652,917.3152],[26.4218,-24.6708,917.9166],[26.4228,-24.6817,918.3557],[26.4213,-24.6916,922.3243],[26.4272,-24.6967,923.5491],[26.4197,-24.716,925.8019],[26.4226,-24.7206,925.7121],[26.4182,-24.729,926.6656],[26.4282,-24.7538,928.7001],[26.4269,-24.7579,928.3528],[26.4296,-24.7654,929.0511],[26.426,-24.7712,929.3276],[26.4354,-24.7829,931.5158],[26.4446,-24.7908,930.4816],[26.4483,-24.7921,931.1399],[26.454,-24.7888,931.0762],[26.4595,-24.7905,932.3525],[26.4616,-24.7953,931.3709],[26.4613,-24.8001,934.3211],[26.4583,-24.8095,933.486],[26.5286,-24.8138,1121.6119],[26.5665,-24.8199,1106.429],[26.601,-24.8158,1045.8368],[26.622,-24.8099,1030.9932],[26.6993,-24.8673,1138.1487],[26.7051,-24.857,1103.9502],[26.7513,-24.883,1096.6473],[26.7795,-24.8377,1092.3114],[26.9433,-24.7814,1114.5471],[26.9426,-24.7763,1107.4757],[26.9807,-24.7758,1100.9968],[26.9759,-24.7207,1053.3055],[27.0263,-24.7186,1067.561],[27.0412,-24.887,1066.0476],[27.1012,-24.9,1023.1591],[27.1439,-24.9462,1012.5939],[27.1541,-24.979,1031.6758],[27.1834,-24.9485,1011.1043],[27.2261,-24.9639,1001.4678],[27.2091,-24.9956,1004.7948],[27.2035,-25.0332,1027.9099],[27.2317,-25.0361,1044.8972],[27.2236,-25.0674,1055.688],[27.2719,-25.0367,1042.8265],[27.3136,-25.0421,1085.832],[27.337,-25.0878,1122.7061],[27.3825,-25.08,1125.8624],[27.4246,-25.0689,1071.7811],[27.4313,-25.0821,1074.4253],[27.4818,-25.0671,1023.843],[27.4869,-25.0784,1126.234],[27.498,-25.0732,988.7766],[27.5212,-25.076,943.0264],[27.5212,-25.0797,942.6392],[27.5339,-25.0833,996.1863],[27.5323,-25.0944,956.373],[27.5428,-25.098,943.8389],[27.5436,-25.0959,945.9973],[27.5653,-25.0827,1036.8116],[27.5654,-25.0797,1044.4824],[27.5598,-25.0773,1232.5352],[27.5678,-25.0594,1201.4777],[27.594,-25.0294,1008.4968],[27.5975,-24.9849,1014.8673],[27.6286,-24.9737,1146.1681],[27.6847,-24.9858,1052.9425],[27.6873,-24.9944,1058.2402],[27.7388,-24.9831,1133.0902],[27.7591,-24.9689,1109.0708],[27.7889,-24.9665,1127.7942],[27.8217,-24.9746,1164.8651],[27.8331,-24.9735,1157.1812],[27.8867,-24.9883,1069.5817],[27.9129,-24.9911,1051.8848],[27.9465,-25.0012,1025.5266],[27.955,-24.9702,1036.8042],[27.9752,-24.965699999999998,1046.3279],[27.9836,-24.9578,1056.3074],[27.9976,-24.9735,1043.4056],[28.0178,-24.9741,1057.0403],[28.037,-24.9853,1084.2793],[28.0378,-24.9838,1082.0386],[28.0801,-24.9795,1092.467],[28.12,-24.9795,1103.6392],[28.1252,-25.0048,1120.7861],[28.1587,-25.0206,1107.0024],[28.2598,-25.0504,1061.6968],[28.2171,-25.113,1066.2085],[28.2171,-25.1229,1069.8569],[28.215,-25.1282,1064.6544],[28.1983,-25.1276,1048.9996],[28.1738,-25.12,1032.0435],[28.1751,-25.1136,1030.7778],[28.1539,-25.0868,1079.974],[28.1179,-25.0981,1082.3951],[28.0839,-25.1004,1083.5385],[28.0944,-25.1485,1027.0637],[28.129,-25.1457,1017.8536],[28.1357,-25.2056,1023.6177],[28.1695,-25.2094,1033.6831],[28.2112,-25.1981,1037.6553],[28.2463,-25.2129,1042.9185],[28.2598,-25.2387,1047.3221],[28.2982,-25.2932,1055.8541],[28.2982,-25.3104,1058.1809],[28.3792,-25.2921,1087.4193],[28.3826,-25.3211,1097.0343],[28.3914,-25.3214,1104.6678]]]]}
,"properties": {"GID_2": "ZAF.5.5_1","GID_0": "ZAF","country": "SouthAfrica","GID_1": "ZAF.5_1","province": "Limpopo","NL_NAME_1": "NA","county": "Waterberg","VARNAME_2": "NA","NL_NAME_2": "NA","TYPE_2": "DistrictMunicipality","ENGTYPE_2": "DistrictMunicipality","CC_2": "DC36","HASC_2": "ZA.NP.WA","name": "Waterberg.county","area_km2": 45012.69,"hist_schema_id": "Elevation0-9000","hist_area_km2": {"750": 1.23,"775": 122.47,"800": 695.46,"825": 1401.02,"850": 1687.97,"875": 2373.06,"900": 2999.42,"925": 3206.27,"950": 3266.5,"975": 2813.93,"1000": 2735.36,"1025": 2574.68,"1050": 2348.34,"1075": 2426.69,"1100": 1810.08,"1125": 1328.86,"1150": 1140.11,"1175": 1066.94,"1200": 1055.1,"1225": 1047.01,"1250": 1034.72,"1275": 1028.8,"1300": 945.96,"1325": 822.55,"1350": 760.15,"1375": 678.25,"1400": 593.78,"1425": 500.14,"1450": 440.06,"1475": 394.5,"1500": 331.3,"1525": 292.74,"1550": 257.64,"1575": 204.7,"1600": 163.43,"1625": 123.38,"1650": 100.0,"1675": 79.95,"1700": 59.63,"1725": 37.1,"1750": 22.79,"1775": 14.42,"1800": 8.26,"1825": 5.02,"1850": 2.95,"1875": 2.34,"1900": 2.24,"1925": 1.41,"1950": 1.22,"1975": 0.96,"2000": 0.73,"2025": 0.54,"2050": 0.44}}}