{"type": "Feature","bbox": [27.6663,-32.9077,28.3849,-32.4562],"geometry": {"type": "MultiPolygon","coordinates": [[[[28.0745,-32.9076,0.0],[28.0747,-32.9077,0.0],[28.0749,-32.9077,0.0],[28.0749,-32.9076,0.0],[28.0745,-32.9076,0.0]]],
[[[28.0739,-32.9074,0.0],[28.0743,-32.9076,0.0],[28.0743,-32.9074,0.0],[28.0739,-32.9074,0.0]]],
[[[28.0734,-32.9071,0.0],[28.0737,-32.9073,0.0],[28.0738,-32.9073,0.0],[28.0738,-32.9071,0.0],[28.0734,-32.9071,0.0]]],
[[[28.1719,-32.5752,59.2046],[28.169,-32.5692,60.9354],[28.1697,-32.5656,60.6891],[28.1796,-32.5614,68.0926],[28.1902,-32.554,66.0279],[28.1946,-32.5447,79.5033],[28.1934,-32.5383,108.8111],[28.1924,-32.5369,230.5149],[28.179,-32.5336,72.6185],[28.1633,-32.5391,77.3423],[28.1544,-32.535,96.4715],[28.1502,-32.527,83.7587],[28.1445,-32.5079,97.8397],[28.1389,-32.5004,181.1921],[28.1295,-32.4927,93.9186],[28.1222,-32.4929,93.3111],[28.1178,-32.497,151.2155],[28.1173,-32.5,105.6988],[28.1184,-32.5037,92.9782],[28.1317,-32.519,104.8932],[28.1292,-32.525,105.7722],[28.1075,-32.5264,127.4653],[28.0922,-32.5189,124.7188],[28.0868,-32.5187,133.9177],[28.0792,-32.5215,119.5309],[28.0647,-32.5359,120.5469],[28.0532,-32.5397,149.6203],[28.0487,-32.5381,128.7989],[28.0467,-32.5343,139.0488],[28.0473,-32.5256,131.745],[28.0451,-32.5132,128.9744],[28.0472,-32.5058,134.671],[28.0455,-32.5016,135.0876],[28.0428,-32.5,139.5479],[28.0388,-32.4995,188.7398],[28.0355,-32.5011,146.909],[28.0249,-32.5087,196.5503],[28.0219,-32.5149,151.7874],[28.0198,-32.5158,142.9236],[28.0148,-32.5149,147.4501],[27.9999,-32.5079,148.0],[27.9895,-32.5081,159.8093],[27.983,-32.5098,166.5166],[27.9753,-32.5089,153.7541],[27.9729,-32.5073,153.8242],[27.9612,-32.5083,160.3792],[27.9556,-32.5065,158.5522],[27.9462,-32.4958,173.0123],[27.9467,-32.4897,227.6968],[27.9517,-32.4849,164.6566],[27.9566,-32.4842,167.0307],[27.9649,-32.4788,196.4745],[27.9689,-32.4733,172.2375],[27.9699,-32.4689,195.4962],[27.9668,-32.4631,173.7629],[27.9596,-32.4584,179.562],[27.955,-32.4605,190.2948],[27.9549,-32.4684,178.645],[27.9458,-32.4765,226.1819],[27.9296,-32.4723,181.9756],[27.9104,-32.462,187.6625],[27.903199999999998,-32.4562,252.8123],[27.8939,-32.4562,198.0905],[27.8911,-32.4637,203.4786],[27.8858,-32.4705,249.83],[27.8761,-32.4774,257.0918],[27.8845,-32.4961,237.3945],[27.8829,-32.5014,236.0887],[27.8784,-32.5042,240.5107],[27.8748,-32.5027,261.8238],[27.8731,-32.5002,285.7266],[27.8646,-32.4831,274.018],[27.8577,-32.4805,285.9937],[27.8587,-32.4723,292.9395],[27.857,-32.4704,275.4599],[27.8487,-32.4723,285.727],[27.8418,-32.4761,287.8408],[27.8208,-32.4719,314.9957],[27.8189,-32.4751,303.0269],[27.8192,-32.4795,304.7999],[27.8273,-32.4913,305.6958],[27.8262,-32.494,308.1957],[27.823,-32.4959,312.9497],[27.8149,-32.49,315.6087],[27.8106,-32.4912,318.0762],[27.7972,-32.4901,325.3229],[27.7939,-32.4912,329.2719],[27.7891,-32.4895,331.0809],[27.7876,-32.4869,370.2344],[27.79,-32.4736,353.7224],[27.7883,-32.4702,345.2392],[27.7858,-32.4693,365.7485],[27.7711,-32.478,354.2184],[27.7649,-32.4845,359.3902],[27.7698,-32.4934,421.165],[27.7909,-32.5039,415.6696],[27.7891,-32.5151,385.2797],[27.7903,-32.5273,405.7518],[27.788,-32.5276,388.3517],[27.7768,-32.5197,394.892],[27.7702,-32.5182,466.5961],[27.7642,-32.5082,410.6281],[27.7615,-32.5092,435.0016],[27.7578,-32.5161,413.7232],[27.7515,-32.5141,419.0815],[27.7426,-32.5145,421.7558],[27.7402,-32.5048,435.1291],[27.736,-32.5004,486.4363],[27.7317,-32.4999,441.6417],[27.7328,-32.5055,443.8535],[27.7296,-32.5112,447.8022],[27.7323,-32.5158,467.4716],[27.7326,-32.521,454.9002],[27.7285,-32.5309,468.9151],[27.7356,-32.5341,539.3698],[27.7353,-32.5404,536.845],[27.7496,-32.5524,503.3929],[27.75,-32.5541,516.587],[27.7483,-32.5551,508.804],[27.742,-32.5524,532.0852],[27.7312,-32.5524,536.3437],[27.7275,-32.5573,550.6251],[27.7288,-32.5595,563.5517],[27.731,-32.5596,592.1703],[27.7303,-32.568,625.4675],[27.7344,-32.5714,635.8369],[27.7346,-32.5746,652.6896],[27.7269,-32.5895,754.6317],[27.7292,-32.6163,814.692],[27.7039,-32.6292,755.7233],[27.6849,-32.6498,635.7795],[27.6663,-32.6627,532.0736],[27.6775,-32.6609,524.5575],[27.68,-32.6563,522.249],[27.6835,-32.6573,521.1485],[27.6853,-32.6557,527.5435],[27.6912,-32.6573,520.642],[27.6898,-32.6639,517.1807],[27.6864,-32.6621,519.1823],[27.6851,-32.6636,515.3266],[27.6882,-32.667,516.2865],[27.6937,-32.6656,514.692],[27.693,-32.6698,512.74],[27.6873,-32.6708,506.2255],[27.684,-32.6679,517.3282],[27.6805,-32.6723,503.4009],[27.6884,-32.6752,497.0237],[27.6944,-32.6751,510.5822],[27.6966,-32.6736,490.6192],[27.6952,-32.6712,498.9607],[27.6962,-32.6706,498.986],[27.7017,-32.6771,479.5869],[27.7062,-32.6777,477.1935],[27.7083,-32.6756,488.0869],[27.7102,-32.6793,478.9771],[27.705,-32.6822,474.0012],[27.7048,-32.6845,472.4708],[27.7067,-32.686,466.3733],[27.7141,-32.6858,465.5223],[27.715,-32.6849,475.2314],[27.7126,-32.6811,488.8463],[27.7191,-32.68,482.3531],[27.7218,-32.6861,458.5022],[27.7265,-32.6865,459.25],[27.7297,-32.6896,457.7789],[27.73,-32.6921,459.7174],[27.7262,-32.6942,458.2397],[27.727,-32.7008,456.4274],[27.7356,-32.7012,464.1089],[27.7395,-32.7066,443.6273],[27.7365,-32.71,419.7668],[27.7372,-32.7122,415.1723],[27.7413,-32.7125,408.936],[27.7439,-32.7098,402.5797],[27.7482,-32.7109,392.2227],[27.7522,-32.7083,389.7016],[27.7532,-32.7113,381.9914],[27.7521,-32.7147,380.4418],[27.7567,-32.7198,359.4528],[27.7615,-32.7163,358.9344],[27.7648,-32.7178,399.5699],[27.7597,-32.7278,353.9351],[27.7612,-32.7374,340.141],[27.7644,-32.7388,331.2033],[27.7743,-32.7378,347.9458],[27.7754,-32.7393,335.2341],[27.7742,-32.7469,344.3636],[27.781,-32.749,309.3856],[27.7869,-32.7489,309.3086],[27.789,-32.7535,380.9375],[27.7906,-32.7524,316.8825],[27.7921,-32.7461,330.0924],[27.7946,-32.7461,306.2185],[27.7953,-32.7533,309.2867],[27.7979,-32.7559,289.6512],[27.8026,-32.7562,295.3342],[27.8041,-32.7642,287.996],[27.8152,-32.7611,275.2735],[27.8162,-32.7662,336.8674],[27.8101,-32.7738,268.3633],[27.8094,-32.78,264.2791],[27.8177,-32.7825,262.8107],[27.83,-32.7803,260.9221],[27.8337,-32.7842,249.3135],[27.8329,-32.7866,309.4932],[27.8284,-32.7892,246.6106],[27.8235,-32.7955,300.8249],[27.8228,-32.8044,264.5872],[27.8258,-32.8102,238.9142],[27.8251,-32.814,236.0151],[27.8264,-32.8153,240.4447],[27.8286,-32.8154,252.9435],[27.8423,-32.8074,228.5294],[27.8471,-32.803,220.1184],[27.8448,-32.794,207.5182],[27.8498,-32.7916,205.4687],[27.8524,-32.7927,225.3388],[27.856,-32.7965,199.8986],[27.8551,-32.8012,201.1328],[27.8566,-32.803,215.0757],[27.8585,-32.7973,214.456],[27.8645,-32.7942,269.8033],[27.8644,-32.7863,324.7429],[27.8772,-32.7871,350.671],[27.8829,-32.7855,349.6463],[27.8858,-32.7741,400.7444],[27.8904,-32.7723,384.0056],[27.8969,-32.7658,385.9197],[27.8999,-32.7565,404.7991],[27.9054,-32.7583,414.9915],[27.9321,-32.7444,378.5702],[27.9498,-32.74,307.0726],[27.9471,-32.7524,251.5507],[27.9286,-32.7742,444.693],[27.9504,-32.8057,317.3651],[27.9615,-32.8242,289.3902],[27.9615,-32.8286,243.5479],[27.9635,-32.8314,194.5743],[27.965,-32.8282,217.3619],[27.9683,-32.8268,234.4125],[27.9737,-32.8292,248.2863],[27.9755,-32.8279,274.5481],[27.9812,-32.8414,170.8962],[27.9825,-32.8518,167.3214],[27.9979,-32.8584,167.3623],[27.9979,-32.8622,130.8943],[28.0075,-32.8644,159.8946],[28.0072,-32.8694,124.0511],[28.0182,-32.8769,120.1301],[28.0228,-32.8824,120.0229],[28.0348,-32.8805,22.7655],[28.0352,-32.8858,18.2665],[28.0396,-32.8874,15.527],[28.0427,-32.8825,27.1428],[28.0491,-32.8826,31.1731],[28.0532,-32.8917,8.9944],[28.0672,-32.8927,13.0341],[28.0644,-32.8996,4.1089],[28.0665,-32.9057,7.2879],[28.0776,-32.9062,3.4641],[28.0879,-32.8971,0.0],[28.0918,-32.8957,0.0],[28.0924,-32.8899,3.5806],[28.089,-32.8882,6.4418],[28.0935,-32.889,4.8749],[28.0946,-32.8935,0.0],[28.0971,-32.8954,0.0],[28.0971,-32.8896,0.0],[28.1001,-32.8885,0.0],[28.0982,-32.8862,3.2691],[28.1015,-32.8854,0.1582],[28.1021,-32.8796,0.0],[28.1082,-32.8749,0.0],[28.1087,-32.8679,0.0],[28.1076,-32.8668,7.2949],[28.1099,-32.8657,0.0],[28.1096,-32.8629,14.4472],[28.1121,-32.8601,0.0],[28.1174,-32.8585,0.0],[28.1196,-32.8435,3.6053],[28.1182,-32.8401,0.0],[28.1162,-32.8399,3.1792],[28.1154,-32.834,1.0234],[28.1124,-32.8357,4.2973],[28.1085,-32.8354,8.7432],[28.114,-32.8315,0.0],[28.1162,-32.8318,0.0],[28.1268,-32.8185,0.0],[28.1357,-32.8112,3.3019],[28.1338,-32.8071,0.0],[28.1315,-32.8079,0.0],[28.1313,-32.8065,0.0],[28.1193,-32.8018,0.2391],[28.1385,-32.8076,6.8871],[28.1429,-32.8063,0.0],[28.1499,-32.8004,0.0],[28.1462,-32.7968,22.2753],[28.1468,-32.7882,9.3779],[28.1479,-32.7949,0.125],[28.1496,-32.7971,2.7539],[28.1529,-32.7971,3.8531],[28.1801,-32.7857,1.3627],[28.1799,-32.7832,0.4316],[28.1843,-32.7846,0.0],[28.1915,-32.7824,25.582],[28.2074,-32.7812,2.4454],[28.209,-32.7796,0.0],[28.2282,-32.7751,0.0],[28.2351,-32.7718,0.0],[28.2354,-32.7693,35.1166],[28.2385,-32.7715,0.0],[28.2443,-32.7654,1.1368],[28.254,-32.764,0.0],[28.2546,-32.7626,0.0],[28.2524,-32.761,2.2506],[28.2551,-32.7596,0.0],[28.2668,-32.7604,0.0],[28.2771,-32.7537,0.0],[28.2849,-32.7449,0.0],[28.2871,-32.7393,9.8808],[28.2982,-32.7371,0.0],[28.2985,-32.7337,3.8653],[28.3076,-32.7265,0.0],[28.3082,-32.7243,0.0],[28.3099,-32.7271,0.0],[28.3121,-32.7274,0.0],[28.3137,-32.7251,0.0],[28.316,-32.7257,0.0],[28.3218,-32.7232,0.0],[28.3254,-32.7179,35.2364],[28.3299,-32.7193,7.2359],[28.3326,-32.7154,0.0],[28.3371,-32.7157,2.3917],[28.3399,-32.711,19.1251],[28.3451,-32.7065,1.0194],[28.341,-32.7004,0.5],[28.3446,-32.7026,31.7052],[28.3457,-32.7082,0.0],[28.3485,-32.709,1.5454],[28.3585,-32.7085,2.0622],[28.3646,-32.7101,0.0],[28.3738,-32.7051,0.0],[28.3743,-32.6899,2.853],[28.3771,-32.6879,12.3437],[28.3796,-32.6885,0.0],[28.379,-32.6854,7.176],[28.3849,-32.681,10.3612],[28.3768,-32.6735,0.0],[28.3604,-32.6671,15.5568],[28.3532,-32.6418,0.0],[28.353,-32.6281,15.2466],[28.3488,-32.6239,2.3925],[28.3343,-32.6238,2.6959],[28.3227,-32.6281,2.8621],[28.3155,-32.6334,90.9092],[28.316,-32.6366,4.7314],[28.3211,-32.6391,2.2403],[28.3206,-32.6408,2.0458],[28.316,-32.6418,6.0118],[28.2954,-32.6226,8.8894],[28.294,-32.6091,6.6816],[28.2879,-32.6038,15.6007],[28.2759,-32.6015,16.119],[28.2683,-32.602,18.0441],[28.2582,-32.613,17.6975],[28.2564,-32.6203,46.7519],[28.2531,-32.6213,89.5315],[28.248,-32.6186,24.0531],[28.2394,-32.5998,36.1234],[28.2296,-32.591,42.274],[28.2229,-32.5782,44.5808],[28.2161,-32.5732,50.0846],[28.2106,-32.5743,61.2298],[28.2041,-32.5833,48.8294],[28.199,-32.5861,63.6365],[28.1935,-32.585,52.5577],[28.1903,-32.5793,75.7147],[28.1869,-32.5774,79.9664],[28.1719,-32.5752,59.2046]]]]}
,"properties": {"GID_3": "ZAF.1.2.2_1","GID_0": "ZAF","country": "SouthAfrica","GID_1": "ZAF.1_1","province": "EasternCape","NL_NAME_1": "NA","GID_2": "ZAF.1.2_1","county": "Amathole","NL_NAME_2": "NA","city": "GreatKei","VARNAME_3": "NA","NL_NAME_3": "NA","TYPE_3": "LocalMunicipality","ENGTYPE_3": "LocalMunicipality","CC_3": "EC123","HASC_3": "NA","name": "Great_Kei.city","area_km2": 1736.466,"hist_schema_id": "Elevation0-9000","hist_area_km2": {"0": 16.453,"25": 30.463,"50": 43.138,"75": 57.253,"100": 67.226,"125": 62.441,"150": 61.439,"175": 64.803,"200": 67.464,"225": 72.914,"250": 78.467,"275": 81.574,"300": 84.114,"325": 77.451,"350": 69.015,"375": 57.807,"400": 55.506,"425": 62.294,"450": 64.827,"475": 66.687,"500": 67.838,"525": 70.775,"550": 66.909,"575": 58.325,"600": 54.989,"625": 45.97,"650": 41.824,"675": 36.568,"700": 24.474,"725": 15.863,"750": 8.199,"775": 2.251,"800": 0.643,"825": 0.429,"850": 0.071}}}