{"type": "Feature","bbox": [29.2933,-30.1447,30.9195,-28.9149],"geometry": {"type": "MultiPolygon","coordinates": [[[[30.4448,-30.084,190.1001],[30.4561,-30.0895,207.4853],[30.4576,-30.0993,182.6196],[30.4606,-30.1014,185.5043],[30.4682,-30.1002,178.5523],[30.4784,-30.1058,173.8956],[30.4821,-30.1016,178.5844],[30.4824,-30.0987,214.0789],[30.4765,-30.0944,167.7982],[30.476,-30.0894,218.7095],[30.4793,-30.0873,170.672],[30.4834,-30.0881,167.1478],[30.4963,-30.0979,159.8397],[30.4916,-30.1023,158.2198],[30.4915,-30.1073,157.1198],[30.4991,-30.1124,158.5855],[30.5053,-30.1134,155.4865],[30.5087,-30.1078,150.6819],[30.5055,-30.0976,159.0837],[30.5124,-30.0874,144.2133],[30.516,-30.0874,188.2705],[30.5228,-30.0929,141.8167],[30.5381,-30.094,150.5164],[30.542,-30.0979,145.2946],[30.5448,-30.1057,131.2451],[30.5531,-30.1056,130.5242],[30.557,-30.1076,128.7257],[30.5619,-30.1208,130.547],[30.5581,-30.1236,121.7489],[30.552,-30.1239,120.8512],[30.552,-30.1176,122.3674],[30.5488,-30.1144,150.0881],[30.5411,-30.1174,115.3617],[30.5356,-30.1157,113.8317],[30.534,-30.1181,154.4619],[30.5348,-30.1222,111.9747],[30.5527,-30.134,101.617],[30.5611,-30.1346,97.6676],[30.569,-30.1382,96.6992],[30.5753,-30.1447,98.5819],[30.5792,-30.1413,144.2985],[30.5798,-30.1332,91.2097],[30.5875,-30.1246,120.3906],[30.5889,-30.1185,82.113],[30.5911,-30.1179,101.9534],[30.595,-30.1199,86.0934],[30.5959,-30.124,79.6051],[30.5988,-30.1228,91.4236],[30.5982,-30.1206,93.7791],[30.6004,-30.12,97.7391],[30.5987,-30.117,104.6151],[30.6016,-30.1113,133.8441],[30.6057,-30.1092,118.9334],[30.6038,-30.106,139.2082],[30.6185,-30.0971,174.7023],[30.6254,-30.0978,217.2187],[30.6374,-30.0876,255.3591],[30.6361,-30.0739,185.9939],[30.6424,-30.0701,172.4058],[30.6437,-30.0735,172.0118],[30.6486,-30.0747,233.8508],[30.6525,-30.0729,186.4877],[30.6628,-30.0747,149.038],[30.6578,-30.0797,143.8532],[30.6622,-30.0854,131.6145],[30.6556,-30.0933,131.7746],[30.6564,-30.0951,139.1204],[30.6705,-30.0936,117.2424],[30.6759,-30.091,144.2899],[30.6754,-30.0871,113.8838],[30.6773,-30.0861,139.8245],[30.6768,-30.0755,447.0472],[30.6726,-30.0726,431.9169],[30.6754,-30.0675,458.98],[30.6721,-30.0656,478.9423],[30.6706,-30.0669,449.3352],[30.666,-30.0639,486.8578],[30.6653,-30.0619,399.4203],[30.667,-30.0584,440.3609],[30.667,-30.0534,475.8988],[30.6713,-30.0529,503.5645],[30.6742,-30.0278,555.9207],[30.6666,-30.0253,572.3808],[30.6626,-30.0144,571.5221],[30.6662,-30.0094,497.0261],[30.6765,-30.0056,482.2922],[30.6833,-30.0005,469.3956],[30.6929,-29.9999,505.1636],[30.7004,-29.9918,504.7858],[30.6988,-29.9881,511.6842],[30.701,-29.9866,537.8414],[30.6884,-29.978,590.4638],[30.6827,-29.9807,584.5045],[30.6787,-29.9805,576.4653],[30.6693,-29.9853,632.6245],[30.6565,-29.9847,648.3992],[30.6537,-29.9791,620.1856],[30.6533,-29.9733,691.2844],[30.6753,-29.9222,699.4736],[30.6662,-29.9247,729.6198],[30.6586,-29.9217,572.6666],[30.6641,-29.911,515.1857],[30.6566,-29.9083,512.1992],[30.6579,-29.8951,694.8989],[30.6501,-29.8932,584.7256],[30.6461,-29.9044,646.3926],[30.6364,-29.9009,719.6054],[30.6214,-29.8851,718.2591],[30.6194,-29.877,586.4435],[30.625,-29.8691,491.4014],[30.6216,-29.8614,442.2114],[30.6218,-29.8551,425.5858],[30.6204,-29.8527,463.4764],[30.6154,-29.8533,445.7013],[30.6135,-29.8469,414.6192],[30.6141,-29.8437,479.8665],[30.6119,-29.8401,429.9371],[30.6088,-29.8396,451.8144],[30.6086,-29.8347,458.0497],[30.6038,-29.8342,453.4639],[30.6018,-29.8369,466.7628],[30.5945,-29.8357,439.3417],[30.5749,-29.8472,649.5503],[30.576,-29.8315,654.511],[30.5857,-29.7842,733.2723],[30.5852,-29.781,671.0208],[30.5865,-29.7807,679.0661],[30.5845,-29.7592,746.9312],[30.582,-29.7595,758.9902],[30.5806,-29.7506,737.9102],[30.5762,-29.7511,760.0165],[30.576,-29.7461,720.5676],[30.5657,-29.746,702.2543],[30.5694,-29.7316,746.0048],[30.56,-29.7283,759.5365],[30.5724,-29.7066,736.1082],[30.5853,-29.6544,603.1693],[30.6222,-29.6684,435.9587],[30.6363,-29.6434,372.8007],[30.6369,-29.6525,368.0946],[30.6346,-29.6609,366.6681],[30.6405,-29.6614,364.5405],[30.6452,-29.6646,389.1833],[30.6469,-29.6643,361.476],[30.6472,-29.6608,361.0074],[30.6522,-29.6598,355.8453],[30.6445,-29.6542,382.2764],[30.6453,-29.6502,353.8595],[30.6505,-29.643,353.2188],[30.6578,-29.6417,347.9703],[30.6654,-29.6473,351.3008],[30.6712,-29.6475,339.7855],[30.6675,-29.6453,347.7034],[30.6683,-29.6399,340.9487],[30.6653,-29.6371,343.0887],[30.6629,-29.6361,346.0368],[30.6608,-29.6385,338.4741],[30.6482,-29.639,326.3213],[30.6443,-29.6317,329.027],[30.6487,-29.6333,334.8437],[30.6548,-29.6317,317.0922],[30.6591,-29.6337,304.9346],[30.67,-29.6292,296.7873],[30.6732,-29.6227,302.0419],[30.6761,-29.6205,282.1695],[30.6732,-29.6191,309.7254],[30.6754,-29.6103,500.5135],[30.6735,-29.6066,599.2747],[30.6741,-29.6047,544.2634],[30.684,-29.6004,604.7205],[30.6921,-29.6029,529.1705],[30.7142,-29.6051,508.7562],[30.7172,-29.607,409.398],[30.7242,-29.6068,314.4418],[30.7286,-29.6042,241.6191],[30.7288,-29.6021,222.7458],[30.7247,-29.6002,290.2211],[30.7288,-29.5969,232.7696],[30.7247,-29.5884,268.0077],[30.7262,-29.5848,251.8737],[30.7237,-29.5807,267.0382],[30.7251,-29.5787,278.1647],[30.7245,-29.5735,299.5156],[30.7272,-29.5709,303.0031],[30.7243,-29.5692,348.372],[30.7187,-29.5712,467.5577],[30.709,-29.5715,636.6032],[30.7081,-29.5694,653.4733],[30.7048,-29.5685,661.3179],[30.7025,-29.5611,671.6586],[30.7066,-29.5566,718.5436],[30.7037,-29.55,788.0522],[30.704,-29.5455,839.5811],[30.706,-29.5354,869.6594],[30.7097,-29.5272,741.8818],[30.7178,-29.5278,753.3784],[30.7187,-29.5301,652.5073],[30.7226,-29.5277,750.5316],[30.7219,-29.5258,796.8094],[30.7242,-29.5229,848.089],[30.7225,-29.511,824.4125],[30.7244,-29.5023,882.8644],[30.7276,-29.4987,873.0371],[30.7314,-29.4984,784.8574],[30.7345,-29.4956,891.9692],[30.7373,-29.4856,881.9601],[30.7427,-29.4804,631.5217],[30.7441,-29.4709,700.3146],[30.7477,-29.4673,784.2434],[30.7486,-29.464,813.2172],[30.7481,-29.4534,837.7744],[30.7681,-29.455,1059.2354],[30.7662,-29.488,973.5795],[30.7903,-29.4763,968.3113],[30.7936,-29.4496,975.6686],[30.8501,-29.4037,1011.9644],[30.8884,-29.4156,736.9471],[30.8908,-29.4127,730.0458],[30.8903,-29.4088,716.5725],[30.8969,-29.4076,699.4506],[30.8977,-29.4049,697.6385],[30.9037,-29.3994,671.1619],[30.9093,-29.3966,662.3648],[30.9153,-29.39,640.3662],[30.9167,-29.386,628.1558],[30.9195,-29.3847,668.2161],[30.9172,-29.3829,669.1924],[30.9056,-29.383,768.7767],[30.8953,-29.3762,824.5422],[30.889,-29.3764,866.87],[30.8837,-29.3732,916.0159],[30.8804,-29.3684,923.5106],[30.8804,-29.3648,922.1042],[30.8824,-29.3605,922.5771],[30.8817,-29.3504,963.1599],[30.8846,-29.3458,958.2249],[30.8791,-29.3398,745.299],[30.8757,-29.3384,706.7386],[30.8724,-29.3321,623.014],[30.8683,-29.3297,599.7012],[30.867,-29.3272,588.4611],[30.8606,-29.3259,616.7389],[30.8605,-29.3293,585.0229],[30.859,-29.3299,633.4445],[30.8573,-29.3234,649.6208],[30.8546,-29.3221,616.8214],[30.855,-29.3136,547.5375],[30.8589,-29.3117,543.1712],[30.8561,-29.3092,605.5793],[30.8603,-29.3067,558.3132],[30.8575,-29.3024,513.411],[30.865,-29.3007,521.5886],[30.8654,-29.298,501.519],[30.8634,-29.2952,495.5328],[30.8684,-29.2943,519.2162],[30.8692,-29.2928,495.767],[30.8677,-29.2897,481.4229],[30.8718,-29.2893,473.0063],[30.872,-29.2868,478.4429],[30.8684,-29.2856,467.3311],[30.8682,-29.284,462.6935],[30.87,-29.283,460.6691],[30.8793,-29.2841,449.6878],[30.8772,-29.2748,438.5365],[30.8844,-29.2747,452.6302],[30.8799,-29.2633,406.77],[30.8815,-29.2594,396.0034],[30.8941,-29.2525,395.2727],[30.8962,-29.2489,404.5712],[30.8958,-29.2441,379.5274],[30.8986,-29.2404,374.7862],[30.8923,-29.2399,446.3383],[30.8877,-29.2367,738.3349],[30.8876,-29.2382,703.0348],[30.8857,-29.2402,633.6382],[30.8873,-29.238,703.0348],[30.8849,-29.2368,694.4815],[30.8854,-29.234,740.6147],[30.8833,-29.2341,621.1215],[30.8818,-29.2313,645.0682],[30.8836,-29.2242,590.9529],[30.8859,-29.2221,759.4421],[30.8856,-29.2185,702.6846],[30.8638,-29.2212,676.3176],[30.8613,-29.2236,743.1243],[30.8616,-29.2266,709.9172],[30.8536,-29.2351,435.9162],[30.8555,-29.2422,681.9575],[30.8524,-29.2448,729.4437],[30.8418,-29.2463,792.1459],[30.8395,-29.2511,696.4487],[30.8402,-29.2529,722.929],[30.8351,-29.2538,794.8044],[30.8367,-29.2605,912.7184],[30.8429,-29.2717,864.4968],[30.8454,-29.2826,757.5263],[30.839,-29.2902,764.4061],[30.8278,-29.2651,717.1241],[30.8072,-29.2558,900.5663],[30.7988,-29.25,862.558],[30.7983,-29.247,877.4079],[30.8074,-29.2318,826.436],[30.8058,-29.2301,842.1936],[30.8073,-29.2285,821.8534],[30.8039,-29.2253,694.4803],[30.8061,-29.2223,713.2151],[30.7972,-29.2174,645.2711],[30.7937,-29.2086,569.1923],[30.7986,-29.2073,563.3436],[30.8012,-29.2026,562.8462],[30.7941,-29.2036,558.8541],[30.7905,-29.2009,579.801],[30.7876,-29.2012,572.8068],[30.788,-29.2083,632.386],[30.7824,-29.2101,794.6465],[30.7756,-29.2046,844.884],[30.7722,-29.2042,828.6161],[30.7658,-29.1954,907.0575],[30.7712,-29.1895,908.3076],[30.7661,-29.1834,1023.6854],[30.7693,-29.1793,1080.3101],[30.7691,-29.1763,1098.8756],[30.763,-29.1784,951.8244],[30.7588,-29.1868,849.296],[30.7554,-29.1897,795.8671],[30.7562,-29.1937,742.4636],[30.7514,-29.2024,681.7456],[30.7509,-29.207,646.7181],[30.7453,-29.2074,661.0031],[30.7381,-29.2115,671.2503],[30.7335,-29.211,657.4911],[30.7329,-29.2221,674.1955],[30.7231,-29.2185,690.1339],[30.7149,-29.2088,1029.2546],[30.6603,-29.2242,1069.6995],[30.6415,-29.2467,1038.9893],[30.6329,-29.2401,1051.0797],[30.6003,-29.2479,1068.4697],[30.5788,-29.2581,1074.9852],[30.5658,-29.2493,1095.0228],[30.556,-29.2554,1092.3311],[30.5548,-29.2501,1108.181],[30.5228,-29.22,1084.1531],[30.5106,-29.2208,1152.9269],[30.5042,-29.23,1207.0803],[30.4797,-29.2327,1369.4678],[30.4794,-29.2317,1369.4678],[30.4554,-29.2407,1451.9705],[30.4188,-29.2627,1331.97],[30.42,-29.2176,1174.2087],[30.398,-29.2193,1333.7549],[30.3978,-29.2117,1197.2463],[30.4,-29.2095,1181.7787],[30.3975,-29.2058,1245.8599],[30.3845,-29.2022,1336.4551],[30.376,-29.1862,1431.3082],[30.3486,-29.1929,1510.6895],[30.3486,-29.1699,1535.4373],[30.3359,-29.1639,1522.3301],[30.3636,-29.123,1438.6382],[30.3659,-29.0997,1261.4827],[30.3741,-29.0685,1160.4574],[30.3596,-29.0415,876.8065],[30.3678,-29.0405,874.9339],[30.3639,-29.0342,859.4498],[30.3597,-29.0329,852.6993],[30.3588,-29.0307,907.3943],[30.3374,-29.0311,1168.5435],[30.3495,-29.0172,1027.6421],[30.3507,-29.0107,885.8582],[30.3447,-29.0077,937.8048],[30.3474,-28.9987,979.5649],[30.3668,-28.9971,855.7579],[30.367,-28.9958,834.6057],[30.3626,-28.9945,867.324],[30.3602,-28.9918,869.4434],[30.3602,-28.9891,875.5396],[30.3617,-28.9869,856.153],[30.37,-28.9825,875.5186],[30.3404,-28.9718,1025.6718],[30.3214,-28.9387,1262.1396],[30.2875,-28.9149,1254.8936],[30.2237,-28.9457,1520.8198],[30.2314,-28.9642,1380.2141],[30.2302,-28.979,1413.9988],[30.2296,-28.984,1519.8228],[30.2185,-28.9982,1676.0522],[30.2151,-28.9806,1476.5763],[30.1977,-28.9801,1500.5803],[30.187,-28.9594,1483.1029],[30.1737,-28.9776,1474.1987],[30.155,-28.9793,1172.9193],[30.1501,-28.9956,1421.7998],[30.0862,-28.9665,1148.8728],[30.0718,-29.0119,1281.9052],[30.0503,-29.0272,1348.5127],[30.0634,-29.056,1567.1736],[30.028,-29.0593,1509.6846],[30.0258,-29.0896,1610.2637],[29.9857,-29.0863,1531.5458],[29.9623,-29.0997,1523.9745],[29.9498,-29.1312,1586.5491],[29.9269,-29.1218,1687.7079],[29.8998,-29.15,1649.6455],[29.8923,-29.1617,1655.6917],[29.8731,-29.183,1692.5936],[29.8685,-29.1978,1725.2391],[29.8549,-29.2181,1567.5692],[29.8291,-29.2198,1596.4426],[29.8001,-29.2171,1541.3181],[29.7972,-29.1882,1577.0789],[29.787,-29.1974,1524.2816],[29.7806,-29.1928,1526.5839],[29.7557,-29.2069,1599.8441],[29.7306,-29.227,1633.8345],[29.7648,-29.2173,1533.8671],[29.768,-29.2207,1532.6543],[29.7535,-29.2421,1598.5625],[29.7538,-29.2833,1629.1716],[29.7037,-29.2951,1687.7267],[29.6922,-29.3013,1790.0591],[29.6857,-29.3025,1847.3999],[29.6844,-29.3008,1876.4187],[29.6867,-29.2985,1903.5332],[29.6789,-29.2959,1857.9126],[29.6722,-29.2981,1914.2953],[29.6613,-29.2981,1910.8241],[29.6521,-29.2971,1869.3542],[29.6442,-29.2934,1852.7057],[29.6318,-29.2915,1787.8049],[29.631,-29.2856,1642.792],[29.628,-29.2854,1693.0065],[29.6361,-29.2789,1750.0568],[29.6387,-29.2726,1771.4426],[29.6459,-29.2706,1775.8484],[29.6511,-29.2628,1782.274],[29.6681,-29.2573,1595.3744],[29.6661,-29.2549,1643.5662],[29.6552,-29.256,1894.3383],[29.6303,-29.2688,1912.2307],[29.6097,-29.2486,1656.101],[29.5698,-29.2904,1829.2758],[29.5786,-29.2991,1758.9824],[29.5786,-29.3355,2053.9321],[29.5591,-29.3375,2203.9404],[29.5401,-29.3513,2290.4194],[29.5221,-29.3301,2282.3806],[29.5152,-29.3261,2191.2014],[29.5068,-29.3398,2412.1968],[29.4812,-29.3467,3261.5342],[29.4717,-29.3447,3175.9146],[29.4672,-29.3486,3181.3601],[29.4618,-29.3483,3107.3052],[29.4593,-29.3437,3257.5051],[29.4555,-29.3412,3224.6655],[29.442,-29.3453,3284.5867],[29.4433,-29.3514,3209.6357],[29.4416,-29.3576,3126.6138],[29.4446,-29.3649,2937.9651],[29.4489,-29.3684,2895.5527],[29.4483,-29.3713,2891.9175],[29.4461,-29.3725,2897.3572],[29.447,-29.3763,2879.7529],[29.4364,-29.3861,2919.9297],[29.4373,-29.3944,2814.1443],[29.4359,-29.3961,3002.5991],[29.4195,-29.3968,3197.0999],[29.4185,-29.4063,3209.1987],[29.4226,-29.4141,3289.2324],[29.42,-29.4166,3234.2566],[29.4105,-29.4171,3230.4956],[29.4066,-29.4207,3244.4658],[29.4023,-29.4297,2946.2417],[29.4019,-29.4339,2881.5449],[29.3996,-29.4358,2846.9756],[29.4034,-29.4445,2900.2693],[29.4,-29.4451,2855.2097],[29.4004,-29.447,2835.2109],[29.3974,-29.4471,2856.6196],[29.3936,-29.4513,2848.1682],[29.3885,-29.4518,2888.6135],[29.3876,-29.4557,2981.0127],[29.3771,-29.4548,3026.3699],[29.3731,-29.4632,2814.9932],[29.3679,-29.4639,2829.2756],[29.3644,-29.4666,2926.3677],[29.3631,-29.4702,2968.5771],[29.3459,-29.4652,3116.2126],[29.3404,-29.4684,2849.8157],[29.3394,-29.4722,2853.6108],[29.3278,-29.4707,2863.0161],[29.3258,-29.4742,2906.7954],[29.3211,-29.4757,2882.7686],[29.3197,-29.4779,2871.5625],[29.3238,-29.4869,2985.1548],[29.316,-29.4881,2903.6233],[29.3099,-29.4862,2997.79],[29.3071,-29.4829,3140.2595],[29.3005,-29.4863,3251.3123],[29.2966,-29.4865,3300.7886],[29.2933,-29.49,3232.8042],[29.2998,-29.4989,3248.9409],[29.3101,-29.4966,2623.3682],[29.3333,-29.5068,2158.5938],[29.3639,-29.5172,1895.489],[29.3699,-29.516,1906.0151],[29.384,-29.5257,1731.9064],[29.3995,-29.5249,1714.6906],[29.4049,-29.5298,1672.8917],[29.421,-29.5347,1543.4252],[29.4339,-29.5325,1490.1305],[29.431,-29.5362,1552.5701],[29.4328,-29.5422,1678.2878],[29.437,-29.5476,1518.4136],[29.4407,-29.5449,1575.8783],[29.4547,-29.5431,1534.7622],[29.4497,-29.56,1725.4923],[29.4773,-29.572,1783.0211],[29.475,-29.5777,1950.449],[29.4937,-29.5869,1614.1307],[29.5169,-29.5784,1319.843],[29.5196,-29.5756,1323.665],[29.5258,-29.5758,1306.2434],[29.5258,-29.5716,1356.3353],[29.5203,-29.57,1338.6552],[29.5162,-29.5662,1380.3195],[29.523,-29.5666,1425.7947],[29.529,-29.5637,1490.4165],[29.5348,-29.5633,1382.1539],[29.5448,-29.5719,1401.7512],[29.5566,-29.5616,1625.8348],[29.5636,-29.5744,1519.4425],[29.5732,-29.5755,1649.7085],[29.5769,-29.5837,1457.4154],[29.5929,-29.5774,1556.6813],[29.5903,-29.5891,1369.1711],[29.5764,-29.5891,1381.6067],[29.5659,-29.5968,1251.3237],[29.5608,-29.5975,1261.485],[29.5579,-29.602,1309.8898],[29.5607,-29.6045,1288.5627],[29.568,-29.6067,1339.7166],[29.563,-29.639,1524.6017],[29.5566,-29.6394,1562.8992],[29.5545,-29.6526,1466.7905],[29.5658,-29.656,1510.3676],[29.5924,-29.6554,1436.0385],[29.5937,-29.6738,1621.533],[29.6032,-29.6781,1555.4985],[29.6126,-29.6706,1392.834],[29.615,-29.6703,1393.5247],[29.618,-29.6726,1392.7223],[29.6211,-29.6713,1385.4885],[29.6251,-29.6733,1387.9473],[29.6298,-29.6715,1381.2686],[29.634,-29.6734,1383.1017],[29.638,-29.6705,1377.4711],[29.6374,-29.669,1467.5675],[29.65,-29.6712,1430.8031],[29.6556,-29.674,1353.952],[29.6559,-29.6666,1366.9562],[29.6606,-29.6713,1358.1667],[29.6604,-29.6701,1344.845],[29.6621,-29.6711,1345.9561],[29.664,-29.67,1344.5535],[29.6787,-29.6722,1368.1896],[29.6872,-29.6756,1580.6082],[29.7272,-29.6776,1507.4653],[29.7357,-29.6694,1455.4297],[29.7354,-29.6632,1265.9613],[29.7315,-29.6607,1305.1826],[29.7304,-29.6575,1248.7393],[29.7352,-29.657,1276.4785],[29.7417,-29.6536,1260.391],[29.7397,-29.6502,1216.3416],[29.7398,-29.6445,1181.2001],[29.7438,-29.6356,1144.701],[29.7517,-29.637,1122.8223],[29.7533,-29.635,1120.1211],[29.7556,-29.6408,1114.255],[29.767,-29.6423,1129.2592],[29.7672,-29.6489,1110.1765],[29.784,-29.6584,1092.1061],[29.7836,-29.6607,1096.2047],[29.7785,-29.6653,1137.9551],[29.7792,-29.6665,1101.127],[29.7833,-29.6674,1116.085],[29.8042,-29.6593,1504.4812],[29.8319,-29.673,1388.7426],[29.8515,-29.6787,1471.4409],[29.8696,-29.6871,1393.8989],[29.8663,-29.6557,1581.1552],[29.8711,-29.6383,1658.912],[29.883,-29.6259,1615.9335],[29.9119,-29.634,1719.4858],[29.9157,-29.6524,1607.4507],[29.9032,-29.6717,1542.2896],[29.9059,-29.6874,1511.2932],[29.9123,-29.7028,1452.2405],[29.9366,-29.7167,1519.1746],[29.9469,-29.7035,1607.8977],[29.9761,-29.7179,1362.7633],[30.0158,-29.729,1176.2914],[30.0241,-29.7101,1351.9802],[30.0399,-29.7202,1415.6606],[30.0692,-29.724,1598.574],[30.0694,-29.701,1407.9937],[30.0865,-29.6951,1468.2233],[30.0888,-29.7064,1465.3342],[30.1001,-29.7208,1455.147],[30.0924,-29.7473,1444.4373],[30.0884,-29.7601,1405.074],[30.0706,-29.7655,1440.8241],[30.0785,-29.7801,1359.7458],[30.0609,-29.8038,1294.4058],[30.0534,-29.8048,1409.5283],[30.0466,-29.8193,1410.6161],[30.0454,-29.83,1370.219],[30.049,-29.8351,1249.1146],[30.0394,-29.8459,792.1753],[30.0362,-29.8474,704.179],[30.038,-29.8528,718.8389],[30.0361,-29.8633,671.5466],[30.0371,-29.8671,645.4474],[30.0553,-29.8702,634.4645],[30.0616,-29.8664,646.6168],[30.064,-29.8594,623.1478],[30.0669,-29.8597,609.3671],[30.068,-29.8649,603.2531],[30.0636,-29.8725,600.4298],[30.0662,-29.8853,590.8977],[30.0607,-29.8902,602.6743],[30.0611,-29.8974,581.2991],[30.0632,-29.8983,591.5487],[30.0679,-29.895,571.5997],[30.0701,-29.9026,879.9442],[30.0781,-29.9079,632.5474],[30.0811,-29.9055,559.7039],[30.0831,-29.9064,595.1266],[30.0886,-29.904,567.2795],[30.1009,-29.9115,540.649],[30.0995,-29.9154,537.882],[30.0889,-29.9189,538.7683],[30.0841,-29.9225,568.2457],[30.0832,-29.9252,523.2924],[30.084,-29.9281,534.9826],[30.0911,-29.9352,512.3246],[30.0876,-29.939,509.9838],[30.0863,-29.9433,509.9483],[30.0881,-29.9478,510.4025],[30.0928,-29.9498,507.3543],[30.0961,-29.9494,506.5262],[30.1008,-29.9422,492.7283],[30.104,-29.9403,516.5873],[30.1061,-29.942,539.9756],[30.105,-29.9461,484.3462],[30.119,-29.9487,474.134],[30.1185,-29.9509,476.0298],[30.1107,-29.9571,478.0477],[30.1143,-29.9617,513.6685],[30.1135,-29.9667,490.3807],[30.1102,-29.969,459.1326],[30.1056,-29.9687,462.673],[30.103,-29.9728,477.545],[30.1089,-29.977,445.9606],[30.1149,-29.9778,475.1292],[30.1251,-29.982,436.4424],[30.1347,-29.9798,430.0452],[30.1503,-29.9822,413.4599],[30.1614,-29.9886,411.4443],[30.1645,-29.9988,401.7923],[30.1721,-30.0015,416.0972],[30.1891,-30.0028,394.0035],[30.1952,-30.008,383.3138],[30.1965,-30.0122,382.4226],[30.2124,-30.0173,376.1146],[30.2159,-30.0162,373.1337],[30.2214,-30.0108,378.9087],[30.2349,-30.0123,363.5531],[30.2376,-30.0087,362.4259],[30.2426,-30.0078,362.6514],[30.249,-30.0107,368.6992],[30.2511,-30.0142,357.4751],[30.2572,-30.0111,392.3942],[30.262,-30.0115,358.0115],[30.2739,-30.0219,358.892],[30.2764,-30.0195,350.7182],[30.277,-30.0154,375.8489],[30.2729,-30.0104,344.9293],[30.2728,-30.008,346.8162],[30.2771,-30.0041,353.352],[30.2829,-30.0056,332.1279],[30.2845,-30.0144,365.9268],[30.2902,-30.0187,331.516],[30.2996,-30.014,345.875],[30.3052,-30.0146,338.0376],[30.3133,-30.0205,332.1781],[30.3134,-30.0235,321.9736],[30.3101,-30.0305,315.191],[30.3167,-30.0359,340.3262],[30.315,-30.0412,306.4359],[30.3172,-30.0459,302.965],[30.3215,-30.0433,302.9366],[30.3226,-30.0348,320.4282],[30.3277,-30.0322,297.9991],[30.3328,-30.0347,304.2377],[30.3341,-30.0404,306.7957],[30.338,-30.0468,345.5777],[30.3409,-30.0487,289.1833],[30.3463,-30.0488,285.3415],[30.3484,-30.0469,286.8583],[30.3474,-30.0372,290.4024],[30.3513,-30.0364,277.6468],[30.3557,-30.0392,274.0909],[30.3561,-30.0479,272.703],[30.3518,-30.0556,272.7152],[30.352,-30.0586,288.6077],[30.3559,-30.0621,287.993],[30.3629,-30.0602,260.6638],[30.3658,-30.0613,275.7777],[30.3646,-30.0639,256.9905],[30.3583,-30.0683,279.0639],[30.3579,-30.0706,323.2184],[30.364,-30.0725,249.6858],[30.3701,-30.0711,300.1435],[30.3729,-30.0744,247.4157],[30.3823,-30.078,241.9903],[30.3822,-30.0851,265.9184],[30.3742,-30.0872,245.3524],[30.3735,-30.0924,234.8756],[30.3857,-30.0942,257.8203],[30.3966,-30.1023,223.1296],[30.399,-30.1013,236.9081],[30.4005,-30.0959,229.9871],[30.4074,-30.0918,218.2425],[30.4133,-30.0922,228.8103],[30.422,-30.0966,229.5526],[30.4244,-30.0926,211.1975],[30.4219,-30.0848,208.3439],[30.4223,-30.0782,204.1579],[30.4243,-30.0766,206.3364],[30.428,-30.0793,206.588],[30.4311,-30.0928,201.4325],[30.4367,-30.0915,195.6334],[30.4394,-30.0822,191.5592],[30.4448,-30.084,190.1001]]]]}
,"properties": {"GID_2": "ZAF.4.6_1","GID_0": "ZAF","country": "SouthAfrica","GID_1": "ZAF.4_1","province": "KwaZulu-Natal","NL_NAME_1": "NA","county": "Umgungundlovu","VARNAME_2": "NA","NL_NAME_2": "NA","TYPE_2": "DistrictMunicipality","ENGTYPE_2": "DistrictMunicipality","CC_2": "DC22","HASC_2": "ZA.NL.UV","name": "Umgungundlovu.county","area_km2": 9523.972,"hist_schema_id": "Elevation0-9000","hist_area_km2": {"75": 0.293,"100": 1.32,"125": 3.21,"150": 5.539,"175": 7.667,"200": 10.071,"225": 10.201,"250": 11.762,"275": 12.333,"300": 12.813,"325": 14.728,"350": 17.873,"375": 22.365,"400": 29.97,"425": 35.551,"450": 37.064,"475": 40.746,"500": 48.158,"525": 53.363,"550": 64.459,"575": 78.35,"600": 102.214,"625": 146.747,"650": 198.579,"675": 194.435,"700": 209.699,"725": 217.904,"750": 215.853,"775": 217.772,"800": 209.233,"825": 210.458,"850": 230.282,"875": 241.924,"900": 231.27,"925": 208.834,"950": 181.023,"975": 167.536,"1000": 167.291,"1025": 133.082,"1050": 151.154,"1075": 154.76,"1100": 166.31,"1125": 160.4,"1150": 146.797,"1175": 146.417,"1200": 152.831,"1225": 146.224,"1250": 138.271,"1275": 156.991,"1300": 168.778,"1325": 187.105,"1350": 204.035,"1375": 217.481,"1400": 238.117,"1425": 241.618,"1450": 250.821,"1475": 246.922,"1500": 249.923,"1525": 261.891,"1550": 226.299,"1575": 161.201,"1600": 124.757,"1625": 100.037,"1650": 103.676,"1675": 94.222,"1700": 72.478,"1725": 70.25,"1750": 67.086,"1775": 57.009,"1800": 55.777,"1825": 56.403,"1850": 43.672,"1875": 34.797,"1900": 31.184,"1925": 23.21,"1950": 24.763,"1975": 26.351,"2000": 25.599,"2025": 27.357,"2050": 27.874,"2075": 26.077,"2100": 28.089,"2125": 30.269,"2150": 28.198,"2175": 22.493,"2200": 17.285,"2225": 14.498,"2250": 11.82,"2275": 9.475,"2300": 8.939,"2325": 9.973,"2350": 9.105,"2375": 6.039,"2400": 4.377,"2425": 4.119,"2450": 3.675,"2475": 2.955,"2500": 2.807,"2525": 2.512,"2550": 2.198,"2575": 1.884,"2600": 2.013,"2625": 2.05,"2650": 1.588,"2675": 1.662,"2700": 1.514,"2725": 1.127,"2750": 1.533,"2775": 1.145,"2800": 1.163,"2825": 1.293,"2850": 1.477,"2875": 1.071,"2900": 1.367,"2925": 1.496,"2950": 1.367,"2975": 1.367,"3000": 1.293,"3025": 1.311,"3050": 1.182,"3075": 0.979,"3100": 0.961,"3125": 0.961,"3150": 0.905,"3175": 1.016,"3200": 0.942,"3225": 0.85,"3250": 0.48,"3275": 0.222}}}