{"type":"Feature","properties":{"GID_3":"ZAF.7.3.3_1","GID_0":"ZAF","country":"SouthAfrica","GID_1":"ZAF.7_1","province":"NorthWest","NL_NAME_1":"NA","GID_2":"ZAF.7.3_1","county":"DrRuthSegomotsiMompati","NL_NAME_2":"NA","city":"Lekwa-Teemane","VARNAME_3":"NA","NL_NAME_3":"NA","TYPE_3":"LocalMunicipality","ENGTYPE_3":"LocalMunicipality","CC_3":"NW396","HASC_3":"NA","name":"Lekwa-Teemane.city"},
"geometry":{"type": "MultiPolygon","coordinates": [[[[25.1322,-27.9344,1193.5261],[25.1311,-27.9286,1189.0],[25.1363,-27.9236,1190.1714],[25.1411,-27.9242,1191.4655],[25.1506,-27.9286,1190.5775],[25.1613,-27.9266,1194.4014],[25.1657,-27.9214,1190.4728],[25.1721,-27.9185,1189.9618],[25.1851,-27.9089,1189.5518],[25.193,-27.8933,1192.8069],[25.2009,-27.8866,1196.5643],[25.2282,-27.8785,1203.0137],[25.2521,-27.867,1200.5],[25.2575,-27.8602,1202.3511],[25.2577,-27.8551,1204.5826],[25.2422,-27.8437,1207.3049],[25.2382,-27.8375,1202.0],[25.2384,-27.8344,1204.3973],[25.2441,-27.8292,1204.7855],[25.2536,-27.8262,1210.1909],[25.2606,-27.822,1206.2561],[25.271,-27.7994,1208.8312],[25.2774,-27.7953,1204.5],[25.2849,-27.7944,1206.9839],[25.3015,-27.7932,1208.722],[25.3138,-27.7958,1206.177],[25.333,-27.7905,1205.0],[25.3374,-27.7935,1210.0946],[25.3404,-27.793,1211.7615],[25.3448,-27.7849,1210.6113],[25.3486,-27.772,1207.0078],[25.364,-27.7505,1206.994],[25.3796,-27.7424,1207.6677],[25.3945,-27.7287,1210.8279],[25.4125,-27.7222,1210.6213],[25.424,-27.7156,1206.0],[25.4404,-27.7169,1210.5144],[25.458,-27.7109,1208.7604],[25.4653,-27.7096,1211.3345],[25.4693,-27.7106,1208.2982],[25.4733,-27.7068,1210.6992],[25.4747,-27.6989,1211.5498],[25.4809,-27.6925,1209.6251],[25.4879,-27.6919,1212.1199],[25.4948,-27.6939,1207.9626],[25.5132,-27.6948,1212.0985],[25.5558,-27.6867,1212.4297],[25.5724,-27.6775,1208.9214],[25.5847,-27.6587,1210.6232],[25.5919,-27.6549,1213.312],[25.5977,-27.6555,1209.9106],[25.6034,-27.6598,1218.6582],[25.6104,-27.66,1211.9456],[25.6185,-27.6693,1226.5],[25.6275,-27.6672,1226.5],[25.6308,-27.668,1226.5],[25.6323,-27.6698,1226.5],[25.633,-27.6761,1226.5],[25.6415,-27.6864,1226.5],[25.6574,-27.6947,1226.5],[25.6639,-27.6942,1226.5],[25.6717,-27.6886,1226.5],[25.6785,-27.677,1226.5],[25.6767,-27.6592,1226.5],[25.6796,-27.6489,1226.5],[25.6784,-27.6408,1226.5],[25.6755,-27.6349,1226.5],[25.6789,-27.6296,1226.5],[25.6852,-27.6262,1226.5],[25.7099,-27.6245,1226.5],[25.7279,-27.609,1226.5],[25.7375,-27.6089,1226.5],[25.7495,-27.5998,1226.5],[25.764,-27.596,1226.5],[25.7814,-27.5841,1226.5],[25.7882,-27.583,1226.5],[25.7986,-27.5844,1226.5],[25.8048,-27.5831,1226.5],[25.8147,-27.5728,1226.5],[25.8302,-27.5662,1226.5],[25.8348,-27.5118,1258.8647],[25.7537,-27.5345,1256.9673],[25.743,-27.4861,1269.1433],[25.7383,-27.4842,1270.6912],[25.7387,-27.4692,1274.5348],[25.805,-27.4464,1284.0566],[25.797,-27.3906,1298.5382],[25.7681,-27.3941,1299.0891],[25.7214,-27.3793,1307.9298],[25.7023,-27.375,1310.993],[25.7596,-27.3633,1309.9617],[25.761,-27.3675,1308.7729],[25.8248,-27.363,1306.4181],[25.806,-27.2906,1338.6379],[25.7776,-27.2549,1340.4438],[25.7723,-27.2093,1351.1322],[25.7016,-27.2232,1344.4998],[25.6803,-27.1622,1378.4006],[25.6437,-27.1719,1388.4319],[25.6479,-27.1808,1387.4384],[25.6341,-27.1863,1385.5193],[25.6537,-27.2228,1366.688],[25.6744,-27.2221,1354.1908],[25.6465,-27.2711,1339.3933],[25.6751,-27.2872,1334.939],[25.6834,-27.3364,1313.9894],[25.6261,-27.3528,1305.2954],[25.571,-27.3734,1301.9626],[25.5201,-27.3841,1314.0269],[25.4712,-27.3911,1310.7783],[25.4045,-27.3967,1321.1847],[25.4128,-27.4071,1314.9316],[25.3459,-27.4027,1340.6353],[25.3475,-27.4102,1335.8832],[25.2801,-27.408,1364.3781],[25.2726,-27.4055,1365.134],[25.2552,-27.4506,1364.2489],[25.189,-27.4481,1330.209],[25.161,-27.5064,1339.4939],[25.1465,-27.533,1324.1604],[25.114,-27.5454,1328.584],[25.0943,-27.463,1305.4598],[25.0637,-27.4789,1317.2267],[25.0159,-27.4929,1297.4734],[25.0064,-27.5242,1340.8342],[25.0128,-27.5444,1328.6385],[25.0146,-27.5555,1318.1149],[25.0878,-27.6575,1316.3252],[24.8469,-27.9112,1156.876],[24.8615,-27.9083,1164.5858],[24.8571,-27.9161,1164.2725],[24.857,-27.9189,1167.751],[24.8598,-27.9213,1167.4386],[24.8577,-27.9202,1166.59],[24.8574,-27.9253,1165.3977],[24.8517,-27.9261,1160.7581],[24.8456,-27.9237,1159.8018],[24.8298,-27.9313,1151.8973],[24.9506,-28.1132,1187.5],[24.9653,-28.095,1187.5],[24.9703,-28.0838,1188.0],[24.9748,-28.0804,1188.0],[24.9848,-28.0796,1188.3884],[24.9993,-28.0819,1188.0],[25.0098,-28.0767,1188.0],[25.0201,-28.0774,1188.0],[25.0377,-28.0682,1189.2417],[25.0591,-28.0707,1188.5],[25.0732,-28.0667,1190.4043],[25.0769,-28.0484,1188.5],[25.1049,-28.0167,1189.2878],[25.1074,-28.0119,1189.0],[25.1064,-28.0068,1192.6757],[25.1025,-28.0009,1189.0],[25.0951,-27.9918,1190.7461],[25.0903,-27.9886,1189.0],[25.0906,-27.984,1189.0],[25.0968,-27.9769,1189.8926],[25.1113,-27.9702,1189.0],[25.1173,-27.9606,1189.0],[25.131,-27.9506,1189.0],[25.1327,-27.9456,1192.3164],[25.1322,-27.9344,1193.5261]]]]}}