{"type": "Feature","bbox": [21.7692,-27.5532,24.0375,-25.9826],"geometry": {"type": "MultiPolygon","coordinates": [[[[23.7891,-27.5188,1473.4275],[23.8146,-27.4788,1451.7324],[23.8629,-27.4894,1464.6138],[23.873,-27.4702,1460.5497],[23.9041,-27.491,1472.4196],[23.9016,-27.4959,1473.7413],[23.9215,-27.4943,1476.087],[23.935,-27.4757,1484.6747],[23.896,-27.4629,1466.4883],[23.8842,-27.4487,1459.4033],[23.918,-27.3931,1457.947],[23.9366,-27.4108,1460.7185],[23.973,-27.4201,1464.8705],[23.9745,-27.408,1464.8003],[24.0019,-27.42,1466.9333],[23.9921,-27.3927,1462.9696],[24.0005,-27.3708,1454.4965],[23.987,-27.3646,1452.0739],[24.0149,-27.3237,1441.8986],[23.9529,-27.2815,1415.2765],[23.9502,-27.2828,1414.6863],[23.9412,-27.2764,1412.3156],[23.8965,-27.2527,1395.3749],[23.8983,-27.2355,1392.5142],[23.9101,-27.2251,1388.8292],[23.9156,-27.2141,1384.5598],[23.9736,-27.0964,1291.2927],[23.976,-27.0793,1342.4666],[24.0375,-27.0537,1338.1901],[24.026,-26.9993,1337.6957],[24.001,-26.9433,1297.3716],[23.9704,-26.8942,1280.6951],[23.9628,-26.8983,1276.343],[23.9169,-26.8579,1253.0172],[23.8695,-26.8568,1244.8444],[23.8532,-26.8901,1241.6843],[23.7607,-26.8409,1209.972],[23.7251,-26.8291,1205.7173],[23.6465,-26.8075,1190.6022],[23.6153,-26.79,1180.7686],[23.5689,-26.7749,1169.957],[23.5209,-26.7555,1157.9143],[23.4871,-26.7397,1150.9729],[23.5471,-26.6583,1101.2887],[23.5837,-26.6171,1139.8032],[23.463,-26.5311,1090.7054],[23.2664,-26.4854,1056.7241],[23.282,-26.3395,1064.9402],[23.2217,-26.2713,1034.6619],[23.2647,-26.2045,1057.2537],[23.311,-26.1418,1055.9048],[23.2519,-26.1138,1101.6189],[23.2158,-26.1157,1113.843],[23.2321,-26.0527,1107.3409],[23.3069,-26.0703,1033.774],[23.3539,-26.0895,1059.2424],[23.3874,-26.0062,1082.4434],[23.3206,-25.9928,1055.2852],[23.0869,-25.9826,1043.2279],[23.0883,-25.999,1046.6438],[23.0881,-26.0436,1053.3829],[23.0648,-26.0991,1055.2355],[22.987,-26.09,1037.5159],[22.9811,-26.1526,1041.7793],[22.9071,-26.1459,1029.2582],[22.8993,-26.2136,1032.3301],[22.8808,-26.2624,1031.5073],[22.8484,-26.3759,1029.545],[22.8419,-26.3933,1027.3452],[22.8032,-26.4537,1021.8562],[22.7447,-26.4247,1014.4515],[22.7088,-26.4109,1005.6791],[22.7029,-26.1199,983.6502],[22.6307,-26.1226,955.0891],[22.6322,-26.1213,961.6441],[22.6281,-26.1235,957.1973],[22.6139,-26.1254,954.9956],[22.6095,-26.1274,953.7001],[22.6063,-26.1314,955.663],[22.605,-26.1355,961.3232],[22.6064,-26.144,955.5728],[22.605,-26.1492,955.2089],[22.6002,-26.1517,955.166],[22.5926,-26.1482,955.8989],[22.5875,-26.1416,953.1906],[22.5818,-26.1403,953.1637],[22.5781,-26.1426,954.127],[22.5762,-26.1473,955.861],[22.5796,-26.1584,956.5823],[22.5777,-26.1916,951.6419],[22.5745,-26.1966,955.6913],[22.5634,-26.206,951.987],[22.5579,-26.2212,952.1014],[22.5527,-26.225,950.8101],[22.5385,-26.2274,950.9418],[22.5288,-26.2267,950.6876],[22.5121,-26.2154,949.3411],[22.4951,-26.2105,949.3937],[22.4789,-26.2012,951.0582],[22.4742,-26.1997,947.7078],[22.4717,-26.2006,948.6852],[22.4661,-26.2058,948.5275],[22.4607,-26.2222,947.71],[22.4541,-26.2279,947.2747],[22.4435,-26.2292,947.3947],[22.4338,-26.2272,947.621],[22.4259,-26.2233,947.9977],[22.4201,-26.2244,952.6799],[22.4151,-26.238,951.3387],[22.4023,-26.2441,947.4081],[22.3988,-26.2481,946.0342],[22.3994,-26.2548,948.995],[22.406,-26.2644,950.8145],[22.4059,-26.2682,953.2112],[22.4027,-26.2729,947.2811],[22.3862,-26.285,945.5617],[22.3802,-26.2862,947.5586],[22.368,-26.2842,946.679],[22.3631,-26.2858,945.132],[22.3623,-26.2902,944.4874],[22.3664,-26.3016,944.9363],[22.3672,-26.3146,943.7991],[22.3668,-26.3192,944.6353],[22.3629,-26.3255,947.0394],[22.3589,-26.3276,944.0242],[22.3518,-26.3274,944.4152],[22.3392,-26.3204,942.9928],[22.3259,-26.3223,942.917],[22.3203,-26.3249,942.6664],[22.3127,-26.3412,943.0901],[22.3069,-26.3441,942.3313],[22.3017,-26.3442,942.0493],[22.2853,-26.34,941.9504],[22.2682,-26.3452,944.7083],[22.2472,-26.347,940.9368],[22.2423,-26.3499,940.7574],[22.2377,-26.3579,940.6792],[22.2387,-26.3706,940.4857],[22.2251,-26.3774,938.999],[22.214,-26.3861,938.7692],[22.1948,-26.3941,938.5127],[22.1905,-26.4,937.9873],[22.1915,-26.4058,941.1868],[22.1989,-26.4143,937.6606],[22.2008,-26.4203,937.597],[22.2002,-26.4248,939.2937],[22.1962,-26.43,939.781],[22.1835,-26.436,945.256],[22.1815,-26.4392,936.897],[22.1813,-26.4491,938.9051],[22.1855,-26.4604,941.9172],[22.1823,-26.4692,936.319],[22.1797,-26.4719,938.4796],[22.1674,-26.4772,936.6722],[22.1601,-26.4833,935.429],[22.1583,-26.488,939.4891],[22.1592,-26.4915,935.6641],[22.1655,-26.4998,934.4756],[22.1657,-26.5039,934.7083],[22.1635,-26.5083,935.1703],[22.1589,-26.5121,937.3467],[22.142,-26.519,934.8112],[22.1352,-26.5235,933.8639],[22.1331,-26.5261,934.3282],[22.1318,-26.5322,940.4221],[22.1336,-26.5406,933.5189],[22.1326,-26.5448,937.444],[22.1262,-26.5474,933.5031],[22.1141,-26.5462,939.4777],[22.1086,-26.5488,933.2178],[22.104,-26.5536,933.3196],[22.1015,-26.5658,932.8894],[22.0985,-26.5706,932.0768],[22.0947,-26.5729,935.3336],[22.0854,-26.5749,932.111],[22.0791,-26.5792,932.4169],[22.0767,-26.5828,932.1786],[22.0692,-26.6084,931.4324],[22.0514,-26.6335,930.6343],[22.0452,-26.6352,931.449],[22.0305,-26.634,928.1365],[22.0175,-26.6365,925.103],[22.0109,-26.6396,930.0342],[22.0011,-26.6479,923.1656],[21.9845,-26.6503,911.7913],[21.949,-26.67,924.7928],[21.9427,-26.6698,924.2543],[21.9359,-26.6666,907.3973],[21.9266,-26.6647,904.9825],[21.9035,-26.6701,911.5833],[21.8934,-26.669,902.2078],[21.8832,-26.6707,901.2635],[21.8681,-26.6691,900.2132],[21.8454,-26.664,894.3155],[21.8387,-26.6647,896.9812],[21.8302,-26.6598,891.0145],[21.8233,-26.6598,893.9674],[21.8083,-26.6704,890.0719],[21.7953,-26.6727,889.5192],[21.7874,-26.6761,891.8258],[21.7712,-26.6902,888.6655],[21.7692,-26.6957,888.8175],[21.7706,-26.7045,888.3188],[21.7837,-26.7162,887.4069],[21.7873,-26.7222,886.4723],[21.7847,-26.7503,885.5199],[21.7929,-26.7696,885.2525],[21.8103,-26.7742,930.9615],[21.831,-26.7978,936.0589],[21.8724,-26.8601,937.0456],[21.9075,-26.9323,928.4229],[21.9171,-26.9587,928.7714],[21.9516,-26.9488,932.5123],[21.9852,-27.0182,944.699],[21.9995,-27.0248,950.5059],[21.9995,-27.1103,963.849],[22.0297,-27.0964,968.1636],[22.0588,-27.0969,976.067],[22.1243,-27.0736,982.7919],[22.1424,-27.0429,981.7226],[22.1116,-27.0046,966.0167],[22.11,-26.9939,966.0119],[22.1046,-26.9952,964.2559],[22.1003,-26.988,963.2666],[22.1098,-26.9761,963.4424],[22.1506,-27.0309,981.5575],[22.1871,-27.0701,996.9651],[22.1971,-27.0867,1001.8978],[22.2094,-27.0944,1005.4353],[22.2286,-27.0747,1009.9267],[22.2517,-27.0399,1005.7934],[22.3248,-27.0777,1034.1855],[22.3413,-27.2611,1088.9573],[22.3975,-27.264,1120.1953],[22.3964,-27.278199999999998,1116.4277],[22.4687,-27.2779,1407.6975],[22.4779,-27.2799,1231.7362],[22.5383,-27.2767,1447.0444],[22.5442,-27.2737,1393.3403],[22.6204,-27.2631,1394.0618],[22.6521,-27.2369,1169.4529],[22.6857,-27.2673,1204.4443],[22.676,-27.2823,1242.4655],[22.6726,-27.3029,1297.0775],[22.653,-27.3141,1202.1215],[22.6458,-27.3498,1175.9001],[22.6817,-27.3477,1217.0303],[22.6712,-27.3899,1156.3444],[22.6691,-27.4507,1177.283],[22.7198,-27.4564,1197.2441],[22.7146,-27.5492,1138.3575],[22.7778,-27.5512,1121.4646],[22.8445,-27.5437,1095.6194],[22.8341,-27.5072,1090.8522],[22.8474,-27.5047,1091.3113],[22.8449,-27.4875,1087.2537],[22.8488,-27.4588,1090.343],[22.8349,-27.4433,1082.6445],[22.8304,-27.4131,1067.4692],[22.8223,-27.3947,1081.9709],[22.8374,-27.3904,1076.2229],[22.9186,-27.4017,1085.5427],[22.9898,-27.407,1103.405],[22.9877,-27.4123,1103.2449],[22.9957,-27.4128,1107.7648],[22.9955,-27.4074,1107.2717],[23.123,-27.4065,1153.4471],[23.1707,-27.4115,1184.0232],[23.2159,-27.4192,1233.4646],[23.232,-27.4166,1268.1322],[23.2205,-27.4035,1238.8584],[23.2294,-27.3991,1295.1895],[23.2757,-27.3979,1394.4506],[23.2718,-27.3785,1426.7306],[23.2884,-27.368,1289.4972],[23.2504,-27.3608,1267.2225],[23.2293,-27.3418,1320.6091],[23.1839,-27.2925,1347.7235],[23.1583,-27.2549,1231.1831],[23.1324,-27.237,1241.4734],[23.1169,-27.2011,1300.6373],[23.1541,-27.1572,1118.2537],[23.1781,-27.1358,1118.615],[23.2903,-27.2163,1196.1621],[23.3322,-27.2523,1219.4583],[23.3955,-27.3002,1258.2798],[23.4777,-27.2916,1278.2346],[23.5257,-27.3421,1315.882],[23.5651,-27.3353,1315.5402],[23.5676,-27.3815,1343.5581],[23.583,-27.3807,1347.7203],[23.6087,-27.4286,1390.0724],[23.6108,-27.4724,1421.1082],[23.6314,-27.4943,1435.5419],[23.6715,-27.5161,1444.752],[23.7251,-27.5306,1467.0966],[23.7671,-27.5532,1489.5933],[23.7891,-27.5188,1473.4275]]]]}
,"properties": {"GID_3": "ZAF.8.2.3_1","GID_0": "ZAF","country": "SouthAfrica","GID_1": "ZAF.8_1","province": "NorthernCape","NL_NAME_1": "NA","GID_2": "ZAF.8.2_1","county": "JohnTaoloGaetsewe","NL_NAME_2": "NA","city": "JoeMorolong","VARNAME_3": "NA","NL_NAME_3": "NA","TYPE_3": "LocalMunicipality","ENGTYPE_3": "LocalMunicipality","CC_3": "NC451","HASC_3": "NA","name": "Joe_Morolong.city","area_km2": 20208.89,"hist_schema_id": "Elevation0-9000","hist_area_km2": {"875": 1.0,"900": 10.49,"925": 320.8,"950": 1773.14,"975": 2532.38,"1000": 1522.73,"1025": 1816.12,"1050": 2486.45,"1075": 1864.96,"1100": 1402.6,"1125": 1206.35,"1150": 761.3,"1175": 739.87,"1200": 517.46,"1225": 467.71,"1250": 442.76,"1275": 386.6,"1300": 440.56,"1325": 367.66,"1350": 233.65,"1375": 208.79,"1400": 203.43,"1425": 244.96,"1450": 213.94,"1475": 41.91,"1500": 0.51,"1525": 0.4,"1550": 0.28}}}