{"type": "Feature","bbox": [26.0546,-28.0984,26.8577,-27.1044],"geometry": {"type": "MultiPolygon","coordinates": [[[[26.5488,-27.874,1307.2925],[26.5576,-27.8341,1308.355],[26.5519,-27.8331,1306.3369],[26.5594,-27.7972,1300.6501],[26.5557,-27.7905,1294.7124],[26.5152,-27.787,1290.3199],[26.5445,-27.7464,1295.3733],[26.5229,-27.7328,1293.0056],[26.5609,-27.7241,1303.2737],[26.598,-27.6998,1299.9929],[26.6363,-27.6591,1292.4758],[26.6846,-27.6826,1300.5594],[26.692,-27.677,1297.4927],[26.7419,-27.6936,1321.9773],[26.7896,-27.6653,1341.3347],[26.7988,-27.652,1336.7821],[26.8192,-27.6385,1318.5306],[26.8366,-27.623,1299.2826],[26.8466,-27.6236,1315.0973],[26.8491,-27.6199,1315.2637],[26.8577,-27.586,1311.6951],[26.8416,-27.5845,1304.4927],[26.8185,-27.5856,1312.319],[26.7758,-27.5754,1309.267],[26.7633,-27.5643,1311.0718],[26.7537,-27.514,1279.5027],[26.7662,-27.5182,1283.2964],[26.7649,-27.5095,1281.877],[26.766,-27.5091,1281.877],[26.7712,-27.5105,1279.1824],[26.7686,-27.5158,1279.6628],[26.7897,-27.5108,1285.0295],[26.7931,-27.515,1283.3995],[26.7735,-27.4565,1337.4971],[26.7899,-27.4477,1355.3223],[26.7568,-27.4356,1335.2859],[26.7463,-27.3953,1327.7551],[26.699,-27.4008,1278.2107],[26.696,-27.3498,1318.1906],[26.738,-27.3449,1327.2379],[26.7577,-27.3482,1317.6671],[26.7544,-27.3303,1328.5469],[26.7513,-27.3317,1329.902],[26.7434,-27.3173,1320.6346],[26.75,-27.3141,1322.021],[26.7432,-27.3037,1314.1165],[26.7613,-27.2988,1326.244],[26.7568,-27.2835,1316.8716],[26.7396,-27.2882,1310.9116],[26.7344,-27.2743,1306.1608],[26.7159,-27.2806,1301.4741],[26.7099,-27.2682,1294.0602],[26.7229,-27.264,1302.8253],[26.7276,-27.2308,1308.2075],[26.7373,-27.2241,1316.0222],[26.7374,-27.2135,1337.4998],[26.7032,-27.2188,1309.8036],[26.6831,-27.1903,1319.9259],[26.6452,-27.1909,1323.4241],[26.6353,-27.1716,1335.8214],[26.5754,-27.1833,1323.3385],[26.5561,-27.1598,1311.6309],[26.5622,-27.1598,1313.2347],[26.5216,-27.1044,1264.0],[26.5142,-27.1189,1264.0],[26.5029,-27.1307,1262.9248],[26.4979,-27.1329,1264.1023],[26.4874,-27.13,1261.4946],[26.4829,-27.1317,1263.7023],[26.4781,-27.1373,1259.4264],[26.4763,-27.1485,1259.4568],[26.4731,-27.1542,1261.8438],[26.4592,-27.158,1260.3958],[26.4407,-27.15,1257.2891],[26.4286,-27.1503,1259.3015],[26.4253,-27.154,1255.0],[26.4198,-27.1705,1259.2081],[26.4272,-27.1852,1251.0],[26.4326,-27.1896,1252.7148],[26.4347,-27.1949,1254.2247],[26.4358,-27.2051,1253.9011],[26.4426,-27.2163,1252.2288],[26.4614,-27.2276,1248.1814],[26.4768,-27.2446,1249.9841],[26.4888,-27.2506,1246.5269],[26.4946,-27.2591,1249.4307],[26.4972,-27.2678,1243.0],[26.4962,-27.2738,1245.8837],[26.4889,-27.2833,1240.5],[26.4885,-27.2861,1240.5],[26.4883,-27.2963,1248.3486],[26.4939,-27.3083,1240.0],[26.4934,-27.3191,1240.0],[26.4849,-27.3239,1240.0],[26.4808,-27.3232,1243.1609],[26.4791,-27.3189,1242.9653],[26.4849,-27.3135,1241.2705],[26.4848,-27.3091,1244.1195],[26.4814,-27.3067,1242.7383],[26.4755,-27.3083,1239.5],[26.4738,-27.3123,1243.782],[26.4582,-27.3262,1240.0872],[26.4555,-27.3374,1244.644],[26.4472,-27.344,1242.3799],[26.4464,-27.3497,1264.9631],[26.462,-27.3657,1238.5],[26.4763,-27.3718,1240.0974],[26.4847,-27.3799,1239.0897],[26.4995,-27.3797,1238.0],[26.5128,-27.3848,1244.5618],[26.5142,-27.3868,1240.4218],[26.5138,-27.3903,1238.0],[26.5104,-27.3962,1239.6378],[26.5052,-27.3983,1244.6287],[26.4976,-27.3957,1237.75],[26.4683,-27.3912,1242.8276],[26.4589,-27.3866,1240.8647],[26.4519,-27.3857,1240.3621],[26.4452,-27.3881,1240.9333],[26.435,-27.3988,1238.8982],[26.4231,-27.4069,1237.0],[26.4165,-27.4027,1240.8762],[26.3943,-27.394,1239.6667],[26.388,-27.3895,1245.1881],[26.3802,-27.3884,1240.3531],[26.3724,-27.3838,1243.5021],[26.3616,-27.3893,1237.8157],[26.3467,-27.3853,1233.9377],[26.3396,-27.3894,1238.7032],[26.3354,-27.3984,1232.8676],[26.3272,-27.4058,1230.0],[26.3279,-27.42,1234.8212],[26.3266,-27.4292,1229.5],[26.3241,-27.4329,1230.9971],[26.3211,-27.4334,1233.4055],[26.3168,-27.4314,1232.578],[26.3136,-27.4224,1230.3219],[26.3088,-27.4178,1234.543],[26.2929,-27.416,1231.4103],[26.2862,-27.4222,1229.72],[26.2761,-27.4211,1229.5785],[26.2677,-27.4163,1232.3167],[26.2635,-27.4169,1228.6993],[26.2529,-27.4295,1230.0808],[26.245,-27.4299,1229.9636],[26.2416,-27.432,1228.2986],[26.2339,-27.4542,1228.0],[26.22,-27.4739,1231.6978],[26.2208,-27.4833,1229.1272],[26.2312,-27.4954,1232.421],[26.229,-27.5121,1228.0],[26.2222,-27.5145,1230.8239],[26.2018,-27.5168,1230.8456],[26.1861,-27.5315,1231.3556],[26.1701,-27.5361,1228.6056],[26.168,-27.538,1230.1487],[26.1631,-27.5517,1228.6227],[26.1536,-27.564,1228.4504],[26.1451,-27.5626,1231.0427],[26.1403,-27.5576,1228.4506],[26.134,-27.5585,1227.0],[26.1238,-27.5669,1227.7124],[26.1221,-27.5724,1235.1646],[26.1245,-27.5806,1228.583],[26.1133,-27.5933,1227.0],[26.1061,-27.5956,1227.0],[26.0882,-27.5939,1226.5],[26.0845,-27.5951,1226.5],[26.0749,-27.6205,1226.5],[26.0858,-27.6428,1226.5],[26.0862,-27.648,1228.2754],[26.0799,-27.6534,1227.9036],[26.0637,-27.6602,1226.5],[26.0546,-27.6687,1228.3696],[26.0619,-27.6768,1227.2266],[26.0678,-27.6808,1226.5],[26.0912,-27.6818,1226.5],[26.0948,-27.6846,1232.0497],[26.0946,-27.6914,1226.5],[26.0926,-27.6961,1227.2684],[26.0758,-27.7106,1226.5],[26.0901,-27.7281,1240.9504],[26.1076,-27.7626,1257.5718],[26.1255,-27.8186,1268.3055],[26.1455,-27.8409,1269.9701],[26.131,-27.8575,1267.074],[26.1228,-27.8753,1269.6989],[26.1409,-27.8867,1267.7804],[26.1629,-27.8603,1269.1248],[26.2174,-27.8831,1288.7947],[26.2216,-27.8879,1290.569],[26.2068,-27.9021,1273.24],[26.2122,-27.9083,1271.1261],[26.1832,-27.9419,1271.1589],[26.2007,-27.9597,1269.7236],[26.1882,-28.0013,1252.207],[26.1891,-28.0028,1252.207],[26.1953,-28.0073,1252.5974],[26.1969,-28.0041,1252.7451],[26.1987,-28.0041,1253.0266],[26.2064,-28.0122,1254.1125],[26.215,-28.0112,1254.342],[26.2197,-28.0155,1253.92],[26.2234,-28.0144,1254.6698],[26.2295,-28.0205,1254.8181],[26.2403,-28.0193,1255.2083],[26.2403,-28.0248,1255.505],[26.2554,-28.0221,1256.1796],[26.2578,-28.0243,1256.3549],[26.2663,-28.0261,1256.636],[26.2687,-28.0296,1257.9502],[26.2707,-28.0291,1256.4572],[26.2733,-28.024,1256.5967],[26.2769,-28.0247,1258.1741],[26.2763,-28.0278,1256.8589],[26.2843,-28.0327,1256.4576],[26.2993,-28.0305,1257.3173],[26.2957,-28.0437,1258.5227],[26.3117,-28.0462,1258.5472],[26.3193,-28.0498,1260.5228],[26.32,-28.0531,1259.6646],[26.3236,-28.0553,1260.5737],[26.3251,-28.055,1259.5726],[26.3254,-28.0492,1259.3699],[26.3344,-28.0523,1260.1006],[26.337,-28.0603,1260.266],[26.3434,-28.0619,1259.7319],[26.3339,-28.0958,1289.4536],[26.3476,-28.0751,1264.0963],[26.359,-28.0788,1269.355],[26.3547,-28.086,1275.8323],[26.3584,-28.0868,1275.8193],[26.3624,-28.079,1269.222],[26.3654,-28.0792,1268.6952],[26.3609,-28.0891,1276.1307],[26.3667,-28.0891,1275.2957],[26.3658,-28.0914,1278.0508],[26.368,-28.087,1273.1134],[26.3739,-28.0884,1275.8322],[26.376,-28.0905,1273.4883],[26.3817,-28.0866,1262.2225],[26.3848,-28.0778,1261.7164],[26.4056,-28.0755,1265.3259],[26.4056,-28.0739,1264.2673],[26.409,-28.0755,1263.6744],[26.4104,-28.0838,1263.7676],[26.4101,-28.0856,1265.4705],[26.4067,-28.0874,1263.0754],[26.406,-28.0908,1264.8657],[26.4101,-28.0925,1264.0598],[26.4122,-28.0909,1266.7186],[26.4211,-28.0943,1265.1044],[26.4289,-28.088,1266.4656],[26.4302,-28.0833,1265.3488],[26.4376,-28.0828,1265.8451],[26.4389,-28.0791,1266.9187],[26.4407,-28.0798,1266.6714],[26.441,-28.0833,1267.2424],[26.4452,-28.0814,1267.0178],[26.4434,-28.0786,1266.0854],[26.4456,-28.0395,1294.4985],[26.4564,-28.0459,1295.8179],[26.457,-28.0784,1266.6816],[26.4627,-28.0808,1265.4415],[26.4611,-28.0827,1268.1788],[26.4632,-28.0833,1267.6462],[26.468,-28.0819,1268.2731],[26.4666,-28.0792,1266.624],[26.4726,-28.0783,1268.2847],[26.4811,-28.0861,1267.0369],[26.4829,-28.0958,1268.9155],[26.4912,-28.0984,1269.3905],[26.4959,-28.0526,1298.0552],[26.4987,-28.053,1297.5315],[26.5065,-28.0414,1299.4048],[26.4912,-28.0366,1298.4943],[26.5097,-27.9932,1298.4275],[26.5055,-27.9521,1288.1989],[26.5598,-27.9392,1306.387],[26.5281,-27.9197,1302.4987],[26.4911,-27.9128,1297.3521],[26.4971,-27.9034,1290.3979],[26.5147,-27.8954,1294.1418],[26.4926,-27.8643,1283.4077],[26.5488,-27.874,1307.2925]]]]}
,"properties": {"GID_3": "ZAF.2.2.3_1","GID_0": "ZAF","country": "SouthAfrica","GID_1": "ZAF.2_1","province": "FreeState","NL_NAME_1": "NA","GID_2": "ZAF.2.2_1","county": "Lejweleputswa","NL_NAME_2": "NA","city": "Nala","VARNAME_3": "NA","NL_NAME_3": "NA","TYPE_3": "LocalMunicipality","ENGTYPE_3": "LocalMunicipality","CC_3": "FS185","HASC_3": "NA","name": "Nala.city","area_km2": 4134.531,"hist_schema_id": "Elevation0-9000","hist_area_km2": {"1225": 37.434,"1250": 415.712,"1275": 1788.485,"1300": 1552.851,"1325": 333.183,"1350": 6.866}}}