{"type": "Feature","bbox": [26.385,-25.5244,27.5099,-24.7186],"geometry": {"type": "MultiPolygon","coordinates": [[[[26.608,-25.5227,1337.8044],[26.6083,-25.5244,1349.619],[26.6528,-25.5223,1281.7561],[26.6487,-25.4476,1136.156],[26.6695,-25.4439,1176.8766],[26.6875,-25.3936,1133.1445],[26.7605,-25.3592,1129.4354],[26.8515,-25.3582,1112.7579],[26.8532,-25.3741,1116.507],[26.9344,-25.3776,1153.3043],[26.9351,-25.3823,1148.6302],[27.0075,-25.3745,1097.6145],[27.0034,-25.39,1113.6466],[27.0491,-25.3856,1052.3058],[27.0536,-25.3871,1036.2881],[27.0571,-25.3856,1033.2997],[27.0655,-25.3897,1028.193],[27.0687,-25.3939,1027.6011],[27.0716,-25.3928,1027.6792],[27.073,-25.394,1025.4788],[27.0786,-25.3914,1025.6481],[27.083,-25.3938,1024.5068],[27.0954,-25.3925,1022.384],[27.0886,-25.3676,1062.3503],[27.1072,-25.3605,1068.1475],[27.1497,-25.3557,1038.552],[27.1564,-25.3646,1017.0867],[27.1641,-25.3623,1015.5685],[27.1735,-25.3549,1013.3679],[27.1775,-25.3538,1011.3961],[27.1774,-25.3506,1010.9436],[27.1793,-25.3499,1010.1636],[27.1885,-25.3682,1034.1899],[27.2296,-25.3505,1021.1163],[27.2273,-25.3431,1006.8138],[27.2407,-25.3379,1002.6959],[27.2461,-25.3321,1000.4933],[27.2525,-25.334,999.7303],[27.2565,-25.3374,999.9606],[27.2628,-25.3361,1001.2211],[27.2657,-25.3378,998.795],[27.2679,-25.335,999.2144],[27.2766,-25.3333,998.3054],[27.2843,-25.3351,997.6307],[27.2899,-25.3386,996.1259],[27.2907,-25.3342,995.5968],[27.2949,-25.3338,997.5851],[27.2983,-25.3294,995.9411],[27.3039,-25.3304,995.3401],[27.3039,-25.335,993.6829],[27.3068,-25.3361,993.7609],[27.3097,-25.3336,992.3989],[27.3123,-25.3336,992.9478],[27.3135,-25.3293,992.5461],[27.3174,-25.3265,992.4552],[27.3211,-25.3311,992.5312],[27.3321,-25.3275,991.0328],[27.3367,-25.3293,990.3212],[27.343,-25.3275,990.7527],[27.3491,-25.3284,988.7064],[27.3575,-25.3258,987.7294],[27.3629,-25.3271,987.2242],[27.365,-25.3254,987.1441],[27.3634,-25.2995,1039.3484],[27.428,-25.2897,1019.1754],[27.4242,-25.2795,1039.5525],[27.4691,-25.2321,1052.2025],[27.4669,-25.2308,1052.1023],[27.4902,-25.1972,1016.7797],[27.4917,-25.1615,1094.6769],[27.4834,-25.1128,1064.9779],[27.5099,-25.1101,1031.6302],[27.5032,-25.0984,1004.1711],[27.4869,-25.0784,1126.234],[27.4818,-25.0671,1023.843],[27.4313,-25.0821,1074.4253],[27.4246,-25.0689,1071.7811],[27.3825,-25.08,1125.8624],[27.337,-25.0878,1122.7061],[27.3136,-25.0421,1085.832],[27.2719,-25.0367,1042.8265],[27.2236,-25.0674,1055.688],[27.2317,-25.0361,1044.8972],[27.2035,-25.0332,1027.9099],[27.2091,-24.9956,1004.7948],[27.2261,-24.9639,1001.4678],[27.1834,-24.9485,1011.1043],[27.1541,-24.979,1031.6758],[27.1439,-24.9462,1012.5939],[27.1012,-24.9,1023.1591],[27.0412,-24.887,1066.0476],[27.0263,-24.7186,1067.561],[26.9759,-24.7207,1053.3055],[26.9807,-24.7758,1100.9968],[26.9426,-24.7763,1107.4757],[26.9433,-24.7814,1114.5471],[26.7795,-24.8377,1092.3114],[26.7513,-24.883,1096.6473],[26.7051,-24.857,1103.9502],[26.6993,-24.8673,1138.1487],[26.622,-24.8099,1030.9932],[26.601,-24.8158,1045.8368],[26.5665,-24.8199,1106.429],[26.5286,-24.8138,1121.6119],[26.4583,-24.8095,933.486],[26.4589,-24.8146,933.8015],[26.4628,-24.8185,934.3029],[26.4776,-24.8232,935.8348],[26.4804,-24.8304,936.0212],[26.4883,-24.8405,938.8846],[26.484,-24.8479,939.3374],[26.4738,-24.8449,937.9227],[26.4726,-24.85,938.4422],[26.468,-24.8571,939.5857],[26.455,-24.8542,946.5636],[26.4542,-24.8587,940.9158],[26.4497,-24.8622,941.4977],[26.4538,-24.8668,944.6073],[26.454,-24.8797,956.0],[26.4495,-24.8985,956.0],[26.4513,-24.9129,956.0],[26.4421,-24.9355,956.0],[26.4438,-24.9478,956.0],[26.4465,-24.9498,956.0],[26.4517,-24.9492,956.0],[26.4551,-24.9529,956.0],[26.4539,-24.9568,956.0],[26.4473,-24.9629,956.0],[26.4445,-24.9676,956.0],[26.4508,-24.9791,956.2441],[26.4461,-24.9879,957.589],[26.4409,-24.992,958.1671],[26.4347,-24.9891,958.8837],[26.4316,-24.9893,959.2289],[26.4304,-24.991,958.0636],[26.4317,-25.0015,959.3069],[26.4236,-25.0078,960.4348],[26.4249,-25.0194,961.6711],[26.4226,-25.0228,961.9775],[26.4221,-25.029,962.2025],[26.4258,-25.0362,963.6959],[26.421,-25.0394,965.0692],[26.4201,-25.0419,965.3458],[26.4174,-25.0418,967.2921],[26.4182,-25.0467,967.8587],[26.385,-25.0593,977.533],[26.3923,-25.0726,973.7189],[26.4058,-25.088,993.335],[26.4113,-25.0846,987.9483],[26.4227,-25.1325,993.085],[26.4185,-25.1844,997.0529],[26.42,-25.1936,987.2476],[26.4165,-25.1946,987.7791],[26.4181,-25.1971,987.9164],[26.4147,-25.1958,987.3445],[26.4133,-25.1969,987.507],[26.414,-25.1984,988.1054],[26.4105,-25.1997,988.079],[26.4109,-25.2025,988.2875],[26.4159,-25.2049,989.5574],[26.4123,-25.2069,990.1877],[26.4132,-25.2091,989.3347],[26.4112,-25.2112,990.0002],[26.411,-25.2074,990.7516],[26.4086,-25.2094,990.8632],[26.407,-25.208,991.4725],[26.4066,-25.2108,992.178],[26.4049,-25.211,990.9003],[26.4071,-25.2141,992.1507],[26.4056,-25.215,992.3472],[26.4047,-25.2134,992.2327],[26.4024,-25.2181,991.8735],[26.4098,-25.2303,993.0847],[26.4175,-25.2353,995.373],[26.4162,-25.2352,993.3361],[26.4163,-25.2377,993.775],[26.4136,-25.2372,994.8995],[26.4137,-25.239,995.9518],[26.4098,-25.2383,994.7149],[26.4118,-25.2404,996.2735],[26.4091,-25.241,993.9297],[26.41,-25.2457,995.1714],[26.4053,-25.2505,995.9982],[26.4118,-25.2529,998.1165],[26.409,-25.2544,996.5464],[26.4122,-25.2567,998.621],[26.4119,-25.2599,996.9947],[26.4135,-25.2585,999.4066],[26.4144,-25.2602,1004.1405],[26.4115,-25.2622,997.0082],[26.411,-25.2672,1000.462],[26.406,-25.2657,999.3929],[26.4071,-25.2674,1001.3608],[26.4053,-25.2714,999.0761],[26.4074,-25.271,1000.6749],[26.4061,-25.2724,1001.2313],[26.4072,-25.2752,1000.1564],[26.4047,-25.2784,1001.2504],[26.4066,-25.2819,1003.5961],[26.4046,-25.282,1004.3416],[26.405,-25.2858,1005.1714],[26.466,-25.2907,1019.3451],[26.4631,-25.3354,1043.8624],[26.4444,-25.3361,1043.9515],[26.4456,-25.3724,1056.7776],[26.4394,-25.3844,1059.2909],[26.4266,-25.4187,1048.4187],[26.4269,-25.4474,1072.9875],[26.417,-25.4544,1074.2517],[26.4193,-25.4776,1121.5861],[26.425,-25.4917,1185.1147],[26.4355,-25.5112,1302.2565],[26.4405,-25.5108,1340.8982],[26.4621,-25.4878,1150.9243],[26.506,-25.5019,1242.8076],[26.516,-25.4791,1141.5808],[26.5224,-25.4832,1151.0746],[26.5376,-25.4864,1152.939],[26.5354,-25.4697,1120.9835],[26.5947,-25.4699,1155.7999],[26.608,-25.5227,1337.8044]]]]}
,"properties": {"GID_3": "ZAF.7.1.4_1","GID_0": "ZAF","country": "SouthAfrica","GID_1": "ZAF.7_1","province": "NorthWest","NL_NAME_1": "NA","GID_2": "ZAF.7.1_1","county": "Bojanala","NL_NAME_2": "NA","city": "MosesKotane","VARNAME_3": "NA","NL_NAME_3": "NA","TYPE_3": "LocalMunicipality","ENGTYPE_3": "LocalMunicipality","CC_3": "NW375","HASC_3": "NA","name": "Moses_Kotane.city","area_km2": 5731.819,"hist_schema_id": "Elevation0-9000","hist_area_km2": {"925": 0.77,"950": 33.618,"975": 152.794,"1000": 383.913,"1025": 708.545,"1050": 850.049,"1075": 832.466,"1100": 813.512,"1125": 650.198,"1150": 419.439,"1175": 249.547,"1200": 153.992,"1225": 110.965,"1250": 87.258,"1275": 72.039,"1300": 51.629,"1325": 37.682,"1350": 32.161,"1375": 28.96,"1400": 22.113,"1425": 15.191,"1450": 9.188,"1475": 5.18,"1500": 3.299,"1525": 2.551,"1550": 1.592,"1575": 1.074,"1600": 0.806,"1625": 0.748,"1650": 0.365,"1675": 0.173}}}