{"type": "Feature","bbox": [31.9513,-27.9299,32.4369,-26.8044],"geometry": {"type": "MultiPolygon","coordinates": [[[[32.0111,-27.9034,490.7512],[32.0329,-27.9299,313.4916],[32.0618,-27.8967,227.4],[32.0659,-27.896,225.8267],[32.0739,-27.8885,221.6613],[32.0752,-27.8855,230.881],[32.0743,-27.8803,217.9806],[32.0692,-27.8805,214.6781],[32.0679,-27.8781,223.3367],[32.0745,-27.8735,208.0377],[32.0702,-27.8722,206.1553],[32.0704,-27.8707,207.2199],[32.0826,-27.8702,200.4613],[32.0857,-27.8646,196.1349],[32.0912,-27.866,195.0705],[32.0969,-27.8651,192.2832],[32.0984,-27.8685,190.9236],[32.0967,-27.871,186.9084],[32.1008,-27.8739,187.6442],[32.1087,-27.8687,182.3757],[32.1127,-27.8704,176.647],[32.1173,-27.8698,176.34],[32.1151,-27.8655,172.9931],[32.1168,-27.8647,172.4165],[32.1206,-27.8663,170.4748],[32.1211,-27.8633,170.9177],[32.1236,-27.8658,167.859],[32.1246,-27.8643,170.8032],[32.1273,-27.8651,166.5825],[32.1284,-27.8632,168.5751],[32.134,-27.8675,163.3008],[32.139,-27.8673,173.2004],[32.1391,-27.8557,156.6027],[32.1473,-27.8594,151.2902],[32.1495,-27.8575,153.6421],[32.1515,-27.8586,148.9592],[32.157,-27.8578,145.8975],[32.1573,-27.8563,145.8975],[32.1609,-27.8551,143.0279],[32.1508,-27.8528,143.3178],[32.1512,-27.8485,144.6377],[32.1559,-27.8505,137.4822],[32.1655,-27.8489,134.197],[32.1673,-27.852,133.7688],[32.1697,-27.852,132.1909],[32.1694,-27.8504,131.921],[32.1718,-27.8501,133.2694],[32.1714,-27.844,132.3422],[32.1732,-27.8363,126.1276],[32.1751,-27.8362,124.1806],[32.1717,-27.8317,123.8377],[32.1771,-27.8321,119.9672],[32.1799,-27.8283,120.0765],[32.1784,-27.8253,118.1581],[32.1849,-27.8235,117.3688],[32.1857,-27.8164,112.6953],[32.1908,-27.8145,113.3956],[32.1908,-27.8073,110.2224],[32.1876,-27.8071,107.4458],[32.1866,-27.8055,106.1721],[32.1888,-27.7995,103.0254],[32.1867,-27.7945,103.4649],[32.1893,-27.7932,100.9492],[32.1853,-27.7879,100.3517],[32.1882,-27.7847,99.441],[32.2008,-27.7826,122.6758],[32.2062,-27.7857,94.8084],[32.209,-27.7815,100.7787],[32.2117,-27.7802,97.5587],[32.2266,-27.7837,94.4055],[32.2344,-27.7869,89.336],[32.2395,-27.791,92.3545],[32.2434,-27.7986,92.254],[32.2464,-27.7971,108.1415],[32.2598,-27.8074,193.6227],[32.2773,-27.7976,173.3962],[32.3373,-27.7536,50.1962],[32.3331,-27.7488,45.4275],[32.3436,-27.7277,39.5444],[32.3492,-27.7202,48.0262],[32.3379,-27.707,32.2765],[32.3427,-27.7051,31.3761],[32.3451,-27.7073,28.7609],[32.347,-27.7068,30.3788],[32.3465,-27.7013,30.2452],[32.3523,-27.6991,30.0525],[32.3528,-27.6911,25.4138],[32.3637,-27.6988,68.7612],[32.3679,-27.6931,75.8645],[32.3841,-27.6794,30.7675],[32.3885,-27.6837,27.6869],[32.3976,-27.6825,29.8949],[32.3941,-27.7113,29.0609],[32.4058,-27.7026,25.9733],[32.4356,-27.693,31.3102],[32.4369,-27.6869,23.0452],[32.4266,-27.6887,22.135],[32.4172,-27.6702,23.258],[32.4191,-27.6639,28.1802],[32.4136,-27.6608,23.6319],[32.4102,-27.6622,20.2094],[32.4058,-27.6563,19.8511],[32.4076,-27.653199999999998,19.0634],[32.4021,-27.6475,19.1916],[32.4012,-27.6361,18.0],[32.4031,-27.6317,18.0],[32.4013,-27.626,18.9564],[32.4053,-27.6168,18.0],[32.4045,-27.6104,18.0],[32.4086,-27.6041,18.0],[32.4086,-27.5993,18.0],[32.4109,-27.5936,18.0],[32.4106,-27.5911,24.1185],[32.4059,-27.5859,18.0],[32.4095,-27.5803,18.0391],[32.4076,-27.5744,18.7447],[32.4092,-27.5548,22.9209],[32.4086,-27.5392,25.0838],[32.4147,-27.5299,30.9618],[32.4077,-27.5237,32.7769],[32.4086,-27.4836,47.8097],[32.3899,-27.4824,68.976],[32.3841,-27.4853,75.1984],[32.3705,-27.4873,99.5522],[32.3667,-27.4899,106.7602],[32.3511,-27.4885,110.4693],[32.3363,-27.4897,67.1847],[32.3376,-27.5052,59.0671],[32.315,-27.5069,81.0778],[32.2991,-27.5049,86.536],[32.2895,-27.5056,80.8991],[32.2855,-27.512,70.1308],[32.2829,-27.5127,70.3283],[32.2646,-27.5114,65.6697],[32.2574,-27.5087,55.15],[32.2566,-27.5042,56.2942],[32.2586,-27.4985,57.8611],[32.2588,-27.4842,75.7577],[32.2569,-27.4722,87.4494],[32.2579,-27.4673,90.2059],[32.2498,-27.4684,83.4151],[32.2226,-27.4787,128.206],[32.2305,-27.4579,149.0206],[32.2327,-27.4294,95.8602],[32.2436,-27.4271,98.7813],[32.244,-27.4063,89.9378],[32.2402,-27.3967,80.0662],[32.2354,-27.3981,78.5256],[32.2312,-27.3839,62.9628],[32.2615,-27.3506,63.905],[32.2203,-27.3313,54.0979],[32.2218,-27.3272,51.4555],[32.2138,-27.3235,52.7698],[32.2104,-27.3201,51.8628],[32.2109,-27.3147,53.9569],[32.2245,-27.3024,50.5006],[32.2243,-27.2907,49.74],[32.2337,-27.2852,49.7528],[32.2378,-27.2751,49.959],[32.2416,-27.2722,49.8066],[32.2415,-27.2642,48.0349],[32.2476,-27.2622,46.6354],[32.2497,-27.2526,47.3007],[32.2533,-27.2498,46.6505],[32.25,-27.2397,46.4556],[32.2426,-27.2343,45.8638],[32.2315,-27.2313,46.1235],[32.2311,-27.2248,45.5552],[32.2332,-27.2167,44.8264],[32.2314,-27.2129,43.0162],[32.2241,-27.2103,43.7186],[32.2217,-27.2109,43.2974],[32.2222,-27.2131,43.3154],[32.2203,-27.2148,42.912],[32.2111,-27.2125,45.3179],[32.2157,-27.2089,41.9449],[32.216,-27.204,40.1308],[32.2206,-27.2036,41.088],[32.2312,-27.1978,41.5425],[32.2319,-27.1961,40.8992],[32.2346,-27.1965,42.1281],[32.2344,-27.1911,42.0504],[32.2409,-27.1868,42.6837],[32.2379,-27.1812,41.2567],[32.2412,-27.1784,43.9782],[32.2361,-27.1787,40.5673],[32.2305,-27.1739,41.0462],[32.2258,-27.1794,40.086],[32.2191,-27.179,41.2052],[32.2152,-27.1804,39.085],[32.2141,-27.1748,39.519],[32.2192,-27.1632,40.3494],[32.2297,-27.1529,38.7464],[32.2343,-27.1508,41.017],[32.2407,-27.1525,40.5456],[32.2398,-27.1464,40.324],[32.249,-27.1448,38.4621],[32.2526,-27.1425,36.7579],[32.2441,-27.1346,39.4662],[32.2413,-27.1348,38.6738],[32.2396,-27.1301,41.3333],[32.2413,-27.1279,38.4318],[32.2458,-27.1276,40.3747],[32.2442,-27.131,37.2559],[32.2455,-27.132,35.6736],[32.2486,-27.1291,37.3402],[32.2472,-27.1213,35.9679],[32.2505,-27.1191,36.243],[32.2478,-27.1156,34.1358],[32.2504,-27.1139,35.3004],[32.2469,-27.1126,35.1841],[32.2467,-27.1104,35.5653],[32.2502,-27.1101,34.6678],[32.2521,-27.107,35.8416],[32.255,-27.1065,33.7583],[32.2558,-27.1025,37.3871],[32.254,-27.0991,33.6613],[32.2605,-27.0974,38.4681],[32.2603,-27.0879,33.2378],[32.2541,-27.0899,33.2871],[32.2525,-27.0886,36.0815],[32.2597,-27.0851,34.4541],[32.2583,-27.0816,34.7659],[32.2613,-27.0822,34.3804],[32.2647,-27.0802,32.28],[32.2614,-27.0692,33.132],[32.2618,-27.065,35.9303],[32.2598,-27.0641,33.1388],[32.2609,-27.0623,36.0037],[32.2551,-27.0575,34.2209],[32.2539,-27.0542,34.555],[32.2507,-27.0555,33.6089],[32.2513,-27.0523,31.336],[32.2546,-27.0528,35.4654],[32.2528,-27.0485,34.1439],[32.249,-27.0497,30.3205],[32.2483,-27.0466,32.2309],[32.2464,-27.0468,31.5986],[32.2472,-27.042,44.9025],[32.2501,-27.0409,49.3589],[32.266,-27.0417,30.8205],[32.2657,-27.0378,29.9665],[32.272,-27.0271,33.0688],[32.2755,-27.0263,31.4984],[32.2788,-27.0227,34.5905],[32.2909,-27.0205,32.3837],[32.3018,-27.0208,30.3029],[32.3079,-27.0124,34.4882],[32.3092,-27.0,33.6267],[32.3078,-26.9955,32.4223],[32.2868,-26.9815,27.6711],[32.2837,-26.9751,29.2175],[32.2802,-26.9758,29.8333],[32.278,-26.9742,27.5659],[32.28,-26.9724,31.1435],[32.2778,-26.9704,28.2351],[32.282,-26.9694,30.0085],[32.2802,-26.9643,28.0743],[32.2867,-26.9627,27.9096],[32.289,-26.9672,29.812],[32.2903,-26.965699999999998,28.2192],[32.2883,-26.963,30.1062],[32.2932,-26.9656,28.0259],[32.2951,-26.9637,27.3071],[32.2943,-26.9617,27.2053],[32.2991,-26.9587,28.353],[32.3025,-26.9594,27.2254],[32.3043,-26.958,27.4638],[32.3102,-26.9611,28.5345],[32.3092,-26.957,26.3728],[32.3119,-26.9526,29.105],[32.3112,-26.945,26.2617],[32.317,-26.949,27.3155],[32.3186,-26.9468,29.3067],[32.318,-26.9438,28.0785],[32.3244,-26.9432,24.4824],[32.3242,-26.9389,27.5401],[32.3257,-26.9396,26.4784],[32.3261,-26.9431,24.4824],[32.3275,-26.944,27.73],[32.3287,-26.9429,28.4172],[32.3304,-26.9379,26.0454],[32.3275,-26.9363,27.5043],[32.3246,-26.9378,26.1216],[32.3229,-26.9308,28.617],[32.3332,-26.9289,27.5428],[32.3325,-26.9261,33.6707],[32.3351,-26.9239,34.5466],[32.333,-26.9231,33.4876],[32.3259,-26.9265,30.2131],[32.323,-26.9206,35.0281],[32.3241,-26.9177,34.8043],[32.3206,-26.9149,30.7146],[32.3245,-26.9113,33.3398],[32.3271,-26.9125,35.2658],[32.3294,-26.9115,34.283],[32.3272,-26.9065,33.6357],[32.3237,-26.9049,31.6293],[32.3264,-26.9022,30.9181],[32.3235,-26.9013,32.5786],[32.3296,-26.9001,33.3899],[32.3284,-26.8977,29.5219],[32.3252,-26.8996,33.5864],[32.3236,-26.8968,30.9236],[32.3213,-26.8976,24.8781],[32.3209,-26.8937,30.1854],[32.3168,-26.8909,27.37],[32.3241,-26.889,22.4247],[32.3291,-26.8797,22.8517],[32.3349,-26.8787,21.7732],[32.3393,-26.8798,20.9493],[32.3451,-26.8767,20.9224],[32.3467,-26.8738,21.2666],[32.3466,-26.865,23.5091],[32.3434,-26.8592,21.3457],[32.3462,-26.8552,21.2753],[32.3412,-26.8556,24.2508],[32.3387,-26.86,23.3639],[32.3311,-26.8639,24.2992],[32.3254,-26.8562,25.0941],[32.3206,-26.8527,24.3336],[32.3166,-26.8528,25.1013],[32.3082,-26.8565,29.4402],[32.2957,-26.8528,27.777],[32.2879,-26.853,37.4008],[32.2804,-26.8488,30.5545],[32.2753,-26.8496,30.5032],[32.2636,-26.8473,29.1459],[32.2569,-26.8486,30.231],[32.2534,-26.8434,29.6782],[32.2488,-26.8405,31.8598],[32.2369,-26.8389,32.0296],[32.2192,-26.8328,45.8771],[32.2078,-26.8404,36.3349],[32.2054,-26.8536,32.5],[32.2037,-26.8554,34.6533],[32.1976,-26.8566,34.0228],[32.1855,-26.8631,38.7587],[32.1688,-26.8606,35.7263],[32.1567,-26.8569,38.2139],[32.1458,-26.8504,43.6292],[32.1407,-26.8409,45.772],[32.1237,-26.8401,47.2047],[32.1201,-26.8387,48.9582],[32.1084,-26.821,46.4019],[32.1052,-26.8093,55.9361],[32.0974,-26.8044,55.7984],[32.0712,-26.8098,54.3759],[32.0655,-26.8118,52.3142],[32.0602,-26.8172,56.2453],[32.054,-26.8184,58.5032],[32.0454,-26.817,56.1799],[32.0387,-26.8122,58.0969],[32.0352,-26.8073,72.295],[32.03,-26.806,71.2775],[32.0177,-26.8074,64.3272],[32.0113,-26.8102,69.3637],[32.0159,-26.8199,506.6776],[31.996,-26.9242,474.6785],[32.0005,-26.9381,696.5259],[31.9844,-27.0012,414.249],[31.9867,-27.0062,596.3918],[31.9849,-27.0386,158.3499],[31.9796,-27.091,666.5367],[31.9746,-27.1164,731.0035],[31.9767,-27.1219,724.4272],[31.977,-27.1306,735.0695],[31.9741,-27.1484,720.9359],[31.9771,-27.2228,721.8132],[31.9757,-27.3108,700.7053],[31.9778,-27.3175,590.0497],[31.9848,-27.3175,716.0941],[31.9895,-27.3286,630.6031],[31.9904,-27.3435,718.2745],[31.9867,-27.3505,720.2416],[31.9885,-27.3602,678.9818],[31.9851,-27.3696,653.7323],[31.9909,-27.3731,663.093],[31.9891,-27.3822,611.1298],[31.991,-27.3851,470.7019],[31.9998,-27.3836,611.9872],[32.0047,-27.4013,574.5182],[32.0056,-27.4205,643.5292],[32.0102,-27.4569,398.0535],[32.015,-27.4601,410.4532],[32.0135,-27.4755,525.6256],[32.0159,-27.4968,541.7903],[32.0195,-27.5026,565.5642],[32.0182,-27.5056,545.2585],[32.0207,-27.5128,523.2969],[32.0238,-27.5149,458.5294],[32.0293,-27.5242,526.5394],[32.0276,-27.5258,471.4312],[32.0315,-27.5422,458.3775],[32.0377,-27.5458,566.313],[32.0449,-27.5532,616.7393],[32.0427,-27.5552,623.3044],[32.0501,-27.5838,504.4133],[32.0417,-27.5949,106.8587],[32.0406,-27.5897,108.172],[32.0374,-27.5871,107.3773],[32.0238,-27.5928,109.922],[32.014,-27.5943,113.0196],[32.0061,-27.5915,119.9181],[31.9963,-27.5818,116.1098],[31.9879,-27.5794,123.4669],[31.9803,-27.5966,125.2302],[31.9573,-27.593,125.9717],[31.9554,-27.5969,133.6297],[31.9571,-27.6045,130.8408],[31.9561,-27.6119,145.646],[31.9531,-27.6186,133.8574],[31.9513,-27.6191,135.0509],[31.9962,-27.8853,664.5643],[32.0111,-27.9034,490.7512]]]]}
,"properties": {"GID_3": "ZAF.4.7.2_1","GID_0": "ZAF","country": "SouthAfrica","GID_1": "ZAF.4_1","province": "KwaZulu-Natal","NL_NAME_1": "NA","GID_2": "ZAF.4.7_1","county": "Umkhanyakude","NL_NAME_2": "NA","city": "Jozini","VARNAME_3": "NA","NL_NAME_3": "NA","TYPE_3": "LocalMunicipality","ENGTYPE_3": "LocalMunicipality","CC_3": "KZN272","HASC_3": "NA","name": "Jozini.city","area_km2": 3448.855,"hist_schema_id": "Elevation0-9000","hist_area_km2": {"25": 203.043,"50": 505.82,"75": 492.459,"100": 353.25,"125": 261.536,"150": 204.04,"175": 179.692,"200": 148.698,"225": 131.071,"250": 115.179,"275": 98.145,"300": 88.538,"325": 76.768,"350": 65.645,"375": 56.151,"400": 51.602,"425": 47.225,"450": 43.794,"475": 39.172,"500": 39.505,"525": 36.636,"550": 34.839,"575": 38.396,"600": 40.676,"625": 37.304,"650": 28.105,"675": 20.569,"700": 9.168,"725": 1.829}}}