{"type":"Feature","properties":{"GID_3":"ZAF.1.4.4_1","GID_0":"ZAF","country":"SouthAfrica","GID_1":"ZAF.1_1","province":"EasternCape","NL_NAME_1":"NA","GID_2":"ZAF.1.4_1","county":"Cacadu","NL_NAME_2":"NA","city":"Ikwezi","VARNAME_3":"NA","NL_NAME_3":"NA","TYPE_3":"LocalMunicipality","ENGTYPE_3":"LocalMunicipality","CC_3":"EC103","HASC_3":"NA","name":"Ikwezi.city"},
"geometry":{"type": "MultiPolygon","coordinates": [[[[25.0313,-32.9269,659.7227],[25.0162,-32.9149,818.1033],[25.0364,-32.8955,857.45],[25.0737,-32.8918,627.8204],[25.0874,-32.871,675.9335],[25.056,-32.8489,623.6003],[25.0441,-32.8344,649.9964],[25.0015,-32.8419,803.4944],[24.989,-32.8375,842.0231],[24.9925,-32.8003,836.9006],[24.9768,-32.7862,789.0287],[24.9715,-32.7881,694.3729],[24.934,-32.7815,610.7901],[24.9338,-32.7635,662.9694],[24.9122,-32.7635,639.9769],[24.913,-32.7589,639.1608],[24.9163,-32.7563,653.4652],[24.9108,-32.7432,647.9468],[24.8818,-32.7442,663.2842],[24.784,-32.7231,756.4519],[24.7833,-32.7041,765.3527],[24.691,-32.6917,630.4352],[24.6662,-32.7077,611.884],[24.6052,-32.7036,546.8109],[24.5429,-32.7167,598.8964],[24.5294,-32.7351,576.0646],[24.51,-32.7383,615.92],[24.4718,-32.7654,697.8581],[24.4174,-32.7419,685.9738],[24.4135,-32.737,686.0244],[24.387,-32.7471,722.019],[24.3861,-32.7529,733.8074],[24.3308,-32.7806,846.4936],[24.3244,-32.7912,857.937],[24.3101,-32.7909,889.5905],[24.3379,-32.8052,909.1315],[24.3802,-32.8068,996.5037],[24.3491,-32.8414,820.4791],[24.3087,-32.8382,786.2711],[24.2982,-32.8738,776.4112],[24.246,-32.8634,757.4847],[24.2101,-32.9217,686.1524],[24.1997,-32.9276,694.974],[24.1512,-32.9343,734.2645],[24.1223,-32.9517,719.6942],[24.0553,-32.9827,829.1964],[24.0618,-33.0188,935.8651],[24.0397,-33.0185,942.6154],[24.0433,-33.0625,991.7318],[24.0098,-33.0634,957.4594],[23.9944,-33.0609,862.9714],[23.9742,-33.101,1228.8555],[23.9747,-33.1041,1325.104],[24.0424,-33.1246,1362.2081],[24.1055,-33.1317,1120.4231],[24.1538,-33.1328,1152.4604],[24.1591,-33.1407,833.422],[24.1981,-33.1363,843.5203],[24.2585,-33.1419,571.1138],[24.2584,-33.117,586.8883],[24.3111,-33.1166,557.4622],[24.3186,-33.1058,571.2458],[24.3557,-33.1061,594.6381],[24.3815,-33.1101,631.8966],[24.4304,-33.1379,658.546],[24.4632,-33.1405,721.5188],[24.4747,-33.1517,700.3569],[24.4662,-33.1633,732.1549],[24.454,-33.1994,756.7694],[24.5014,-33.2082,703.6007],[24.5056,-33.1946,687.3695],[24.546,-33.2039,716.4666],[24.5746,-33.2055,852.3371],[24.604,-33.2133,1011.1044],[24.6425,-33.2188,934.9127],[24.6478,-33.2228,946.3517],[24.6807,-33.2291,754.1815],[24.6912,-33.2057,597.0455],[24.757,-33.2181,615.9543],[24.732,-33.2328,723.1466],[24.7691,-33.2353,953.2996],[24.7694,-33.2392,749.6633],[24.7489,-33.2901,541.3278],[24.7388,-33.2978,519.6554],[24.7374,-33.3048,550.2903],[24.7344,-33.3081,486.1334],[24.7452,-33.3177,486.607],[24.7565,-33.3164,748.5775],[24.769,-33.3197,790.0573],[24.7943,-33.3204,534.3045],[24.7931,-33.3661,396.6268],[24.7982,-33.3671,393.8479],[24.8065,-33.3871,395.2634],[24.843,-33.3807,453.7048],[24.8429,-33.3829,457.6712],[24.8504,-33.378,460.7269],[24.8395,-33.3518,464.0178],[24.8717,-33.275,624.5838],[24.8807,-33.2777,631.1006],[24.8803,-33.2575,789.0114],[24.9593,-33.2706,703.391],[24.972,-33.2709,784.0942],[24.9778,-33.2566,716.1865],[25.0294,-33.272,892.8801],[25.0498,-33.2747,910.3936],[25.1348,-33.2951,826.3214],[25.1319,-33.2502,205.8679],[25.153199999999998,-33.2523,805.0305],[25.1783,-33.2517,819.3895],[25.1723,-33.2286,372.7559],[25.167,-33.2291,212.9714],[25.1659,-33.2242,215.2574],[25.171,-33.225,243.4366],[25.174,-33.1196,253.0251],[25.1137,-33.1157,245.4867],[25.1138,-33.0947,247.9387],[25.099,-33.041,298.3571],[25.0784,-33.043,287.7033],[25.077,-33.0029,357.7937],[25.0716,-32.9933,375.4094],[25.0939,-32.9912,390.5837],[25.1016,-32.9512,578.9318],[25.0559,-32.9463,585.4528],[25.0313,-32.9269,659.7227]]]]}}