{"type":"Feature","properties":{"GID_3":"ZAF.3.3.1_1","GID_0":"ZAF","country":"SouthAfrica","GID_1":"ZAF.3_1","province":"Gauteng","NL_NAME_1":"NA","GID_2":"ZAF.3.3_1","county":"Ekurhuleni","NL_NAME_2":"NA","city":"Ekurhuleni","VARNAME_3":"NA","NL_NAME_3":"NA","TYPE_3":"MetropolitanMunicipality","ENGTYPE_3":"MetropolitanMunicipality","CC_3":"EKU","HASC_3":"NA","name":"Ekurhuleni.city"},
"geometry":{"type": "MultiPolygon","coordinates": [[[[28.1953,-26.4293,1513.7043],[28.1781,-26.4438,1557.4674],[28.1877,-26.4531,1565.7352],[28.2087,-26.434,1534.0793],[28.2152,-26.4358,1543.1218],[28.2171,-26.4334,1539.4349],[28.2204,-26.4363,1539.3508],[28.2234,-26.4324,1535.5558],[28.2638,-26.435,1556.078],[28.2711,-26.4137,1569.2183],[28.2646,-26.4088,1584.5841],[28.2442,-26.3766,1530.0286],[28.2509,-26.3728,1528.3787],[28.2486,-26.3706,1527.6232],[28.2597,-26.3672,1530.187],[28.2621,-26.3635,1532.4573],[28.274,-26.3587,1535.9877],[28.2863,-26.3674,1559.0908],[28.2936,-26.3843,1584.7634],[28.309,-26.3679,1562.3955],[28.3549,-26.407,1567.9407],[28.3703,-26.3936,1576.4407],[28.3737,-26.3945,1586.3831],[28.3827,-26.3857,1630.5947],[28.385,-26.39,1609.1337],[28.3813,-26.3943,1596.5127],[28.3868,-26.4039,1633.9353],[28.3941,-26.3977,1638.5161],[28.4017,-26.4005,1619.7273],[28.3998,-26.4022,1625.6237],[28.4067,-26.4088,1604.2593],[28.3718,-26.4354,1547.9015],[28.3808,-26.4472,1541.6521],[28.4071,-26.4304,1598.6307],[28.4147,-26.4228,1572.9878],[28.4515,-26.4412,1535.9849],[28.4531,-26.4395,1536.4773],[28.4575,-26.4392,1537.2623],[28.4577,-26.4376,1538.3864],[28.4634,-26.443,1551.2002],[28.4636,-26.4381,1539.6637],[28.4714,-26.4399,1545.3239],[28.4991,-26.4393,1565.877],[28.5,-26.4532,1580.3838],[28.497,-26.453,1577.54],[28.4972,-26.4566,1581.1899],[28.5003,-26.4568,1592.3429],[28.5008,-26.4644,1604.3682],[28.5231,-26.4656,1628.1328],[28.5172,-26.4531,1604.4258],[28.5164,-26.4479,1595.4155],[28.5243,-26.4447,1603.3171],[28.5221,-26.4427,1593.7407],[28.5257,-26.4408,1600.6997],[28.5195,-26.4382,1586.1914],[28.5143,-26.4324,1571.0345],[28.5095,-26.3839,1568.0142],[28.5077,-26.3805,1565.7634],[28.5154,-26.364,1563.0261],[28.5179,-26.362,1567.9321],[28.5174,-26.3581,1567.3337],[28.5152,-26.357,1566.2937],[28.5167,-26.3539,1561.9603],[28.5142,-26.3465,1561.4771],[28.525,-26.3323,1564.0026],[28.5225,-26.3286,1564.7079],[28.5228,-26.3262,1565.663],[28.5196,-26.3251,1563.0071],[28.5182,-26.2742,1569.3113],[28.5136,-26.2214,1590.4836],[28.5271,-26.1787,1626.1859],[28.5213,-26.1445,1621.3582],[28.4905,-26.1264,1629.738],[28.497,-26.1039,1624.1477],[28.5052,-26.0992,1617.3489],[28.5012,-26.0896,1609.9274],[28.5158,-26.0812,1592.0378],[28.5031,-26.0638,1600.9934],[28.4687,-26.0781,1630.1613],[28.4405,-26.0477,1639.7932],[28.4422,-26.0422,1626.587],[28.4491,-26.0427,1628.2423],[28.4547,-26.0308,1630.6433],[28.4601,-26.0237,1645.3652],[28.4643,-26.0256,1642.4148],[28.4644,-26.0114,1666.2347],[28.4457,-26.0181,1642.3723],[28.4482,-25.9999,1664.7886],[28.4511,-25.9955,1666.5878],[28.4444,-25.9911,1660.8187],[28.4517,-25.9864,1659.306],[28.4627,-25.9744,1638.0576],[28.468,-25.9633,1632.2654],[28.457,-25.9567,1616.4415],[28.446,-25.9649,1613.4487],[28.4177,-25.9505,1552.5693],[28.4167,-25.9484,1549.1842],[28.4195,-25.9487,1550.3662],[28.4176,-25.9394,1578.1967],[28.4072,-25.9241,1573.6741],[28.3524,-25.9546,1582.7379],[28.3381,-25.95,1574.7042],[28.3195,-25.9137,1514.3958],[28.2694,-25.9158,1560.1165],[28.2712,-25.925,1542.3738],[28.2435,-25.9232,1475.7958],[28.2384,-25.9227,1464.8265],[28.185,-25.9034,1495.9458],[28.1665,-25.9793,1593.6903],[28.1945,-25.9849,1510.7942],[28.1975,-25.9746,1506.9884],[28.2053,-25.9769,1509.5249],[28.2115,-25.9789,1523.1354],[28.2145,-25.9945,1563.187],[28.1799,-26.0208,1574.9946],[28.1874,-26.0327,1586.475],[28.1894,-26.0321,1575.0784],[28.188,-26.0362,1574.161],[28.1769,-26.0357,1623.8307],[28.1781,-26.0284,1615.7485],[28.1737,-26.0281,1617.7111],[28.1722,-26.0286,1622.1981],[28.1752,-26.0356,1627.4253],[28.1654,-26.0351,1600.323],[28.1582,-26.0383,1559.5232],[28.1623,-26.0442,1597.8718],[28.1605,-26.0462,1592.4611],[28.1657,-26.056,1644.2007],[28.17,-26.0538,1663.2612],[28.1718,-26.0581,1639.9679],[28.1714,-26.0636,1617.7909],[28.178,-26.0634,1668.193],[28.1794,-26.0668,1662.4216],[28.1756,-26.0737,1640.3712],[28.182,-26.0743,1670.5908],[28.1843,-26.0786,1693.3126],[28.1809,-26.0845,1678.2867],[28.1848,-26.0893,1665.6138],[28.1769,-26.0984,1590.8696],[28.1805,-26.1194,1626.2614],[28.1757,-26.1202,1604.2003],[28.1688,-26.1056,1566.6772],[28.1661,-26.1072,1572.5762],[28.1639,-26.1221,1630.5652],[28.1408,-26.1259,1623.2557],[28.1384,-26.118,1624.7638],[28.1354,-26.1219,1611.1963],[28.1376,-26.1264,1625.8092],[28.136,-26.1264,1617.7576],[28.1338,-26.1327,1592.2395],[28.1321,-26.1436,1565.5684],[28.132,-26.147,1571.6311],[28.1342,-26.1495,1581.8499],[28.1245,-26.1491,1605.6516],[28.1177,-26.16,1630.842],[28.1142,-26.1619,1641.6792],[28.1185,-26.1669,1676.8563],[28.1127,-26.1678,1725.8965],[28.1276,-26.2272,1636.5804],[28.1242,-26.2316,1634.6611],[28.1247,-26.234,1624.4847],[28.1224,-26.2392,1615.2811],[28.1246,-26.2395,1627.3958],[28.1229,-26.2479,1595.8844],[28.0952,-26.2555,1710.7227],[28.0953,-26.2576,1702.687],[28.0772,-26.2599,1746.012],[28.071,-26.2639,1706.1566],[28.0714,-26.2673,1715.521],[28.0656,-26.2682,1740.4586],[28.0667,-26.2721,1762.7495],[28.0706,-26.2726,1793.2268],[28.0781,-26.3038,1614.3866],[28.0948,-26.3047,1587.6006],[28.0946,-26.3069,1585.2758],[28.0905,-26.3067,1580.8435],[28.0911,-26.3136,1579.6382],[28.0803,-26.3209,1554.563],[28.0814,-26.3343,1539.5314],[28.0665,-26.3371,1513.1436],[28.0671,-26.342,1513.6327],[28.0812,-26.3357,1538.0413],[28.0975,-26.3603,1552.5419],[28.0761,-26.4154,1492.6305],[28.0826,-26.4162,1486.7123],[28.0848,-26.4181,1488.1323],[28.0932,-26.4172,1480.1464],[28.1179,-26.4191,1511.5198],[28.1257,-26.4307,1509.7439],[28.1372,-26.4255,1524.7905],[28.1347,-26.4229,1528.0668],[28.1472,-26.4239,1518.3789],[28.1603,-26.438,1501.2179],[28.183,-26.4192,1524.1672],[28.1843,-26.4251,1500.3329],[28.1811,-26.4292,1500.6907],[28.1868,-26.4303,1504.1294],[28.1953,-26.4293,1513.7043]]]]}}