{"type":"Feature","properties":{"GID_3":"ZAF.5.5.2_1","GID_0":"ZAF","country":"SouthAfrica","GID_1":"ZAF.5_1","province":"Limpopo","NL_NAME_1":"NA","GID_2":"ZAF.5.5_1","county":"Waterberg","NL_NAME_2":"NA","city":"Lephalale","VARNAME_3":"NA","NL_NAME_3":"NA","TYPE_3":"LocalMunicipality","ENGTYPE_3":"LocalMunicipality","CC_3":"LIM362","HASC_3":"NA","name":"Lephalale.city"},
"geometry":{"type": "MultiPolygon","coordinates": [[[[27.0016,-23.6889,836.5892],[27.0002,-23.6932,834.8018],[27.0014,-23.6974,836.1523],[26.9987,-23.6989,837.8421],[27.0014,-23.7027,835.4179],[26.9986,-23.7039,835.2725],[26.997,-23.7007,837.3283],[26.9949,-23.7002,837.2715],[26.9923,-23.7031,836.9561],[26.99,-23.6987,838.0861],[26.9878,-23.7033,836.8198],[26.9884,-23.707,836.2431],[26.9924,-23.7103,835.6018],[26.9948,-23.71,838.2258],[26.9964,-23.7147,837.0545],[27.0054,-23.7153,845.8073],[27.0055,-23.7274,839.8344],[27.0072,-23.7321,840.2065],[27.0151,-23.7316,861.1351],[27.0134,-23.7348,854.6665],[27.0068,-23.7371,840.1898],[27.0061,-23.7401,840.3897],[27.0084,-23.7439,841.1275],[27.005,-23.7455,841.0039],[27.0082,-23.7466,841.2142],[27.0089,-23.7487,840.5031],[27.0054,-23.7548,840.6857],[27.0097,-23.7618,842.775],[27.007,-23.7691,844.3857],[27.0111,-23.7693,844.5068],[27.0012,-23.7749,852.217],[27.0111,-23.791,867.2635],[27.0181,-23.7894,844.5983],[27.0225,-23.7955,846.5623],[27.0298,-23.797,848.218],[27.0331,-23.8025,847.3511],[27.0324,-23.8083,849.3284],[27.0398,-23.8125,853.9368],[27.0401,-23.8152,850.9406],[27.0421,-23.8163,851.5131],[27.0424,-23.8214,852.5412],[27.0539,-23.8251,853.8622],[27.0584,-23.8359,854.924],[27.0566,-23.8512,857.8528],[27.062,-23.8567,859.2939],[27.0648,-23.8628,860.461],[27.0685,-23.8658,861.5112],[27.0716,-23.865,860.4136],[27.0738,-23.8665,861.4518],[27.0733,-23.8719,861.6694],[27.0764,-23.8755,863.121],[27.0799,-23.8756,863.8994],[27.0795,-23.8826,863.9552],[27.0819,-23.8863,862.5355],[27.0855,-23.8859,864.568],[27.0896,-23.8884,864.6382],[27.0891,-23.8907,864.1078],[27.092,-23.8963,864.6162],[27.097,-23.9012,866.205],[27.1051,-23.9059,866.9135],[27.1061,-23.9086,868.999],[27.1049,-23.9156,867.9872],[27.1126,-23.9193,869.0079],[27.112,-23.9243,868.8057],[27.1141,-23.931,869.9949],[27.1207,-23.9308,870.9921],[27.1233,-23.9346,869.8375],[27.1253,-23.9328,872.0137],[27.1295,-23.9334,872.4745],[27.1281,-23.9433,875.0892],[27.1234,-23.9494,873.9618],[27.1238,-23.9523,873.2803],[27.127,-23.9536,875.2446],[27.1321,-23.9515,874.2658],[27.1357,-23.9526,875.3131],[27.1336,-23.9594,876.0139],[27.1411,-23.9634,877.0692],[27.1437,-23.9666,877.153],[27.1483,-23.965699999999998,877.7483],[27.1525,-23.9675,878.4244],[27.1547,-23.9712,879.4359],[27.1644,-23.9718,881.2874],[27.1671,-23.9755,879.7722],[27.1732,-23.9728,884.7162],[27.1801,-23.9783,882.1134],[27.1823,-23.9827,882.6862],[27.1874,-23.9826,883.7982],[27.1872,-23.9851,885.124],[27.1921,-23.9832,885.3649],[27.1983,-23.987,885.8175],[27.2032,-23.9866,885.9972],[27.2107,-23.9949,888.5157],[27.215,-23.9958,888.2186],[27.2168,-23.9995,888.7176],[27.2275,-24.0036,890.9781],[27.2323,-24.0028,890.3837],[27.2451,-24.0139,892.6647],[27.2657,-24.0138,895.379],[27.2731,-24.0168,896.4772],[27.2767,-24.0216,896.3981],[27.2834,-24.022,898.4652],[27.2903,-24.0247,898.5067],[27.2963,-24.0208,898.3104],[27.2986,-24.024,901.3056],[27.3075,-24.0257,902.0256],[27.309,-24.0294,901.881],[27.3185,-24.0285,902.3036],[27.3198,-24.0316,905.4468],[27.3189,-24.0367,904.559],[27.3207,-24.0385,904.1075],[27.3331,-24.0429,908.2709],[27.3394,-24.0395,908.4646],[27.3419,-24.0466,908.8691],[27.3494,-24.041,909.4447],[27.3503,-24.0451,911.1962],[27.3531,-24.0461,912.8741],[27.3559,-24.0505,910.1356],[27.3648,-24.0526,913.025],[27.366,-24.0593,914.4108],[27.3681,-24.0612,917.5226],[27.3703,-24.0613,914.9282],[27.3753,-24.0659,915.7079],[27.3795,-24.0642,916.5233],[27.3831,-24.0702,918.058],[27.3915,-24.0692,919.2866],[27.4069,-24.0785,920.975],[27.41,-24.0824,923.5458],[27.4291,-24.0829,929.8742],[27.4308,-24.0862,927.9335],[27.4348,-24.087,927.0556],[27.435,-24.0924,925.7765],[27.4382,-24.096,931.3157],[27.4383,-24.0983,927.4616],[27.4404,-24.0989,929.2598],[27.4367,-24.1038,933.2329],[27.4375,-24.1068,933.3778],[27.4951,-24.078,982.6083],[27.5155,-24.1248,980.3538],[27.5389,-24.1693,995.6551],[27.5355,-24.1721,992.6036],[27.5024,-24.2193,973.5884],[27.4755,-24.228,971.9388],[27.4722,-24.2333,979.7944],[27.4768,-24.2496,974.4285],[27.483,-24.2608,973.2942],[27.4847,-24.2714,983.8684],[27.4904,-24.2731,981.1854],[27.4911,-24.2754,979.0377],[27.491,-24.2885,981.238],[27.4985,-24.3245,1000.473],[27.4946,-24.3457,1012.762],[27.4979,-24.3535,1019.2091],[27.4937,-24.3552,1021.1149],[27.5018,-24.3687,1035.7483],[27.5014,-24.3887,1054.5737],[27.508,-24.4042,1075.8892],[27.5078,-24.4097,1081.8492],[27.514,-24.4162,1093.0071],[27.5093,-24.4198,1126.2166],[27.5065,-24.4265,1101.8307],[27.5096,-24.436,1125.7437],[27.5082,-24.446,1117.587],[27.5095,-24.4498,1165.616],[27.5072,-24.4518,1119.5383],[27.5068,-24.4559,1113.6364],[27.5366,-24.4424,1217.9314],[27.5747,-24.4282,1310.2471],[27.5641,-24.3823,1488.2727],[27.6077,-24.3682,1075.1621],[27.6092,-24.3719,1069.1765],[27.6488,-24.3549,1275.9507],[27.6496,-24.36,1301.6898],[27.6588,-24.3568,1303.5212],[27.6983,-24.3942,1407.1235],[27.7579,-24.404,1639.3256],[27.8189,-24.3494,1486.2158],[27.7969,-24.3163,1426.4884],[27.8005,-24.3084,1342.4246],[27.8487,-24.3083,1343.6638],[27.8533,-24.3049,1325.762],[27.8539,-24.3065,1335.6976],[27.8731,-24.2987,1302.9435],[27.8725,-24.301,1328.8983],[27.906,-24.2986,1269.8286],[27.9094,-24.2917,1239.9803],[27.9216,-24.2975,1191.0215],[27.9512,-24.2793,1206.2828],[27.9775,-24.3109,1326.05],[27.9996,-24.3086,1290.9268],[27.9993,-24.28,1197.2443],[28.0228,-24.2326,1133.6813],[28.0098,-24.2329,1132.3362],[27.9902,-24.1803,1051.3127],[27.992,-24.1784,1037.59],[28.0024,-24.1786,1038.91],[28.007,-24.1843,1043.0386],[28.0173,-24.1833,1062.491],[28.0213,-24.1881,1050.8044],[28.0249,-24.1997,1084.1204],[28.0269,-24.1989,1057.3245],[28.0288,-24.1937,1063.0496],[28.0408,-24.1769,1092.7129],[28.0814,-24.1786,1165.6566],[28.1061,-24.1838,1161.1418],[28.109,-24.183,1166.0319],[28.1006,-24.1759,1173.2263],[28.1081,-24.1747,1168.9343],[28.1102,-24.1773,1168.0293],[28.1222,-24.176,1195.5447],[28.1464,-24.1875,1233.2887],[28.1579,-24.1913,1218.2501],[28.1589,-24.1576,1295.8442],[28.1766,-24.127,1341.0933],[28.1886,-24.0954,1487.4497],[28.1924,-24.0685,1489.0632],[28.2361,-24.0057,1248.293],[28.2664,-24.0168,1219.7842],[28.2796,-23.9929,1315.0792],[28.3124,-24.0045,1288.03],[28.3563,-24.0161,1165.6523],[28.3575,-24.0138,1163.9753],[28.354,-23.9965,1159.8484],[28.3636,-23.99,1154.7911],[28.3952,-24.0036,1286.733],[28.4158,-23.9972,1168.5304],[28.4157,-23.9941,1168.9227],[28.4132,-23.9933,1163.0078],[28.4068,-23.9981,1162.553],[28.4044,-23.9971,1157.7885],[28.4065,-23.9879,1160.5464],[28.4044,-23.9825,1157.9907],[28.4009,-23.9825,1154.0607],[28.3973,-23.9755,1153.9667],[28.3984,-23.9716,1147.9443],[28.4027,-23.9675,1151.1729],[28.3997,-23.9538,1135.616],[28.3864,-23.9581,1156.5918],[28.3777,-23.9584,1133.6327],[28.3666,-23.946,1151.65],[28.3656,-23.9368,1116.5056],[28.3638,-23.9358,1126.3865],[28.3608,-23.9379,1118.2444],[28.3592,-23.9372,1118.2444],[28.3413,-23.9195,1098.2578],[28.3439,-23.9171,1099.8199],[28.3492,-23.9168,1098.8713],[28.3501,-23.9145,1093.5856],[28.3421,-23.9079,1095.2302],[28.347,-23.9028,1093.0853],[28.3468,-23.901,1103.613],[28.3368,-23.8972,1076.6155],[28.334,-23.8938,1071.9037],[28.3363,-23.8834,1067.5452],[28.3359,-23.8761,1068.8253],[28.3285,-23.8765,1060.0978],[28.3153,-23.8689,1060.5559],[28.3213,-23.8654,1053.0853],[28.3249,-23.8573,1054.677],[28.3337,-23.853,1046.0986],[28.3342,-23.8512,1089.0077],[28.3286,-23.8476,1039.6648],[28.3197,-23.8467,1038.1425],[28.3158,-23.8387,1048.573],[28.3106,-23.8379,1054.4325],[28.3028,-23.8429,1019.4909],[28.2995,-23.8382,1020.8533],[28.2981,-23.8261,1048.5663],[28.307,-23.8289,1005.1133],[28.3079,-23.8277,1026.5688],[28.3082,-23.8157,1002.1805],[28.3068,-23.8111,1012.1031],[28.3039,-23.81,981.7199],[28.2996,-23.8119,984.6206],[28.2969,-23.8105,1012.7156],[28.2956,-23.8072,994.1152],[28.2997,-23.8065,977.0875],[28.3002,-23.8052,992.1957],[28.2916,-23.8002,960.0349],[28.2889,-23.7929,1009.944],[28.2861,-23.7941,998.4294],[28.2844,-23.8035,949.0795],[28.2827,-23.8058,1005.0312],[28.2723,-23.8037,936.5881],[28.2665,-23.7994,925.3163],[28.2709,-23.7934,996.9197],[28.2717,-23.7888,924.847],[28.2587,-23.7809,905.4006],[28.2556,-23.777,911.5967],[28.2546,-23.7694,907.2358],[28.2508,-23.7643,904.1569],[28.2513,-23.7606,942.8005],[28.2537,-23.7594,899.9846],[28.258,-23.7523,892.3557],[28.2584,-23.747,891.0328],[28.2542,-23.7396,890.2433],[28.2548,-23.7327,893.3239],[28.2488,-23.7294,886.5852],[28.2378,-23.7277,886.4258],[28.2311,-23.7219,885.1048],[28.2242,-23.7207,885.425],[28.2225,-23.7162,883.7368],[28.2264,-23.7057,883.0349],[28.2187,-23.7031,887.8374],[28.2183,-23.6971,882.7391],[28.2136,-23.6958,878.5258],[28.2115,-23.6859,874.5797],[28.2053,-23.6791,874.1705],[28.2067,-23.6721,872.347],[28.1976,-23.6732,873.9154],[28.18,-23.6651,868.7873],[28.1732,-23.6646,873.3728],[28.1623,-23.6604,866.8892],[28.1603,-23.6516,864.481],[28.1627,-23.6324,861.6259],[28.1567,-23.632,864.0248],[28.1517,-23.6233,861.6813],[28.1472,-23.6208,858.6946],[28.1401,-23.6211,857.832],[28.1313,-23.6135,858.3381],[28.119,-23.6149,857.7279],[28.1158,-23.6131,858.5165],[28.1211,-23.5891,851.049],[28.1161,-23.5805,850.0068],[28.1155,-23.5738,849.5053],[28.1135,-23.5703,851.3032],[28.1784,-23.5546,897.7373],[28.1687,-23.5275,883.5942],[28.1667,-23.5084,891.7578],[28.2214,-23.4772,914.6885],[28.2561,-23.4944,952.3973],[28.2972,-23.4723,972.1807],[28.3216,-23.4671,994.1707],[28.3414,-23.4308,1089.38],[28.383,-23.4383,1058.093],[28.3867,-23.4739,1032.5051],[28.3993,-23.4938,1011.0531],[28.416,-23.5156,1002.0776],[28.4643,-23.5453,1023.2704],[28.4904,-23.51,960.4881],[28.5126,-23.5032,1003.5258],[28.5406,-23.4693,956.0775],[28.5916,-23.4521,872.7737],[28.5966,-23.4348,871.7765],[28.5959,-23.4047,896.8735],[28.593,-23.3785,966.8361],[28.5658,-23.3769,934.2854],[28.5396,-23.351,932.9211],[28.4975,-23.3449,988.9816],[28.474,-23.3122,996.0139],[28.4511,-23.3253,992.2599],[28.4133,-23.3517,1028.9916],[28.387,-23.3163,1077.2084],[28.377,-23.2999,1082.3442],[28.351,-23.304,1018.9709],[28.3555,-23.2834,984.3539],[28.3315,-23.2329,947.1779],[28.3201,-23.204,949.1305],[28.3533,-23.1842,951.9682],[28.3371,-23.1228,981.9988],[28.2912,-23.091,950.9404],[28.2576,-23.1042,932.369],[28.2518,-23.1087,937.5494],[28.2243,-23.0493,902.4067],[28.2211,-23.0014,895.068],[28.2452,-22.998,900.4785],[28.2346,-22.967,867.0445],[28.2001,-22.9314,843.8506],[28.1827,-22.9492,847.8586],[28.1476,-22.916,830.9271],[28.1692,-22.9059,829.8595],[28.1313,-22.8788,805.6862],[28.1534,-22.8692,803.573],[28.1135,-22.845,785.1386],[28.1352,-22.8324,781.689],[28.0969,-22.8111,759.782],[28.0948,-22.8137,759.7665],[28.0861,-22.8155,760.5541],[28.0745,-22.8218,761.1555],[28.068,-22.8278,765.9467],[28.0468,-22.8296,762.9994],[28.0414,-22.8331,765.4343],[28.0392,-22.8425,763.1123],[28.0474,-22.8606,765.5347],[28.0445,-22.8719,766.2629],[28.05,-22.8797,769.2355],[28.0513,-22.8846,766.9526],[28.05,-22.8891,771.4569],[28.0455,-22.8931,766.7651],[28.0456,-22.899,768.4277],[28.0436,-22.9037,765.634],[28.0371,-22.9128,770.2184],[28.0244,-22.92,769.4465],[28.0138,-22.931,769.0413],[27.9936,-22.9374,771.2114],[27.9788,-22.9486,771.9677],[27.9662,-22.9546,775.9693],[27.9611,-22.9599,772.1515],[27.955,-22.9616,775.5002],[27.9484,-22.9611,774.5893],[27.941,-22.9556,773.8259],[27.9358,-22.9618,772.9121],[27.9353,-22.9656,772.9369],[27.9405,-22.9802,775.6829],[27.9427,-22.9942,776.1105],[27.9414,-23.0005,777.4227],[27.9379,-23.0049,781.188],[27.9373,-23.0139,780.9108],[27.9431,-23.028199999999998,780.6698],[27.9436,-23.0357,777.5363],[27.936,-23.0517,779.2751],[27.9276,-23.0574,780.491],[27.9201,-23.0683,784.1125],[27.9159,-23.0699,780.8953],[27.9102,-23.0751,781.8927],[27.8997,-23.0781,781.1218],[27.8949,-23.0828,779.951],[27.8818,-23.0902,782.5962],[27.854,-23.0998,785.0479],[27.8479,-23.1048,782.5863],[27.8327,-23.1089,783.8218],[27.8284,-23.107,784.0199],[27.8226,-23.1081,784.0723],[27.8196,-23.1046,786.7227],[27.8141,-23.1065,783.7279],[27.812,-23.1102,781.9985],[27.8133,-23.1151,786.9822],[27.8189,-23.1196,786.6651],[27.8195,-23.1248,783.0111],[27.8184,-23.1281,785.5469],[27.8121,-23.1304,783.92],[27.8098,-23.1343,784.0376],[27.807,-23.1356,786.1494],[27.7938,-23.1375,784.1649],[27.7911,-23.1414,787.0251],[27.7876,-23.141,787.3627],[27.7819,-23.1431,786.2226],[27.7798,-23.1407,784.0927],[27.7808,-23.1354,787.2021],[27.7785,-23.1318,790.4619],[27.7745,-23.1309,786.9872],[27.7664,-23.1342,785.1555],[27.7653,-23.1424,786.5568],[27.7711,-23.146,790.3562],[27.7833,-23.1577,787.7908],[27.7856,-23.1647,783.9603],[27.7851,-23.1708,785.0851],[27.7809,-23.1769,791.3962],[27.7696,-23.1805,785.9846],[27.7684,-23.1846,790.5591],[27.7596,-23.1906,787.0143],[27.7593,-23.1965,789.3081],[27.7561,-23.1989,793.0347],[27.7541,-23.2038,793.5759],[27.7508,-23.2057,788.2738],[27.7521,-23.2193,788.3344],[27.7416,-23.2304,790.0779],[27.7353,-23.2332,790.8936],[27.726,-23.2329,786.4663],[27.7241,-23.229,792.6064],[27.7199,-23.2305,789.7001],[27.714,-23.2286,791.1647],[27.7118,-23.226,791.4304],[27.7113,-23.2201,791.5067],[27.7037,-23.2037,792.8129],[27.6998,-23.2,795.3467],[27.6893,-23.1962,792.4164],[27.672,-23.2005,791.4106],[27.6677,-23.2052,796.8592],[27.6669,-23.2111,795.2317],[27.6602,-23.2176,793.363],[27.6604,-23.2207,793.5791],[27.6587,-23.2222,794.2234],[27.6524,-23.2219,794.106],[27.6495,-23.2257,793.9475],[27.6408,-23.2248,798.1073],[27.639,-23.2261,794.9141],[27.6213,-23.2181,794.9138],[27.6131,-23.2197,796.6844],[27.6041,-23.2158,792.5878],[27.5997,-23.2176,792.3895],[27.5966,-23.2237,793.6771],[27.5978,-23.2261,795.7325],[27.5961,-23.2344,795.7223],[27.6009,-23.2434,796.1874],[27.6012,-23.2472,800.6867],[27.5915,-23.2568,796.9547],[27.5808,-23.2582,796.0638],[27.5761,-23.2608,796.1878],[27.5729,-23.2653,799.9522],[27.574,-23.2693,797.2371],[27.5731,-23.2722,798.4314],[27.5763,-23.2809,799.7386],[27.5726,-23.2904,798.7213],[27.5731,-23.2942,797.5799],[27.5686,-23.2989,801.5441],[27.5683,-23.303,798.9766],[27.5638,-23.3058,796.8599],[27.5602,-23.3149,801.4844],[27.5707,-23.326,800.8545],[27.5671,-23.3411,797.9335],[27.5628,-23.3496,802.7371],[27.5575,-23.3505,798.6953],[27.5539,-23.3571,801.381],[27.548,-23.3582,797.6195],[27.5417,-23.365,801.233],[27.5385,-23.3658,801.525],[27.5366,-23.3757,802.7857],[27.5323,-23.3778,803.039],[27.5286,-23.3828,800.7258],[27.5287,-23.3853,800.334],[27.523,-23.3873,804.0575],[27.5138,-23.3855,801.9297],[27.5044,-23.3881,803.8499],[27.4956,-23.3841,800.1558],[27.4941,-23.3843,802.6707],[27.4932,-23.3871,804.4319],[27.4828,-23.3846,806.0109],[27.474,-23.3866,804.9712],[27.4711,-23.3845,804.0114],[27.4673,-23.3864,805.2934],[27.4584,-23.3839,806.5438],[27.4553,-23.3858,807.1749],[27.4484,-23.3865,805.228],[27.442,-23.3847,803.7224],[27.4414,-23.3922,806.0151],[27.435,-23.3979,806.5925],[27.4333,-23.4129,805.7529],[27.4306,-23.4164,805.9716],[27.4283,-23.4247,806.8472],[27.4218,-23.4265,805.3472],[27.41,-23.4243,806.6156],[27.4052,-23.42,806.2043],[27.4012,-23.413,810.0104],[27.4102,-23.3996,807.1993],[27.4105,-23.391,809.0931],[27.4072,-23.3888,807.6989],[27.3877,-23.39,809.7323],[27.3772,-23.399,810.1483],[27.3767,-23.4039,812.4781],[27.373,-23.4077,810.5454],[27.3728,-23.41,809.8062],[27.3808,-23.4203,809.5427],[27.3757,-23.4228,812.0543],[27.3743,-23.4271,810.5848],[27.3581,-23.4278,810.6481],[27.352,-23.4272,810.3682],[27.3489,-23.4253,808.46],[27.348,-23.4224,811.8397],[27.3505,-23.4202,814.2065],[27.3523,-23.4139,810.2354],[27.3564,-23.4106,815.1884],[27.3555,-23.4037,809.6058],[27.3571,-23.4016,808.6793],[27.3559,-23.3992,812.0703],[27.3485,-23.3976,810.0148],[27.3298,-23.4031,811.6444],[27.3252,-23.4066,813.7821],[27.3248,-23.4173,813.0908],[27.3201,-23.4207,811.5015],[27.3161,-23.4294,811.8896],[27.3122,-23.4318,812.3092],[27.3119,-23.434,812.3307],[27.3156,-23.4352,815.2994],[27.313,-23.4407,814.4893],[27.3166,-23.4446,814.4704],[27.3167,-23.4466,814.8935],[27.3104,-23.4471,816.7009],[27.3132,-23.4505,817.9677],[27.311,-23.4524,812.4407],[27.3084,-23.4509,816.0863],[27.3054,-23.4532,818.9479],[27.3059,-23.4575,817.0671],[27.303,-23.4627,817.25],[27.2944,-23.4601,818.4345],[27.2876,-23.4623,815.9916],[27.2843,-23.4706,818.5046],[27.2672,-23.4779,819.8131],[27.2636,-23.4781,816.7897],[27.2603,-23.4722,818.0324],[27.2586,-23.4723,818.545],[27.2552,-23.4772,817.8459],[27.2466,-23.4786,820.2016],[27.2428,-23.483,817.37],[27.2391,-23.4829,818.7062],[27.2364,-23.4849,817.8752],[27.2355,-23.4944,816.9913],[27.2333,-23.4959,817.1503],[27.2265,-23.4972,817.1949],[27.2238,-23.4947,817.1631],[27.2261,-23.4851,819.0497],[27.2093,-23.49,819.2017],[27.2073,-23.4921,819.4448],[27.1924,-23.4981,822.8405],[27.194,-23.5146,820.5704],[27.1996,-23.5155,820.6569],[27.2026,-23.519,820.5531],[27.209,-23.5214,820.7994],[27.2109,-23.526,818.913],[27.2104,-23.5274,820.5858],[27.2048,-23.5268,822.401],[27.2019,-23.5287,821.4106],[27.201,-23.5343,820.3212],[27.197,-23.5347,820.5952],[27.1937,-23.5315,821.4673],[27.1918,-23.534,822.2879],[27.1882,-23.533,822.3558],[27.1722,-23.5219,822.3371],[27.1661,-23.5247,825.2238],[27.1674,-23.5286,824.9064],[27.1647,-23.5364,821.6096],[27.1599,-23.5371,822.3757],[27.159,-23.5332,822.6953],[27.1564,-23.5354,820.4447],[27.1548,-23.5346,823.1694],[27.1544,-23.5304,821.065],[27.1479,-23.5238,822.0547],[27.1437,-23.5248,823.5173],[27.139,-23.5229,822.7678],[27.1352,-23.5236,823.6774],[27.1333,-23.5286,823.072],[27.1376,-23.5269,823.1401],[27.1395,-23.5288,825.7563],[27.1348,-23.5336,823.6401],[27.1346,-23.5436,827.6207],[27.14,-23.5533,825.0106],[27.1484,-23.5513,826.2643],[27.15,-23.5594,827.4142],[27.1547,-23.5694,820.111],[27.1527,-23.5674,826.4289],[27.1508,-23.5676,827.1378],[27.1508,-23.5721,824.3832],[27.1458,-23.5748,825.6461],[27.1408,-23.5728,828.0615],[27.1299,-23.5741,827.1007],[27.1312,-23.5694,828.6941],[27.1245,-23.5686,828.5374],[27.1172,-23.5622,827.0504],[27.1171,-23.5665,827.7811],[27.1133,-23.5705,826.6523],[27.1101,-23.5704,830.5123],[27.108,-23.5674,830.2809],[27.1083,-23.5791,826.418],[27.1065,-23.5833,826.1115],[27.1086,-23.5903,824.3615],[27.1055,-23.5975,828.7315],[27.0997,-23.599,829.1768],[27.0997,-23.6029,829.2238],[27.0941,-23.6006,830.6792],[27.0816,-23.5989,829.2794],[27.0795,-23.6001,829.5003],[27.0797,-23.6072,831.7535],[27.0851,-23.609,829.4487],[27.08,-23.6135,829.1713],[27.0736,-23.6145,831.8004],[27.071,-23.6119,831.1804],[27.0726,-23.6094,832.0279],[27.0594,-23.6126,829.3033],[27.063,-23.6256,832.837],[27.0649,-23.6273,828.7125],[27.0688,-23.6256,832.0146],[27.0699,-23.6301,829.8303],[27.0742,-23.6321,828.3644],[27.0752,-23.6358,828.9987],[27.0812,-23.6433,837.3304],[27.0788,-23.6481,831.5662],[27.0813,-23.6551,829.083],[27.0776,-23.6539,830.4499],[27.0746,-23.6548,830.577],[27.0775,-23.6576,830.8062],[27.0778,-23.6608,829.5804],[27.0737,-23.6637,828.8757],[27.0702,-23.671,829.1499],[27.0644,-23.6709,830.4379],[27.0588,-23.6762,832.5961],[27.0456,-23.6827,831.8304],[27.038,-23.6827,835.0762],[27.0311,-23.6757,832.7104],[27.035,-23.6677,832.2736],[27.0366,-23.6565,834.2758],[27.0329,-23.6569,831.8328],[27.031,-23.6598,835.3648],[27.0264,-23.6595,837.0275],[27.0211,-23.6547,833.4391],[27.026,-23.651,838.314],[27.0257,-23.6445,837.0922],[27.0194,-23.6438,834.6485],[27.0146,-23.6396,837.5483],[27.0101,-23.6381,835.5607],[27.0081,-23.6427,836.4902],[27.0023,-23.6451,833.9539],[26.9997,-23.6524,829.0],[26.9957,-23.6524,836.1081],[26.9971,-23.6559,835.0433],[27.0009,-23.6579,838.4133],[27.0027,-23.6652,834.1647],[27.0018,-23.6702,835.103],[26.9993,-23.6719,834.9413],[26.9978,-23.6772,838.8157],[27.0025,-23.6864,835.9847],[27.0016,-23.6889,836.5892]]]]}}