{"type":"Feature","properties":{"GID_3":"ZAF.4.6.6_1","GID_0":"ZAF","country":"SouthAfrica","GID_1":"ZAF.4_1","province":"KwaZulu-Natal","NL_NAME_1":"NA","GID_2":"ZAF.4.6_1","county":"Umgungundlovu","NL_NAME_2":"NA","city":"uMngeni","VARNAME_3":"NA","NL_NAME_3":"NA","TYPE_3":"LocalMunicipality","ENGTYPE_3":"LocalMunicipality","CC_3":"KZN222","HASC_3":"NA","name":"u_Mngeni.city"},
"geometry":{"type": "MultiPolygon","coordinates": [[[[30.2092,-29.5959,1359.3784],[30.2223,-29.5981,1381.1638],[30.2281,-29.5888,1409.8246],[30.2527,-29.5918,1447.168],[30.2584,-29.58,1363.8069],[30.2809,-29.5824,1235.1385],[30.2834,-29.5841,1201.282],[30.278,-29.5912,1127.6956],[30.2795,-29.5933,1108.5477],[30.2879,-29.5872,1158.6708],[30.2861,-29.6013,1119.3552],[30.3041,-29.6014,1044.3269],[30.2992,-29.5862,1053.8245],[30.306,-29.5844,911.7792],[30.308,-29.5817,914.7487],[30.311,-29.5823,921.7346],[30.321,-29.5926,954.5767],[30.3252,-29.5875,965.0835],[30.3349,-29.5886,984.8434],[30.3355,-29.5861,966.2736],[30.3308,-29.579,987.211],[30.3172,-29.5721,1019.027],[30.3162,-29.5671,988.2319],[30.3125,-29.5611,1038.2666],[30.3304,-29.5498,1106.5457],[30.3647,-29.5429,1102.8708],[30.3636,-29.5227,1101.6077],[30.3606,-29.5153,1104.6423],[30.3787,-29.4983,790.6984],[30.3824,-29.5018,765.5323],[30.3856,-29.4944,731.9192],[30.3974,-29.483,736.7778],[30.4005,-29.4778,726.1475],[30.4069,-29.4742,724.4512],[30.4,-29.4714,701.5923],[30.395,-29.4727,701.7999],[30.3959,-29.4624,654.0],[30.3944,-29.4567,654.0],[30.3969,-29.4399,654.0],[30.396,-29.4368,654.0],[30.3878,-29.4382,654.0],[30.3817,-29.4418,654.0],[30.3768,-29.4393,677.165],[30.3733,-29.4436,660.813],[30.3693,-29.4456,656.5729],[30.3612,-29.4452,666.4539],[30.3596,-29.4422,671.5864],[30.3572,-29.4419,662.0564],[30.357,-29.4443,660.5604],[30.3521,-29.4431,660.1837],[30.3515,-29.4444,660.1837],[30.3489,-29.4442,661.0751],[30.3465,-29.4473,661.5847],[30.3417,-29.4412,670.5389],[30.3375,-29.4458,671.7557],[30.3342,-29.4459,673.796],[30.3321,-29.4451,683.556],[30.3323,-29.4397,678.2928],[30.3224,-29.4459,686.9692],[30.3196,-29.4441,692.1787],[30.3195,-29.4165,1056.2106],[30.3061,-29.4022,1175.8723],[30.3126,-29.3979,1205.2113],[30.3266,-29.3757,1216.7565],[30.3217,-29.3567,1157.1479],[30.3272,-29.3376,1185.3995],[30.3145,-29.3173,1106.6024],[30.2973,-29.336,1119.7019],[30.2763,-29.3092,1656.0723],[30.2502,-29.3036,1661.932],[30.2329,-29.293,1580.0399],[30.2214,-29.2921,1575.0164],[30.205,-29.3049,1643.1244],[30.2082,-29.2516,1665.204],[30.1683,-29.2557,1655.2273],[30.1674,-29.2535,1659.995],[30.1527,-29.2455,1619.6322],[30.1448,-29.2469,1596.6323],[30.1227,-29.2451,1721.4078],[30.1125,-29.2592,1568.4924],[30.0917,-29.2667,1544.6039],[30.0747,-29.2753,1599.4199],[30.0566,-29.2879,1567.3113],[30.0481,-29.2646,1553.1383],[30.0235,-29.2951,1554.9249],[30.0118,-29.2967,1583.3596],[30.0056,-29.3385,1489.4238],[29.9946,-29.3482,1455.0151],[29.965,-29.3227,1420.5],[29.9591,-29.3208,1426.9893],[29.9571,-29.3267,1420.5],[29.9554,-29.3274,1420.5],[29.9495,-29.326,1420.5],[29.9449,-29.3212,1420.5],[29.9415,-29.3206,1420.5],[29.9358,-29.3162,1420.5],[29.9336,-29.3192,1420.5],[29.9318,-29.3178,1420.5],[29.9307,-29.3191,1420.5],[29.9318,-29.328,1420.5],[29.9285,-29.3321,1420.5],[29.9262,-29.3326,1421.7225],[29.9273,-29.3363,1426.1157],[29.9222,-29.3356,1425.0179],[29.9208,-29.3396,1433.9865],[29.9178,-29.3409,1420.5],[29.9162,-29.3325,1420.5],[29.9143,-29.3302,1420.5],[29.909,-29.3335,1420.5],[29.9056,-29.3393,1434.8597],[29.8968,-29.3444,1436.3918],[29.8937,-29.344,1448.2366],[29.8925,-29.3525,1443.5],[29.8634,-29.3405,1738.4263],[29.8536,-29.3502,1764.4304],[29.8417,-29.358,1722.7427],[29.7962,-29.3664,1799.9316],[29.7637,-29.3704,1850.5753],[29.7645,-29.3804,1722.2473],[29.7423,-29.3879,1636.2214],[29.7106,-29.3922,1718.8789],[29.6899,-29.4028,2103.3713],[29.6958,-29.4274,1892.5267],[29.7139,-29.4287,1979.4783],[29.7187,-29.4264,1985.9287],[29.7315,-29.427,1936.2533],[29.7363,-29.4307,1908.0527],[29.7399,-29.4314,1804.8698],[29.7679,-29.4335,1795.7394],[29.7756,-29.4464,1771.541],[29.7784,-29.4424,1727.3179],[29.8093,-29.4361,1775.5009],[29.8216,-29.4567,2045.7405],[29.8554,-29.4577,1805.1949],[29.8607,-29.45,1801.3376],[29.8663,-29.4499,1790.5734],[29.8672,-29.4534,1747.4342],[29.8722,-29.4581,1839.4717],[29.872,-29.487,1860.8903],[29.9189,-29.5336,1824.0814],[29.9528,-29.5423,1897.1311],[29.9538,-29.5465,1836.2026],[29.9885,-29.5421,1490.7656],[29.9911,-29.5355,1482.1826],[30.0062,-29.5364,1247.4082],[30.008,-29.5414,1264.7047],[30.0119,-29.5446,1278.5848],[30.0131,-29.5692,1563.2701],[30.0176,-29.5898,1673.6012],[30.0471,-29.6024,1765.2737],[30.0845,-29.5986,1647.9558],[30.0805,-29.6132,1643.8531],[30.0897,-29.6237,1574.0718],[30.1073,-29.6237,1586.6633],[30.1061,-29.6297,1522.9673],[30.1181,-29.6398,1475.5134],[30.1231,-29.6345,1473.8992],[30.1382,-29.6328,1486.4026],[30.156,-29.62,1477.9989],[30.1639,-29.609,1393.1288],[30.18,-29.6116,1394.3639],[30.1895,-29.5977,1399.843],[30.1976,-29.5941,1395.2733],[30.2092,-29.5959,1359.3784]]]]}}