{"type":"Feature","properties":{"GID_3":"ZAF.1.1.4_1","GID_0":"ZAF","country":"SouthAfrica","GID_1":"ZAF.1_1","province":"EasternCape","NL_NAME_1":"NA","GID_2":"ZAF.1.1_1","county":"AlfredNzo","NL_NAME_2":"NA","city":"Umzimvubu","VARNAME_3":"NA","NL_NAME_3":"NA","TYPE_3":"LocalMunicipality","ENGTYPE_3":"LocalMunicipality","CC_3":"EC442","HASC_3":"NA","name":"Umzimvubu.city"},
"geometry":{"type": "MultiPolygon","coordinates": [[[[29.1502,-30.9518,685.8585],[29.1313,-30.9538,689.4796],[29.1283,-30.9516,703.9643],[29.1284,-30.9436,720.571],[29.1259,-30.938,695.3026],[29.1144,-30.9375,701.0341],[29.109,-30.941,699.0347],[29.1004,-30.9434,709.2972],[29.0949,-30.9427,716.9899],[29.0881,-30.9442,707.9586],[29.0861,-30.9491,711.6454],[29.0877,-30.9522,735.2102],[29.0836,-30.953,714.5095],[29.0821,-30.9551,708.7301],[29.0843,-30.9594,713.2946],[29.0833,-30.963,769.8652],[29.0749,-30.9669,730.6594],[29.0715,-30.9654,719.8887],[29.0703,-30.9624,722.0667],[29.0713,-30.9532,735.9364],[29.0648,-30.9408,731.6431],[29.0728,-30.9347,743.356],[29.0802,-30.9246,750.9119],[29.0827,-30.9164,743.5599],[29.0823,-30.9093,752.5606],[29.0786,-30.9039,764.0531],[29.0728,-30.9051,759.6902],[29.0668,-30.9099,801.8658],[29.0577,-30.9056,770.9642],[29.0576,-30.902,765.2318],[29.0615,-30.8941,768.9609],[29.0659,-30.8898,772.2173],[29.058,-30.8828,792.4293],[29.0579,-30.8776,788.2111],[29.0634,-30.8741,784.6686],[29.0709,-30.875,792.1846],[29.0707,-30.8771,782.8773],[29.0669,-30.8787,787.4247],[29.0651,-30.8821,786.1086],[29.0931,-30.8946,822.9497],[29.0936,-30.8879,797.3593],[29.0905,-30.8787,804.819],[29.0976,-30.8713,846.742],[29.096,-30.8679,825.541],[29.0885,-30.8662,811.8719],[29.087,-30.8637,815.2138],[29.0812,-30.8678,814.816],[29.0776,-30.8643,833.0095],[29.0718,-30.862,820.7474],[29.0683,-30.8551,845.866],[29.0694,-30.8507,826.6418],[29.0726,-30.8488,846.6732],[29.0758,-30.8391,897.0052],[29.0818,-30.8374,932.5173],[29.0887,-30.8419,1009.3074],[29.0931,-30.8485,1071.0391],[29.1218,-30.8487,1170.6448],[29.1246,-30.8464,1134.6934],[29.1243,-30.8408,1171.8074],[29.1311,-30.8313,1208.2595],[29.1361,-30.8291,1221.7706],[29.1472,-30.8309,1239.5557],[29.1572,-30.8306,1253.147],[29.1656,-30.8192,1265.6337],[29.195,-30.8421,1140.9403],[29.1943,-30.8458,1156.2682],[29.1983,-30.8455,1195.0652],[29.1965,-30.8504,1163.5615],[29.2035,-30.8515,1260.9254],[29.2057,-30.8504,1273.6304],[29.2076,-30.8518,1245.2632],[29.206,-30.8564,1274.2898],[29.2074,-30.8589,1261.6316],[29.2014,-30.8633,1109.6493],[29.2068,-30.8693,1072.6824],[29.2165,-30.8724,1038.853],[29.2191,-30.8708,1030.5865],[29.2311,-30.8704,1064.9957],[29.2345,-30.8741,1056.5652],[29.2387,-30.8706,1108.1838],[29.2434,-30.8707,1129.4633],[29.2485,-30.8682,1185.4598],[29.2542,-30.8688,1250.6783],[29.2589,-30.8785,1224.1342],[29.265,-30.8756,1264.8048],[29.2642,-30.8729,1249.7383],[29.266,-30.8705,1241.8044],[29.2709,-30.8693,1214.7574],[29.2669,-30.8515,1215.1635],[29.2691,-30.8574,1229.5093],[29.2739,-30.8604,1189.5654],[29.2863,-30.8618,1070.7651],[29.3055,-30.8556,1076.4619],[29.3244,-30.8603,898.6518],[29.3479,-30.8427,1248.5229],[29.3585,-30.8392,1372.2671],[29.3925,-30.8368,1655.4761],[29.4051,-30.8408,1643.4578],[29.4082,-30.8354,1596.9084],[29.4076,-30.8258,1543.3672],[29.4195,-30.8217,1487.6893],[29.4226,-30.8188,1380.1879],[29.4223,-30.8117,1332.8711],[29.4272,-30.8118,1258.7809],[29.4314,-30.8144,1338.0793],[29.4305,-30.812,1303.4238],[29.4485,-30.7971,1423.5042],[29.4509,-30.7909,1415.543],[29.4569,-30.7885,1400.8173],[29.4607,-30.7851,1342.2676],[29.461,-30.7818,1385.757],[29.4593,-30.7791,1406.7117],[29.461,-30.7765,1426.4263],[29.4539,-30.7698,1497.542],[29.4599,-30.7676,1398.8843],[29.4603,-30.7629,1391.7889],[29.465,-30.759,1425.8245],[29.4594,-30.7538,1462.6157],[29.4528,-30.7531,1473.9948],[29.4525,-30.7508,1494.4761],[29.4501,-30.7504,1493.3674],[29.4569,-30.7414,1551.0419],[29.4516,-30.7376,1553.5938],[29.4523,-30.7335,1536.9055],[29.454,-30.7314,1528.3932],[29.4555,-30.7345,1519.4321],[29.4608,-30.7355,1479.4553],[29.4655,-30.7293,1501.4362],[29.4636,-30.7254,1505.7109],[29.47,-30.7226,1501.0374],[29.4836,-30.7008,1463.1957],[29.497,-30.6999,1512.6692],[29.5019,-30.6963,1535.0137],[29.5159,-30.6939,1467.1707],[29.5153,-30.6928,1454.0026],[29.5236,-30.6891,1497.6196],[29.5302,-30.6795,1401.3149],[29.5341,-30.6611,1489.0995],[29.5447,-30.6475,1930.3079],[29.5243,-30.6412,1682.5266],[29.5124,-30.6182,1670.9657],[29.4686,-30.6242,1655.5488],[29.443,-30.639,1861.2871],[29.4013,-30.6394,1503.8805],[29.3855,-30.6501,1371.6166],[29.3728,-30.649,1326.8586],[29.3456,-30.6717,1666.5428],[29.3225,-30.6445,1558.4526],[29.3198,-30.645,1656.2654],[29.3035,-30.6394,1838.5016],[29.2773,-30.6373,1588.269],[29.2613,-30.6212,1586.881],[29.2284,-30.6197,1430.7747],[29.2202,-30.6208,1207.1187],[29.218,-30.6185,1209.8645],[29.2111,-30.6215,1252.021],[29.2046,-30.6202,1217.1775],[29.1952,-30.6245,1237.1898],[29.1955,-30.6283,1229.0785],[29.1987,-30.632,1234.5431],[29.1979,-30.6344,1240.2324],[29.1919,-30.6348,1241.3179],[29.1829,-30.6413,1268.671],[29.1809,-30.6396,1269.5114],[29.1778,-30.6287,1258.4963],[29.1808,-30.6236,1265.2052],[29.1854,-30.6213,1278.9644],[29.1855,-30.6188,1264.1868],[29.1814,-30.6186,1267.8625],[29.1728,-30.6242,1274.569],[29.168,-30.6176,1283.6912],[29.1681,-30.6131,1283.4346],[29.1353,-30.6051,1810.5496],[29.0843,-30.6123,1237.1245],[29.0777,-30.6095,1254.3765],[29.078,-30.5997,1341.2365],[29.0741,-30.6013,1313.5747],[29.046,-30.6023,1560.5737],[29.026,-30.5969,1673.5255],[28.9842,-30.5722,1654.9105],[28.9561,-30.5725,1822.939],[28.957,-30.6037,1474.6835],[28.9522,-30.611,1402.6418],[28.9527,-30.6246,1448.7487],[28.946,-30.6496,1560.8601],[28.9401,-30.6604,1625.5496],[28.9335,-30.6654,1536.5476],[28.9247,-30.6873,1472.1323],[28.9034,-30.6952,1042.2305],[28.8993,-30.6911,1056.4041],[28.8968,-30.6808,1071.1339],[28.8901,-30.6824,1084.0864],[28.8861,-30.6874,1084.6956],[28.8799,-30.6816,1083.1674],[28.8803,-30.6797,1087.8013],[28.886,-30.6777,1095.897],[28.8883,-30.6737,1091.3376],[28.8805,-30.6772,1099.3059],[28.8754,-30.6729,1125.783],[28.8667,-30.6757,1132.9799],[28.8719,-30.6838,1114.4816],[28.8719,-30.687,1106.0499],[28.8682,-30.6878,1100.7639],[28.8596,-30.6858,1107.5442],[28.8535,-30.6902,1106.8818],[28.852,-30.6883,1097.8665],[28.8554,-30.679,1106.8972],[28.8504,-30.6725,1109.3933],[28.8436,-30.6728,1119.6862],[28.8399,-30.6703,1111.625],[28.8349,-30.6728,1114.3206],[28.8313,-30.6716,1132.2515],[28.8303,-30.6682,1114.6217],[28.8341,-30.664,1124.1086],[28.8412,-30.6619,1150.8416],[28.8449,-30.658,1131.7524],[28.8515,-30.6553,1129.8882],[28.8499,-30.6496,1141.0811],[28.8438,-30.6521,1131.1827],[28.8384,-30.645,1128.5519],[28.8293,-30.6429,1191.0416],[28.8262,-30.6442,1136.2212],[28.824,-30.6494,1184.5957],[28.8208,-30.6497,1158.7999],[28.8157,-30.6445,1207.7698],[28.8108,-30.6426,1142.9382],[28.8084,-30.6389,1171.0862],[28.7996,-30.6337,1148.4155],[28.8074,-30.6312,1173.9609],[28.8086,-30.6317,1150.468],[28.8078,-30.6342,1149.9385],[28.8136,-30.6339,1152.8213],[28.7992,-30.6159,1194.7301],[28.7919,-30.6174,1173.021],[28.7872,-30.6209,1165.6373],[28.7824,-30.6197,1171.8002],[28.7824,-30.6178,1194.6779],[28.7862,-30.6151,1174.1409],[28.7807,-30.6106,1188.9471],[28.7806,-30.6054,1180.8213],[28.7832,-30.6027,1219.1602],[28.7765,-30.595,1240.6344],[28.7767,-30.5913,1197.911],[28.7802,-30.5845,1201.1399],[28.7788,-30.5822,1222.1025],[28.7764,-30.5818,1206.7633],[28.7707,-30.5864,1245.8605],[28.7604,-30.5856,1215.293],[28.7593,-30.5879,1217.7448],[28.7621,-30.5908,1226.0693],[28.7605,-30.5935,1215.7385],[28.7608,-30.5993,1221.0393],[28.7529,-30.6027,1226.4419],[28.749,-30.5966,1227.806],[28.7465,-30.5977,1225.6946],[28.7407,-30.5947,1239.6273],[28.741,-30.5923,1235.0063],[28.7462,-30.5922,1241.7517],[28.7468,-30.5877,1234.2219],[28.744,-30.5861,1245.2823],[28.7409,-30.5888,1237.9918],[28.7394,-30.5865,1234.6902],[28.7312,-30.5856,1242.5488],[28.7291,-30.58,1241.5054],[28.7252,-30.5761,1262.8385],[28.7185,-30.577,1269.2131],[28.7187,-30.5822,1259.813],[28.7149,-30.5852,1266.8192],[28.7034,-30.5818,1266.9823],[28.6992,-30.5826,1280.9611],[28.6954,-30.5956,1611.7672],[28.6935,-30.5993,1849.3046],[28.6892,-30.602,1931.2371],[28.6884,-30.608,1906.9126],[28.6693,-30.6227,1788.6302],[28.6711,-30.6249,1724.8353],[28.6769,-30.6258,1707.6873],[28.6716,-30.6291,1748.5476],[28.6719,-30.6513,1849.7114],[28.6676,-30.6539,1845.4224],[28.6578,-30.6503,1857.3501],[28.6483,-30.6505,1879.4894],[28.6382,-30.6547,1866.9406],[28.5969,-30.663,1925.1145],[28.5947,-30.6628,1950.1211],[28.5952,-30.6606,1920.2458],[28.5935,-30.6592,1878.7238],[28.5843,-30.6601,1857.5049],[28.5797,-30.6498,1650.559],[28.5759,-30.6468,1519.9863],[28.5728,-30.6465,1510.9229],[28.5655,-30.6497,1442.574],[28.5604,-30.6553,1431.3542],[28.5664,-30.6596,1512.6837],[28.5649,-30.6616,1572.5085],[28.5565,-30.6605,1575.6862],[28.5508,-30.6625,1505.5994],[28.5463,-30.6667,1397.2346],[28.544,-30.663,1388.4158],[28.542,-30.6649,1313.8086],[28.5506,-30.6787,1230.6239],[28.5546,-30.6818,1242.1013],[28.5525,-30.6837,1231.3706],[28.5522,-30.6891,1204.8781],[28.5499,-30.6924,1218.1101],[28.5541,-30.6975,1193.6956],[28.5632,-30.7016,1185.8937],[28.5599,-30.7087,1196.8129],[28.5664,-30.7074,1168.4294],[28.5727,-30.7096,1179.9574],[28.5807,-30.7085,1151.0991],[28.5863,-30.7127,1145.7168],[28.59,-30.7115,1140.6274],[28.5917,-30.7175,1138.5312],[28.5962,-30.7195,1172.6537],[28.5995,-30.7265,1157.728],[28.6024,-30.7285,1130.144],[28.5975,-30.7343,1131.0342],[28.6067,-30.737,1135.4476],[28.6126,-30.7484,1149.2026],[28.6119,-30.7503,1185.9355],[28.6082,-30.7497,1116.3701],[28.6077,-30.7551,1119.9729],[28.6106,-30.7574,1115.1615],[28.6126,-30.7542,1156.3883],[28.6158,-30.7562,1120.606],[28.6234,-30.754,1124.766],[28.6274,-30.7549,1116.2042],[28.629,-30.7581,1139.1146],[28.641,-30.768,1114.0048],[28.6419,-30.774,1104.8418],[28.6483,-30.7767,1119.0127],[28.6538,-30.7919,1094.2701],[28.6617,-30.7904,1095.9032],[28.6609,-30.7945,1084.7914],[28.6508,-30.7944,1081.7693],[28.6494,-30.7955,1080.4199],[28.6511,-30.7989,1077.7789],[28.6586,-30.8009,1078.0219],[28.6557,-30.8047,1075.6443],[28.6512,-30.8045,1070.9175],[28.6509,-30.8056,1072.0818],[28.6586,-30.8119,1067.7732],[28.6653,-30.8119,1067.5309],[28.6669,-30.8184,1074.6182],[28.6742,-30.8169,1076.5848],[28.6773,-30.8206,1054.9282],[28.6803,-30.8178,1069.1166],[28.6861,-30.8169,1100.6709],[28.6869,-30.8199,1051.4746],[28.6856,-30.824,1051.9139],[28.6816,-30.8252,1069.3657],[28.6768,-30.8305,1049.7228],[28.68,-30.8356,1046.1692],[28.6897,-30.8376,1049.1692],[28.6929,-30.8296,1044.2397],[28.7028,-30.8347,1044.9205],[28.7147,-30.8378,1044.6613],[28.7209,-30.8423,1041.8127],[28.7293,-30.8431,1061.8755],[28.7264,-30.8537,1053.9707],[28.728,-30.8551,1045.0386],[28.7355,-30.8548,1038.5557],[28.7374,-30.8565,1036.7626],[28.7411,-30.8635,1027.9369],[28.7408,-30.8699,1049.1376],[28.7487,-30.8625,1038.8907],[28.7538,-30.8621,1026.2007],[28.7575,-30.8651,1020.998],[28.7583,-30.8733,1017.7328],[28.7616,-30.8804,1022.3706],[28.7591,-30.8841,1017.8491],[28.7583,-30.8898,1032.2036],[28.7649,-30.8891,1019.2219],[28.7652,-30.8827,1021.7839],[28.7689,-30.8805,1020.0497],[28.7767,-30.8838,1013.769],[28.7885,-30.8811,1023.9221],[28.7935,-30.8835,1009.7965],[28.7969,-30.89,1026.5579],[28.8022,-30.8927,1006.7426],[28.8006,-30.8956,1008.4994],[28.7981,-30.8942,1012.1428],[28.7904,-30.8955,999.9117],[28.7929,-30.8994,1005.1534],[28.7918,-30.904,999.0959],[28.7962,-30.907,1002.2822],[28.8022,-30.9059,1007.7479],[28.8018,-30.9121,1001.3189],[28.8127,-30.9137,997.6447],[28.8104,-30.9203,994.5644],[28.8207,-30.9255,990.5245],[28.8175,-30.9339,984.5682],[28.8129,-30.938,998.1102],[28.8135,-30.9452,982.8869],[28.8072,-30.9494,979.1182],[28.8088,-30.9542,966.9478],[28.8127,-30.956,970.0288],[28.823,-30.9545,992.1603],[28.8278,-30.9629,947.5886],[28.8315,-30.9647,967.2152],[28.8334,-30.9629,971.9393],[28.829,-30.9558,941.7116],[28.8278,-30.9485,949.5282],[28.835,-30.947,944.0638],[28.8348,-30.9422,923.0167],[28.8464,-30.9419,911.8756],[28.8537,-30.947,905.8143],[28.8631,-30.9471,911.402],[28.8666,-30.9494,889.453],[28.8678,-30.9532,942.6667],[28.8635,-30.9622,874.8797],[28.8688,-30.9644,902.0928],[28.8676,-30.968,931.9188],[28.861,-30.9685,868.3436],[28.8553,-30.9652,863.4222],[28.8504,-30.9647,868.4771],[28.8484,-30.9664,912.5464],[28.8483,-30.9697,922.5208],[28.8611,-30.9903,847.4641],[28.8691,-30.9903,841.8619],[28.8696,-30.9986,841.8688],[28.8744,-31.0031,838.8356],[28.8702,-31.0126,835.327],[28.8759,-31.0172,845.51],[28.8785,-31.0243,826.0825],[28.8879,-31.0368,839.2902],[28.8859,-31.0385,860.3831],[28.8829,-31.038,852.4125],[28.8772,-31.0333,813.7852],[28.8722,-31.0337,820.4175],[28.871,-31.0377,821.5338],[28.8758,-31.0467,833.3057],[28.8754,-31.0493,847.8138],[28.8729,-31.0495,805.0497],[28.8673,-31.0434,820.8096],[28.8611,-31.0415,803.1542],[28.8579,-31.0432,821.2217],[28.8559,-31.0483,797.3114],[28.8514,-31.0533,807.7627],[28.8646,-31.0514,785.9188],[28.8694,-31.0531,785.4233],[28.8889,-31.0635,781.8386],[28.8987,-31.0763,793.3528],[28.9057,-31.0777,778.4165],[28.9119,-31.075,783.6631],[28.9137,-31.0692,775.3048],[28.9196,-31.0653,775.7703],[28.9164,-31.0625,777.5806],[28.9083,-31.0594,770.0411],[28.9083,-31.0576,781.889],[28.9235,-31.0532,769.1642],[28.9255,-31.0537,774.1505],[28.9266,-31.0605,786.5724],[28.9314,-31.0646,776.1547],[28.9321,-31.0684,763.0203],[28.9301,-31.0728,761.8821],[28.9345,-31.072,762.7709],[28.9382,-31.0683,762.8051],[28.9418,-31.0602,760.6253],[28.9328,-31.0546,762.8472],[28.9328,-31.0533,764.6815],[28.9412,-31.0495,752.1623],[28.9464,-31.0433,749.6025],[28.9485,-31.0446,753.9007],[28.9482,-31.0495,747.5751],[28.9512,-31.0546,768.4694],[28.9595,-31.0592,741.9305],[28.9595,-31.0615,745.4631],[28.9524,-31.07,742.5561],[28.9534,-31.0727,763.7492],[28.9579,-31.0718,804.6884],[28.9633,-31.0619,762.1801],[28.9716,-31.0593,751.0616],[28.978,-31.0596,745.1072],[28.979,-31.0564,763.8239],[28.9826,-31.054,769.6423],[28.9781,-31.0455,826.5665],[28.9811,-31.0438,825.145],[28.9776,-31.0413,820.2737],[28.9841,-31.0374,815.6721],[28.9828,-31.0336,832.457],[28.9807,-31.0325,826.9808],[28.9789,-31.025,840.037],[28.9832,-31.0228,873.6659],[28.9893,-31.0267,895.1199],[28.9957,-31.0273,915.0511],[28.9997,-31.0251,931.3143],[29.003,-31.0185,984.3286],[29.0144,-31.02,1083.2805],[29.0133,-31.0062,1098.7878],[29.0171,-31.0023,1108.3141],[29.0268,-31.0041,1172.9404],[29.0319,-31.0091,1145.2211],[29.0366,-31.0075,1127.2056],[29.0426,-31.01,1077.4657],[29.0447,-31.0196,1079.0543],[29.0567,-31.0264,1057.907],[29.0545,-31.0316,1059.1058],[29.0606,-31.0324,999.3704],[29.0604,-31.0346,1050.5828],[29.0629,-31.0349,1038.9741],[29.0648,-31.0379,1035.822],[29.0698,-31.0348,1006.4675],[29.076,-31.0404,911.6824],[29.0792,-31.0403,892.9392],[29.0843,-31.0373,874.6969],[29.0974,-31.0337,813.1053],[29.1032,-31.0293,785.5977],[29.109,-31.0355,927.7095],[29.1155,-31.028199999999998,822.4033],[29.1177,-31.0297,811.5986],[29.1202,-31.0279,764.6415],[29.1203,-31.0242,717.4922],[29.1255,-31.02,628.4893],[29.1227,-31.017,617.0179],[29.125,-31.0136,616.9946],[29.1395,-31.0067,645.1002],[29.143,-31.0004,652.446],[29.1432,-30.9968,654.3163],[29.1382,-30.9904,633.8723],[29.1235,-30.9865,632.4075],[29.104,-30.9847,638.589],[29.1018,-30.9835,639.0546],[29.102,-30.9812,641.5852],[29.1039,-30.979,642.8923],[29.1091,-30.9776,645.6282],[29.1305,-30.9751,667.7772],[29.1366,-30.9725,675.4796],[29.1462,-30.9766,658.0969],[29.147,-30.9747,718.5513],[29.1449,-30.9716,677.1794],[29.1525,-30.9629,678.2695],[29.1544,-30.9576,680.0709],[29.1535,-30.9527,709.6985],[29.1502,-30.9518,685.8585]]]]}}