{"type":"Feature","properties":{"GID_3":"ZAF.5.2.4_1","GID_0":"ZAF","country":"SouthAfrica","GID_1":"ZAF.5_1","province":"Limpopo","NL_NAME_1":"NA","GID_2":"ZAF.5.2_1","county":"Mopani","NL_NAME_2":"NA","city":"GreaterTzaneen","VARNAME_3":"NA","NL_NAME_3":"NA","TYPE_3":"LocalMunicipality","ENGTYPE_3":"LocalMunicipality","CC_3":"LIM333","HASC_3":"NA","name":"Greater_Tzaneen.city"},
"geometry":{"type": "MultiPolygon","coordinates": [[[[30.2805,-24.1069,760.798],[30.2949,-24.0959,869.124],[30.3215,-24.1297,834.4518],[30.3477,-24.1053,638.7408],[30.3803,-24.0693,600.2729],[30.4639,-24.1434,599.3302],[30.5175,-24.1859,499.5928],[30.5298,-24.1773,493.01369999999997],[30.5378,-24.1787,492.4849],[30.5419,-24.1832,491.9953],[30.5413,-24.1886,496.3545],[30.5434,-24.1891,490.0973],[30.5507,-24.1882,499.5211],[30.5551,-24.1808,482.7227],[30.5615,-24.1844,492.9969],[30.5597,-24.1887,484.682],[30.5609,-24.1899,481.282],[30.5757,-24.1862,476.1659],[30.5773,-24.1825,474.9944],[30.5811,-24.1849,473.4003],[30.5821,-24.188,484.6118],[30.5895,-24.1901,469.1917],[30.5932,-24.1952,465.0756],[30.6002,-24.1954,462.9016],[30.6048,-24.1937,465.7566],[30.608,-24.1867,461.5526],[30.6145,-24.1838,459.4297],[30.6184,-24.1827,461.1625],[30.6269,-24.1842,458.4754],[30.6329,-24.1817,458.1475],[30.6358,-24.179,452.6165],[30.6359,-24.1766,453.5392],[30.6312,-24.1713,452.8318],[30.6352,-24.1683,452.378],[30.6382,-24.1676,463.3024],[30.6486,-24.1722,445.0683],[30.6527,-24.1637,447.6446],[30.6599,-24.1621,443.9787],[30.6585,-24.1556,441.0388],[30.6603,-24.1525,449.0461],[30.664,-24.154,441.319],[30.6723,-24.1615,436.2899],[30.6748,-24.1614,445.8016],[30.678,-24.157,432.3841],[30.6874,-24.1555,431.4502],[30.4801,-23.9809,698.637],[30.5266,-23.976,617.2858],[30.5234,-23.9494,727.0741],[30.5574,-23.9415,638.4417],[30.555,-23.8909,595.8001],[30.5131,-23.8867,738.0739],[30.5079,-23.8657,690.3859],[30.5857,-23.8474,569.2488],[30.5315,-23.805,564.9598],[30.5355,-23.7992,556.9031],[30.537,-23.7683,465.166],[30.5337,-23.7686,465.8632],[30.5354,-23.7558,444.6221],[30.5346,-23.7512,452.545],[30.5269,-23.7347,451.7034],[30.5262,-23.7281,457.0266],[30.5243,-23.7269,453.1139],[30.519,-23.7299,454.6166],[30.51,-23.7316,455.1267],[30.4921,-23.7138,493.9951],[30.5199,-23.6861,508.5195],[30.5403,-23.6801,461.5164],[30.5561,-23.6724,481.2607],[30.6135,-23.6332,444.5521],[30.6249,-23.5967,476.8957],[30.6019,-23.5621,563.6781],[30.5628,-23.5525,556.9182],[30.513,-23.5644,522.6665],[30.4748,-23.5691,657.5328],[30.4179,-23.5214,549.618],[30.3965,-23.5517,576.2453],[30.3725,-23.5668,589.2667],[30.3692,-23.5723,593.5853],[30.3723,-23.5759,607.3669],[30.3723,-23.5812,619.135],[30.3746,-23.5874,628.3413],[30.388,-23.5976,691.3933],[30.3828,-23.6002,709.5388],[30.3772,-23.6007,703.1896],[30.3751,-23.6038,702.7312],[30.3703,-23.6061,712.8405],[30.3703,-23.61,776.3267],[30.3673,-23.6163,891.8099],[30.3687,-23.6203,901.9708],[30.3677,-23.6241,917.7979],[30.3421,-23.6359,1015.8685],[30.3215,-23.6366,980.4822],[30.3061,-23.6316,753.0276],[30.2876,-23.6465,837.2935],[30.2907,-23.6572,1045.9534],[30.2778,-23.666,965.7098],[30.2796,-23.6669,948.7859],[30.2735,-23.67,836.507],[30.267,-23.6708,908.7457],[30.2661,-23.6696,926.2996],[30.2598,-23.6715,956.0942],[30.2516,-23.6794,932.144],[30.2336,-23.7017,904.1195],[30.2321,-23.7144,964.8033],[30.2277,-23.7235,974.2075],[30.2013,-23.7537,829.7631],[30.1845,-23.743,816.2392],[30.1804,-23.7543,744.795],[30.1709,-23.7527,834.2347],[30.1546,-23.7608,804.7431],[30.1594,-23.7358,869.421],[30.1423,-23.7429,749.3663],[30.1338,-23.7257,943.4485],[30.1259,-23.7319,884.791],[30.1249,-23.7358,879.7915],[30.1131,-23.7308,835.5632],[30.1106,-23.7334,807.7067],[30.1044,-23.7253,879.066],[30.1012,-23.7255,857.3985],[30.098,-23.7237,870.9798],[30.092,-23.7055,1115.173],[30.0818,-23.6914,1365.0554],[30.0732,-23.6979,1361.2634],[30.0633,-23.6869,1211.949],[30.0499,-23.7062,1464.9272],[30.0286,-23.6672,753.9169],[30.0354,-23.6639,750.3723],[30.0366,-23.6606,743.6158],[30.0404,-23.6614,746.964],[30.0425,-23.6556,737.6115],[30.0461,-23.653,737.9489],[30.0491,-23.6461,733.4457],[30.0254,-23.6247,1061.6763],[29.9813,-23.6525,1133.576],[29.9611,-23.6601,910.1756],[29.9321,-23.6629,1198.9761],[29.8979,-23.6701,1287.4603],[29.8879,-23.6794,1294.3762],[29.8946,-23.7127,1261.4048],[29.8897,-23.7301,1318.2072],[29.8884,-23.7416,1354.892],[29.9181,-23.7602,1430.55],[29.9145,-23.773,1255.1644],[29.9282,-23.7977,1529.1921],[29.907,-23.8134,1410.5647],[29.8791,-23.8228,1499.8062],[29.8968,-23.8277,1596.5684],[29.8865,-23.8551,1858.9222],[29.8979,-23.8626,1581.7463],[29.8933,-23.8739,1524.53],[29.8962,-23.8849,1452.5894],[29.8952,-23.8884,1404.1154],[29.897,-23.8973,1373.3254],[29.8899,-23.9049,1342.208],[29.8896,-23.9081,1332.9744],[29.8851,-23.9139,1321.2109],[29.8757,-23.9178,1304.2238],[29.8703,-23.9176,1299.7039],[29.8544,-23.9219,1272.9827],[29.8638,-23.9514,1592.4604],[29.8781,-23.9464,1637.1332],[29.8948,-23.9438,1611.6234],[29.8982,-23.9582,1709.8972],[29.901,-23.9636,1625.0291],[29.9393,-23.9813,1637.55],[29.9545,-23.9818,1979.0686],[29.9685,-23.993,1790.4146],[29.9909,-23.9944,1314.9893],[29.9975,-24.0007,1187.0935],[30.0143,-23.9834,1783.2335],[30.0431,-23.9725,1886.8566],[30.0746,-24.012,2021.6544],[30.2156,-24.0857,1769.3079],[30.2383,-24.1393,1618.9955],[30.2805,-24.1069,760.798]]]]}}