{"type":"Feature","properties":{"GID_3":"ZAF.4.7.1_1","GID_0":"ZAF","country":"SouthAfrica","GID_1":"ZAF.4_1","province":"KwaZulu-Natal","NL_NAME_1":"NA","GID_2":"ZAF.4.7_1","county":"Umkhanyakude","NL_NAME_2":"NA","city":"Hlabisa","VARNAME_3":"NA","NL_NAME_3":"NA","TYPE_3":"LocalMunicipality","ENGTYPE_3":"LocalMunicipality","CC_3":"KZN274","HASC_3":"NA","name":"Hlabisa.city"},
"geometry":{"type": "MultiPolygon","coordinates": [[[[31.947,-28.0238,271.8623],[31.9441,-28.0258,273.4068],[31.9461,-28.0278,275.3735],[31.9454,-28.0324,263.4909],[31.9401,-28.0348,258.3374],[31.939,-28.0389,257.4618],[31.9415,-28.0385,258.428],[31.9419,-28.0454,250.3408],[31.944,-28.0457,251.2625],[31.9447,-28.0492,246.328],[31.9395,-28.0483,251.9666],[31.9263,-28.0397,319.2293],[31.926,-28.0382,290.6395],[31.9296,-28.0343,318.9362],[31.9228,-28.0354,304.3414],[31.921,-28.0277,340.4414],[31.9158,-28.0264,289.8809],[31.912,-28.0277,287.1294],[31.9092,-28.025,297.7186],[31.9047,-28.0266,311.6285],[31.9046,-28.0314,334.1932],[31.9008,-28.031,345.2195],[31.9002,-28.0324,342.1006],[31.8972,-28.0326,378.2382],[31.8981,-28.0355,363.6781],[31.8965,-28.0366,369.1797],[31.8928,-28.036,376.6015],[31.8867,-28.0295,438.6251],[31.8797,-28.0322,449.7159],[31.8744,-28.0369,481.0212],[31.8502,-28.0263,550.1652],[31.8465,-28.0262,539.2393],[31.8447,-28.0279,521.8124],[31.8304,-28.0293,309.5064],[31.8192,-28.038,249.6373],[31.8262,-28.0656,238.3319],[31.8209,-28.0655,233.2609],[31.8231,-28.0701,222.8907],[31.8218,-28.0766,203.7692],[31.8152,-28.0871,185.301],[31.8197,-28.0911,184.8107],[31.8068,-28.1061,171.4026],[31.8069,-28.1092,168.0938],[31.8143,-28.111,201.6195],[31.8137,-28.1145,170.0425],[31.8114,-28.1173,165.1927],[31.8025,-28.1213,163.8581],[31.8022,-28.1272,158.7633],[31.8043,-28.1318,156.3025],[31.8034,-28.1365,156.04],[31.7996,-28.1381,165.6255],[31.7947,-28.137,155.2183],[31.793,-28.1385,157.935],[31.7948,-28.146,149.7585],[31.8016,-28.153199999999998,151.2885],[31.7925,-28.1612,143.5323],[31.7908,-28.1645,142.4005],[31.7984,-28.177,135.4995],[31.7942,-28.1807,135.5603],[31.8072,-28.1889,130.0141],[31.8056,-28.1929,139.2527],[31.7997,-28.1955,127.0571],[31.8008,-28.2001,127.6239],[31.8051,-28.2034,134.7447],[31.815,-28.2032,124.751],[31.8184,-28.2051,124.8065],[31.814,-28.2183,124.3464],[31.8125,-28.2195,120.3025],[31.8088,-28.216,119.1879],[31.7927,-28.2198,129.5251],[31.786,-28.218,132.086],[31.7819,-28.215,116.5706],[31.7826,-28.2092,116.993],[31.7784,-28.2063,119.0212],[31.7711,-28.2173,133.0104],[31.7538,-28.2225,129.9699],[31.746,-28.233,139.0123],[31.7403,-28.2316,131.0661],[31.7385,-28.2207,128.9408],[31.733,-28.2184,157.5651],[31.7031,-28.2273,417.0206],[31.7004,-28.27,428.292],[31.7198,-28.2993,528.3078],[31.7196,-28.3029,521.3763],[31.7223,-28.3094,482.0656],[31.7199,-28.3135,489.1109],[31.7133,-28.3162,446.7505],[31.7069,-28.3389,341.8726],[31.6977,-28.3589,234.0528],[31.7022,-28.3611,225.9538],[31.7021,-28.3715,153.6944],[31.7119,-28.3685,141.1476],[31.7193,-28.3692,147.662],[31.7208,-28.3708,138.5834],[31.7204,-28.373,168.3316],[31.7177,-28.3741,143.1761],[31.7094,-28.3735,137.3731],[31.705,-28.3804,134.8533],[31.7113,-28.3832,139.9118],[31.7143,-28.39,155.704],[31.7269,-28.4034,131.1149],[31.7402,-28.4114,131.1139],[31.7478,-28.4129,131.6068],[31.7411,-28.4335,180.1778],[31.8109,-28.4317,287.4116],[31.9625,-28.4062,185.831],[31.9805,-28.3621,69.5591],[31.9817,-28.3474,142.4175],[32.0284,-28.2202,301.2134],[32.1082,-28.133,451.2283],[32.121,-28.1172,105.9365],[32.1373,-28.1142,101.4347],[32.1383,-28.1109,80.6468],[32.1467,-28.1124,101.3655],[32.1471,-28.1181,114.9785],[32.1575,-28.1139,87.8891],[32.1637,-28.1252,117.4052],[32.1505,-28.1418,111.1454],[32.1546,-28.1426,96.0859],[32.158,-28.1383,112.9399],[32.1804,-28.1334,59.3719],[32.1897,-28.1256,58.0937],[32.208,-28.0145,92.9396],[32.1893,-27.9502,263.0886],[32.1931,-27.9458,104.937],[32.1912,-27.9432,105.8447],[32.1919,-27.939,109.1777],[32.1888,-27.938,110.122],[32.1885,-27.939,110.122],[32.1816,-27.9325,115.1089],[32.1771,-27.9316,122.4993],[32.1759,-27.9239,124.2179],[32.1777,-27.9215,127.4677],[32.1761,-27.9191,142.7092],[32.1744,-27.9196,127.215],[32.1738,-27.9168,131.4247],[32.1682,-27.9182,134.7538],[32.1646,-27.9266,141.4144],[32.1576,-27.9258,145.9633],[32.1502,-27.931,156.2083],[32.1462,-27.9306,161.2642],[32.138,-27.9257,171.1767],[32.1263,-27.9243,180.616],[32.1092,-27.9152,213.8912],[32.1037,-27.9149,218.7715],[32.1021,-27.9159,218.7715],[32.1032,-27.9176,214.5252],[32.1009,-27.9187,229.12],[32.1014,-27.9233,225.9282],[32.0949,-27.9295,238.7524],[32.0957,-27.9355,267.6184],[32.0943,-27.938,273.7764],[32.0909,-27.9402,270.6269],[32.0872,-27.9394,291.1681],[32.083,-27.9423,285.2452],[32.0793,-27.949,306.8808],[32.0738,-27.951,338.4619],[32.0661,-27.9502,362.1898],[32.0632,-27.9526,377.7423],[32.0536,-27.955,633.4731],[32.0319,-27.9286,287.5191],[32.0246,-27.931,282.8658],[32.0257,-27.9328,285.0623],[32.0234,-27.9329,289.1147],[32.0228,-27.9301,288.1388],[32.0152,-27.9314,298.3456],[32.0112,-27.93,308.5169],[32.0081,-27.9314,306.5182],[32.0061,-27.9306,311.5593],[32.0029,-27.9328,310.838],[32.0023,-27.9318,310.838],[32.0004,-27.9337,313.1783],[31.993,-27.9311,321.8231],[31.9935,-27.9282,325.0463],[31.991,-27.9258,336.2212],[31.9848,-27.9284,336.326],[31.9848,-27.9314,346.0004],[31.9821,-27.9335,343.6985],[31.9827,-27.9349,350.5764],[31.9795,-27.9369,354.3892],[31.9688,-27.931,374.6096],[31.9613,-27.9314,389.1495],[31.9543,-27.9371,401.2273],[31.9564,-27.9432,433.8416],[31.9527,-27.9503,470.0131],[31.9526,-27.9582,514.4257],[31.9471,-27.9642,552.4195],[31.948,-27.9667,513.2903],[31.94,-27.9701,416.5114],[31.937,-27.9762,416.9435],[31.9398,-27.9879,357.5969],[31.9438,-27.9937,335.7927],[31.9429,-27.996,345.271],[31.9457,-27.9997,307.4194],[31.951,-28.0007,298.5204],[31.9483,-28.0038,294.951],[31.9485,-28.0061,294.9448],[31.9466,-28.0059,294.7112],[31.9465,-28.0091,293.2849],[31.9442,-28.0103,299.1976],[31.9482,-28.0133,286.7767],[31.9472,-28.0161,282.3801],[31.9494,-28.0166,277.8444],[31.9468,-28.0184,276.6835],[31.947,-28.0238,271.8623]]]]}}