{"type":"Feature","properties":{"GID_3":"ZAF.3.1.1_1","GID_0":"ZAF","country":"SouthAfrica","GID_1":"ZAF.3_1","province":"Gauteng","NL_NAME_1":"NA","GID_2":"ZAF.3.1_1","county":"CityofJohannesburg","NL_NAME_2":"NA","city":"CityofJohannesburg","VARNAME_3":"NA","NL_NAME_3":"NA","TYPE_3":"MetropolitanMunicipality","ENGTYPE_3":"MetropolitanMunicipality","CC_3":"JHB","HASC_3":"NA","name":"Cityof_Johannesburg.city"},
"geometry":{"type": "MultiPolygon","coordinates": [[[[27.8942,-26.4003,1595.269],[27.8964,-26.3779,1654.7415],[27.9058,-26.3639,1635.6357],[27.9122,-26.3589,1633.0042],[27.9534,-26.3532,1560.1863],[27.9569,-26.3352,1535.073],[27.9703,-26.3371,1538.6516],[27.97,-26.3417,1546.7081],[28.009,-26.3506,1545.238],[28.0114,-26.3392,1519.3572],[28.0212,-26.342,1517.5565],[28.0396,-26.3424,1511.5118],[28.0431,-26.3472,1508.6508],[28.0419,-26.3475,1508.6508],[28.0478,-26.3596,1517.1116],[28.0503,-26.356,1493.7715],[28.0511,-26.3491,1495.2107],[28.0671,-26.342,1513.6327],[28.0665,-26.3371,1513.1436],[28.0814,-26.3343,1539.5314],[28.0803,-26.3209,1554.563],[28.0911,-26.3136,1579.6382],[28.0905,-26.3067,1580.8435],[28.0946,-26.3069,1585.2758],[28.0948,-26.3047,1587.6006],[28.0781,-26.3038,1614.3866],[28.0706,-26.2726,1793.2268],[28.0667,-26.2721,1762.7495],[28.0656,-26.2682,1740.4586],[28.0714,-26.2673,1715.521],[28.071,-26.2639,1706.1566],[28.0772,-26.2599,1746.012],[28.0953,-26.2576,1702.687],[28.0952,-26.2555,1710.7227],[28.1229,-26.2479,1595.8844],[28.1246,-26.2395,1627.3958],[28.1224,-26.2392,1615.2811],[28.1247,-26.234,1624.4847],[28.1242,-26.2316,1634.6611],[28.1276,-26.2272,1636.5804],[28.1127,-26.1678,1725.8965],[28.1185,-26.1669,1676.8563],[28.1142,-26.1619,1641.6792],[28.1177,-26.16,1630.842],[28.1245,-26.1491,1605.6516],[28.1342,-26.1495,1581.8499],[28.132,-26.147,1571.6311],[28.1321,-26.1436,1565.5684],[28.1338,-26.1327,1592.2395],[28.136,-26.1264,1617.7576],[28.1376,-26.1264,1625.8092],[28.1354,-26.1219,1611.1963],[28.1384,-26.118,1624.7638],[28.1408,-26.1259,1623.2557],[28.1639,-26.1221,1630.5652],[28.1661,-26.1072,1572.5762],[28.1688,-26.1056,1566.6772],[28.1757,-26.1202,1604.2003],[28.1805,-26.1194,1626.2614],[28.1769,-26.0984,1590.8696],[28.1848,-26.0893,1665.6138],[28.1809,-26.0845,1678.2867],[28.1843,-26.0786,1693.3126],[28.182,-26.0743,1670.5908],[28.1756,-26.0737,1640.3712],[28.1794,-26.0668,1662.4216],[28.178,-26.0634,1668.193],[28.1714,-26.0636,1617.7909],[28.1718,-26.0581,1639.9679],[28.17,-26.0538,1663.2612],[28.1657,-26.056,1644.2007],[28.1605,-26.0462,1592.4611],[28.1623,-26.0442,1597.8718],[28.1582,-26.0383,1559.5232],[28.1654,-26.0351,1600.323],[28.1752,-26.0356,1627.4253],[28.1722,-26.0286,1622.1981],[28.1737,-26.0281,1617.7111],[28.1781,-26.0284,1615.7485],[28.1769,-26.0357,1623.8307],[28.188,-26.0362,1574.161],[28.1894,-26.0321,1575.0784],[28.1874,-26.0327,1586.475],[28.1799,-26.0208,1574.9946],[28.2145,-25.9945,1563.187],[28.2115,-25.9789,1523.1354],[28.2053,-25.9769,1509.5249],[28.1975,-25.9746,1506.9884],[28.1945,-25.9849,1510.7942],[28.1665,-25.9793,1593.6903],[28.181,-25.9195,1533.8279],[28.1102,-25.9449,1502.2853],[28.1055,-25.9249,1523.4026],[28.0908,-25.9274,1500.1742],[28.0902,-25.9243,1504.3955],[28.0805,-25.9252,1549.056],[28.0772,-25.9209,1558.1199],[28.0751,-25.9292,1556.1755],[28.0457,-25.9315,1511.2482],[28.0392,-25.9264,1492.8757],[28.0299,-25.9111,1488.3765],[27.9879,-25.934,1405.1029],[27.984,-25.9028,1339.1949],[27.9669,-25.9109,1327.7753],[27.9629,-25.9105,1314.788],[27.9623,-25.9072,1328.8605],[27.9502,-25.9062,1277.759],[27.9493,-25.9079,1281.6968],[27.9467,-25.908,1298.0333],[27.9467,-25.9149,1289.2966],[27.932,-25.9163,1322.5824],[27.9408,-25.9284,1307.4965],[27.9323,-25.9259,1329.9254],[27.9084,-25.9269,1284.4626],[27.9077,-25.9287,1286.9374],[27.9098,-25.9303,1285.1249],[27.9052,-25.9331,1289.156],[27.9095,-25.9441,1347.3604],[27.8976,-25.9544,1335.099],[27.9106,-25.9676,1353.2747],[27.9074,-25.9701,1348.5288],[27.9227,-25.9707,1387.2932],[27.9256,-25.9786,1403.6689],[27.9235,-25.9983,1455.6868],[27.9126,-26.028199999999998,1486.465],[27.9044,-26.0311,1454.1926],[27.8963,-26.0618,1557.2202],[27.8942,-26.0582,1559.074],[27.8902,-26.0602,1530.0027],[27.888,-26.0567,1526.0461],[27.8828,-26.0592,1485.6948],[27.8808,-26.0575,1484.3555],[27.8778,-26.0618,1469.176],[27.8761,-26.058,1469.957],[27.8705,-26.0574,1478.0928],[27.872,-26.0625,1501.361],[27.868,-26.0651,1479.0375],[27.8646,-26.0566,1463.364],[27.8516,-26.0598,1503.4277],[27.8496,-26.0624,1481.38],[27.8665,-26.0751,1499.8285],[27.8423,-26.0723,1478.1152],[27.845,-26.0784,1485.0458],[27.8448,-26.0825,1489.5974],[27.8353,-26.0846,1598.3103],[27.8397,-26.092,1593.8633],[27.8384,-26.0955,1585.4131],[27.8398,-26.0973,1592.6949],[27.8396,-26.1069,1607.7319],[27.8352,-26.1068,1622.6686],[27.8318,-26.1099,1701.2717],[27.8322,-26.1146,1733.9719],[27.839,-26.1168,1734.6757],[27.8388,-26.1202,1736.3805],[27.8122,-26.167,1678.0109],[27.8181,-26.1699,1666.3872],[27.8195,-26.1744,1661.1062],[27.818,-26.176,1662.483],[27.8091,-26.1751,1694.386],[27.8106,-26.1821,1679.5883],[27.7861,-26.1819,1694.8579],[27.772,-26.2132,1668.4496],[27.7183,-26.1989,1704.4729],[27.7178,-26.2029,1708.7017],[27.7203,-26.2039,1688.6824],[27.7196,-26.2107,1679.6427],[27.7185,-26.2139,1668.5852],[27.7143,-26.2139,1680.4556],[27.725,-26.2387,1616.1852],[27.7285,-26.2425,1604.719],[27.7292,-26.2463,1595.5989],[27.7535,-26.258,1610.2361],[27.7446,-26.2795,1592.5713],[27.7438,-26.2872,1589.5337],[27.7765,-26.2853,1589.5226],[27.7828,-26.3043,1592.4738],[27.7897,-26.3039,1590.28],[27.7923,-26.2875,1586.5271],[27.8142,-26.2847,1580.5007],[27.8153,-26.3034,1573.7982],[27.8218,-26.3041,1564.5503],[27.8245,-26.3375,1589.4846],[27.8104,-26.3329,1596.1083],[27.8116,-26.3645,1653.494],[27.7519,-26.362,1699.4762],[27.7613,-26.4191,1657.3689],[27.7862,-26.419,1588.1195],[27.7916,-26.4202,1640.2451],[27.7945,-26.4289,1654.5743],[27.7859,-26.4476,1582.726],[27.7834,-26.4467,1585.1704],[27.7803,-26.4526,1575.0332],[27.7693,-26.451,1544.9492],[27.7689,-26.4457,1554.2114],[27.7592,-26.4447,1557.1653],[27.7597,-26.4839,1516.0659],[27.7789,-26.485,1507.7502],[27.7796,-26.4792,1515.1823],[27.8217,-26.4849,1550.1709],[27.8245,-26.4799,1547.722],[27.8277,-26.5044,1542.8678],[27.8351,-26.4904,1552.911],[27.8529,-26.5003,1543.251],[27.8756,-26.5205,1530.031],[27.8867,-26.5224,1525.4292],[27.8874,-26.5263,1522.667],[27.8866,-26.5054,1527.1206],[27.882,-26.4895,1541.7101],[27.8707,-26.4756,1559.9938],[27.8691,-26.4448,1571.511],[27.8801,-26.4387,1565.6875],[27.8786,-26.4409,1563.7866],[27.8792,-26.4468,1559.2366],[27.9148,-26.441,1619.3854],[27.9122,-26.4585,1578.2194],[27.9175,-26.4586,1585.1001],[27.9223,-26.429,1690.5872],[27.9334,-26.4242,1763.1602],[27.9356,-26.3998,1688.8855],[27.8932,-26.4043,1594.2821],[27.8942,-26.4003,1595.269]]]]}}