{"type":"Feature","properties":{"GID_3":"ZAF.8.3.4_1","GID_0":"ZAF","country":"SouthAfrica","GID_1":"ZAF.8_1","province":"NorthernCape","NL_NAME_1":"NA","GID_2":"ZAF.8.3_1","county":"Namakwa","NL_NAME_2":"NA","city":"Khâi-Ma","VARNAME_3":"NA","NL_NAME_3":"NA","TYPE_3":"LocalMunicipality","ENGTYPE_3":"LocalMunicipality","CC_3":"NC067","HASC_3":"NA","name":"Khâi-Ma.city"},
"geometry":{"type": "MultiPolygon","coordinates": [[[[20.1141,-29.9455,1011.1837],[20.0475,-29.861,999.8467],[19.9956,-29.8667,1009.1822],[19.9479,-29.8333,995.5804],[19.883,-29.7769,999.2733],[19.6591,-29.793,995.6006],[19.5748,-29.7253,996.3607],[19.6109,-29.6809,994.645],[19.586,-29.6099,1012.6025],[19.6854,-29.592,974.4324],[19.7622,-29.582,975.0558],[19.7658,-29.5611,975.8369],[19.767,-29.54,988.3145],[19.7402,-29.4286,995.7454],[19.7027,-29.423,999.5896],[19.7053,-29.4009,1006.9197],[19.657,-29.321,1058.4429],[19.6013,-29.2719,1063.3081],[19.5841,-29.1651,1101.5547],[19.5767,-29.0947,994.0091],[19.681,-28.9926,1041.5996],[19.7795,-28.8764,959.8009],[19.6662,-28.8298,1031.6995],[19.6191,-28.6906,948.5547],[19.5093,-28.5965,399.9749],[19.504,-28.6009,400.0841],[19.5008,-28.6078,399.2229],[19.502,-28.6293,403.6395],[19.496,-28.6382,398.5637],[19.4947,-28.66,392.2174],[19.492,-28.6679,391.9114],[19.4914,-28.6799,405.7084],[19.48,-28.6876,391.5305],[19.4668,-28.7061,399.4872],[19.4433,-28.7182,384.042],[19.4311,-28.7203,382.8712],[19.4164,-28.7305,380.8249],[19.4036,-28.7368,381.2682],[19.3872,-28.7337,379.0152],[19.3798,-28.7375,377.7908],[19.375,-28.7373,375.4414],[19.3509,-28.743,372.5683],[19.3337,-28.7361,376.016],[19.3277,-28.7356,369.5253],[19.3187,-28.7374,369.7784],[19.3033,-28.7318,366.9201],[19.2959,-28.7326,367.1374],[19.2688,-28.7427,364.1182],[19.2579,-28.7597,357.7345],[19.2545,-28.7738,365.0815],[19.2461,-28.7883,365.6741],[19.2399,-28.8055,349.5],[19.2392,-28.813,351.994],[19.2421,-28.8277,352.3547],[19.2448,-28.8332,362.0221],[19.2495,-28.8373,332.9391],[19.2506,-28.845,355.37],[19.261,-28.8644,340.4628],[19.2682,-28.8718,329.2053],[19.2817,-28.872,318.5555],[19.2903,-28.877,326.2519],[19.2965,-28.8857,314.8387],[19.2964,-28.8933,340.7999],[19.2914,-28.9015,313.8082],[19.2828,-28.9092,318.9846],[19.2548,-28.9019,318.3713],[19.245,-28.9026,336.9246],[19.2315,-28.9107,313.9908],[19.2268,-28.9166,311.3323],[19.224,-28.9234,312.3229],[19.1968,-28.9469,307.9543],[19.1721,-28.9571,307.5494],[19.1477,-28.9632,304.5103],[19.1356,-28.9608,314.7224],[19.1259,-28.9671,302.2249],[19.1189,-28.9694,303.8901],[19.0979,-28.9658,312.4074],[19.0839,-28.9602,303.3298],[19.0736,-28.9586,300.6534],[19.0676,-28.9507,306.2805],[19.0594,-28.9454,299.8624],[19.0563,-28.9407,307.7973],[19.042,-28.9314,301.5908],[19.0286,-28.9286,302.3788],[19.015,-28.9312,303.3039],[19.0087,-28.929,297.94],[19.0058,-28.9237,298.4251],[19.0039,-28.9101,298.4821],[18.9972,-28.898,296.0414],[18.9965,-28.8922,299.6066],[18.993,-28.8872,303.7364],[18.9878,-28.885,292.338],[18.9823,-28.8776,305.1607],[18.9722,-28.8705,299.5697],[18.961,-28.8695,293.5819],[18.9356,-28.8572,287.5102],[18.9264,-28.8554,293.627],[18.9049,-28.8555,287.2682],[18.8969,-28.8521,284.328],[18.8853,-28.8509,316.4597],[18.8743,-28.8473,302.2512],[18.8694,-28.848,264.9919],[18.8554,-28.8444,272.7559],[18.8449,-28.8491,275.8932],[18.8355,-28.8483,261.1958],[18.8309,-28.845,260.8803],[18.8232,-28.8431,260.2949],[18.8193,-28.8435,258.86],[18.8137,-28.8467,254.3758],[18.7872,-28.8408,257.6442],[18.7792,-28.8444,253.2434],[18.7711,-28.8397,248.1888],[18.7644,-28.8409,247.4816],[18.7519,-28.8346,246.6316],[18.7356,-28.832,244.5063],[18.7218,-28.8328,248.0003],[18.7109,-28.8375,241.8396],[18.7092,-28.8367,243.0968],[18.7085,-28.8387,239.3727],[18.6888,-28.8422,236.6217],[18.6712,-28.8414,234.6674],[18.6605,-28.8442,242.1602],[18.643,-28.84,232.0504],[18.6276,-28.8412,231.5899],[18.6188,-28.8478,226.4942],[18.6044,-28.8546,222.3471],[18.5894,-28.8578,228.3866],[18.5677,-28.857,228.3521],[18.5628,-28.8596,218.5],[18.5379,-28.8661,224.2573],[18.5322,-28.8687,221.6623],[18.5259,-28.8773,223.9896],[18.5121,-28.8895,232.3616],[18.5229,-28.9083,306.7873],[18.5429,-28.9622,621.0062],[18.6063,-28.964,691.4254],[18.6195,-29.0181,986.0257],[18.5981,-29.0844,906.6147],[18.5955,-29.1385,910.9495],[18.643,-29.218,746.1637],[18.6323,-29.3541,826.4614],[18.651,-29.4217,894.5154],[18.708,-29.4084,887.3013],[18.7487,-29.4181,870.6478],[18.737,-29.4923,924.3289],[18.7766,-29.4836,937.4453],[18.7824,-29.5378,973.0365],[18.7702,-29.5939,991.2802],[18.7273,-29.6733,1036.192],[18.7611,-29.6756,1040.0458],[18.7992,-29.7605,988.7875],[18.8085,-29.8317,978.9275],[18.8671,-29.8458,927.6492],[18.8604,-29.9307,927.3289],[18.8634,-29.9286,925.1563],[18.8639,-29.9452,936.9587],[18.8592,-29.9466,939.6606],[18.9083,-30.0639,935.4395],[19.0119,-30.0741,914.4],[19.0106,-30.1646,895.3861],[19.0913,-30.3097,909.32],[19.0831,-30.3424,909.9977],[19.1358,-30.3769,904.7132],[19.1612,-30.3206,871.6829],[19.1872,-30.2985,884.7649],[19.2981,-30.2541,934.6981],[19.3684,-30.2964,955.3754],[19.4648,-30.3179,943.2644],[19.5338,-30.317,928.3127],[19.5937,-30.3511,942.6909],[19.6494,-30.3789,950.1976],[19.7131,-30.3844,940.1098],[19.7523,-30.3942,949.5581],[19.8041,-30.3856,939.1778],[19.8511,-30.3639,954.4841],[19.8747,-30.3426,904.9028],[19.9423,-30.3113,927.9216],[20.0224,-30.3136,934.9355],[20.0023,-30.2793,943.8237],[20.0274,-30.2386,941.9859],[19.9941,-30.1896,940.1178],[20.002,-30.1507,960.4036],[19.9802,-30.0846,962.3779],[20.076,-30.0279,980.8853],[20.0508,-29.9658,1008.4081],[20.1141,-29.9455,1011.1837]]]]}}