{"type": "Feature","bbox": [28.1135,-24.4148,29.2342,-23.3309],"geometry": {"type": "MultiPolygon","coordinates": [[[[28.8013,-24.3316,1435.9293],[28.8486,-24.3342,1541.0771],[28.8531,-24.3632,1123.4319],[28.8782,-24.3862,1081.439],[28.8638,-24.3972,1080.9493],[28.9132,-24.4148,1061.7429],[28.9501,-24.3818,1059.8973],[28.9785,-24.3711,1084.9658],[29.0029,-24.359,1101.9866],[29.0508,-24.3711,1075.5243],[29.0632,-24.2998,1545.2533],[29.0441,-24.298,1334.7159],[29.032,-24.2478,1166.3069],[29.0727,-24.2064,1251.8978],[29.0995,-24.2321,1752.5713],[29.148,-24.2238,1703.2048],[29.1688,-24.2702,1652.636],[29.189,-24.2569,1774.343],[29.1953,-24.2311,1757.0905],[29.1903,-24.2026,1741.3909],[29.1917,-24.1703,1753.4066],[29.2285,-24.1441,1891.49],[29.2342,-24.1454,1890.0363],[29.23,-24.1091,1590.511],[29.2105,-24.0984,1728.5872],[29.188,-24.0929,1687.0315],[29.1853,-24.0704,1547.7635],[29.1621,-24.0793,1469.994],[29.1527,-24.0648,1503.6577],[29.1537,-24.0568,1515.5327],[29.1994,-24.0137,1483.1874],[29.1838,-24.0091,1539.585],[29.1485,-24.0091,1410.0127],[29.0934,-23.9846,1491.5266],[29.0739,-23.9431,1366.7997],[29.0449,-23.9056,1322.046],[29.0055,-23.8982,1222.9905],[28.9821,-23.8778,1195.2937],[28.9984,-23.8412,1226.5833],[28.966,-23.8268,1169.4128],[28.9214,-23.8112,1124.8339],[28.9054,-23.8586,1151.1777],[28.8775,-23.8645,1129.7507],[28.8432,-23.834,1084.3834],[28.8494,-23.8299,1095.262],[28.8549,-23.8068,1077.066],[28.8482,-23.7901,1077.7385],[28.8843,-23.7847,1075.08],[28.8578,-23.7572,1061.0442],[28.8788,-23.6972,1029.4457],[28.8755,-23.6466,1010.0118],[28.9202,-23.6166,1029.7917],[28.9314,-23.5983,1026.2332],[28.9693,-23.5979,1055.575],[28.9101,-23.5445,1002.466],[28.8961,-23.5216,993.8143],[28.8655,-23.4864,976.5878],[28.8274,-23.4538,981.3135],[28.7956,-23.4161,941.4141],[28.7772,-23.3793,940.2253],[28.7605,-23.364,952.9459],[28.7358,-23.3309,981.7885],[28.6851,-23.3361,829.6146],[28.6822,-23.3456,832.1949],[28.6755,-23.353,831.4219],[28.6778,-23.3584,836.7665],[28.6772,-23.3612,833.8569],[28.6698,-23.3643,834.5449],[28.6581,-23.3734,837.505],[28.6576,-23.3792,837.5714],[28.6597,-23.3857,838.0095],[28.6403,-23.394,880.6947],[28.5959,-23.4047,896.8735],[28.5966,-23.4348,871.7765],[28.5916,-23.4521,872.7737],[28.5406,-23.4693,956.0775],[28.5126,-23.5032,1003.5258],[28.4904,-23.51,960.4881],[28.4643,-23.5453,1023.2704],[28.416,-23.5156,1002.0776],[28.3993,-23.4938,1011.0531],[28.3867,-23.4739,1032.5051],[28.383,-23.4383,1058.093],[28.3414,-23.4308,1089.38],[28.3216,-23.4671,994.1707],[28.2972,-23.4723,972.1807],[28.2561,-23.4944,952.3973],[28.2214,-23.4772,914.6885],[28.1667,-23.5084,891.7578],[28.1687,-23.5275,883.5942],[28.1784,-23.5546,897.7373],[28.1135,-23.5703,851.3032],[28.1155,-23.5738,849.5053],[28.1161,-23.5805,850.0068],[28.1211,-23.5891,851.049],[28.1158,-23.6131,858.5165],[28.119,-23.6149,857.7279],[28.1313,-23.6135,858.3381],[28.1401,-23.6211,857.832],[28.1472,-23.6208,858.6946],[28.1517,-23.6233,861.6813],[28.1567,-23.632,864.0248],[28.1627,-23.6324,861.6259],[28.1603,-23.6516,864.481],[28.1623,-23.6604,866.8892],[28.1732,-23.6646,873.3728],[28.18,-23.6651,868.7873],[28.1976,-23.6732,873.9154],[28.2067,-23.6721,872.347],[28.2053,-23.6791,874.1705],[28.2115,-23.6859,874.5797],[28.2136,-23.6958,878.5258],[28.2183,-23.6971,882.7391],[28.2187,-23.7031,887.8374],[28.2264,-23.7057,883.0349],[28.2225,-23.7162,883.7368],[28.2242,-23.7207,885.425],[28.2311,-23.7219,885.1048],[28.2378,-23.7277,886.4258],[28.2488,-23.7294,886.5852],[28.2548,-23.7327,893.3239],[28.2542,-23.7396,890.2433],[28.2584,-23.747,891.0328],[28.258,-23.7523,892.3557],[28.2537,-23.7594,899.9846],[28.2513,-23.7606,942.8005],[28.2508,-23.7643,904.1569],[28.2546,-23.7694,907.2358],[28.2556,-23.777,911.5967],[28.2587,-23.7809,905.4006],[28.2717,-23.7888,924.847],[28.2709,-23.7934,996.9197],[28.2665,-23.7994,925.3163],[28.2723,-23.8037,936.5881],[28.2827,-23.8058,1005.0312],[28.2844,-23.8035,949.0795],[28.2861,-23.7941,998.4294],[28.2889,-23.7929,1009.944],[28.2916,-23.8002,960.0349],[28.3002,-23.8052,992.1957],[28.2997,-23.8065,977.0875],[28.2956,-23.8072,994.1152],[28.2969,-23.8105,1012.7156],[28.2996,-23.8119,984.6206],[28.3039,-23.81,981.7199],[28.3068,-23.8111,1012.1031],[28.3082,-23.8157,1002.1805],[28.3079,-23.8277,1026.5688],[28.307,-23.8289,1005.1133],[28.2981,-23.8261,1048.5663],[28.2995,-23.8382,1020.8533],[28.3028,-23.8429,1019.4909],[28.3106,-23.8379,1054.4325],[28.3158,-23.8387,1048.573],[28.3197,-23.8467,1038.1425],[28.3286,-23.8476,1039.6648],[28.3342,-23.8512,1089.0077],[28.3337,-23.853,1046.0986],[28.3249,-23.8573,1054.677],[28.3213,-23.8654,1053.0853],[28.3153,-23.8689,1060.5559],[28.3285,-23.8765,1060.0978],[28.3359,-23.8761,1068.8253],[28.3363,-23.8834,1067.5452],[28.334,-23.8938,1071.9037],[28.3368,-23.8972,1076.6155],[28.3468,-23.901,1103.613],[28.347,-23.9028,1093.0853],[28.3421,-23.9079,1095.2302],[28.3501,-23.9145,1093.5856],[28.3492,-23.9168,1098.8713],[28.3439,-23.9171,1099.8199],[28.3413,-23.9195,1098.2578],[28.3592,-23.9372,1118.2444],[28.3608,-23.9379,1118.2444],[28.3638,-23.9358,1126.3865],[28.3656,-23.9368,1116.5056],[28.3666,-23.946,1151.65],[28.3777,-23.9584,1133.6327],[28.3864,-23.9581,1156.5918],[28.3997,-23.9538,1135.616],[28.4027,-23.9675,1151.1729],[28.3984,-23.9716,1147.9443],[28.3973,-23.9755,1153.9667],[28.4009,-23.9825,1154.0607],[28.4044,-23.9825,1157.9907],[28.4065,-23.9879,1160.5464],[28.4044,-23.9971,1157.7885],[28.4068,-23.9981,1162.553],[28.4121,-23.9937,1163.3752],[28.4149,-23.9934,1168.9227],[28.416,-23.9982,1171.2792],[28.4225,-24.0058,1172.7666],[28.4252,-24.0064,1173.6155],[28.426,-24.0167,1199.0583],[28.4287,-24.0201,1194.7854],[28.4305,-24.0284,1197.9835],[28.4357,-24.0308,1197.7291],[28.4369,-24.0347,1195.9373],[28.4321,-24.0384,1194.7246],[28.4345,-24.0435,1210.4138],[28.4402,-24.0443,1203.7222],[28.4412,-24.0478,1203.3623],[28.4436,-24.0493,1200.475],[28.4465,-24.0448,1201.4771],[28.4516,-24.0432,1202.4526],[28.4522,-24.0452,1202.7336],[28.4596,-24.0481,1204.5575],[28.4587,-24.0555,1204.881],[28.4629,-24.0581,1208.3458],[28.472,-24.0537,1213.897],[28.4771,-24.0606,1213.975],[28.4729,-24.0673,1216.4557],[28.4678,-24.0683,1211.9329],[28.4678,-24.0734,1220.4889],[28.4701,-24.0756,1213.4291],[28.5259,-24.0755,1425.7832],[28.5069,-24.0614,1423.083],[28.5254,-24.0537,1363.7524],[28.5563,-24.0645,1387.572],[28.5788,-24.0569,1295.377],[28.6008,-24.0253,1259.0721],[28.6187,-24.0577,1210.9048],[28.627,-24.0761,1311.2123],[28.643,-24.0882,1329.1821],[28.6929,-24.1165,1255.8229],[28.6658,-24.1458,1678.2834],[28.6699,-24.1746,1602.637],[28.6653,-24.2,1737.7073],[28.7535,-24.1826,1235.2006],[28.7431,-24.2032,1128.1432],[28.7401,-24.2065,1131.0503],[28.7278,-24.2086,1137.0563],[28.7537,-24.2334,1173.3561],[28.7672,-24.2269,1151.0182],[28.7744,-24.2526,1192.0532],[28.8046,-24.2543,1143.0339],[28.8094,-24.2581,1144.6196],[28.8128,-24.257,1155.9149],[28.8119,-24.2547,1159.874],[28.8509,-24.2568,1215.5403],[28.8216,-24.2939,1294.7954],[28.8013,-24.3316,1435.9293]]]]}
,"properties": {"GID_3": "ZAF.5.5.4_1","GID_0": "ZAF","country": "SouthAfrica","GID_1": "ZAF.5_1","province": "Limpopo","NL_NAME_1": "NA","GID_2": "ZAF.5.5_1","county": "Waterberg","NL_NAME_2": "NA","city": "Mogalakwena","VARNAME_3": "NA","NL_NAME_3": "NA","TYPE_3": "LocalMunicipality","ENGTYPE_3": "LocalMunicipality","CC_3": "LIM367","HASC_3": "NA","name": "Mogalakwena.city","area_km2": 6179.553,"hist_schema_id": "Elevation0-9000","hist_area_km2": {"825": 1.538,"850": 50.405,"875": 162.621,"900": 285.861,"925": 355.703,"950": 369.549,"975": 419.727,"1000": 467.012,"1025": 472.688,"1050": 396.123,"1075": 388.218,"1100": 325.032,"1125": 288.097,"1150": 280.41,"1175": 250.716,"1200": 215.156,"1225": 203.391,"1250": 179.892,"1275": 170.511,"1300": 152.489,"1325": 125.276,"1350": 104.391,"1375": 91.376,"1400": 72.414,"1425": 61.141,"1450": 47.704,"1475": 39.475,"1500": 32.64,"1525": 30.53,"1550": 27.977,"1575": 23.198,"1600": 21.553,"1625": 16.27,"1650": 14.084,"1675": 12.845,"1700": 8.937,"1725": 6.113,"1750": 3.676,"1775": 1.587,"1800": 1.142,"1825": 0.716,"1850": 0.58,"1875": 0.484,"1900": 0.271}}}