{"type": "Feature","bbox": [22.7357,-34.2174,27.1346,-31.6885],"geometry": {"type": "MultiPolygon","coordinates": [[[[27.1182,-33.4853,3.7095],[27.1182,-33.4854,3.7095],[27.1184,-33.4854,3.7095],[27.1182,-33.4853,3.7095]]],
[[[27.1205,-33.4865,0.2561],[27.1202,-33.4864,0.2561],[27.1201,-33.4863,0.2561],[27.1201,-33.4865,0.2561],[27.1205,-33.4865,0.2561]]],
[[[27.12,-33.4863,0.9327],[27.1198,-33.4861,3.7095],[27.1196,-33.4861,3.7095],[27.1196,-33.4863,0.9327],[27.12,-33.4863,0.9327]]],
[[[27.1194,-33.486,3.7095],[27.1193,-33.4859,3.7095],[27.1193,-33.486,3.7095],[27.1194,-33.486,3.7095]]],
[[[27.1189,-33.4857,3.7095],[27.1187,-33.4856,3.7095],[27.1188,-33.4857,3.7095],[27.1189,-33.4857,3.7095]]],
[[[26.2871,-33.8382,1.5805],[26.2832,-33.8374,0.0],[26.2821,-33.8393,0.0],[26.2857,-33.844,0.0],[26.2899,-33.8437,0.0],[26.2904,-33.8407,0.0443],[26.2871,-33.8382,1.5805]]],
[[[26.2649,-33.8382,0.0],[26.261,-33.8374,0.0],[26.2604,-33.8387,0.0],[26.2629,-33.839,0.0],[26.2649,-33.8382,0.0]]],
[[[26.2807,-33.8321,0.0],[26.276,-33.8318,0.0],[26.2738,-33.8351,0.0],[26.2768,-33.8357,0.2518],[26.2793,-33.8335,0.0861],[26.2854,-33.834,0.1142],[26.2807,-33.8321,0.0]]],
[[[27.1343,-33.4934,0.0],[27.1343,-33.4935,0.0],[27.1344,-33.4935,0.0],[27.1343,-33.4934,0.0]]],
[[[27.1221,-33.4873,6.7603],[27.1221,-33.4874,6.7603],[27.1222,-33.4874,6.7603],[27.1221,-33.4873,6.7603]]],
[[[27.1207,-33.4866,0.2561],[27.1207,-33.4868,0.2561],[27.121,-33.4868,0.2561],[27.1207,-33.4866,0.2561]]],
[[[26.7468,-33.651,10.6797],[26.7624,-33.6485,0.0],[26.7649,-33.646,8.457],[26.7813,-33.644,1.6722],[26.7932,-33.6407,3.753],[26.7932,-33.6396,3.753],[26.804,-33.639,0.0],[26.809,-33.6351,5.0605],[26.8113,-33.6365,0.0],[26.8218,-33.6326,1.9768],[26.8485,-33.6296,0.0],[26.854,-33.6304,0.0],[26.8671,-33.6279,0.0],[26.8699,-33.6249,0.0],[26.8743,-33.6249,0.0],[26.8787,-33.6221,0.0],[26.8821,-33.6168,0.0],[26.8918,-33.6146,0.0],[26.8932,-33.609,1.4836],[26.9035,-33.6046,0.0],[26.9037,-33.5996,0.0],[26.9163,-33.5946,0.741],[26.9199,-33.5946,0.0],[26.9271,-33.5857,4.9164],[26.9326,-33.5843,0.7683],[26.9357,-33.5815,0.2112],[26.9418,-33.581,0.0],[26.9449,-33.579,3.8621],[26.9468,-33.5799,0.0],[26.9518,-33.5765,1.6583],[26.9557,-33.5771,0.0],[26.9579,-33.5751,0.0],[26.9726,-33.5715,1.6273],[26.9918,-33.5701,1.172],[27.0065,-33.5713,0.0],[27.0132,-33.5632,0.0],[27.0413,-33.5537,1.9303],[27.0429,-33.546,20.656],[27.0513,-33.5387,2.277],[27.0696,-33.5324,1.5459],[27.0876,-33.5293,0.0],[27.0915,-33.5268,1.417],[27.1124,-33.524,3.0686],[27.1254,-33.5076,0.5603],[27.1332,-33.5026,0.0],[27.1324,-33.4999,0.0],[27.1346,-33.4971,0.0],[27.1332,-33.4946,1.9639],[27.1288,-33.4935,1.0988],[27.126,-33.4896,0.4661],[27.1193,-33.4868,0.9327],[27.1154,-33.484,3.7186],[27.0766,-33.4686,7.6473],[27.0695,-33.4574,2.1118],[27.0692,-33.4444,70.3089],[27.0558,-33.4373,8.1745],[27.0543,-33.4317,25.1628],[27.05,-33.4272,24.6612],[27.0496,-33.422,5.8661],[27.0458,-33.4184,11.3966],[27.0437,-33.4121,9.8407],[27.0385,-33.4083,7.8293],[27.0353,-33.4026,7.3141],[27.026,-33.4009,9.5383],[27.0207,-33.3955,11.8031],[27.0163,-33.3792,7.5427],[27.0092,-33.3735,8.6729],[27.0061,-33.3684,9.943],[26.9853,-33.3562,9.6112],[26.9824,-33.3504,17.1382],[26.9836,-33.3427,16.8572],[26.9883,-33.3383,15.4511],[26.9925,-33.3372,43.6821],[26.9986,-33.3307,17.8802],[27.0026,-33.3202,12.4031],[27.0027,-33.3176,21.151],[26.9985,-33.3155,52.4259],[27.0037,-33.3023,14.8615],[27.0033,-33.2951,17.7221],[26.9975,-33.2808,16.1351],[26.9891,-33.2721,21.465],[26.9826,-33.2683,22.2725],[26.9693,-33.2678,19.9517],[26.9691,-33.2645,17.9721],[26.9726,-33.2568,18.4741],[26.9814,-33.2538,32.4402],[26.9868,-33.2545,66.9031],[26.99,-33.2595,28.7898],[26.994,-33.2621,28.8504],[27.0039,-33.2635,32.3216],[27.0079,-33.2582,30.8463],[27.0088,-33.2521,52.5787],[26.9996,-33.2416,34.0],[26.9867,-33.2334,40.3022],[26.9801,-33.2333,38.8918],[26.9734,-33.237,41.6105],[26.9669,-33.2381,56.3542],[26.9615,-33.2375,45.6515],[26.9591,-33.2352,46.4474],[26.9596,-33.2312,41.2494],[26.9625,-33.2281,43.1294],[26.9792,-33.2208,42.5231],[26.9738,-33.2107,54.3498],[26.9615,-33.2012,72.85],[26.9614,-33.1948,53.0407],[26.9571,-33.1918,50.1922],[26.9563,-33.1845,55.7152],[26.953,-33.1785,65.8402],[26.9553,-33.175,54.1859],[26.96,-33.1729,62.0217],[26.9551,-33.169,53.2253],[26.9443,-33.1655,59.1474],[26.9243,-33.1652,56.0425],[26.9215,-33.1689,54.4168],[26.9234,-33.1814,57.951],[26.9257,-33.1866,55.6049],[26.9211,-33.1914,56.3834],[26.925,-33.1914,57.1679],[26.9279,-33.195,56.11],[26.9253,-33.1981,66.4414],[26.9194,-33.2009,59.035],[26.9113,-33.2011,73.6378],[26.9091,-33.2026,61.6273],[26.9015,-33.2006,66.5718],[26.8967,-33.1944,60.109],[26.8958,-33.1917,64.9055],[26.8992,-33.1881,59.0423],[26.899,-33.1819,59.1398],[26.8906,-33.1763,64.8049],[26.8962,-33.1713,70.4395],[26.8861,-33.1693,76.2121],[26.8812,-33.17,65.2181],[26.8764,-33.1721,78.7303],[26.8803,-33.1762,65.7668],[26.8781,-33.1803,64.8628],[26.8794,-33.1898,131.1593],[26.877,-33.1923,65.3276],[26.8728,-33.1931,72.144],[26.8706,-33.1986,73.0456],[26.8737,-33.1996,68.0164],[26.8726,-33.2032,70.3538],[26.8646,-33.2069,70.8863],[26.8571,-33.2077,73.1896],[26.8425,-33.2042,76.752],[26.8424,-33.2013,77.8288],[26.8397,-33.1989,88.5297],[26.84,-33.1948,82.2293],[26.8493,-33.1923,81.3401],[26.8553,-33.1924,75.6631],[26.8609,-33.189,86.3778],[26.8615,-33.1866,73.3603],[26.8658,-33.1832,78.506],[26.8657,-33.1814,75.8116],[26.8621,-33.1777,77.264],[26.8577,-33.1792,77.6392],[26.8531,-33.1778,86.7192],[26.8468,-33.1784,90.2473],[26.8376,-33.1746,94.0532],[26.8396,-33.1662,80.2437],[26.8376,-33.1551,75.9752],[26.8321,-33.155,80.0788],[26.8204,-33.1297,90.0772],[26.8244,-33.1239,83.1601],[26.8319,-33.1233,88.7831],[26.8346,-33.1214,86.9469],[26.8382,-33.1223,94.3608],[26.841,-33.1261,86.0028],[26.8398,-33.1289,111.6686],[26.8436,-33.1317,115.4057],[26.8484,-33.1312,89.263],[26.8527,-33.1261,100.2018],[26.8527,-33.1213,95.5113],[26.8567,-33.1138,90.0783],[26.8586,-33.1006,189.5921],[26.866,-33.0899,105.0845],[26.8689,-33.0891,105.3906],[26.8745,-33.0828,111.9372],[26.8772,-33.076,146.7744],[26.8751,-33.057,113.9491],[26.8678,-33.0468,116.5023],[26.8614,-33.0445,127.8049],[26.8567,-33.0496,118.1455],[26.8552,-33.0641,122.1477],[26.8568,-33.0713,123.9469],[26.8546,-33.0764,128.5435],[26.8495,-33.0797,127.3135],[26.8391,-33.0812,128.5763],[26.8282,-33.0678,134.2461],[26.8281,-33.0624,139.2872],[26.8267,-33.0614,134.9267],[26.8256,-33.0548,137.1644],[26.8255,-33.0395,150.3224],[26.8207,-33.0366,145.9449],[26.813,-33.036,212.0648],[26.8096,-33.0405,149.2077],[26.8044,-33.0533,158.5344],[26.7908,-33.0733,158.3456],[26.7875,-33.0816,159.1691],[26.7832,-33.0869,162.0483],[26.7767,-33.0888,162.5037],[26.7717,-33.0845,167.6788],[26.7722,-33.0776,166.9432],[26.7923,-33.0552,179.3671],[26.7957,-33.0466,176.5881],[26.7969,-33.039,238.3653],[26.7949,-33.0263,182.0384],[26.8018,-33.0085,191.3736],[26.8025,-33.0009,189.0731],[26.8011,-32.9943,226.2449],[26.7984,-32.9912,239.7634],[26.7912,-32.9903,190.5684],[26.784,-32.9953,195.1076],[26.7827,-33.0151,199.114],[26.7843,-33.0179,197.1348],[26.7843,-33.0266,199.6147],[26.7785,-33.0352,207.4893],[26.7722,-33.0362,204.4935],[26.7583,-33.0303,206.9778],[26.7506,-33.0298,206.4896],[26.7478,-33.0315,209.8109],[26.7441,-33.0477,211.9738],[26.7365,-33.0556,211.9064],[26.7318,-33.0567,217.4891],[26.7237,-33.0529,215.0905],[26.7196,-33.0435,216.203],[26.7143,-33.0404,226.5363],[26.709,-33.0428,226.5989],[26.7,-33.0536,224.0934],[26.6906,-33.0564,247.6177],[26.6847,-33.0526,226.5443],[26.6803,-33.0474,229.9541],[26.6742,-33.0347,230.4613],[26.667,-33.0297,230.726],[26.6618,-33.03,232.1919],[26.6583,-33.0432,238.1176],[26.6524,-33.0482,237.1368],[26.6419,-33.0503,252.4003],[26.6365,-33.0488,241.4531],[26.6351,-33.0458,241.3551],[26.641,-33.0321,283.2246],[26.6388,-33.0296,246.3642],[26.6302,-33.026,276.3777],[26.6272,-33.0227,251.4413],[26.6267,-33.019,250.3316],[26.6294,-33.0129,250.313],[26.6301,-33.0043,255.5089],[26.6286,-33.0008,281.7274],[26.624,-32.9973,268.6888],[26.6156,-32.9979,288.8662],[26.6062,-33.0104,262.3149],[26.5921,-33.0167,278.8248],[26.5857,-33.0167,286.9277],[26.583,-33.0126,270.5422],[26.583,-33.0097,271.3281],[26.5929,-32.9993,276.5632],[26.5957,-32.9903,308.1885],[26.5919,-32.9622,295.876],[26.5885,-32.9581,289.4814],[26.5839,-32.9586,291.3252],[26.5792,-32.9637,297.0267],[26.5787,-32.9799,331.5436],[26.5773,-32.9844,304.2795],[26.5732,-32.9893,306.012],[26.5676,-32.9914,335.6407],[26.5642,-32.991,309.7584],[26.5578,-32.9871,334.3913],[26.552,-32.981,317.8205],[26.5421,-32.9789,329.227],[26.5359,-32.9811,315.1418],[26.5275,-32.9902,324.5153],[26.5207,-32.9923,326.0491],[26.5161,-32.9886,335.7306],[26.5158,-32.9859,322.5843],[26.5171,-32.9799,329.5966],[26.5233,-32.9707,349.6388],[26.5236,-32.9618,333.2738],[26.5208,-32.9582,342.3225],[26.5184,-32.9468,343.4216],[26.5123,-32.9425,344.3822],[26.5064,-32.9432,345.9372],[26.497,-32.9493,361.8076],[26.4943,-32.954,352.0311],[26.4936,-32.962,350.2506],[26.4964,-32.9716,355.0399],[26.4955,-32.9769,356.4619],[26.4913,-32.9812,358.2119],[26.485,-32.9818,364.7834],[26.479,-32.9792,363.2752],[26.4722,-32.9725,365.9709],[26.47,-32.9677,365.2351],[26.4707,-32.9555,379.0469],[26.4682,-32.9511,463.1206],[26.4654,-32.95,370.3539],[26.463,-32.9522,372.4127],[26.4633,-32.9603,373.2527],[26.4615,-32.9629,377.6028],[26.454,-32.9642,377.7365],[26.4513,-32.9617,377.285],[26.4469,-32.9483,384.0297],[26.4419,-32.9447,381.8689],[26.4385,-32.9445,403.6637],[26.4359,-32.9477,385.7899],[26.3881,-32.9734,600.335],[26.3628,-32.9637,639.3246],[26.3586,-32.9345,660.1489],[26.3216,-32.9352,675.712],[26.299,-32.9321,667.0491],[26.2749,-32.937,684.1233],[26.2851,-32.8992,462.7023],[26.2747,-32.8806,479.9654],[26.2689,-32.8776,493.2521],[26.2629,-32.8797,469.8767],[26.2632,-32.8888,484.0099],[26.2608,-32.8908,472.7854],[26.2528,-32.8854,474.6478],[26.2471,-32.8848,490.8662],[26.2426,-32.8816,502.9455],[26.2405,-32.8749,479.8995],[26.2361,-32.8712,504.2354],[26.2256,-32.8774,489.9562],[26.2194,-32.8782,521.4039],[26.2186,-32.8761,543.4096],[26.2259,-32.8656,494.6013],[26.2257,-32.8577,512.5366],[26.2171,-32.8592,516.9454],[26.2103,-32.8633,539.5124],[26.1992,-32.8502,511.4961],[26.1967,-32.8516,513.9247],[26.1933,-32.8665,536.8323],[26.1832,-32.8693,540.5578],[26.1821,-32.8673,526.3265],[26.1866,-32.8635,535.9448],[26.1866,-32.8583,528.4766],[26.1804,-32.8446,535.2759],[26.1784,-32.8448,536.0852],[26.1765,-32.8483,537.4506],[26.1758,-32.855,554.8958],[26.1685,-32.8556,548.741],[26.1681,-32.8481,558.6296],[26.1656,-32.8444,597.3636],[26.189,-32.8122,689.5126],[26.2457,-32.8152,522.041],[26.2473,-32.8102,550.5106],[26.2404,-32.793,603.1738],[26.2081,-32.7696,660.2636],[26.2052,-32.7494,756.29],[26.1795,-32.7634,696.2695],[26.1091,-32.7695,635.1334],[26.1094,-32.765,637.6584],[26.0951,-32.7643,691.986],[26.066,-32.7869,671.7265],[26.049,-32.7808,712.1049],[26.032,-32.764,725.764],[26.064,-32.6856,791.541],[26.0268,-32.6701,926.3967],[26.0376,-32.6585,1094.1718],[26.0472,-32.6543,1355.8784],[26.0443,-32.6443,1402.7012],[26.0476,-32.6328,1391.3419],[26.0741,-32.6383,1331.9553],[26.0803,-32.6297,1243.9314],[26.0941,-32.6246,1180.4376],[26.0972,-32.6169,1107.3386],[26.1162,-32.6049,1342.6003],[26.1139,-32.6054,1410.0869],[26.1189,-32.5982,1507.2888],[26.1272,-32.5954,1547.2068],[26.1213,-32.5802,1538.7527],[26.1111,-32.5711,1555.3523],[26.0941,-32.5649,1530.9851],[26.0954,-32.5586,1513.2611],[26.0896,-32.5586,1557.1882],[26.0808,-32.5466,1326.2712],[26.0283,-32.54,1280.2563],[26.0266,-32.5466,1053.3833],[25.9766,-32.5459,943.5884],[25.9593,-32.5521,929.7211],[25.9398,-32.5387,1139.9049],[25.93,-32.4946,933.9732],[25.9343,-32.4761,1302.0018],[25.8871,-32.4871,1373.9287],[25.8584,-32.492,1350.8472],[25.834,-32.4905,1118.6792],[25.7974,-32.4772,962.5229],[25.7855,-32.5379,874.7411],[25.734,-32.5295,925.1396],[25.699,-32.522,1121.3239],[25.6899,-32.4991,1279.8339],[25.6551,-32.5069,1198.4308],[25.6449,-32.4797,1355.2501],[25.6373,-32.4754,1332.2703],[25.6217,-32.4568,1429.1018],[25.6047,-32.4518,1528.8059],[25.592,-32.4586,1549.1833],[25.5744,-32.4578,1489.2334],[25.5481,-32.4104,1345.1075],[25.5341,-32.3945,1410.0902],[25.5127,-32.3984,1328.7617],[25.4946,-32.4127,1225.6591],[25.4931,-32.4105,1227.2548],[25.4287,-32.4187,1224.3939],[25.4203,-32.4234,1666.3599],[25.3987,-32.413,1669.6707],[25.4174,-32.3745,1385.2701],[25.4077,-32.374,1551.0988],[25.3829,-32.3467,1473.3904],[25.3602,-32.3408,1787.2563],[25.3583,-32.3235,1782.8618],[25.3634,-32.3067,1837.1293],[25.3354,-32.3118,2002.8759],[25.3095,-32.3133,1987.6204],[25.2786,-32.3456,1876.4583],[25.2328,-32.3386,1626.7946],[25.2174,-32.3471,1712.1627],[25.2145,-32.3468,1696.7667],[25.2135,-32.3367,1754.4104],[25.2039,-32.3346,1887.1946],[25.1861,-32.3238,1899.3594],[25.1676,-32.3287,1872.6211],[25.1553,-32.3142,1893.6426],[25.1283,-32.2911,2006.3546],[25.0781,-32.2735,1972.0836],[25.055,-32.28,1966.8439],[25.046,-32.2666,1910.3862],[25.0241,-32.2643,2017.0405],[25.0185,-32.2546,1875.1575],[25.0033,-32.2504,2055.2458],[24.9802,-32.2589,2117.7161],[24.9496,-32.2412,2097.1443],[24.9224,-32.2398,2258.0249],[24.904,-32.2219,2358.1301],[24.9067,-32.2146,2263.0142],[24.9095,-32.1891,2080.7092],[24.9155,-32.1721,1890.6025],[24.9246,-32.1675,2135.5759],[24.9383,-32.1736,1984.535],[24.9376,-32.158,1960.3717],[24.954,-32.1403,1787.7004],[24.9511,-32.1227,1954.0525],[24.9671,-32.1075,1773.4169],[24.9618,-32.0839,2016.751],[24.9549,-32.0697,1997.7661],[24.9479,-32.0718,2009.924],[24.938,-32.0533,1962.0295],[24.9507,-32.0073,1838.76],[24.9437,-31.9799,1815.3383],[24.9344,-31.9713,1798.6344],[24.9254,-31.9545,1772.1345],[24.9232,-31.9437,1755.7294],[24.9439,-31.9282,1809.0447],[24.9405,-31.9227,1836.3394],[24.9391,-31.9051,1788.0117],[24.9323,-31.8917,2028.8939],[24.9199,-31.8846,2010.0969],[24.9246,-31.8801,2017.5636],[24.9184,-31.8719,1885.5269],[24.9167,-31.8644,2007.4619],[24.9048,-31.8693,1955.7386],[24.901,-31.8571,1915.7334],[24.9012,-31.8484,2006.8981],[24.8979,-31.8451,2057.374],[24.8993,-31.8373,1905.8793],[24.8959,-31.8334,1977.2473],[24.874,-31.8403,1816.5427],[24.8556,-31.8349,1849.8187],[24.8503,-31.8269,1846.0865],[24.8483,-31.8175,2084.0649],[24.8386,-31.8146,1966.1005],[24.8316,-31.806,1955.9686],[24.8019,-31.785,1958.5942],[24.7922,-31.7888,1918.6012],[24.7629,-31.8057,1670.8826],[24.7719,-31.7928,1756.123],[24.7538,-31.7917,1783.6511],[24.7533,-31.782,1931.2701],[24.7407,-31.7792,1962.6476],[24.7335,-31.7873,1927.9528],[24.7276,-31.7842,1919.8635],[24.7189,-31.7751,1880.0105],[24.6994,-31.7663,2001.2465],[24.6975,-31.7586,1856.792],[24.7044,-31.7443,1801.2822],[24.6764,-31.7335,1706.2769],[24.642,-31.7282,1803.5936],[24.6559,-31.7162,1847.486],[24.636,-31.7185,2060.0625],[24.6278,-31.7123,2115.0791],[24.6416,-31.6904,1904.2867],[24.6223,-31.7063,2096.7627],[24.6165,-31.7262,2167.6091],[24.5772,-31.7306,2100.5625],[24.5776,-31.7385,1847.8781],[24.5507,-31.7612,2021.9668],[24.5182,-31.7538,2078.6409],[24.5104,-31.7542,2116.7766],[24.5083,-31.7385,2123.7961],[24.5085,-31.7185,1920.5123],[24.5063,-31.7068,2038.8083],[24.4699,-31.7065,2075.168],[24.4412,-31.7126,2028.0349],[24.4126,-31.6885,2007.6428],[24.4233,-31.7116,1953.0288],[24.340699999999998,-31.7138,1966.6567],[24.3247,-31.7241,1887.2975],[24.3224,-31.7418,1935.5333],[24.3153,-31.7501,2029.6655],[24.3016,-31.7583,1945.5553],[24.285,-31.7652,1965.8099],[24.2688,-31.7559,1800.5361],[24.2682,-31.7667,1623.9646],[24.2484,-31.7604,1587.1815],[24.2402,-31.752,1628.8665],[24.226,-31.7474,1804.9862],[24.1616,-31.7402,1968.1346],[24.1474,-31.7673,1743.4369],[24.1543,-31.7983,1845.7866],[24.1837,-31.8133,1628.2136],[24.1798,-31.8194,1662.3403],[24.1598,-31.8231,1607.1871],[24.1548,-31.8225,1629.573],[24.1533,-31.8549,1536.1584],[24.1236,-31.8472,1586.072],[24.1083,-31.8861,1729.2566],[24.1047,-31.8868,1793.1796],[24.1054,-31.9069,1639.2148],[24.1387,-31.9054,1528.6201],[24.1468,-31.9027,1522.4807],[24.1466,-31.8969,1548.1248],[24.1642,-31.9024,1479.5962],[24.1972,-31.9235,1468.3541],[24.1912,-31.9268,1494.8497],[24.188,-31.9336,1461.6674],[24.1998,-31.9426,1483.0154],[24.2054,-31.9417,1492.7097],[24.2224,-31.9556,1488.5005],[24.183,-31.9959,1644.1321],[24.1937,-32.0048,1753.3087],[24.1878,-32.0082,1706.1804],[24.1894,-32.0122,1720.1436],[24.1749,-32.0126,1714.5076],[24.1745,-32.0199,1762.978],[24.1409,-32.0117,1659.3748],[24.1286,-32.0412,1736.4739],[24.1411,-32.0514,1738.3478],[24.1348,-32.0602,1802.1836],[24.1233,-32.0559,1782.775],[24.1119,-32.0616,1737.8376],[24.1126,-32.07,1821.6897],[24.1044,-32.0676,1880.4391],[24.1028,-32.0699,1864.4041],[24.0979,-32.0852,1845.2865],[24.0979,-32.1108,2053.5171],[24.1097,-32.0843,1508.8844],[24.1354,-32.0979,1334.8937],[24.1355,-32.1231,1814.9357],[24.1304,-32.132,1703.1636],[24.1176,-32.1352,1678.366],[24.1022,-32.1488,1838.8894],[24.1129,-32.1509,1523.5972],[24.1001,-32.164,1488.4185],[24.038,-32.1581,2032.7769],[24.0441,-32.1819,1601.3894],[24.0305,-32.1935,1908.0254],[23.9858,-32.1978,1726.5029],[23.9845,-32.1964,1726.5029],[23.9847,-32.1984,1663.1334],[23.9611,-32.2065,1444.609],[23.953,-32.2165,1220.7563],[23.9354,-32.2319,1487.0837],[23.921,-32.2334,1610.6055],[23.8923,-32.255,1591.9761],[23.8645,-32.249,1774.4081],[23.8511,-32.2425,1593.5292],[23.7978,-32.1941,1607.899],[23.7662,-32.1787,1379.7062],[23.7471,-32.2007,1271.1455],[23.7261,-32.2085,1112.3767],[23.7082,-32.2192,1157.6567],[23.6924,-32.2335,1146.474],[23.6705,-32.2377,1014.3979],[23.6489,-32.298,985.5958],[23.6569,-32.3039,980.0035],[23.6784,-32.3291,932.4925],[23.6651,-32.3442,918.7472],[23.5918,-32.3408,906.5576],[23.5236,-32.3288,890.5175],[23.449,-32.3233,1027.1962],[23.4247,-32.3562,1144.7106],[23.4098,-32.3892,1144.3912],[23.3493,-32.3644,1250.9423],[23.333,-32.3511,1227.8136],[23.3073,-32.3959,930.8704],[23.2872,-32.4042,920.8407],[23.2721,-32.4007,918.8413],[23.2216,-32.425,889.6756],[23.2475,-32.4653,898.2769],[23.2445,-32.5132,906.355],[23.2882,-32.5512,896.0569],[23.3073,-32.6116,910.5219],[23.3013,-32.6518,885.3963],[23.2696,-32.6715,880.832],[23.3329,-32.7036,853.9132],[23.3535,-32.7294,831.3633],[23.3516,-32.7638,806.8699],[23.3977,-32.7635,830.0782],[23.3786,-32.825,824.6968],[23.3052,-32.8095,793.2446],[23.2504,-32.7886,810.2542],[23.2011,-32.7854,800.0457],[23.1875,-32.7674,813.3972],[23.1493,-32.7667,800.1511],[23.0893,-32.7992,775.0548],[23.1164,-32.858,769.9338],[23.098,-32.8737,784.8064],[23.0074,-32.8728,822.5931],[23.0037,-32.8983,839.9606],[22.9487,-32.95,900.505],[22.9692,-32.9934,931.4141],[22.9352,-33.013,964.5876],[22.9341,-33.0217,963.0685],[22.9578,-33.0451,951.9357],[22.9553,-33.0731,905.4634],[22.8923,-33.1416,814.6013],[22.8772,-33.1869,795.798],[22.8402,-33.2202,784.0733],[22.7903,-33.3073,1240.9688],[22.7739,-33.309,1282.9666],[22.7734,-33.3263,927.4442],[22.7393,-33.324,969.896],[22.7375,-33.379,1139.3157],[22.7357,-33.3948,1250.6603],[22.7845,-33.4155,1518.6439],[22.7744,-33.4197,1726.3988],[22.8302,-33.4191,1582.573],[22.9348,-33.4291,1329.7561],[23.0664,-33.4002,1342.2808],[23.1129,-33.4008,712.7439],[23.1348,-33.3876,1261.8893],[23.1954,-33.3862,1343.2812],[23.2971,-33.3886,1412.838],[23.318,-33.4065,797.1608],[23.3641,-33.4618,946.7415],[23.3549,-33.4412,1164.3185],[23.3738,-33.4454,1298.709],[23.3934,-33.4457,1446.6697],[23.4233,-33.442,1531.4709],[23.4676,-33.4481,1666.9607],[23.4956,-33.4434,1543.9846],[23.5142,-33.4627,1305.5309],[23.579,-33.4847,1017.985],[23.5786,-33.4857,1006.7021],[23.604,-33.4964,1089.1108],[23.6061,-33.5033,1130.0388],[23.6001,-33.5275,1082.5597],[23.5962,-33.5725,1219.0853],[23.6168,-33.5696,1267.3081],[23.6199,-33.5915,1605.3247],[23.675,-33.6259,1639.1666],[23.6704,-33.6726,1423.2118],[23.6288,-33.6693,1379.7428],[23.5859,-33.6727,808.3015],[23.5565,-33.6515,1490.1682],[23.5555,-33.673,866.9359],[23.5417,-33.683,917.9988],[23.5413,-33.6995,934.3683],[23.4754,-33.7177,825.5453],[23.4399,-33.7174,674.1986],[23.4301,-33.7618,918.2767],[23.395,-33.7926,1531.998],[23.417,-33.7947,1483.1555],[23.4277,-33.7991,1433.801],[23.4542,-33.8032,1441.7334],[23.4681,-33.8075,1305.2169],[23.4891,-33.8075,1397.4746],[23.488,-33.7915,1146.9363],[23.5179,-33.7856,990.0314],[23.5188,-33.7821,891.1888],[23.5574,-33.7934,882.9922],[23.554,-33.7964,953.5518],[23.562,-33.8289,1192.7241],[23.6081,-33.8329,1245.543],[23.6203,-33.8432,1361.8075],[23.7033,-33.8641,1559.9653],[23.7006,-33.8674,1336.0996],[23.6943,-33.868,963.8948],[23.6881,-33.8789,593.9024],[23.683,-33.884,485.6746],[23.671,-33.8835,446.726],[23.6692,-33.8854,459.0551],[23.6666,-33.8847,420.1198],[23.658,-33.8877,393.7539],[23.6559,-33.8868,395.5769],[23.6516,-33.8927,371.5045],[23.6474,-33.8928,390.3791],[23.6488,-33.8945,394.456],[23.6476,-33.8967,365.1198],[23.6497,-33.8989,335.5349],[23.6569,-33.9022,317.4205],[23.655,-33.9037,290.7705],[23.6577,-33.9049,283.0818],[23.6568,-33.9069,285.8661],[23.6523,-33.9096,326.3776],[23.6399,-33.9097,275.2938],[23.6374,-33.913,261.991],[23.6428,-33.9198,276.7454],[23.6432,-33.9223,258.4451],[23.64,-33.9242,262.2729],[23.6439,-33.9275,198.4251],[23.6447,-33.9307,209.6139],[23.6432,-33.9319,164.1065],[23.6399,-33.931,218.707],[23.6406,-33.9332,253.899],[23.637,-33.9347,116.6763],[23.6385,-33.9372,128.582],[23.6351,-33.94,120.3266],[23.636,-33.9433,123.0615],[23.6346,-33.952,89.6564],[23.6377,-33.9552,74.1066],[23.6409,-33.9548,72.6825],[23.6459,-33.9624,39.9032],[23.6444,-33.9638,88.8365],[23.6474,-33.9727,49.2274],[23.6454,-33.9758,46.8546],[23.6475,-33.9772,26.694],[23.6469,-33.981,3.945],[23.666,-33.9826,33.2161],[23.6754,-33.986,2.2199],[23.6904,-33.9865,0.0],[23.6993,-33.9896,0.0],[23.7026,-33.989,61.8733],[23.7054,-33.9921,0.0],[23.7204,-33.9926,31.4977],[23.7301,-33.996,7.6431],[23.7357,-33.9951,0.8263],[23.7371,-33.9974,33.8947],[23.7415,-33.9985,0.0],[23.7574,-33.9999,3.5932],[23.7621,-34.0043,5.4022],[23.7654,-34.0046,0.0],[23.7671,-34.0029,10.2602],[23.7707,-34.0065,0.0],[23.7768,-34.0082,0.0],[23.7857,-34.0068,1.7738],[23.7976,-34.0115,0.0],[23.8043,-34.009,10.1695],[23.8118,-34.0121,0.0],[23.8218,-34.0126,25.1163],[23.8246,-34.0163,0.0],[23.8404,-34.0168,3.5573],[23.8479,-34.0199,0.0],[23.8621,-34.0215,0.0],[23.8785,-34.0207,22.939],[23.8913,-34.0249,0.0],[23.8974,-34.0237,3.306],[23.9024,-34.0207,10.1369],[23.9121,-34.0237,7.208],[23.9488,-34.0282,0.0],[23.9646,-34.0329,2.4523],[23.9668,-34.0321,6.7162],[23.9762,-34.0346,0.0],[23.9837,-34.0346,0.0],[23.9943,-34.0379,15.6815],[24.0093,-34.0379,6.1818],[24.0171,-34.0401,0.0],[24.0268,-34.039,13.6622],[24.071,-34.0474,3.673],[24.0785,-34.0446,0.0],[24.081,-34.0485,0.0],[24.0976,-34.0488,10.031],[24.1063,-34.0521,0.0],[24.1132,-34.0521,1.2316],[24.1201,-34.056,5.4637],[24.1285,-34.0537,0.5237],[24.1296,-34.051,26.0217],[24.134,-34.0537,0.0],[24.1493,-34.0532,0.0],[24.1729,-34.0585,0.0],[24.1824,-34.0585,0.0],[24.1885,-34.0607,5.4436],[24.1951,-34.0599,6.0614],[24.2049,-34.0676,1.0607],[24.2151,-34.0718,0.0],[24.2243,-34.0732,0.0],[24.2313,-34.0765,2.8775],[24.2321,-34.0785,0.0],[24.2443,-34.0793,4.3618],[24.2465,-34.0821,0.0],[24.2538,-34.0843,0.0],[24.2604,-34.0843,11.2705],[24.2676,-34.0876,1.2344],[24.2729,-34.0874,1.245],[24.2754,-34.0904,0.0],[24.2926,-34.0932,0.0],[24.2965,-34.0949,0.0],[24.2993,-34.0985,0.0],[24.3113,-34.1021,0.0],[24.3274,-34.1035,0.0],[24.3382,-34.1021,15.7201],[24.3451,-34.104,0.0],[24.3526,-34.1029,48.4343],[24.3587,-34.1046,0.0],[24.3813,-34.1037,6.5322],[24.3824,-34.1057,0.0],[24.3865,-34.1063,1.4408],[24.3879,-34.1085,0.0],[24.4004,-34.1154,6.001],[24.3999,-34.1171,0.3157],[24.4018,-34.1185,0.0],[24.4104,-34.1193,9.1495],[24.4274,-34.1276,4.3014],[24.439,-34.1362,20.6279],[24.4404,-34.1379,9.354],[24.4399,-34.1418,0.0],[24.4593,-34.1512,1.925],[24.464,-34.1562,0.0],[24.474,-34.1626,-0.01],[24.5004,-34.1693,0.0],[24.5032,-34.1715,0.0],[24.5146,-34.1735,0.0],[24.5207,-34.1707,0.054],[24.534,-34.1757,0.0],[24.5515,-34.176,-0.1707],[24.5843,-34.1874,0.0],[24.5974,-34.1888,0.0],[24.6082,-34.1918,0.0],[24.6076,-34.1832,0.0],[24.6149,-34.1757,1.1691],[24.6218,-34.1732,0.897],[24.6421,-34.1715,1.9662],[24.6621,-34.176,10.3931],[24.6957,-34.1918,0.0],[24.715699999999998,-34.1949,0.0],[24.7174,-34.1904,2.1096],[24.7232,-34.1876,3.4201],[24.7343,-34.1862,11.2207],[24.7385,-34.1893,0.0],[24.7693,-34.1999,0.0],[24.7768,-34.199,0.2913],[24.7793,-34.2015,0.0],[24.7857,-34.2015,0.0],[24.7918,-34.1982,0.0],[24.7949,-34.1982,0.0],[24.799,-34.2012,0.0],[24.8035,-34.2015,0.0],[24.8088,-34.2057,0.0],[24.8257,-34.211,6.6813],[24.8324,-34.2174,0.0],[24.8332,-34.2146,0.0],[24.839,-34.2154,0.0],[24.8385,-34.2118,0.0],[24.8401,-34.211,0.0],[24.834,-34.2057,0.0],[24.834,-34.2032,0.0],[24.8415,-34.1957,6.104],[24.8493,-34.1929,7.2162],[24.861,-34.1949,0.0],[24.8638,-34.1968,0.0],[24.8696,-34.1954,0.0],[24.8593,-34.1888,0.0],[24.854,-34.1832,0.5255],[24.8426,-34.1774,0.0],[24.8326,-34.1685,13.9983],[24.8337,-34.1613,8.2618],[24.8399,-34.151,0.8979],[24.8404,-34.1468,0.0],[24.8382,-34.1449,0.0],[24.8393,-34.1418,0.0],[24.8412,-34.1424,0.0],[24.8499,-34.1387,1.3057],[24.8643,-34.1235,5.7455],[24.8779,-34.1154,0.0],[24.8793,-34.1132,0.0],[24.8857,-34.1107,0.0],[24.8988,-34.0946,1.3823],[24.9068,-34.0885,0.0],[24.9054,-34.0862,0.0],[24.8965,-34.0857,0.0],[24.8965,-34.0843,0.0],[24.901,-34.0826,0.9551],[24.911,-34.0865,0.0],[24.9207,-34.0807,0.0],[24.9221,-34.0776,1.2216],[24.9218,-34.0687,0.6294],[24.9263,-34.0621,1.7979],[24.924,-34.056,3.0182],[24.9254,-34.051,3.6851],[24.9285,-34.0474,1.8203],[24.9301,-34.0401,8.2953],[24.9321,-34.0396,0.0],[24.9315,-34.0349,0.0],[24.9346,-34.0337,0.0],[24.9321,-34.0265,0.0],[24.929,-34.0235,2.3358],[24.9287,-34.0163,0.0],[24.9312,-34.0121,0.0],[24.9429,-34.0015,0.6823],[24.969,-33.9879,0.9048],[24.9979,-33.9779,1.5598],[25.0315,-33.9704,0.1735],[25.0732,-33.9654,0.0],[25.1063,-33.9632,0.0],[25.1443,-33.9629,2.3847],[25.1929,-33.9665,0.0],[25.2231,-33.9712,6.2667],[25.2222,-33.9708,2.1673],[25.2215,-33.9708,2.1673],[25.2204,-33.967,0.0],[25.2121,-33.9644,50.1432],[25.2139,-33.9606,127.2595],[25.221,-33.9617,9.9783],[25.2278,-33.9536,35.6018],[25.2269,-33.9469,86.6736],[25.225,-33.9466,86.6736],[25.2244,-33.9394,155.3067],[25.215699999999998,-33.9345,167.4897],[25.2087,-33.9217,214.7988],[25.2058,-33.9214,221.6814],[25.1956,-33.9252,60.037],[25.1922,-33.9219,91.4913],[25.1928,-33.9179,90.7715],[25.1959,-33.9105,103.2819],[25.1994,-33.9074,109.5643],[25.1987,-33.905,126.2368],[25.2013,-33.8981,163.5054],[25.2059,-33.8932,180.2552],[25.209,-33.8865,197.4393],[25.2124,-33.8838,222.7141],[25.2637,-33.8868,550.9508],[25.2187,-33.8764,472.1392],[25.2469,-33.8631,441.2169],[25.2259,-33.852,309.11],[25.2279,-33.8502,339.4002],[25.2261,-33.8484,323.6069],[25.2616,-33.8021,105.6463],[25.2682,-33.7793,395.2663],[25.2733,-33.7734,389.9308],[25.2997,-33.7709,382.9755],[25.305,-33.762,169.0278],[25.285,-33.7533,279.1447],[25.3015,-33.7264,167.5485],[25.2913,-33.7225,200.2563],[25.2831,-33.7112,194.0961],[25.2682,-33.7062,124.3484],[25.2663,-33.6993,144.2578],[25.264,-33.7015,156.191],[25.261,-33.6964,238.0605],[25.2533,-33.6917,202.2742],[25.2448,-33.6924,146.1315],[25.2418,-33.6944,165.1553],[25.2399,-33.6913,196.4136],[25.2475,-33.687,150.4238],[25.2492,-33.6828,283.7556],[25.2755,-33.6889,237.244],[25.267,-33.6976,130.7207],[25.3014,-33.703,137.1172],[25.3027,-33.7121,140.3752],[25.2951,-33.7141,96.698],[25.3075,-33.7169,155.7419],[25.3273,-33.7259,120.6504],[25.3373,-33.7095,284.8796],[25.3504,-33.7151,253.3329],[25.3505,-33.702,300.752],[25.3306,-33.689,451.0516],[25.3478,-33.6709,546.0997],[25.3081,-33.6379,930.5578],[25.3362,-33.6367,770.5566],[25.3395,-33.6288,650.514],[25.3211,-33.6216,680.4191],[25.3463,-33.5571,261.2291],[25.3583,-33.5567,287.6823],[25.4045,-33.5617,325.3939],[25.4263,-33.559,257.5335],[25.4377,-33.5531,224.5871],[25.5076,-33.5718,267.7969],[25.4938,-33.6116,256.9803],[25.5558,-33.6281,205.9201],[25.5534,-33.6051,140.6867],[25.558,-33.5962,169.3575],[25.6317,-33.5916,42.946],[25.6271,-33.6089,118.5574],[25.6596,-33.6153,11.4224],[25.6681,-33.6144,25.659],[25.6695,-33.6198,9.0695],[25.6793,-33.6284,10.098],[25.6835,-33.6252,18.1256],[25.679,-33.6226,20.1907],[25.6823,-33.6185,17.2254],[25.6752,-33.6179,23.3082],[25.6786,-33.6061,35.0552],[25.6881,-33.6016,40.4933],[25.6936,-33.6095,33.8211],[25.6914,-33.6152,16.059],[25.7017,-33.6278,13.0854],[25.7047,-33.6224,8.2949],[25.7078,-33.6206,9.873],[25.7132,-33.6233,8.8753],[25.731,-33.6254,6.0766],[25.7354,-33.6281,5.0232],[25.7391,-33.641,5.7302],[25.7375,-33.6522,8.951],[25.7385,-33.6568,6.4065],[25.7685,-33.6791,6.4021],[25.771,-33.6844,2.8283],[25.7801,-33.6923,4.0358],[25.7925,-33.6944,4.356],[25.7916,-33.6837,61.4279],[25.8498,-33.6654,74.9988],[25.858,-33.682,62.5619],[25.8619,-33.6841,53.8621],[25.8682,-33.6995,77.512],[25.8493,-33.7221,0.0],[25.9096,-33.7126,0.8284],[25.9446,-33.709,3.4804],[26.0163,-33.7051,0.9015],[26.0724,-33.7062,3.3749],[26.1471,-33.716,8.4742],[26.2232,-33.7368,1.4575],[26.2632,-33.7504,9.4197],[26.2862,-33.7615,0.0],[26.3215,-33.7676,5.5729],[26.3349,-33.7663,0.0],[26.3524,-33.7612,11.56],[26.3807,-33.7593,5.3982],[26.419,-33.7632,-0.2505],[26.4488,-33.7715,0.0],[26.4676,-33.7729,2.6832],[26.4837,-33.7654,0.9142],[26.4962,-33.7649,0.0],[26.5026,-33.7615,0.0],[26.5237,-33.7551,0.0],[26.5462,-33.7513,0.0],[26.5471,-33.7493,7.3287],[26.5585,-33.7468,0.0],[26.5646,-33.7424,2.5447],[26.5737,-33.7388,0.0],[26.579,-33.7326,0.0],[26.586,-33.731,0.0],[26.5954,-33.7246,0.0],[26.6079,-33.7224,0.0],[26.6099,-33.7199,0.0],[26.6243,-33.7193,0.0],[26.6293,-33.7163,0.0],[26.6321,-33.7101,0.0],[26.6396,-33.7088,0.0],[26.644,-33.7024,1.0284],[26.6476,-33.7001,0.2785],[26.6554,-33.6971,0.0],[26.6679,-33.6963,0.0],[26.6712,-33.6932,2.0773],[26.6746,-33.6926,1.6848],[26.681,-33.6846,0.0],[26.6949,-33.6807,1.8176],[26.7065,-33.6701,-0.1682],[26.7262,-33.6637,1.5116],[26.7346,-33.656,4.9815],[26.7468,-33.651,10.6797]]]]}
,"properties": {"GID_2": "ZAF.1.4_1","GID_0": "ZAF","country": "SouthAfrica","GID_1": "ZAF.1_1","province": "EasternCape","NL_NAME_1": "NA","county": "Cacadu","VARNAME_2": "NA","NL_NAME_2": "NA","TYPE_2": "DistrictMunicipality","ENGTYPE_2": "DistrictMunicipality","CC_2": "DC10","HASC_2": "ZA.EC.CC","name": "Cacadu.county","area_km2": 58236.29,"hist_schema_id": "Elevation0-9000","hist_area_km2": {"0": 209.08,"25": 302.9,"50": 428.71,"75": 545.11,"100": 650.72,"125": 653.6,"150": 692.58,"175": 771.71,"200": 831.64,"225": 877.68,"250": 971.03,"275": 984.93,"300": 999.85,"325": 1029.4,"350": 1039.9,"375": 1033.06,"400": 1065.2,"425": 1157.72,"450": 1240.03,"475": 1279.56,"500": 1300.53,"525": 1381.16,"550": 1480.49,"575": 1545.94,"600": 1708.52,"625": 1798.3,"650": 1800.14,"675": 1844.55,"700": 2003.42,"725": 2203.22,"750": 2371.47,"775": 2389.88,"800": 2159.78,"825": 2111.96,"850": 2044.05,"875": 1652.81,"900": 1283.21,"925": 876.53,"950": 674.3,"975": 530.84,"1000": 463.89,"1025": 429.18,"1050": 425.36,"1075": 409.5,"1100": 385.22,"1125": 358.14,"1150": 341.96,"1175": 320.9,"1200": 310.06,"1225": 315.41,"1250": 296.17,"1275": 287.37,"1300": 278.53,"1325": 270.04,"1350": 278.58,"1375": 275.16,"1400": 277.57,"1425": 262.89,"1450": 259.22,"1475": 228.53,"1500": 209.1,"1525": 199.17,"1550": 176.77,"1575": 156.94,"1600": 146.61,"1625": 129.58,"1650": 116.9,"1675": 104.98,"1700": 91.92,"1725": 84.03,"1750": 78.48,"1775": 66.89,"1800": 57.51,"1825": 42.08,"1850": 35.36,"1875": 29.54,"1900": 24.42,"1925": 18.98,"1950": 14.78,"1975": 11.32,"2000": 9.75,"2025": 7.77,"2050": 6.22,"2075": 4.44,"2100": 4.41,"2125": 2.57,"2150": 1.63,"2175": 1.26,"2200": 0.81,"2250": 0.66,"2300": 0.57}}}