{"type": "Feature","bbox": [19.5093,-29.9911,21.3089,-27.774],"geometry": {"type": "MultiPolygon","coordinates": [[[[21.141,-28.8638,875.2425],[21.1258,-28.8316,933.3628],[21.196,-28.7584,866.6091],[21.2605,-28.7115,886.3546],[21.1914,-28.6077,815.6074],[21.1937,-28.6012,798.4286],[21.1791,-28.5961,781.0525],[21.1749,-28.6,780.9424],[21.1635,-28.5929,768.9069],[21.1604,-28.5932,767.9178],[21.0178,-28.4439,894.4991],[21.0281,-28.4294,890.1033],[21.041,-28.4046,904.9346],[21.02,-28.3832,926.541],[21.0012,-28.4007,924.2078],[20.9263,-28.4127,959.9753],[20.8496,-28.351,917.874],[20.8311,-28.3599,915.2576],[20.805,-28.3548,899.4261],[20.7123,-28.2815,853.1946],[20.6696,-28.2358,836.8055],[20.58,-28.1819,839.262],[20.5667,-28.0911,779.9381],[20.5722,-28.0903,783.3326],[20.5659,-28.0617,787.0701],[20.5605,-28.0494,780.9898],[20.558,-28.0348,780.0023],[20.5548,-28.0298,782.2518],[20.5504,-28.0288,799.127],[20.5528,-28.0277,783.0783],[20.5234,-27.9868,825.2222],[20.5647,-27.9593,851.9126],[20.5118,-27.9587,789.1565],[20.5045,-27.9501,790.7885],[20.4934,-27.9451,790.7734],[20.4895,-27.9411,792.9575],[20.4834,-27.9395,798.1374],[20.4755,-27.9423,804.2555],[20.466,-27.9206,800.2542],[20.4308,-27.9013,799.7609],[20.4161,-27.8648,802.296],[20.4144,-27.8529,806.0841],[20.2708,-27.9149,876.658],[20.2486,-27.7906,841.801],[20.1537,-27.8526,802.9703],[20.0002,-27.774,786.1771],[19.9992,-28.4278,437.3432],[19.9968,-28.4274,440.7352],[19.9968,-28.432,441.5513],[19.9925,-28.4314,458.1412],[19.9936,-28.4266,429.1408],[19.9749,-28.4255,436.1633],[19.9588,-28.4307,446.2412],[19.9476,-28.4366,426.5],[19.9338,-28.4389,450.7612],[19.9144,-28.4454,430.2757],[19.9043,-28.445,426.9354],[19.8957,-28.4416,432.0131],[19.889,-28.4408,429.6929],[19.8771,-28.4427,433.1702],[19.8736,-28.4448,424.6985],[19.8643,-28.4568,427.8535],[19.8535,-28.4569,427.6842],[19.8476,-28.4596,431.2814],[19.8398,-28.4715,424.0684],[19.841,-28.4806,429.8214],[19.8347,-28.4873,425.3191],[19.8246,-28.5027,456.4648],[19.8133,-28.5083,425.021],[19.7996,-28.5067,421.2022],[19.7891,-28.5016,419.3721],[19.7795,-28.5013,420.1772],[19.7701,-28.4932,421.1341],[19.7602,-28.4888,427.8221],[19.7386,-28.4857,424.4747],[19.73,-28.4879,422.595],[19.7186,-28.4956,420.9446],[19.7105,-28.5068,415.4145],[19.6968,-28.5176,416.008],[19.6734,-28.5219,413.0],[19.6709,-28.5294,419.3067],[19.6683,-28.5311,425.086],[19.6645,-28.5307,414.9244],[19.6592,-28.5251,418.2969],[19.6448,-28.5201,412.8094],[19.633,-28.5125,426.2172],[19.6252,-28.5109,415.4465],[19.615,-28.5128,439.4095],[19.6064,-28.5184,408.0875],[19.5967,-28.5209,437.2605],[19.5854,-28.5293,414.8475],[19.579,-28.5292,409.736],[19.5728,-28.5262,410.5127],[19.5676,-28.5267,407.1942],[19.546,-28.544,408.9224],[19.5455,-28.5478,410.2246],[19.5477,-28.554,401.4016],[19.5441,-28.5655,414.4701],[19.5432,-28.5744,418.6631],[19.5361,-28.5871,401.7668],[19.5228,-28.5905,418.7398],[19.5093,-28.5965,399.9749],[19.6191,-28.6906,948.5547],[19.6662,-28.8298,1031.6995],[19.7795,-28.8764,959.8009],[19.681,-28.9926,1041.5996],[19.5767,-29.0947,994.0091],[19.5841,-29.1651,1101.5547],[19.6013,-29.2719,1063.3081],[19.657,-29.321,1058.4429],[19.7053,-29.4009,1006.9197],[19.7027,-29.423,999.5896],[19.7402,-29.4286,995.7454],[19.767,-29.54,988.3145],[19.7658,-29.5611,975.8369],[19.7622,-29.582,975.0558],[19.6854,-29.592,974.4324],[19.586,-29.6099,1012.6025],[19.6109,-29.6809,994.645],[19.5748,-29.7253,996.3607],[19.6591,-29.793,995.6006],[19.883,-29.7769,999.2733],[19.9479,-29.8333,995.5804],[19.9956,-29.8667,1009.1822],[20.0036,-29.8665,1003.5184],[20.0461,-29.8618,1002.074],[20.1046,-29.8288,983.7948],[20.1475,-29.7867,986.0463],[20.1752,-29.7644,979.7526],[20.1567,-29.6525,954.8553],[20.2734,-29.6436,974.3737],[20.3858,-29.6038,966.7578],[20.4368,-29.6159,954.6616],[20.5198,-29.719,959.6035],[20.5945,-29.6348,932.1401],[20.6256,-29.6203,945.9313],[20.6614,-29.6431,933.4059],[20.6369,-29.7521,951.7045],[20.6264,-29.8632,923.0378],[20.6709,-29.927,928.1019],[20.7081,-29.9856,878.9622],[20.7261,-29.9911,872.4771],[20.7289,-29.9904,872.4653],[20.7548,-29.9827,871.4728],[20.8239,-29.952,879.7198],[20.8037,-29.9422,879.1792],[20.8316,-29.8828,880.0946],[20.8576,-29.8586,869.4631],[20.8986,-29.8503,858.1064],[20.9615,-29.7962,849.68],[21.0371,-29.7488,852.1765],[21.1136,-29.6973,847.9808],[21.1954,-29.6373,868.2232],[21.2262,-29.5239,853.5978],[21.2192,-29.5074,849.7091],[21.227,-29.4414,804.5703],[21.2506,-29.4697,838.7349],[21.271,-29.4659,853.3484],[21.2495,-29.4042,857.9156],[21.2742,-29.358,908.2285],[21.236,-29.3253,851.0487],[21.2247,-29.2885,893.3358],[21.1824,-29.2589,886.7234],[21.2147,-29.2273,902.9045],[21.3021,-29.1546,961.4375],[21.3089,-29.067,975.6781],[21.212,-29.0084,1005.055],[21.2511,-28.9309,958.2471],[21.141,-28.8638,875.2425]],
[[19.9967,-28.4331,472.726],[19.9965,-28.4331,472.726],[19.9968,-28.4323,441.5513],[19.9968,-28.4331,472.726],[19.9967,-28.4331,472.726]]]]}
,"properties": {"GID_3": "ZAF.8.5.3_1","GID_0": "ZAF","country": "SouthAfrica","GID_1": "ZAF.8_1","province": "NorthernCape","NL_NAME_1": "NA","GID_2": "ZAF.8.5_1","county": "Siyanda","NL_NAME_2": "NA","city": "Kai!Garib","VARNAME_3": "NA","NL_NAME_3": "NA","TYPE_3": "LocalMunicipality","ENGTYPE_3": "LocalMunicipality","CC_3": "NC082","HASC_3": "NA","name": "Kai!Garib.city","area_km2": 26390.41,"hist_schema_id": "Elevation0-9000","hist_area_km2": {"400": 7.21,"425": 27.63,"450": 41.52,"475": 37.39,"500": 47.75,"525": 57.55,"550": 88.64,"575": 137.91,"600": 166.29,"625": 235.63,"650": 368.68,"675": 473.09,"700": 588.66,"725": 807.8,"750": 1159.85,"775": 1479.95,"800": 1873.48,"825": 2460.54,"850": 2592.31,"875": 2553.75,"900": 3096.61,"925": 3106.87,"950": 2271.78,"975": 1537.95,"1000": 1053.06,"1025": 108.53,"1050": 7.9,"1075": 1.81,"1100": 0.26}}}