{"type":"Feature","properties":{"GID_2":"ZAF.7.1_1","GID_0":"ZAF","country":"SouthAfrica","GID_1":"ZAF.7_1","province":"NorthWest","NL_NAME_1":"NA","county":"Bojanala","VARNAME_2":"NA","NL_NAME_2":"NA","TYPE_2":"DistrictMunicipality","ENGTYPE_2":"DistrictMunicipality","CC_2":"DC37","HASC_2":"ZA.NW.BP","name":"Bojanala.county"},
"geometry":{"type": "MultiPolygon","coordinates": [[[[27.1696,-26.0812,1495.4869],[27.2094,-26.0824,1532.7483],[27.2411,-26.092,1615.3574],[27.2699,-26.0949,1636.5658],[27.2924,-26.0954,1642.0421],[27.3262,-26.1007,1628.1106],[27.3617,-26.1157,1599.6279],[27.4194,-26.1175,1562.1724],[27.4224,-26.0892,1597.9056],[27.4252,-26.0894,1593.6136],[27.4314,-26.0523,1587.9537],[27.4352,-26.027,1532.858],[27.434,-26.0225,1514.6366],[27.4357,-26.0226,1513.054],[27.4389,-26.0143,1548.0135],[27.4498,-26.0163,1531.3214],[27.457,-25.9818,1540.7271],[27.4536,-25.9202,1469.1182],[27.4633,-25.9215,1454.4919],[27.457,-25.8883,1473.8423],[27.47,-25.8881,1463.272],[27.4619,-25.8676,1776.1158],[27.4975,-25.8596,1707.9077],[27.5002,-25.8613,1715.8962],[27.5133,-25.8603,1799.5585],[27.5323,-25.85,1705.3772],[27.5336,-25.8521,1724.3008],[27.5474,-25.8514,1701.8506],[27.546,-25.8462,1794.8007],[27.5599,-25.8428,1784.5549],[27.5746,-25.836,1764.8308],[27.5983,-25.8196,1625.9224],[27.5993,-25.8127,1562.5923],[27.6056,-25.8082,1580.134],[27.6403,-25.7963,1606.604],[27.6436,-25.7959,1664.9641],[27.6466,-25.8141,1307.587],[27.6418,-25.8114,1319.0562],[27.6411,-25.8128,1319.0562],[27.6455,-25.8198,1286.3267],[27.6488,-25.835,1255.824],[27.6471,-25.8406,1242.2313],[27.6504,-25.8427,1235.0746],[27.6497,-25.8435,1230.7787],[27.6546,-25.8453,1230.2455],[27.6639,-25.84,1226.8115],[27.6849,-25.8754,1542.4753],[27.7046,-25.8683,1579.7156],[27.7303,-25.8552,1456.6143],[27.7358,-25.8553,1461.6412],[27.7427,-25.8502,1443.4706],[27.7446,-25.8946,1481.3904],[27.791,-25.8747,1408.6896],[27.8315,-25.8602,1549.434],[27.844,-25.8489,1459.7629],[27.8518,-25.8464,1496.6194],[27.8482,-25.8393,1429.2283],[27.8587,-25.8188,1293.0768],[27.8917,-25.8229,1234.4253],[27.8901,-25.8298,1279.3643],[27.8853,-25.8354,1352.46],[27.8844,-25.8388,1341.9843],[27.8835,-25.8457,1350.7676],[27.8847,-25.8517,1358.145],[27.8826,-25.8619,1414.5594],[27.8982,-25.8597,1368.9429],[27.9005,-25.8408,1302.3518],[27.9395,-25.8368,1269.7627],[27.9258,-25.8241,1304.3606],[27.9401,-25.8197,1414.6418],[27.9602,-25.816,1491.0203],[27.9572,-25.8005,1310.7737],[27.9636,-25.7991,1363.5343],[27.9622,-25.7919,1389.1753],[27.9632,-25.7871,1305.6167],[27.9546,-25.7869,1257.3928],[27.9493,-25.7598,1351.7007],[27.9527,-25.7596,1354.8535],[27.9558,-25.7566,1415.0756],[27.9732,-25.7568,1422.9508],[27.9795,-25.7514,1447.3115],[27.9482,-25.6952,1575.4894],[27.9575,-25.6937,1579.7479],[27.9538,-25.6729,1322.6753],[27.9519,-25.6713,1319.3354],[27.9523,-25.6535,1269.3972],[27.9573,-25.6477,1250.519],[27.9571,-25.6437,1243.6838],[27.9652,-25.6454,1254.4489],[27.9649,-25.6348,1285.9045],[27.9806,-25.6328,1366.8726],[27.9722,-25.5979,1226.6377],[27.9576,-25.5926,1213.3674],[27.9815,-25.5427,1235.4814],[28.0306,-25.5584,1199.2283],[28.0495,-25.5596,1216.4949],[28.0524,-25.5358,1271.1144],[28.0244,-25.5307,1167.6539],[27.9924,-25.518,1238.9093],[28.0075,-25.4841,1129.3004],[28.0119,-25.4805,1110.3134],[28.0359,-25.4706,1161.1721],[27.9917,-25.4245,1131.2686],[27.9697,-25.4391,1087.3077],[27.9604,-25.4273,1078.6703],[27.9582,-25.4263,1075.275],[27.9456,-25.4067,1064.0156],[27.9708,-25.3629,1070.1451],[28.0004,-25.3594,1064.6896],[28.0447,-25.4017,1102.5331],[28.0555,-25.4,1100.9191],[28.0834,-25.3848,1092.2902],[28.108,-25.367,1082.6528],[28.1107,-25.3789,1091.8843],[28.1767,-25.3659,1093.5044],[28.1768,-25.3286,1066.1274],[28.2015,-25.3237,1063.651],[28.2283,-25.3542,1082.2572],[28.2826,-25.3426,1060.479],[28.2834,-25.3381,1061.4097],[28.2895,-25.3383,1067.7415],[28.2896,-25.3412,1067.6851],[28.2981,-25.3393,1073.1198],[28.2982,-25.2932,1055.8541],[28.2598,-25.2387,1047.3221],[28.2463,-25.2129,1042.9185],[28.2112,-25.1981,1037.6553],[28.1695,-25.2094,1033.6831],[28.1357,-25.2056,1023.6177],[28.129,-25.1457,1017.8536],[28.0944,-25.1485,1027.0637],[28.0839,-25.1004,1083.5385],[28.1179,-25.0981,1082.3951],[28.1539,-25.0868,1079.974],[28.1751,-25.1136,1030.7778],[28.1738,-25.12,1032.0435],[28.1983,-25.1276,1048.9996],[28.215,-25.1282,1064.6544],[28.2171,-25.1229,1069.8569],[28.2171,-25.113,1066.2085],[28.2598,-25.0504,1061.6968],[28.1587,-25.0206,1107.0024],[28.1252,-25.0048,1120.7861],[28.12,-24.9795,1103.6392],[28.0801,-24.9795,1092.467],[28.0378,-24.9838,1082.0386],[28.037,-24.9853,1084.2793],[28.0178,-24.9741,1057.0403],[27.9976,-24.9735,1043.4056],[27.9836,-24.9578,1056.3074],[27.9752,-24.965699999999998,1046.3279],[27.955,-24.9702,1036.8042],[27.9465,-25.0012,1025.5266],[27.9129,-24.9911,1051.8848],[27.8867,-24.9883,1069.5817],[27.8331,-24.9735,1157.1812],[27.8217,-24.9746,1164.8651],[27.7889,-24.9665,1127.7942],[27.7591,-24.9689,1109.0708],[27.7388,-24.9831,1133.0902],[27.6873,-24.9944,1058.2402],[27.6847,-24.9858,1052.9425],[27.6286,-24.9737,1146.1681],[27.5975,-24.9849,1014.8673],[27.594,-25.0294,1008.4968],[27.5678,-25.0594,1201.4777],[27.5598,-25.0773,1232.5352],[27.5654,-25.0797,1044.4824],[27.5653,-25.0827,1036.8116],[27.5436,-25.0959,945.9973],[27.5428,-25.098,943.8389],[27.5323,-25.0944,956.373],[27.5339,-25.0833,996.1863],[27.5212,-25.0797,942.6392],[27.5212,-25.076,943.0264],[27.498,-25.0732,988.7766],[27.4869,-25.0784,1126.234],[27.4818,-25.0671,1023.843],[27.4313,-25.0821,1074.4253],[27.4246,-25.0689,1071.7811],[27.3825,-25.08,1125.8624],[27.337,-25.0878,1122.7061],[27.3136,-25.0421,1085.832],[27.2719,-25.0367,1042.8265],[27.2236,-25.0674,1055.688],[27.2317,-25.0361,1044.8972],[27.2035,-25.0332,1027.9099],[27.2091,-24.9956,1004.7948],[27.2261,-24.9639,1001.4678],[27.1834,-24.9485,1011.1043],[27.1541,-24.979,1031.6758],[27.1439,-24.9462,1012.5939],[27.1012,-24.9,1023.1591],[27.0412,-24.887,1066.0476],[27.0263,-24.7186,1067.561],[26.9759,-24.7207,1053.3055],[26.9807,-24.7758,1100.9968],[26.9426,-24.7763,1107.4757],[26.9433,-24.7814,1114.5471],[26.7795,-24.8377,1092.3114],[26.7513,-24.883,1096.6473],[26.7051,-24.857,1103.9502],[26.6993,-24.8673,1138.1487],[26.622,-24.8099,1030.9932],[26.601,-24.8158,1045.8368],[26.5665,-24.8199,1106.429],[26.5286,-24.8138,1121.6119],[26.4583,-24.8095,933.486],[26.4589,-24.8146,933.8015],[26.4628,-24.8185,934.3029],[26.4776,-24.8232,935.8348],[26.4804,-24.8304,936.0212],[26.4883,-24.8405,938.8846],[26.484,-24.8479,939.3374],[26.4738,-24.8449,937.9227],[26.4726,-24.85,938.4422],[26.468,-24.8571,939.5857],[26.455,-24.8542,946.5636],[26.4542,-24.8587,940.9158],[26.4497,-24.8622,941.4977],[26.4538,-24.8668,944.6073],[26.454,-24.8797,956.0],[26.4495,-24.8985,956.0],[26.4513,-24.9129,956.0],[26.4421,-24.9355,956.0],[26.4438,-24.9478,956.0],[26.4465,-24.9498,956.0],[26.4517,-24.9492,956.0],[26.4551,-24.9529,956.0],[26.4539,-24.9568,956.0],[26.4473,-24.9629,956.0],[26.4445,-24.9676,956.0],[26.4508,-24.9791,956.2441],[26.4461,-24.9879,957.589],[26.4409,-24.992,958.1671],[26.4347,-24.9891,958.8837],[26.4316,-24.9893,959.2289],[26.4304,-24.991,958.0636],[26.4317,-25.0015,959.3069],[26.4236,-25.0078,960.4348],[26.4249,-25.0194,961.6711],[26.4226,-25.0228,961.9775],[26.4221,-25.029,962.2025],[26.4258,-25.0362,963.6959],[26.421,-25.0394,965.0692],[26.4201,-25.0419,965.3458],[26.4174,-25.0418,967.2921],[26.4182,-25.0467,967.8587],[26.385,-25.0593,977.533],[26.3923,-25.0726,973.7189],[26.4058,-25.088,993.335],[26.4113,-25.0846,987.9483],[26.4227,-25.1325,993.085],[26.4185,-25.1844,997.0529],[26.42,-25.1936,987.2476],[26.4165,-25.1946,987.7791],[26.4181,-25.1971,987.9164],[26.4147,-25.1958,987.3445],[26.4133,-25.1969,987.507],[26.414,-25.1984,988.1054],[26.4105,-25.1997,988.079],[26.4109,-25.2025,988.2875],[26.4159,-25.2049,989.5574],[26.4123,-25.2069,990.1877],[26.4132,-25.2091,989.3347],[26.4112,-25.2112,990.0002],[26.411,-25.2074,990.7516],[26.4086,-25.2094,990.8632],[26.407,-25.208,991.4725],[26.4066,-25.2108,992.178],[26.4049,-25.211,990.9003],[26.4071,-25.2141,992.1507],[26.4056,-25.215,992.3472],[26.4047,-25.2134,992.2327],[26.4024,-25.2181,991.8735],[26.4098,-25.2303,993.0847],[26.4175,-25.2353,995.373],[26.4162,-25.2352,993.3361],[26.4163,-25.2377,993.775],[26.4136,-25.2372,994.8995],[26.4137,-25.239,995.9518],[26.4098,-25.2383,994.7149],[26.4118,-25.2404,996.2735],[26.4091,-25.241,993.9297],[26.41,-25.2457,995.1714],[26.4053,-25.2505,995.9982],[26.4118,-25.2529,998.1165],[26.409,-25.2544,996.5464],[26.4122,-25.2567,998.621],[26.4119,-25.2599,996.9947],[26.4135,-25.2585,999.4066],[26.4144,-25.2602,1004.1405],[26.4115,-25.2622,997.0082],[26.411,-25.2672,1000.462],[26.406,-25.2657,999.3929],[26.4071,-25.2674,1001.3608],[26.4053,-25.2714,999.0761],[26.4074,-25.271,1000.6749],[26.4061,-25.2724,1001.2313],[26.4072,-25.2752,1000.1564],[26.4047,-25.2784,1001.2504],[26.4066,-25.2819,1003.5961],[26.4046,-25.282,1004.3416],[26.405,-25.2858,1005.1714],[26.466,-25.2907,1019.3451],[26.4631,-25.3354,1043.8624],[26.4444,-25.3361,1043.9515],[26.4456,-25.3724,1056.7776],[26.4394,-25.3844,1059.2909],[26.4266,-25.4187,1048.4187],[26.4269,-25.4474,1072.9875],[26.417,-25.4544,1074.2517],[26.4193,-25.4776,1121.5861],[26.425,-25.4917,1185.1147],[26.4355,-25.5112,1302.2565],[26.4405,-25.5108,1340.8982],[26.4621,-25.4878,1150.9243],[26.506,-25.5019,1242.8076],[26.5102,-25.5354,1371.2197],[26.5095,-25.578,1368.5095],[26.4978,-25.5643,1257.5979],[26.4776,-25.6005,1382.4863],[26.4939,-25.5955,1254.4832],[26.5131,-25.6004,1356.6599],[26.5112,-25.6552,1213.8638],[26.5034,-25.6841,1360.0929],[26.4847,-25.6775,1322.1034],[26.4765,-25.7243,1473.9525],[26.4624,-25.7454,1453.9421],[26.5095,-25.7561,1487.6572],[26.5204,-25.7553,1493.375],[26.5714,-25.7892,1520.9186],[26.58,-25.7827,1504.1421],[26.6437,-25.838,1565.491],[26.6435,-25.868,1572.3098],[26.6633,-25.8715,1564.0375],[26.6644,-25.8789,1579.474],[26.7031,-25.9283,1684.6577],[26.7075,-25.9224,1666.1624],[26.7493,-25.9261,1649.8584],[26.7515,-25.9308,1667.9214],[26.7606,-25.9354,1660.5391],[26.7705,-25.9523,1635.9797],[26.7636,-25.9911,1550.13],[26.8071,-26.084,1545.6846],[26.8479,-26.0597,1563.4404],[26.855,-26.059,1569.1865],[26.8562,-26.0676,1565.1943],[26.8654,-26.0688,1563.5107],[26.8667,-26.0613,1570.2101],[26.9174,-26.0711,1553.7726],[26.9321,-26.0316,1585.8927],[26.9784,-26.0551,1561.885],[26.9748,-26.0651,1571.7507],[27.0265,-26.0866,1616.3396],[27.0263,-26.0879,1616.3396],[27.0538,-26.1007,1605.5795],[27.0445,-26.1317,1551.8322],[27.0715,-26.0996,1600.2129],[27.0809,-26.0981,1599.4181],[27.0597,-26.1406,1544.7758],[27.0867,-26.1429,1532.1362],[27.0884,-26.114,1604.8774],[27.0927,-26.0961,1587.0629],[27.142,-26.1007,1549.7271],[27.158,-26.0977,1510.7141],[27.1709,-26.0949,1491.5681],[27.1696,-26.0812,1495.4869]]]]}}