{"type": "Feature","bbox": [30.2753,-24.5821,31.2537,-24.0259],"geometry": {"type": "MultiPolygon","coordinates": [[[[31.0602,-24.5698,656.7821],[31.2262,-24.556,520.9554],[31.2537,-24.4991,518.1112],[31.2032,-24.4265,517.5305],[31.16,-24.4374,509.602],[31.16,-24.3756,467.9514],[31.242,-24.3654,470.2492],[31.2001,-24.305,465.144],[31.1525,-24.3187,448.2609],[31.1022,-24.3237,479.6738],[31.056,-24.3219,476.8023],[31.0604,-24.2718,477.6372],[31.0544,-24.2319,478.8547],[31.0499,-24.1873,430.8296],[31.1073,-24.1457,431.757],[31.0961,-24.1174,400.926],[31.1151,-24.1192,391.706],[31.1206,-24.0903,340.3636],[31.086,-24.0945,401.5623],[31.0634,-24.0915,315.3948],[31.0593,-24.0936,315.3983],[31.0436,-24.0936,313.4299],[31.0362,-24.0957,313.8964],[31.0319,-24.0981,315.8958],[31.03,-24.1012,314.8809],[31.0332,-24.1113,321.3436],[31.0318,-24.1154,320.0193],[31.0127,-24.1294,328.558],[30.9762,-24.0902,427.1618],[31.0074,-24.072,474.7029],[30.9937,-24.0427,450.1183],[30.9402,-24.053,442.4112],[30.9237,-24.0367,519.2647],[30.9084,-24.0759,472.1856],[30.8463,-24.0983,495.4022],[30.8444,-24.0931,490.0146],[30.8391,-24.0859,487.4485],[30.838,-24.0866,516.611],[30.8211,-24.0598,577.7321],[30.8049,-24.0259,528.6968],[30.772,-24.0584,571.9359],[30.7729,-24.0625,571.0485],[30.7779,-24.0631,556.6116],[30.7788,-24.066,555.814],[30.7766,-24.072,561.8091],[30.7796,-24.0772,536.378],[30.7782,-24.090699999999998,532.6509],[30.6755,-24.1459,484.3487],[30.6874,-24.1555,431.4502],[30.678,-24.157,432.3841],[30.6748,-24.1614,445.8016],[30.6723,-24.1615,436.2899],[30.664,-24.154,441.319],[30.6603,-24.1525,449.0461],[30.6585,-24.1556,441.0388],[30.6599,-24.1621,443.9787],[30.6527,-24.1637,447.6446],[30.6486,-24.1722,445.0683],[30.6382,-24.1676,463.3024],[30.6352,-24.1683,452.378],[30.6312,-24.1713,452.8318],[30.6359,-24.1766,453.5392],[30.6343,-24.1807,454.0678],[30.6269,-24.1842,458.4754],[30.6184,-24.1827,461.1625],[30.6145,-24.1838,459.4297],[30.608,-24.1867,461.5526],[30.6048,-24.1937,465.7566],[30.5983,-24.1955,463.3646],[30.5916,-24.1945,468.5427],[30.5909,-24.1913,467.5799],[30.5821,-24.188,484.6118],[30.5811,-24.1849,473.4003],[30.5773,-24.1825,474.9944],[30.5757,-24.1862,476.1659],[30.5609,-24.1899,481.282],[30.5597,-24.1887,484.682],[30.5615,-24.1844,492.9969],[30.5551,-24.1808,482.7227],[30.5507,-24.1882,499.5211],[30.5421,-24.189,490.0973],[30.541,-24.1878,489.5536],[30.5414,-24.1822,491.7101],[30.5364,-24.1775,494.8214],[30.528,-24.1777,493.9942],[30.5175,-24.1859,499.5928],[30.4639,-24.1434,599.3302],[30.3803,-24.0693,600.2729],[30.3477,-24.1053,638.7408],[30.3215,-24.1297,834.4518],[30.3616,-24.1683,706.7278],[30.3594,-24.1692,708.9412],[30.3619,-24.1731,713.0847],[30.3547,-24.1764,770.6448],[30.3516,-24.1724,741.5631],[30.3095,-24.1897,1612.1459],[30.2753,-24.213,1342.9941],[30.3372,-24.234,1829.7839],[30.3474,-24.2225,1746.8226],[30.3605,-24.2681,1813.2191],[30.3662,-24.2831,1826.887],[30.4092,-24.3336,1761.1431],[30.4367,-24.3535,1844.5112],[30.4703,-24.3717,1857.2141],[30.4953,-24.3965,1732.2377],[30.5182,-24.4056,1657.0574],[30.5335,-24.4397,907.3198],[30.5408,-24.445,540.688],[30.5512,-24.4391,545.1465],[30.5532,-24.427,522.429],[30.5557,-24.4245,526.5919],[30.5625,-24.4371,519.0131],[30.5658,-24.4472,510.5759],[30.5716,-24.4453,508.6751],[30.5838,-24.4375,509.4296],[30.5973,-24.4432,507.3499],[30.6139,-24.4419,497.5314],[30.6188,-24.4378,490.1452],[30.6183,-24.433,490.2179],[30.6418,-24.4509,1164.7019],[30.7037,-24.4506,1509.157],[30.7286,-24.4531,1720.425],[30.759,-24.4602,1776.6821],[30.7993,-24.4989,1492.2078],[30.8717,-24.5385,1814.5959],[30.9089,-24.5258,837.8264],[30.9543,-24.5213,664.8846],[30.9593,-24.5821,685.8248],[31.0602,-24.5698,656.7821]]]]}
,"properties": {"GID_3": "ZAF.5.2.5_1","GID_0": "ZAF","country": "SouthAfrica","GID_1": "ZAF.5_1","province": "Limpopo","NL_NAME_1": "NA","GID_2": "ZAF.5.2_1","county": "Mopani","NL_NAME_2": "NA","city": "Maruleng","VARNAME_3": "NA","NL_NAME_3": "NA","TYPE_3": "LocalMunicipality","ENGTYPE_3": "LocalMunicipality","CC_3": "LIM335","HASC_3": "NA","name": "Maruleng.city","area_km2": 3251.005,"hist_schema_id": "Elevation0-9000","hist_area_km2": {"300": 0.135,"325": 6.695,"350": 28.616,"375": 65.408,"400": 127.03,"425": 193.231,"450": 301.641,"475": 385.67,"500": 430.256,"525": 422.229,"550": 318.494,"575": 228.999,"600": 172.475,"625": 120.941,"650": 81.52,"675": 56.061,"700": 37.463,"725": 24.899,"750": 18.849,"775": 16.629,"800": 14.756,"825": 13.636,"850": 11.396,"875": 9.908,"900": 9.6,"925": 9.118,"950": 8.017,"975": 7.843,"1000": 7.36,"1025": 6.375,"1050": 7.187,"1075": 6.511,"1100": 6.627,"1125": 7.168,"1150": 7.304,"1175": 6.473,"1200": 5.7,"1225": 4.869,"1250": 5.236,"1275": 5.216,"1300": 5.293,"1325": 5.544,"1350": 4.559,"1375": 4.211,"1400": 4.056,"1425": 4.018,"1450": 3.592,"1475": 3.225,"1500": 2.897,"1525": 2.201,"1550": 2.24,"1575": 2.028,"1600": 1.642,"1625": 1.738,"1650": 1.332,"1675": 0.985,"1700": 0.927,"1725": 0.927,"1750": 0.599,"1775": 0.657,"1800": 0.464,"1825": 0.213,"1850": 0.077,"1875": 0.039}}}