{"type":"Feature","properties":{"GID_3":"ZAF.5.3.1_1","GID_0":"ZAF","country":"SouthAfrica","GID_1":"ZAF.5_1","province":"Limpopo","NL_NAME_1":"NA","GID_2":"ZAF.5.3_1","county":"Sekhukhune","NL_NAME_2":"NA","city":"EliasMotsoaledi","VARNAME_3":"NA","NL_NAME_3":"NA","TYPE_3":"LocalMunicipality","ENGTYPE_3":"LocalMunicipality","CC_3":"LIM472","HASC_3":"NA","name":"Elias_Motsoaledi.city"},
"geometry":{"type": "MultiPolygon","coordinates": [[[[29.1471,-25.1105,945.1832],[29.1434,-25.1129,941.6488],[29.1385,-25.1135,942.1023],[29.1315,-25.111,940.0833],[29.1257,-25.1068,940.7508],[29.1195,-25.106,936.8414],[29.1185,-25.1075,938.6639],[29.1284,-25.113,948.3602],[29.0869,-25.1365,962.6976],[29.0898,-25.1485,975.8448],[29.0425,-25.1405,961.8878],[29.0449,-25.2022,1041.6168],[29.0318,-25.2509,1164.5105],[29.0414,-25.261,1175.1208],[29.0349,-25.2646,1231.0018],[29.0384,-25.2765,1298.7957],[29.0503,-25.2802,1202.457],[29.0565,-25.2793,1162.6426],[29.0728,-25.2869,1030.5115],[29.0761,-25.2846,1027.4524],[29.0827,-25.2871,1023.6481],[29.0844,-25.2929,1052.1995],[29.0902,-25.2894,1030.1276],[29.0959,-25.3212,1158.5276],[29.1184,-25.3132,1072.1863],[29.167,-25.3034,1047.974],[29.1746,-25.3185,1068.8785],[29.1641,-25.3545,1168.265],[29.142,-25.3858,1409.7351],[29.1313,-25.3902,1408.6228],[29.1957,-25.3703,1391.7755],[29.2073,-25.4146,1425.1552],[29.2375,-25.4023,1348.2861],[29.243,-25.4036,1357.811],[29.2531,-25.3835,1316.7013],[29.2644,-25.3755,1288.5026],[29.3214,-25.3799,1015.9812],[29.3421,-25.3731,977.5097],[29.35,-25.4046,1011.3369],[29.399,-25.4148,1276.7278],[29.453,-25.4065,1295.6638],[29.5188,-25.4228,1235.939],[29.5226,-25.405,1279.4856],[29.587,-25.3952,1422.7622],[29.6128,-25.4006,1482.6124],[29.6739,-25.3722,1640.7322],[29.7276,-25.3842,1731.0808],[29.7702,-25.4015,1784.0336],[29.7932,-25.3621,1480.6885],[29.8171,-25.362,1434.2218],[29.8201,-25.3607,1426.0204],[29.8203,-25.3589,1431.0981],[29.8229,-25.3623,1427.1697],[29.8258,-25.3621,1430.323],[29.8273,-25.365,1431.0071],[29.832,-25.3655,1431.3171],[29.8327,-25.37,1435.1334],[29.8372,-25.3768,1436.2859],[29.8373,-25.3818,1439.2964],[29.8403,-25.3863,1446.9564],[29.8878,-25.3643,1497.7518],[29.8879,-25.3386,1474.3289],[29.9376,-25.331,1774.454],[30.0062,-25.3403,1842.3058],[30.0007,-25.2795,1806.0634],[30.0129,-25.231,1845.4772],[30.0098,-25.2313,1867.6292],[30.0054,-25.1444,1894.5951],[29.979,-25.0921,1698.2791],[29.9059,-25.0475,1068.1292],[29.9594,-24.9866,1088.0215],[29.9754,-24.9354,1022.8019],[29.9598,-24.9265,873.5148],[29.9182,-24.9155,1104.3481],[29.9051,-24.9324,1536.7302],[29.8813,-24.9773,1580.88],[29.7826,-24.9788,1569.2229],[29.7702,-24.9872,1616.4921],[29.7418,-25.0154,1614.2157],[29.7372,-25.0109,1623.4022],[29.7329,-25.0117,1629.5321],[29.7183,-25.0003,1578.4735],[29.685,-24.9324,1423.3773],[29.6367,-24.9531,1480.2179],[29.5975,-24.9666,1404.1101],[29.6308,-24.9885,1479.8502],[29.5847,-24.9903,1412.6724],[29.5451,-24.9971,1332.8265],[29.5485,-24.9904,1282.5179],[29.5144,-24.9935,1296.3796],[29.4699,-24.9696,1139.0322],[29.4469,-24.9538,1123.6337],[29.4487,-24.9711,1087.2959],[29.4304,-24.9949,1095.2207],[29.4316,-25.0393,1033.0481],[29.4125,-25.03,1047.5406],[29.4022,-25.0416,867.7122],[29.4136,-25.0483,864.1581],[29.4159,-25.0523,865.9932],[29.3588,-25.0769,951.809],[29.3614,-25.0979,970.6893],[29.2936,-25.0958,936.1407],[29.2876,-25.0968,949.6525],[29.2849,-25.0916,949.4479],[29.2814,-25.0905,950.0524],[29.2657,-25.0974,947.9861],[29.258,-25.1035,950.3237],[29.2566,-25.0934,948.3861],[29.2539,-25.0902,950.2629],[29.257,-25.0832,947.9799],[29.2502,-25.078,948.3714],[29.2462,-25.0714,946.6288],[29.2455,-25.068,948.2832],[29.2474,-25.0581,947.8529],[29.2412,-25.0564,948.4791],[29.2322,-25.0593,946.693],[29.2229,-25.0555,946.8072],[29.2136,-25.0543,947.8419],[29.2054,-25.0568,947.041],[29.2042,-25.0531,942.0862],[29.1738,-25.0595,923.1885],[29.1824,-25.0714,933.9156],[29.1854,-25.0774,940.6639],[29.1857,-25.0815,945.6006],[29.1813,-25.0812,944.7379],[29.1756,-25.0853,945.6461],[29.1704,-25.0861,944.7655],[29.1635,-25.099,944.8013],[29.159,-25.1043,943.4067],[29.1551,-25.1071,943.7228],[29.1491,-25.108,944.4093],[29.1471,-25.1105,945.1832]]]]}}