{"type":"Feature","properties":{"GID_3":"ZAF.1.5.3_1","GID_0":"ZAF","country":"SouthAfrica","GID_1":"ZAF.1_1","province":"EasternCape","NL_NAME_1":"NA","GID_2":"ZAF.1.5_1","county":"ChrisHani","NL_NAME_2":"NA","city":"Inkwanca","VARNAME_3":"NA","NL_NAME_3":"NA","TYPE_3":"LocalMunicipality","ENGTYPE_3":"LocalMunicipality","CC_3":"EC133","HASC_3":"NA","name":"Inkwanca.city"},
"geometry":{"type": "MultiPolygon","coordinates": [[[[26.8764,-31.518,1519.4039],[26.8749,-31.5155,1530.3667],[26.8584,-31.5084,1475.3328],[26.8466,-31.5079,1549.4242],[26.8423,-31.4829,1562.4501],[26.8639,-31.4807,1536.5056],[26.8789,-31.4456,1928.8127],[26.8749,-31.4441,1934.7828],[26.8657,-31.4343,1934.2965],[26.8469,-31.4359,1994.7673],[26.8052,-31.4331,2006.6368],[26.7807,-31.4245,2017.8978],[26.7432,-31.4173,1982.2925],[26.7302,-31.4463,1906.6758],[26.6991,-31.4517,1998.9982],[26.6798,-31.4386,1909.7767],[26.6333,-31.4552,1834.499],[26.6296,-31.4056,2039.4148],[26.6127,-31.372,1766.6466],[26.6637,-31.3726,1959.4032],[26.6714,-31.3534,1762.8657],[26.6664,-31.3398,1803.8456],[26.6667,-31.3214,1745.8591],[26.6982,-31.2919,1776.24],[26.7087,-31.2771,1758.5188],[26.709,-31.2519,1872.0848],[26.7039,-31.2122,1847.7595],[26.6894,-31.1971,1953.8047],[26.6892,-31.1917,1982.9863],[26.6441,-31.2166,1924.3179],[26.6287,-31.2294,1932.1365],[26.602,-31.2266,1973.1329],[26.5773,-31.2197,1736.4016],[26.558,-31.2385,1925.4397],[26.5538,-31.2326,1955.2996],[26.5287,-31.2263,1951.4729],[26.532,-31.2078,2021.3154],[26.521,-31.2073,1972.9055],[26.4271,-31.223,1702.6931],[26.4203,-31.213,1710.3687],[26.4126,-31.2066,1685.9504],[26.4263,-31.1847,1531.1558],[26.3793,-31.1883,1630.3369],[26.371,-31.1837,1516.8523],[26.3686,-31.186,1511.4458],[26.368,-31.192,1512.6694],[26.3587,-31.1961,1509.0807],[26.3563,-31.2096,1518.0593],[26.3573,-31.2118,1522.9698],[26.3619,-31.2133,1513.6953],[26.362,-31.2163,1519.968],[26.3582,-31.2223,1521.5121],[26.3479,-31.2164,1600.0779],[26.3397,-31.2323,1804.6289],[26.3408,-31.2428,1702.4987],[26.3361,-31.2494,1629.4742],[26.3167,-31.2444,1622.8754],[26.3009,-31.235,1530.8109],[26.3028,-31.2328,1536.0071],[26.2975,-31.2332,1527.6044],[26.2989,-31.2169,1554.4236],[26.237,-31.2243,1567.4976],[26.2034,-31.2772,1551.7794],[26.1615,-31.2663,1539.5378],[26.1346,-31.2515,1683.6885],[26.1218,-31.2937,1552.6843],[26.0332,-31.3322,1996.6561],[26.0454,-31.3353,1960.8271],[26.1318,-31.4192,1982.0687],[26.1151,-31.4141,1744.6821],[26.1184,-31.4299,1695.2762],[26.1332,-31.4555,1760.2678],[26.1277,-31.471,1762.2126],[26.1041,-31.4831,1767.0762],[26.105,-31.5047,1820.4288],[26.0879,-31.5155,1831.429],[26.086,-31.5208,1801.2223],[26.0874,-31.5241,1746.0443],[26.0894,-31.5246,1737.0598],[26.0728,-31.5354,1615.2104],[26.0751,-31.5525,1741.802],[26.0746,-31.5737,1542.9004],[26.0826,-31.5984,1746.2898],[26.0893,-31.6052,1722.5918],[26.1096,-31.5939,2037.6144],[26.12,-31.6011,2055.5063],[26.1204,-31.5959,2049.6313],[26.1229,-31.5978,2037.3267],[26.126,-31.5947,2043.4899],[26.1467,-31.5911,2085.3923],[26.1586,-31.5943,2004.7925],[26.1766,-31.5888,2071.8271],[26.176,-31.5826,2030.7311],[26.2049,-31.5836,2154.0312],[26.2294,-31.5876,1925.119],[26.2609,-31.6136,1869.8411],[26.3013,-31.6084,2067.2773],[26.3053,-31.6587,1701.7267],[26.3192,-31.6617,1399.7385],[26.3203,-31.6796,1418.04],[26.3235,-31.6795,1420.5841],[26.3327,-31.6885,1333.7605],[26.332,-31.6898,1340.0552],[26.3222,-31.688,1399.5002],[26.3298,-31.7099,1424.0455],[26.323,-31.7215,1423.0101],[26.322,-31.7302,1407.2598],[26.332,-31.7525,1608.1924],[26.3322,-31.771,1741.4305],[26.3412,-31.7716,1527.103],[26.3454,-31.7679,1616.4763],[26.3557,-31.7704,1559.0632],[26.3628,-31.7698,1637.8655],[26.3799,-31.7752,1694.0271],[26.3962,-31.798,1459.7756],[26.3995,-31.8132,1461.2898],[26.4364,-31.8006,1290.4614],[26.4658,-31.812,1264.9109],[26.4714,-31.8267,1272.2415],[26.4864,-31.8173,1250.3872],[26.5082,-31.8395,1202.1182],[26.5279,-31.8497,1193.7767],[26.5383,-31.8374,1309.0781],[26.5412,-31.836,1426.2118],[26.5621,-31.8309,1321.6292],[26.5797,-31.8367,1162.142],[26.5818,-31.8353,1154.6244],[26.5812,-31.8319,1157.8966],[26.5839,-31.8269,1158.8041],[26.5906,-31.8264,1161.592],[26.5909,-31.8283,1166.2498],[26.5946,-31.8289,1164.3873],[26.596,-31.8268,1165.8438],[26.602,-31.8274,1165.8618],[26.6038,-31.8264,1168.2875],[26.6062,-31.8189,1172.9193],[26.6043,-31.8133,1173.103],[26.6553,-31.8213,1371.8102],[26.6662,-31.8249,1494.8064],[26.6737,-31.8201,1588.9222],[26.68,-31.8049,1495.7997],[26.6998,-31.7854,1413.3691],[26.7073,-31.7661,1298.6809],[26.7431,-31.7455,1261.9871],[26.7626,-31.7474,1288.2318],[26.7763,-31.7342,1760.6309],[26.7787,-31.7336,1926.6666],[26.8046,-31.7067,1911.567],[26.7696,-31.6668,2024.3328],[26.799,-31.64,1960.8419],[26.8198,-31.6235,1783.1952],[26.8254,-31.604,1769.4836],[26.8436,-31.5839,1872.4868],[26.8669,-31.5849,1805.2046],[26.8766,-31.5607,1629.9482],[26.8917,-31.5433,1575.7397],[26.8764,-31.518,1519.4039]]]]}}