{"type":"Feature","properties":{"GID_2":"ZAF.3.5_1","GID_0":"ZAF","country":"SouthAfrica","GID_1":"ZAF.3_1","province":"Gauteng","NL_NAME_1":"NA","county":"WestRand","VARNAME_2":"NA","NL_NAME_2":"NA","TYPE_2":"DistrictMunicipality","ENGTYPE_2":"DistrictMunicipality","CC_2":"DC48","HASC_2":"ZA.GT.WR","name":"West_Rand.county"},
"geometry":{"type": "MultiPolygon","coordinates": [[[[27.7203,-26.2039,1688.6824],[27.7178,-26.2029,1708.7017],[27.7183,-26.1989,1704.4729],[27.772,-26.2132,1668.4496],[27.7861,-26.1819,1694.8579],[27.8106,-26.1821,1679.5883],[27.8091,-26.1751,1694.386],[27.818,-26.176,1662.483],[27.8198,-26.1734,1663.7084],[27.8189,-26.1709,1666.3872],[27.8122,-26.167,1678.0109],[27.8388,-26.1202,1736.3805],[27.839,-26.1168,1734.6757],[27.8322,-26.1146,1733.9719],[27.8318,-26.1099,1701.2717],[27.8352,-26.1068,1622.6686],[27.8396,-26.1069,1607.7319],[27.8398,-26.0973,1592.6949],[27.8384,-26.0955,1585.4131],[27.8397,-26.092,1593.8633],[27.8353,-26.0846,1598.3103],[27.8448,-26.0825,1489.5974],[27.845,-26.0784,1485.0458],[27.8423,-26.0723,1478.1152],[27.8665,-26.0751,1499.8285],[27.8496,-26.0624,1481.38],[27.8516,-26.0598,1503.4277],[27.8646,-26.0566,1463.364],[27.868,-26.0651,1479.0375],[27.872,-26.0625,1501.361],[27.8705,-26.0574,1478.0928],[27.8761,-26.058,1469.957],[27.8778,-26.0618,1469.176],[27.8808,-26.0575,1484.3555],[27.8828,-26.0592,1485.6948],[27.888,-26.0567,1526.0461],[27.8902,-26.0602,1530.0027],[27.8942,-26.0582,1559.074],[27.8963,-26.0618,1557.2202],[27.9044,-26.0311,1454.1926],[27.9126,-26.028199999999998,1486.465],[27.9235,-25.9983,1455.6868],[27.9256,-25.9786,1403.6689],[27.9227,-25.9707,1387.2932],[27.9074,-25.9701,1348.5288],[27.9106,-25.9676,1353.2747],[27.8976,-25.9544,1335.099],[27.9095,-25.9441,1347.3604],[27.9052,-25.9331,1289.156],[27.9098,-25.9303,1285.1249],[27.9077,-25.9287,1286.9374],[27.9084,-25.9269,1284.4626],[27.9323,-25.9259,1329.9254],[27.9408,-25.9284,1307.4965],[27.932,-25.9161,1309.8611],[27.9225,-25.9176,1341.0049],[27.9011,-25.9079,1286.7972],[27.901,-25.9053,1287.4875],[27.8938,-25.9057,1307.6125],[27.8904,-25.8839,1322.2214],[27.8995,-25.8828,1312.782],[27.8982,-25.8597,1368.9429],[27.8826,-25.8619,1414.5594],[27.8847,-25.8517,1358.145],[27.8835,-25.8457,1350.7676],[27.8844,-25.8388,1341.9843],[27.8853,-25.8354,1352.46],[27.8901,-25.8298,1279.3643],[27.8917,-25.8229,1234.4253],[27.8587,-25.8188,1293.0768],[27.8482,-25.8393,1429.2283],[27.8518,-25.8464,1496.6194],[27.844,-25.8489,1459.7629],[27.8315,-25.8602,1549.434],[27.791,-25.8747,1408.6896],[27.7446,-25.8946,1481.3904],[27.7427,-25.8502,1443.4706],[27.7358,-25.8553,1461.6412],[27.7303,-25.8552,1456.6143],[27.7046,-25.8683,1579.7156],[27.6849,-25.8754,1542.4753],[27.6639,-25.84,1226.8115],[27.6546,-25.8453,1230.2455],[27.6497,-25.8435,1230.7787],[27.6504,-25.8427,1235.0746],[27.6471,-25.8406,1242.2313],[27.6488,-25.835,1255.824],[27.6455,-25.8198,1286.3267],[27.6411,-25.8128,1319.0562],[27.6418,-25.8114,1319.0562],[27.6466,-25.8141,1307.587],[27.6436,-25.7959,1664.9641],[27.6056,-25.8082,1580.134],[27.5993,-25.8127,1562.5923],[27.5983,-25.8196,1625.9224],[27.5746,-25.836,1764.8308],[27.5599,-25.8428,1784.5549],[27.546,-25.8462,1794.8007],[27.5474,-25.8514,1701.8506],[27.5336,-25.8521,1724.3008],[27.5323,-25.85,1705.3772],[27.5133,-25.8603,1799.5585],[27.5002,-25.8613,1715.8962],[27.4975,-25.8596,1707.9077],[27.4619,-25.8676,1776.1158],[27.47,-25.8881,1463.272],[27.457,-25.8883,1473.8423],[27.4633,-25.9215,1454.4919],[27.4536,-25.9202,1469.1182],[27.457,-25.9818,1540.7271],[27.4498,-26.0163,1531.3214],[27.4389,-26.0143,1548.0135],[27.4357,-26.0226,1513.054],[27.434,-26.0225,1514.6366],[27.4352,-26.027,1532.858],[27.4314,-26.0523,1587.9537],[27.4252,-26.0894,1593.6136],[27.4224,-26.0892,1597.9056],[27.4194,-26.1175,1562.1724],[27.3617,-26.1157,1599.6279],[27.3583,-26.1546,1575.0657],[27.2914,-26.1446,1560.4008],[27.3084,-26.2252,1532.6445],[27.3301,-26.2818,1524.8071],[27.2993,-26.3045,1496.0912],[27.2748,-26.3143,1517.2743],[27.2348,-26.3383,1488.1581],[27.188,-26.3779,1460.8429],[27.2248,-26.444,1527.1558],[27.2238,-26.4518,1546.4259],[27.2314,-26.5055,1609.9104],[27.2125,-26.5148,1593.3629],[27.1828,-26.5203,1464.2904],[27.1882,-26.5258,1469.6418],[27.1786,-26.521,1456.947],[27.1563,-26.5243,1471.6904],[27.1588,-26.5254,1493.2244],[27.1671,-26.5514,1455.5103],[27.1745,-26.5492,1463.0203],[27.1826,-26.5631,1483.792],[27.1826,-26.5746,1557.7754],[27.2284,-26.5711,1407.8915],[27.2345,-26.5949,1397.4995],[27.2332,-26.5955,1393.1603],[27.235,-26.6186,1378.2864],[27.2419,-26.6365,1348.912],[27.2474,-26.6344,1349.6139],[27.2488,-26.636,1349.4884],[27.2494,-26.6341,1350.3225],[27.2512,-26.6347,1350.1829],[27.2537,-26.6325,1351.6467],[27.2575,-26.632,1351.0397],[27.2574,-26.6308,1352.0541],[27.2605,-26.6315,1352.2333],[27.2617,-26.6335,1353.2866],[27.2671,-26.6306,1354.0869],[27.2683,-26.6329,1353.8215],[27.2718,-26.6304,1355.1901],[27.2731,-26.6322,1355.3971],[27.2769,-26.629,1355.469],[27.2768,-26.6259,1356.6687],[27.2789,-26.6265,1356.573],[27.2793,-26.6245,1359.5935],[27.2797,-26.6258,1357.4784],[27.2855,-26.625,1357.6479],[27.2842,-26.6222,1361.1394],[27.2862,-26.6214,1361.496],[27.2933,-26.6223,1359.8534],[27.2969,-26.6203,1360.5414],[27.2991,-26.6221,1361.6697],[27.3442,-26.6131,1381.6736],[27.3315,-26.5903,1372.28],[27.3389,-26.5781,1376.8665],[27.3386,-26.5717,1379.2317],[27.3658,-26.5738,1408.1537],[27.3854,-26.6043,1393.5317],[27.3783,-26.6107,1389.7351],[27.4258,-26.6495,1409.6362],[27.4347,-26.6318,1425.2566],[27.4548,-26.6303,1438.2335],[27.5065,-26.6462,1445.2256],[27.5691,-26.6472,1499.1606],[27.5796,-26.6075,1517.1844],[27.6245,-26.6092,1509.2832],[27.6577,-26.6177,1491.2035],[27.6596,-26.6042,1476.7976],[27.6679,-26.6105,1471.2062],[27.6789,-26.5606,1477.2126],[27.6764,-26.5387,1485.2278],[27.679,-26.5366,1484.918],[27.6756,-26.5291,1486.5477],[27.676,-26.5243,1491.2651],[27.7101,-26.53,1493.8726],[27.7143,-26.4894,1573.1196],[27.7097,-26.4547,1587.558],[27.7134,-26.4424,1585.1876],[27.7275,-26.4312,1583.782],[27.7323,-26.4387,1579.5717],[27.7452,-26.4378,1575.2],[27.749,-26.4192,1691.048],[27.7613,-26.4191,1657.3689],[27.7519,-26.362,1699.4762],[27.8116,-26.3645,1653.494],[27.8104,-26.3329,1596.1083],[27.8245,-26.3375,1589.4846],[27.8218,-26.3041,1564.5503],[27.8153,-26.3034,1573.7982],[27.8147,-26.2849,1580.5007],[27.7923,-26.2875,1586.5271],[27.7897,-26.3039,1590.28],[27.7828,-26.3043,1592.4738],[27.7765,-26.2853,1589.5226],[27.7438,-26.2872,1589.5337],[27.7446,-26.2795,1592.5713],[27.7535,-26.258,1610.2361],[27.7292,-26.2463,1595.5989],[27.7285,-26.2425,1604.719],[27.725,-26.2387,1616.1852],[27.7143,-26.2139,1680.4556],[27.7185,-26.2139,1668.5852],[27.7203,-26.2039,1688.6824]]]]}}