{"type": "Feature","bbox": [26.8181,-29.5752,27.6502,-28.7252],"geometry": {"type": "MultiPolygon","coordinates": [[[[27.3062,-29.5333,1458.1194],[27.3042,-29.5211,1452.1412],[27.3014,-29.5175,1455.8359],[27.3002,-29.5124,1453.311],[27.3051,-29.5062,1458.3485],[27.3043,-29.5003,1454.4192],[27.306,-29.4972,1457.9423],[27.3294,-29.4807,1459.7583],[27.3335,-29.4807,1466.7212],[27.3401,-29.486,1456.7216],[27.3473,-29.488,1468.0369],[27.361,-29.4858,1467.337],[27.3636,-29.4786,1459.0099],[27.3567,-29.4666,1459.9032],[27.358,-29.4607,1462.0391],[27.3566,-29.4527,1468.1298],[27.3622,-29.45,1464.3859],[27.3705,-29.4487,1462.8015],[27.3749,-29.4431,1477.5715],[27.3801,-29.4408,1465.7867],[27.3824,-29.4325,1470.6014],[27.3895,-29.4272,1471.6973],[27.3922,-29.4229,1467.0344],[27.3918,-29.4162,1466.1458],[27.3958,-29.4112,1469.1475],[27.404,-29.414,1469.7567],[27.4123,-29.4112,1470.8428],[27.4182,-29.411,1474.9811],[27.4244,-29.4045,1476.2343],[27.4217,-29.3971,1472.4507],[27.4216,-29.3876,1472.1716],[27.4097,-29.3783,1500.7913],[27.4056,-29.3716,1474.9585],[27.4055,-29.3664,1475.4418],[27.4069,-29.3641,1480.6802],[27.4103,-29.3639,1476.7465],[27.4264,-29.3737,1476.7227],[27.4323,-29.373,1481.2708],[27.4353,-29.3702,1478.1686],[27.4377,-29.3642,1482.4227],[27.4338,-29.3522,1477.6023],[27.4363,-29.3342,1487.7443],[27.4445,-29.3287,1477.5695],[27.4609,-29.3266,1483.345],[27.4723,-29.3203,1497.2184],[27.472,-29.3181,1488.1046],[27.4647,-29.3135,1483.103],[27.4636,-29.3076,1481.879],[27.457,-29.3054,1482.1389],[27.4546,-29.2977,1496.845],[27.4656,-29.2941,1493.7152],[27.4717,-29.2953,1486.3331],[27.4807,-29.2936,1488.4187],[27.4844,-29.2965,1490.5745],[27.4846,-29.3018,1485.1128],[27.4893,-29.302,1485.5686],[27.4918,-29.3004,1487.3201],[27.4902,-29.2941,1494.3527],[27.4941,-29.2897,1485.4697],[27.4949,-29.284,1489.2059],[27.5145,-29.2819,1485.8293],[27.5202,-29.2762,1484.9506],[27.525,-29.2661,1494.7429],[27.5409,-29.2599,1486.5052],[27.5462,-29.2525,1490.4371],[27.5476,-29.2464,1489.1161],[27.542,-29.2414,1486.7437],[27.5338,-29.2402,1489.2467],[27.5304,-29.237,1490.5312],[27.5247,-29.241,1491.5593],[27.5216,-29.2403,1491.9414],[27.5205,-29.2385,1488.3972],[27.5243,-29.2346,1492.5024],[27.5247,-29.2317,1492.0659],[27.52,-29.2269,1492.5186],[27.5147,-29.2255,1499.9689],[27.5149,-29.2244,1494.3501],[27.5254,-29.217,1497.9657],[27.5296,-29.2194,1492.6136],[27.535,-29.2175,1492.3528],[27.5406,-29.2059,1494.0977],[27.5456,-29.2038,1494.6077],[27.5514,-29.1962,1509.7086],[27.5559,-29.1939,1493.8789],[27.5651,-29.1925,1490.354],[27.5671,-29.1876,1495.3931],[27.5748,-29.1848,1506.3994],[27.5767,-29.1823,1496.0988],[27.5782,-29.1717,1500.8141],[27.5806,-29.1663,1494.2451],[27.5906,-29.1661,1498.5122],[27.5929,-29.1695,1494.5458],[27.5963,-29.1712,1494.4688],[27.6002,-29.1685,1495.7026],[27.6063,-29.1677,1495.6014],[27.6142,-29.1642,1504.0424],[27.6171,-29.1575,1498.0662],[27.6169,-29.1523,1503.9338],[27.6026,-29.1401,1498.9792],[27.6014,-29.1371,1500.6577],[27.6109,-29.1335,1499.7286],[27.6183,-29.1353,1499.6602],[27.6326,-29.1317,1517.9144],[27.6348,-29.1293,1503.8453],[27.6358,-29.1234,1498.9041],[27.6309,-29.1198,1498.6045],[27.6317,-29.116,1499.8837],[27.6379,-29.1151,1501.3032],[27.6454,-29.1185,1504.1118],[27.6502,-29.11,1502.0745],[27.6328,-29.1027,1557.4453],[27.6192,-29.1017,1597.09],[27.6131,-29.103,1626.7053],[27.6032,-29.1012,1596.5856],[27.6132,-29.0888,1632.8865],[27.5993,-29.0724,1714.552],[27.5921,-29.072,1710.0581],[27.6041,-29.0543,1631.8964],[27.6005,-29.0473,1713.8997],[27.6012,-29.0409,1697.2209],[27.5987,-29.038,1703.2732],[27.5965,-29.03,1668.9858],[27.5922,-29.032,1702.6466],[27.5753,-29.0275,1723.6846],[27.5682,-29.0345,1515.4287],[27.5593,-29.0386,1566.4651],[27.5378,-29.0193,1742.3038],[27.5277,-29.0128,1723.4241],[27.548,-28.9921,1580.9972],[27.5275,-28.9845,1615.2825],[27.5055,-28.9714,1678.5819],[27.514,-28.9483,1617.2151],[27.5078,-28.9464,1645.2324],[27.5078,-28.9366,1642.5514],[27.511,-28.9336,1636.0432],[27.504,-28.9358,1643.3059],[27.4976,-28.9115,1606.5726],[27.4943,-28.9115,1601.8245],[27.4784,-28.8733,1580.0125],[27.4433,-28.8795,1616.9092],[27.44,-28.8521,1826.1129],[27.4154,-28.8595,1792.4788],[27.4085,-28.8674,1683.667],[27.4018,-28.8708,1753.0588],[27.3602,-28.8488,1528.8112],[27.3624,-28.84,1723.9907],[27.3456,-28.8306,1609.3989],[27.3369,-28.8431,1555.2874],[27.3176,-28.8389,1507.7985],[27.3213,-28.8312,1547.0125],[27.319,-28.8306,1551.8384],[27.3159,-28.8265,1552.0648],[27.3233,-28.8182,1595.8882],[27.3005,-28.8076,1591.7231],[27.268,-28.8387,1439.6458],[27.2642,-28.8378,1441.9407],[27.2638,-28.8361,1444.7675],[27.2619,-28.8367,1439.1184],[27.2597,-28.8342,1439.2205],[27.252,-28.8353,1435.2063],[27.2466,-28.8318,1434.0901],[27.2435,-28.8319,1434.3745],[27.2427,-28.8279,1437.0475],[27.24,-28.8292,1432.0652],[27.2375,-28.8273,1433.6587],[27.2344,-28.8289,1432.2683],[27.2766,-28.7965,1606.1887],[27.239,-28.7915,1722.4081],[27.2092,-28.8193,1423.8662],[27.2086,-28.8183,1423.8662],[27.2068,-28.8191,1425.6281],[27.2083,-28.8214,1422.595],[27.2049,-28.8242,1421.8242],[27.2,-28.82,1421.0663],[27.2002,-28.8172,1419.2151],[27.1949,-28.8162,1419.1226],[27.1929,-28.8141,1418.2017],[27.1903,-28.8153,1417.6431],[27.192,-28.8123,1418.2983],[27.189,-28.8097,1416.8502],[27.1907,-28.8068,1414.6517],[27.1871,-28.8069,1414.2207],[27.1863,-28.8015,1413.8339],[27.1796,-28.7981,1420.0999],[27.1802,-28.7952,1411.5219],[27.1787,-28.7947,1415.3495],[27.1782,-28.7912,1414.8275],[27.1752,-28.7909,1412.174],[27.1742,-28.7874,1409.734],[27.1716,-28.7864,1409.2637],[27.1703,-28.7821,1409.803],[27.1666,-28.7812,1411.3162],[27.1648,-28.779,1406.989],[27.1599,-28.7791,1405.6331],[27.157,-28.7718,1404.9922],[27.1581,-28.7692,1408.035],[27.1517,-28.7602,1401.1904],[27.1527,-28.7529,1401.0425],[27.1553,-28.7516,1399.0452],[27.1539,-28.7476,1398.791],[27.1563,-28.7469,1398.5631],[27.1573,-28.7434,1398.5972],[27.1545,-28.7417,1397.6709],[27.1578,-28.7325,1396.1815],[27.1557,-28.7335,1395.3979],[27.1511,-28.7311,1394.8303],[27.151,-28.7259,1398.7733],[27.1496,-28.7252,1394.6394],[27.1074,-28.7683,1435.2371],[27.0999,-28.7567,1435.5773],[27.0776,-28.7677,1426.3334],[27.0618,-28.7615,1425.4126],[27.0463,-28.7699,1432.7502],[27.0419,-28.7626,1449.5518],[27.0333,-28.7607,1433.2278],[27.0302,-28.7562,1424.4111],[27.0297,-28.7439,1428.4749],[26.9754,-28.7518,1433.881],[26.9728,-28.746,1383.2047],[26.947,-28.7503,1408.451],[26.947,-28.7482,1403.2233],[26.9237,-28.7591,1374.3882],[26.9107,-28.7622,1397.7542],[26.9111,-28.7683,1404.9578],[26.8804,-28.8285,1446.608],[26.8537,-28.8863,1470.2777],[26.8181,-28.9271,1445.9999],[26.8927,-28.9341,1422.8126],[26.9135,-28.9177,1435.2407],[26.9463,-28.9397,1446.8749],[26.9406,-28.9646,1463.6827],[26.9547,-29.006,1473.4951],[26.9624,-29.0219,1513.7976],[26.9949,-29.0219,1500.4426],[27.0159,-29.0437,1576.1841],[27.0253,-29.0479,1573.7477],[27.0298,-29.0558,1610.5177],[27.0402,-29.0538,1573.5417],[27.0449,-29.0563,1570.063],[27.0513,-29.0706,1690.1682],[27.0412,-29.0858,1657.5006],[27.02,-29.0818,1576.8809],[26.9998,-29.1053,1644.8368],[27.0137,-29.1122,1625.3003],[27.0117,-29.1281,1612.0873],[26.9741,-29.14,1579.7877],[26.9629,-29.1478,1541.674],[26.9632,-29.1554,1548.4718],[26.9453,-29.1684,1674.6614],[26.9294,-29.1701,1629.8555],[26.9172,-29.1821,1691.0055],[26.9158,-29.1857,1671.958],[26.9192,-29.1952,1720.5457],[26.9244,-29.1998,1681.2065],[26.9218,-29.2063,1687.2325],[26.9163,-29.2084,1734.6967],[26.9174,-29.2198,1743.2571],[26.9359,-29.2377,1757.834],[26.9282,-29.2558,1841.7864],[26.9397,-29.2581,1854.0068],[26.9633,-29.2569,1657.0787],[26.9542,-29.2894,1584.8165],[26.9486,-29.2884,1565.6785],[26.9428,-29.3157,1581.7988],[26.9334,-29.3206,1565.6328],[26.9596,-29.347,1609.5936],[26.961,-29.3569,1602.7079],[26.9558,-29.3793,1589.179],[26.968,-29.3828,1608.3159],[26.9769,-29.3741,1609.7274],[27.0226,-29.3804,1549.0677],[27.0235,-29.3551,1565.8325],[27.0534,-29.3436,1600.4281],[27.069,-29.3662,1599.4849],[27.0856,-29.3857,1551.665],[27.0945,-29.3904,1554.1898],[27.082,-29.4066,1783.0049],[27.0768,-29.4163,1612.6588],[27.0744,-29.4271,1608.0471],[27.075,-29.433,1659.6732],[27.0676,-29.4416,1543.8195],[27.0362,-29.4163,1534.6278],[27.0221,-29.3983,1539.4698],[27.011,-29.3951,1548.6906],[26.9629,-29.428,1571.7891],[26.991,-29.4554,1529.1956],[27.0039,-29.4569,1536.3209],[26.9785,-29.4837,1559.104],[26.999,-29.5198,1596.4639],[27.0079,-29.5168,1601.5118],[27.016,-29.5275,1618.4039],[27.0607,-29.5228,1679.4198],[27.0688,-29.5435,1581.4636],[27.0814,-29.5592,1546.3275],[27.1115,-29.553,1451.4131],[27.1233,-29.5591,1506.011],[27.1274,-29.5747,1438.9861],[27.1351,-29.5734,1437.9235],[27.1411,-29.5752,1440.9966],[27.1524,-29.562,1438.752],[27.1584,-29.5596,1441.2666],[27.1651,-29.5625,1440.9084],[27.185,-29.5659,1441.7778],[27.1895,-29.5699,1444.6033],[27.1949,-29.5676,1446.6166],[27.2037,-29.5684,1442.926],[27.2087,-29.5651,1440.0365],[27.206,-29.5605,1447.0345],[27.2068,-29.5578,1445.5317],[27.2217,-29.5495,1441.0],[27.2213,-29.5448,1448.6191],[27.2269,-29.5436,1445.6825],[27.2314,-29.5543,1447.5061],[27.2383,-29.5531,1447.178],[27.2451,-29.5543,1450.4285],[27.2559,-29.5475,1451.2136],[27.2549,-29.5368,1449.7351],[27.2573,-29.5333,1448.2588],[27.2628,-29.5333,1452.4141],[27.2768,-29.5263,1451.6956],[27.2831,-29.528,1449.6978],[27.2891,-29.5334,1451.1235],[27.3062,-29.5333,1458.1194]]]]}
,"properties": {"GID_3": "ZAF.2.4.3_1","GID_0": "ZAF","country": "SouthAfrica","GID_1": "ZAF.2_1","province": "FreeState","NL_NAME_1": "NA","GID_2": "ZAF.2.4_1","county": "ThaboMofutsanyane","NL_NAME_2": "NA","city": "Mantsopa","VARNAME_3": "NA","NL_NAME_3": "NA","TYPE_3": "LocalMunicipality","ENGTYPE_3": "LocalMunicipality","CC_3": "FS196","HASC_3": "NA","name": "Mantsopa.city","area_km2": 4295.754,"hist_schema_id": "Elevation0-9000","hist_area_km2": {"1375": 23.209,"1400": 158.193,"1425": 267.528,"1450": 268.228,"1475": 299.045,"1500": 309.271,"1525": 350.325,"1550": 428.095,"1575": 551.716,"1600": 548.973,"1625": 364.914,"1650": 233.853,"1675": 142.148,"1700": 95.387,"1725": 67.528,"1750": 48.245,"1775": 42.625,"1800": 35.806,"1825": 30.354,"1850": 20.205,"1875": 6.076,"1900": 0.999,"1925": 0.795,"1950": 0.647,"1975": 0.573,"2000": 0.444,"2025": 0.573}}}