{"type":"Feature","properties":{"GID_3":"ZAF.6.3.5_1","GID_0":"ZAF","country":"SouthAfrica","GID_1":"ZAF.6_1","province":"Mpumalanga","NL_NAME_1":"NA","GID_2":"ZAF.6.3_1","county":"Nkangala","NL_NAME_2":"NA","city":"Thembisile","VARNAME_3":"NA","NL_NAME_3":"NA","TYPE_3":"LocalMunicipality","ENGTYPE_3":"LocalMunicipality","CC_3":"MP315","HASC_3":"NA","name":"Thembisile.city"},
"geometry":{"type": "MultiPolygon","coordinates": [[[[28.6613,-25.6313,1394.9552],[28.6747,-25.6588,1437.5992],[28.6727,-25.665,1435.4285],[28.6838,-25.6754,1467.9746],[28.7088,-25.6828,1507.4701],[28.7221,-25.6442,1506.5077],[28.7239,-25.6318,1470.7167],[28.7382,-25.6339,1461.3406],[28.7663,-25.647,1421.4012],[28.759,-25.678,1451.542],[28.7528,-25.6939,1491.8165],[28.7574,-25.6953,1481.3092],[28.7572,-25.7059,1496.6562],[28.7649,-25.7036,1501.4138],[28.7653,-25.7006,1491.9684],[28.7681,-25.7009,1493.9215],[28.7693,-25.6988,1489.9418],[28.7793,-25.7019,1489.7267],[28.7927,-25.7024,1454.692],[28.8082,-25.689,1412.0679],[28.8193,-25.6951,1443.1589],[28.847,-25.6824,1487.8167],[28.8229,-25.6589,1388.5105],[28.81,-25.6591,1420.141],[28.8115,-25.643,1381.7113],[28.836,-25.6374,1371.9175],[28.8355,-25.6456,1379.3531],[28.8416,-25.6545,1387.9808],[28.8457,-25.6523,1382.5674],[28.8693,-25.6581,1393.7377],[28.872,-25.6416,1359.2899],[28.8629,-25.6355,1361.4984],[28.8584,-25.6348,1363.0272],[28.8431,-25.5664,1512.9442],[28.8085,-25.5732,1503.4114],[28.8077,-25.5714,1503.7837],[28.7971,-25.542,1488.1505],[28.8219,-25.5224,1431.7354],[28.8518,-25.5018,1360.6699],[28.8699,-25.5247,1443.4504],[28.8741,-25.5271,1443.2012],[28.8582,-25.5691,1501.1733],[28.9101,-25.5245,1430.3088],[28.9152,-25.558,1383.0764],[28.9465,-25.5998,1624.7455],[29.0078,-25.5742,1246.5859],[28.9869,-25.5402,1349.7576],[28.9881,-25.5395,1354.6414],[28.9932,-25.5425,1329.031],[29.0067,-25.5376,1358.4523],[29.0106,-25.5332,1360.4094],[29.019,-25.5278,1413.3502],[29.0129,-25.5137,1367.6394],[29.023,-25.5159,1333.1499],[29.036,-25.5213,1284.1631],[29.0422,-25.521,1262.9933],[29.0474,-25.517,1257.5815],[29.0482,-25.5202,1253.73],[29.0587,-25.5272,1234.2681],[29.0787,-25.4996,1413.4529],[29.0774,-25.4962,1446.8688],[29.08,-25.4946,1462.3619],[29.0914,-25.5306,1301.1926],[29.0984,-25.5377,1234.4933],[29.0869,-25.5486,1202.5187],[29.0684,-25.5523,1248.5698],[29.0343,-25.5634,1323.1147],[29.042,-25.5733,1278.1433],[29.0456,-25.5808,1243.0344],[29.04,-25.6175,1453.1716],[29.0642,-25.6207,1349.0653],[29.0661,-25.6305,1518.6494],[29.0565,-25.6326,1524.537],[29.0646,-25.6424,1560.248],[29.0083,-25.6606,1368.29],[29.0415,-25.708,1435.0419],[29.0933,-25.678,1459.0651],[29.107,-25.6612,1532.5679],[29.1173,-25.6565,1507.2012],[29.1962,-25.6857,1426.032],[29.1888,-25.7229,1485.031],[29.2195,-25.7418,1544.6521],[29.2425,-25.7088,1461.2493],[29.2891,-25.7454,1477.9771],[29.3049,-25.6798,1259.5637],[29.2988,-25.6683,1258.0818],[29.2962,-25.6684,1282.3203],[29.2942,-25.6727,1254.5332],[29.2898,-25.6702,1255.7188],[29.2878,-25.6627,1244.9753],[29.2815,-25.6657,1245.8239],[29.2745,-25.672,1235.4203],[29.2706,-25.6717,1228.2581],[29.2702,-25.6669,1309.1252],[29.2788,-25.6601,1317.3242],[29.2808,-25.6542,1213.7888],[29.2849,-25.6496,1228.4272],[29.2864,-25.6413,1208.4875],[29.271,-25.6374,1203.5319],[29.2641,-25.6387,1191.8671],[29.2565,-25.6333,1184.8994],[29.2464,-25.6312,1189.4772],[29.2323,-25.6237,1184.2129],[29.2304,-25.6241,1181.5574],[29.2321,-25.6307,1180.447],[29.2311,-25.633,1190.2745],[29.2259,-25.6356,1175.3979],[29.2179,-25.6355,1181.4282],[29.217,-25.6339,1181.1891],[29.2195,-25.6273,1198.7465],[29.2073,-25.6091,1172.2228],[29.1991,-25.6037,1163.459],[29.1907,-25.6091,1161.5581],[29.1893,-25.6082,1182.3135],[29.1897,-25.6038,1201.9928],[29.1977,-25.5987,1158.0718],[29.2033,-25.6005,1150.2185],[29.2051,-25.6027,1145.2786],[29.209,-25.6019,1214.406],[29.2094,-25.5983,1170.5172],[29.2016,-25.5933,1145.2588],[29.2018,-25.5875,1158.1423],[29.1985,-25.5837,1146.1621],[29.2012,-25.5822,1178.498],[29.2092,-25.5854,1143.6536],[29.2101,-25.5821,1166.4536],[29.2035,-25.5773,1146.0027],[29.1986,-25.5758,1134.6675],[29.1915,-25.5784,1143.9747],[29.1871,-25.5767,1128.7174],[29.1892,-25.5701,1118.3408],[29.1869,-25.5674,1164.1139],[29.1819,-25.5671,1118.2899],[29.1713,-25.5699,1146.891],[29.1685,-25.5668,1110.809],[29.1682,-25.5632,1108.5984],[29.1713,-25.5581,1109.8804],[29.1841,-25.5645,1110.2203],[29.1894,-25.5556,1109.2908],[29.1932,-25.5565,1104.3042],[29.199,-25.5627,1094.6902],[29.2055,-25.5576,1096.5525],[29.2083,-25.5678,1098.5356],[29.2116,-25.5699,1118.6084],[29.2129,-25.5678,1114.4133],[29.2108,-25.5628,1116.9746],[29.2143,-25.5554,1092.624],[29.2151,-25.5471,1077.7183],[29.2188,-25.5446,1077.1641],[29.2225,-25.5459,1072.5328],[29.2322,-25.5628,1066.7771],[29.2356,-25.5638,1108.1268],[29.2387,-25.5529,1058.5853],[29.2349,-25.5387,1077.9349],[29.2287,-25.5271,1035.5579],[29.2372,-25.5259,1042.5885],[29.2477,-25.5329,1033.7522],[29.25,-25.5315,1076.6213],[29.2549,-25.5209,1022.6406],[29.2604,-25.5173,1019.359],[29.2643,-25.5166,1044.9105],[29.2664,-25.5133,1038.1824],[29.2584,-25.5065,1016.8155],[29.2557,-25.5018,1018.316],[29.2549,-25.4963,1006.876],[29.2465,-25.4958,1003.9418],[29.2413,-25.4912,1013.1973],[29.242,-25.4893,1007.5498],[29.2468,-25.4874,1000.5],[29.2631,-25.4878,1000.5],[29.2663,-25.486,1000.5],[29.2692,-25.4808,1000.5],[29.2695,-25.4769,1000.5],[29.2641,-25.4767,1000.9594],[29.2526,-25.4715,1000.5],[29.2531,-25.4667,1000.5],[29.2594,-25.4633,1000.5],[29.2649,-25.4626,1000.5],[29.2798,-25.4679,1000.5],[29.2804,-25.466,1000.5],[29.2782,-25.4603,1000.5],[29.2814,-25.4546,1000.5],[29.2934,-25.4488,1000.5],[29.2931,-25.445,1000.5],[29.2876,-25.4406,1000.5],[29.2909,-25.4367,1000.5],[29.3086,-25.4391,1000.5],[29.3179,-25.4283,1000.5],[29.3182,-25.4228,1000.5],[29.3199,-25.421,1000.5],[29.3236,-25.4232,1000.5],[29.3315,-25.4345,1000.5],[29.3444,-25.432,1000.5],[29.3489,-25.4252,1000.5],[29.3571,-25.4243,1000.5],[29.3621,-25.4215,1000.5],[29.359,-25.4182,1000.5],[29.3578,-25.414,975.6837],[29.3625,-25.4071,956.3507],[29.35,-25.4046,1011.3369],[29.3421,-25.3731,977.5097],[29.3214,-25.3799,1015.9812],[29.2644,-25.3755,1288.5026],[29.2531,-25.3835,1316.7013],[29.243,-25.4036,1357.811],[29.2375,-25.4023,1348.2861],[29.2073,-25.4146,1425.1552],[29.1957,-25.3703,1391.7755],[29.1313,-25.3902,1408.6228],[29.142,-25.3858,1409.7351],[29.1641,-25.3545,1168.265],[29.1746,-25.3185,1068.8785],[29.167,-25.3034,1047.974],[29.1184,-25.3132,1072.1863],[29.0959,-25.3212,1158.5276],[29.0902,-25.2894,1030.1276],[29.0844,-25.2929,1052.1995],[29.0827,-25.2871,1023.6481],[29.0761,-25.2846,1027.4524],[29.0728,-25.2869,1030.5115],[29.0565,-25.2793,1162.6426],[29.0503,-25.2802,1202.457],[29.0384,-25.2765,1298.7957],[29.0349,-25.2646,1231.0018],[29.0414,-25.261,1175.1208],[29.0318,-25.2509,1164.5105],[29.0323,-25.2493,1143.1274],[29.0315,-25.2507,1148.2264],[29.0039,-25.2461,1132.5635],[28.9584,-25.2362,1205.4399],[28.8992,-25.235,1266.1206],[28.8647,-25.2739,1251.8514],[28.791,-25.3283,1319.2656],[28.7329,-25.2827,1225.8896],[28.718,-25.2872,1289.0273],[28.6884,-25.2979,1333.7823],[28.6413,-25.3276,1211.9967],[28.6332,-25.3315,1233.0223],[28.6226,-25.3337,1219.6377],[28.6389,-25.394,1289.4829],[28.6198,-25.4114,1283.8563],[28.6253,-25.4476,1241.51],[28.6295,-25.4594,1241.5413],[28.6208,-25.4632,1248.407],[28.6154,-25.4679,1249.675],[28.621,-25.4707,1251.1144],[28.6321,-25.4884,1271.6382],[28.634,-25.5199,1379.917],[28.6257,-25.5231,1361.2886],[28.6267,-25.5312,1371.1902],[28.635,-25.5592,1399.6643],[28.6455,-25.5858,1459.4897],[28.6473,-25.5856,1462.4158],[28.6425,-25.5899,1427.0248],[28.6613,-25.6313,1394.9552]]]]}}