{"type": "Feature","bbox": [31.3173,-29.258,31.6751,-28.9819],"geometry": {"type": "MultiPolygon","coordinates": [[[[31.3466,-29.2369,147.8767],[31.3699,-29.2481,123.2429],[31.3683,-29.2541,120.2908],[31.3755,-29.258,70.2859],[31.3938,-29.2389,21.8107],[31.3964,-29.2391,25.0887],[31.395,-29.2426,17.9275],[31.3962,-29.2445,16.9421],[31.3983,-29.2427,15.9556],[31.4037,-29.2427,29.0856],[31.405,-29.2441,15.9922],[31.4049,-29.2495,11.5154],[31.4105,-29.2508,9.4034],[31.4154,-29.2257,89.949],[31.4332,-29.2372,76.4062],[31.4751,-29.2507,1.7118],[31.4826,-29.2468,0.0],[31.4826,-29.2437,0.0],[31.4885,-29.2371,11.8945],[31.4896,-29.2315,0.0],[31.4988,-29.2257,0.0],[31.5018,-29.2268,0.0],[31.5362,-29.196,5.5185],[31.5651,-29.174,0.9616],[31.5921,-29.1429,4.6371],[31.6004,-29.1357,0.0],[31.6251,-29.1043,0.0],[31.6204,-29.1076,0.0],[31.6146,-29.1151,2.1266],[31.5987,-29.1087,2.0556],[31.6093,-29.1087,0.9287],[31.616,-29.1104,0.0],[31.6204,-29.1029,0.0],[31.6243,-29.1007,2.8562],[31.6354,-29.0876,6.6168],[31.6585,-29.0729,1.2723],[31.6751,-29.0549,0.0],[31.5777,-29.0536,80.7947],[31.5632,-29.0617,21.071],[31.5592,-29.0588,24.9605],[31.5493,-29.0596,34.3512],[31.5433,-29.0523,27.644],[31.5386,-29.0505,22.7314],[31.538,-29.0527,27.3756],[31.5423,-29.056,27.1484],[31.5418,-29.0575,27.3457],[31.5296,-29.0567,24.8306],[31.5266,-29.0513,24.7396],[31.5222,-29.0483,37.6489],[31.5258,-29.0408,36.3316],[31.5243,-29.038,29.6955],[31.5178,-29.0368,31.7434],[31.5145,-29.0383,36.0594],[31.5138,-29.0417,33.5181],[31.519,-29.046,35.6104],[31.5128,-29.0471,37.8063],[31.5106,-29.0458,35.2099],[31.5099,-29.0433,35.5838],[31.5121,-29.0347,38.4715],[31.5008,-29.0366,42.1956],[31.4997,-29.0278,52.237],[31.4834,-29.0243,53.9098],[31.4755,-29.0259,51.0356],[31.4721,-29.025,134.2637],[31.4683,-29.0158,58.9725],[31.4717,-29.0082,69.5675],[31.4699,-29.0043,99.6715],[31.4676,-29.004,135.4898],[31.4674,-29.0093,77.1334],[31.458,-29.0098,89.2082],[31.4541,-29.0168,146.4904],[31.4496,-29.0141,110.1164],[31.4479,-29.0096,105.0248],[31.4501,-29.0042,133.207],[31.4602,-29.0042,126.3621],[31.4617,-29.0015,146.2639],[31.4617,-28.9977,149.3253],[31.459,-28.9917,127.8641],[31.4606,-28.9874,125.3468],[31.458,-28.9819,140.4232],[31.4559,-28.9827,127.4161],[31.4577,-28.9869,130.224],[31.4566,-28.989,138.5116],[31.4457,-28.99,138.2289],[31.4424,-28.9968,147.9563],[31.437,-28.9919,188.0714],[31.4319,-28.9962,165.6111],[31.4275,-28.9943,174.8961],[31.4237,-28.9993,172.0634],[31.4198,-28.9943,211.6698],[31.4138,-28.9926,214.7546],[31.4127,-28.9937,198.5529],[31.4145,-28.9959,194.5811],[31.4142,-28.9981,202.8],[31.4107,-28.997,206.1694],[31.4062,-29.0018,228.0298],[31.4054,-28.9973,228.0144],[31.4023,-28.9991,223.9661],[31.3996,-28.9954,230.7446],[31.3949,-28.9961,237.3186],[31.3938,-28.9977,228.2732],[31.3927,-28.9963,228.2732],[31.3879,-28.9969,236.1992],[31.388,-29.0019,247.6314],[31.3821,-29.0028,253.6396],[31.3809,-29.0063,255.3383],[31.3788,-29.0061,257.2528],[31.3777,-29.0151,272.8557],[31.3804,-29.0247,302.1572],[31.3783,-29.0328,340.2068],[31.3792,-29.0357,331.2303],[31.378,-29.0383,291.7318],[31.3758,-29.0386,287.7063],[31.3748,-29.0428,296.8026],[31.3744,-29.0508,241.8647],[31.3719,-29.055,241.0632],[31.3633,-29.0599,218.2072],[31.3722,-29.0594,259.2653],[31.3756,-29.0625,252.9433],[31.3788,-29.0628,260.6388],[31.3856,-29.0581,293.5278],[31.387,-29.0677,430.5808],[31.3845,-29.069,421.0183],[31.3832,-29.0727,403.0837],[31.3769,-29.0794,386.3837],[31.3729,-29.079,335.6016],[31.3702,-29.0841,284.1353],[31.365,-29.0871,255.629],[31.3615,-29.092,214.5817],[31.3588,-29.091,202.603],[31.3559,-29.0871,185.6997],[31.3459,-29.088,185.1708],[31.3403,-29.0868,174.596],[31.3401,-29.0892,181.923],[31.3471,-29.0933,162.8551],[31.3426,-29.0935,153.1738],[31.340699999999998,-29.0951,157.5871],[31.3468,-29.1009,144.9802],[31.3447,-29.1019,148.6264],[31.3321,-29.0995,174.2646],[31.3325,-29.1024,160.6534],[31.3281,-29.1025,158.8167],[31.3276,-29.104,146.858],[31.334,-29.1091,124.765],[31.3315,-29.1103,121.3785],[31.3252,-29.1089,108.8006],[31.3236,-29.1102,112.2416],[31.325,-29.1129,105.5658],[31.3377,-29.116,96.5979],[31.3336,-29.1209,86.4165],[31.3257,-29.1206,94.4769],[31.3266,-29.1244,80.2493],[31.3334,-29.1269,78.4546],[31.3339,-29.1293,75.2322],[31.3286,-29.1319,74.7191],[31.3213,-29.1274,65.9073],[31.3181,-29.1288,62.519],[31.3256,-29.1379,58.9436],[31.3228,-29.1427,56.0909],[31.3173,-29.1442,61.3801],[31.3183,-29.15,43.5995],[31.3315,-29.1504,42.2485],[31.3367,-29.1545,56.4627],[31.3358,-29.172,40.8073],[31.3362,-29.174,46.5441],[31.3384,-29.1748,55.7026],[31.3416,-29.175,48.3178],[31.3451,-29.1729,34.625],[31.35,-29.1666,53.0176],[31.3471,-29.1429,37.1912],[31.3482,-29.1406,84.3234],[31.3579,-29.136,32.3808],[31.3762,-29.1383,24.5],[31.3622,-29.163,203.2287],[31.3707,-29.1689,152.3751],[31.3527,-29.19,269.9066],[31.354,-29.1909,258.6307],[31.3325,-29.2106,204.6666],[31.3346,-29.2145,197.8909],[31.3389,-29.2112,227.6093],[31.3566,-29.2143,139.2175],[31.3427,-29.2231,189.4663],[31.3437,-29.2243,189.4663],[31.3422,-29.2252,176.2663],[31.3466,-29.2308,132.0387],[31.3442,-29.2304,134.9261],[31.3435,-29.2329,136.0155],[31.3466,-29.2369,147.8767]]],
[[[31.6363,-29.0904,0.3519],[31.6429,-29.084,0.0],[31.636,-29.0888,0.0],[31.6238,-29.1021,0.0],[31.6257,-29.1024,0.0],[31.6282,-29.0979,0.0],[31.6329,-29.0954,0.0],[31.6363,-29.0904,0.3519]]]]}
,"properties": {"GID_3": "ZAF.4.3.2_1","GID_0": "ZAF","country": "SouthAfrica","GID_1": "ZAF.4_1","province": "KwaZulu-Natal","NL_NAME_1": "NA","GID_2": "ZAF.4.3_1","county": "iLembe","NL_NAME_2": "NA","city": "Mandeni","VARNAME_3": "NA","NL_NAME_3": "NA","TYPE_3": "LocalMunicipality","ENGTYPE_3": "LocalMunicipality","CC_3": "KZN291","HASC_3": "NA","name": "Mandeni.city","area_km2": 542.9057,"hist_schema_id": "Elevation0-9000","hist_area_km2": {"-25": 0.0185,"0": 31.1785,"25": 62.6473,"50": 104.5787,"75": 97.4354,"100": 67.3581,"125": 45.1344,"150": 25.5602,"175": 19.0791,"200": 15.19,"225": 13.8575,"250": 10.7086,"275": 7.8018,"300": 5.8759,"325": 4.4306,"350": 5.5428,"375": 5.8023,"400": 8.7493,"425": 6.1914,"450": 3.5778,"475": 1.1679,"500": 0.6674,"525": 0.3523}}}