{"type": "Feature","bbox": [26.4076,-25.098,27.9922,-23.689],"geometry": {"type": "MultiPolygon","coordinates": [[[[27.1834,-24.9485,1011.1043],[27.2261,-24.9639,1001.4678],[27.2091,-24.9956,1004.7948],[27.2035,-25.0332,1027.9099],[27.2317,-25.0361,1044.8972],[27.2236,-25.0674,1055.688],[27.2719,-25.0367,1042.8265],[27.3136,-25.0421,1085.832],[27.337,-25.0878,1122.7061],[27.3825,-25.08,1125.8624],[27.4246,-25.0689,1071.7811],[27.4313,-25.0821,1074.4253],[27.4818,-25.0671,1023.843],[27.4869,-25.0784,1126.234],[27.498,-25.0732,988.7766],[27.5212,-25.076,943.0264],[27.5212,-25.0797,942.6392],[27.5339,-25.0833,996.1863],[27.5323,-25.0944,956.373],[27.5428,-25.098,943.8389],[27.5436,-25.0959,945.9973],[27.5653,-25.0827,1036.8116],[27.5654,-25.0797,1044.4824],[27.5598,-25.0773,1232.5352],[27.5678,-25.0594,1201.4777],[27.594,-25.0294,1008.4968],[27.5975,-24.9849,1014.8673],[27.6286,-24.9737,1146.1681],[27.6847,-24.9858,1052.9425],[27.6873,-24.9944,1058.2402],[27.7388,-24.9831,1133.0902],[27.7591,-24.9689,1109.0708],[27.7889,-24.9665,1127.7942],[27.8217,-24.9746,1164.8651],[27.8331,-24.9735,1157.1812],[27.8867,-24.9883,1069.5817],[27.9129,-24.9911,1051.8848],[27.9465,-25.0012,1025.5266],[27.955,-24.9702,1036.8042],[27.9752,-24.965699999999998,1046.3279],[27.9836,-24.9578,1056.3074],[27.9876,-24.9466,1064.7012],[27.9922,-24.9249,1086.2664],[27.9779,-24.901,1067.1067],[27.9179,-24.8811,1104.4545],[27.8599,-24.8714,1204.7415],[27.8696,-24.8531,1176.8535],[27.8524,-24.8515,1242.9059],[27.8475,-24.8621,1239.5255],[27.831,-24.8494,1397.5278],[27.8371,-24.8137,1316.8922],[27.8707,-24.7684,1383.8491],[27.8267,-24.7133,1165.8625],[27.8647,-24.6952,1233.7662],[27.8866,-24.6231,1157.84],[27.8951,-24.5827,1682.7144],[27.8612,-24.5783,1562.5503],[27.8165,-24.5821,1646.4922],[27.7859,-24.5888,1505.844],[27.7007,-24.5991,1034.5876],[27.6855,-24.5524,1454.8298],[27.6829,-24.5235,1458.0835],[27.662,-24.5178,1179.2737],[27.6759,-24.5007,1356.1917],[27.7189,-24.5006,1433.5941],[27.7284,-24.5035,1465.6863],[27.7338,-24.501,1472.1738],[27.7395,-24.5067,1561.437],[27.7489,-24.4774,1731.9363],[27.685,-24.4687,1723.0966],[27.6533,-24.4813,1829.9424],[27.6159,-24.4694,2031.9058],[27.5809,-24.4711,1837.3018],[27.5747,-24.4282,1310.2471],[27.5366,-24.4424,1217.9314],[27.5068,-24.4559,1113.6364],[27.5072,-24.4518,1119.5383],[27.5095,-24.4498,1165.616],[27.5082,-24.446,1117.587],[27.5096,-24.436,1125.7437],[27.5065,-24.4265,1101.8307],[27.5093,-24.4198,1126.2166],[27.514,-24.4162,1093.0071],[27.5078,-24.4097,1081.8492],[27.508,-24.4042,1075.8892],[27.5014,-24.3887,1054.5737],[27.5018,-24.3687,1035.7483],[27.4937,-24.3552,1021.1149],[27.4979,-24.3535,1019.2091],[27.4946,-24.3457,1012.762],[27.4985,-24.3245,1000.473],[27.491,-24.2885,981.238],[27.4911,-24.2754,979.0377],[27.4904,-24.2731,981.1854],[27.4847,-24.2714,983.8684],[27.483,-24.2608,973.2942],[27.4768,-24.2496,974.4285],[27.4722,-24.2333,979.7944],[27.4755,-24.228,971.9388],[27.5024,-24.2193,973.5884],[27.5355,-24.1721,992.6036],[27.5389,-24.1693,995.6551],[27.5155,-24.1248,980.3538],[27.4951,-24.078,982.6083],[27.4375,-24.1068,933.3778],[27.4367,-24.1038,933.2329],[27.4404,-24.0989,929.2598],[27.4383,-24.0983,927.4616],[27.4382,-24.096,931.3157],[27.435,-24.0924,925.7765],[27.4348,-24.087,927.0556],[27.4308,-24.0862,927.9335],[27.4291,-24.0829,929.8742],[27.41,-24.0824,923.5458],[27.4069,-24.0785,920.975],[27.3915,-24.0692,919.2866],[27.3831,-24.0702,918.058],[27.3795,-24.0642,916.5233],[27.3753,-24.0659,915.7079],[27.3703,-24.0613,914.9282],[27.3681,-24.0612,917.5226],[27.366,-24.0593,914.4108],[27.3648,-24.0526,913.025],[27.3559,-24.0505,910.1356],[27.3531,-24.0461,912.8741],[27.3503,-24.0451,911.1962],[27.3494,-24.041,909.4447],[27.3419,-24.0466,908.8691],[27.3394,-24.0395,908.4646],[27.3331,-24.0429,908.2709],[27.3207,-24.0385,904.1075],[27.3189,-24.0367,904.559],[27.3198,-24.0316,905.4468],[27.3185,-24.0285,902.3036],[27.309,-24.0294,901.881],[27.3075,-24.0257,902.0256],[27.2986,-24.024,901.3056],[27.2963,-24.0208,898.3104],[27.2903,-24.0247,898.5067],[27.2834,-24.022,898.4652],[27.2767,-24.0216,896.3981],[27.2731,-24.0168,896.4772],[27.2657,-24.0138,895.379],[27.2451,-24.0139,892.6647],[27.2323,-24.0028,890.3837],[27.2275,-24.0036,890.9781],[27.2168,-23.9995,888.7176],[27.215,-23.9958,888.2186],[27.2107,-23.9949,888.5157],[27.2032,-23.9866,885.9972],[27.1983,-23.987,885.8175],[27.1921,-23.9832,885.3649],[27.1872,-23.9851,885.124],[27.1874,-23.9826,883.7982],[27.1823,-23.9827,882.6862],[27.1801,-23.9783,882.1134],[27.1732,-23.9728,884.7162],[27.1671,-23.9755,879.7722],[27.1644,-23.9718,881.2874],[27.1547,-23.9712,879.4359],[27.1525,-23.9675,878.4244],[27.1483,-23.965699999999998,877.7483],[27.1437,-23.9666,877.153],[27.1411,-23.9634,877.0692],[27.1336,-23.9594,876.0139],[27.1357,-23.9526,875.3131],[27.1321,-23.9515,874.2658],[27.127,-23.9536,875.2446],[27.1238,-23.9523,873.2803],[27.1234,-23.9494,873.9618],[27.1281,-23.9433,875.0892],[27.1295,-23.9334,872.4745],[27.1253,-23.9328,872.0137],[27.1233,-23.9346,869.8375],[27.1207,-23.9308,870.9921],[27.1141,-23.931,869.9949],[27.112,-23.9243,868.8057],[27.1126,-23.9193,869.0079],[27.1049,-23.9156,867.9872],[27.1061,-23.9086,868.999],[27.1051,-23.9059,866.9135],[27.097,-23.9012,866.205],[27.092,-23.8963,864.6162],[27.0891,-23.8907,864.1078],[27.0896,-23.8884,864.6382],[27.0855,-23.8859,864.568],[27.0819,-23.8863,862.5355],[27.0795,-23.8826,863.9552],[27.0799,-23.8756,863.8994],[27.0764,-23.8755,863.121],[27.0733,-23.8719,861.6694],[27.0738,-23.8665,861.4518],[27.0716,-23.865,860.4136],[27.0685,-23.8658,861.5112],[27.0648,-23.8628,860.461],[27.062,-23.8567,859.2939],[27.0566,-23.8512,857.8528],[27.0584,-23.8359,854.924],[27.0539,-23.8251,853.8622],[27.0424,-23.8214,852.5412],[27.0421,-23.8163,851.5131],[27.0401,-23.8152,850.9406],[27.0398,-23.8125,853.9368],[27.0324,-23.8083,849.3284],[27.0331,-23.8025,847.3511],[27.0298,-23.797,848.218],[27.0225,-23.7955,846.5623],[27.0181,-23.7894,844.5983],[27.0111,-23.791,867.2635],[27.0012,-23.7749,852.217],[27.0111,-23.7693,844.5068],[27.007,-23.7691,844.3857],[27.0097,-23.7618,842.775],[27.0054,-23.7548,840.6857],[27.0089,-23.7487,840.5031],[27.0082,-23.7466,841.2142],[27.005,-23.7455,841.0039],[27.0084,-23.7439,841.1275],[27.0061,-23.7401,840.3897],[27.0068,-23.7371,840.1898],[27.0134,-23.7348,854.6665],[27.0151,-23.7316,861.1351],[27.0072,-23.7321,840.2065],[27.0055,-23.7274,839.8344],[27.0054,-23.7153,845.8073],[26.9964,-23.7147,837.0545],[26.9948,-23.71,838.2258],[26.9924,-23.7103,835.6018],[26.9882,-23.7066,836.965],[26.9878,-23.7033,836.8198],[26.99,-23.6987,838.0861],[26.9923,-23.7031,836.9561],[26.9949,-23.7002,837.2715],[26.997,-23.7007,837.3283],[26.9986,-23.7039,835.2725],[27.0014,-23.7027,835.4179],[26.9987,-23.6989,837.8421],[27.0014,-23.6974,836.1523],[27.0002,-23.6937,834.8018],[27.0011,-23.689,836.5892],[26.9794,-23.6966,837.2338],[26.9711,-23.7028,837.9062],[26.9735,-23.7071,839.4888],[26.9743,-23.7134,839.8405],[26.9701,-23.7163,839.3235],[26.9683,-23.7234,838.4713],[26.9705,-23.728,840.0764],[26.9666,-23.7299,840.3378],[26.9667,-23.7337,840.2864],[26.9614,-23.7469,839.2529],[26.9654,-23.7545,839.2814],[26.9628,-23.7635,840.2938],[26.9655,-23.7689,840.1239],[26.9638,-23.7714,841.3066],[26.964,-23.7771,841.1418],[26.9575,-23.784,842.3207],[26.9519,-23.794,839.2546],[26.9534,-23.8055,841.3667],[26.9491,-23.8139,840.0287],[26.9488,-23.8235,841.2059],[26.9545,-23.8262,840.9797],[26.9587,-23.8308,840.245],[26.9509,-23.8415,842.6231],[26.9398,-23.8439,841.5726],[26.9323,-23.8511,840.6716],[26.9339,-23.8568,844.0752],[26.937,-23.8564,846.3513],[26.9432,-23.8595,846.7482],[26.9474,-23.8598,843.8619],[26.951,-23.8627,843.6326],[26.9539,-23.8671,845.2082],[26.9552,-23.874,849.0642],[26.9527,-23.8784,845.451],[26.9485,-23.8804,844.6447],[26.9428,-23.8867,844.0469],[26.9434,-23.89,847.1341],[26.9412,-23.894,845.868],[26.9425,-23.9034,845.2347],[26.9278,-23.9224,848.2306],[26.9317,-23.9368,846.5283],[26.9322,-23.9554,846.9504],[26.9268,-23.9613,850.0333],[26.9214,-23.9637,848.4271],[26.9146,-23.9714,849.0782],[26.9111,-23.9889,854.3986],[26.9128,-23.9962,850.9832],[26.9106,-23.9995,853.288],[26.9101,-24.004,855.444],[26.9125,-24.012,854.9637],[26.9093,-24.0284,853.0966],[26.9038,-24.0327,854.0634],[26.8942,-24.0446,857.9766],[26.8892,-24.0548,852.176],[26.8889,-24.0742,855.6741],[26.8848,-24.0895,858.681],[26.8817,-24.0941,855.7419],[26.8632,-24.0997,858.5613],[26.8602,-24.1066,857.6653],[26.8642,-24.1124,859.2156],[26.8676,-24.1239,861.6573],[26.8617,-24.1385,859.1552],[26.8665,-24.1437,858.9019],[26.8745,-24.147,858.258],[26.8791,-24.1601,859.5461],[26.8787,-24.1656,857.7258],[26.8759,-24.1691,862.7544],[26.8715,-24.1714,861.5681],[26.8655,-24.172,860.2631],[26.8645,-24.1791,863.1843],[26.8675,-24.1821,863.8079],[26.8687,-24.1904,861.6989],[26.8718,-24.1912,861.4899],[26.8755,-24.1895,865.0538],[26.8798,-24.1914,865.2139],[26.8812,-24.1877,864.47],[26.8833,-24.1896,863.725],[26.8801,-24.1929,865.2139],[26.8809,-24.1965,863.0081],[26.8786,-24.1962,865.2753],[26.8794,-24.201,864.1378],[26.873,-24.2069,863.7704],[26.871,-24.2152,862.1852],[26.8622,-24.2163,863.0587],[26.8626,-24.2197,863.3784],[26.8593,-24.2231,863.0587],[26.8605,-24.2299,864.7745],[26.8618,-24.2315,863.9329],[26.8639,-24.2305,864.4414],[26.8646,-24.2351,865.2037],[26.8625,-24.2362,864.5359],[26.8626,-24.238,864.5923],[26.866,-24.2392,864.6736],[26.8668,-24.2427,865.6041],[26.8691,-24.2441,864.3915],[26.8653,-24.2457,865.3781],[26.8664,-24.2481,865.6333],[26.8644,-24.2495,867.4487],[26.8659,-24.251,865.5347],[26.8595,-24.2531,865.5339],[26.8591,-24.2554,866.265],[26.8575,-24.2549,865.3058],[26.8548,-24.2597,866.0036],[26.8561,-24.2604,866.0036],[26.8557,-24.2635,866.3528],[26.854,-24.2637,866.6527],[26.8537,-24.2622,865.1501],[26.8513,-24.263,865.4114],[26.8517,-24.2643,865.4114],[26.85,-24.265,865.4104],[26.8514,-24.2675,865.6716],[26.8495,-24.2663,865.6277],[26.8473,-24.2696,865.3458],[26.8457,-24.2693,865.9382],[26.8427,-24.2744,865.3316],[26.8408,-24.2747,865.7105],[26.8389,-24.2709,866.7169],[26.8385,-24.2726,865.9492],[26.8356,-24.2734,867.7313],[26.834,-24.2701,867.129],[26.8328,-24.2742,868.1275],[26.8286,-24.2708,868.1931],[26.829,-24.273,867.5307],[26.825,-24.273,867.9715],[26.8233,-24.2797,867.7469],[26.8223,-24.2783,867.8625],[26.8188,-24.2792,868.9735],[26.8194,-24.2819,868.2235],[26.8144,-24.2852,869.1931],[26.8156,-24.2866,868.311],[26.8108,-24.2855,868.9767],[26.8099,-24.2882,868.7059],[26.8077,-24.2876,868.8658],[26.8084,-24.2894,869.3218],[26.8054,-24.2877,869.0505],[26.8013,-24.2881,868.3646],[26.8033,-24.2919,869.191],[26.8019,-24.2944,869.6774],[26.803,-24.2964,869.7657],[26.8008,-24.2998,871.2905],[26.7975,-24.2986,870.6766],[26.7978,-24.3009,870.6362],[26.7897,-24.3013,870.3114],[26.7858,-24.3066,870.173],[26.7839,-24.3054,870.534],[26.7816,-24.299,870.9267],[26.7807,-24.3003,870.8965],[26.7757,-24.3007,870.7989],[26.7765,-24.3022,871.1388],[26.7733,-24.3051,871.1563],[26.7668,-24.3058,871.2086],[26.7653,-24.3044,871.5135],[26.7635,-24.3057,871.3573],[26.7625,-24.3104,872.3152],[26.7545,-24.3112,873.5393],[26.755,-24.3126,872.3273],[26.7519,-24.3132,872.5878],[26.7461,-24.3114,872.1932],[26.7471,-24.3065,872.6244],[26.742,-24.3044,872.9563],[26.7412,-24.3067,873.8064],[26.7392,-24.3043,873.4795],[26.7334,-24.3041,873.7722],[26.7311,-24.3085,873.9078],[26.729,-24.3089,873.3557],[26.731,-24.3111,874.1771],[26.7286,-24.3115,874.004],[26.7296,-24.3125,874.1615],[26.7277,-24.3128,874.004],[26.7279,-24.315,874.4879],[26.7264,-24.3136,874.2309],[26.7228,-24.3165,874.4445],[26.7201,-24.3167,874.5906],[26.7201,-24.3198,875.0812],[26.7165,-24.3189,874.5574],[26.7156,-24.3206,874.7432],[26.7113,-24.3209,875.2651],[26.7116,-24.3192,875.2577],[26.7099,-24.3182,874.8906],[26.7096,-24.32,875.0818],[26.7076,-24.3202,875.3053],[26.709,-24.3216,875.6199],[26.706,-24.3204,875.3108],[26.7039,-24.322,875.168],[26.7052,-24.3248,875.6301],[26.7021,-24.3255,876.1663],[26.7008,-24.3304,876.3681],[26.7025,-24.3323,875.7476],[26.7005,-24.3331,876.9636],[26.7026,-24.3348,876.4779],[26.6969,-24.3357,877.0789],[26.697,-24.3392,877.2167],[26.6894,-24.3368,876.9529],[26.6852,-24.3381,877.2126],[26.6841,-24.342,877.9173],[26.6757,-24.344,877.5582],[26.6755,-24.3461,877.8489],[26.6767,-24.345,878.4243],[26.6776,-24.3463,878.3774],[26.6748,-24.3487,878.2159],[26.6757,-24.3512,878.2778],[26.6742,-24.3502,878.2657],[26.674,-24.3518,878.6589],[26.6724,-24.3512,878.4082],[26.671,-24.3546,878.7675],[26.6686,-24.3536,878.4694],[26.6702,-24.3559,878.7675],[26.6678,-24.3551,878.965],[26.6672,-24.3605,879.4636],[26.6641,-24.362,878.9846],[26.6657,-24.362,879.7947],[26.6681,-24.3669,880.311],[26.6701,-24.3677,879.9111],[26.6687,-24.3729,879.7959],[26.667,-24.3719,880.1897],[26.6652,-24.3737,880.4987],[26.6671,-24.3744,879.3962],[26.6647,-24.3775,880.735],[26.6657,-24.3787,880.6017],[26.6629,-24.3795,881.5827],[26.6637,-24.3812,881.7336],[26.658,-24.3812,881.7349],[26.6588,-24.385,881.9432],[26.6558,-24.386,882.2318],[26.6466,-24.3818,882.7948],[26.6441,-24.383,882.6844],[26.6444,-24.3845,882.6844],[26.6356,-24.3875,882.4466],[26.6373,-24.3902,883.2119],[26.6354,-24.3899,883.0143],[26.636,-24.392,883.3055],[26.6346,-24.392,883.3055],[26.6327,-24.3956,884.1487],[26.6256,-24.3937,884.2211],[26.619,-24.3995,884.7134],[26.6171,-24.3984,885.2107],[26.6139,-24.4025,884.6864],[26.6131,-24.4066,884.7859],[26.6085,-24.4071,885.7111],[26.6031,-24.4103,886.0468],[26.6001,-24.409,885.6287],[26.5975,-24.4102,887.1664],[26.5959,-24.4086,886.0175],[26.5946,-24.4102,886.1755],[26.5902,-24.4092,886.6195],[26.5876,-24.4106,886.7982],[26.5898,-24.4123,888.3365],[26.5882,-24.4127,886.8892],[26.5861,-24.4207,888.7189],[26.5853,-24.4223,888.2966],[26.5816,-24.4229,888.1265],[26.5818,-24.4263,888.2147],[26.5841,-24.4264,888.4356],[26.5814,-24.429,888.3829],[26.5789,-24.4286,888.5178],[26.5752,-24.431,888.8696],[26.5737,-24.4329,888.9449],[26.5762,-24.4332,888.755],[26.5746,-24.4346,889.6675],[26.5713,-24.4336,889.1569],[26.5656,-24.4361,888.5289],[26.5677,-24.4364,889.498],[26.5682,-24.438,889.7405],[26.566,-24.4392,889.616],[26.566,-24.4445,890.3144],[26.5624,-24.4478,889.8345],[26.5597,-24.4536,890.5374],[26.5527,-24.4518,890.4561],[26.5509,-24.4544,891.2975],[26.5502,-24.461,891.5731],[26.5467,-24.4654,892.7776],[26.5407,-24.4634,892.4863],[26.538,-24.4662,892.7545],[26.5386,-24.4697,893.3951],[26.536,-24.4727,893.2964],[26.5363,-24.4751,892.7881],[26.528199999999998,-24.4763,894.3013],[26.528199999999998,-24.4776,894.3013],[26.53,-24.4776,894.8906],[26.5292,-24.479,894.4403],[26.5266,-24.4785,894.6529],[26.5194,-24.4842,895.004],[26.5103,-24.488,895.4191],[26.5117,-24.4952,896.1986],[26.5096,-24.4946,896.5001],[26.511,-24.4995,897.5348],[26.5102,-24.5028,896.8434],[26.5065,-24.5049,899.0834],[26.506,-24.5069,899.7568],[26.5029,-24.5064,899.6641],[26.5015,-24.5084,899.4006],[26.5011,-24.51,899.0212],[26.5028,-24.5106,899.0832],[26.5011,-24.5138,900.5115],[26.5002,-24.5228,899.7529],[26.4925,-24.5344,901.4237],[26.4927,-24.5361,901.1507],[26.4897,-24.5386,899.4133],[26.4877,-24.5511,901.7959],[26.4812,-24.5571,902.5099],[26.482,-24.5669,902.6058],[26.4716,-24.5882,904.7097],[26.4616,-24.5963,905.0057],[26.4518,-24.6106,906.3752],[26.4474,-24.6131,906.498],[26.4415,-24.6119,907.2721],[26.4394,-24.6152,910.3019],[26.4331,-24.6185,907.6917],[26.4282,-24.6195,909.7352],[26.4263,-24.6178,906.4877],[26.4222,-24.6251,907.675],[26.4214,-24.634,908.1089],[26.4153,-24.6408,911.2783],[26.4101,-24.6438,916.7165],[26.4076,-24.6489,917.0706],[26.4114,-24.652,916.2489],[26.4276,-24.6582,917.9784],[26.427,-24.6652,917.3152],[26.4218,-24.6708,917.9166],[26.4228,-24.6817,918.3557],[26.4213,-24.6916,922.3243],[26.4272,-24.6967,923.5491],[26.4197,-24.716,925.8019],[26.4226,-24.7206,925.7121],[26.4183,-24.7299,926.2759],[26.4282,-24.7538,928.7001],[26.4269,-24.7579,928.3528],[26.4297,-24.765,929.0511],[26.426,-24.7702,929.3276],[26.4263,-24.772,931.2941],[26.4354,-24.7829,931.5158],[26.4446,-24.7908,930.4816],[26.4483,-24.7921,931.1399],[26.454,-24.7888,931.0762],[26.4595,-24.7905,932.3525],[26.4616,-24.7953,931.3709],[26.4613,-24.8001,934.3211],[26.4583,-24.8095,933.486],[26.5286,-24.8138,1121.6119],[26.5665,-24.8199,1106.429],[26.601,-24.8158,1045.8368],[26.622,-24.8099,1030.9932],[26.6993,-24.8673,1138.1487],[26.7051,-24.857,1103.9502],[26.7513,-24.883,1096.6473],[26.7795,-24.8377,1092.3114],[26.9433,-24.7814,1114.5471],[26.9426,-24.7763,1107.4757],[26.9807,-24.7758,1100.9968],[26.9759,-24.7207,1053.3055],[27.0263,-24.7186,1067.561],[27.0412,-24.887,1066.0476],[27.1012,-24.9,1023.1591],[27.1439,-24.9462,1012.5939],[27.1541,-24.979,1031.6758],[27.1834,-24.9485,1011.1043]]]]}
,"properties": {"GID_3": "ZAF.5.5.6_1","GID_0": "ZAF","country": "SouthAfrica","GID_1": "ZAF.5_1","province": "Limpopo","NL_NAME_1": "NA","GID_2": "ZAF.5.5_1","county": "Waterberg","NL_NAME_2": "NA","city": "Thabazimbi","VARNAME_3": "NA","NL_NAME_3": "NA","TYPE_3": "LocalMunicipality","ENGTYPE_3": "LocalMunicipality","CC_3": "LIM361","HASC_3": "NA","name": "Thabazimbi.city","area_km2": 11212.613,"hist_schema_id": "Elevation0-9000","hist_area_km2": {"825": 2.446,"850": 97.942,"875": 727.778,"900": 1291.737,"925": 1331.398,"950": 1453.29,"975": 1313.916,"1000": 1145.889,"1025": 854.361,"1050": 674.374,"1075": 481.875,"1100": 310.534,"1125": 224.519,"1150": 185.655,"1175": 161.901,"1200": 161.61,"1225": 134.88,"1250": 110.262,"1275": 91.089,"1300": 70.57,"1325": 65.606,"1350": 57.325,"1375": 50.33,"1400": 43.82,"1425": 37.159,"1450": 29.627,"1475": 24.769,"1500": 22.131,"1525": 17.14,"1550": 11.402,"1575": 7.087,"1600": 4.989,"1625": 3.276,"1650": 1.698,"1675": 1.524,"1700": 1.486,"1725": 1.061,"1750": 0.907,"1775": 0.888,"1800": 1.274,"1825": 0.907,"1850": 0.367,"1875": 0.193,"1900": 0.309,"1925": 0.328,"1950": 0.328,"2000": 0.193,"2025": 0.212,"2050": 0.116}}}