{"type": "Feature","bbox": [25.8873,-33.4957,29.0948,-31.7871],"geometry": {"type": "MultiPolygon","coordinates": [[[[28.0738,-32.9073,0.0],[28.0738,-32.9071,0.0],[28.0734,-32.9071,0.0],[28.0738,-32.9073,0.0]]],
[[[28.0742,-32.9075,0.0],[28.0743,-32.9074,0.0],[28.0739,-32.9074,0.0],[28.0742,-32.9075,0.0]]],
[[[28.0745,-32.9076,0.0],[28.0747,-32.9077,0.0],[28.0749,-32.9077,0.0],[28.0749,-32.9076,0.0],[28.0745,-32.9076,0.0]]],
[[[27.4877,-33.2789,0.0],[27.4876,-33.2793,0.0],[27.4884,-33.2793,9.2945],[27.4881,-33.2791,0.0],[27.4877,-33.2789,0.0]]],
[[[27.4872,-33.2785,0.0],[27.4864,-33.278,0.0],[27.4863,-33.2779,3.9021],[27.4865,-33.2785,0.0],[27.4872,-33.2785,0.0]]],
[[[27.4857,-33.2776,3.9021],[27.4857,-33.2779,3.9021],[27.4862,-33.2779,3.9021],[27.4859,-33.2778,3.9021],[27.4857,-33.2776,3.9021]]],
[[[27.4843,-33.2765,3.9021],[27.4843,-33.2768,3.9021],[27.4847,-33.2768,3.9021],[27.4845,-33.2767,3.9021],[27.4843,-33.2765,3.9021]]],
[[[27.4757,-33.2788,0.0374],[27.4755,-33.2788,0.0374],[27.4756,-33.2793,0.0374],[27.4757,-33.2793,0.0374],[27.4757,-33.2788,0.0374]]],
[[[27.4855,-33.2775,3.9021],[27.4854,-33.2776,3.9021],[27.4856,-33.2776,3.9021],[27.4855,-33.2775,3.9021]]],
[[[27.4821,-33.2779,0.638],[27.484,-33.276,5.092],[27.4807,-33.2721,0.0],[27.4754,-33.2774,0.0],[27.4768,-33.2804,0.1225],[27.4818,-33.2793,0.6009],[27.4821,-33.2779,0.638]]],
[[[27.484,-33.276,5.092],[27.484,-33.2765,0.0],[27.4842,-33.2765,0.0],[27.484,-33.276,5.092]]],
[[[27.4786,-33.2724,0.0],[27.4788,-33.2724,0.0],[27.4788,-33.2722,0.0],[27.4786,-33.2723,0.0],[27.4786,-33.2724,0.0]]],
[[[27.479,-33.2721,0.0],[27.4796,-33.2721,0.0],[27.4796,-33.272,0.0],[27.4792,-33.272,0.0],[27.479,-33.2721,0.0]]],
[[[27.1754,-33.4696,0.553],[27.1865,-33.4651,0.0],[27.1965,-33.4629,11.8117],[27.2101,-33.4624,7.3521],[27.215699999999998,-33.4599,0.3851],[27.226,-33.4496,0.0],[27.2271,-33.4449,0.0],[27.2324,-33.4376,3.9728],[27.2376,-33.4362,0.0],[27.2412,-33.4332,0.0],[27.2412,-33.4313,0.3002],[27.2676,-33.4204,0.0],[27.3057,-33.394,0.0],[27.3176,-33.389,-0.1502],[27.3263,-33.3829,1.4596],[27.3368,-33.3799,0.0],[27.3551,-33.3635,0.6852],[27.3615,-33.3607,2.5029],[27.3657,-33.3607,1.8982],[27.4007,-33.3435,0.0],[27.4129,-33.339,0.0941],[27.416,-33.3354,0.4044],[27.4226,-33.3326,0.0193],[27.4293,-33.3221,0.0],[27.436,-33.3174,0.6401],[27.4476,-33.3115,0.0],[27.4613,-33.3076,0.0],[27.4785,-33.2982,0.0],[27.4813,-33.2951,2.3785],[27.4804,-33.2896,1.9791],[27.4868,-33.2818,0.1998],[27.4799,-33.2804,0.0],[27.4699,-33.2857,0.1332],[27.4596,-33.2829,0.1363],[27.4565,-33.2801,0.0],[27.4587,-33.2732,0.0],[27.4555,-33.2641,18.306],[27.4506,-33.2597,0.3391],[27.4416,-33.2573,0.4137],[27.4402,-33.2539,0.3262],[27.4403,-33.2464,2.6013],[27.4359,-33.2401,0.5797],[27.4303,-33.2372,1.5213],[27.42,-33.2369,20.0616],[27.4133,-33.2343,0.917],[27.4127,-33.2319,1.0547],[27.416,-33.2222,4.3457],[27.4335,-33.2099,25.2418],[27.4323,-33.1999,3.3173],[27.4294,-33.1957,44.6241],[27.4247,-33.193,3.0584],[27.4058,-33.193,21.9388],[27.3978,-33.189,12.1392],[27.3947,-33.1847,8.6376],[27.3862,-33.1864,41.2039],[27.3774,-33.1845,16.8196],[27.3749,-33.1801,44.1549],[27.3773,-33.1744,22.97],[27.3784,-33.1654,15.7748],[27.3797,-33.1639,15.507],[27.389,-33.162,30.5235],[27.391,-33.1564,19.544],[27.3875,-33.152,23.4497],[27.3731,-33.1537,33.1028],[27.3695,-33.1506,32.1076],[27.3952,-33.1332,151.4852],[27.4167,-33.1291,235.3323],[27.4365,-33.1302,218.0998],[27.4563,-33.1231,204.7102],[27.4595,-33.1176,227.8853],[27.4586,-33.1094,211.4128],[27.4516,-33.1052,228.2014],[27.4494,-33.1,251.0357],[27.4435,-33.0939,233.7141],[27.4406,-33.0849,224.3084],[27.4442,-33.0798,202.8693],[27.4429,-33.0724,140.6885],[27.4455,-33.072,126.2875],[27.4422,-33.0676,134.1942],[27.4387,-33.0678,134.6354],[27.4374,-33.0587,229.6039],[27.4474,-33.0489,279.7108],[27.4588,-33.0452,264.9862],[27.4836,-33.0307,339.7852],[27.4788,-33.026,293.008],[27.4997,-33.0078,348.1016],[27.5039,-32.9952,401.4349],[27.4867,-32.9928,456.427],[27.473,-32.9952,439.2135],[27.4549,-32.9909,467.7853],[27.44,-32.9898,436.3657],[27.4179,-33.0058,389.4527],[27.4014,-32.9775,489.2019],[27.368,-32.9662,499.4747],[27.3656,-32.9519,536.9413],[27.3865,-32.9439,429.5497],[27.389,-32.9373,407.9033],[27.3956,-32.9323,398.2564],[27.4047,-32.935,367.221],[27.4054,-32.9372,370.2498],[27.4099,-32.9353,361.5416],[27.4189,-32.9379,341.2867],[27.4195,-32.9346,339.5266],[27.417,-32.9311,332.3775],[27.4174,-32.9257,335.5383],[27.4102,-32.9207,336.0161],[27.4088,-32.9162,336.4924],[27.4064,-32.9193,340.8683],[27.4079,-32.9269,343.9162],[27.406,-32.9276,344.9608],[27.3972,-32.9214,351.277],[27.394,-32.9266,377.6836],[27.3911,-32.9193,374.2236],[27.3927,-32.9158,365.8746],[27.3897,-32.9144,382.743],[27.3852,-32.9161,375.483],[27.3655,-32.9177,388.0033],[27.3553,-32.9137,399.9569],[27.3509,-32.914,399.4403],[27.3486,-32.9147,395.7277],[27.3486,-32.9162,395.7277],[27.3532,-32.9172,410.0146],[27.3542,-32.9199,401.4564],[27.351,-32.9218,410.5141],[27.3483,-32.9212,403.4547],[27.3454,-32.9193,403.6995],[27.3438,-32.9122,410.5089],[27.339,-32.9095,440.3408],[27.3369,-32.9099,414.9543],[27.3384,-32.9132,435.6362],[27.3374,-32.915,439.4493],[27.3325,-32.912,438.5114],[27.3295,-32.9128,435.5113],[27.3286,-32.9193,431.8372],[27.3309,-32.9271,440.4305],[27.3269,-32.926,457.3876],[27.3247,-32.928,463.0011],[27.3134,-32.9238,468.8285],[27.312,-32.9267,469.2465],[27.3079,-32.9255,467.4289],[27.3061,-32.9273,464.0064],[27.2996,-32.9219,470.0588],[27.2952,-32.9244,472.5589],[27.2841,-32.9262,501.322],[27.2868,-32.9291,495.7659],[27.2848,-32.9298,491.1245],[27.2793,-32.9251,493.0276],[27.2707,-32.9279,496.6961],[27.2694,-32.9219,496.6899],[27.2677,-32.9211,499.9173],[27.2651,-32.9207,501.1386],[27.261,-32.9229,501.9184],[27.2568,-32.9197,503.2372],[27.2545,-32.9204,505.0215],[27.2444,-32.9179,513.1119],[27.2366,-32.921,518.2645],[27.235,-32.9184,523.5511],[27.2374,-32.9148,527.3574],[27.2318,-32.9084,528.7173],[27.2317,-32.896,538.6044],[27.2221,-32.8985,537.1089],[27.2179,-32.8901,468.5201],[27.2185,-32.8859,539.9614],[27.221,-32.8876,507.5494],[27.2256,-32.8853,513.9211],[27.2216,-32.8852,513.0736],[27.2236,-32.883,516.5688],[27.2204,-32.8786,522.0175],[27.2268,-32.8638,541.0295],[27.2304,-32.8625,532.3364],[27.2333,-32.8526,540.0309],[27.2308,-32.8506,539.0944],[27.2307,-32.8518,540.9652],[27.2269,-32.8513,571.2731],[27.2234,-32.8549,575.5586],[27.2162,-32.8549,581.3195],[27.2041,-32.8493,589.1294],[27.2038,-32.8444,565.5142],[27.1772,-32.8425,578.1087],[27.1578,-32.8385,620.8601],[27.1588,-32.832,612.5319],[27.1618,-32.8323,621.6237],[27.1625,-32.8285,658.2374],[27.1773,-32.8174,715.162],[27.1771,-32.8154,686.3218],[27.1682,-32.8117,690.1044],[27.1695,-32.8092,671.9905],[27.172,-32.8115,648.1177],[27.178,-32.8127,631.2866],[27.1777,-32.811,648.4636],[27.1819,-32.808,634.9234],[27.182,-32.8053,655.4408],[27.1846,-32.8041,643.4688],[27.1851,-32.7997,690.7665],[27.1902,-32.798,643.5264],[27.1889,-32.7974,662.8333],[27.2154,-32.7926,664.9045],[27.219,-32.7835,679.0919],[27.2127,-32.7654,993.9542],[27.2344,-32.7599,1183.3882],[27.2407,-32.7536,1249.6532],[27.2414,-32.745,1185.7395],[27.2383,-32.7405,1149.0134],[27.2306,-32.7174,1331.5986],[27.232,-32.7145,1341.1158],[27.2596,-32.6896,1219.5898],[27.275,-32.6843,1054.3672],[27.2872,-32.6849,1048.9395],[27.293,-32.681,960.954],[27.2932,-32.6757,918.5563],[27.2974,-32.6767,917.5608],[27.3391,-32.674,894.4664],[27.3546,-32.6744,880.4916],[27.3706,-32.6756,878.649],[27.3873,-32.6798,850.6439],[27.3713,-32.6998,812.7048],[27.3824,-32.7249,846.0387],[27.347,-32.7122,774.3946],[27.3437,-32.7181,547.926],[27.3466,-32.7189,569.9929],[27.3425,-32.7247,564.3798],[27.333,-32.7292,768.8459],[27.3331,-32.7308,842.7137],[27.3371,-32.7327,843.3118],[27.3339,-32.7326,870.2529],[27.3261,-32.7398,604.6873],[27.3385,-32.7616,490.5833],[27.3335,-32.7642,485.9411],[27.3328,-32.7694,518.2883],[27.3305,-32.7724,532.2408],[27.3299,-32.7771,557.0471],[27.3324,-32.7842,618.1729],[27.3226,-32.7884,640.1101],[27.3303,-32.7915,589.5669],[27.3349,-32.7909,590.9297],[27.342,-32.7929,568.6525],[27.3426,-32.7946,537.4814],[27.3385,-32.7943,562.231],[27.3383,-32.802,533.8865],[27.3402,-32.8074,546.567],[27.3485,-32.8125,543.2437],[27.3563,-32.8274,460.0644],[27.3662,-32.8378,472.0601],[27.3787,-32.836,394.7207],[27.378,-32.8328,395.7642],[27.3804,-32.8281,397.8839],[27.3932,-32.8226,403.3873],[27.3945,-32.8191,411.0241],[27.3936,-32.814,406.7919],[27.3862,-32.8139,408.3642],[27.3849,-32.8102,455.1217],[27.3854,-32.8014,505.9673],[27.3929,-32.8005,532.3776],[27.3954,-32.8025,549.0193],[27.4161,-32.8007,569.3879],[27.4193,-32.7996,580.9566],[27.4213,-32.796,572.429],[27.4244,-32.8034,590.3033],[27.4501,-32.8136,558.7896],[27.456,-32.7974,536.9941],[27.4561,-32.7816,591.2263],[27.4622,-32.7796,586.3993],[27.467,-32.7722,537.39],[27.4751,-32.7727,519.2672],[27.4767,-32.7611,530.9516],[27.4849,-32.758,546.4742],[27.4899,-32.7595,565.1165],[27.4927,-32.7516,596.4661],[27.4933,-32.7436,608.6025],[27.5035,-32.7271,628.9014],[27.5153,-32.7159,677.0265],[27.5538,-32.7252,657.6659],[27.5356,-32.7395,652.0037],[27.5192,-32.7466,614.7676],[27.5256,-32.7666,562.2089],[27.5364,-32.7926,436.1977],[27.543,-32.796,428.7139],[27.5459,-32.7948,424.142],[27.5577,-32.8017,419.2686],[27.5654,-32.7986,411.8627],[27.565,-32.7967,409.9395],[27.5706,-32.7966,405.8993],[27.5746,-32.7989,402.9988],[27.5769,-32.8043,399.0584],[27.5801,-32.8048,399.0738],[27.5794,-32.8084,397.3515],[27.5847,-32.8099,392.7126],[27.5869,-32.8131,429.7777],[27.5897,-32.8118,404.2316],[27.5925,-32.8076,393.467],[27.5991,-32.8076,389.0092],[27.6075,-32.81,378.8608],[27.6083,-32.8128,391.0758],[27.6035,-32.8176,384.5477],[27.6114,-32.8208,370.1082],[27.6136,-32.82,370.0194],[27.6135,-32.8168,371.7744],[27.6169,-32.8153,378.4719],[27.6213,-32.8176,368.2144],[27.6214,-32.8202,372.2713],[27.6258,-32.8207,362.958],[27.6295,-32.8231,373.0068],[27.6305,-32.8221,372.2805],[27.6258,-32.8149,352.5204],[27.6274,-32.8123,360.1699],[27.6352,-32.8173,349.6589],[27.6396,-32.8135,345.4691],[27.6473,-32.8116,342.9445],[27.6519,-32.8207,347.78],[27.6462,-32.8222,341.0749],[27.6456,-32.8244,338.6907],[27.6552,-32.8279,353.1145],[27.6519,-32.8397,335.873],[27.6565,-32.8413,319.9658],[27.6589,-32.8404,330.136],[27.6566,-32.8376,326.6957],[27.6653,-32.8363,335.4101],[27.6613,-32.8322,329.6695],[27.6661,-32.8306,343.7537],[27.6671,-32.8284,335.8081],[27.674,-32.8344,441.335],[27.6918,-32.8178,457.411],[27.7043,-32.8155,453.9735],[27.7159,-32.8086,453.4168],[27.7205,-32.7999,497.4283],[27.7158,-32.7973,495.9915],[27.7078,-32.7783,507.0936],[27.7273,-32.7839,486.9453],[27.7424,-32.7777,477.7794],[27.763,-32.7784,471.7416],[27.7771,-32.7661,338.2646],[27.7793,-32.7663,348.6698],[27.7818,-32.7578,365.7511],[27.7873,-32.7598,352.0644],[27.7857,-32.7551,321.434],[27.7822,-32.7525,326.891],[27.7831,-32.7487,311.3213],[27.7872,-32.7491,309.3086],[27.7894,-32.7535,380.9375],[27.7921,-32.7461,330.0924],[27.7946,-32.7461,306.2185],[27.7953,-32.7533,309.2867],[27.7979,-32.7559,289.6512],[27.8026,-32.7562,295.3342],[27.8041,-32.7642,287.996],[27.8152,-32.7611,275.2735],[27.8164,-32.7653,336.8674],[27.8101,-32.7738,268.3633],[27.8089,-32.7787,277.1534],[27.8103,-32.781,264.2791],[27.8201,-32.7825,258.0161],[27.83,-32.7803,260.9221],[27.8327,-32.7819,262.271],[27.833,-32.7864,309.4932],[27.8241,-32.7933,246.3095],[27.8231,-32.7976,282.3683],[27.8228,-32.8044,264.5872],[27.8258,-32.8105,238.9142],[27.8251,-32.814,236.0151],[27.8276,-32.8155,240.4447],[27.8423,-32.8074,228.5294],[27.8471,-32.803,220.1184],[27.8448,-32.794,207.5182],[27.8498,-32.7916,205.4687],[27.8524,-32.7927,225.3388],[27.856,-32.7965,199.8986],[27.8551,-32.8012,201.1328],[27.8566,-32.803,215.0757],[27.8585,-32.7973,214.456],[27.8645,-32.7942,269.8033],[27.8644,-32.7863,324.7429],[27.8772,-32.7871,350.671],[27.8829,-32.7855,349.6463],[27.8858,-32.7741,400.7444],[27.8904,-32.7723,384.0056],[27.8969,-32.7658,385.9197],[27.8999,-32.7565,404.7991],[27.9054,-32.7583,414.9915],[27.9321,-32.7444,378.5702],[27.9498,-32.74,307.0726],[27.9471,-32.7524,251.5507],[27.9286,-32.7742,444.693],[27.9504,-32.8057,317.3651],[27.9615,-32.8242,289.3902],[27.9615,-32.8286,243.5479],[27.9635,-32.8314,194.5743],[27.965,-32.8282,217.3619],[27.9683,-32.8268,234.4125],[27.9737,-32.8292,248.2863],[27.9755,-32.8279,274.5481],[27.9812,-32.8414,170.8962],[27.9825,-32.8518,167.3214],[27.9979,-32.8584,167.3623],[27.9979,-32.8622,130.8943],[28.0075,-32.8644,159.8946],[28.0072,-32.8694,124.0511],[28.0182,-32.8769,120.1301],[28.0228,-32.8824,120.0229],[28.0348,-32.8805,22.7655],[28.0352,-32.8858,18.2665],[28.0396,-32.8874,15.527],[28.0427,-32.8825,27.1428],[28.0491,-32.8826,31.1731],[28.0532,-32.8917,8.9944],[28.0672,-32.8927,13.0341],[28.0644,-32.8996,4.1089],[28.0665,-32.9057,7.2879],[28.0776,-32.9062,3.4641],[28.0879,-32.8971,0.0],[28.0918,-32.8957,0.0],[28.0924,-32.8899,3.5806],[28.089,-32.8882,6.4418],[28.0935,-32.889,4.8749],[28.0946,-32.8935,0.0],[28.0971,-32.8954,0.0],[28.0971,-32.8896,0.0],[28.1001,-32.8885,0.0],[28.0982,-32.8862,3.2691],[28.1015,-32.8854,0.1582],[28.1021,-32.8796,0.0],[28.1082,-32.8749,0.0],[28.1087,-32.8679,0.0],[28.1076,-32.8668,7.2949],[28.1099,-32.8657,0.0],[28.1096,-32.8629,14.4472],[28.1121,-32.8601,0.0],[28.1174,-32.8585,0.0],[28.1196,-32.8435,3.6053],[28.1182,-32.8401,0.0],[28.1162,-32.8399,3.1792],[28.1154,-32.834,1.0234],[28.1124,-32.8357,4.2973],[28.1085,-32.8354,8.7432],[28.114,-32.8315,0.0],[28.1162,-32.8318,0.0],[28.1268,-32.8185,0.0],[28.1357,-32.8112,3.3019],[28.1338,-32.8071,0.0],[28.1315,-32.8079,0.0],[28.1313,-32.8065,0.0],[28.1193,-32.8018,0.2391],[28.1385,-32.8076,6.8871],[28.1429,-32.8063,0.0],[28.1499,-32.8004,0.0],[28.1462,-32.7968,22.2753],[28.1468,-32.7882,9.3779],[28.1479,-32.7949,0.125],[28.1496,-32.7971,2.7539],[28.1529,-32.7971,3.8531],[28.1801,-32.7857,1.3627],[28.1799,-32.7832,0.4316],[28.1843,-32.7846,0.0],[28.1915,-32.7824,25.582],[28.2074,-32.7812,2.4454],[28.209,-32.7796,0.0],[28.2282,-32.7751,0.0],[28.2351,-32.7718,0.0],[28.2354,-32.7693,35.1166],[28.2385,-32.7715,0.0],[28.2443,-32.7654,1.1368],[28.254,-32.764,0.0],[28.2546,-32.7626,0.0],[28.2524,-32.761,2.2506],[28.2551,-32.7596,0.0],[28.2668,-32.7604,0.0],[28.2771,-32.7537,0.0],[28.2849,-32.7449,0.0],[28.2871,-32.7393,9.8808],[28.2982,-32.7371,0.0],[28.2985,-32.7337,3.8653],[28.3076,-32.7265,0.0],[28.3082,-32.7243,0.0],[28.3099,-32.7271,0.0],[28.3121,-32.7274,0.0],[28.3137,-32.7251,0.0],[28.316,-32.7257,0.0],[28.3218,-32.7232,0.0],[28.3254,-32.7179,35.2364],[28.3299,-32.7193,7.2359],[28.3326,-32.7154,0.0],[28.3371,-32.7157,2.3917],[28.3399,-32.711,19.1251],[28.3451,-32.7065,1.0194],[28.341,-32.7004,0.5],[28.3446,-32.7026,31.7052],[28.3457,-32.7082,0.0],[28.3485,-32.709,1.5454],[28.3585,-32.7085,2.0622],[28.3646,-32.7101,0.0],[28.3738,-32.7051,0.0],[28.3743,-32.6899,2.853],[28.3771,-32.6879,12.3437],[28.3796,-32.6885,0.0],[28.379,-32.6854,7.176],[28.3849,-32.6804,10.3612],[28.3768,-32.6735,0.0],[28.3604,-32.6671,15.5568],[28.3532,-32.6418,0.0],[28.3529,-32.6307,20.2585],[28.3543,-32.631,20.2585],[28.3543,-32.6421,0.0],[28.3585,-32.6518,0.0],[28.3615,-32.666,2.4948],[28.3635,-32.6679,2.2632],[28.3754,-32.671,0.6849],[28.3821,-32.6749,0.0],[28.3857,-32.6751,0.0],[28.3882,-32.6726,9.1196],[28.3937,-32.6732,0.89],[28.399,-32.6676,4.8253],[28.4001,-32.6624,0.125],[28.3976,-32.6615,5.6125],[28.3982,-32.6601,0.5],[28.4015,-32.6629,0.125],[28.4007,-32.6657,1.562],[28.4093,-32.6643,0.0],[28.4096,-32.6613,2.3962],[28.4185,-32.6568,0.0],[28.4171,-32.654,1.9787],[28.4212,-32.649,0.0],[28.4229,-32.6499,0.0],[28.4257,-32.6465,0.9881],[28.4282,-32.646,0.0],[28.4293,-32.6374,0.0],[28.4307,-32.6371,0.0],[28.4285,-32.6326,22.477],[28.431,-32.629,16.7011],[28.4337,-32.631,3.2318],[28.4376,-32.6279,14.1873],[28.4438,-32.6285,0.0],[28.4449,-32.6257,26.3229],[28.4488,-32.6263,0.0],[28.4546,-32.6224,10.8974],[28.4632,-32.6215,0.0],[28.4649,-32.6235,0.0],[28.465699999999998,-32.6215,0.6925],[28.4693,-32.6204,0.0],[28.4743,-32.6207,0.0],[28.4763,-32.6165,0.0],[28.4782,-32.6171,0.0],[28.4824,-32.614,0.0],[28.4837,-32.6099,0.0],[28.4904,-32.6085,2.1701],[28.4862,-32.5988,1.788],[28.4924,-32.6085,0.0],[28.4976,-32.6065,0.0],[28.4985,-32.6049,6.6536],[28.5026,-32.6043,14.4227],[28.5051,-32.6068,0.0],[28.5101,-32.6049,0.0],[28.5193,-32.5982,0.0],[28.5257,-32.5907,0.0],[28.5274,-32.5846,0.0],[28.524,-32.5849,7.6682],[28.5212,-32.5824,0.563],[28.524,-32.5807,0.6381],[28.5249,-32.5824,0.0],[28.5265,-32.5821,0.0],[28.5371,-32.5749,1.0382],[28.554,-32.5724,0.0],[28.5537,-32.5701,0.0],[28.5518,-32.5693,11.8638],[28.5524,-32.5662,0.0],[28.5543,-32.5651,0.0],[28.5537,-32.5621,1.5854],[28.556,-32.5615,0.0],[28.5529,-32.5563,0.0],[28.5546,-32.5515,0.0],[28.5601,-32.5474,16.2365],[28.5713,-32.5432,0.0],[28.5765,-32.5374,3.6755],[28.5785,-32.5307,1.2075],[28.5824,-32.5257,0.0],[28.5812,-32.5221,0.5],[28.5713,-32.5224,2.5],[28.5713,-32.521,28.0526],[28.5899,-32.5201,0.0],[28.581,-32.5124,7.7006],[28.590699999999998,-32.5182,0.0],[28.5985,-32.5179,2.4146],[28.6035,-32.5146,0.0983],[28.6049,-32.5118,0.0],[28.6026,-32.5107,5.0681],[28.6024,-32.5076,5.946],[28.6043,-32.5065,0.0],[28.6032,-32.5013,27.7538],[28.6113,-32.4976,2.669],[28.6126,-32.4951,0.0],[28.6104,-32.491,0.75],[28.6074,-32.4915,10.2956],[28.6099,-32.4896,0.75],[28.6126,-32.4904,7.9384],[28.6132,-32.4929,7.2004],[28.6149,-32.4935,0.0],[28.6296,-32.4893,2.9294],[28.6321,-32.486,14.1874],[28.6357,-32.4874,0.0],[28.6368,-32.4835,1.7311],[28.6446,-32.4801,12.4942],[28.6463,-32.4832,0.0],[28.651,-32.484,0.0],[28.654,-32.4771,7.4548],[28.6585,-32.4796,0.0],[28.6563,-32.4762,7.7561],[28.6576,-32.4735,0.0],[28.6535,-32.4674,3.5496],[28.654,-32.4649,9.1356],[28.6554,-32.4646,0.0],[28.6574,-32.4588,0.0],[28.6654,-32.4535,0.0],[28.6701,-32.4529,0.0],[28.671,-32.4465,8.371],[28.6663,-32.4429,3.8028],[28.6449,-32.4385,5.0457],[28.6665,-32.4412,32.7075],[28.6749,-32.4463,0.1104],[28.6751,-32.4493,0.1078],[28.6813,-32.446,0.0],[28.6807,-32.4443,5.9307],[28.6863,-32.4415,0.0],[28.6863,-32.4365,0.0],[28.6946,-32.4324,0.0],[28.6893,-32.4282,14.3126],[28.6965,-32.4307,0.0],[28.6982,-32.4285,1.3586],[28.6999,-32.4287,0.0],[28.7007,-32.4257,3.9028],[28.7049,-32.4271,0.0],[28.7076,-32.4204,3.7167],[28.7101,-32.4207,0.0],[28.7099,-32.4185,0.0],[28.7024,-32.4154,1.9493],[28.7062,-32.4154,2.5792],[28.7088,-32.4174,0.0],[28.7265,-32.4051,0.0],[28.7251,-32.4035,1.2285],[28.7215,-32.4032,37.0396],[28.7213,-32.3993,1.2472],[28.7229,-32.4018,0.0],[28.7276,-32.4021,0.0],[28.7451,-32.3965,0.0],[28.7474,-32.3932,0.0],[28.7474,-32.3885,1.8023],[28.7518,-32.3829,7.8235],[28.7526,-32.3776,0.0],[28.7515,-32.3754,11.3217],[28.7574,-32.3704,0.0],[28.7568,-32.369,1.4812],[28.7585,-32.3699,0.0],[28.761,-32.3676,10.6962],[28.7615,-32.3649,9.8981],[28.7651,-32.3654,0.0],[28.7718,-32.3632,0.0],[28.7729,-32.359,0.0],[28.7776,-32.3543,0.0],[28.7776,-32.3488,6.8204],[28.7882,-32.3401,0.9767],[28.7885,-32.3385,0.0],[28.784,-32.3401,19.2367],[28.7868,-32.3382,0.4984],[28.786,-32.3354,17.1697],[28.7896,-32.3304,17.0105],[28.7876,-32.3274,1.2842],[28.7904,-32.3288,19.0669],[28.7887,-32.334,5.5236],[28.7901,-32.3396,0.0],[28.7968,-32.3407,1.3913],[28.8046,-32.336,2.1778],[28.8046,-32.3346,2.1778],[28.8115,-32.3329,0.2012],[28.8165,-32.3296,0.0],[28.8176,-32.3232,0.4161],[28.816,-32.3213,0.0],[28.8229,-32.3196,0.0],[28.8257,-32.3171,0.0],[28.8285,-32.3118,0.0],[28.8318,-32.3093,0.0],[28.8299,-32.3057,16.2259],[28.8357,-32.3046,0.0],[28.8374,-32.3029,9.5596],[28.8368,-32.3001,1.6046],[28.851,-32.3012,3.4474],[28.856,-32.2985,4.8091],[28.8587,-32.2918,27.8042],[28.8621,-32.2918,0.0],[28.8632,-32.2887,1.9419],[28.8693,-32.2898,0.0],[28.8696,-32.2863,0.0],[28.879,-32.279,1.7416],[28.8726,-32.2704,0.9912],[28.8754,-32.2707,36.0083],[28.8801,-32.2785,2.5355],[28.8826,-32.2782,0.0],[28.8851,-32.2815,0.0],[28.8821,-32.2715,7.7165],[28.8946,-32.2599,0.0],[28.899,-32.2513,1.2597],[28.8949,-32.2432,0.4188],[28.8857,-32.2363,0.8652],[28.8804,-32.2293,4.6747],[28.903199999999998,-32.2476,4.7014],[28.9093,-32.2465,0.0],[28.9132,-32.2449,0.0],[28.914,-32.2426,7.6268],[28.9201,-32.2412,22.5097],[28.9235,-32.2432,0.0],[28.9226,-32.2385,0.3143],[28.9204,-32.2357,25.4739],[28.9271,-32.231,3.5813],[28.9274,-32.2282,5.8181],[28.9246,-32.226,2.5652],[28.929,-32.2268,0.0],[28.9351,-32.2235,0.0],[28.9379,-32.2238,0.0],[28.9387,-32.2204,3.826],[28.9415,-32.2212,0.0],[28.9443,-32.2187,0.0],[28.9435,-32.2143,9.8111],[28.9465,-32.2151,0.0],[28.9479,-32.214,0.0],[28.9468,-32.2115,0.0],[28.9504,-32.2113,0.0],[28.9501,-32.2085,0.0],[28.9468,-32.2046,3.2448],[28.9549,-32.1945,2.5751],[28.9504,-32.1912,9.3248],[28.9535,-32.1907,12.01],[28.9565,-32.194,8.7651],[28.9562,-32.1971,0.0],[28.9604,-32.1954,0.0],[28.9624,-32.1901,0.9056],[28.964,-32.1901,0.0],[28.9621,-32.1868,3.6585],[28.9682,-32.1849,0.0],[28.9724,-32.1813,0.0],[28.976,-32.181,1.5691],[28.9765,-32.1787,0.0],[28.974,-32.1763,14.3529],[28.9815,-32.1757,0.0],[28.9824,-32.1721,0.0],[28.9857,-32.1726,0.0],[28.9988,-32.1607,0.0],[28.999,-32.1593,0.0],[28.9968,-32.1585,0.0],[28.9924,-32.1615,6.98],[28.9929,-32.159,0.0],[28.9899,-32.1571,7.0906],[28.9846,-32.1382,3.9087],[28.9879,-32.1435,0.0],[28.991,-32.1551,2.1393],[28.9924,-32.1568,0.0],[28.996,-32.1571,5.1329],[28.9993,-32.1521,0.0],[29.0082,-32.1474,0.0],[29.0113,-32.1415,0.0],[29.011,-32.1393,0.0],[29.0088,-32.1393,0.0],[29.0101,-32.1343,6.5974],[29.0149,-32.1287,14.4525],[29.0165,-32.129,0.0],[29.0243,-32.1215,0.0],[29.031,-32.1196,0.0],[29.0335,-32.116,6.4545],[29.039,-32.1154,0.0],[29.0499,-32.1037,39.0909],[29.0535,-32.1029,22.7815],[29.0571,-32.1043,0.0],[29.0613,-32.1029,0.0],[29.064,-32.0999,0.0],[29.0618,-32.0988,5.645],[29.0632,-32.0968,2.254],[29.0679,-32.0985,0.0],[29.071,-32.094,0.0],[29.0688,-32.089,0.0],[29.0749,-32.0838,0.0],[29.0765,-32.0785,2.1786],[29.0793,-32.0807,10.4186],[29.0896,-32.0804,0.0],[29.0874,-32.066,0.0],[29.0929,-32.0624,1.2629],[29.0933,-32.0574,99.6432],[29.0919,-32.0565,99.6432],[29.0948,-32.0551,80.9227],[29.094,-32.0535,95.3483],[29.0908,-32.0516,104.9957],[29.0855,-32.0521,122.9093],[29.0865,-32.048,57.3197],[29.0837,-32.0458,63.317],[29.0805,-32.0466,113.0309],[29.0787,-32.0452,54.4154],[29.0741,-32.0499,141.8185],[29.0677,-32.0488,165.4873],[29.0729,-32.044,116.5392],[29.0732,-32.0414,92.1385],[29.0647,-32.035,131.7715],[29.0483,-32.0395,132.5779],[29.0432,-32.0395,161.9837],[29.0424,-32.0421,177.4046],[29.0375,-32.0411,209.8199],[29.0396,-32.0342,226.356],[29.033,-32.0295,211.9487],[29.0305,-32.0214,203.9488],[29.0253,-32.0174,227.5528],[29.0253,-32.0154,276.023],[29.0199,-32.0142,319.9052],[29.0147,-32.0153,334.6012],[29.0108,-32.0071,299.0131],[29.0022,-32.0006,288.7516],[28.9992,-32.0002,283.1786],[28.9968,-31.9965,290.7969],[28.993,-31.9954,312.9199],[28.9904,-31.9901,360.985],[28.9857,-31.9906,345.2666],[28.9817,-31.987,374.5356],[28.9812,-31.9845,336.0145],[28.9739,-31.9859,226.6466],[28.969,-31.9889,181.1751],[28.9638,-31.9784,240.012],[28.9595,-31.9795,218.9705],[28.9598,-31.9722,219.2218],[28.9578,-31.9709,215.56],[28.9559,-31.9648,243.5009],[28.9496,-31.9651,256.6076],[28.9507,-31.9605,240.5685],[28.948,-31.9586,245.3571],[28.9423,-31.9601,272.0534],[28.9405,-31.9569,259.7592],[28.9413,-31.9524,313.7271],[28.9352,-31.952,277.4853],[28.9328,-31.9478,280.7985],[28.9299,-31.9498,334.2369],[28.9295,-31.9478,296.4714],[28.9264,-31.9479,313.9477],[28.9248,-31.944,336.1963],[28.9193,-31.9474,358.255],[28.9175,-31.9518,359.27],[28.9128,-31.9505,373.7695],[28.9098,-31.9531,370.1431],[28.9057,-31.9534,389.2715],[28.9043,-31.9516,405.4151],[28.9011,-31.9514,429.0856],[28.8874,-31.9536,435.5331],[28.8856,-31.957,443.0458],[28.8853,-31.9626,420.7334],[28.8811,-31.9661,391.6512],[28.8766,-31.9659,382.9536],[28.8738,-31.9624,397.9353],[28.8665,-31.9606,382.4247],[28.8633,-31.9656,480.7498],[28.8608,-31.9659,425.7242],[28.8556,-31.9704,304.0011],[28.8542,-31.9762,297.5165],[28.8477,-31.9767,325.5551],[28.8479,-31.9806,324.358],[28.8541,-31.9822,289.7939],[28.8514,-31.9851,291.6261],[28.8489,-31.986,287.1992],[28.8425,-31.9831,287.3536],[28.8432,-31.9879,288.413],[28.8402,-31.9898,314.2519],[28.8373,-31.9882,295.9157],[28.839,-31.9848,275.2501],[28.8337,-31.9865,278.024],[28.8335,-31.9931,290.4296],[28.8281,-31.9953,269.1435],[28.8395,-31.9975,258.7408],[28.8408,-32.0015,336.1389],[28.8381,-32.0018,267.5048],[28.8302,-31.9973,270.5946],[28.8277,-32.0039,291.4203],[28.8284,-32.0108,305.2136],[28.8272,-32.0105,280.1596],[28.8246,-32.0002,311.0947],[28.8207,-32.0024,292.0544],[28.8201,-32.006,288.3519],[28.8149,-32.0012,320.8544],[28.8101,-32.0048,335.5284],[28.8088,-31.9996,310.0781],[28.8074,-31.9991,326.9706],[28.803,-32.0032,340.9753],[28.8086,-32.0135,320.4625],[28.8073,-32.015,308.2626],[28.8052,-32.0148,318.4659],[28.8038,-32.0126,316.2415],[28.8014,-32.0143,312.8067],[28.7987,-32.0113,315.7026],[28.7899,-32.0102,322.9412],[28.7863,-32.0119,335.2402],[28.7865,-32.0141,324.306],[28.7946,-32.016,352.3909],[28.7975,-32.0192,336.5468],[28.8015,-32.02,342.4623],[28.7968,-32.0278,345.733],[28.7945,-32.0272,347.3094],[28.7934,-32.0284,356.5591],[28.7945,-32.0295,356.5591],[28.7927,-32.0309,395.7857],[28.7933,-32.0322,395.9586],[28.791,-32.0324,382.0608],[28.7881,-32.0355,413.5789],[28.7879,-32.0401,434.5183],[28.7901,-32.0434,508.7714],[28.7822,-32.046,523.4244],[28.7735,-32.0425,563.0879],[28.7613,-32.0424,563.66],[28.7546,-32.0362,576.231],[28.7497,-32.0355,574.5522],[28.7449,-32.0306,562.5557],[28.7458,-32.0205,483.4083],[28.7375,-32.0167,474.3949],[28.7339,-32.009,543.7032],[28.7292,-32.0114,581.9311],[28.7244,-32.0111,592.7042],[28.7188,-32.0092,614.3912],[28.7175,-32.0063,618.3494],[28.7128,-32.0077,574.9803],[28.7097,-32.0047,600.7318],[28.7091,-31.9973,633.9952],[28.6945,-31.9951,646.9714],[28.701,-31.9936,626.639],[28.7049,-31.9901,585.1753],[28.7063,-31.9865,567.9205],[28.7057,-31.9839,578.423],[28.7024,-31.9814,610.4789],[28.6923,-31.9863,625.0613],[28.6979,-31.9754,570.5601],[28.6972,-31.9676,607.7178],[28.6951,-31.9644,657.827],[28.7006,-31.9616,674.7329],[28.6984,-31.9591,624.8374],[28.6897,-31.9599,576.9266],[28.6854,-31.957,582.2748],[28.6799,-31.9562,587.2225],[28.6679,-31.961,663.4628],[28.663,-31.965699999999998,741.7156],[28.661,-31.9701,728.9977],[28.6629,-31.9787,663.6057],[28.6775,-31.9781,571.436],[28.6777,-31.9793,571.436],[28.6688,-31.9873,633.8906],[28.6637,-31.9883,607.4209],[28.6575,-31.9921,585.2948],[28.6577,-31.9937,584.0986],[28.662,-31.9965,615.7214],[28.6621,-31.9986,631.8937],[28.6646,-31.9955,637.9545],[28.6713,-31.9949,654.726],[28.6785,-31.9982,638.0131],[28.6763,-32.0009,590.8692],[28.6672,-32.0036,459.7422],[28.6626,-32.0092,391.3973],[28.6534,-32.0148,315.1043],[28.6526,-32.0172,304.1237],[28.6477,-32.0188,282.714],[28.6437,-32.0244,228.4295],[28.6313,-32.0182,231.5417],[28.6199,-32.0202,245.7474],[28.6139,-32.0196,270.2031],[28.5999,-32.012,248.2043],[28.5987,-32.0071,250.3307],[28.6029,-32.0027,310.5175],[28.6088,-32.0015,252.2155],[28.6234,-32.0048,256.0444],[28.6275,-32.0027,263.9898],[28.6279,-31.9981,274.8796],[28.626,-31.9948,274.4005],[28.6214,-31.9931,271.1943],[28.6082,-31.9994,267.8452],[28.6037,-31.9984,273.5444],[28.6015,-31.9961,288.5288],[28.6018,-31.9927,277.6098],[28.6105,-31.993,283.664],[28.6129,-31.9887,295.9536],[28.6126,-31.9852,287.017],[28.5986,-31.9723,285.9993],[28.5874,-31.9676,301.1387],[28.5819,-31.9679,311.8665],[28.5789,-31.9718,293.5199],[28.5911,-31.9895,303.87],[28.5914,-31.997,323.4229],[28.5882,-32.0005,309.413],[28.5837,-32.0008,311.5035],[28.5795,-31.9988,328.8632],[28.5684,-31.9853,337.4137],[28.558,-31.9792,348.7814],[28.5547,-31.9802,334.8947],[28.5513,-31.9889,334.4793],[28.5471,-31.9931,339.1628],[28.5283,-31.9953,346.8511],[28.5224,-31.9929,345.0739],[28.5189,-31.9884,349.8083],[28.5192,-31.9833,353.4975],[28.5227,-31.9799,348.598],[28.5325,-31.9808,367.5352],[28.5421,-31.9885,349.75],[28.5451,-31.9883,355.8938],[28.5465,-31.9861,357.2313],[28.5361,-31.964,373.4479],[28.5317,-31.9576,368.3656],[28.5292,-31.9565,371.4146],[28.5232,-31.9557,363.8238],[28.5211,-31.9584,377.8484],[28.5218,-31.9623,367.8797],[28.5307,-31.9663,372.5965],[28.5299,-31.9706,381.1744],[28.5261,-31.9728,372.4698],[28.5131,-31.9728,376.8869],[28.49,-31.9691,388.7291],[28.484,-31.9736,379.2969],[28.4733,-31.9745,383.2183],[28.4695,-31.9742,384.5034],[28.4654,-31.97,389.8461],[28.4652,-31.9678,385.4058],[28.4696,-31.9611,392.8083],[28.4772,-31.9535,388.125],[28.4806,-31.952,390.8318],[28.4876,-31.9511,421.2738],[28.5042,-31.955,412.6584],[28.5086,-31.954,397.2089],[28.5108,-31.9503,402.691],[28.5148,-31.9334,412.4189],[28.5041,-31.93,410.1919],[28.494,-31.9349,431.0793],[28.4718,-31.934,439.8106],[28.4678,-31.9292,439.6369],[28.4676,-31.9248,435.5536],[28.4784,-31.9169,442.0173],[28.478,-31.9135,444.3786],[28.4746,-31.9095,454.889],[28.4679,-31.912,448.2541],[28.464,-31.9214,481.1736],[28.4601,-31.9251,463.9874],[28.4445,-31.9179,449.916],[28.4403,-31.9086,451.3606],[28.4424,-31.8971,452.91],[28.4295,-31.892,459.4952],[28.426,-31.8884,488.9631],[28.4296,-31.8785,485.7065],[28.4275,-31.8702,468.5755],[28.422,-31.8694,487.0452],[28.4143,-31.8766,476.4431],[28.4068,-31.8791,477.3396],[28.4054,-31.8771,482.7622],[28.406,-31.8734,497.2116],[28.4169,-31.8677,490.5984],[28.4181,-31.8643,489.7755],[28.4168,-31.8607,490.0891],[28.4011,-31.85,495.9419],[28.3932,-31.8512,517.0071],[28.3858,-31.8594,502.0856],[28.3825,-31.859,508.3799],[28.3789,-31.8559,507.1143],[28.3793,-31.8512,513.684],[28.3861,-31.8436,556.6165],[28.3865,-31.84,532.3],[28.3834,-31.836,514.3987],[28.3696,-31.8351,513.4223],[28.3669,-31.8385,536.3306],[28.3687,-31.8457,520.0526],[28.3655,-31.8472,517.5406],[28.363,-31.8454,517.5129],[28.357,-31.8329,530.41],[28.353,-31.8289,543.3082],[28.3426,-31.8274,552.8513],[28.3341,-31.8305,561.0029],[28.3274,-31.8282,547.599],[28.3263,-31.834,547.8561],[28.3276,-31.8377,551.0634],[28.3165,-31.8403,556.7634],[28.3128,-31.8481,567.759],[28.3053,-31.8456,564.069],[28.3018,-31.8399,559.3855],[28.3069,-31.8339,570.8787],[28.3072,-31.8313,566.0435],[28.2951,-31.8196,576.3293],[28.2926,-31.8093,578.5048],[28.2869,-31.8054,579.7927],[28.2846,-31.8077,590.0191],[28.2829,-31.8169,585.9809],[28.2808,-31.8176,579.8903],[28.2779,-31.8152,592.2562],[28.2806,-31.8108,594.4372],[28.2793,-31.8006,590.561],[28.2726,-31.8022,590.6212],[28.2661,-31.8012,591.3877],[28.2663,-31.7961,588.0701],[28.2707,-31.7902,626.5238],[28.2703,-31.7871,589.3015],[28.2633,-31.7913,609.178],[28.2489,-31.7965,636.3051],[28.25,-31.798,625.3713],[28.2489,-31.8077,691.9099],[28.235,-31.8372,721.3967],[28.2355,-31.8478,718.0464],[28.2395,-31.8539,726.4374],[28.2363,-31.8543,749.958],[28.2356,-31.8559,732.617],[28.2404,-31.8614,719.4245],[28.2375,-31.8615,721.4066],[28.2294,-31.8553,767.6026],[28.2249,-31.8589,767.33],[28.2268,-31.8672,781.2814],[28.2336,-31.8677,745.8433],[28.2341,-31.8696,743.7205],[28.2362,-31.8694,713.9586],[28.2221,-31.896,820.5173],[28.2215,-31.9006,815.957],[28.2174,-31.9094,812.887],[28.2211,-31.9105,793.2224],[28.2202,-31.9133,774.2252],[28.2127,-31.9203,772.7585],[28.2096,-31.9283,799.324],[28.2089,-31.9457,809.2133],[28.1943,-31.9677,866.4443],[28.1922,-31.9606,839.8497],[28.1873,-31.9651,830.0383],[28.1832,-31.9662,811.1343],[28.1831,-31.9607,806.4741],[28.1851,-31.9564,822.0716],[28.1699,-31.948,802.5621],[28.1695,-31.9534,787.3302],[28.1792,-31.9586,799.7165],[28.1789,-31.9675,803.9648],[28.1666,-31.97,806.7166],[28.1513,-31.9792,823.5549],[28.1414,-31.9826,835.5332],[28.1321,-31.9891,816.322],[28.1299,-31.9937,800.7216],[28.1251,-31.9969,829.3968],[28.1205,-31.9963,820.5072],[28.1081,-31.9995,774.9896],[28.1037,-32.0041,789.7988],[28.0793,-32.0107,797.2492],[28.0659,-32.0162,836.0651],[28.0556,-32.0251,868.7562],[28.0526,-32.0342,895.7332],[28.0464,-32.0408,923.502],[28.0349,-32.0432,954.3914],[28.0297,-32.0399,963.8383],[28.0265,-32.0398,975.5067],[28.0188,-32.0432,1037.3264],[28.0167,-32.0424,1041.7722],[28.0147,-32.0379,1122.8445],[28.0109,-32.0357,1144.5973],[28.0071,-32.0389,1100.219],[27.9997,-32.0405,1114.9872],[27.9665,-32.0627,1124.7787],[27.9502,-32.0819,1186.0944],[27.9342,-32.0735,1050.6304],[27.9287,-32.0747,1044.5675],[27.9135,-32.0665,1021.3156],[27.908,-32.0661,1008.377],[27.9046,-32.0607,991.2338],[27.8962,-32.0584,995.7839],[27.8891,-32.0498,1006.2043],[27.8834,-32.05,1041.4147],[27.8813,-32.0535,1007.7454],[27.8765,-32.0564,991.7838],[27.8869,-32.0584,1004.834],[27.8814,-32.0675,954.5627],[27.8809,-32.072,918.1819],[27.8783,-32.0711,924.6634],[27.8758,-32.0741,914.2118],[27.8661,-32.0753,912.1042],[27.8638,-32.0772,909.3101],[27.8649,-32.0814,906.5464],[27.8711,-32.0842,914.0819],[27.885,-32.1041,1017.3835],[27.8857,-32.1114,1077.0],[27.8957,-32.1231,1137.8975],[27.8871,-32.1279,1089.9847],[27.876,-32.1282,1110.0957],[27.8646,-32.1306,1114.8364],[27.8628,-32.1324,1097.1184],[27.8569,-32.1328,1100.6245],[27.8497,-32.1268,1154.5474],[27.8289,-32.1182,1160.8965],[27.8413,-32.1114,1093.3367],[27.837,-32.1051,1065.4219],[27.8371,-32.1013,1052.4344],[27.8331,-32.0932,1069.6438],[27.8153,-32.0894,1040.5336],[27.8093,-32.0794,758.6323],[27.8016,-32.0808,747.5485],[27.7927,-32.0795,758.3506],[27.7824,-32.082,731.1945],[27.7815,-32.0834,730.5995],[27.7844,-32.0863,777.7678],[27.7923,-32.0894,711.1829],[27.788,-32.0949,711.7513],[27.7923,-32.1012,692.0957],[27.7888,-32.1045,695.6926],[27.779,-32.1025,703.6003],[27.7747,-32.1051,680.2409],[27.7752,-32.1095,676.1623],[27.7819,-32.1148,669.9549],[27.7848,-32.1214,683.966],[27.7788,-32.1334,655.1753],[27.7825,-32.1353,658.9911],[27.7873,-32.1327,663.4044],[27.7924,-32.1329,706.3804],[27.8031,-32.1409,642.1935],[27.8165,-32.1472,633.113],[27.8195,-32.1459,629.4252],[27.8229,-32.14,624.0532],[27.8248,-32.1398,624.719],[27.8279,-32.1425,733.7785],[27.829,-32.1493,615.1116],[27.8263,-32.1568,639.4095],[27.8185,-32.1635,619.262],[27.8044,-32.1614,602.61],[27.8005,-32.1634,609.1227],[27.8072,-32.1704,594.1339],[27.8128,-32.183,582.2651],[27.8035,-32.1898,575.562],[27.7947,-32.2003,572.1628],[27.7928,-32.2052,580.9559],[27.7949,-32.2069,572.6305],[27.7944,-32.2102,565.8611],[27.7877,-32.2169,573.5811],[27.788,-32.2201,605.7504],[27.7952,-32.2243,560.3593],[27.7964,-32.2274,558.0294],[27.7848,-32.225,559.6519],[27.7789,-32.2157,571.8978],[27.7707,-32.2153,552.8851],[27.7604,-32.2113,547.3345],[27.758,-32.2161,543.9689],[27.7586,-32.2221,538.763],[27.7683,-32.2275,563.4822],[27.7696,-32.2307,541.2114],[27.7579,-32.2309,670.1559],[27.7474,-32.235,788.6886],[27.7345,-32.2321,882.8728],[27.7071,-32.232,965.0746],[27.6905,-32.2204,977.7588],[27.6813,-32.2036,976.1169],[27.686,-32.1984,985.0762],[27.6888,-32.1921,980.5614],[27.6935,-32.188,991.5522],[27.6931,-32.1824,995.5432],[27.6815,-32.1635,1040.1492],[27.6883,-32.1537,1094.3396],[27.6985,-32.1534,1150.3656],[27.7037,-32.1497,1164.6332],[27.7084,-32.1438,1158.7328],[27.7057,-32.1343,1116.5468],[27.7014,-32.1318,1102.1567],[27.6943,-32.1323,1102.2808],[27.6865,-32.122,1060.9009],[27.6835,-32.1215,1061.5825],[27.6814,-32.118,1054.98],[27.6684,-32.1183,1086.3264],[27.6619,-32.1116,1049.8182],[27.6537,-32.1157,1060.9404],[27.6423,-32.1127,1122.8979],[27.6385,-32.1096,1132.0662],[27.6337,-32.1009,1157.3],[27.6303,-32.0993,1167.9983],[27.6324,-32.1003,1163.1826],[27.6318,-32.1019,1131.8535],[27.6245,-32.1001,1135.7448],[27.6204,-32.1009,1130.8174],[27.6174,-32.0967,1188.2905],[27.6017,-32.0944,1139.4945],[27.5928,-32.1036,1107.1344],[27.5817,-32.1002,1093.0359],[27.5716,-32.1032,1138.584],[27.567,-32.103,1116.2316],[27.5668,-32.1136,1007.3732],[27.5705,-32.1169,1030.3002],[27.5687,-32.1224,1130.6879],[27.5744,-32.1251,1131.4868],[27.5726,-32.1273,1060.9015],[27.5652,-32.1296,890.8354],[27.556,-32.1287,826.5731],[27.5542,-32.1323,807.1379],[27.5483,-32.1326,777.5383],[27.5464,-32.1362,770.4023],[27.5425,-32.1366,752.6522],[27.5403,-32.1413,740.276],[27.5432,-32.1465,727.8102],[27.5429,-32.1497,766.0084],[27.5462,-32.1495,738.0963],[27.5456,-32.1517,741.2758],[27.5482,-32.1507,711.1907],[27.5484,-32.1521,703.7632],[27.5517,-32.1526,696.4543],[27.5532,-32.1554,684.1578],[27.5557,-32.1555,660.4435],[27.5534,-32.1593,649.0239],[27.5554,-32.1615,659.4366],[27.5608,-32.163,627.4329],[27.5642,-32.1711,612.2247],[27.5629,-32.1739,607.2972],[27.5662,-32.1759,600.5712],[27.5626,-32.1778,597.0689],[27.5605,-32.1754,611.7285],[27.5567,-32.1812,581.6156],[27.5546,-32.1817,579.1133],[27.5546,-32.1847,581.0217],[27.552,-32.1856,680.7463],[27.5578,-32.1867,549.6745],[27.5582,-32.1896,569.462],[27.5634,-32.1946,502.5791],[27.5642,-32.2062,505.1165],[27.5599,-32.2077,507.968],[27.5507,-32.1998,510.1169],[27.5423,-32.1974,536.0959],[27.5351,-32.1975,527.2677],[27.5206,-32.203,522.8237],[27.5193,-32.2114,518.2177],[27.5276,-32.2228,556.5833],[27.5289,-32.2294,524.119],[27.5273,-32.2348,535.9821],[27.5233,-32.2376,527.537],[27.5142,-32.2376,531.5812],[27.5096,-32.2354,532.0371],[27.5079,-32.2308,552.2115],[27.5063,-32.2346,679.0702],[27.4858,-32.2526,877.9434],[27.4925,-32.2648,830.025],[27.4855,-32.2793,1111.2563],[27.4901,-32.2903,1105.873],[27.4921,-32.3066,1237.9126],[27.4747,-32.3263,1231.8865],[27.4609,-32.3343,1245.2295],[27.4413,-32.3344,1033.0742],[27.4492,-32.3408,1067.3124],[27.4519,-32.3486,1102.623],[27.4513,-32.3522,1123.0669],[27.4411,-32.3588,1281.634],[27.4315,-32.3563,1231.6061],[27.4138,-32.3384,1084.1692],[27.411,-32.3549,1029.9792],[27.3869,-32.3588,1171.6931],[27.3662,-32.3511,1005.4437],[27.3706,-32.3401,1074.4117],[27.3656,-32.3305,1037.7898],[27.3478,-32.3117,891.8034],[27.3365,-32.3206,917.422],[27.3331,-32.3125,788.2915],[27.3327,-32.3143,795.8979],[27.3294,-32.316,792.8205],[27.3242,-32.3154,797.699],[27.3225,-32.3129,804.8295],[27.3249,-32.3098,808.6465],[27.3197,-32.3006,1042.97],[27.3042,-32.2953,1258.3907],[27.3049,-32.2922,1310.5616],[27.3025,-32.2885,1356.8195],[27.2925,-32.2893,1318.7881],[27.2742,-32.2698,1227.7566],[27.261,-32.2762,1261.7987],[27.2436,-32.2819,1262.7938],[27.2059,-32.2661,1221.222],[27.1984,-32.2494,1353.3374],[27.1844,-32.2528,1247.8982],[27.1851,-32.2511,1237.8491],[27.1806,-32.2331,1224.9918],[27.1643,-32.2308,1226.4517],[27.1607,-32.2385,1272.1594],[27.1199,-32.2389,1059.9373],[27.1195,-32.2375,1063.7328],[27.1243,-32.2287,1028.1088],[27.0916,-32.2209,950.6384],[27.0721,-32.2281,971.1704],[27.0675,-32.2275,981.7332],[27.0618,-32.2292,981.3998],[27.0572,-32.2331,1001.7443],[27.0541,-32.2325,992.2523],[27.0513,-32.2354,1001.4716],[27.0493,-32.2197,1129.4849],[27.0109,-32.2225,1337.8364],[26.9795,-32.2064,1373.105],[26.9704,-32.193,1168.8875],[26.9654,-32.1916,1162.5471],[26.9634,-32.194,1194.687],[26.9627,-32.1994,1180.973],[26.9581,-32.2039,1200.7365],[26.9595,-32.2052,1205.7712],[26.9336,-32.2266,1243.9543],[26.9251,-32.2388,1300.2069],[26.9002,-32.2514,1402.1152],[26.893,-32.2716,1420.4365],[26.8694,-32.2696,1417.6433],[26.8566,-32.2595,1118.8373],[26.8541,-32.251,1100.4186],[26.8511,-32.2469,1102.8911],[26.8465,-32.2463,1117.3656],[26.8432,-32.2482,1116.9194],[26.8423,-32.2522,1151.0718],[26.8437,-32.2633,1120.6753],[26.8461,-32.265,1120.8096],[26.8482,-32.2617,1160.3079],[26.8498,-32.2617,1123.3811],[26.8511,-32.2665,1125.9067],[26.848,-32.2668,1144.7637],[26.8449,-32.2704,1169.1931],[26.8397,-32.2718,1224.7275],[26.8327,-32.2715,1276.203],[26.8299,-32.2886,1596.2089],[26.8121,-32.2958,1415.9491],[26.812,-32.3091,1543.3413],[26.8283,-32.3204,1287.5143],[26.8282,-32.3228,1281.3719],[26.8306,-32.3237,1277.3103],[26.8139,-32.3306,1316.343],[26.8114,-32.3361,1309.3579],[26.8073,-32.3335,1321.7465],[26.8026,-32.3358,1329.4473],[26.8012,-32.3382,1331.8298],[26.7936,-32.34,1341.0182],[26.7854,-32.335,1355.4906],[26.782,-32.3355,1365.087],[26.7761,-32.3331,1378.4246],[26.7738,-32.334,1398.0184],[26.7717,-32.3383,1462.087],[26.7587,-32.3362,1671.8545],[26.743,-32.337,1716.2622],[26.7363,-32.3274,1599.4447],[26.7118,-32.34,1805.1104],[26.7111,-32.3445,1810.1489],[26.7208,-32.3596,1827.4291],[26.729,-32.3632,1877.8876],[26.735,-32.3903,1643.4458],[26.7323,-32.3971,1642.2131],[26.7261,-32.3987,1643.9392],[26.7221,-32.4053,1580.1735],[26.7047,-32.4181,1618.2891],[26.6719,-32.4155,1642.8728],[26.6625,-32.4279,1687.4172],[26.6531,-32.4217,1717.844],[26.6486,-32.4235,1712.8613],[26.6381,-32.4191,1682.7],[26.6281,-32.4119,1743.1534],[26.6082,-32.4043,1777.415],[26.6011,-32.3973,1786.4799],[26.5877,-32.3965,1771.4941],[26.5804,-32.3871,1771.6797],[26.5667,-32.4019,1769.7877],[26.5392,-32.386,1816.995],[26.5393,-32.3764,1862.3866],[26.5337,-32.3602,1828.2097],[26.5156,-32.3546,1783.0909],[26.498,-32.3595,1807.9539],[26.4741,-32.3571,1801.0981],[26.4582,-32.3608,1819.2814],[26.4253,-32.3541,2045.0414],[26.4045,-32.3639,2270.3306],[26.3709,-32.357,1828.1263],[26.3467,-32.3679,1701.344],[26.3096,-32.376,1874.809],[26.2351,-32.354,1878.0752],[26.1865,-32.3688,1756.7753],[26.2025,-32.3313,1920.6229],[26.1893,-32.2897,1800.8945],[26.1913,-32.2852,1814.4331],[26.1413,-32.2717,1703.578],[26.1297,-32.275,1704.7666],[26.1305,-32.2822,1818.8162],[26.1194,-32.2984,1738.2211],[26.0859,-32.3145,1583.8903],[26.0816,-32.3179,1587.5424],[26.052,-32.3123,1615.5356],[26.0468,-32.3167,1599.476],[26.047,-32.3227,1511.3513],[26.0327,-32.3263,1620.285],[25.9993,-32.3504,1734.6465],[25.9962,-32.3544,1784.8083],[25.9705,-32.3544,1764.6766],[25.9506,-32.3638,1768.6826],[25.9488,-32.3768,1668.6729],[25.9401,-32.3839,1727.5824],[25.9393,-32.4061,1573.9216],[25.8994,-32.4329,1625.7793],[25.9078,-32.4574,1656.0769],[25.8873,-32.4868,1373.9287],[25.9343,-32.4761,1302.0018],[25.93,-32.4946,933.9732],[25.9398,-32.5387,1139.9049],[25.9593,-32.5521,929.7211],[25.9766,-32.5459,943.5884],[26.0266,-32.5466,1053.3833],[26.0283,-32.54,1280.2563],[26.0808,-32.5466,1326.2712],[26.0896,-32.5586,1557.1882],[26.0954,-32.5586,1513.2611],[26.0941,-32.5649,1530.9851],[26.1111,-32.5711,1555.3523],[26.1213,-32.5802,1538.7527],[26.1272,-32.5954,1547.2068],[26.1189,-32.5982,1507.2888],[26.1139,-32.6054,1410.0869],[26.1162,-32.6049,1342.6003],[26.0972,-32.6169,1107.3386],[26.0941,-32.6246,1180.4376],[26.0803,-32.6297,1243.9314],[26.0741,-32.6383,1331.9553],[26.0476,-32.6328,1391.3419],[26.0443,-32.6443,1402.7012],[26.0472,-32.6543,1355.8784],[26.0376,-32.6585,1094.1718],[26.0268,-32.6701,926.3967],[26.064,-32.6856,791.541],[26.032,-32.764,725.764],[26.0462,-32.7783,709.1252],[26.049,-32.7808,712.1049],[26.066,-32.7869,671.7265],[26.0951,-32.7643,691.986],[26.1094,-32.765,637.6584],[26.1091,-32.7695,635.1334],[26.1795,-32.7634,696.2695],[26.2052,-32.7494,756.29],[26.2081,-32.7696,660.2636],[26.2404,-32.793,603.1738],[26.2473,-32.8102,550.5106],[26.2457,-32.8152,522.041],[26.189,-32.8122,689.5126],[26.1656,-32.8444,597.3636],[26.1681,-32.8481,558.6296],[26.1685,-32.8556,548.741],[26.1758,-32.855,554.8958],[26.1765,-32.8483,537.4506],[26.1784,-32.8448,536.0852],[26.1804,-32.8446,535.2759],[26.1866,-32.8583,528.4766],[26.1866,-32.8635,535.9448],[26.1821,-32.8673,526.3265],[26.1832,-32.8693,540.5578],[26.1933,-32.8665,536.8323],[26.1967,-32.8516,513.9247],[26.1992,-32.8502,511.4961],[26.2103,-32.8633,539.5124],[26.2171,-32.8592,516.9454],[26.2257,-32.8577,512.5366],[26.2259,-32.8656,494.6013],[26.2186,-32.8761,543.4096],[26.2194,-32.8782,521.4039],[26.2256,-32.8774,489.9562],[26.2361,-32.8712,504.2354],[26.2405,-32.8749,479.8995],[26.2426,-32.8816,502.9455],[26.2471,-32.8848,490.8662],[26.2528,-32.8854,474.6478],[26.2608,-32.8908,472.7854],[26.2632,-32.8888,484.0099],[26.2629,-32.8797,469.8767],[26.2689,-32.8776,493.2521],[26.2747,-32.8806,479.9654],[26.2851,-32.8992,462.7023],[26.2749,-32.937,684.1233],[26.299,-32.9321,667.0491],[26.3216,-32.9352,675.712],[26.3586,-32.9345,660.1489],[26.3628,-32.9637,639.3246],[26.3881,-32.9734,600.335],[26.4359,-32.9477,385.7899],[26.4385,-32.9445,403.6637],[26.4419,-32.9447,381.8689],[26.4469,-32.9483,384.0297],[26.4513,-32.9617,377.285],[26.454,-32.9642,377.7365],[26.4615,-32.9629,377.6028],[26.4633,-32.9603,373.2527],[26.463,-32.9522,372.4127],[26.4654,-32.95,370.3539],[26.4682,-32.9511,463.1206],[26.4707,-32.9555,379.0469],[26.47,-32.9677,365.2351],[26.4722,-32.9725,365.9709],[26.479,-32.9792,363.2752],[26.485,-32.9818,364.7834],[26.4913,-32.9812,358.2119],[26.4955,-32.9769,356.4619],[26.4964,-32.9716,355.0399],[26.4936,-32.962,350.2506],[26.4943,-32.954,352.0311],[26.497,-32.9493,361.8076],[26.5064,-32.9432,345.9372],[26.5123,-32.9425,344.3822],[26.5184,-32.9468,343.4216],[26.5208,-32.9582,342.3225],[26.5236,-32.9618,333.2738],[26.5233,-32.9707,349.6388],[26.5171,-32.9799,329.5966],[26.5158,-32.9859,322.5843],[26.5161,-32.9886,335.7306],[26.5207,-32.9923,326.0491],[26.5275,-32.9902,324.5153],[26.5359,-32.9811,315.1418],[26.5421,-32.9789,329.227],[26.552,-32.981,317.8205],[26.5578,-32.9871,334.3913],[26.5642,-32.991,309.7584],[26.5676,-32.9914,335.6407],[26.5732,-32.9893,306.012],[26.5773,-32.9844,304.2795],[26.5787,-32.9799,331.5436],[26.5792,-32.9637,297.0267],[26.5839,-32.9586,291.3252],[26.5885,-32.9581,289.4814],[26.5919,-32.9622,295.876],[26.5956,-32.9928,309.0268],[26.5929,-32.9993,276.5632],[26.583,-33.0097,271.3281],[26.5835,-33.0135,272.5317],[26.5871,-33.0175,266.7155],[26.5927,-33.0165,278.8248],[26.6081,-33.0092,261.7314],[26.6158,-32.9978,288.8662],[26.6229,-32.997,268.6888],[26.6268,-32.9989,269.978],[26.6303,-33.0065,318.7634],[26.6267,-33.019,250.3316],[26.6272,-33.0227,251.4413],[26.6302,-33.026,276.3777],[26.6388,-33.0296,246.3642],[26.641,-33.0321,283.2246],[26.635,-33.0464,243.0918],[26.6382,-33.0497,317.4925],[26.6506,-33.0489,236.6334],[26.656,-33.0458,239.3406],[26.6585,-33.0428,233.456],[26.661,-33.0313,230.7675],[26.6628,-33.0294,286.662],[26.6686,-33.0301,230.9651],[26.6742,-33.0347,230.4613],[26.6803,-33.0474,229.9541],[26.6892,-33.056,227.4482],[26.7,-33.0536,224.0934],[26.709,-33.0428,226.5989],[26.7143,-33.0404,226.5363],[26.7196,-33.0435,216.203],[26.7237,-33.0529,215.0905],[26.7318,-33.0567,217.4891],[26.7365,-33.0556,211.9064],[26.7441,-33.0477,211.9738],[26.7485,-33.0308,217.0089],[26.758,-33.0302,206.9778],[26.7722,-33.0362,204.4935],[26.7768,-33.0359,204.6753],[26.7805,-33.0336,207.2457],[26.7843,-33.0266,199.6147],[26.7843,-33.0179,197.1348],[26.7827,-33.0151,199.114],[26.784,-32.9953,195.1076],[26.7912,-32.9903,190.5684],[26.7984,-32.9912,239.7634],[26.8011,-32.9943,226.2449],[26.8025,-33.0009,189.0731],[26.8018,-33.0085,191.3736],[26.7949,-33.0263,182.0384],[26.7969,-33.039,238.3653],[26.7957,-33.0466,176.5881],[26.7923,-33.0552,179.3671],[26.7722,-33.0776,166.9432],[26.7717,-33.0845,167.6788],[26.775,-33.0882,162.8494],[26.7791,-33.0889,163.1676],[26.7846,-33.0855,164.5747],[26.7924,-33.0706,160.0723],[26.8044,-33.0533,158.5344],[26.8096,-33.0405,149.2077],[26.8133,-33.0359,212.0648],[26.8207,-33.0366,145.9449],[26.8256,-33.0397,144.5205],[26.8256,-33.0548,137.1644],[26.8267,-33.0614,134.9267],[26.8281,-33.0624,139.2872],[26.8282,-33.0678,134.2461],[26.8378,-33.0808,136.9956],[26.849,-33.0799,127.3135],[26.8548,-33.076,123.5712],[26.8568,-33.0701,123.7181],[26.8552,-33.0641,122.1477],[26.8567,-33.0498,118.1455],[26.8614,-33.0445,127.8049],[26.8669,-33.046,116.2122],[26.8735,-33.0534,115.5649],[26.8768,-33.065,126.1564],[26.8773,-33.0751,117.0125],[26.876,-33.0801,107.3379],[26.8689,-33.0891,105.3906],[26.866,-33.0899,105.0845],[26.8586,-33.1006,189.5921],[26.8567,-33.1138,90.0783],[26.8526,-33.1217,95.5113],[26.8528,-33.1259,100.2018],[26.8487,-33.131,89.6504],[26.8415,-33.1309,95.745],[26.8398,-33.1288,111.6686],[26.8408,-33.1257,86.0028],[26.8379,-33.1221,88.4512],[26.8347,-33.1214,86.9469],[26.8319,-33.1233,88.7831],[26.8244,-33.1239,83.1601],[26.8204,-33.1294,86.1217],[26.8321,-33.155,80.0788],[26.8376,-33.1551,75.9752],[26.8396,-33.1662,80.2437],[26.8376,-33.1746,94.0532],[26.8468,-33.1784,90.2473],[26.8531,-33.1778,86.7192],[26.8577,-33.1792,77.6392],[26.8621,-33.1777,77.264],[26.8657,-33.1814,75.8116],[26.8658,-33.1832,78.506],[26.8615,-33.1866,73.3603],[26.8609,-33.189,86.3778],[26.8553,-33.1924,75.6631],[26.8493,-33.1923,81.3401],[26.84,-33.1948,82.2293],[26.8397,-33.1989,88.5297],[26.8424,-33.2013,77.8288],[26.8427,-33.2045,76.752],[26.8571,-33.2077,73.1896],[26.8646,-33.2069,70.8863],[26.8726,-33.2032,70.3538],[26.8737,-33.1996,68.0164],[26.8706,-33.1986,73.0456],[26.8728,-33.1931,72.144],[26.877,-33.1923,65.3276],[26.8794,-33.1898,131.1593],[26.8781,-33.1803,64.8628],[26.8803,-33.1762,65.7668],[26.8766,-33.1727,78.7303],[26.8782,-33.1709,68.0937],[26.8852,-33.1693,70.1698],[26.8962,-33.1713,70.4395],[26.8906,-33.1763,64.8049],[26.899,-33.1819,59.1398],[26.8992,-33.1881,59.0423],[26.8958,-33.1917,64.9055],[26.8967,-33.1944,60.109],[26.9015,-33.2006,66.5718],[26.9091,-33.2026,61.6273],[26.9113,-33.2011,73.6378],[26.9194,-33.2009,59.035],[26.9253,-33.1981,66.4414],[26.9279,-33.195,56.11],[26.925,-33.1914,57.1679],[26.9211,-33.1914,56.3834],[26.9257,-33.1866,55.6049],[26.9234,-33.1814,57.951],[26.9215,-33.1689,54.4168],[26.9243,-33.1652,56.0425],[26.944,-33.1654,59.1474],[26.9562,-33.1697,62.6403],[26.96,-33.1731,55.5546],[26.9553,-33.175,54.1859],[26.953,-33.1785,65.8402],[26.9563,-33.1845,55.7152],[26.9571,-33.1918,50.1922],[26.9614,-33.1948,53.0407],[26.9615,-33.2012,72.85],[26.9738,-33.2107,54.3498],[26.9792,-33.2208,42.5231],[26.9625,-33.2281,43.1294],[26.9596,-33.2312,41.2494],[26.9591,-33.2352,46.4474],[26.9615,-33.2375,45.6515],[26.9669,-33.2381,56.3542],[26.9734,-33.237,41.6105],[26.9801,-33.2333,38.8918],[26.9867,-33.2334,40.3022],[26.9996,-33.2416,34.0],[27.0088,-33.2521,52.5787],[27.0079,-33.2582,30.8463],[27.0039,-33.2635,32.3216],[26.994,-33.2621,28.8504],[26.99,-33.2595,28.7898],[26.9868,-33.2545,66.9031],[26.9814,-33.2538,32.4402],[26.9726,-33.2568,18.4741],[26.9691,-33.2645,17.9721],[26.9693,-33.2678,19.9517],[26.9826,-33.2683,22.2725],[26.9891,-33.2721,21.465],[26.9975,-33.2808,16.1351],[27.0033,-33.2951,17.7221],[27.0037,-33.3023,14.8615],[26.9985,-33.3155,52.4259],[27.0027,-33.3176,21.151],[27.0026,-33.3202,12.4031],[26.9986,-33.3307,17.8802],[26.9925,-33.3372,43.6821],[26.9883,-33.3383,15.4511],[26.9836,-33.3427,16.8572],[26.9824,-33.3504,17.1382],[26.9853,-33.3562,9.6112],[27.0061,-33.3684,9.943],[27.0092,-33.3735,8.6729],[27.0163,-33.3792,7.5427],[27.0207,-33.3955,11.8031],[27.026,-33.4009,9.5383],[27.0353,-33.4026,7.3141],[27.0385,-33.4083,7.8293],[27.0437,-33.4121,9.8407],[27.0458,-33.4184,11.3966],[27.0496,-33.422,5.8661],[27.05,-33.4272,24.6612],[27.0543,-33.4317,25.1628],[27.0558,-33.4373,8.1745],[27.0692,-33.4444,70.3089],[27.0695,-33.4574,2.1118],[27.0782,-33.47,7.2276],[27.0919,-33.4755,0.2609],[27.0993,-33.4767,1.1787],[27.141,-33.4957,0.0],[27.1432,-33.4943,0.0],[27.1407,-33.4912,0.0],[27.1432,-33.4876,0.0],[27.1524,-33.4826,0.0],[27.1635,-33.4735,1.6331],[27.1754,-33.4696,0.553]],
[[28.6766,-31.9805,584.1115],[28.6766,-31.9804,584.1115],[28.6767,-31.9804,584.1115],[28.6767,-31.9805,584.1115],[28.6766,-31.9805,584.1115]]]]}
,"properties": {"GID_2": "ZAF.1.2_1","GID_0": "ZAF","country": "SouthAfrica","GID_1": "ZAF.1_1","province": "EasternCape","NL_NAME_1": "NA","county": "Amathole","VARNAME_2": "NA","NL_NAME_2": "NA","TYPE_2": "DistrictMunicipality","ENGTYPE_2": "DistrictMunicipality","CC_2": "DC12","HASC_2": "ZA.EC.AT","name": "Amathole.county","area_km2": 21603.88,"hist_schema_id": "Elevation0-9000","hist_area_km2": {"0": 95.68,"25": 171.74,"50": 273.54,"75": 318.43,"100": 366.3,"125": 341.16,"150": 346.42,"175": 371.17,"200": 384.94,"225": 416.53,"250": 439.71,"275": 457.85,"300": 460.15,"325": 454.83,"350": 448.15,"375": 441.46,"400": 456.12,"425": 504.77,"450": 525.88,"475": 521.4,"500": 521.24,"525": 577.27,"550": 583.44,"575": 595.75,"600": 590.18,"625": 566.15,"650": 555.82,"675": 550.81,"700": 536.23,"725": 517.38,"750": 477.8,"775": 467.25,"800": 485.16,"825": 473.39,"850": 442.52,"875": 402.25,"900": 351.39,"925": 305.98,"950": 268.0,"975": 250.62,"1000": 237.68,"1025": 228.17,"1050": 217.23,"1075": 210.28,"1100": 204.48,"1125": 194.99,"1150": 190.34,"1175": 182.96,"1200": 174.35,"1225": 161.84,"1250": 156.73,"1275": 158.58,"1300": 156.77,"1325": 157.7,"1350": 163.88,"1375": 156.99,"1400": 166.13,"1425": 164.94,"1450": 163.17,"1475": 145.08,"1500": 126.64,"1525": 102.47,"1550": 84.2,"1575": 67.64,"1600": 57.09,"1625": 48.48,"1650": 40.58,"1675": 33.69,"1700": 29.73,"1725": 26.29,"1750": 21.51,"1775": 16.81,"1800": 10.11,"1825": 6.64,"1850": 4.99,"1875": 3.69,"1900": 2.83,"1925": 3.42,"1950": 3.61,"1975": 1.9,"2000": 1.34,"2025": 0.81,"2050": 0.48,"2075": 0.45,"2100": 0.38,"2125": 0.34,"2150": 0.34}}}