{"type":"Feature","properties":{"GID_3":"ZAF.1.2.3_1","GID_0":"ZAF","country":"SouthAfrica","GID_1":"ZAF.1_1","province":"EasternCape","NL_NAME_1":"NA","GID_2":"ZAF.1.2_1","county":"Amathole","NL_NAME_2":"NA","city":"Mbhashe","VARNAME_3":"NA","NL_NAME_3":"NA","TYPE_3":"LocalMunicipality","ENGTYPE_3":"LocalMunicipality","CC_3":"EC121","HASC_3":"NA","name":"Mbhashe.city"},
"geometry":{"type": "MultiPolygon","coordinates": [[[[28.6904,-32.4285,1.0],[28.6957,-32.431,0.2457],[28.6982,-32.4285,1.3586],[28.6999,-32.4287,0.0],[28.7007,-32.4257,3.9028],[28.7049,-32.4271,0.0],[28.7076,-32.4204,3.7167],[28.7101,-32.4207,0.0],[28.7101,-32.419,0.0],[28.7024,-32.4154,1.9493],[28.7062,-32.4154,2.5792],[28.7088,-32.4174,0.0],[28.7168,-32.4129,5.7528],[28.7193,-32.4096,0.0],[28.7221,-32.409,0.0],[28.7265,-32.4046,0.0],[28.7215,-32.4032,37.0396],[28.7213,-32.3993,1.2472],[28.7229,-32.4018,0.0],[28.7276,-32.4021,0.0],[28.7451,-32.3965,0.0],[28.7474,-32.3932,0.0],[28.7474,-32.3885,1.8023],[28.7518,-32.3829,7.8235],[28.7526,-32.3776,0.0],[28.7515,-32.3754,11.3217],[28.7574,-32.3704,0.0],[28.7568,-32.369,1.4812],[28.7585,-32.3699,0.0],[28.761,-32.3676,10.6962],[28.7615,-32.3649,9.8981],[28.7651,-32.3654,0.0],[28.7718,-32.3632,0.0],[28.7729,-32.359,0.0],[28.7776,-32.3543,0.0],[28.7776,-32.3488,6.8204],[28.7882,-32.3401,0.9767],[28.7885,-32.3385,0.0],[28.784,-32.3401,19.2367],[28.7868,-32.3382,0.4984],[28.786,-32.3354,17.1697],[28.7896,-32.3304,17.0105],[28.7876,-32.3274,1.2842],[28.7904,-32.3288,19.0669],[28.7887,-32.334,5.5236],[28.7901,-32.3396,0.0],[28.7968,-32.3407,1.3913],[28.8046,-32.336,2.1778],[28.8046,-32.3346,2.1778],[28.8115,-32.3329,0.2012],[28.8165,-32.3296,0.0],[28.8176,-32.3232,0.4161],[28.816,-32.3213,0.0],[28.8229,-32.3196,0.0],[28.8257,-32.3171,0.0],[28.8285,-32.3118,0.0],[28.8318,-32.3093,0.0],[28.8299,-32.3057,16.2259],[28.8357,-32.3046,0.0],[28.8374,-32.3029,9.5596],[28.8368,-32.3001,1.6046],[28.851,-32.3012,3.4474],[28.856,-32.2985,4.8091],[28.8587,-32.2918,27.8042],[28.8621,-32.2918,0.0],[28.8632,-32.2887,1.9419],[28.8693,-32.2898,0.0],[28.8696,-32.2863,0.0],[28.879,-32.279,1.7416],[28.8726,-32.2704,0.9912],[28.8754,-32.2707,36.0083],[28.8801,-32.2785,2.5355],[28.8826,-32.2782,0.0],[28.8851,-32.2815,0.0],[28.8821,-32.2715,7.7165],[28.8946,-32.2599,0.0],[28.899,-32.2513,1.2597],[28.8949,-32.2432,0.4188],[28.8857,-32.2363,0.8652],[28.8804,-32.2293,4.6747],[28.903199999999998,-32.2476,4.7014],[28.9093,-32.2465,0.0],[28.9132,-32.2449,0.0],[28.914,-32.2426,7.6268],[28.9201,-32.2412,22.5097],[28.9235,-32.2432,0.0],[28.9226,-32.2385,0.3143],[28.9204,-32.2357,25.4739],[28.9271,-32.231,3.5813],[28.9274,-32.2282,5.8181],[28.9246,-32.226,2.5652],[28.929,-32.2268,0.0],[28.9351,-32.2235,0.0],[28.9379,-32.2238,0.0],[28.9387,-32.2204,3.826],[28.9415,-32.2212,0.0],[28.9443,-32.2187,0.0],[28.9435,-32.2143,9.8111],[28.9465,-32.2151,0.0],[28.9479,-32.214,0.0],[28.9468,-32.2115,0.0],[28.9504,-32.2113,0.0],[28.9501,-32.2085,0.0],[28.9468,-32.2046,3.2448],[28.9549,-32.1945,2.5751],[28.9504,-32.1912,9.3248],[28.9535,-32.1907,12.01],[28.9565,-32.194,8.7651],[28.9562,-32.1971,0.0],[28.9604,-32.1954,0.0],[28.9624,-32.1901,0.9056],[28.964,-32.1901,0.0],[28.9621,-32.1868,3.6585],[28.9682,-32.1849,0.0],[28.9724,-32.1813,0.0],[28.976,-32.181,1.5691],[28.9765,-32.1787,0.0],[28.974,-32.1763,14.3529],[28.9815,-32.1757,0.0],[28.9824,-32.1721,0.0],[28.9857,-32.1726,0.0],[28.9988,-32.1607,0.0],[28.999,-32.1593,0.0],[28.9968,-32.1585,0.0],[28.9924,-32.1615,6.98],[28.9929,-32.159,0.0],[28.9899,-32.1571,7.0906],[28.9846,-32.1382,3.9087],[28.9879,-32.1435,0.0],[28.991,-32.1551,2.1393],[28.9924,-32.1568,0.0],[28.996,-32.1571,5.1329],[28.9993,-32.1521,0.0],[29.0082,-32.1474,0.0],[29.0113,-32.1415,0.0],[29.011,-32.1393,0.0],[29.0088,-32.1393,0.0],[29.0101,-32.1343,6.5974],[29.0149,-32.1287,14.4525],[29.0165,-32.129,0.0],[29.0243,-32.1215,0.0],[29.031,-32.1196,0.0],[29.0335,-32.116,6.4545],[29.039,-32.1154,0.0],[29.0499,-32.1037,39.0909],[29.0535,-32.1029,22.7815],[29.0571,-32.1043,0.0],[29.0613,-32.1029,0.0],[29.064,-32.0999,0.0],[29.0618,-32.0988,5.645],[29.0632,-32.0968,2.254],[29.0679,-32.0985,0.0],[29.071,-32.094,0.0],[29.0688,-32.089,0.0],[29.0749,-32.0838,0.0],[29.0765,-32.0785,2.1786],[29.0793,-32.0807,10.4186],[29.0896,-32.0804,0.0],[29.0874,-32.066,0.0],[29.0929,-32.0624,1.2629],[29.0933,-32.0574,99.6432],[29.0919,-32.0565,99.6432],[29.0948,-32.0551,80.9227],[29.0936,-32.0529,69.4351],[29.0891,-32.0514,107.4032],[29.0855,-32.0521,122.9093],[29.0865,-32.048,57.3197],[29.0837,-32.0458,63.317],[29.0805,-32.0466,113.0309],[29.0787,-32.0452,54.4154],[29.0741,-32.0499,141.8185],[29.0677,-32.0488,165.4873],[29.0729,-32.044,116.5392],[29.0732,-32.0414,92.1385],[29.0647,-32.035,131.7715],[29.0483,-32.0395,132.5779],[29.0432,-32.0395,161.9837],[29.0424,-32.0421,177.4046],[29.0375,-32.0411,209.8199],[29.0396,-32.0342,226.356],[29.033,-32.0295,211.9487],[29.0305,-32.0214,203.9488],[29.0253,-32.0174,227.5528],[29.0253,-32.0154,276.023],[29.0199,-32.0142,319.9052],[29.0147,-32.0153,334.6012],[29.0108,-32.0071,299.0131],[29.0022,-32.0006,288.7516],[28.9992,-32.0002,283.1786],[28.9968,-31.9965,290.7969],[28.993,-31.9954,312.9199],[28.9904,-31.9901,360.985],[28.9857,-31.9906,345.2666],[28.9817,-31.987,374.5356],[28.9812,-31.9845,336.0145],[28.9739,-31.9859,226.6466],[28.969,-31.9889,181.1751],[28.9638,-31.9784,240.012],[28.9595,-31.9795,218.9705],[28.9598,-31.9722,219.2218],[28.9578,-31.9709,215.56],[28.9559,-31.9648,243.5009],[28.9496,-31.9651,256.6076],[28.9507,-31.9605,240.5685],[28.948,-31.9586,245.3571],[28.9423,-31.9601,272.0534],[28.9405,-31.9569,259.7592],[28.9413,-31.9524,313.7271],[28.9352,-31.952,277.4853],[28.9328,-31.9478,280.7985],[28.9299,-31.9498,334.2369],[28.9295,-31.9478,296.4714],[28.9264,-31.9479,313.9477],[28.9248,-31.944,336.1963],[28.9193,-31.9474,358.255],[28.9175,-31.9518,359.27],[28.9128,-31.9505,373.7695],[28.9098,-31.9531,370.1431],[28.9057,-31.9534,389.2715],[28.9043,-31.9516,405.4151],[28.9011,-31.9514,429.0856],[28.8874,-31.9536,435.5331],[28.8856,-31.957,443.0458],[28.8853,-31.9626,420.7334],[28.8811,-31.9661,391.6512],[28.8766,-31.9659,382.9536],[28.8738,-31.9624,397.9353],[28.8665,-31.9606,382.4247],[28.8633,-31.9656,480.7498],[28.8608,-31.9659,425.7242],[28.8556,-31.9704,304.0011],[28.8542,-31.9762,297.5165],[28.8477,-31.9767,325.5551],[28.8479,-31.9806,324.358],[28.8541,-31.9822,289.7939],[28.8514,-31.9851,291.6261],[28.8489,-31.986,287.1992],[28.8425,-31.9831,287.3536],[28.8432,-31.9879,288.413],[28.8402,-31.9898,314.2519],[28.8373,-31.9882,295.9157],[28.839,-31.9848,275.2501],[28.8337,-31.9865,278.024],[28.8335,-31.9931,290.4296],[28.8281,-31.9953,269.1435],[28.8395,-31.9975,258.7408],[28.8408,-32.0015,336.1389],[28.8381,-32.0018,267.5048],[28.8302,-31.9973,270.5946],[28.8277,-32.0039,291.4203],[28.8284,-32.0108,305.2136],[28.8272,-32.0105,280.1596],[28.8246,-32.0002,311.0947],[28.8207,-32.0024,292.0544],[28.8201,-32.006,288.3519],[28.8149,-32.0012,320.8544],[28.8101,-32.0048,335.5284],[28.8088,-31.9996,310.0781],[28.8074,-31.9991,326.9706],[28.803,-32.0032,340.9753],[28.8086,-32.0135,320.4625],[28.8073,-32.015,308.2626],[28.8052,-32.0148,318.4659],[28.8038,-32.0126,316.2415],[28.8014,-32.0143,312.8067],[28.7987,-32.0113,315.7026],[28.7899,-32.0102,322.9412],[28.7863,-32.0119,335.2402],[28.7865,-32.0141,324.306],[28.7946,-32.016,352.3909],[28.7975,-32.0192,336.5468],[28.8015,-32.02,342.4623],[28.7968,-32.0278,345.733],[28.7945,-32.0272,347.3094],[28.7934,-32.0284,356.5591],[28.7945,-32.0295,356.5591],[28.7927,-32.0309,395.7857],[28.7933,-32.0322,395.9586],[28.791,-32.0324,382.0608],[28.7881,-32.0355,413.5789],[28.7879,-32.0401,434.5183],[28.7901,-32.0434,508.7714],[28.7822,-32.046,523.4244],[28.7735,-32.0425,563.0879],[28.7613,-32.0424,563.66],[28.7546,-32.0362,576.231],[28.7497,-32.0355,574.5522],[28.7449,-32.0306,562.5557],[28.7458,-32.0205,483.4083],[28.7375,-32.0167,474.3949],[28.7339,-32.009,543.7032],[28.7292,-32.0114,581.9311],[28.7244,-32.0111,592.7042],[28.7188,-32.0092,614.3912],[28.7175,-32.0063,618.3494],[28.7128,-32.0077,574.9803],[28.7097,-32.0047,600.7318],[28.7091,-31.9973,633.9952],[28.6945,-31.9951,646.9714],[28.701,-31.9936,626.639],[28.7049,-31.9901,585.1753],[28.7063,-31.9865,567.9205],[28.7057,-31.9839,578.423],[28.7024,-31.9814,610.4789],[28.6923,-31.9863,625.0613],[28.6979,-31.9754,570.5601],[28.6972,-31.9676,607.7178],[28.6951,-31.9644,657.827],[28.7006,-31.9616,674.7329],[28.6984,-31.9591,624.8374],[28.6897,-31.9599,576.9266],[28.6854,-31.957,582.2748],[28.6799,-31.9562,587.2225],[28.6679,-31.961,663.4628],[28.663,-31.965699999999998,741.7156],[28.661,-31.9701,728.9977],[28.6629,-31.9787,663.6057],[28.6775,-31.9781,571.436],[28.6777,-31.9793,571.436],[28.6688,-31.9873,633.8906],[28.6637,-31.9883,607.4209],[28.6575,-31.9921,585.2948],[28.6577,-31.9937,584.0986],[28.662,-31.9965,615.7214],[28.6621,-31.9986,631.8937],[28.6646,-31.9955,637.9545],[28.6713,-31.9949,654.726],[28.6785,-31.9982,638.0131],[28.6763,-32.0009,590.8692],[28.6672,-32.0036,459.7422],[28.6626,-32.0092,391.3973],[28.6534,-32.0148,315.1043],[28.6526,-32.0172,304.1237],[28.6477,-32.0188,282.714],[28.6437,-32.0244,228.4295],[28.6313,-32.0182,231.5417],[28.6199,-32.0202,245.7474],[28.6139,-32.0196,270.2031],[28.5999,-32.012,248.2043],[28.5987,-32.0071,250.3307],[28.6029,-32.0027,310.5175],[28.6088,-32.0015,252.2155],[28.6234,-32.0048,256.0444],[28.6275,-32.0027,263.9898],[28.6279,-31.9981,274.8796],[28.626,-31.9948,274.4005],[28.6214,-31.9931,271.1943],[28.6082,-31.9994,267.8452],[28.6037,-31.9984,273.5444],[28.6015,-31.9961,288.5288],[28.6018,-31.9927,277.6098],[28.6105,-31.993,283.664],[28.6129,-31.9887,295.9536],[28.6126,-31.9852,287.017],[28.5986,-31.9723,285.9993],[28.5874,-31.9676,301.1387],[28.5819,-31.9679,311.8665],[28.5789,-31.9718,293.5199],[28.5911,-31.9895,303.87],[28.5914,-31.997,323.4229],[28.5882,-32.0005,309.413],[28.5837,-32.0008,311.5035],[28.5795,-31.9988,328.8632],[28.5684,-31.9853,337.4137],[28.558,-31.9792,348.7814],[28.5547,-31.9802,334.8947],[28.5513,-31.9889,334.4793],[28.5471,-31.9931,339.1628],[28.5283,-31.9953,346.8511],[28.5224,-31.9929,345.0739],[28.5189,-31.9884,349.8083],[28.5192,-31.9833,353.4975],[28.5227,-31.9799,348.598],[28.5325,-31.9808,367.5352],[28.5421,-31.9885,349.75],[28.5451,-31.9883,355.8938],[28.5465,-31.9861,357.2313],[28.5361,-31.964,373.4479],[28.5317,-31.9576,368.3656],[28.5292,-31.9565,371.4146],[28.5232,-31.9557,363.8238],[28.5211,-31.9584,377.8484],[28.5218,-31.9623,367.8797],[28.5307,-31.9663,372.5965],[28.5299,-31.9706,381.1744],[28.5261,-31.9728,372.4698],[28.5131,-31.9728,376.8869],[28.49,-31.9691,388.7291],[28.484,-31.9736,379.2969],[28.4733,-31.9745,383.2183],[28.4695,-31.9742,384.5034],[28.4654,-31.97,389.8461],[28.4652,-31.9678,385.4058],[28.4696,-31.9611,392.8083],[28.4772,-31.9535,388.125],[28.4806,-31.952,390.8318],[28.4876,-31.9511,421.2738],[28.5042,-31.955,412.6584],[28.5086,-31.954,397.2089],[28.5108,-31.9503,402.691],[28.5148,-31.9334,412.4189],[28.5041,-31.93,410.1919],[28.494,-31.9349,431.0793],[28.4718,-31.934,439.8106],[28.4678,-31.9292,439.6369],[28.4676,-31.9248,435.5536],[28.4784,-31.9169,442.0173],[28.478,-31.9135,444.3786],[28.4746,-31.9095,454.889],[28.4679,-31.912,448.2541],[28.464,-31.9214,481.1736],[28.4601,-31.9251,463.9874],[28.4445,-31.9179,449.916],[28.4403,-31.9086,451.3606],[28.4424,-31.8971,452.91],[28.4295,-31.892,459.4952],[28.426,-31.8884,488.9631],[28.4296,-31.8785,485.7065],[28.4275,-31.8702,468.5755],[28.422,-31.8694,487.0452],[28.4143,-31.8766,476.4431],[28.4068,-31.8791,477.3396],[28.4054,-31.8771,482.7622],[28.406,-31.8734,497.2116],[28.4169,-31.8677,490.5984],[28.4181,-31.8643,489.7755],[28.4168,-31.8607,490.0891],[28.4011,-31.85,495.9419],[28.3932,-31.8512,517.0071],[28.3858,-31.8594,502.0856],[28.3825,-31.859,508.3799],[28.3789,-31.8559,507.1143],[28.3793,-31.8512,513.684],[28.3861,-31.8436,556.6165],[28.3865,-31.84,532.3],[28.3834,-31.836,514.3987],[28.3696,-31.8351,513.4223],[28.3669,-31.8385,536.3306],[28.3687,-31.8457,520.0526],[28.3655,-31.8472,517.5406],[28.363,-31.8454,517.5129],[28.357,-31.8329,530.41],[28.353,-31.8289,543.3082],[28.3426,-31.8274,552.8513],[28.3341,-31.8305,561.0029],[28.3274,-31.8282,547.599],[28.3263,-31.834,547.8561],[28.3276,-31.8377,551.0634],[28.3165,-31.8403,556.7634],[28.3128,-31.8481,567.759],[28.3053,-31.8456,564.069],[28.3018,-31.8399,559.3855],[28.3069,-31.8339,570.8787],[28.3072,-31.8313,566.0435],[28.2951,-31.8196,576.3293],[28.2926,-31.8093,578.5048],[28.2869,-31.8054,579.7927],[28.2846,-31.8077,590.0191],[28.2829,-31.8169,585.9809],[28.2808,-31.8176,579.8903],[28.2779,-31.8152,592.2562],[28.2806,-31.8108,594.4372],[28.2793,-31.8006,590.561],[28.2726,-31.8022,590.6212],[28.2661,-31.8012,591.3877],[28.2663,-31.7961,588.0701],[28.2707,-31.7902,626.5238],[28.2703,-31.7871,589.3015],[28.2633,-31.7913,609.178],[28.2489,-31.7965,636.3051],[28.25,-31.798,625.3713],[28.2489,-31.8077,691.9099],[28.235,-31.8372,721.3967],[28.2355,-31.8478,718.0464],[28.2395,-31.8539,726.4374],[28.2363,-31.8543,749.958],[28.2356,-31.8559,732.617],[28.2404,-31.8614,719.4245],[28.2375,-31.8615,721.4066],[28.2294,-31.8553,767.6026],[28.2249,-31.8589,767.33],[28.2268,-31.8672,781.2814],[28.2336,-31.8677,745.8433],[28.2341,-31.8696,743.7205],[28.2362,-31.8694,713.9586],[28.2221,-31.896,820.5173],[28.2215,-31.9006,815.957],[28.2174,-31.9094,812.887],[28.2211,-31.9105,793.2224],[28.2202,-31.9133,774.2252],[28.2127,-31.9203,772.7585],[28.2096,-31.9283,799.324],[28.2089,-31.9457,809.2133],[28.1943,-31.9677,866.4443],[28.1922,-31.9606,839.8497],[28.1873,-31.9651,830.0383],[28.1832,-31.9662,811.1343],[28.1831,-31.9607,806.4741],[28.1851,-31.9564,822.0716],[28.1699,-31.948,802.5621],[28.1695,-31.9534,787.3302],[28.1792,-31.9586,799.7165],[28.1789,-31.9675,803.9648],[28.1666,-31.97,806.7166],[28.1513,-31.9792,823.5549],[28.1414,-31.9826,835.5332],[28.1321,-31.9891,816.322],[28.1299,-31.9937,800.7216],[28.1251,-31.9969,829.3968],[28.1205,-31.9963,820.5072],[28.1081,-31.9995,774.9896],[28.1037,-32.0041,789.7988],[28.0793,-32.0107,797.2492],[28.0659,-32.0162,836.0651],[28.0556,-32.0251,868.7562],[28.0526,-32.0342,895.7332],[28.0464,-32.0408,923.502],[28.0349,-32.0432,954.3914],[28.0297,-32.0399,963.8383],[28.0265,-32.0398,975.5067],[28.0191,-32.0425,1034.6978],[28.0472,-32.0537,1085.1346],[28.0475,-32.057,1070.7629],[28.0613,-32.0657,1039.5388],[28.0729,-32.0614,1000.0015],[28.0825,-32.0543,992.139],[28.1088,-32.0559,969.0516],[28.1134,-32.0549,968.084],[28.1137,-32.0568,963.0289],[28.1255,-32.0592,977.0804],[28.1267,-32.0633,1004.7889],[28.1291,-32.0648,996.9816],[28.1299,-32.0613,1003.5849],[28.1365,-32.0617,995.6118],[28.1466,-32.0563,986.357],[28.1563,-32.0554,1014.7542],[28.1598,-32.0357,1077.8345],[28.1645,-32.032,1090.688],[28.178,-32.0304,1044.1384],[28.1872,-32.0258,1074.1399],[28.1962,-32.0333,1078.8669],[28.2042,-32.0524,1027.1012],[28.2312,-32.0574,1030.053],[28.2354,-32.0524,1033.3735],[28.2409,-32.0525,1036.7019],[28.2513,-32.0685,1011.5601],[28.2509,-32.0724,1014.1072],[28.2429,-32.0884,995.1246],[28.2414,-32.0998,959.5066],[28.2498,-32.1059,938.8334],[28.2513,-32.1129,947.9291],[28.2516,-32.1282,908.7362],[28.2466,-32.1583,873.0563],[28.248,-32.1625,885.8693],[28.2518,-32.1665,897.1874],[28.2535,-32.1727,907.0386],[28.2484,-32.1767,883.0991],[28.2497,-32.1775,883.0991],[28.2556,-32.1743,881.6666],[28.2637,-32.1754,875.7743],[28.2706,-32.1711,855.1162],[28.2783,-32.1695,855.8584],[28.2901,-32.1761,857.158],[28.2961,-32.1777,847.5531],[28.3009,-32.1821,851.4382],[28.3043,-32.1883,862.0134],[28.2942,-32.1974,838.8545],[28.2938,-32.201,857.8629],[28.2887,-32.2097,792.1768],[28.2894,-32.2143,799.4659],[28.2832,-32.2163,786.8503],[28.2769,-32.2123,758.1155],[28.2708,-32.2147,753.0345],[28.2725,-32.2197,760.0221],[28.278199999999998,-32.2222,737.6464],[28.2703,-32.2254,668.3269],[28.2747,-32.229,750.2592],[28.2778,-32.2287,770.1415],[28.2814,-32.2333,673.0127],[28.2735,-32.2417,649.5709],[28.2727,-32.248,671.4641],[28.2829,-32.2456,690.6686],[28.3167,-32.2435,705.9771],[28.3366,-32.2579,647.2844],[28.3496,-32.2626,646.2344],[28.3638,-32.271,628.6108],[28.3673,-32.2853,620.6865],[28.3707,-32.29,643.2212],[28.3855,-32.2986,597.3943],[28.3919,-32.3044,619.9253],[28.3934,-32.3076,600.7711],[28.3917,-32.3163,593.434],[28.4164,-32.3234,546.4779],[28.431,-32.3357,565.3171],[28.4377,-32.3344,585.1282],[28.4454,-32.3363,619.5292],[28.4576,-32.3335,535.0171],[28.4636,-32.328,545.36],[28.4677,-32.3269,516.3593],[28.4698,-32.3291,489.3179],[28.4732,-32.3282,489.5215],[28.4737,-32.3253,482.1397],[28.4767,-32.3224,449.3979],[28.4755,-32.3188,430.8022],[28.4849,-32.3109,319.8283],[28.49,-32.3171,363.7931],[28.4972,-32.3157,310.3209],[28.4916,-32.3217,312.5775],[28.4932,-32.3259,297.9086],[28.4966,-32.3282,345.681],[28.5004,-32.3246,296.0429],[28.5109,-32.3214,299.3267],[28.5091,-32.3197,305.1932],[28.5036,-32.3188,280.9133],[28.4998,-32.3155,274.761],[28.501,-32.3129,289.8798],[28.5049,-32.3117,273.6971],[28.5136,-32.316,280.9899],[28.5212,-32.323,290.0189],[28.5284,-32.3249,293.1179],[28.5384,-32.3226,260.7432],[28.5447,-32.3262,289.8157],[28.5442,-32.3345,239.5498],[28.5497,-32.338,230.8147],[28.5441,-32.3415,233.6183],[28.543,-32.3443,224.3344],[28.5535,-32.3494,236.0255],[28.5562,-32.3537,213.4288],[28.5487,-32.3703,215.0644],[28.5531,-32.3701,216.0268],[28.5524,-32.3735,198.6095],[28.5595,-32.3749,194.1098],[28.5609,-32.3791,225.7881],[28.5584,-32.3825,192.9327],[28.5501,-32.3836,195.7548],[28.547,-32.3855,189.0646],[28.5457,-32.3878,197.1757],[28.5473,-32.3896,177.5161],[28.5468,-32.3919,193.429],[28.5551,-32.392,182.944],[28.5608,-32.3891,174.446],[28.5655,-32.389,173.9582],[28.5692,-32.3845,226.924],[28.576,-32.3898,165.3228],[28.5811,-32.4003,191.2759],[28.5804,-32.4023,159.4587],[28.5728,-32.4014,151.2131],[28.5732,-32.4053,148.1269],[28.5844,-32.4083,160.4939],[28.5912,-32.4024,134.3535],[28.5968,-32.4031,123.7899],[28.596,-32.4052,174.623],[28.5911,-32.4064,121.3209],[28.5894,-32.4095,120.4319],[28.5968,-32.4151,108.8061],[28.6015,-32.4222,98.0747],[28.5961,-32.4239,97.3942],[28.5899,-32.4198,83.9023],[28.589,-32.4208,85.992],[28.5969,-32.4273,58.8827],[28.6042,-32.4274,138.5046],[28.6066,-32.4327,22.4331],[28.6092,-32.4345,20.0855],[28.6189,-32.4351,28.5824],[28.6233,-32.4331,10.8381],[28.6288,-32.4385,27.9441],[28.6352,-32.4358,27.5222],[28.6449,-32.4385,5.0457],[28.6665,-32.4412,32.7075],[28.6749,-32.4463,0.1104],[28.676,-32.4493,0.0],[28.6813,-32.446,0.0],[28.6807,-32.4443,5.9307],[28.6863,-32.4415,0.0],[28.6868,-32.436,3.781],[28.6946,-32.4324,0.0],[28.6893,-32.4287,14.3126],[28.6904,-32.4285,1.0]],
[[28.6766,-31.9804,584.1115],[28.6766,-31.9804,584.1115],[28.6767,-31.9804,584.1115],[28.6767,-31.9805,584.1115],[28.6766,-31.9804,584.1115]]]]}}