{"type": "Feature","bbox": [27.9313,-31.4806,28.6981,-30.3726],"geometry": {"type": "MultiPolygon","coordinates": [[[[28.3529,-31.4614,1440.814],[28.3656,-31.4639,1513.5598],[28.3813,-31.4806,1567.5857],[28.3896,-31.4777,1527.8441],[28.3986,-31.4679,1539.8927],[28.4033,-31.4369,1519.6613],[28.4071,-31.428,1533.7267],[28.4136,-31.4232,1531.6975],[28.4255,-31.4212,1575.7834],[28.4272,-31.4187,1575.9707],[28.4291,-31.4028,1551.0011],[28.4357,-31.398,1522.0309],[28.4446,-31.3974,1545.7241],[28.4452,-31.3949,1563.7507],[28.4431,-31.3901,1599.2279],[28.444,-31.3865,1658.3875],[28.4495,-31.3851,1680.4825],[28.4625,-31.3874,1672.7681],[28.4645,-31.3857,1653.3486],[28.4628,-31.383,1539.5007],[28.4651,-31.3811,1507.1182],[28.4727,-31.3772,1622.162],[28.4839,-31.3743,1393.9487],[28.4857,-31.3686,1329.641],[28.4906,-31.3668,1422.7266],[28.4965,-31.3494,1447.059],[28.4991,-31.3485,1462.3325],[28.4993,-31.3326,1446.6975],[28.4951,-31.3263,1416.3536],[28.4875,-31.3269,1428.0732],[28.4704,-31.3236,1193.2855],[28.4597,-31.3167,1120.9951],[28.456,-31.3068,1021.0094],[28.4519,-31.3035,1009.0408],[28.4548,-31.3017,1003.2494],[28.4605,-31.3027,998.6196],[28.466,-31.2988,997.6312],[28.4678,-31.2908,983.9744],[28.4649,-31.2872,974.7472],[28.4653,-31.2804,961.4477],[28.4725,-31.2746,965.5966],[28.4739,-31.2699,949.7587],[28.4768,-31.2703,949.1082],[28.4762,-31.2717,948.6449],[28.4799,-31.2716,947.1416],[28.479,-31.2673,944.4924],[28.4862,-31.2659,942.4369],[28.4956,-31.2542,935.0869],[28.4955,-31.2508,941.5974],[28.5107,-31.2504,931.9985],[28.5137,-31.2486,933.9669],[28.5141,-31.2437,928.7677],[28.5203,-31.2431,928.225],[28.5276,-31.2456,929.9576],[28.5292,-31.2488,928.7844],[28.5311,-31.2475,922.976],[28.5305,-31.2447,920.6239],[28.5318,-31.2433,923.1977],[28.535,-31.2435,920.442],[28.5379,-31.246,917.6839],[28.5401,-31.2454,916.5568],[28.5437,-31.2413,918.6292],[28.5427,-31.2373,916.5779],[28.5481,-31.2354,918.6788],[28.5536,-31.2396,918.6146],[28.5601,-31.2388,908.911],[28.5606,-31.2356,956.3469],[28.5552,-31.2318,909.1269],[28.5606,-31.2315,905.0469],[28.569,-31.2342,950.0937],[28.5711,-31.236,926.1849],[28.5708,-31.2408,902.4807],[28.5729,-31.2417,902.8788],[28.5765,-31.2404,900.1115],[28.5826,-31.2409,897.3383],[28.5831,-31.2319,896.6077],[28.588,-31.2365,902.0037],[28.5977,-31.2394,895.2964],[28.6095,-31.2373,885.9484],[28.6089,-31.2335,883.3176],[28.6128,-31.2291,899.9714],[28.6204,-31.2369,879.3599],[28.6225,-31.2352,892.8137],[28.6234,-31.2303,881.4741],[28.6276,-31.2274,879.1503],[28.6234,-31.2243,880.7821],[28.6222,-31.2211,904.319],[28.6301,-31.2211,883.0503],[28.635,-31.214,875.6868],[28.6467,-31.209,876.9557],[28.6552,-31.2013,880.4891],[28.6535,-31.1945,876.6583],[28.663,-31.1897,873.1496],[28.6644,-31.1874,879.9751],[28.6725,-31.185,873.0026],[28.678,-31.199,872.9687],[28.6805,-31.2006,872.3953],[28.6934,-31.1966,871.3655],[28.6922,-31.1937,872.5245],[28.6935,-31.1915,869.995],[28.6893,-31.1853,869.3874],[28.6823,-31.1793,869.8178],[28.6826,-31.1736,870.6957],[28.6872,-31.165,870.6666],[28.6776,-31.1633,873.8195],[28.676,-31.1646,875.4905],[28.6769,-31.1681,874.8213],[28.6681,-31.1698,884.5953],[28.6661,-31.1667,876.0101],[28.6711,-31.1632,876.7919],[28.6711,-31.1519,884.1483],[28.6746,-31.147,889.4689],[28.6755,-31.135,877.7555],[28.68,-31.1316,878.4918],[28.6884,-31.1313,878.7484],[28.6905,-31.1341,876.9813],[28.6929,-31.1334,877.5631],[28.6981,-31.1281,878.1554],[28.6952,-31.1205,879.0237],[28.6816,-31.1185,892.9462],[28.6773,-31.1146,892.9518],[28.6728,-31.1164,895.493],[28.6706,-31.12,895.3523],[28.6672,-31.1171,895.094],[28.6536,-31.1138,906.8253],[28.652,-31.1122,898.3817],[28.6545,-31.106,901.7512],[28.6505,-31.1064,910.4085],[28.6421,-31.0994,913.1678],[28.6356,-31.1045,909.8959],[28.6236,-31.0975,922.5972],[28.6181,-31.1024,916.1569],[28.6139,-31.104,910.7363],[28.6083,-31.1028,915.0685],[28.6065,-31.0998,910.4453],[28.6103,-31.1007,914.1874],[28.6116,-31.0968,923.177],[28.6084,-31.0912,921.3063],[28.6016,-31.0882,912.4389],[28.5997,-31.0901,913.4861],[28.6003,-31.0949,920.7504],[28.599,-31.096,915.2157],[28.5959,-31.0951,917.948],[28.5943,-31.0969,921.8417],[28.595,-31.0989,920.954],[28.5921,-31.1066,919.879],[28.5866,-31.1063,930.4922],[28.5851,-31.102,924.8285],[28.5762,-31.098,923.63],[28.5736,-31.0986,922.465],[28.5738,-31.1008,922.8684],[28.5766,-31.1028,923.1979],[28.5804,-31.1029,929.4586],[28.5782,-31.1058,923.599],[28.5681,-31.1031,925.9982],[28.5612,-31.1046,931.3204],[28.5602,-31.1031,931.2283],[28.5628,-31.1007,928.5994],[28.5635,-31.0924,929.001],[28.5601,-31.0846,929.4347],[28.554,-31.0868,928.3246],[28.5518,-31.0904,928.6608],[28.5396,-31.0904,936.5963],[28.5357,-31.0937,935.9219],[28.5386,-31.1023,934.5992],[28.5361,-31.1064,946.9312],[28.5252,-31.1078,960.8254],[28.5248,-31.1101,931.4395],[28.5184,-31.1125,931.5864],[28.514,-31.1088,930.6273],[28.5162,-31.1048,931.0162],[28.5233,-31.1021,939.1738],[28.5208,-31.0973,938.1195],[28.5211,-31.0863,943.4039],[28.513,-31.084,971.3326],[28.5142,-31.0814,946.4706],[28.5204,-31.0774,956.2431],[28.5187,-31.07,960.3859],[28.5092,-31.062,993.1512],[28.496,-31.0578,989.7816],[28.4925,-31.0417,1013.3913],[28.4907,-31.0399,1018.0461],[28.4937,-31.0314,1054.488],[28.5053,-31.0494,1448.6938],[28.5205,-31.0486,1524.1663],[28.5203,-31.0502,1514.8743],[28.5305,-31.0544,1521.5852],[28.538,-31.0552,1531.7444],[28.5373,-31.0533,1530.8805],[28.5253,-31.0488,1537.7887],[28.5307,-31.0415,1525.0964],[28.5417,-31.036,1502.8862],[28.5423,-31.0307,1492.3046],[28.5478,-31.0251,1512.8615],[28.5499,-31.0204,1451.4617],[28.5515,-31.0218,1472.126],[28.5552,-31.0174,1399.1235],[28.5604,-31.0158,1426.3478],[28.5505,-31.0133,1427.9165],[28.5486,-31.01,1447.9573],[28.5497,-31.0044,1501.4199],[28.5483,-31.0002,1533.1265],[28.5502,-30.9952,1528.6782],[28.5534,-30.9922,1550.5049],[28.568,-30.9972,1481.3219],[28.5714,-30.994,1460.0531],[28.5747,-30.9959,1464.8368],[28.5772,-30.9929,1466.4509],[28.5834,-30.9739,1465.4413],[28.5873,-30.9668,1547.7484],[28.5804,-30.9623,1632.516],[28.5755,-30.9518,1638.1658],[28.5772,-30.95,1631.1914],[28.577,-30.9437,1611.2515],[28.5801,-30.9397,1607.4321],[28.5771,-30.9349,1564.4443],[28.5784,-30.9329,1556.6727],[28.5823,-30.9301,1587.7756],[28.5917,-30.9311,1633.2322],[28.6386,-30.9209,1751.3306],[28.6576,-30.9246,1510.8317],[28.6558,-30.9257,1484.8729],[28.6559,-30.9278,1462.4622],[28.6594,-30.9247,1528.5018],[28.6624,-30.9263,1520.4634],[28.6572,-30.9171,1628.2916],[28.6528,-30.9151,1621.2756],[28.65,-30.9076,1550.7173],[28.648,-30.8802,1677.4708],[28.6733,-30.8673,1659.7754],[28.693,-30.8675,1696.7461],[28.6946,-30.8591,1390.4711],[28.6882,-30.8459,1131.9742],[28.6871,-30.8372,1049.3247],[28.68,-30.8356,1046.1692],[28.6768,-30.8314,1051.3621],[28.681,-30.8257,1069.3657],[28.6856,-30.824,1051.9139],[28.6869,-30.8199,1051.4746],[28.6861,-30.8169,1100.6709],[28.6803,-30.8178,1069.1166],[28.6773,-30.8206,1054.9282],[28.6742,-30.8169,1076.5848],[28.6669,-30.8184,1074.6182],[28.6653,-30.8119,1067.5309],[28.6586,-30.8119,1067.7732],[28.6509,-30.8056,1072.0818],[28.6512,-30.8045,1070.9175],[28.6557,-30.8047,1075.6443],[28.6586,-30.8009,1078.0219],[28.6511,-30.7989,1077.7789],[28.6494,-30.7955,1080.4199],[28.6508,-30.7944,1081.7693],[28.6609,-30.7945,1084.7914],[28.6617,-30.7904,1095.9032],[28.6538,-30.7919,1094.2701],[28.6483,-30.7767,1119.0127],[28.6419,-30.774,1104.8418],[28.641,-30.768,1114.0048],[28.629,-30.7581,1139.1146],[28.6274,-30.7549,1116.2042],[28.6234,-30.754,1124.766],[28.6158,-30.7562,1120.606],[28.6126,-30.7542,1156.3883],[28.6106,-30.7574,1115.1615],[28.6077,-30.7551,1119.9729],[28.6082,-30.7497,1116.3701],[28.6119,-30.7503,1185.9355],[28.6126,-30.7484,1149.2026],[28.6067,-30.737,1135.4476],[28.5975,-30.7343,1131.0342],[28.6024,-30.7285,1130.144],[28.5995,-30.7265,1157.728],[28.5962,-30.7195,1172.6537],[28.5917,-30.7175,1138.5312],[28.59,-30.7115,1140.6274],[28.5863,-30.7127,1145.7168],[28.5807,-30.7085,1151.0991],[28.5727,-30.7096,1179.9574],[28.5664,-30.7074,1168.4294],[28.5599,-30.7087,1196.8129],[28.5632,-30.7016,1185.8937],[28.5541,-30.6975,1193.6956],[28.5499,-30.6924,1218.1101],[28.5522,-30.6891,1204.8781],[28.5525,-30.6837,1231.3706],[28.5546,-30.6818,1242.1013],[28.5506,-30.6787,1230.6239],[28.542,-30.6649,1313.8086],[28.544,-30.663,1388.4158],[28.5463,-30.6667,1397.2346],[28.5508,-30.6625,1505.5994],[28.5565,-30.6605,1575.6862],[28.5649,-30.6616,1572.5085],[28.5665,-30.6601,1512.6837],[28.556,-30.652,1582.715],[28.5561,-30.6452,1665.4939],[28.5602,-30.6413,1657.6394],[28.5558,-30.629,1678.5284],[28.5605,-30.6241,1556.6748],[28.5607,-30.6214,1552.0387],[28.5523,-30.6188,1583.7573],[28.5452,-30.6037,1595.5845],[28.5425,-30.6021,1605.2305],[28.5425,-30.5948,1541.7773],[28.5406,-30.589,1557.5784],[28.5367,-30.5884,1559.7003],[28.5349,-30.5843,1541.2494],[28.5285,-30.5812,1527.2643],[28.526,-30.5748,1520.7704],[28.519,-30.5724,1547.6403],[28.5136,-30.5672,1501.6658],[28.5249,-30.5482,1451.1505],[28.5358,-30.5515,1494.9022],[28.5414,-30.5511,1504.8048],[28.547,-30.5487,1603.4194],[28.5441,-30.541,1632.3933],[28.5494,-30.541,1742.8945],[28.5607,-30.5184,1481.2637],[28.5641,-30.5205,1469.4852],[28.5733,-30.5224,1563.9279],[28.5759,-30.5159,1476.6495],[28.5648,-30.5104,1438.3213],[28.5694,-30.5012,1448.5619],[28.5698,-30.4963,1432.2002],[28.5828,-30.4924,1431.4468],[28.5964,-30.4928,1425.3682],[28.5893,-30.4902,1433.5977],[28.588,-30.4873,1422.2544],[28.5922,-30.4839,1442.9623],[28.6007,-30.4817,1454.6589],[28.6085,-30.4774,1460.1877],[28.6231,-30.4754,1386.2349],[28.6243,-30.4764,1365.1926],[28.6234,-30.4798,1351.2189],[28.6196,-30.4832,1354.5463],[28.6109,-30.4862,1385.5078],[28.6084,-30.4902,1388.9412],[28.62,-30.4859,1351.5332],[28.6204,-30.4832,1348.644],[28.6285,-30.4775,1354.9626],[28.6275,-30.4726,1357.4434],[28.6243,-30.4709,1364.6246],[28.616,-30.4722,1362.0273],[28.6171,-30.4664,1360.2196],[28.6139,-30.4619,1357.902],[28.6106,-30.4662,1357.0664],[28.607,-30.4661,1356.0942],[28.607,-30.464,1362.6467],[28.601,-30.4574,1386.0056],[28.5877,-30.454,1450.9611],[28.5843,-30.4447,1485.153],[28.5751,-30.4369,1565.7388],[28.5709,-30.4397,1608.5536],[28.5451,-30.4483,1620.2151],[28.5402,-30.4515,1559.3635],[28.5376,-30.4567,1483.3929],[28.5362,-30.4673,1403.9708],[28.5331,-30.4701,1398.9342],[28.5282,-30.4702,1402.3818],[28.5272,-30.4665,1397.2301],[28.5221,-30.4672,1401.7712],[28.5184,-30.4697,1408.2776],[28.5143,-30.4678,1409.0522],[28.5062,-30.4694,1423.9584],[28.5108,-30.4601,1433.2218],[28.5106,-30.4524,1506.1044],[28.508,-30.4467,1662.2982],[28.5003,-30.4346,1745.0381],[28.4944,-30.4324,1756.2189],[28.4808,-30.4223,1726.0448],[28.4581,-30.4232,1542.2549],[28.4494,-30.4275,1480.647],[28.4462,-30.4275,1474.059],[28.4438,-30.423,1474.0608],[28.4368,-30.4192,1480.7172],[28.4349,-30.4204,1487.6433],[28.4297,-30.4177,1492.5042],[28.4247,-30.4209,1484.0277],[28.4215,-30.4212,1497.687],[28.418,-30.4177,1490.4462],[28.4153,-30.4188,1490.1351],[28.4097,-30.4126,1499.6608],[28.404,-30.4126,1503.1257],[28.4023,-30.4076,1553.5459],[28.3986,-30.4072,1510.8752],[28.3974,-30.4048,1511.8088],[28.3947,-30.4051,1516.3062],[28.3943,-30.4025,1561.0072],[28.3922,-30.403199999999998,1519.5306],[28.3905,-30.4016,1517.2861],[28.386,-30.406,1524.3446],[28.3815,-30.4027,1558.3998],[28.377,-30.4035,1543.2427],[28.3764,-30.4012,1551.2354],[28.3731,-30.4042,1546.1765],[28.3668,-30.4034,1572.3315],[28.3637,-30.4011,1590.8433],[28.3486,-30.3983,1616.3019],[28.3352,-30.3931,1697.9075],[28.329,-30.3859,1759.853],[28.3039,-30.3772,1880.4651],[28.2988,-30.3735,1933.1428],[28.2938,-30.3726,2010.7881],[28.2902,-30.3747,2079.3521],[28.2821,-30.3747,2231.3335],[28.272,-30.3729,2677.6104],[28.2688,-30.3737,2771.8787],[28.2675,-30.3759,2828.1191],[28.2672,-30.3841,2709.0208],[28.2636,-30.3868,2691.9673],[28.2586,-30.4023,2716.9834],[28.2531,-30.4045,2704.5583],[28.2577,-30.4164,2733.9043],[28.257,-30.4186,2710.4146],[28.2497,-30.4195,2642.3486],[28.2462,-30.4153,2625.5693],[28.2393,-30.4131,2652.479],[28.2373,-30.4182,2684.5857],[28.2322,-30.4207,2627.3987],[28.2283,-30.4305,2703.3474],[28.2154,-30.4306,2654.543],[28.2063,-30.4372,2682.9229],[28.1977,-30.433,2778.8079],[28.1861,-30.4352,2818.4929],[28.1796,-30.4389,2757.6152],[28.1767,-30.4456,2759.7461],[28.1725,-30.4506,2775.084],[28.1655,-30.4548,2809.2312],[28.1637,-30.4612,2835.9758],[28.1563,-30.4655,2999.1587],[28.1549,-30.4712,2978.3145],[28.1644,-30.4759,2930.7827],[28.1655,-30.4818,2835.0559],[28.1779,-30.4884,2924.1721],[28.1805,-30.4936,2858.9973],[28.1808,-30.5012,2818.0229],[28.1753,-30.5032,2651.5217],[28.1723,-30.5088,2698.6948],[28.1772,-30.5218,2595.5239],[28.1767,-30.5265,2565.999],[28.1684,-30.528,2597.0132],[28.1637,-30.5351,2674.2974],[28.163,-30.5389,2681.9097],[28.157,-30.544,2748.1982],[28.1597,-30.5518,2614.1587],[28.1635,-30.5559,2646.7771],[28.1608,-30.5586,2665.1941],[28.1626,-30.5628,2663.4839],[28.1593,-30.5683,2667.3928],[28.1602,-30.573,2545.5676],[28.1537,-30.5756,2544.7168],[28.1512,-30.584,2582.8411],[28.145,-30.5859,2623.8367],[28.1411,-30.5905,2586.3118],[28.1371,-30.5925,2571.5144],[28.1295,-30.5918,2672.0269],[28.1227,-30.5959,2719.2148],[28.1216,-30.5989,2806.8198],[28.1136,-30.5992,2819.3501],[28.1106,-30.6087,2889.8323],[28.1128,-30.6119,2905.5774],[28.1122,-30.6147,2823.7905],[28.1188,-30.6227,2764.7676],[28.117,-30.6265,2793.772],[28.1167,-30.6368,2725.8958],[28.1236,-30.6493,2663.5088],[28.1232,-30.6634,2706.3149],[28.1177,-30.6687,2797.1201],[28.1412,-30.6598,2706.3997],[28.1457,-30.6707,2597.5752],[28.1623,-30.6928,2587.2954],[28.148,-30.7,2581.3572],[28.1514,-30.7178,2547.5972],[28.1315,-30.7426,2598.22],[28.1204,-30.7782,2656.533],[28.1382,-30.7822,2643.4854],[28.1255,-30.7912,2684.929],[28.1321,-30.8353,2503.2078],[28.1214,-30.84,2546.3235],[28.1177,-30.8613,2513.8345],[28.103,-30.875,2601.0537],[28.0957,-30.8917,2414.1006],[28.0786,-30.9131,2517.8479],[28.0758,-30.9238,2554.9971],[28.0807,-30.9395,2490.3579],[28.0596,-30.9495,2489.3594],[28.0659,-30.9654,2494.2524],[28.0511,-30.9743,2523.8164],[28.0639,-31.0126,2529.7659],[28.0237,-31.0389,2520.9851],[27.9816,-31.0765,2635.2207],[27.9855,-31.152,2541.3818],[27.9685,-31.1985,2212.8499],[27.9495,-31.2038,2316.7019],[27.9411,-31.2139,2281.2671],[27.9313,-31.234,2183.8608],[27.9886,-31.2404,1837.6522],[27.9965,-31.2563,1740.4725],[28.0164,-31.2589,1783.5781],[28.0384,-31.2812,1711.2659],[28.0506,-31.2873,1570.551],[28.0644,-31.3089,1522.3823],[28.0808,-31.3237,1522.4952],[28.1014,-31.314,1463.4652],[28.1111,-31.2926,1458.5481],[28.1212,-31.3001,1509.3849],[28.1466,-31.3004,1516.5625],[28.1428,-31.3124,1493.641],[28.1668,-31.3103,1420.2981],[28.173,-31.3041,1436.3474],[28.1976,-31.3159,1473.6152],[28.2162,-31.3128,1435.782],[28.2219,-31.3244,1419.0315],[28.2295,-31.3301,1431.657],[28.2538,-31.334,1434.4148],[28.2514,-31.3565,1511.5059],[28.261,-31.3708,1500.1134],[28.281,-31.3902,1412.9819],[28.2938,-31.4167,1490.9087],[28.3107,-31.4224,1468.3751],[28.3222,-31.4285,1550.641],[28.3279,-31.4378,1569.9216],[28.3284,-31.4431,1546.6204],[28.3312,-31.4475,1538.1348],[28.337,-31.4477,1505.4648],[28.3529,-31.4614,1440.814]]]]}
,"properties": {"GID_3": "ZAF.1.6.1_1","GID_0": "ZAF","country": "SouthAfrica","GID_1": "ZAF.1_1","province": "EasternCape","NL_NAME_1": "NA","GID_2": "ZAF.1.6_1","county": "JoeGqabi","NL_NAME_2": "NA","city": "Elundini","VARNAME_3": "NA","NL_NAME_3": "NA","TYPE_3": "LocalMunicipality","ENGTYPE_3": "LocalMunicipality","CC_3": "EC141","HASC_3": "NA","name": "Elundini.city","area_km2": 5069.694,"hist_schema_id": "Elevation0-9000","hist_area_km2": {"875": 6.875,"900": 9.578,"925": 18.797,"950": 23.861,"975": 21.92,"1000": 16.854,"1025": 13.207,"1050": 14.025,"1075": 16.479,"1100": 17.3,"1125": 19.797,"1150": 26.081,"1175": 42.977,"1200": 60.013,"1225": 79.145,"1250": 104.536,"1275": 179.94,"1300": 269.046,"1325": 313.515,"1350": 312.696,"1375": 283.307,"1400": 231.588,"1425": 212.553,"1450": 197.117,"1475": 202.001,"1500": 178.077,"1525": 158.786,"1550": 128.444,"1575": 119.459,"1600": 110.869,"1625": 102.266,"1650": 98.562,"1675": 101.117,"1700": 99.637,"1725": 93.48,"1750": 87.969,"1775": 95.281,"1800": 98.685,"1825": 96.592,"1850": 97.364,"1875": 81.232,"1900": 79.224,"1925": 68.077,"1950": 65.801,"1975": 57.488,"2000": 44.736,"2025": 29.976,"2050": 24.055,"2075": 20.85,"2100": 16.35,"2125": 14.418,"2150": 13.688,"2175": 12.817,"2200": 12.306,"2225": 12.124,"2250": 10.848,"2275": 10.683,"2300": 9.518,"2325": 8.805,"2350": 8.916,"2375": 8.223,"2400": 7.549,"2425": 7.562,"2450": 8.143,"2475": 7.725,"2500": 5.943,"2525": 5.234,"2550": 3.868,"2575": 3.905,"2600": 4.325,"2625": 6.317,"2650": 9.897,"2675": 8.585,"2700": 5.937,"2725": 4.402,"2750": 3.288,"2775": 1.973,"2800": 1.662,"2825": 1.114,"2850": 0.694,"2875": 0.676,"2900": 0.42,"2925": 0.311,"2950": 0.11,"2975": 0.073}}}