{"type":"Feature","properties":{"GID_2":"ZAF.1.5_1","GID_0":"ZAF","country":"SouthAfrica","GID_1":"ZAF.1_1","province":"EasternCape","NL_NAME_1":"NA","county":"ChrisHani","VARNAME_2":"NA","NL_NAME_2":"NA","TYPE_2":"DistrictMunicipality","ENGTYPE_2":"DistrictMunicipality","CC_2":"DC13","HASC_2":"ZA.EC.CH","name":"Chris_Hani.county"},
"geometry":{"type": "MultiPolygon","coordinates": [[[[26.7214,-32.3599,1837.0887],[26.7111,-32.3445,1810.1489],[26.7118,-32.34,1805.1104],[26.7363,-32.3274,1599.4447],[26.743,-32.337,1716.2622],[26.7587,-32.3362,1671.8545],[26.7717,-32.3383,1462.087],[26.7738,-32.334,1398.0184],[26.7761,-32.3331,1378.4246],[26.782,-32.3355,1365.087],[26.7854,-32.335,1355.4906],[26.7936,-32.34,1341.0182],[26.8012,-32.3382,1331.8298],[26.8026,-32.3358,1329.4473],[26.8073,-32.3335,1321.7465],[26.8112,-32.3362,1316.3511],[26.8139,-32.3306,1316.343],[26.8299,-32.3245,1277.3103],[26.8307,-32.3227,1303.4333],[26.8282,-32.3228,1281.3719],[26.8283,-32.3204,1287.5143],[26.812,-32.3091,1543.3413],[26.8121,-32.2958,1415.9491],[26.8299,-32.2886,1596.2089],[26.8327,-32.2715,1276.203],[26.8397,-32.2718,1224.7275],[26.8449,-32.2704,1169.1931],[26.848,-32.2668,1144.7637],[26.8511,-32.2665,1125.9067],[26.8498,-32.2617,1123.3811],[26.8482,-32.2617,1160.3079],[26.8461,-32.265,1120.8096],[26.8437,-32.2633,1120.6753],[26.8423,-32.2522,1151.0718],[26.8432,-32.2482,1116.9194],[26.8465,-32.2463,1117.3656],[26.8511,-32.2469,1102.8911],[26.8541,-32.251,1100.4186],[26.8566,-32.2595,1118.8373],[26.8694,-32.2696,1417.6433],[26.893,-32.2716,1420.4365],[26.9002,-32.2514,1402.1152],[26.9251,-32.2388,1300.2069],[26.9336,-32.2266,1243.9543],[26.9595,-32.2052,1205.7712],[26.9581,-32.2039,1200.7365],[26.9627,-32.1994,1180.973],[26.9634,-32.194,1194.687],[26.9654,-32.1916,1162.5471],[26.9704,-32.193,1168.8875],[26.9795,-32.2064,1373.105],[27.0109,-32.2225,1337.8364],[27.0493,-32.2197,1129.4849],[27.0513,-32.2354,1001.4716],[27.0541,-32.2325,992.2523],[27.0572,-32.2331,1001.7443],[27.0618,-32.2292,981.3998],[27.0675,-32.2275,981.7332],[27.0721,-32.2281,971.1704],[27.0916,-32.2209,950.6384],[27.1243,-32.2287,1028.1088],[27.1199,-32.2389,1059.9373],[27.1607,-32.2385,1272.1594],[27.1643,-32.2308,1226.4517],[27.1806,-32.2331,1224.9918],[27.1851,-32.2511,1237.8491],[27.1844,-32.2528,1247.8982],[27.1984,-32.2494,1353.3374],[27.2059,-32.2661,1221.222],[27.2436,-32.2819,1262.7938],[27.261,-32.2762,1261.7987],[27.2742,-32.2698,1227.7566],[27.2925,-32.2893,1318.7881],[27.3025,-32.2885,1356.8195],[27.3049,-32.2922,1310.5616],[27.3042,-32.2953,1258.3907],[27.3197,-32.3006,1042.97],[27.3249,-32.3098,808.6465],[27.3225,-32.3129,804.8295],[27.3242,-32.3154,797.699],[27.3294,-32.316,792.8205],[27.3327,-32.3143,795.8979],[27.3331,-32.3125,788.2915],[27.3365,-32.3206,917.422],[27.3478,-32.3117,891.8034],[27.3656,-32.3305,1037.7898],[27.3706,-32.3401,1074.4117],[27.3662,-32.3511,1005.4437],[27.3869,-32.3588,1171.6931],[27.411,-32.3549,1029.9792],[27.4138,-32.3384,1084.1692],[27.4315,-32.3563,1231.6061],[27.4411,-32.3588,1281.634],[27.4513,-32.3522,1123.0669],[27.4519,-32.3486,1102.623],[27.4492,-32.3408,1067.3124],[27.4413,-32.3344,1033.0742],[27.4609,-32.3343,1245.2295],[27.4747,-32.3263,1231.8865],[27.4921,-32.3066,1237.9126],[27.4901,-32.2903,1105.873],[27.4855,-32.2793,1111.2563],[27.4925,-32.2648,830.025],[27.4858,-32.2526,877.9434],[27.5063,-32.2346,679.0702],[27.5079,-32.2308,552.2115],[27.5096,-32.2354,532.0371],[27.5142,-32.2376,531.5812],[27.5233,-32.2376,527.537],[27.5273,-32.2348,535.9821],[27.5289,-32.2294,524.119],[27.5276,-32.2228,556.5833],[27.5193,-32.2114,518.2177],[27.5206,-32.203,522.8237],[27.5351,-32.1975,527.2677],[27.5423,-32.1974,536.0959],[27.5507,-32.1998,510.1169],[27.5599,-32.2077,507.968],[27.5643,-32.206,505.1165],[27.5634,-32.1946,502.5791],[27.5582,-32.1896,569.462],[27.5578,-32.1867,549.6745],[27.552,-32.1856,680.7463],[27.5546,-32.1847,581.0217],[27.5546,-32.1817,579.1133],[27.5567,-32.1812,581.6156],[27.5605,-32.1754,611.7285],[27.5626,-32.1778,597.0689],[27.5662,-32.1759,600.5712],[27.5629,-32.1739,607.2972],[27.5642,-32.1711,612.2247],[27.5608,-32.163,627.4329],[27.5554,-32.1615,659.4366],[27.5534,-32.1593,649.0239],[27.5557,-32.1555,660.4435],[27.5532,-32.1554,684.1578],[27.5517,-32.1526,696.4543],[27.5484,-32.1521,703.7632],[27.5482,-32.1507,711.1907],[27.5456,-32.1517,741.2758],[27.5462,-32.1495,738.0963],[27.5429,-32.1497,766.0084],[27.5432,-32.1465,727.8102],[27.5403,-32.1413,740.276],[27.5422,-32.1368,752.6522],[27.5464,-32.1362,770.4023],[27.5483,-32.1326,777.5383],[27.5542,-32.1323,807.1379],[27.556,-32.1287,826.5731],[27.5652,-32.1296,890.8354],[27.5726,-32.1273,1060.9015],[27.5744,-32.1251,1131.4868],[27.5687,-32.1224,1130.6879],[27.5705,-32.1169,1030.3002],[27.5668,-32.1136,1007.3732],[27.567,-32.103,1116.2316],[27.5716,-32.1032,1138.584],[27.5817,-32.1002,1093.0359],[27.5928,-32.1036,1107.1344],[27.6017,-32.0944,1139.4945],[27.6174,-32.0967,1188.2905],[27.6204,-32.1009,1130.8174],[27.6245,-32.1001,1135.7448],[27.6318,-32.102,1131.8535],[27.6324,-32.1003,1163.1826],[27.6303,-32.0993,1167.9983],[27.6322,-32.0998,1163.1826],[27.6385,-32.1096,1132.0662],[27.6423,-32.1127,1122.8979],[27.6537,-32.1157,1060.9404],[27.6619,-32.1116,1049.8182],[27.6684,-32.1183,1086.3264],[27.6814,-32.118,1054.98],[27.6835,-32.1215,1061.5825],[27.6865,-32.122,1060.9009],[27.6943,-32.1323,1102.2808],[27.7014,-32.1318,1102.1567],[27.7057,-32.1343,1116.5468],[27.7084,-32.1438,1158.7328],[27.7037,-32.1497,1164.6332],[27.6985,-32.1534,1150.3656],[27.6883,-32.1537,1094.3396],[27.6815,-32.1635,1040.1492],[27.6931,-32.1824,995.5432],[27.6935,-32.188,991.5522],[27.6888,-32.1921,980.5614],[27.686,-32.1984,985.0762],[27.6813,-32.2036,976.1169],[27.6905,-32.2204,977.7588],[27.7052,-32.2308,974.4789],[27.7079,-32.2323,965.0746],[27.7196,-32.233,926.8646],[27.7345,-32.2321,882.8728],[27.7474,-32.235,788.6886],[27.7579,-32.2309,670.1559],[27.7696,-32.2307,541.2114],[27.7683,-32.2275,563.4822],[27.7586,-32.2221,538.763],[27.758,-32.2161,543.9689],[27.7604,-32.2113,547.3345],[27.7707,-32.2153,552.8851],[27.7789,-32.2157,571.8978],[27.7848,-32.225,559.6519],[27.7964,-32.2274,558.0294],[27.7952,-32.2243,560.3593],[27.788,-32.2201,605.7504],[27.7877,-32.2169,573.5811],[27.7944,-32.2102,565.8611],[27.7949,-32.2069,572.6305],[27.7928,-32.2052,580.9559],[27.7947,-32.2003,572.1628],[27.8035,-32.1898,575.562],[27.8128,-32.183,582.2651],[27.8072,-32.1704,594.1339],[27.8005,-32.1634,609.1227],[27.8044,-32.1614,602.61],[27.8185,-32.1635,619.262],[27.8263,-32.1568,639.4095],[27.829,-32.1493,615.1116],[27.8279,-32.1425,733.7785],[27.8248,-32.1398,624.719],[27.8229,-32.14,624.0532],[27.8195,-32.1459,629.4252],[27.8165,-32.1472,633.113],[27.8031,-32.1409,642.1935],[27.7924,-32.1329,706.3804],[27.7873,-32.1327,663.4044],[27.7825,-32.1353,658.9911],[27.7788,-32.1334,655.1753],[27.7848,-32.1214,683.966],[27.7819,-32.1148,669.9549],[27.7752,-32.1095,676.1623],[27.7747,-32.1051,680.2409],[27.779,-32.1025,703.6003],[27.7888,-32.1045,695.6926],[27.7923,-32.1012,692.0957],[27.788,-32.0949,711.7513],[27.7923,-32.0894,711.1829],[27.7844,-32.0863,777.7678],[27.7815,-32.0834,730.5995],[27.7824,-32.082,731.1945],[27.7927,-32.0795,758.3506],[27.8016,-32.0808,747.5485],[27.8093,-32.0794,758.6323],[27.8153,-32.0894,1040.5336],[27.8331,-32.0932,1069.6438],[27.8371,-32.1013,1052.4344],[27.837,-32.1051,1065.4219],[27.8413,-32.1114,1093.3367],[27.8289,-32.1182,1160.8965],[27.8497,-32.1268,1154.5474],[27.8569,-32.1328,1100.6245],[27.8628,-32.1324,1097.1184],[27.8646,-32.1306,1114.8364],[27.876,-32.1282,1110.0957],[27.8876,-32.1277,1108.811],[27.8957,-32.1231,1137.8975],[27.8857,-32.1114,1077.0],[27.885,-32.1041,1017.3835],[27.8711,-32.0842,914.0819],[27.8649,-32.0814,906.5464],[27.8638,-32.0772,909.3101],[27.8661,-32.0753,912.1042],[27.8758,-32.0741,914.2118],[27.8783,-32.0711,924.6634],[27.8809,-32.072,918.1819],[27.8814,-32.0675,954.5627],[27.8869,-32.0584,1004.834],[27.8765,-32.0564,991.7838],[27.8813,-32.0535,1007.7454],[27.8834,-32.05,1041.4147],[27.8891,-32.0498,1006.2043],[27.8962,-32.0584,995.7839],[27.9046,-32.0607,991.2338],[27.908,-32.0661,1008.377],[27.9135,-32.0665,1021.3156],[27.9287,-32.0747,1044.5675],[27.9342,-32.0735,1050.6304],[27.9502,-32.0819,1186.0944],[27.9665,-32.0627,1124.7787],[27.9997,-32.0405,1114.9872],[28.0071,-32.0389,1100.219],[28.0109,-32.0357,1144.5973],[28.0147,-32.0379,1122.8445],[28.0167,-32.0424,1041.7722],[28.0188,-32.0432,1037.3264],[28.0265,-32.0398,975.5067],[28.0297,-32.0399,963.8383],[28.0349,-32.0432,954.3914],[28.0464,-32.0408,923.502],[28.0526,-32.0342,895.7332],[28.0556,-32.0251,868.7562],[28.0659,-32.0162,836.0651],[28.0793,-32.0107,797.2492],[28.1037,-32.0041,789.7988],[28.1081,-31.9995,774.9896],[28.1205,-31.9963,820.5072],[28.1251,-31.9969,829.3968],[28.1299,-31.9937,800.7216],[28.1321,-31.9891,816.322],[28.1414,-31.9826,835.5332],[28.1513,-31.9792,823.5549],[28.1666,-31.97,806.7166],[28.1789,-31.9675,803.9648],[28.1792,-31.9586,799.7165],[28.1695,-31.9534,787.3302],[28.1699,-31.948,802.5621],[28.1851,-31.9564,822.0716],[28.1831,-31.9607,806.4741],[28.1832,-31.9662,811.1343],[28.1873,-31.9651,830.0383],[28.1922,-31.9606,839.8497],[28.1943,-31.9677,866.4443],[28.2089,-31.9457,809.2133],[28.2096,-31.9283,799.324],[28.2127,-31.9203,772.7585],[28.2202,-31.9133,774.2252],[28.2211,-31.9105,793.2224],[28.2174,-31.9094,812.887],[28.2215,-31.9006,815.957],[28.2221,-31.896,820.5173],[28.2362,-31.8694,713.9586],[28.2341,-31.8696,743.7205],[28.2336,-31.8677,745.8433],[28.2268,-31.8672,781.2814],[28.2249,-31.8589,767.33],[28.2294,-31.8553,767.6026],[28.2375,-31.8615,721.4066],[28.2404,-31.8614,719.4245],[28.2356,-31.8559,732.617],[28.2363,-31.8543,749.958],[28.2395,-31.8539,726.4374],[28.2355,-31.8478,718.0464],[28.235,-31.8372,721.3967],[28.2489,-31.8077,691.9099],[28.25,-31.798,625.3713],[28.2489,-31.7965,636.3051],[28.2707,-31.7871,620.0978],[28.2707,-31.7902,626.5238],[28.2663,-31.7961,588.0701],[28.2661,-31.8012,591.3877],[28.2726,-31.8022,590.6212],[28.2793,-31.8006,590.561],[28.2806,-31.8108,594.4372],[28.2779,-31.8152,592.2562],[28.2808,-31.8176,579.8903],[28.2829,-31.8169,585.9809],[28.2852,-31.8067,580.1606],[28.2885,-31.8055,579.7927],[28.2909,-31.8075,596.3226],[28.2936,-31.8108,578.5817],[28.2951,-31.8196,576.3293],[28.3072,-31.8313,566.0435],[28.3069,-31.8339,570.8787],[28.3019,-31.8403,559.3855],[28.3042,-31.8448,573.0116],[28.3107,-31.8481,562.1415],[28.3136,-31.8474,556.1603],[28.3165,-31.8403,556.7634],[28.3276,-31.8377,551.0634],[28.3263,-31.834,547.8561],[28.3274,-31.8282,547.599],[28.3341,-31.8305,561.0029],[28.3426,-31.8274,552.8513],[28.352,-31.8286,525.1216],[28.3504,-31.8244,531.0695],[28.3421,-31.8222,535.9909],[28.3394,-31.819,558.2046],[28.3422,-31.8146,544.1869],[28.3511,-31.8105,545.8383],[28.3378,-31.8045,551.5598],[28.3239,-31.7908,574.6093],[28.325,-31.7855,570.4923],[28.3266,-31.7843,598.9549],[28.3358,-31.7894,582.3459],[28.3529,-31.7838,599.4391],[28.3528,-31.7816,599.1541],[28.3474,-31.7787,601.3873],[28.3503,-31.7726,606.1656],[28.3501,-31.7652,613.6817],[28.3386,-31.7597,629.9729],[28.3378,-31.7555,632.6293],[28.3413,-31.7504,616.7239],[28.3567,-31.7481,634.5614],[28.3581,-31.7466,620.2862],[28.3549,-31.7435,626.7066],[28.3452,-31.7433,637.6814],[28.3442,-31.7413,631.2198],[28.3453,-31.7353,632.3964],[28.3352,-31.73,630.9507],[28.3365,-31.7271,635.4888],[28.3404,-31.7247,672.9747],[28.344,-31.7155,636.7703],[28.3425,-31.7124,670.7346],[28.3291,-31.707,642.0399],[28.3321,-31.7015,707.7529],[28.3295,-31.6946,650.7109],[28.3255,-31.6924,651.0699],[28.3226,-31.6932,656.9031],[28.318,-31.6892,679.5748],[28.3112,-31.6882,706.2567],[28.3097,-31.6805,696.8917],[28.3045,-31.6757,676.7893],[28.3134,-31.6716,672.0175],[28.3107,-31.6703,673.9352],[28.31,-31.6638,673.7958],[28.3195,-31.6622,676.5455],[28.3212,-31.6589,677.3149],[28.3206,-31.6559,681.811],[28.318,-31.6534,679.6119],[28.3151,-31.6567,676.5192],[28.3102,-31.6572,677.6538],[28.302,-31.652,675.4736],[28.3129,-31.6502,678.0409],[28.3169,-31.6445,679.686],[28.3136,-31.6404,678.8875],[28.3197,-31.6387,681.3856],[28.3228,-31.6354,680.1757],[28.3179,-31.6289,687.9254],[28.3116,-31.6304,679.9133],[28.3116,-31.6264,681.9274],[28.309,-31.6246,680.1557],[28.3101,-31.62,683.8699],[28.309,-31.6183,682.4092],[28.3114,-31.6131,685.4514],[28.3105,-31.6123,695.1666],[28.3155,-31.6061,728.9917],[28.3152,-31.6033,734.8134],[28.3188,-31.5985,754.3923],[28.3181,-31.5968,759.8181],[28.3204,-31.5965,771.303],[28.3195,-31.5942,791.7919],[28.3215,-31.5899,815.9149],[28.3256,-31.5865,836.9017],[28.3339,-31.587,893.0825],[28.3369,-31.5814,907.3489],[28.3393,-31.5807,914.4948],[28.3394,-31.5786,926.8877],[28.351,-31.5766,1015.7205],[28.3543,-31.5732,1047.8511],[28.3633,-31.5777,1083.3462],[28.3644,-31.5732,1017.5502],[28.3811,-31.558,1294.3457],[28.3825,-31.553,1565.4185],[28.3742,-31.5377,1608.6309],[28.3692,-31.538,1472.9756],[28.3733,-31.5239,1576.2314],[28.3634,-31.5022,1529.6993],[28.3732,-31.4903,1526.1984],[28.3759,-31.4801,1571.973],[28.3813,-31.48,1567.5857],[28.3656,-31.4639,1513.5598],[28.3529,-31.4614,1440.814],[28.337,-31.4477,1505.4648],[28.3312,-31.4475,1538.1348],[28.3284,-31.4431,1546.6204],[28.3279,-31.4378,1569.9216],[28.3222,-31.4285,1550.641],[28.3107,-31.4224,1468.3751],[28.2938,-31.4167,1490.9087],[28.281,-31.3902,1412.9819],[28.261,-31.3708,1500.1134],[28.2514,-31.3565,1511.5059],[28.2538,-31.334,1434.4148],[28.2295,-31.3301,1431.657],[28.2219,-31.3244,1419.0315],[28.2162,-31.3128,1435.782],[28.1976,-31.3159,1473.6152],[28.173,-31.3041,1436.3474],[28.1668,-31.3103,1420.2981],[28.1428,-31.3124,1493.641],[28.1466,-31.3004,1516.5625],[28.1212,-31.3001,1509.3849],[28.1111,-31.2926,1458.5481],[28.1014,-31.314,1463.4652],[28.0808,-31.3237,1522.4952],[28.0644,-31.3089,1522.3823],[28.0506,-31.2873,1570.551],[28.0384,-31.2812,1711.2659],[28.0164,-31.2589,1783.5781],[27.9965,-31.2563,1740.4725],[27.9886,-31.2404,1837.6522],[27.9313,-31.234,2183.8608],[27.9061,-31.2481,2140.2258],[27.9038,-31.2272,2340.8013],[27.8874,-31.2165,2186.1421],[27.8784,-31.2074,2185.8804],[27.8718,-31.2033,2214.7031],[27.8329,-31.2085,2053.3306],[27.815,-31.2076,2057.3472],[27.8081,-31.2148,2045.8693],[27.7858,-31.203,2094.8484],[27.76,-31.2036,2235.5078],[27.7529,-31.2213,1991.5872],[27.7483,-31.221,2211.7781],[27.7365,-31.2351,2152.1646],[27.7329,-31.2334,2265.1062],[27.7063,-31.2301,2001.0537],[27.7101,-31.2168,2204.0195],[27.6803,-31.2279,2159.4834],[27.6302,-31.2223,2339.6194],[27.6241,-31.224,2295.8228],[27.6052,-31.212,2277.9768],[27.5696,-31.2091,2196.1885],[27.5577,-31.2197,2240.4375],[27.559,-31.225,2224.9438],[27.5515,-31.2303,2146.7642],[27.526,-31.2271,2233.2537],[27.5145,-31.2367,2241.614],[27.4907,-31.2526,2146.9624],[27.4513,-31.2572,2434.0234],[27.4339,-31.2795,2381.7915],[27.4567,-31.301,2345.0889],[27.443,-31.3774,1862.1687],[27.4398,-31.3847,1808.0281],[27.4085,-31.4185,1794.7294],[27.3859,-31.4155,1370.5826],[27.3626,-31.4223,1374.072],[27.3446,-31.3803,1925.2323],[27.3363,-31.3754,2070.1279],[27.334,-31.3823,2086.0371],[27.3225,-31.3792,1969.2249],[27.3218,-31.3741,2082.0825],[27.3038,-31.3463,2016.0864],[27.3043,-31.3483,1972.1012],[27.2979,-31.3552,1695.7056],[27.2935,-31.3542,1677.9716],[27.2908,-31.3562,1704.2614],[27.2962,-31.375,1598.2723],[27.2814,-31.3807,1532.9359],[27.276,-31.3398,2007.8324],[27.1752,-31.3678,1676.6631],[27.1308,-31.4266,1707.1213],[27.1168,-31.421,1703.2513],[27.0996,-31.3939,1682.1552],[27.0866,-31.3975,1756.8044],[27.0673,-31.3739,1767.002],[27.0635,-31.3726,1761.7506],[27.0676,-31.3614,1921.0433],[27.0475,-31.3445,1670.9277],[27.0171,-31.361,1713.9127],[27.0113,-31.3562,1701.2814],[26.9778,-31.3408,1597.1586],[26.9613,-31.3611,1740.6572],[26.9346,-31.344,1818.8865],[26.8823,-31.378,2027.255],[26.8845,-31.3981,2037.4534],[26.8558,-31.4121,1979.8574],[26.8469,-31.4359,1994.7673],[26.8052,-31.4331,2006.6368],[26.7807,-31.4245,2017.8978],[26.7432,-31.4173,1982.2925],[26.7302,-31.4463,1906.6758],[26.6991,-31.4517,1998.9982],[26.6798,-31.4386,1909.7767],[26.6333,-31.4552,1834.499],[26.6296,-31.4056,2039.4148],[26.6127,-31.372,1766.6466],[26.6637,-31.3726,1959.4032],[26.6714,-31.3534,1762.8657],[26.6664,-31.3398,1803.8456],[26.6667,-31.3214,1745.8591],[26.6982,-31.2919,1776.24],[26.7087,-31.2771,1758.5188],[26.709,-31.2519,1872.0848],[26.7039,-31.2122,1847.7595],[26.6894,-31.1971,1953.8047],[26.6892,-31.1917,1982.9863],[26.6441,-31.2166,1924.3179],[26.6287,-31.2294,1932.1365],[26.602,-31.2266,1973.1329],[26.5773,-31.2197,1736.4016],[26.558,-31.2385,1925.4397],[26.5538,-31.2326,1955.2996],[26.5287,-31.2263,1951.4729],[26.532,-31.2078,2021.3154],[26.521,-31.2073,1972.9055],[26.4271,-31.223,1702.6931],[26.4203,-31.213,1710.3687],[26.4126,-31.2066,1685.9504],[26.4263,-31.1847,1531.1558],[26.3793,-31.1883,1630.3369],[26.371,-31.1837,1516.8523],[26.3686,-31.186,1511.4458],[26.368,-31.192,1512.6694],[26.3587,-31.1961,1509.0807],[26.3563,-31.2096,1518.0593],[26.3573,-31.2118,1522.9698],[26.3619,-31.2133,1513.6953],[26.362,-31.2163,1519.968],[26.3582,-31.2223,1521.5121],[26.3479,-31.2164,1600.0779],[26.3397,-31.2323,1804.6289],[26.3408,-31.2428,1702.4987],[26.3361,-31.2494,1629.4742],[26.3167,-31.2444,1622.8754],[26.3009,-31.235,1530.8109],[26.3028,-31.2328,1536.0071],[26.2975,-31.2332,1527.6044],[26.2989,-31.2169,1554.4236],[26.237,-31.2243,1567.4976],[26.2034,-31.2772,1551.7794],[26.1615,-31.2663,1539.5378],[26.1346,-31.2515,1683.6885],[26.1218,-31.2937,1552.6843],[26.0332,-31.3322,1996.6561],[26.0142,-31.3267,1913.4855],[25.9992,-31.3349,1964.1454],[26.0055,-31.3819,1727.7699],[26.0015,-31.4104,1778.7834],[25.9877,-31.4237,1896.9248],[25.9914,-31.4354,1719.0931],[25.966,-31.4768,1366.6722],[25.9231,-31.4675,1423.8187],[25.9205,-31.4722,1369.4777],[25.887,-31.4637,1466.0486],[25.8742,-31.458,1452.1385],[25.8566,-31.4537,1288.6172],[25.8426,-31.4606,1292.9271],[25.823,-31.4659,1253.749],[25.8152,-31.4627,1248.2305],[25.8124,-31.4671,1245.7861],[25.8139,-31.4622,1248.2305],[25.7687,-31.4441,1240.4214],[25.7687,-31.4462,1238.2704],[25.7332,-31.4551,1212.6793],[25.7234,-31.4731,1206.1416],[25.7061,-31.4751,1199.8622],[25.6917,-31.4581,1193.129],[25.6657,-31.461,1183.5336],[25.6513,-31.4488,1183.7761],[25.6512,-31.4539,1182.3845],[25.6485,-31.4584,1178.6304],[25.6494,-31.4625,1177.8903],[25.6471,-31.4644,1176.2664],[25.6483,-31.4649,1175.5032],[25.6327,-31.4741,1170.2502],[25.6323,-31.4778,1170.9137],[25.6347,-31.48,1168.2219],[25.617,-31.4739,1169.9421],[25.5893,-31.4853,1196.411],[25.582,-31.4409,1207.2866],[25.5917,-31.4189,1276.5544],[25.583,-31.3449,1331.9495],[25.5645,-31.3585,1288.3816],[25.5121,-31.346,1254.686],[25.4635,-31.352,1233.387],[25.4436,-31.3343,1341.7816],[25.4744,-31.3132,1357.4111],[25.4974,-31.3203,1267.2885],[25.5155,-31.3168,1286.1884],[25.5354,-31.2964,1344.1205],[25.5575,-31.278,1640.4288],[25.5207,-31.2682,1361.5457],[25.4941,-31.2431,1541.4534],[25.4972,-31.2346,1869.2723],[25.4794,-31.2372,1607.0967],[25.4708,-31.245,1589.141],[25.4749,-31.2492,1609.5115],[25.4646,-31.2565,1554.1987],[25.4484,-31.2562,1390.2953],[25.4403,-31.2466,1355.4731],[25.4386,-31.2466,1368.9492],[25.439,-31.2414,1387.4945],[25.4326,-31.2361,1367.9366],[25.4407,-31.2315,1396.2241],[25.4398,-31.2307,1385.7473],[25.4336,-31.2291,1407.4381],[25.3988,-31.211,1495.5022],[25.3898,-31.2128,1502.4637],[25.3862,-31.2178,1522.6426],[25.3688,-31.226,1504.6309],[25.3544,-31.236,1544.4504],[25.2906,-31.2135,1546.5774],[25.2849,-31.2234,1629.7771],[25.2682,-31.2208,1578.8851],[25.2693,-31.2144,1540.5261],[25.225,-31.1952,1531.1958],[25.2238,-31.1923,1644.1108],[25.2197,-31.1904,1678.2124],[25.211,-31.1921,1688.2432],[25.2043,-31.2017,1655.5734],[25.2096,-31.2048,1677.9592],[25.2048,-31.2151,1655.8621],[25.1984,-31.2155,1665.2009],[25.1924,-31.2134,1614.1019],[25.1791,-31.2222,1700.5833],[25.1771,-31.2346,1665.8903],[25.1705,-31.2392,1677.9944],[25.1552,-31.2311,1644.1982],[25.1527,-31.2431,1649.1681],[25.1307,-31.2394,1710.7781],[25.1152,-31.2463,1806.2477],[25.1008,-31.2595,1678.3296],[25.0844,-31.2623,1641.4702],[25.0735,-31.2533,1606.781],[25.0585,-31.2694,1760.9512],[25.0445,-31.2661,1750.8337],[25.0056,-31.2631,1633.8551],[24.9605,-31.2855,1505.4429],[24.9487,-31.2983,1617.0392],[24.942,-31.3151,1630.5909],[24.9336,-31.3204,1547.2137],[24.9234,-31.3135,1650.4396],[24.9002,-31.3167,1824.2861],[24.8988,-31.3137,1679.495],[24.853,-31.3282,1772.8783],[24.8613,-31.3563,1849.0549],[24.8629,-31.3736,1930.9722],[24.8602,-31.374,1903.4856],[24.8461,-31.3656,1859.677],[24.8255,-31.3565,1763.6152],[24.7887,-31.3895,1779.4895],[24.7243,-31.3999,1566.4132],[24.7106,-31.4095,1697.8529],[24.7048,-31.4006,1725.3347],[24.665,-31.3837,1456.7511],[24.5961,-31.3992,1438.4399],[24.5672,-31.4186,1470.384],[24.5676,-31.4272,1493.8247],[24.5588,-31.4818,1555.3594],[24.5413,-31.4868,1564.6115],[24.5194,-31.4979,1531.7209],[24.533,-31.5098,1542.0477],[24.5245,-31.5454,1678.4871],[24.5039,-31.5684,1738.8201],[24.523,-31.6037,1840.7146],[24.5173,-31.6446,2013.1226],[24.5141,-31.705,2035.5847],[24.5063,-31.7068,2038.8083],[24.5085,-31.7185,1920.5123],[24.5083,-31.7385,2123.7961],[24.5104,-31.7542,2116.7766],[24.5182,-31.7538,2078.6409],[24.5507,-31.7612,2021.9668],[24.5776,-31.7385,1847.8781],[24.5772,-31.7306,2100.5625],[24.6165,-31.7262,2167.6091],[24.6223,-31.7063,2096.7627],[24.6416,-31.6904,1904.2867],[24.6278,-31.7123,2115.0791],[24.636,-31.7185,2060.0625],[24.6559,-31.7162,1847.486],[24.642,-31.7282,1803.5936],[24.6764,-31.7335,1706.2769],[24.7044,-31.7443,1801.2822],[24.6975,-31.7586,1856.792],[24.6994,-31.7663,2001.2465],[24.7189,-31.7751,1880.0105],[24.7276,-31.7842,1919.8635],[24.7335,-31.7873,1927.9528],[24.7407,-31.7792,1962.6476],[24.7533,-31.782,1931.2701],[24.7538,-31.7917,1783.6511],[24.7719,-31.7928,1756.123],[24.7629,-31.8057,1670.8826],[24.7922,-31.7888,1918.6012],[24.8019,-31.785,1958.5942],[24.8316,-31.806,1955.9686],[24.8386,-31.8146,1966.1005],[24.8483,-31.8175,2084.0649],[24.8503,-31.8269,1846.0865],[24.8556,-31.8349,1849.8187],[24.874,-31.8403,1816.5427],[24.8959,-31.8334,1977.2473],[24.8993,-31.8373,1905.8793],[24.8979,-31.8451,2057.374],[24.9012,-31.8484,2006.8981],[24.901,-31.8571,1915.7334],[24.9048,-31.8693,1955.7386],[24.9167,-31.8644,2007.4619],[24.9184,-31.8719,1885.5269],[24.9246,-31.8801,2017.5636],[24.9199,-31.8846,2010.0969],[24.9323,-31.8917,2028.8939],[24.9391,-31.9051,1788.0117],[24.9405,-31.9227,1836.3394],[24.9439,-31.9282,1809.0447],[24.9232,-31.9437,1755.7294],[24.9254,-31.9545,1772.1345],[24.9344,-31.9713,1798.6344],[24.9437,-31.9799,1815.3383],[24.9507,-32.0073,1838.76],[24.938,-32.0533,1962.0295],[24.9479,-32.0718,2009.924],[24.9549,-32.0697,1997.7661],[24.9618,-32.0839,2016.751],[24.9671,-32.1075,1773.4169],[24.9511,-32.1227,1954.0525],[24.954,-32.1403,1787.7004],[24.9376,-32.158,1960.3717],[24.9383,-32.1736,1984.535],[24.9246,-32.1675,2135.5759],[24.9155,-32.1721,1890.6025],[24.9095,-32.1891,2080.7092],[24.9067,-32.2146,2263.0142],[24.904,-32.2219,2358.1301],[24.9224,-32.2398,2258.0249],[24.9496,-32.2412,2097.1443],[24.9802,-32.2589,2117.7161],[25.0033,-32.2504,2055.2458],[25.0185,-32.2546,1875.1575],[25.0241,-32.2643,2017.0405],[25.046,-32.2666,1910.3862],[25.055,-32.28,1966.8439],[25.0781,-32.2735,1972.0836],[25.1283,-32.2911,2006.3546],[25.1553,-32.3142,1893.6426],[25.1676,-32.3287,1872.6211],[25.1861,-32.3238,1899.3594],[25.2039,-32.3346,1887.1946],[25.2135,-32.3367,1754.4104],[25.2145,-32.3468,1696.7667],[25.2174,-32.3471,1712.1627],[25.2328,-32.3386,1626.7946],[25.2786,-32.3456,1876.4583],[25.3095,-32.3133,1987.6204],[25.3354,-32.3118,2002.8759],[25.3634,-32.3067,1837.1293],[25.3583,-32.3235,1782.8618],[25.3602,-32.3408,1787.2563],[25.3829,-32.3467,1473.3904],[25.4077,-32.374,1551.0988],[25.4174,-32.3745,1385.2701],[25.3987,-32.413,1669.6707],[25.4203,-32.4234,1666.3599],[25.4287,-32.4187,1224.3939],[25.4931,-32.4105,1227.2548],[25.4946,-32.4127,1225.6591],[25.5127,-32.3984,1328.7617],[25.5341,-32.3945,1410.0902],[25.5481,-32.4104,1345.1075],[25.5744,-32.4578,1489.2334],[25.592,-32.4586,1549.1833],[25.6047,-32.4518,1528.8059],[25.6217,-32.4568,1429.1018],[25.6373,-32.4754,1332.2703],[25.6449,-32.4797,1355.2501],[25.6551,-32.5069,1198.4308],[25.6899,-32.4991,1279.8339],[25.699,-32.522,1121.3239],[25.734,-32.5295,925.1396],[25.7855,-32.5379,874.7411],[25.7974,-32.4772,962.5229],[25.834,-32.4905,1118.6792],[25.8584,-32.492,1350.8472],[25.8871,-32.4871,1373.9287],[25.9078,-32.4574,1656.0769],[25.8994,-32.4329,1625.7793],[25.9393,-32.4061,1573.9216],[25.9401,-32.3839,1727.5824],[25.9488,-32.3768,1668.6729],[25.9506,-32.3638,1768.6826],[25.9705,-32.3544,1764.6766],[25.9962,-32.3544,1784.8083],[25.9993,-32.3504,1734.6465],[26.0327,-32.3263,1620.285],[26.047,-32.3227,1511.3513],[26.0468,-32.3167,1599.476],[26.052,-32.3123,1615.5356],[26.0816,-32.3179,1587.5424],[26.0859,-32.3145,1583.8903],[26.1194,-32.2984,1738.2211],[26.1305,-32.2822,1818.8162],[26.1297,-32.275,1704.7666],[26.1413,-32.2717,1703.578],[26.1913,-32.2852,1814.4331],[26.1893,-32.2897,1800.8945],[26.2025,-32.3313,1920.6229],[26.1865,-32.3688,1756.7753],[26.2351,-32.354,1878.0752],[26.3096,-32.376,1874.809],[26.3467,-32.3679,1701.344],[26.3709,-32.357,1828.1263],[26.4045,-32.3639,2270.3306],[26.4253,-32.3541,2045.0414],[26.4582,-32.3608,1819.2814],[26.4741,-32.3571,1801.0981],[26.498,-32.3595,1807.9539],[26.5156,-32.3546,1783.0909],[26.5337,-32.3602,1828.2097],[26.5393,-32.3764,1862.3866],[26.5392,-32.386,1816.995],[26.5667,-32.4019,1769.7877],[26.5804,-32.3871,1771.6797],[26.5877,-32.3965,1771.4941],[26.6011,-32.3973,1786.4799],[26.6082,-32.4043,1777.415],[26.6281,-32.4119,1743.1534],[26.6381,-32.4191,1682.7],[26.6486,-32.4235,1712.8613],[26.6531,-32.4217,1717.844],[26.6625,-32.4279,1687.4172],[26.6719,-32.4155,1642.8728],[26.7047,-32.4181,1618.2891],[26.7221,-32.4053,1580.1735],[26.7261,-32.3987,1643.9392],[26.7323,-32.3971,1642.2131],[26.735,-32.3903,1643.4458],[26.729,-32.3632,1877.8876],[26.7214,-32.3599,1837.0887]]]]}}