{"type": "Feature","bbox": [18.0718,-33.687,18.9974,-32.9006],"geometry": {"type": "MultiPolygon","coordinates": [[[[18.8088,-33.6097,549.5336],[18.8183,-33.5952,655.6671],[18.8363,-33.6044,533.6915],[18.8383,-33.5897,362.43],[18.8419,-33.5887,374.734],[18.8393,-33.5776,208.4149],[18.8559,-33.5691,167.8382],[18.8623,-33.5754,129.0843],[18.8928,-33.5715,130.3453],[18.8997,-33.5511,87.9802],[18.9108,-33.5513,94.1844],[18.9128,-33.55,89.2636],[18.9135,-33.5514,85.6642],[18.9381,-33.546,82.8786],[18.9365,-33.5442,86.6435],[18.9339,-33.5297,74.9435],[18.9314,-33.5251,85.889],[18.9328,-33.5229,77.9919],[18.9399,-33.5214,85.7422],[18.9363,-33.5067,71.5207],[18.9398,-33.4994,68.9453],[18.934,-33.4917,69.6112],[18.9374,-33.4846,69.1538],[18.938,-33.4701,67.9897],[18.9405,-33.4659,64.8712],[18.9542,-33.4619,63.1357],[18.9543,-33.4603,62.53],[18.9486,-33.4558,62.4485],[18.9501,-33.4511,63.175],[18.9555,-33.4485,64.3429],[18.9597,-33.4424,65.9711],[18.9562,-33.4351,61.074],[18.9555,-33.4299,59.9461],[18.9583,-33.4279,60.9389],[18.9617,-33.4296,63.0284],[18.97,-33.4299,66.2547],[18.9702,-33.4281,62.8839],[18.9672,-33.4248,64.1281],[18.9673,-33.4215,60.7132],[18.9769,-33.4076,63.2578],[18.9825,-33.4067,59.1098],[18.9825,-33.4042,61.0841],[18.9778,-33.4017,64.3564],[18.9781,-33.3996,64.6541],[18.9906,-33.3962,59.7613],[18.9925,-33.3944,58.77],[18.9887,-33.3889,57.5197],[18.9931,-33.3823,57.8102],[18.9852,-33.3804,58.9671],[18.9847,-33.3791,61.0963],[18.9907,-33.3722,59.8043],[18.9908,-33.369,61.278],[18.994,-33.3656,58.4027],[18.9857,-33.3616,58.9553],[18.9929,-33.3539,55.9746],[18.9872,-33.3474,54.4026],[18.9812,-33.3451,53.5431],[18.9792,-33.3417,53.5639],[18.9899,-33.3316,53.1956],[18.9873,-33.3295,54.5113],[18.9804,-33.3287,53.201],[18.9784,-33.3185,53.7024],[18.9845,-33.313,54.5167],[18.9958,-33.3138,56.6268],[18.9955,-33.3109,59.3059],[18.9974,-33.3076,62.467],[18.9885,-33.3053,57.9439],[18.9908,-33.3009,57.0004],[18.9888,-33.299,53.3754],[18.9795,-33.2968,52.7759],[18.9812,-33.2924,59.0859],[18.9732,-33.2886,53.1093],[18.9761,-33.282,53.9324],[18.975,-33.2781,51.5538],[18.9667,-33.2746,51.0512],[18.9646,-33.2679,51.6863],[18.9509,-33.2655,51.5708],[18.9547,-33.2598,48.8189],[18.9527,-33.2557,48.6443],[18.9468,-33.255,50.0226],[18.9457,-33.253,48.9816],[18.9507,-33.2475,47.1107],[18.9474,-33.2395,49.4658],[18.9564,-33.2336,45.8308],[18.9574,-33.2238,47.9775],[18.9563,-33.2201,44.6153],[18.9512,-33.2172,44.2167],[18.9435,-33.2086,43.1678],[18.9482,-33.2049,43.9735],[18.9471,-33.2024,44.6507],[18.9422,-33.201,48.8019],[18.9322,-33.2029,46.0606],[18.932,-33.2009,45.5143],[18.9382,-33.1975,45.3953],[18.9387,-33.195,42.1427],[18.9214,-33.1862,40.8729],[18.9217,-33.1802,41.3778],[18.9182,-33.1706,39.4809],[18.9154,-33.1666,39.803],[18.9101,-33.1639,38.4255],[18.9123,-33.1604,40.5863],[18.9118,-33.158,49.2623],[18.9046,-33.158,38.0107],[18.8975,-33.1599,43.8759],[18.8866,-33.1591,36.2368],[18.8835,-33.1563,34.9746],[18.8827,-33.1509,36.5515],[18.8782,-33.147,36.6053],[18.8708,-33.1494,36.7743],[18.8644,-33.1463,35.8561],[18.8647,-33.1408,40.7906],[18.8603,-33.1351,33.7807],[18.8633,-33.132,35.2799],[18.8631,-33.1303,37.7277],[18.8541,-33.1294,40.317],[18.8524,-33.1252,35.7528],[18.8559,-33.1215,33.5158],[18.8556,-33.1191,31.3039],[18.8504,-33.1197,42.9568],[18.8447,-33.1173,36.8551],[18.8412,-33.1081,29.8957],[18.8437,-33.1045,30.8204],[18.8414,-33.1011,33.624],[18.8415,-33.0985,30.2753],[18.8344,-33.0957,35.8168],[18.8358,-33.0868,38.4421],[18.8306,-33.0837,27.7975],[18.8294,-33.0808,30.6578],[18.8315,-33.0696,28.1261],[18.8297,-33.0682,26.5687],[18.8214,-33.0718,25.4034],[18.8228,-33.0657,26.6263],[18.8195,-33.0552,36.4788],[18.8164,-33.0519,24.5],[18.8103,-33.0527,26.7286],[18.8057,-33.0505,28.1344],[18.8107,-33.0458,25.8431],[18.8113,-33.037,24.5],[18.8166,-33.0319,25.8468],[18.8065,-33.0296,38.2493],[18.8014,-33.0238,28.3817],[18.7944,-33.0291,24.8578],[18.7894,-33.0281,26.9691],[18.7874,-33.0185,22.9385],[18.7854,-33.0162,20.7644],[18.7847,-33.0088,22.7904],[18.783,-33.007,18.4369],[18.7826,-32.9999,41.3823],[18.7735,-32.9922,32.4489],[18.7714,-32.9858,18.5238],[18.7626,-32.9836,21.6129],[18.758,-32.9801,20.2837],[18.7548,-32.9727,34.4148],[18.748,-32.9729,27.9543],[18.74,-32.9663,17.0771],[18.7338,-32.9561,22.0561],[18.7258,-32.9501,17.7949],[18.7169,-32.9493,21.4336],[18.7128,-32.951,13.8805],[18.7045,-32.9458,17.914],[18.6939,-32.9452,14.2614],[18.689,-32.9387,13.7405],[18.6825,-32.9439,14.7311],[18.6808,-32.9418,18.4279],[18.6809,-32.9358,12.518],[18.6759,-32.9293,16.6144],[18.6775,-32.9207,34.0885],[18.6701,-32.9218,14.7491],[18.665,-32.9194,17.7844],[18.6585,-32.9193,16.2345],[18.6547,-32.9152,13.4499],[18.6472,-32.9156,12.0875],[18.6365,-32.9129,25.9783],[18.6251,-32.9186,11.327],[18.6211,-32.9184,16.0631],[18.614,-32.9138,12.9826],[18.6111,-32.9189,11.1437],[18.6081,-32.9199,10.2215],[18.5958,-32.9006,8.8956],[18.5743,-32.9023,9.0416],[18.572,-32.905,52.5557],[18.5739,-32.9109,7.6826],[18.5732,-32.9132,10.4926],[18.5651,-32.9117,10.4266],[18.5603,-32.9171,12.6316],[18.5501,-32.9174,8.7499],[18.5482,-32.921,8.4327],[18.553,-32.9263,8.3109],[18.5534,-32.9317,6.0377],[18.5479,-32.94,12.8583],[18.541,-32.9415,7.1868],[18.5322,-32.9399,5.2421],[18.5265,-32.9438,6.1318],[18.5144,-32.9427,8.6574],[18.5113,-32.946,5.9459],[18.5204,-32.9562,13.9777],[18.5313,-32.9825,59.9446],[18.5385,-33.0051,73.3586],[18.5315,-33.0115,77.0628],[18.5384,-33.0347,63.9896],[18.5039,-33.0464,66.2557],[18.5207,-33.058,62.9239],[18.5354,-33.0816,71.3227],[18.505,-33.1108,68.3494],[18.5065,-33.1169,80.151],[18.5026,-33.1238,83.3636],[18.4944,-33.1263,72.9118],[18.4941,-33.1431,75.1835],[18.4977,-33.1454,74.5045],[18.4871,-33.1587,66.2926],[18.4909,-33.1669,45.9316],[18.5048,-33.1777,81.6441],[18.5169,-33.1983,76.0274],[18.4993,-33.2276,61.5193],[18.4443,-33.2181,60.4903],[18.4466,-33.2091,58.5975],[18.4201,-33.1922,40.9766],[18.4067,-33.1941,33.6507],[18.3939,-33.186,43.2049],[18.368,-33.1554,79.4222],[18.3637,-33.1602,80.6014],[18.3276,-33.1636,100.2786],[18.3084,-33.1799,108.7714],[18.2879,-33.13,104.2029],[18.2444,-33.1534,103.7283],[18.2317,-33.1527,96.0836],[18.2384,-33.1957,115.0377],[18.2066,-33.2131,146.3902],[18.2021,-33.2112,117.6632],[18.2062,-33.2733,38.9397],[18.2266,-33.3095,60.8704],[18.2049,-33.308,16.9591],[18.1913,-33.2956,9.2374],[18.1884,-33.3167,0.293],[18.1835,-33.3118,0.318],[18.1828,-33.318,4.4318],[18.1562,-33.3206,0.0],[18.161,-33.3335,1.6541],[18.1593,-33.3368,0.0],[18.161,-33.3379,4.4566],[18.161,-33.3424,7.0841],[18.156,-33.3437,0.0],[18.153199999999998,-33.3465,6.6797],[18.1468,-33.346,0.0],[18.144,-33.3493,0.0],[18.1465,-33.3512,9.94],[18.1457,-33.3554,0.0],[18.1482,-33.3563,0.0],[18.1526,-33.3549,6.0589],[18.1585,-33.3632,0.0],[18.1579,-33.3646,0.0],[18.1632,-33.3668,6.5355],[18.1624,-33.369,0.6832],[18.1724,-33.372,3.0513],[18.2035,-33.3893,3.2658],[18.2382,-33.4129,2.7789],[18.271,-33.4415,0.0],[18.286,-33.4571,2.0326],[18.2965,-33.4718,1.2061],[18.3076,-33.4835,1.1326],[18.3076,-33.4879,0.0],[18.3121,-33.494,0.6304],[18.3099,-33.496,0.5211],[18.3107,-33.4979,0.0],[18.3168,-33.4965,0.0],[18.3165,-33.4985,0.0],[18.3129,-33.5013,0.9544],[18.314,-33.5049,0.0],[18.3104,-33.5068,0.0],[18.3107,-33.5079,0.0],[18.3154,-33.5096,0.0],[18.3201,-33.516,0.2177],[18.3249,-33.5171,0.0],[18.3243,-33.5193,0.0],[18.3218,-33.5196,0.2404],[18.3215,-33.5213,5.8366],[18.3193,-33.5199,0.0],[18.3176,-33.5224,0.0],[18.3162,-33.5296,0.0],[18.3137,-33.5318,0.0],[18.3174,-33.5404,9.8129],[18.3115,-33.5404,0.0],[18.3121,-33.546,0.948],[18.3093,-33.5465,0.0],[18.3082,-33.5515,0.0],[18.3093,-33.5526,7.4984],[18.3088,-33.5596,1.087],[18.3118,-33.5632,5.1637],[18.3087,-33.5635,0.0],[18.3076,-33.5662,0.0],[18.3101,-33.5699,0.0],[18.3135,-33.5696,0.0],[18.3176,-33.5724,6.6018],[18.3196,-33.5757,0.0],[18.326,-33.5749,0.0],[18.326,-33.5707,0.4732],[18.3326,-33.5726,0.0],[18.3312,-33.571,7.2702],[18.3335,-33.5696,0.0],[18.3374,-33.5696,0.0],[18.3374,-33.5715,0.0],[18.341,-33.5735,0.0],[18.3414,-33.5708,17.6519],[18.343,-33.5706,8.5024],[18.3413,-33.5586,48.1099],[18.3604,-33.5489,89.2397],[18.3594,-33.5422,93.7334],[18.3692,-33.5253,110.4647],[18.3837,-33.5117,151.4722],[18.3888,-33.5089,149.4181],[18.4025,-33.5143,158.7608],[18.4262,-33.5112,154.3054],[18.4399,-33.4979,119.7265],[18.4555,-33.4713,176.7685],[18.4958,-33.4811,352.232],[18.5094,-33.4896,415.3577],[18.514,-33.4962,538.1907],[18.5245,-33.5036,420.9313],[18.5231,-33.5188,354.7366],[18.5242,-33.5252,255.7729],[18.5365,-33.5271,227.6523],[18.564,-33.5235,134.947],[18.5764,-33.5315,121.4494],[18.58,-33.5577,162.3927],[18.5686,-33.5621,326.8247],[18.5744,-33.5735,178.7717],[18.6059,-33.5855,76.9432],[18.618,-33.5844,71.3954],[18.6221,-33.6146,69.8812],[18.627,-33.6246,47.0387],[18.645,-33.6357,86.3364],[18.6554,-33.6341,89.5756],[18.6692,-33.6489,85.8871],[18.6709,-33.6474,86.544],[18.6897,-33.6652,82.4659],[18.6927,-33.6813,62.5179],[18.7069,-33.6813,97.7801],[18.7119,-33.6759,97.5745],[18.7304,-33.6856,97.2453],[18.7367,-33.687,104.1979],[18.752,-33.6768,101.7092],[18.7542,-33.6649,119.7155],[18.7598,-33.6656,121.9403],[18.7632,-33.6489,133.675],[18.7782,-33.6491,141.6607],[18.8088,-33.6097,549.5336]]],
[[[18.0746,-33.411,0.0],[18.0718,-33.4107,0.0],[18.0721,-33.4182,0.0],[18.0746,-33.419,1.0619],[18.0774,-33.4238,0.0],[18.0838,-33.4287,0.0],[18.0804,-33.4324,0.9738],[18.0851,-33.4354,0.0],[18.0949,-33.4335,0.0],[18.0949,-33.4318,0.0],[18.0987,-33.4329,0.1908],[18.0993,-33.4299,0.0],[18.0968,-33.4285,3.0961],[18.0976,-33.4257,0.4032],[18.0921,-33.4212,0.0],[18.0901,-33.4135,0.0],[18.0879,-33.4132,0.0],[18.0857,-33.4182,1.4915],[18.0829,-33.4188,1.0914],[18.0799,-33.4176,1.1018],[18.0746,-33.411,0.0]]]]}
,"properties": {"GID_3": "ZAF.9.6.5_1","GID_0": "ZAF","country": "SouthAfrica","GID_1": "ZAF.9_1","province": "WesternCape","NL_NAME_1": "NA","GID_2": "ZAF.9.6_1","county": "WestCoast","NL_NAME_2": "NA","city": "Swartland","VARNAME_3": "NA","NL_NAME_3": "NA","TYPE_3": "LocalMunicipality","ENGTYPE_3": "LocalMunicipality","CC_3": "WC015","HASC_3": "NA","name": "Swartland.city","area_km2": 3711.027,"hist_schema_id": "Elevation0-9000","hist_area_km2": {"0": 26.944,"25": 111.204,"50": 371.332,"75": 747.282,"100": 662.601,"125": 490.978,"150": 360.481,"175": 280.147,"200": 213.495,"225": 152.955,"250": 99.006,"275": 62.77,"300": 39.931,"325": 23.484,"350": 15.271,"375": 9.715,"400": 8.298,"425": 5.076,"450": 4.281,"475": 3.323,"500": 3.147,"525": 3.234,"550": 2.827,"575": 2.369,"600": 1.821,"625": 2.068,"650": 1.538,"675": 1.273,"700": 1.15,"725": 0.761,"750": 0.425,"775": 0.407,"800": 0.213,"825": 0.336,"850": 0.195,"875": 0.354,"900": 0.213,"925": 0.089,"950": 0.035}}}