{"type": "Feature","bbox": [26.7647,-26.9805,27.6028,-26.5186],"geometry": {"type": "MultiPolygon","coordinates": [[[[27.1744,-26.969,1309.75],[27.1901,-26.9775,1315.7927],[27.2033,-26.9805,1313.6132],[27.2079,-26.9799,1313.5],[27.2118,-26.9767,1316.3976],[27.2111,-26.9624,1319.3046],[27.2175,-26.9461,1324.6832],[27.2295,-26.939,1318.855],[27.2344,-26.9274,1321.8759],[27.2416,-26.9187,1318.8761],[27.2469,-26.9144,1320.5582],[27.255,-26.9126,1318.063],[27.2621,-26.9082,1332.3287],[27.2704,-26.8915,1327.7861],[27.278199999999998,-26.8881,1316.5],[27.2821,-26.8836,1318.2429],[27.2898,-26.8794,1317.406],[27.2924,-26.8689,1320.27],[27.2996,-26.8629,1318.875],[27.301,-26.8605,1320.812],[27.3005,-26.8561,1325.3245],[27.306,-26.8533,1325.146],[27.3328,-26.8542,1324.2788],[27.3402,-26.8609,1326.8959],[27.3395,-26.8685,1324.0],[27.340699999999998,-26.872,1326.0558],[27.3553,-26.8824,1327.9563],[27.3608,-26.8843,1331.1957],[27.3651,-26.891,1328.5],[27.3684,-26.8917,1330.5659],[27.3678,-26.8956,1334.4939],[27.3709,-26.9042,1329.5],[27.3766,-26.9049,1335.0002],[27.3808,-26.9009,1332.939],[27.3842,-26.9004,1337.2599],[27.389,-26.9039,1336.9402],[27.3913,-26.9138,1349.5957],[27.3983,-26.916,1353.0449],[27.4003,-26.9222,1352.4678],[27.4075,-26.9258,1356.2368],[27.4143,-26.9257,1370.8699],[27.4186,-26.9239,1371.0137],[27.44,-26.8995,1370.2308],[27.4442,-26.9004,1365.4091],[27.4552,-26.8906,1377.9594],[27.4713,-26.8868,1382.7712],[27.476,-26.8835,1386.145],[27.4809,-26.8634,1388.5],[27.4875,-26.8494,1391.1746],[27.491,-26.8466,1393.5273],[27.4997,-26.845,1394.73],[27.5112,-26.8378,1392.9558],[27.5108,-26.8255,1396.3798],[27.5182,-26.8102,1399.8181],[27.5153,-26.804,1394.5],[27.5059,-26.7948,1401.7098],[27.5056,-26.792,1398.6752],[27.5094,-26.7858,1403.4814],[27.5195,-26.7819,1400.7413],[27.5296,-26.7848,1399.2841],[27.5378,-26.7851,1398.0],[27.5498,-26.7752,1414.6506],[27.5557,-26.7732,1405.2574],[27.5699,-26.7812,1405.8359],[27.5816,-26.7739,1402.3539],[27.5823,-26.7679,1401.5],[27.5702,-26.7551,1402.5],[27.5697,-26.7478,1403.0],[27.5795,-26.7449,1410.9003],[27.5904,-26.7384,1406.6616],[27.5888,-26.7357,1431.7606],[27.5814,-26.731,1444.2992],[27.5891,-26.7241,1456.9739],[27.6022,-26.7229,1441.0083],[27.6028,-26.6924,1523.7415],[27.5742,-26.7158,1435.9105],[27.5742,-26.6841,1589.5878],[27.5702,-26.6836,1604.5844],[27.5691,-26.6472,1499.1606],[27.5065,-26.6462,1445.2256],[27.4548,-26.6303,1438.2335],[27.4347,-26.6318,1425.2566],[27.4258,-26.6495,1409.6362],[27.3783,-26.6107,1389.7351],[27.3854,-26.6043,1393.5317],[27.3658,-26.5738,1408.1537],[27.3386,-26.5717,1379.2317],[27.3389,-26.5781,1376.8665],[27.3315,-26.5903,1372.28],[27.3442,-26.6131,1381.6736],[27.2991,-26.6221,1361.6697],[27.2969,-26.6203,1360.5414],[27.2933,-26.6223,1359.8534],[27.2862,-26.6214,1361.496],[27.2842,-26.6222,1361.1394],[27.2855,-26.625,1357.6479],[27.2797,-26.6258,1357.4784],[27.2793,-26.6245,1359.5935],[27.2789,-26.6265,1356.573],[27.2768,-26.6259,1356.6687],[27.2769,-26.629,1355.469],[27.2731,-26.6322,1355.3971],[27.2718,-26.6304,1355.1901],[27.2683,-26.6329,1353.8215],[27.2671,-26.6306,1354.0869],[27.2617,-26.6335,1353.2866],[27.2605,-26.6315,1352.2333],[27.2574,-26.6308,1352.0541],[27.2575,-26.632,1351.0397],[27.2537,-26.6325,1351.6467],[27.2512,-26.6347,1350.1829],[27.2494,-26.6341,1350.3225],[27.2488,-26.636,1349.4884],[27.2474,-26.6344,1349.6139],[27.2419,-26.6365,1348.912],[27.235,-26.6186,1378.2864],[27.2332,-26.5955,1393.1603],[27.2345,-26.5949,1397.4995],[27.2284,-26.5711,1407.8915],[27.1826,-26.5746,1557.7754],[27.1826,-26.5631,1483.792],[27.1745,-26.5492,1463.0203],[27.1671,-26.5514,1455.5103],[27.1588,-26.5254,1493.2244],[27.1563,-26.5243,1471.6904],[27.0686,-26.5186,1437.0474],[27.0646,-26.5418,1417.8875],[26.974,-26.5359,1475.5208],[26.9455,-26.5636,1475.9274],[26.8772,-26.5609,1432.708],[26.8559,-26.5631,1435.3423],[26.8559,-26.571,1428.1545],[26.7896,-26.5793,1488.0809],[26.7881,-26.587,1472.0292],[26.7807,-26.5827,1468.8818],[26.7822,-26.5875,1460.9534],[26.7867,-26.5936,1471.4491],[26.783,-26.6111,1494.3157],[26.7858,-26.632,1508.996],[26.7794,-26.6385,1485.4076],[26.776,-26.6511,1440.3374],[26.7735,-26.6546,1443.4768],[26.7772,-26.6658,1413.453],[26.7803,-26.6897,1383.9568],[26.812,-26.6891,1429.061],[26.7889,-26.7452,1366.3344],[26.8062,-26.7539,1350.5525],[26.7942,-26.7672,1364.2861],[26.7647,-26.7646,1401.3191],[26.7652,-26.8211,1360.5754],[26.8165,-26.8051,1333.1272],[26.8158,-26.8126,1330.7939],[26.8502,-26.8165,1348.9902],[26.857,-26.8151,1340.7383],[26.8577,-26.817,1338.4924],[26.898,-26.8289,1359.1362],[26.8829,-26.8784,1322.7881],[26.8664,-26.9191,1283.0],[26.8751,-26.9246,1290.329],[26.8748,-26.9301,1290.6731],[26.8798,-26.9345,1291.9169],[26.8829,-26.9359,1284.8702],[26.8961,-26.9351,1286.1985],[26.9083,-26.9452,1289.5],[26.9098,-26.9543,1294.0405],[26.9088,-26.9606,1292.0],[26.9169,-26.9725,1292.0],[26.9197,-26.9736,1293.2188],[26.9221,-26.9716,1293.0615],[26.925,-26.9579,1292.0],[26.9233,-26.9434,1292.0],[26.9246,-26.9303,1296.3191],[26.92,-26.9105,1297.8813],[26.9205,-26.9043,1298.4233],[26.9272,-26.8871,1292.7675],[26.9404,-26.8715,1296.6897],[26.951,-26.8749,1295.5001],[26.9513,-26.8783,1296.4915],[26.9472,-26.892,1297.7122],[26.9561,-26.9002,1293.4714],[26.9748,-26.9121,1293.281],[27.0052,-26.9254,1293.0441],[27.0139,-26.9321,1294.5231],[27.028199999999998,-26.9359,1294.0],[27.04,-26.9382,1297.7168],[27.0506,-26.9367,1294.5],[27.0646,-26.9373,1295.0],[27.0734,-26.9348,1299.5306],[27.0868,-26.9385,1298.4562],[27.0949,-26.931,1301.124],[27.113,-26.9263,1302.2308],[27.1435,-26.9419,1298.5],[27.1537,-26.937,1301.9166],[27.1618,-26.9259,1301.5],[27.1647,-26.9241,1312.4106],[27.1701,-26.923,1306.5024],[27.1764,-26.9249,1304.4359],[27.1813,-26.9274,1303.875],[27.1829,-26.9304,1304.9729],[27.1818,-26.9407,1307.0278],[27.1832,-26.9503,1310.9332],[27.1815,-26.9577,1309.8218],[27.1744,-26.965,1309.5],[27.1744,-26.969,1309.75]]]]}
,"properties": {"GID_3": "ZAF.7.2.3_1","GID_0": "ZAF","country": "SouthAfrica","GID_1": "ZAF.7_1","province": "NorthWest","NL_NAME_1": "NA","GID_2": "ZAF.7.2_1","county": "DrKennethKaunda","NL_NAME_2": "NA","city": "TlokweCityCouncil","VARNAME_3": "NA","NL_NAME_3": "NA","TYPE_3": "LocalMunicipality","ENGTYPE_3": "LocalMunicipality","CC_3": "NW402","HASC_3": "NA","name": "Tlokwe_City_Council.city","area_km2": 2679.619,"hist_schema_id": "Elevation0-9000","hist_area_km2": {"1275": 0.454,"1300": 83.597,"1325": 258.267,"1350": 345.94,"1375": 367.479,"1400": 411.833,"1425": 397.508,"1450": 313.262,"1475": 222.239,"1500": 146.389,"1525": 75.135,"1550": 34.826,"1575": 12.851,"1600": 6.359,"1625": 2.706,"1650": 0.606,"1675": 0.17}}}