{"type": "Feature","bbox": [31.6977,-28.5202,32.8913,-26.8048],"geometry": {"type": "MultiPolygon","coordinates": [[[[32.1771,-28.4509,16.5784],[32.2122,-28.459,17.4918],[32.2349,-28.4548,16.5664],[32.2313,-28.4719,18.759],[32.234,-28.4723,14.3178],[32.2297,-28.4941,10.4103],[32.2413,-28.4936,10.0191],[32.2457,-28.4918,8.5146],[32.2523,-28.4927,8.2869],[32.257,-28.489,7.4784],[32.2613,-28.4883,7.3458],[32.2637,-28.4942,6.8023],[32.2744,-28.5024,5.9005],[32.288,-28.5099,6.9171],[32.2952,-28.5107,8.705],[32.3043,-28.5181,6.5636],[32.3115,-28.5202,6.0647],[32.3155,-28.5181,4.2815],[32.3164,-28.5126,3.5297],[32.3245,-28.5093,4.1483],[32.3372,-28.4939,3.2653],[32.3656,-28.4852,2.7784],[32.3802,-28.4848,1.6274],[32.3884,-28.4803,1.9634],[32.3932,-28.4727,1.9621],[32.4154,-28.4765,-0.2403],[32.4196,-28.4468,0.0],[32.4271,-28.4235,0.0],[32.4263,-28.4085,38.0049],[32.4238,-28.4071,20.026],[32.4224,-28.4035,2.0081],[32.4115,-28.4207,5.998],[32.4121,-28.4324,4.7272],[32.411,-28.4321,4.7272],[32.4096,-28.4218,3.5567],[32.4135,-28.4124,2.8529],[32.4185,-28.4082,1.7401],[32.4176,-28.4037,3.4565],[32.4226,-28.3915,0.1692],[32.4232,-28.3818,0.9314],[32.426,-28.3796,1.406],[32.4368,-28.3546,9.5848],[32.4768,-28.2962,2.4522],[32.489,-28.2724,0.0],[32.5121,-28.2343,14.4311],[32.536,-28.1904,15.0963],[32.5543,-28.1493,16.5543],[32.5599,-28.1276,-2.7773],[32.5582,-28.121,25.6657],[32.5582,-28.1032,18.9674],[32.5599,-28.0854,2.8366],[32.5946,-27.9346,0.0],[32.5946,-27.9257,0.0],[32.5926,-27.9232,15.7819],[32.5896,-27.8935,0.829],[32.6018,-27.8154,20.061],[32.6107,-27.774,9.8074],[32.6282,-27.7132,49.7543],[32.6399,-27.6876,-0.5057],[32.6437,-27.6704,7.838],[32.6474,-27.6635,0.0],[32.6474,-27.6557,0.0],[32.6526,-27.6401,4.0708],[32.6593,-27.5979,31.4079],[32.6796,-27.5443,16.2377],[32.6799,-27.5404,1.9932],[32.676,-27.5387,0.6018],[32.6732,-27.5301,24.3089],[32.6763,-27.506,0.0],[32.6824,-27.4871,0.0],[32.6982,-27.454,6.864],[32.7051,-27.4418,0.0],[32.7132,-27.4321,0.0],[32.7201,-27.4076,0.0],[32.731,-27.3868,3.7571],[32.7329,-27.3765,7.9644],[32.7407,-27.3549,1.674],[32.7513,-27.3365,3.7068],[32.7504,-27.3349,17.4677],[32.7521,-27.3335,0.0],[32.7507,-27.3307,6.9777],[32.7524,-27.3226,0.0],[32.7715,-27.2849,0.0],[32.7732,-27.2793,0.0],[32.7724,-27.271,12.5317],[32.7751,-27.2615,0.0],[32.7935,-27.2307,0.0],[32.7949,-27.2154,20.1153],[32.8082,-27.1899,0.0],[32.8057,-27.1782,0.0],[32.8082,-27.1696,0.0],[32.814,-27.1579,0.0],[32.8268,-27.139,4.7179],[32.8315,-27.1354,0.0],[32.831,-27.1335,0.0],[32.8288,-27.1329,3.2817],[32.831,-27.1251,0.0],[32.8424,-27.1087,0.0],[32.8401,-27.0993,15.8862],[32.8479,-27.0826,23.3759],[32.8493,-27.0637,0.0],[32.8596,-27.0413,0.0],[32.8613,-27.0268,0.0],[32.8676,-27.0135,0.0],[32.864,-27.0093,5.2496],[32.864,-27.0046,4.2327],[32.8654,-26.9968,0.0],[32.8718,-26.984,0.0],[32.8754,-26.965699999999998,0.0],[32.8724,-26.956,6.5915],[32.8724,-26.9496,12.3566],[32.8771,-26.9363,0.0],[32.8807,-26.8982,8.0267],[32.8765,-26.9024,4.5283],[32.8729,-26.9021,0.0],[32.871,-26.9051,0.525],[32.861,-26.9035,0.0],[32.8632,-26.9065,0.0],[32.869,-26.9082,0.4739],[32.8593,-26.9129,0.3138],[32.8593,-26.9193,0.9672],[32.854,-26.9251,0.2076],[32.8546,-26.9262,0.2076],[32.8565,-26.9243,0.2286],[32.8615,-26.9243,4.5938],[32.8649,-26.9262,3.1047],[32.8635,-26.9326,2.4185],[32.8599,-26.9343,0.6018],[32.8596,-26.9365,0.2475],[32.8618,-26.9376,2.8593],[32.8626,-26.9421,0.4348],[32.8587,-26.9474,1.0149],[32.854,-26.9507,1.8647],[32.8493,-26.9499,0.7816],[32.8468,-26.9479,0.3435],[32.8465,-26.9443,0.2523],[32.8432,-26.9418,1.0109],[32.8432,-26.9385,0.0],[32.8468,-26.9349,0.1248],[32.8535,-26.9354,0.1237],[32.8565,-26.9335,0.7616],[32.8529,-26.9324,2.0796],[32.8549,-26.9274,2.352],[32.8529,-26.926,8.4063],[32.8526,-26.9215,11.4543],[32.8551,-26.9151,0.6823],[32.8593,-26.9101,0.1644],[32.8576,-26.9018,0.0],[32.8671,-26.8949,0.5876],[32.8765,-26.8987,0.673],[32.8771,-26.894,5.8755],[32.881,-26.8924,8.0302],[32.8846,-26.8751,0.0],[32.8913,-26.8584,16.2778],[32.8622,-26.8665,22.9395],[32.8203,-26.8687,31.4777],[32.7362,-26.8665,61.9913],[32.6829,-26.8681,58.0872],[32.5657,-26.8645,93.0665],[32.3469,-26.864,26.2059],[32.3461,-26.8551,21.2753],[32.3412,-26.8556,24.2508],[32.3387,-26.86,23.3639],[32.3311,-26.8639,24.2992],[32.3254,-26.8562,25.0941],[32.3206,-26.8527,24.3336],[32.3166,-26.8528,25.1013],[32.3082,-26.8565,29.4402],[32.2957,-26.8528,27.777],[32.2879,-26.853,37.4008],[32.2804,-26.8488,30.5545],[32.2753,-26.8496,30.5032],[32.2636,-26.8473,29.1459],[32.2569,-26.8486,30.231],[32.2534,-26.8434,29.6782],[32.2488,-26.8405,31.8598],[32.2369,-26.8389,32.0296],[32.2192,-26.8328,45.8771],[32.2078,-26.8404,36.3349],[32.2045,-26.8548,34.6533],[32.1976,-26.8566,34.0228],[32.1863,-26.863,36.9651],[32.182,-26.8631,40.5841],[32.1547,-26.8559,40.2704],[32.1439,-26.8486,41.786],[32.1405,-26.8408,45.772],[32.1202,-26.8388,48.9582],[32.1084,-26.821,46.4019],[32.1052,-26.8093,55.9361],[32.1001,-26.8051,45.6301],[32.093,-26.8048,49.173],[32.0716,-26.8097,54.3759],[32.0655,-26.8118,52.3142],[32.0602,-26.8172,56.2453],[32.054,-26.8184,58.5032],[32.0454,-26.817,56.1799],[32.0387,-26.8122,58.0969],[32.0352,-26.8073,72.295],[32.03,-26.806,71.2775],[32.0177,-26.8074,64.3272],[32.0113,-26.8102,69.3637],[32.0159,-26.8199,506.6776],[31.996,-26.9242,474.6785],[32.0005,-26.9381,696.5259],[31.9844,-27.0012,414.249],[31.9867,-27.0062,596.3918],[31.9849,-27.0386,158.3499],[31.9796,-27.091,666.5367],[31.9746,-27.1164,731.0035],[31.9767,-27.1219,724.4272],[31.977,-27.1306,735.0695],[31.9741,-27.1484,720.9359],[31.9771,-27.2228,721.8132],[31.9757,-27.3108,700.7053],[31.9778,-27.3175,590.0497],[31.9848,-27.3175,716.0941],[31.9895,-27.3286,630.6031],[31.9904,-27.3435,718.2745],[31.9867,-27.3505,720.2416],[31.9885,-27.3602,678.9818],[31.9851,-27.3696,653.7323],[31.9909,-27.3731,663.093],[31.9891,-27.3822,611.1298],[31.991,-27.3851,470.7019],[31.9998,-27.3836,611.9872],[32.0047,-27.4013,574.5182],[32.0056,-27.4205,643.5292],[32.0102,-27.4569,398.0535],[32.015,-27.4601,410.4532],[32.0135,-27.4755,525.6256],[32.0159,-27.4968,541.7903],[32.0195,-27.5026,565.5642],[32.0182,-27.5056,545.2585],[32.0207,-27.5128,523.2969],[32.0238,-27.5149,458.5294],[32.0293,-27.5242,526.5394],[32.0276,-27.5258,471.4312],[32.0315,-27.5422,458.3775],[32.0377,-27.5458,566.313],[32.0449,-27.5532,616.7393],[32.0427,-27.5552,623.3044],[32.0501,-27.5838,504.4133],[32.0417,-27.5949,106.8587],[32.0406,-27.5897,108.172],[32.0374,-27.5871,107.3773],[32.0238,-27.5928,109.922],[32.014,-27.5943,113.0196],[32.0061,-27.5915,119.9181],[31.9963,-27.5818,116.1098],[31.9879,-27.5794,123.4669],[31.9803,-27.5966,125.2302],[31.9573,-27.593,125.9717],[31.9554,-27.5969,133.6297],[31.9571,-27.6045,130.8408],[31.9561,-27.6119,145.646],[31.9531,-27.6186,133.8574],[31.9513,-27.6192,135.0509],[31.9962,-27.8853,664.5643],[32.0318,-27.9291,276.1823],[32.0246,-27.931,282.8658],[32.0257,-27.9328,285.0623],[32.0234,-27.9329,289.1147],[32.0228,-27.9301,288.1388],[32.0152,-27.9314,298.3456],[32.0112,-27.93,308.5169],[32.0081,-27.9314,306.5182],[32.0061,-27.9306,311.5593],[32.0029,-27.9328,310.838],[32.0023,-27.9318,310.838],[32.0004,-27.9337,313.1783],[31.993,-27.9311,321.8231],[31.9935,-27.9282,325.0463],[31.991,-27.9258,336.2212],[31.9848,-27.9284,336.326],[31.9848,-27.9314,346.0004],[31.9803,-27.9367,354.3892],[31.9781,-27.9367,357.0893],[31.969,-27.931,374.6096],[31.9655,-27.9309,380.0894],[31.9613,-27.9314,389.1495],[31.9543,-27.9371,401.2273],[31.9564,-27.9432,433.8416],[31.9527,-27.9503,470.0131],[31.9526,-27.9582,514.4257],[31.9472,-27.9641,552.4195],[31.948,-27.9667,513.2903],[31.94,-27.9701,416.5114],[31.937,-27.9762,416.9435],[31.9398,-27.9879,357.5969],[31.9438,-27.9937,335.7927],[31.9429,-27.996,345.271],[31.9457,-27.9997,307.4194],[31.951,-28.0008,298.5204],[31.9483,-28.0038,294.951],[31.9485,-28.0061,294.9448],[31.9466,-28.0059,294.7112],[31.9465,-28.0091,293.2849],[31.9442,-28.0103,299.1976],[31.9482,-28.0133,286.7767],[31.9472,-28.0161,282.3801],[31.9494,-28.0166,277.8444],[31.9468,-28.0184,276.6835],[31.9465,-28.0251,273.8119],[31.9441,-28.0258,273.4068],[31.9461,-28.0278,275.3735],[31.9454,-28.0324,263.4909],[31.9401,-28.0348,258.3374],[31.939,-28.0389,257.4618],[31.9415,-28.0385,258.428],[31.9421,-28.0458,250.3408],[31.9439,-28.0456,251.2625],[31.9449,-28.0492,246.328],[31.9395,-28.0483,251.9666],[31.9263,-28.0397,319.2293],[31.926,-28.0382,290.6395],[31.9296,-28.0343,318.9362],[31.9228,-28.0354,304.3414],[31.921,-28.0277,340.4414],[31.9158,-28.0264,289.8809],[31.912,-28.0277,287.1294],[31.9092,-28.025,297.7186],[31.9047,-28.0266,311.6285],[31.9046,-28.0314,334.1932],[31.9008,-28.031,345.2195],[31.9002,-28.0324,342.1006],[31.8972,-28.0326,378.2382],[31.8981,-28.0355,363.6781],[31.8965,-28.0366,369.1797],[31.8928,-28.036,376.6015],[31.8867,-28.0295,438.6251],[31.8797,-28.0322,449.7159],[31.8744,-28.0369,481.0212],[31.8502,-28.0263,550.1652],[31.8465,-28.0262,539.2393],[31.8447,-28.0279,521.8124],[31.8304,-28.0293,309.5064],[31.8192,-28.038,249.6373],[31.8262,-28.0656,238.3319],[31.8209,-28.0655,233.2609],[31.8231,-28.0701,222.8907],[31.8218,-28.0766,203.7692],[31.8152,-28.0871,185.301],[31.8197,-28.0911,184.8107],[31.8068,-28.1061,171.4026],[31.8069,-28.1092,168.0938],[31.8143,-28.111,201.6195],[31.8137,-28.1145,170.0425],[31.8114,-28.1173,165.1927],[31.8025,-28.1213,163.8581],[31.8022,-28.1272,158.7633],[31.8043,-28.1318,156.3025],[31.8034,-28.1365,156.04],[31.7996,-28.1381,165.6255],[31.7947,-28.137,155.2183],[31.793,-28.1385,157.935],[31.7948,-28.146,149.7585],[31.8016,-28.153199999999998,151.2885],[31.7925,-28.1612,143.5323],[31.7908,-28.1645,142.4005],[31.7984,-28.177,135.4995],[31.7942,-28.1807,135.5603],[31.8072,-28.1889,130.0141],[31.8056,-28.1929,139.2527],[31.7998,-28.1955,127.0571],[31.8002,-28.1991,126.7632],[31.8051,-28.2034,134.7447],[31.815,-28.2032,124.751],[31.8183,-28.2049,124.8065],[31.8161,-28.2145,124.2887],[31.8131,-28.2196,134.513],[31.8081,-28.216,119.1879],[31.8062,-28.2176,119.1895],[31.7911,-28.2196,128.9323],[31.7823,-28.2157,116.5706],[31.7827,-28.2093,116.993],[31.7783,-28.2063,119.0212],[31.7711,-28.2173,133.0104],[31.7538,-28.2225,129.9699],[31.746,-28.233,139.0123],[31.7403,-28.2316,131.0661],[31.7385,-28.2207,128.9408],[31.733,-28.2184,157.5651],[31.7031,-28.2273,417.0206],[31.7004,-28.27,428.292],[31.7198,-28.2993,528.3078],[31.7196,-28.3029,521.3763],[31.7223,-28.3094,482.0656],[31.7199,-28.3135,489.1109],[31.7133,-28.3162,446.7505],[31.7069,-28.3389,341.8726],[31.6977,-28.3589,234.0528],[31.7022,-28.3611,225.9538],[31.7021,-28.3715,153.6944],[31.7119,-28.3685,141.1476],[31.7193,-28.3692,147.662],[31.7208,-28.3708,138.5834],[31.7204,-28.373,168.3316],[31.7177,-28.3741,143.1761],[31.7094,-28.3735,137.3731],[31.705,-28.3804,134.8533],[31.7113,-28.3832,139.9118],[31.7143,-28.39,155.704],[31.7269,-28.4034,131.1149],[31.7402,-28.4114,131.1139],[31.7478,-28.4129,131.6068],[31.7411,-28.4335,180.1778],[31.8109,-28.4317,287.4116],[31.9625,-28.4062,185.831],[31.9805,-28.3621,69.5591],[31.9814,-28.3504,57.7695],[31.9941,-28.3609,40.5],[32.0135,-28.3618,38.875],[32.0237,-28.3788,37.0],[32.025,-28.383,41.9306],[32.0225,-28.3856,37.1831],[32.0113,-28.3802,35.4204],[32.0038,-28.3796,37.3277],[31.9954,-28.3808,37.9807],[31.9896,-28.3845,33.5],[31.9901,-28.3876,33.0],[31.9936,-28.391,33.3036],[32.0047,-28.3961,32.5612],[32.0137,-28.4082,30.5155],[32.0204,-28.411,31.8696],[32.0248,-28.41,30.4469],[32.0313,-28.3993,27.8812],[32.0346,-28.3972,27.6923],[32.0461,-28.4051,27.5644],[32.0521,-28.4175,23.5],[32.0558,-28.4179,27.3593],[32.0641,-28.4136,23.8863],[32.0669,-28.4144,27.5438],[32.0676,-28.419,27.1117],[32.0587,-28.4265,29.4259],[32.0611,-28.4392,26.9067],[32.0545,-28.4484,24.635],[32.0561,-28.455,33.4539],[32.0585,-28.4568,62.816],[32.0694,-28.4564,28.2299],[32.0781,-28.4487,21.2254],[32.0899,-28.448,30.0698],[32.1111,-28.4362,17.9834],[32.1245,-28.4417,16.7566],[32.133,-28.4482,23.0191],[32.1358,-28.4574,15.0426],[32.1381,-28.4597,17.5971],[32.1444,-28.4585,15.7693],[32.1504,-28.4506,16.6625],[32.159,-28.4454,16.6391],[32.1771,-28.4509,16.5784]]],
[[[32.8587,-26.9176,0.0],[32.8587,-26.9157,0.166],[32.8571,-26.9154,0.166],[32.8582,-26.9171,0.0],[32.8557,-26.919,0.0],[32.8576,-26.9188,0.0],[32.8587,-26.9176,0.0]]],
[[[32.8621,-26.9082,0.1996],[32.8601,-26.9071,0.1936],[32.861,-26.9104,0.1644],[32.8624,-26.909,0.1996],[32.8621,-26.9082,0.1996]]]]}
,"properties": {"GID_2": "ZAF.4.7_1","GID_0": "ZAF","country": "SouthAfrica","GID_1": "ZAF.4_1","province": "KwaZulu-Natal","NL_NAME_1": "NA","county": "Umkhanyakude","VARNAME_2": "NA","NL_NAME_2": "NA","TYPE_2": "DistrictMunicipality","ENGTYPE_2": "DistrictMunicipality","CC_2": "DC27","HASC_2": "ZA.NL.UY","name": "Umkhanyakude.county","area_km2": 12830.032,"hist_schema_id": "Elevation0-9000","hist_area_km2": {"0": 1043.686,"25": 1588.071,"50": 2279.497,"75": 2896.572,"100": 1102.859,"125": 636.906,"150": 503.266,"175": 413.798,"200": 342.686,"225": 294.455,"250": 236.093,"275": 193.781,"300": 164.443,"325": 140.4,"350": 120.547,"375": 107.133,"400": 99.648,"425": 92.878,"450": 85.502,"475": 79.047,"500": 81.553,"525": 69.926,"550": 53.644,"575": 52.204,"600": 48.159,"625": 41.999,"650": 29.62,"675": 20.662,"700": 9.168,"725": 1.829}}}