{"type":"Feature","properties":{"GID_3":"ZAF.3.5.2_1","GID_0":"ZAF","country":"SouthAfrica","GID_1":"ZAF.3_1","province":"Gauteng","NL_NAME_1":"NA","GID_2":"ZAF.3.5_1","county":"WestRand","NL_NAME_2":"NA","city":"MogaleCity","VARNAME_3":"NA","NL_NAME_3":"NA","TYPE_3":"LocalMunicipality","ENGTYPE_3":"LocalMunicipality","CC_3":"GT481","HASC_3":"NA","name":"Mogale_City.city"},
"geometry":{"type": "MultiPolygon","coordinates": [[[[27.7824,-26.1903,1685.6398],[27.7861,-26.1819,1694.8579],[27.8106,-26.1821,1679.5883],[27.8091,-26.1751,1694.386],[27.818,-26.176,1662.483],[27.8195,-26.1744,1661.1062],[27.8181,-26.1699,1666.3872],[27.8122,-26.167,1678.0109],[27.8388,-26.1202,1736.3805],[27.839,-26.1168,1734.6757],[27.8322,-26.1146,1733.9719],[27.8318,-26.1099,1701.2717],[27.8352,-26.1068,1622.6686],[27.8396,-26.1069,1607.7319],[27.8398,-26.0973,1592.6949],[27.8384,-26.0955,1585.4131],[27.8397,-26.092,1593.8633],[27.8353,-26.0846,1598.3103],[27.8448,-26.0825,1489.5974],[27.845,-26.0784,1485.0458],[27.8423,-26.0723,1478.1152],[27.8665,-26.0751,1499.8285],[27.8496,-26.0624,1481.38],[27.8516,-26.0598,1503.4277],[27.8646,-26.0566,1463.364],[27.868,-26.0651,1479.0375],[27.872,-26.0625,1501.361],[27.8705,-26.0574,1478.0928],[27.8761,-26.058,1469.957],[27.8778,-26.0618,1469.176],[27.8808,-26.0575,1484.3555],[27.8828,-26.0592,1485.6948],[27.888,-26.0567,1526.0461],[27.8902,-26.0602,1530.0027],[27.8942,-26.0582,1559.074],[27.8963,-26.0618,1557.2202],[27.9044,-26.0311,1454.1926],[27.9126,-26.028199999999998,1486.465],[27.9235,-25.9983,1455.6868],[27.9256,-25.9786,1403.6689],[27.9227,-25.9707,1387.2932],[27.9074,-25.9701,1348.5288],[27.9106,-25.9676,1353.2747],[27.8976,-25.9544,1335.099],[27.9095,-25.9441,1347.3604],[27.9052,-25.9331,1289.156],[27.9098,-25.9303,1285.1249],[27.9077,-25.9287,1286.9374],[27.9084,-25.9269,1284.4626],[27.9323,-25.9259,1329.9254],[27.9408,-25.9284,1307.4965],[27.932,-25.9161,1309.8611],[27.9225,-25.9176,1341.0049],[27.9011,-25.9079,1286.7972],[27.901,-25.9053,1287.4875],[27.8938,-25.9057,1307.6125],[27.8904,-25.8839,1322.2214],[27.8995,-25.8828,1312.782],[27.8982,-25.8597,1368.9429],[27.8826,-25.8619,1414.5594],[27.8847,-25.8517,1358.145],[27.8835,-25.8457,1350.7676],[27.8844,-25.8388,1341.9843],[27.8853,-25.8354,1352.46],[27.8901,-25.8298,1279.3643],[27.8917,-25.8229,1234.4253],[27.8587,-25.8188,1293.0768],[27.8482,-25.8393,1429.2283],[27.8518,-25.8464,1496.6194],[27.844,-25.8489,1459.7629],[27.8315,-25.8602,1549.434],[27.791,-25.8747,1408.6896],[27.7446,-25.8946,1481.3904],[27.7427,-25.8502,1443.4706],[27.7358,-25.8553,1461.6412],[27.7303,-25.8552,1456.6143],[27.7046,-25.8683,1579.7156],[27.6849,-25.8754,1542.4753],[27.6639,-25.84,1226.8115],[27.6546,-25.8453,1230.2455],[27.6497,-25.8435,1230.7787],[27.6504,-25.8427,1235.0746],[27.6471,-25.8406,1242.2313],[27.6488,-25.835,1255.824],[27.6455,-25.8198,1286.3267],[27.6411,-25.8128,1319.0562],[27.6418,-25.8114,1319.0562],[27.6466,-25.8141,1307.587],[27.6436,-25.7959,1664.9641],[27.6056,-25.8082,1580.134],[27.5993,-25.8127,1562.5923],[27.5983,-25.8196,1625.9224],[27.5746,-25.836,1764.8308],[27.5599,-25.8428,1784.5549],[27.546,-25.8462,1794.8007],[27.5474,-25.8514,1701.8506],[27.5336,-25.8521,1724.3008],[27.5323,-25.85,1705.3772],[27.5133,-25.8603,1799.5585],[27.5002,-25.8613,1715.8962],[27.4975,-25.8596,1707.9077],[27.4619,-25.8676,1776.1158],[27.47,-25.8881,1463.272],[27.457,-25.8883,1473.8423],[27.4633,-25.9215,1454.4919],[27.4536,-25.9202,1469.1182],[27.457,-25.9818,1540.7271],[27.4498,-26.0163,1531.3214],[27.4389,-26.0143,1548.0135],[27.4357,-26.0226,1513.054],[27.434,-26.0225,1514.6366],[27.4352,-26.027,1532.858],[27.4252,-26.0894,1593.6136],[27.4673,-26.0923,1604.9104],[27.5357,-26.0793,1610.1948],[27.5413,-26.0511,1598.6265],[27.5512,-26.1047,1572.4668],[27.6124,-26.0868,1567.5759],[27.6143,-26.0625,1567.6482],[27.6134,-26.1104,1580.3101],[27.6818,-26.1169,1662.0947],[27.6739,-26.0957,1611.054],[27.6814,-26.0955,1614.296],[27.6838,-26.0967,1618.7246],[27.6854,-26.1157,1652.4452],[27.6906,-26.1196,1659.7769],[27.6926,-26.1199,1670.2273],[27.6962,-26.1172,1673.8053],[27.7006,-26.1179,1690.2661],[27.7061,-26.115,1699.446],[27.7123,-26.1191,1704.905],[27.718,-26.1262,1694.1053],[27.7363,-26.128,1728.4829],[27.7328,-26.1434,1715.2844],[27.7213,-26.1407,1712.3088],[27.7196,-26.1548,1727.8334],[27.7369,-26.1627,1733.1404],[27.7509,-26.1625,1721.7842],[27.7505,-26.1656,1725.7781],[27.7449,-26.1744,1716.6389],[27.7471,-26.1755,1703.6262],[27.7434,-26.1767,1709.5842],[27.7451,-26.1801,1696.801],[27.7246,-26.1889,1664.5267],[27.722,-26.1861,1671.2449],[27.7183,-26.1989,1704.4729],[27.772,-26.2132,1668.4496],[27.7824,-26.1903,1685.6398]]]]}}