{"type":"Feature","properties":{"GID_2":"ZAF.1.1_1","GID_0":"ZAF","country":"SouthAfrica","GID_1":"ZAF.1_1","province":"EasternCape","NL_NAME_1":"NA","county":"AlfredNzo","VARNAME_2":"NA","NL_NAME_2":"NA","TYPE_2":"DistrictMunicipality","ENGTYPE_2":"DistrictMunicipality","CC_2":"DC44","HASC_2":"ZA.EC.AN","name":"Alfred_Nzo.county"},
"geometry":{"type": "MultiPolygon","coordinates": [[[[29.9144,-31.1722,133.7414],[29.9117,-31.1776,145.824],[29.9166,-31.1784,134.7517],[29.9209,-31.1814,158.856],[29.932,-31.1778,181.1128],[29.9344,-31.1807,126.8161],[29.9403,-31.1804,109.2798],[29.9361,-31.1861,118.7042],[29.9427,-31.1884,124.0347],[29.9475,-31.1858,104.9032],[29.9512,-31.1859,103.3095],[29.9538,-31.1926,112.2256],[29.9496,-31.195,98.3775],[29.9487,-31.1972,83.5034],[29.9582,-31.203,75.7862],[29.9626,-31.21,85.1642],[29.966,-31.2114,177.8258],[29.9732,-31.2089,144.5487],[29.9845,-31.2161,120.396],[29.9947,-31.2188,89.4713],[30.0092,-31.2275,100.3205],[30.0119,-31.2336,29.3449],[30.0151,-31.2341,8.5938],[30.018,-31.2312,26.8023],[30.0202,-31.2314,13.3325],[30.0295,-31.2379,19.6091],[30.0482,-31.2468,0.0],[30.0515,-31.2454,0.0],[30.0515,-31.2435,0.0],[30.0549,-31.2437,0.0],[30.0663,-31.2362,7.2911],[30.0696,-31.2307,0.0],[30.0688,-31.2213,0.0],[30.0624,-31.2196,5.8136],[30.0676,-31.2188,2.3147],[30.0696,-31.2204,0.0],[30.0849,-31.209,10.0112],[30.0951,-31.1985,3.5134],[30.0943,-31.1957,20.1177],[30.0965,-31.1918,1.9274],[30.1029,-31.1874,12.4347],[30.1032,-31.1863,12.4347],[30.0999,-31.1849,0.0],[30.1057,-31.1857,5.6873],[30.1099,-31.1835,2.5601],[30.124,-31.1715,0.0],[30.126,-31.1676,5.274],[30.1251,-31.161,3.9837],[30.1332,-31.1518,0.0],[30.1249,-31.1499,12.4724],[30.1238,-31.1479,4.1642],[30.1329,-31.149,8.8297],[30.1332,-31.151,2.2303],[30.1346,-31.151,2.2303],[30.1524,-31.1401,0.0],[30.1549,-31.1354,12.255],[30.1571,-31.1346,1.9309],[30.1574,-31.1293,0.0],[30.1596,-31.126,0.0],[30.1579,-31.1243,8.0636],[30.1621,-31.1215,0.0],[30.1615,-31.1212,0.3467],[30.1596,-31.1215,5.486],[30.1579,-31.1196,1.5478],[30.1607,-31.121,1.3874],[30.169,-31.1179,16.1493],[30.1754,-31.111,0.0],[30.1693,-31.1074,11.4612],[30.169,-31.0999,3.1718],[30.1643,-31.0993,4.4525],[30.1693,-31.0985,1.7789],[30.1701,-31.1046,0.5175],[30.1724,-31.1071,1.4842],[30.176,-31.1043,16.248],[30.1793,-31.104,6.3331],[30.1832,-31.0987,0.0],[30.1832,-31.0901,1.3719],[30.1915,-31.086,9.9982],[30.1932,-31.0826,0.0],[30.1917,-31.0732,18.4778],[30.1883,-31.0691,44.638],[30.1759,-31.0655,5.064],[30.1698,-31.0598,6.3134],[30.1633,-31.0498,72.6901],[30.1632,-31.0456,39.8607],[30.1675,-31.0389,26.6831],[30.17,-31.0254,61.6687],[30.1632,-31.0251,65.281],[30.1556,-31.0224,60.6789],[30.1493,-31.0156,110.6127],[30.1431,-31.0226,80.2499],[30.1408,-31.0229,97.203],[30.1396,-31.021,115.6781],[30.14,-31.0141,150.8615],[30.1354,-31.009,115.3645],[30.1362,-31.0074,141.8786],[30.1446,-31.0054,107.8589],[30.1469,-31.0026,130.0358],[30.1452,-30.9984,134.4149],[30.1409,-30.9967,126.1665],[30.1413,-30.9873,131.2943],[30.1521,-30.9853,145.6934],[30.1564,-30.9759,178.4279],[30.1551,-30.9729,172.4473],[30.1477,-30.9713,178.4969],[30.1411,-30.9664,169.0566],[30.1345,-30.9638,197.8833],[30.1347,-30.9562,178.3704],[30.1392,-30.9544,196.6184],[30.1411,-30.951,222.9137],[30.1378,-30.9406,223.0762],[30.1413,-30.9375,219.8121],[30.1447,-30.9374,202.2515],[30.1465,-30.9339,216.8449],[30.1464,-30.9311,204.7761],[30.1428,-30.927,230.1705],[30.1464,-30.9224,206.3],[30.1395,-30.9181,225.6682],[30.1362,-30.9115,242.1663],[30.1323,-30.9091,242.317],[30.1201,-30.9101,283.9487],[30.1269,-30.9058,265.742],[30.1136,-30.9005,239.1411],[30.1211,-30.891,240.9261],[30.1195,-30.888,263.7611],[30.115,-30.8877,244.3681],[30.1092,-30.8845,279.6425],[30.0984,-30.8848,272.8595],[30.0913,-30.883,256.2934],[30.0821,-30.8851,269.5532],[30.0757,-30.8822,258.6393],[30.0745,-30.8784,255.1252],[30.0703,-30.8747,263.0811],[30.0704,-30.8713,260.6935],[30.0739,-30.8708,271.6329],[30.0881,-30.8744,288.3678],[30.0932,-30.878,298.9961],[30.0926,-30.8687,287.9868],[30.0951,-30.8649,272.47],[30.0944,-30.8621,279.6625],[30.0874,-30.8641,289.8701],[30.0828,-30.8637,283.8459],[30.0818,-30.8659,274.1422],[30.0732,-30.8658,273.9957],[30.0742,-30.8564,276.3211],[30.0702,-30.8516,281.8382],[30.0668,-30.8517,283.6823],[30.0622,-30.8481,280.6863],[30.0579,-30.8485,282.3198],[30.0532,-30.8468,283.4535],[30.046,-30.848,320.6824],[30.039,-30.8446,298.2417],[30.0364,-30.8466,313.6195],[30.0255,-30.8488,348.7787],[30.025,-30.8566,301.0813],[30.0221,-30.8568,324.0093],[30.0194,-30.853,302.7396],[30.0224,-30.8475,303.477],[30.0218,-30.8392,310.409],[30.0162,-30.8396,314.9733],[30.0098,-30.8433,359.3953],[30.007,-30.8422,336.2603],[30.0119,-30.8321,333.2878],[30.0112,-30.8284,351.4843],[30.0077,-30.8258,349.7592],[30.0037,-30.8261,344.5233],[30.0015,-30.8279,336.359],[30.0003,-30.8375,348.1429],[29.9937,-30.836,353.767],[29.9898,-30.838,384.9409],[29.9833,-30.835,338.2158],[29.9799,-30.8374,338.4258],[29.9748,-30.8381,351.3763],[29.9615,-30.83,366.7034],[29.9581,-30.824,343.3485],[29.9591,-30.8215,344.0163],[29.9639,-30.8248,366.327],[29.9678,-30.8251,372.568],[29.9704,-30.819,353.0681],[29.9665,-30.8171,351.5258],[29.9673,-30.8108,382.5127],[29.974,-30.8066,374.8333],[29.9724,-30.8022,373.3564],[29.9685,-30.8037,361.9737],[29.9685,-30.8064,361.5237],[29.9658,-30.8082,380.2965],[29.945,-30.8099,385.4972],[29.9328,-30.8081,423.3663],[29.9319,-30.8051,381.4932],[29.9331,-30.801,385.7319],[29.9406,-30.7921,401.1044],[29.9481,-30.7902,389.2821],[29.9536,-30.7906,388.5841],[29.9556,-30.789,493.4682],[29.9502,-30.7811,393.66],[29.9513,-30.7744,392.4521],[29.9489,-30.7705,421.9175],[29.9332,-30.7683,406.0622],[29.922,-30.7689,426.1576],[29.9216,-30.7708,407.6556],[29.9266,-30.775,424.2531],[29.9295,-30.7807,443.4401],[29.9293,-30.792,494.926],[29.9275,-30.794,422.3588],[29.9252,-30.7936,430.3604],[29.9219,-30.7896,424.3316],[29.9085,-30.7983,467.899],[29.9067,-30.7967,435.515],[29.9062,-30.7921,464.5773],[29.9097,-30.7846,445.3856],[29.9095,-30.7813,461.2543],[29.916,-30.7745,447.9673],[29.9133,-30.7701,457.9698],[29.9112,-30.7701,456.1517],[29.9047,-30.7752,476.4165],[29.8969,-30.7743,485.2969],[29.8869,-30.7847,499.9804],[29.8857,-30.7834,476.9548],[29.886,-30.7726,493.4638],[29.8884,-30.7704,498.5456],[29.8952,-30.7696,547.0374],[29.8965,-30.7675,511.0345],[29.8925,-30.7588,517.7227],[29.8863,-30.7591,532.2895],[29.882,-30.7621,521.4374],[29.8766,-30.7582,525.0531],[29.8732,-30.7586,540.9959],[29.8716,-30.7548,530.5762],[29.8638,-30.7575,546.3262],[29.8594,-30.7565,545.5387],[29.8524,-30.7617,589.213],[29.8496,-30.7608,553.4933],[29.8477,-30.758,604.2822],[29.8515,-30.7524,584.2406],[29.8518,-30.7488,565.5241],[29.8477,-30.7365,584.9762],[29.8448,-30.7368,582.3148],[29.8421,-30.7439,596.5561],[29.8334,-30.7426,601.9329],[29.8298,-30.7439,604.1234],[29.8296,-30.7408,608.5992],[29.8337,-30.7381,613.7903],[29.831,-30.7349,619.785],[29.8246,-30.7346,633.9705],[29.8242,-30.7283,628.3715],[29.8275,-30.7231,631.3827],[29.8251,-30.7206,649.4024],[29.8187,-30.7236,633.8336],[29.8142,-30.7315,689.7443],[29.8089,-30.7304,633.4412],[29.8068,-30.7281,633.8458],[29.8043,-30.7224,645.3987],[29.8041,-30.7149,652.9857],[29.8067,-30.7143,642.3207],[29.8146,-30.7067,702.0699],[29.8154,-30.704,654.6068],[29.8152,-30.7012,686.4265],[29.8108,-30.6985,653.4218],[29.8044,-30.7007,680.2412],[29.8058,-30.7035,652.6276],[29.8003,-30.7089,654.1971],[29.7963,-30.7044,662.8273],[29.7857,-30.6988,675.8953],[29.7856,-30.6962,680.4866],[29.7805,-30.6954,680.1213],[29.7777,-30.6974,690.6755],[29.779,-30.7012,676.6105],[29.7861,-30.7101,705.5025],[29.7722,-30.7054,695.7764],[29.7719,-30.7121,695.9227],[29.7685,-30.7128,689.6836],[29.7716,-30.7162,692.2914],[29.7707,-30.7185,746.0157],[29.7591,-30.7192,706.45],[29.7566,-30.7178,702.6763],[29.7553,-30.7106,725.8109],[29.7525,-30.707,719.3224],[29.7494,-30.7126,743.4031],[29.7507,-30.7164,726.9865],[29.7497,-30.7195,735.3202],[29.7407,-30.7234,759.5794],[29.7389,-30.7215,744.0225],[29.741,-30.72,741.9097],[29.7407,-30.7187,746.1918],[29.7389,-30.7176,755.5935],[29.7344,-30.7196,794.7413],[29.7296,-30.7159,750.7941],[29.735,-30.7091,758.1056],[29.7336,-30.7074,786.6799],[29.7208,-30.7084,782.8552],[29.7153,-30.7043,788.6776],[29.7079,-30.7048,781.998],[29.7048,-30.703,784.0203],[29.7008,-30.7053,787.5081],[29.6965,-30.6967,797.2305],[29.6943,-30.6958,800.1991],[29.6936,-30.6875,851.6232],[29.6917,-30.6862,840.1818],[29.6874,-30.6883,859.8699],[29.6835,-30.6854,843.8051],[29.6831,-30.6835,836.9796],[29.6865,-30.6819,857.4432],[29.6868,-30.6795,842.6391],[29.6763,-30.6737,868.9133],[29.6766,-30.6715,882.4323],[29.6737,-30.6692,896.9237],[29.6714,-30.67,884.2315],[29.6719,-30.6714,896.678],[29.6671,-30.6763,921.7865],[29.6572,-30.6806,945.7415],[29.6515,-30.6858,920.7637],[29.6487,-30.6838,937.67],[29.6371,-30.6838,979.6123],[29.6365,-30.6859,979.8842],[29.6349,-30.684,1001.5188],[29.6202,-30.6885,1002.7912],[29.617,-30.6889,1010.4944],[29.6143,-30.6867,1022.8585],[29.5995,-30.6895,1087.1892],[29.5958,-30.6859,1121.7174],[29.5942,-30.6674,1319.3872],[29.5876,-30.659,1488.2903],[29.5803,-30.654,1620.572],[29.5713,-30.6577,2109.5569],[29.5722,-30.6551,2087.1128],[29.5243,-30.6412,1682.5266],[29.5124,-30.6182,1670.9657],[29.4686,-30.6242,1655.5488],[29.443,-30.639,1861.2871],[29.4013,-30.6394,1503.8805],[29.3855,-30.6501,1371.6166],[29.3728,-30.649,1326.8586],[29.3456,-30.6717,1666.5428],[29.3225,-30.6445,1558.4526],[29.3198,-30.645,1656.2654],[29.3035,-30.6394,1838.5016],[29.2773,-30.6373,1588.269],[29.2613,-30.6212,1586.881],[29.2284,-30.6197,1430.7747],[29.2202,-30.6208,1207.1187],[29.218,-30.6185,1209.8645],[29.2111,-30.6215,1252.021],[29.2046,-30.6202,1217.1775],[29.1952,-30.6245,1237.1898],[29.1955,-30.6283,1229.0785],[29.1987,-30.632,1234.5431],[29.1979,-30.6344,1240.2324],[29.1919,-30.6348,1241.3179],[29.1829,-30.6413,1268.671],[29.1809,-30.6396,1269.5114],[29.1778,-30.6287,1258.4963],[29.1808,-30.6236,1265.2052],[29.1854,-30.6213,1278.9644],[29.1853,-30.6185,1264.1868],[29.1807,-30.6189,1267.8625],[29.173,-30.6243,1274.569],[29.168,-30.6176,1283.6912],[29.1681,-30.6131,1283.4346],[29.1353,-30.6051,1810.5496],[29.146,-30.5952,1657.0587],[29.1238,-30.5871,1722.8872],[29.1153,-30.5796,1636.6368],[29.1515,-30.5604,1382.545],[29.162,-30.5601,1357.4402],[29.163,-30.5582,1356.954],[29.1738,-30.5518,1370.4161],[29.1651,-30.538,1357.2616],[29.1631,-30.5396,1358.6716],[29.1663,-30.5414,1357.3541],[29.1653,-30.5436,1358.6299],[29.1611,-30.5418,1358.5083],[29.1599,-30.5447,1359.4393],[29.1578,-30.5451,1358.5614],[29.1579,-30.5476,1359.2698],[29.1614,-30.547,1361.7117],[29.1577,-30.5538,1384.9908],[29.1556,-30.5554,1367.2391],[29.1528,-30.5546,1380.2563],[29.1518,-30.5486,1361.8313],[29.1531,-30.547,1369.2104],[29.1476,-30.5412,1363.0115],[29.1455,-30.5327,1365.4373],[29.1466,-30.5316,1365.4373],[29.1448,-30.531,1389.9825],[29.1402,-30.5338,1369.1597],[29.1504,-30.5104,1516.375],[29.1773,-30.5157,1503.1471],[29.1878,-30.4842,1631.4711],[29.1984,-30.4623,1667.6935],[29.1968,-30.4344,1633.3152],[29.2185,-30.4212,1758.9662],[29.2273,-30.4263,1885.9938],[29.2276,-30.4103,1858.7583],[29.2382,-30.4049,1762.0242],[29.2824,-30.3957,2140.5684],[29.2771,-30.3762,1932.3643],[29.305,-30.3799,2182.478],[29.2988,-30.3532,2153.2332],[29.2919,-30.3456,2090.5117],[29.2987,-30.3343,1951.1742],[29.3019,-30.3201,1973.8564],[29.2622,-30.2784,1483.1565],[29.2368,-30.2669,1449.7925],[29.2315,-30.2691,1449.6864],[29.2547,-30.3048,1535.5654],[29.2334,-30.3063,1492.5768],[29.2275,-30.2974,1469.1974],[29.1881,-30.2887,1463.2203],[29.1726,-30.2834,1450.4233],[29.1757,-30.2828,1449.6528],[29.1742,-30.2808,1445.7787],[29.1674,-30.2816,1452.2291],[29.1558,-30.2775,1442.6825],[29.1579,-30.277,1443.347],[29.1568,-30.2754,1442.1572],[29.1579,-30.2744,1443.4015],[29.1612,-30.2759,1442.5809],[29.1632,-30.2738,1442.5629],[29.1618,-30.2723,1443.4867],[29.1593,-30.2743,1443.406],[29.161,-30.2707,1443.9863],[29.156,-30.2685,1444.5989],[29.1621,-30.2663,1444.0344],[29.1627,-30.2636,1444.9409],[29.1556,-30.2619,1446.522],[29.1565,-30.2648,1446.0701],[29.1518,-30.2647,1445.6989],[29.1538,-30.2611,1448.7786],[29.1518,-30.2567,1455.3699],[29.1411,-30.2617,1459.1625],[29.1373,-30.2624,1449.5983],[29.136,-30.2612,1449.5963],[29.1355,-30.2562,1450.2296],[29.1319,-30.2516,1451.248],[29.133,-30.2497,1460.4423],[29.1289,-30.2478,1451.7045],[29.1292,-30.2396,1456.7284],[29.126,-30.2387,1458.6477],[29.1297,-30.2337,1464.6937],[29.1302,-30.2266,1472.7852],[29.1282,-30.2242,1466.2351],[29.1224,-30.222,1472.3344],[29.1241,-30.2179,1495.2593],[29.1318,-30.2166,1489.6212],[29.1323,-30.2149,1473.5073],[29.1271,-30.2112,1494.3726],[29.1215,-30.2099,1497.2407],[29.1216,-30.2073,1477.6594],[29.1197,-30.2059,1485.2803],[29.1124,-30.2096,1494.0125],[29.1108,-30.1969,1483.1665],[29.1141,-30.1939,1487.5012],[29.1208,-30.1943,1482.5281],[29.1221,-30.192,1485.0286],[29.1174,-30.1898,1484.6753],[29.1132,-30.1904,1490.6257],[29.1099,-30.1838,1492.2903],[29.1038,-30.1807,1490.7211],[29.1026,-30.1771,1490.1259],[29.1041,-30.1753,1490.6927],[29.1068,-30.1762,1489.6211],[29.1067,-30.1721,1490.7451],[29.1103,-30.1683,1497.6345],[29.1131,-30.1682,1515.6385],[29.1139,-30.1621,1505.3044],[29.1171,-30.1633,1507.1558],[29.1204,-30.1604,1503.3271],[29.1134,-30.1576,1503.4462],[29.1104,-30.1538,1506.454],[29.1139,-30.1518,1510.5063],[29.118,-30.1528,1509.0598],[29.1206,-30.1512,1509.8577],[29.1215,-30.1435,1530.0737],[29.1163,-30.1421,1532.7415],[29.1188,-30.1385,1537.1504],[29.1163,-30.1364,1535.813],[29.1154,-30.1328,1549.9668],[29.1177,-30.1259,1543.4724],[29.1158,-30.1248,1553.156],[29.1194,-30.1222,1547.4102],[29.1153,-30.1144,1578.7788],[29.12,-30.1106,1568.9655],[29.1186,-30.1094,1596.5684],[29.1148,-30.1106,1577.332],[29.1152,-30.1078,1586.6068],[29.1123,-30.1056,1585.6138],[29.1145,-30.1023,1596.5507],[29.1174,-30.1054,1586.3416],[29.1196,-30.1054,1582.6489],[29.1187,-30.1029,1583.5952],[29.1212,-30.0988,1581.7664],[29.1172,-30.1002,1587.5657],[29.1137,-30.0963,1588.4943],[29.1119,-30.0972,1628.3739],[29.1073,-30.0785,2005.7651],[29.0901,-30.0567,2153.7537],[29.0678,-30.044,2273.6904],[29.045,-30.013,2351.8459],[29.0148,-30.0018,2444.009],[29.0105,-30.0047,2371.2744],[29.0047,-30.0048,2392.7764],[28.9908,-30.0202,2287.6257],[28.9901,-30.0274,2378.3906],[28.987,-30.0305,2375.3579],[28.9844,-30.0315,2389.9385],[28.9779,-30.0298,2404.5735],[28.976,-30.0323,2401.1343],[28.9692,-30.0341,2373.1763],[28.9648,-30.0331,2319.2546],[28.9578,-30.0391,2371.5332],[28.9543,-30.0392,2333.3403],[28.9522,-30.0367,2319.8103],[28.941,-30.0364,2381.4551],[28.9363,-30.0492,2243.1572],[28.9239,-30.0539,2386.7808],[28.9217,-30.0531,2369.769],[28.9189,-30.0581,2260.6265],[28.9106,-30.0592,2235.2644],[28.9031,-30.0659,2267.5754],[28.8969,-30.0647,2376.3889],[28.8934,-30.0688,2380.2429],[28.8789,-30.0698,2435.1306],[28.8749,-30.0737,2268.8501],[28.8706,-30.0745,2290.5518],[28.8693,-30.0779,2261.7402],[28.8575,-30.0776,2504.3],[28.8574,-30.0833,2492.4307],[28.8594,-30.0873,2399.2109],[28.8553,-30.0901,2423.4536],[28.8389,-30.0921,2497.1438],[28.8313,-30.0976,2276.5569],[28.8262,-30.0956,2244.9492],[28.8195,-30.0976,2278.3003],[28.8076,-30.0973,2438.1968],[28.8024,-30.1006,2442.2224],[28.795,-30.1008,2427.124],[28.7957,-30.1035,2412.1387],[28.7912,-30.1094,2389.4136],[28.7688,-30.1076,2374.3848],[28.7618,-30.1055,2357.3159],[28.7498,-30.1065,2205.8564],[28.7417,-30.1122,2260.9412],[28.7418,-30.1143,2274.675],[28.7397,-30.1158,2298.0254],[28.7361,-30.1123,2317.3987],[28.7289,-30.113,2285.125],[28.7242,-30.1155,2252.5964],[28.7207,-30.1152,2245.7402],[28.7188,-30.1177,2223.1982],[28.709,-30.1196,2262.1021],[28.7016,-30.1265,2180.4517],[28.6903,-30.1241,2007.0854],[28.688,-30.1288,1967.2114],[28.6851,-30.1287,1976.3188],[28.6782,-30.1339,2000.3521],[28.6716,-30.1361,2081.5625],[28.6676,-30.1407,2095.6128],[28.6579,-30.1373,1950.4663],[28.6536,-30.1376,2036.7302],[28.6502,-30.1337,2064.4705],[28.6431,-30.134,2114.8613],[28.6384,-30.1315,2249.0513],[28.6269,-30.1317,2262.6133],[28.6186,-30.1355,2134.614],[28.6103,-30.1325,2131.9136],[28.5974,-30.1307,2182.5796],[28.590699999999998,-30.1269,2388.3125],[28.5846,-30.1276,2353.8899],[28.5799,-30.1259,2374.4517],[28.5751,-30.1274,2344.0391],[28.5665,-30.1226,2537.896],[28.5642,-30.1239,2521.2163],[28.5537,-30.124,2556.8306],[28.5506,-30.1206,2556.4895],[28.5469,-30.1231,2335.084],[28.5349,-30.1257,2433.0403],[28.5314,-30.1329,2404.7319],[28.5167,-30.1388,2517.554],[28.5122,-30.1431,2264.3276],[28.5065,-30.1449,2244.5476],[28.4998,-30.151,2366.9707],[28.4813,-30.1488,2571.5601],[28.4736,-30.1528,2496.9424],[28.4725,-30.1556,2524.396],[28.4607,-30.1545,2497.291],[28.4569,-30.1575,2415.7244],[28.4515,-30.1578,2295.5979],[28.4325,-30.1537,2310.7874],[28.4198,-30.1487,2486.5364],[28.3998,-30.1437,2771.8677],[28.3971,-30.1452,2657.0977],[28.3958,-30.1514,2745.4941],[28.3927,-30.1556,2746.1477],[28.3923,-30.159,2680.5442],[28.3904,-30.1594,2650.8645],[28.3902,-30.1628,2597.2502],[28.3841,-30.1651,2573.7659],[28.3829,-30.1688,2678.978],[28.3709,-30.1697,2768.8696],[28.3651,-30.1686,2798.8232],[28.3596,-30.1784,2646.8245],[28.3555,-30.1906,2592.7939],[28.3563,-30.1925,2538.3206],[28.352,-30.1967,2449.261],[28.3489,-30.2076,2430.7515],[28.3451,-30.2128,2493.0964],[28.3454,-30.2153,2502.9307],[28.3477,-30.2169,2514.4375],[28.3451,-30.2188,2481.5566],[28.3434,-30.2236,2471.1965],[28.3478,-30.2289,2523.7168],[28.3458,-30.2321,2531.4526],[28.3403,-30.2346,2434.4021],[28.3331,-30.2339,2625.1362],[28.3304,-30.2297,2679.1892],[28.3288,-30.2339,2530.3213],[28.3252,-30.2372,2455.7493],[28.3212,-30.2381,2529.4646],[28.3188,-30.2406,2561.5334],[28.3135,-30.2407,2551.1174],[28.3107,-30.2508,2501.4194],[28.3032,-30.2562,2416.2009],[28.2971,-30.2552,2377.7329],[28.288,-30.2576,2446.8027],[28.2827,-30.2556,2555.7415],[28.274,-30.2562,2473.6699],[28.2691,-30.253,2555.167],[28.264,-30.2521,2617.7998],[28.2597,-30.2565,2571.3608],[28.2496,-30.2583,2581.2781],[28.2446,-30.2575,2680.8977],[28.2364,-30.2599,2641.4949],[28.2359,-30.266,2577.1133],[28.229,-30.2712,2737.2996],[28.2231,-30.2734,2781.5801],[28.2231,-30.2754,2784.7627],[28.2146,-30.2864,2755.4924],[28.2069,-30.2907,2784.0134],[28.2123,-30.2971,2722.1355],[28.2154,-30.3068,2777.8394],[28.2205,-30.309,2766.5601],[28.2283,-30.3085,2735.2253],[28.233,-30.315,2617.7256],[28.2425,-30.3179,2651.5251],[28.2479,-30.3233,2670.8384],[28.2565,-30.3244,2633.8662],[28.2528,-30.3276,2626.0364],[28.2568,-30.3298,2657.9312],[28.2516,-30.3336,2605.5757],[28.2521,-30.3395,2554.4248],[28.256,-30.3461,2826.6177],[28.2627,-30.347,2770.7244],[28.2698,-30.3534,2693.2786],[28.271,-30.3564,2700.2729],[28.2678,-30.3604,2676.4124],[28.2709,-30.3699,2597.6367],[28.2688,-30.3737,2771.8787],[28.2754,-30.373,2487.7056],[28.2894,-30.3748,2079.3521],[28.2938,-30.3726,2010.7881],[28.2988,-30.3735,1933.1428],[28.3039,-30.3772,1880.4651],[28.329,-30.3859,1759.853],[28.3348,-30.3929,1711.7084],[28.3434,-30.3965,1626.6415],[28.3725,-30.4043,1546.1765],[28.3764,-30.4012,1551.2354],[28.377,-30.4035,1543.2427],[28.3815,-30.4027,1558.3998],[28.3856,-30.406,1524.3446],[28.3905,-30.4016,1517.2861],[28.3922,-30.403199999999998,1519.5306],[28.3943,-30.4025,1561.0072],[28.3947,-30.4051,1516.3062],[28.3974,-30.4048,1511.8088],[28.3986,-30.4072,1510.8752],[28.4023,-30.4076,1553.5459],[28.404,-30.4126,1503.1257],[28.4097,-30.4126,1499.6608],[28.4153,-30.4188,1490.1351],[28.418,-30.4177,1490.4462],[28.4215,-30.4212,1497.687],[28.4247,-30.4209,1484.0277],[28.4297,-30.4177,1492.5042],[28.4349,-30.4204,1487.6433],[28.4368,-30.4192,1480.7172],[28.4438,-30.423,1474.0608],[28.4462,-30.4275,1474.059],[28.4494,-30.4275,1480.647],[28.4581,-30.4232,1542.2549],[28.4808,-30.4223,1726.0448],[28.4944,-30.4324,1756.2189],[28.5003,-30.4346,1745.0381],[28.508,-30.4467,1662.2982],[28.5106,-30.4524,1506.1044],[28.5108,-30.4601,1433.2218],[28.5062,-30.4694,1423.9584],[28.5143,-30.4678,1409.0522],[28.5184,-30.4697,1408.2776],[28.5221,-30.4672,1401.7712],[28.5272,-30.4665,1397.2301],[28.5282,-30.4702,1402.3818],[28.5331,-30.4701,1398.9342],[28.5362,-30.4673,1403.9708],[28.5376,-30.4567,1483.3929],[28.5402,-30.4515,1559.3635],[28.5451,-30.4483,1620.2151],[28.5709,-30.4397,1608.5536],[28.5751,-30.4369,1565.7388],[28.5843,-30.4447,1485.153],[28.5877,-30.454,1450.9611],[28.601,-30.4574,1386.0056],[28.607,-30.464,1362.6467],[28.607,-30.4661,1356.0942],[28.6106,-30.4662,1357.0664],[28.6139,-30.4619,1357.902],[28.6171,-30.4664,1360.2196],[28.616,-30.4722,1362.0273],[28.6243,-30.4709,1364.6246],[28.6275,-30.4726,1357.4434],[28.6285,-30.4775,1354.9626],[28.6204,-30.4832,1348.644],[28.62,-30.4859,1351.5332],[28.6084,-30.4902,1388.9412],[28.6109,-30.4862,1385.5078],[28.6196,-30.4832,1354.5463],[28.6234,-30.4798,1351.2189],[28.6243,-30.4764,1365.1926],[28.6231,-30.4754,1386.2349],[28.6085,-30.4774,1460.1877],[28.6007,-30.4817,1454.6589],[28.5922,-30.4839,1442.9623],[28.588,-30.4873,1422.2544],[28.5893,-30.4902,1433.5977],[28.5964,-30.4928,1425.3682],[28.5828,-30.4924,1431.4468],[28.5698,-30.4963,1432.2002],[28.5694,-30.5012,1448.5619],[28.5648,-30.5104,1438.3213],[28.5759,-30.5159,1476.6495],[28.5733,-30.5224,1563.9279],[28.5641,-30.5205,1469.4852],[28.5607,-30.5184,1481.2637],[28.5494,-30.541,1742.8945],[28.5441,-30.541,1632.3933],[28.547,-30.5487,1603.4194],[28.5414,-30.5511,1504.8048],[28.5358,-30.5515,1494.9022],[28.5249,-30.5482,1451.1505],[28.5137,-30.5651,1496.0928],[28.5136,-30.5672,1501.6658],[28.519,-30.5724,1547.6403],[28.5268,-30.5756,1520.7704],[28.5285,-30.5812,1527.2643],[28.5349,-30.5843,1541.2494],[28.5375,-30.589,1559.7003],[28.5406,-30.589,1557.5784],[28.5425,-30.5948,1541.7773],[28.5425,-30.6021,1605.2305],[28.5452,-30.6037,1595.5845],[28.5523,-30.6188,1583.7573],[28.5607,-30.6214,1552.0387],[28.5605,-30.6241,1556.6748],[28.5558,-30.629,1678.5284],[28.5602,-30.6413,1657.6394],[28.5561,-30.6452,1665.4939],[28.556,-30.652,1582.715],[28.5665,-30.6601,1512.6837],[28.5649,-30.6616,1572.5085],[28.5565,-30.6605,1575.6862],[28.5508,-30.6625,1505.5994],[28.5463,-30.6667,1397.2346],[28.544,-30.663,1388.4158],[28.542,-30.6649,1313.8086],[28.5506,-30.6787,1230.6239],[28.5546,-30.6818,1242.1013],[28.5525,-30.6837,1231.3706],[28.5522,-30.6891,1204.8781],[28.5499,-30.6924,1218.1101],[28.5541,-30.6975,1193.6956],[28.5632,-30.7016,1185.8937],[28.5599,-30.7087,1196.8129],[28.5664,-30.7074,1168.4294],[28.5727,-30.7096,1179.9574],[28.5807,-30.7085,1151.0991],[28.5863,-30.7127,1145.7168],[28.5902,-30.7117,1140.6274],[28.5917,-30.7175,1138.5312],[28.5962,-30.7195,1172.6537],[28.5995,-30.7265,1157.728],[28.6024,-30.7285,1130.144],[28.5975,-30.7343,1131.0342],[28.6067,-30.737,1135.4476],[28.6126,-30.7484,1149.2026],[28.6119,-30.7503,1185.9355],[28.6082,-30.7497,1116.3701],[28.6077,-30.7551,1119.9729],[28.6106,-30.7574,1115.1615],[28.6126,-30.7542,1156.3883],[28.6158,-30.7562,1120.606],[28.6234,-30.754,1124.766],[28.6274,-30.7549,1116.2042],[28.629,-30.7581,1139.1146],[28.641,-30.768,1114.0048],[28.6419,-30.774,1104.8418],[28.6483,-30.7767,1119.0127],[28.6538,-30.7919,1094.2701],[28.6617,-30.7904,1095.9032],[28.6609,-30.7945,1084.7914],[28.6508,-30.7944,1081.7693],[28.6494,-30.7955,1080.4199],[28.6511,-30.7989,1077.7789],[28.6586,-30.8009,1078.0219],[28.6557,-30.8047,1075.6443],[28.6512,-30.8045,1070.9175],[28.6509,-30.8056,1072.0818],[28.6586,-30.8119,1067.7732],[28.6653,-30.8119,1067.5309],[28.6669,-30.8184,1074.6182],[28.6742,-30.8169,1076.5848],[28.6773,-30.8206,1054.9282],[28.6803,-30.8178,1069.1166],[28.6861,-30.8169,1100.6709],[28.6869,-30.8199,1051.4746],[28.6856,-30.824,1051.9139],[28.6816,-30.8252,1069.3657],[28.6768,-30.8305,1049.7228],[28.68,-30.8356,1046.1692],[28.6897,-30.8376,1049.1692],[28.6929,-30.8296,1044.2397],[28.7028,-30.8347,1044.9205],[28.7147,-30.8378,1044.6613],[28.7209,-30.8423,1041.8127],[28.7293,-30.8431,1061.8755],[28.7264,-30.8537,1053.9707],[28.728,-30.8551,1045.0386],[28.7355,-30.8548,1038.5557],[28.7374,-30.8565,1036.7626],[28.7411,-30.8635,1027.9369],[28.7408,-30.8699,1049.1376],[28.7487,-30.8625,1038.8907],[28.7538,-30.8621,1026.2007],[28.7575,-30.8651,1020.998],[28.7583,-30.8733,1017.7328],[28.7616,-30.8804,1022.3706],[28.7591,-30.8841,1017.8491],[28.7583,-30.8898,1032.2036],[28.7649,-30.8891,1019.2219],[28.7652,-30.8827,1021.7839],[28.7698,-30.8803,1020.0497],[28.7751,-30.8836,1015.6867],[28.7817,-30.8837,1013.9274],[28.7868,-30.8811,1029.8496],[28.7935,-30.8835,1009.7965],[28.7969,-30.89,1026.5579],[28.8025,-30.894,1005.9619],[28.8006,-30.8956,1008.4994],[28.7981,-30.8942,1012.1428],[28.7904,-30.8955,999.9117],[28.7929,-30.8994,1005.1534],[28.7918,-30.904,999.0959],[28.7962,-30.907,1002.2822],[28.8022,-30.9059,1007.7479],[28.8013,-30.9117,1001.3189],[28.8127,-30.9137,997.6447],[28.8104,-30.9203,994.5644],[28.8205,-30.9246,990.5245],[28.8175,-30.9339,984.5682],[28.8129,-30.938,998.1102],[28.8135,-30.9452,982.8869],[28.8072,-30.9494,979.1182],[28.8088,-30.9542,966.9478],[28.8127,-30.956,970.0288],[28.823,-30.9545,992.1603],[28.8278,-30.9629,947.5886],[28.8315,-30.9647,967.2152],[28.8334,-30.9629,971.9393],[28.829,-30.9558,941.7116],[28.8278,-30.9485,949.5282],[28.835,-30.947,944.0638],[28.8348,-30.9422,923.0167],[28.8464,-30.9419,911.8756],[28.8537,-30.947,905.8143],[28.8631,-30.9471,911.402],[28.8671,-30.9499,953.1292],[28.8678,-30.9532,942.6667],[28.8635,-30.9622,874.8797],[28.8688,-30.9644,902.0928],[28.8676,-30.968,931.9188],[28.861,-30.9685,868.3436],[28.8553,-30.9652,863.4222],[28.8504,-30.9647,868.4771],[28.8484,-30.9664,912.5464],[28.8483,-30.9697,922.5208],[28.8611,-30.9903,847.4641],[28.8691,-30.9903,841.8619],[28.8696,-30.9986,841.8688],[28.8744,-31.0031,838.8356],[28.8702,-31.0126,835.327],[28.8759,-31.0172,845.51],[28.8785,-31.0243,826.0825],[28.8879,-31.0368,839.2902],[28.8859,-31.0385,860.3831],[28.8829,-31.038,852.4125],[28.8772,-31.0333,813.7852],[28.8722,-31.0337,820.4175],[28.871,-31.0377,821.5338],[28.8758,-31.0467,833.3057],[28.8754,-31.0493,847.8138],[28.8729,-31.0495,805.0497],[28.8673,-31.0434,820.8096],[28.8611,-31.0415,803.1542],[28.8579,-31.0432,821.2217],[28.8559,-31.0483,797.3114],[28.8514,-31.0533,807.7627],[28.8646,-31.0514,785.9188],[28.8694,-31.0531,785.4233],[28.8889,-31.0635,781.8386],[28.8987,-31.0763,793.3528],[28.9057,-31.0777,778.4165],[28.9119,-31.075,783.6631],[28.9137,-31.0692,775.3048],[28.9196,-31.0658,775.7703],[28.9164,-31.0625,777.5806],[28.9083,-31.0594,770.0411],[28.9083,-31.0576,781.889],[28.9193,-31.0538,769.3768],[28.9255,-31.0537,774.1505],[28.9259,-31.0594,770.6667],[28.9319,-31.0667,764.2494],[28.9301,-31.0728,761.8821],[28.9345,-31.072,762.7709],[28.9382,-31.0683,762.8051],[28.9418,-31.0602,760.6253],[28.9328,-31.0546,762.8472],[28.9328,-31.0533,764.6815],[28.9412,-31.0495,752.1623],[28.9472,-31.0434,749.6025],[28.9488,-31.046,753.9007],[28.9482,-31.0495,747.5751],[28.9512,-31.0546,768.4694],[28.9595,-31.0592,741.9305],[28.9595,-31.0615,745.4631],[28.9545,-31.0662,751.8557],[28.9521,-31.071,742.5561],[28.9561,-31.0729,739.6901],[28.963,-31.0621,762.1801],[28.9716,-31.0593,751.0616],[28.9772,-31.06,745.1072],[28.98,-31.0553,788.5569],[28.9826,-31.054,769.6423],[28.9781,-31.0455,826.5665],[28.9811,-31.0438,825.145],[28.9776,-31.0413,820.2737],[28.984,-31.0369,815.6721],[28.9807,-31.0325,826.9808],[28.9789,-31.025,840.037],[28.9832,-31.0228,873.6659],[28.9893,-31.0267,895.1199],[28.9957,-31.0273,915.0511],[28.9997,-31.0251,931.3143],[29.003,-31.0185,984.3286],[29.0144,-31.02,1083.2805],[29.0133,-31.0062,1098.7878],[29.0154,-31.0029,1108.3141],[29.0182,-31.0023,1130.2942],[29.0268,-31.0041,1172.9404],[29.0319,-31.0091,1145.2211],[29.0366,-31.0075,1127.2056],[29.0426,-31.01,1077.4657],[29.0453,-31.0204,1079.0543],[29.0491,-31.021,1036.0001],[29.0567,-31.0264,1057.907],[29.0545,-31.0316,1059.1058],[29.0606,-31.0324,999.3704],[29.0604,-31.0346,1050.5828],[29.0629,-31.0349,1038.9741],[29.0648,-31.0376,1035.822],[29.0623,-31.0396,1057.8352],[29.0617,-31.0431,1049.0067],[29.0691,-31.0527,1057.9215],[29.0877,-31.0655,1125.8521],[29.0941,-31.0667,1120.7729],[29.1034,-31.0802,1063.3464],[29.1121,-31.0831,1036.9716],[29.1216,-31.0829,1045.4885],[29.1323,-31.0914,1115.3219],[29.1307,-31.0972,1093.8241],[29.1349,-31.1088,1099.7634],[29.1353,-31.1203,1121.5537],[29.1424,-31.139,1130.4524],[29.1359,-31.1461,1137.7461],[29.1351,-31.1526,1098.8032],[29.1488,-31.1551,1094.2035],[29.1612,-31.1611,1119.0292],[29.1641,-31.1653,1126.2603],[29.1673,-31.165,1101.0852],[29.1694,-31.1676,1085.3275],[29.1882,-31.1686,1091.8047],[29.1999,-31.1659,1104.6844],[29.2009,-31.1693,1025.2136],[29.2074,-31.1722,1046.8577],[29.2065,-31.1769,1014.803],[29.2076,-31.18,1019.5458],[29.2039,-31.1842,997.0502],[29.1964,-31.1896,963.0189],[29.1933,-31.1863,872.5729],[29.1883,-31.1904,829.6836],[29.1894,-31.1934,903.4858],[29.1866,-31.2005,889.804],[29.1876,-31.2034,876.9664],[29.1938,-31.1986,912.9838],[29.1996,-31.1891,976.9856],[29.2044,-31.1886,941.3254],[29.1984,-31.2024,782.1465],[29.1951,-31.2054,749.4684],[29.1956,-31.2106,716.462],[29.1932,-31.2145,692.7064],[29.1938,-31.2164,679.1269],[29.1847,-31.211,814.8475],[29.1835,-31.2082,845.2289],[29.1797,-31.2078,778.3123],[29.1772,-31.2166,708.6826],[29.1785,-31.2195,678.8417],[29.175,-31.2263,296.8736],[29.1764,-31.2273,305.602],[29.169,-31.2282,261.1996],[29.1728,-31.2347,231.5896],[29.1699,-31.2588,207.2489],[29.1811,-31.2591,212.8566],[29.1901,-31.2639,205.4853],[29.1915,-31.2688,210.5769],[29.1906,-31.2753,182.069],[29.1985,-31.2819,180.2237],[29.2005,-31.2891,188.7284],[29.2047,-31.2959,173.4642],[29.2264,-31.2983,171.4863],[29.2325,-31.2922,182.9854],[29.2352,-31.2864,188.3642],[29.2318,-31.282,184.8162],[29.2251,-31.2852,179.0166],[29.222,-31.2808,179.3589],[29.2361,-31.2653,198.3806],[29.2389,-31.2498,195.4941],[29.2511,-31.2343,210.7867],[29.2514,-31.2213,229.301],[29.248,-31.2164,214.254],[29.2434,-31.2134,244.6902],[29.2418,-31.2095,217.0947],[29.2425,-31.2014,218.5075],[29.2458,-31.195,234.6798],[29.2496,-31.1928,258.8262],[29.2537,-31.194,230.7432],[29.2593,-31.2072,245.0404],[29.2661,-31.2166,257.5808],[29.2746,-31.2179,250.7934],[29.281,-31.2171,247.8081],[29.2833,-31.215699999999998,244.5052],[29.2836,-31.2114,245.3141],[29.2796,-31.2051,249.3666],[29.2794,-31.2003,269.2343],[29.2832,-31.1871,258.9531],[29.2873,-31.1826,256.9085],[29.2948,-31.1868,277.5795],[29.3006,-31.1856,266.8134],[29.3139,-31.1775,309.5568],[29.316,-31.1673,283.8304],[29.3222,-31.1598,289.3679],[29.3301,-31.1585,293.139],[29.3349,-31.1606,310.9898],[29.3382,-31.1662,302.7968],[29.3413,-31.1673,303.5173],[29.3449,-31.1653,315.9142],[29.355,-31.1541,305.5422],[29.3708,-31.1491,310.7374],[29.3742,-31.1466,313.46],[29.3748,-31.1425,315.9869],[29.3727,-31.1407,317.6238],[29.365,-31.137,326.1151],[29.3528,-31.1342,336.4198],[29.3513,-31.1311,339.2616],[29.3533,-31.1259,337.6259],[29.3654,-31.1241,349.6718],[29.3701,-31.1282,368.7637],[29.3778,-31.1199,352.3265],[29.3851,-31.1194,353.9557],[29.3851,-31.1174,357.2117],[29.3798,-31.1141,356.9359],[29.3796,-31.1105,360.5702],[29.3828,-31.1088,365.1535],[29.3903,-31.1115,402.3607],[29.3944,-31.1107,385.3457],[29.3989,-31.1052,370.9861],[29.4014,-31.0971,388.473],[29.4089,-31.0904,378.6591],[29.4158,-31.0922,380.59],[29.4155,-31.0944,381.5542],[29.4107,-31.0985,387.8946],[29.4126,-31.1009,389.7482],[29.4171,-31.1003,396.7538],[29.4204,-31.0957,484.7665],[29.4222,-31.0955,407.3064],[29.4248,-31.0975,415.9654],[29.429,-31.1061,404.9803],[29.4331,-31.1065,411.8715],[29.4367,-31.1037,409.0077],[29.4374,-31.1007,447.5482],[29.4333,-31.089,413.2878],[29.4339,-31.0862,421.5096],[29.4377,-31.0826,479.8543],[29.4365,-31.0791,427.5117],[29.4198,-31.0761,448.9563],[29.4102,-31.0763,440.6963],[29.4085,-31.0775,440.6963],[29.4073,-31.0848,460.8196],[29.4018,-31.0858,468.7169],[29.3997,-31.0827,453.0538],[29.4031,-31.0772,450.9904],[29.4095,-31.0742,453.3754],[29.4142,-31.0682,454.1298],[29.4279,-31.0593,473.4914],[29.433,-31.0506,522.5959],[29.4258,-31.0456,490.0723],[29.4236,-31.0414,490.8594],[29.4272,-31.0195,515.1554],[29.4248,-31.0179,560.9513],[29.4195,-31.0206,515.149],[29.4155,-31.0205,520.3444],[29.4134,-31.0126,557.913],[29.406,-31.006,557.6392],[29.4055,-31.0036,538.5098],[29.4156,-30.9984,566.0625],[29.4141,-30.9891,596.6436],[29.4329,-30.9824,568.9965],[29.4312,-30.9743,585.8562],[29.4367,-30.9677,645.2263],[29.4468,-30.9633,588.3414],[29.4526,-30.9664,610.1486],[29.4587,-30.9599,615.5273],[29.4596,-30.9539,638.7576],[29.4624,-30.9527,704.0802],[29.4635,-30.9493,790.1674],[29.4546,-30.9306,947.8237],[29.4612,-30.9184,1115.0964],[29.4678,-30.9137,1088.191],[29.4718,-30.9134,1055.6429],[29.4781,-30.9194,951.4096],[29.4805,-30.9183,1012.6374],[29.4824,-30.9149,1052.5718],[29.4841,-30.916,1052.5718],[29.4854,-30.9183,1066.4647],[29.4831,-30.9267,1011.1809],[29.4895,-30.9294,996.4938],[29.4907,-30.9289,990.8702],[29.4906,-30.9233,934.6154],[29.4945,-30.9205,887.8975],[29.5088,-30.9316,825.9215],[29.5159,-30.9282,862.0657],[29.5208,-30.9297,888.7919],[29.5289,-30.9268,912.5145],[29.5192,-30.9341,955.1161],[29.5266,-30.938,858.2574],[29.5325,-30.9331,861.1093],[29.5333,-30.9391,886.4034],[29.5383,-30.9431,897.2679],[29.5491,-30.9429,934.7982],[29.5538,-30.9461,944.7982],[29.5529,-30.9507,968.6375],[29.5586,-30.9568,944.1821],[29.578,-30.9621,884.7043],[29.5813,-30.9661,867.6028],[29.5844,-30.9661,856.2662],[29.5862,-30.9706,839.7167],[29.5898,-30.9698,832.6949],[29.5907,-30.9736,818.5773],[29.5929,-30.9737,812.2146],[29.5983,-30.9795,773.4255],[29.6007,-30.9788,771.8931],[29.6021,-30.9809,755.7985],[29.6043,-30.9802,775.5966],[29.6097,-30.983,737.337],[29.6087,-30.9865,724.8063],[29.6064,-30.986,715.9753],[29.6075,-30.9879,703.3717],[29.6065,-30.9906,702.8924],[29.5918,-30.9905,810.8886],[29.5744,-30.9942,851.8473],[29.5754,-30.9971,839.692],[29.5829,-31.0038,803.9009],[29.5827,-31.0079,805.3259],[29.585,-31.01,786.6973],[29.5842,-31.0139,764.8174],[29.5864,-31.0158,759.2538],[29.5857,-31.0184,767.2766],[29.5918,-31.0184,713.2712],[29.5925,-31.025,685.3308],[29.591,-31.025,693.4677],[29.59,-31.0273,681.6378],[29.5848,-31.0284,662.5917],[29.5841,-31.0379,624.9336],[29.5936,-31.0393,623.4802],[29.5962,-31.0425,575.6869],[29.599,-31.0416,572.2775],[29.599,-31.0434,581.2411],[29.6025,-31.0447,575.6782],[29.6054,-31.045,585.3007],[29.6075,-31.0431,555.7609],[29.6103,-31.0444,550.3934],[29.6123,-31.0429,596.9023],[29.6192,-31.0459,543.5056],[29.6222,-31.0489,536.3218],[29.6217,-31.0516,561.787],[29.6266,-31.0582,510.3174],[29.6229,-31.0582,501.4562],[29.6246,-31.0616,525.7722],[29.6259,-31.0607,497.1232],[29.6293,-31.062,494.2363],[29.6293,-31.0586,494.4485],[29.6324,-31.0592,478.9431],[29.6338,-31.0614,495.9825],[29.6377,-31.059,484.8453],[29.6453,-31.0631,484.3844],[29.6488,-31.0624,461.5783],[29.6504,-31.0643,438.1408],[29.6534,-31.0607,463.6013],[29.6569,-31.0636,460.4136],[29.6581,-31.0604,419.891],[29.6616,-31.0604,423.2091],[29.6631,-31.0628,411.3964],[29.6725,-31.0625,402.4308],[29.6752,-31.0594,423.6599],[29.6778,-31.0597,393.1294],[29.6811,-31.0686,394.255],[29.688,-31.0728,380.0786],[29.6884,-31.0777,382.0883],[29.687,-31.0815,380.7577],[29.6914,-31.0876,371.0533],[29.6994,-31.0842,363.187],[29.6958,-31.0803,384.4968],[29.6995,-31.0759,427.313],[29.7076,-31.0803,339.1648],[29.7083,-31.0834,400.8795],[29.7167,-31.0834,330.5111],[29.726,-31.0869,322.5922],[29.7297,-31.0965,319.2247],[29.7411,-31.1066,313.8637],[29.7348,-31.1119,361.726],[29.7391,-31.12,301.3193],[29.7364,-31.1244,296.2496],[29.7377,-31.1287,331.733],[29.7434,-31.1232,289.9109],[29.7454,-31.1295,287.93],[29.7486,-31.1284,286.2156],[29.7551,-31.1304,284.4525],[29.7616,-31.1295,279.0723],[29.7653,-31.1335,295.4087],[29.767,-31.1333,315.7587],[29.7692,-31.1323,276.4441],[29.7697,-31.1297,274.2864],[29.7623,-31.1266,271.0826],[29.7604,-31.1234,280.0559],[29.7615,-31.1194,352.4849],[29.7664,-31.119,268.2764],[29.7741,-31.121,266.377],[29.7788,-31.1286,253.8492],[29.7813,-31.1295,253.5277],[29.7844,-31.1273,250.2979],[29.7827,-31.1202,267.8573],[29.7859,-31.1181,246.7072],[29.7874,-31.1233,286.1628],[29.7914,-31.1235,252.395],[29.7947,-31.1213,237.6733],[29.7943,-31.1166,238.012],[29.7971,-31.1157,276.1805],[29.8001,-31.119,242.2547],[29.7972,-31.1303,223.4626],[29.8033,-31.1308,221.7319],[29.8044,-31.1347,219.308],[29.803,-31.1401,260.9482],[29.8044,-31.143,244.0863],[29.8087,-31.1409,211.2773],[29.8141,-31.1323,248.4533],[29.8186,-31.1368,232.5312],[29.8223,-31.135,218.6584],[29.8269,-31.1292,226.2274],[29.8288,-31.1312,220.6012],[29.8262,-31.1338,196.4002],[29.8293,-31.1357,211.2225],[29.8382,-31.1314,196.5693],[29.8426,-31.1311,206.0206],[29.8465,-31.1353,191.2686],[29.8452,-31.1427,184.4332],[29.8367,-31.1454,183.9532],[29.8366,-31.1483,191.8494],[29.8453,-31.1487,186.6265],[29.8511,-31.1464,181.172],[29.8627,-31.1479,195.8813],[29.8635,-31.1493,199.2607],[29.8604,-31.1533,209.7083],[29.8665,-31.1542,184.1437],[29.8703,-31.1576,191.337],[29.8658,-31.1623,170.2242],[29.8661,-31.1644,176.2798],[29.8746,-31.1628,179.8076],[29.8824,-31.1672,165.685],[29.8871,-31.1627,212.2811],[29.892,-31.1739,155.039],[29.9047,-31.1796,170.0696],[29.9065,-31.1796,222.4997],[29.9052,-31.1756,147.1929],[29.9077,-31.1719,148.8755],[29.913,-31.1694,171.5605],[29.9154,-31.1705,136.7916],[29.9144,-31.1722,133.7414]]],
[[[30.1943,-31.0784,6.4258],[30.1943,-31.0785,6.4258],[30.1944,-31.0785,6.4258],[30.1943,-31.0784,6.4258]]]]}}