{"type": "Feature","bbox": [30.2042,-22.8609,31.3449,-22.292],"geometry": {"type": "MultiPolygon","coordinates": [[[[30.509,-22.778,593.2324],[30.5159,-22.7773,594.8258],[30.5243,-22.7796,595.8524],[30.5313,-22.776,588.062],[30.5322,-22.7703,587.8517],[30.5362,-22.7704,590.7709],[30.5361,-22.7729,587.1606],[30.5378,-22.7732,584.6658],[30.5426,-22.7663,588.7468],[30.5486,-22.7631,582.2822],[30.5551,-22.7652,584.2049],[30.5642,-22.7631,576.8082],[30.5741,-22.7635,576.5445],[30.5825,-22.7583,574.2326],[30.5864,-22.7537,573.8997],[30.5972,-22.7476,594.0153],[30.6037,-22.7458,589.1476],[30.613,-22.7467,567.6799],[30.6126,-22.7403,570.3673],[30.6155,-22.7342,564.9374],[30.6282,-22.7321,621.4718],[30.6321,-22.728,586.1907],[30.6316,-22.7204,564.0197],[30.6385,-22.7151,564.9279],[30.6794,-22.7115,761.0998],[30.6905,-22.7067,728.8639],[30.6958,-22.7008,626.7797],[30.6971,-22.695,588.0355],[30.6954,-22.6862,550.0971],[30.7006,-22.6816,546.3113],[30.701,-22.676,535.6395],[30.7056,-22.6702,540.3801],[30.7082,-22.6681,542.0423],[30.7162,-22.6669,534.4696],[30.7227,-22.6622,557.1903],[30.7278,-22.6606,552.8939],[30.7305,-22.6573,525.473],[30.7302,-22.6523,527.0565],[30.7225,-22.644,517.7413],[30.7225,-22.6399,511.3096],[30.7279,-22.637,496.4557],[30.7325,-22.6375,506.3643],[30.7354,-22.6399,539.568],[30.7423,-22.6392,499.5852],[30.7614,-22.6295,480.818],[30.7621,-22.6245,566.2542],[30.7739,-22.6318,515.2259],[30.7774,-22.6441,556.1489],[30.7826,-22.6535,540.1285],[30.8097,-22.6791,577.0981],[30.818,-22.6917,654.7159],[30.8475,-22.6861,662.6349],[30.8868,-22.6829,622.2073],[30.8948,-22.6897,495.4996],[30.8964,-22.6901,496.9088],[30.9013,-22.6865,396.1495],[30.9081,-22.691,396.5944],[30.9005,-22.7006,400.8231],[30.8904,-22.7057,401.8226],[30.8876,-22.7106,409.2418],[30.8888,-22.7128,411.395],[30.973,-22.7253,629.3557],[31.0134,-22.7278,606.6772],[30.9919,-22.7741,492.9539],[30.9778,-22.8197,413.9639],[31.0703,-22.8021,407.311],[31.1785,-22.672,409.5126],[31.333,-22.546,417.8425],[31.3449,-22.5345,407.221],[31.3074,-22.4235,193.0],[31.3094,-22.422,199.111],[31.2871,-22.4044,199.7168],[31.2783,-22.3904,203.6672],[31.2737,-22.3749,202.9674],[31.2685,-22.3675,200.8022],[31.2631,-22.3649,204.3689],[31.2495,-22.3629,204.9598],[31.2209,-22.3698,209.052],[31.2131,-22.3687,209.9024],[31.2009,-22.3608,208.3328],[31.1874,-22.3389,213.8607],[31.1741,-22.3315,215.1126],[31.163,-22.3285,213.0],[31.141,-22.3319,215.0],[31.0976,-22.3477,222.1908],[31.0884,-22.349,220.5492],[31.0501,-22.3371,227.2634],[31.022,-22.3245,229.483],[30.9997,-22.3164,235.6962],[30.9953,-22.3175,229.0],[30.9929,-22.3241,230.5934],[30.9901,-22.3266,230.0],[30.9809,-22.3276,232.6132],[30.9732,-22.3237,234.8094],[30.9687,-22.3149,233.0],[30.9463,-22.3151,235.0],[30.9416,-22.3125,235.625],[30.9338,-22.303,238.3029],[30.9303,-22.3013,237.375],[30.9172,-22.3007,239.7404],[30.9081,-22.2973,244.7383],[30.9002,-22.2964,240.8833],[30.8824,-22.3048,244.7385],[30.8698,-22.2987,244.3186],[30.8374,-22.292,251.2092],[30.8254,-22.2936,254.8376],[30.7959,-22.301,267.1164],[30.7744,-22.3043,280.9302],[30.7603,-22.3042,285.0748],[30.7498,-22.3079,289.353],[30.7318,-22.3094,289.3592],[30.7086,-22.3171,301.0904],[30.668,-22.3104,311.3871],[30.6577,-22.3129,312.487],[30.6516,-22.317,315.3902],[30.6367,-22.3342,326.3376],[30.6555,-22.386,408.7685],[30.6331,-22.4151,415.033],[30.5946,-22.448,444.9696],[30.57,-22.4807,546.3591],[30.4579,-22.5521,471.4894],[30.4517,-22.5513,469.4241],[30.4481,-22.5548,477.475],[30.4432,-22.5539,473.6698],[30.4342,-22.5578,476.4722],[30.4323,-22.5569,477.1734],[30.4299,-22.5606,479.7738],[30.4258,-22.563,482.6913],[30.4234,-22.5624,483.5588],[30.4215,-22.5647,481.1014],[30.4211,-22.5722,484.9909],[30.424,-22.5743,486.5099],[30.4248,-22.5773,489.4966],[30.4238,-22.584,491.9358],[30.4198,-22.5908,495.0305],[30.4141,-22.5927,501.8825],[30.4074,-22.5987,504.032],[30.4019,-22.6005,511.3639],[30.4035,-22.609,509.1953],[30.3996,-22.6117,517.9544],[30.3988,-22.6184,532.1775],[30.396,-22.6249,540.4694],[30.3598,-22.6429,722.9184],[30.3237,-22.653199999999998,741.3074],[30.2926,-22.6851,962.403],[30.2693,-22.7241,1075.9492],[30.2275,-22.7572,1187.6929],[30.2201,-22.7658,1313.62],[30.2042,-22.7792,704.636],[30.2089,-22.7809,717.9047],[30.215,-22.7793,753.162],[30.2196,-22.8044,979.7051],[30.2182,-22.8161,1150.0613],[30.2269,-22.8495,1322.4545],[30.2257,-22.8576,1344.8561],[30.2296,-22.8609,1494.7927],[30.2726,-22.8487,1394.2939],[30.2866,-22.8494,1203.1315],[30.3004,-22.8248,1402.8354],[30.3203,-22.8411,837.0686],[30.3251,-22.8381,787.1844],[30.3275,-22.8391,779.4235],[30.341,-22.8337,745.8168],[30.3444,-22.8341,746.4705],[30.3463,-22.8317,745.679],[30.354,-22.8318,745.894],[30.3641,-22.828,721.8375],[30.3783,-22.8197,723.0023],[30.3868,-22.8171,691.0106],[30.394,-22.8169,726.9152],[30.3969,-22.8122,679.6146],[30.4002,-22.8108,686.626],[30.4079,-22.8131,683.1954],[30.4172,-22.8055,661.2335],[30.422,-22.8064,660.3044],[30.4288,-22.8023,644.6763],[30.4392,-22.8018,642.9708],[30.4477,-22.7928,622.7234],[30.4501,-22.7933,628.9264],[30.4586,-22.7899,617.1731],[30.4627,-22.7925,615.3364],[30.4649,-22.7922,617.4334],[30.4722,-22.787,609.2119],[30.4791,-22.7852,610.5579],[30.4892,-22.7902,607.8079],[30.496,-22.7829,598.4288],[30.497,-22.7795,610.5438],[30.503,-22.777,597.0561],[30.509,-22.778,593.2324]]]]}
,"properties": {"GID_3": "ZAF.5.4.3_1","GID_0": "ZAF","country": "SouthAfrica","GID_1": "ZAF.5_1","province": "Limpopo","NL_NAME_1": "NA","GID_2": "ZAF.5.4_1","county": "Vhembe","NL_NAME_2": "NA","city": "Mutale","VARNAME_3": "NA","NL_NAME_3": "NA","TYPE_3": "LocalMunicipality","ENGTYPE_3": "LocalMunicipality","CC_3": "LIM342","HASC_3": "NA","name": "Mutale.city","area_km2": 3894.113,"hist_schema_id": "Elevation0-9000","hist_area_km2": {"200": 62.781,"225": 78.045,"250": 70.864,"275": 82.813,"300": 137.639,"325": 179.963,"350": 230.71,"375": 276.778,"400": 482.372,"425": 392.773,"450": 269.854,"475": 202.595,"500": 148.107,"525": 104.998,"550": 110.822,"575": 97.918,"600": 88.652,"625": 74.835,"650": 61.239,"675": 46.214,"700": 40.09,"725": 39.113,"750": 34.943,"775": 31.028,"800": 28.798,"825": 32.847,"850": 36.466,"875": 38.754,"900": 37.774,"925": 33.273,"950": 35.149,"975": 30.119,"1000": 29.686,"1025": 27.983,"1050": 29.702,"1075": 27.139,"1100": 24.401,"1125": 22.269,"1150": 20.547,"1175": 18.005,"1200": 15.6,"1225": 12.198,"1250": 10.809,"1275": 9.284,"1300": 9.068,"1325": 8.228,"1350": 6.156,"1375": 2.443,"1400": 1.27,"1425": 0.528,"1450": 0.352,"1475": 0.098}}}