{"type":"Feature","properties":{"GID_3":"ZAF.8.5.1_1","GID_0":"ZAF","country":"SouthAfrica","GID_1":"ZAF.8_1","province":"NorthernCape","NL_NAME_1":"NA","GID_2":"ZAF.8.5_1","county":"Siyanda","NL_NAME_2":"NA","city":"!Kheis","VARNAME_3":"NA","NL_NAME_3":"NA","TYPE_3":"LocalMunicipality","ENGTYPE_3":"LocalMunicipality","CC_3":"NC084","HASC_3":"NA","name":"!Kheis.city"},
"geometry":{"type": "MultiPolygon","coordinates": [[[[21.3053,-29.9804,873.1774],[21.243,-30.0391,870.4645],[21.3713,-30.0175,896.0693],[21.4257,-29.9864,912.772],[21.5069,-30.0312,916.2053],[21.5752,-30.0444,955.1118],[21.5922,-30.0116,1006.6433],[21.6134,-30.013,984.2451],[21.6947,-29.9954,930.0021],[21.8327,-30.0279,994.8627],[21.9146,-29.9911,1011.6342],[21.9384,-30.0243,988.1008],[22.0143,-30.0058,1016.7625],[21.9944,-29.9538,1025.4653],[22.0103,-29.9024,1053.0336],[21.9266,-29.8796,1018.5604],[21.8114,-29.842,993.6964],[21.7216,-29.7748,1011.9358],[21.7789,-29.666,1053.6532],[21.83,-29.6232,1079.3396],[21.7849,-29.5566,1052.4442],[21.8998,-29.4491,1069.3584],[21.8457,-29.3959,1080.4647],[21.911,-29.3538,1076.3772],[21.9793,-29.2778,1188.4093],[21.899,-29.1649,1108.1067],[21.840699999999998,-29.0998,1157.5193],[21.8945,-29.0594,1221.2933],[21.9586,-29.0157,1219.6947],[21.991,-28.9461,895.7418],[22.0863,-28.9506,904.3707],[22.117,-29.0121,1138.8669],[22.1812,-29.0624,1110.8577],[22.2047,-29.1091,910.7401],[22.2179,-29.0988,887.8514],[22.2125,-29.0907,888.3466],[22.2069,-29.086,883.5],[22.2037,-29.0789,883.5],[22.2109,-29.0612,883.0],[22.2121,-29.0499,883.0],[22.208,-29.0454,882.5],[22.1995,-29.041,875.0802],[22.1927,-29.0298,874.7119],[22.1837,-29.0265,881.7906],[22.1695,-29.0185,869.5],[22.167,-29.0157,881.4982],[22.1614,-29.0023,868.5],[22.1621,-28.9977,868.5],[22.1794,-28.983,912.0546],[22.1799,-28.9743,876.7078],[22.175,-28.9667,869.6221],[22.1676,-28.9608,865.5242],[22.1594,-28.9511,869.569],[22.1421,-28.9137,866.8541],[22.1312,-28.9062,860.3572],[22.1108,-28.8982,857.0],[22.0971,-28.8871,858.9443],[22.088,-28.8744,858.0343],[22.0866,-28.8655,857.3436],[22.0835,-28.8597,856.0],[22.0831,-28.8508,856.0],[22.0791,-28.8448,857.5477],[22.0708,-28.8419,854.25],[22.062,-28.8427,854.5948],[22.0541,-28.846,852.269],[22.0492,-28.8515,852.4094],[22.0419,-28.8399,893.6373],[22.1233,-28.7632,959.9727],[22.0989,-28.7097,982.6455],[22.0687,-28.7029,1072.7003],[22.0459,-28.6817,1104.9633],[22.026,-28.6587,1033.6219],[22.0091,-28.6362,1026.009],[21.9922,-28.6087,999.8789],[21.971,-28.5839,971.6912],[21.9529,-28.5465,952.3628],[21.9266,-28.5205,930.0313],[21.9007,-28.4252,965.0275],[21.8376,-28.3827,944.2686],[21.787,-28.5051,862.9684],[21.7726,-28.5052,858.4337],[21.7625,-28.5142,841.092],[21.7424,-28.4847,864.7769],[21.7385,-28.4753,860.4109],[21.7124,-28.5001,832.8881],[21.7063,-28.4965,822.5927],[21.696,-28.5029,843.3255],[21.7016,-28.5125,835.6826],[21.6881,-28.5237,854.718],[21.6854,-28.5283,871.5939],[21.6831,-28.5182,875.5766],[21.6534,-28.5059,945.6921],[21.61,-28.551,1111.8877],[21.5317,-28.5634,937.689],[21.4441,-28.5994,904.2668],[21.3418,-28.6319,886.9724],[21.3004,-28.665,896.2347],[21.2605,-28.7115,886.3546],[21.196,-28.7584,866.6091],[21.1258,-28.8316,933.3628],[21.1398,-28.8631,879.639],[21.2511,-28.9309,958.2471],[21.212,-29.0084,1005.055],[21.3089,-29.067,975.6781],[21.3021,-29.1546,961.4375],[21.2147,-29.2273,902.9045],[21.1824,-29.2589,886.7234],[21.2247,-29.2885,893.3358],[21.236,-29.3253,851.0487],[21.2742,-29.358,908.2285],[21.2495,-29.4042,857.9156],[21.271,-29.4659,853.3484],[21.2506,-29.4697,838.7349],[21.227,-29.4414,804.5703],[21.2192,-29.5074,849.7091],[21.2262,-29.5239,853.5978],[21.1954,-29.6373,868.2232],[21.2303,-29.6548,902.3767],[21.2756,-29.6872,919.391],[21.272,-29.7363,889.8643],[21.1541,-29.8726,901.9278],[21.2449,-29.9309,878.7567],[21.3053,-29.9804,873.1774]]]]}}