{"type":"Feature","properties":{"GID_2":"ZAF.4.5_1","GID_0":"ZAF","country":"SouthAfrica","GID_1":"ZAF.4_1","province":"KwaZulu-Natal","NL_NAME_1":"NA","county":"Ugu","VARNAME_2":"NA","NL_NAME_2":"NA","TYPE_2":"DistrictMunicipality","ENGTYPE_2":"DistrictMunicipality","CC_2":"DC21","HASC_2":"ZA.NL.UG","name":"Ugu.county"},
"geometry":{"type": "MultiPolygon","coordinates": [[[[30.4235,-30.786,1.0956],[30.4318,-30.781,0.0],[30.4368,-30.7715,8.0493],[30.4438,-30.7671,0.3834],[30.4476,-30.7562,1.4319],[30.4593,-30.7435,0.8465],[30.4596,-30.7412,1.2244],[30.4579,-30.7399,1.2244],[30.4607,-30.7337,3.9359],[30.4643,-30.7301,0.0],[30.4676,-30.7296,0.0],[30.4674,-30.7274,5.0627],[30.4804,-30.7154,0.0],[30.4826,-30.7082,0.0],[30.4912,-30.7013,0.0],[30.4996,-30.6868,0.0],[30.5096,-30.6785,0.0],[30.511,-30.6718,1.4271],[30.5174,-30.6626,0.0],[30.5185,-30.6576,4.0227],[30.5254,-30.6521,9.2969],[30.5318,-30.644,1.799],[30.5354,-30.6426,0.1654],[30.5376,-30.6346,1.7781],[30.5451,-30.6274,3.187],[30.5474,-30.6282,0.0],[30.5449,-30.6232,0.0],[30.5476,-30.6126,4.7144],[30.559,-30.6024,1.7087],[30.5637,-30.5954,2.1226],[30.5679,-30.5929,6.2237],[30.5843,-30.5596,0.0],[30.5899,-30.5554,0.0],[30.5926,-30.5496,3.4331],[30.5965,-30.5457,2.0005],[30.6063,-30.5399,0.0],[30.609,-30.5346,0.0],[30.6076,-30.5312,3.8632],[30.6112,-30.5271,0.0],[30.6104,-30.5243,4.6702],[30.6179,-30.5174,7.6814],[30.6213,-30.5171,0.0],[30.6249,-30.5135,0.0],[30.6249,-30.5076,1.0925],[30.6299,-30.504,3.1207],[30.6307,-30.4993,0.0],[30.6332,-30.4982,0.0],[30.6329,-30.4943,0.0],[30.6351,-30.491,0.0],[30.6329,-30.489,0.0],[30.6335,-30.4846,0.4523],[30.6385,-30.4818,6.9725],[30.6421,-30.4749,0.0],[30.6529,-30.4651,1.612],[30.6526,-30.4618,10.7885],[30.6549,-30.4604,2.4452],[30.654,-30.4535,0.9739],[30.6593,-30.4487,1.1187],[30.661,-30.4426,9.3117],[30.6679,-30.4379,0.0],[30.6676,-30.4346,0.0],[30.6735,-30.4304,5.7102],[30.6724,-30.4246,0.0],[30.6735,-30.4199,13.5691],[30.6815,-30.4126,2.9698],[30.6835,-30.4049,0.0],[30.686,-30.4013,1.2586],[30.6937,-30.3954,0.3095],[30.6937,-30.3929,4.7019],[30.7001,-30.3854,3.0531],[30.7018,-30.3765,0.0],[30.7065,-30.3715,2.8622],[30.7068,-30.369,4.0916],[30.7176,-30.3621,0.0],[30.7196,-30.3535,0.0],[30.736,-30.339,0.0],[30.7346,-30.3335,5.5029],[30.741,-30.3224,6.2514],[30.7462,-30.3068,0.0],[30.7501,-30.2993,7.1399],[30.7604,-30.289,0.0],[30.7607,-30.2824,1.5041],[30.759,-30.2779,4.6961],[30.7646,-30.2686,0.0],[30.7619,-30.2681,37.8563],[30.7615,-30.2647,9.8907],[30.7561,-30.2677,58.7677],[30.747,-30.2438,89.9548],[30.7354,-30.2294,160.4663],[30.6924,-30.1985,261.8739],[30.703,-30.1878,249.8825],[30.6963,-30.1821,261.8886],[30.6945,-30.1671,20.057],[30.7025,-30.1703,23.7579],[30.7104,-30.17,18.7935],[30.7126,-30.1616,20.5462],[30.7159,-30.1584,9.6869],[30.7187,-30.1617,8.7336],[30.7183,-30.1665,11.7129],[30.7211,-30.1715,33.3892],[30.7285,-30.1729,25.4316],[30.7362,-30.1778,8.1127],[30.7432,-30.1735,9.9023],[30.7477,-30.1739,5.2998],[30.7534,-30.169,129.4008],[30.7484,-30.1579,228.1923],[30.7433,-30.159,191.1161],[30.7256,-30.1466,245.2995],[30.7182,-30.1477,109.6423],[30.7184,-30.1439,148.1195],[30.7735,-30.1494,159.9484],[30.7881,-30.1188,74.9858],[30.7913,-30.1209,56.5648],[30.794,-30.1202,51.0946],[30.7951,-30.1231,73.0716],[30.7998,-30.1191,43.4994],[30.8019,-30.1203,47.4058],[30.8045,-30.1183,37.0803],[30.8134,-30.106,161.0074],[30.8147,-30.1011,97.328],[30.82,-30.0972,16.6078],[30.8202,-30.0926,6.9204],[30.8277,-30.0856,7.9618],[30.8284,-30.0807,26.671],[30.8093,-30.059,200.416],[30.7818,-30.0209,342.2652],[30.7776,-30.0216,164.8803],[30.7764,-30.017,237.1114],[30.7781,-30.0138,189.6013],[30.7759,-30.0135,192.4781],[30.7753,-30.0159,183.4395],[30.7711,-30.0153,183.5156],[30.7645,-30.0116,207.9738],[30.7535,-30.0169,226.0138],[30.7502,-30.0158,236.5791],[30.7484,-30.0118,274.9646],[30.7449,-30.0127,327.621],[30.7428,-30.011,370.4709],[30.7347,-30.0138,431.547],[30.7304,-30.0256,436.3346],[30.7231,-30.0355,292.4283],[30.7244,-30.0401,269.9555],[30.7267,-30.041,237.7783],[30.7305,-30.0465,237.8777],[30.7336,-30.0459,195.0189],[30.7343,-30.0495,166.331],[30.7293,-30.0498,204.0874],[30.7278,-30.046,215.7392],[30.7253,-30.048,244.3047],[30.7246,-30.0456,244.718],[30.7221,-30.045,267.0269],[30.7219,-30.0388,308.1139],[30.7167,-30.036,415.3739],[30.7122,-30.0375,390.0886],[30.7103,-30.0349,412.1093],[30.7076,-30.0362,426.4744],[30.695,-30.0315,524.7692],[30.6836,-30.0308,588.5545],[30.6827,-30.0262,548.1149],[30.6784,-30.0268,581.5519],[30.6775,-30.0243,599.0385],[30.675,-30.0243,585.4381],[30.6734,-30.0274,577.9137],[30.6717,-30.0271,577.9137],[30.6742,-30.0278,555.9207],[30.6713,-30.0529,503.5645],[30.667,-30.0534,475.8988],[30.667,-30.0584,440.3609],[30.6653,-30.0619,399.4203],[30.666,-30.0639,486.8578],[30.6706,-30.0669,449.3352],[30.6721,-30.0656,478.9423],[30.6754,-30.0675,458.98],[30.6726,-30.0726,431.9169],[30.6768,-30.0755,447.0472],[30.6773,-30.0861,139.8245],[30.6754,-30.0871,113.8838],[30.6759,-30.091,144.2899],[30.6705,-30.0936,117.2424],[30.6564,-30.0951,139.1204],[30.6556,-30.0933,131.7746],[30.6622,-30.0854,131.6145],[30.6578,-30.0797,143.8532],[30.6628,-30.0747,149.038],[30.6525,-30.0729,186.4877],[30.6486,-30.0747,233.8508],[30.6437,-30.0735,172.0118],[30.6424,-30.0701,172.4058],[30.6361,-30.0739,185.9939],[30.6374,-30.0876,255.3591],[30.6254,-30.0978,217.2187],[30.6185,-30.0971,174.7023],[30.6038,-30.106,139.2082],[30.6057,-30.1092,118.9334],[30.6016,-30.1113,133.8441],[30.5987,-30.117,104.6151],[30.6004,-30.12,97.7391],[30.5982,-30.1206,93.7791],[30.5988,-30.1228,91.4236],[30.5959,-30.124,79.6051],[30.595,-30.1199,86.0934],[30.5911,-30.1179,101.9534],[30.5889,-30.1185,82.113],[30.5875,-30.1246,120.3906],[30.5798,-30.1332,91.2097],[30.5792,-30.1413,144.2985],[30.5755,-30.1447,98.5819],[30.569,-30.1382,96.6992],[30.5611,-30.1346,97.6676],[30.5527,-30.134,101.617],[30.5348,-30.1222,111.9747],[30.534,-30.1181,154.4619],[30.5356,-30.1157,113.8317],[30.5411,-30.1174,115.3617],[30.5488,-30.1144,150.0881],[30.552,-30.1176,122.3674],[30.552,-30.1239,120.8512],[30.5581,-30.1236,121.7489],[30.5619,-30.1208,130.547],[30.557,-30.1076,128.7257],[30.5531,-30.1056,130.5242],[30.5448,-30.1057,131.2451],[30.542,-30.0979,145.2946],[30.5381,-30.094,150.5164],[30.5228,-30.0929,141.8167],[30.516,-30.0874,188.2705],[30.5124,-30.0874,144.2133],[30.5055,-30.0976,159.0837],[30.5087,-30.1078,150.6819],[30.5053,-30.1134,155.4865],[30.4991,-30.1124,158.5855],[30.4915,-30.1073,157.1198],[30.4916,-30.1023,158.2198],[30.4963,-30.0979,159.8397],[30.4834,-30.0881,167.1478],[30.4793,-30.0873,170.672],[30.476,-30.0894,218.7095],[30.4765,-30.0944,167.7982],[30.4824,-30.0987,214.0789],[30.4821,-30.1016,178.5844],[30.4784,-30.1058,173.8956],[30.4682,-30.1002,178.5523],[30.4606,-30.1014,185.5043],[30.4576,-30.0993,182.6196],[30.4561,-30.0895,207.4853],[30.4455,-30.0844,197.1478],[30.4167,-30.1429,613.1257],[30.4207,-30.1478,591.7736],[30.42,-30.1535,496.6698],[30.4246,-30.1574,478.0862],[30.4249,-30.1612,454.7368],[30.4266,-30.1617,448.737],[30.4275,-30.165,439.0013],[30.4301,-30.168,424.9358],[30.4372,-30.1691,443.8111],[30.4379,-30.1721,395.6321],[30.4416,-30.1729,408.4531],[30.4413,-30.1753,394.4588],[30.4398,-30.1752,381.408],[30.4412,-30.1778,386.6409],[30.4345,-30.1836,396.5186],[30.4332,-30.1831,396.5186],[30.4338,-30.1811,405.5373],[30.4314,-30.1797,397.0056],[30.4285,-30.1846,425.4529],[30.4297,-30.1869,418.2101],[30.4242,-30.1862,436.0562],[30.4137,-30.1888,515.9708],[30.4164,-30.1983,411.7574],[30.4038,-30.2115,433.1986],[30.4014,-30.2108,434.8475],[30.398,-30.2034,445.5681],[30.3968,-30.206,444.8661],[30.3918,-30.201,458.9646],[30.3896,-30.2002,458.7708],[30.3877,-30.2014,491.6608],[30.3773,-30.2223,703.2917],[30.3808,-30.2506,723.0038],[30.3658,-30.2483,676.7465],[30.3419,-30.3023,843.4014],[30.3073,-30.3522,817.261],[30.3041,-30.3522,841.4359],[30.3036,-30.3574,813.399],[30.2958,-30.3687,994.3453],[30.2945,-30.3761,841.7391],[30.2838,-30.3745,800.3967],[30.2841,-30.3725,846.5328],[30.2708,-30.3691,916.371],[30.2576,-30.3619,833.1332],[30.2499,-30.3725,763.6269],[30.246,-30.3703,725.9678],[30.2397,-30.374,712.6573],[30.2303,-30.3829,633.8904],[30.2088,-30.3899,825.9791],[30.2038,-30.4029,835.3991],[30.1145,-30.402,516.8789],[30.1148,-30.4051,509.1769],[30.1194,-30.4125,506.1393],[30.1176,-30.4249,501.0365],[30.1155,-30.4258,500.4009],[30.1122,-30.4246,507.9519],[30.1062,-30.4179,522.4011],[30.1006,-30.4167,490.5655],[30.0821,-30.4308,480.6024],[30.0791,-30.437,487.5368],[30.0796,-30.4426,483.2853],[30.0736,-30.4472,456.5973],[30.0707,-30.4459,473.52],[30.0603,-30.4461,461.1821],[30.0586,-30.4443,435.0981],[30.0585,-30.4398,432.1524],[30.0532,-30.4371,430.956],[30.0536,-30.4323,424.9864],[30.0482,-30.4306,421.5046],[30.0449,-30.4318,430.0062],[30.04,-30.4403,412.3112],[30.0472,-30.4488,401.3031],[30.0533,-30.4528,405.3857],[30.0525,-30.4608,410.0614],[30.057,-30.4674,360.7909],[30.023,-30.4717,792.5411],[30.0088,-30.4829,769.5039],[30.0016,-30.4937,764.3828],[30.0012,-30.5065,818.2491],[30.0028,-30.5117,844.9583],[29.9968,-30.5142,865.1111],[30.0011,-30.5225,801.7891],[29.9894,-30.5286,851.3048],[29.9966,-30.5361,862.459],[29.996,-30.5376,867.2352],[29.9932,-30.5428,882.9178],[29.9767,-30.5542,881.8831],[29.9678,-30.5511,923.3878],[29.9644,-30.5592,923.7048],[29.9542,-30.5658,923.0305],[29.9561,-30.5832,978.7175],[29.9535,-30.586,1008.5269],[29.9486,-30.5842,994.1071],[29.9207,-30.5495,859.7552],[29.8938,-30.5607,889.2385],[29.8712,-30.557,954.5467],[29.8575,-30.5587,998.745],[29.855,-30.5448,1026.6252],[29.8348,-30.5428,1071.8882],[29.8198,-30.532,1116.7798],[29.8133,-30.5351,1143.2385],[29.7953,-30.5187,1196.0895],[29.7877,-30.5179,1206.3936],[29.7822,-30.5105,1173.8417],[29.7636,-30.5113,1154.7415],[29.7512,-30.516,1146.2117],[29.7396,-30.5182,1172.5746],[29.7287,-30.5175,1180.823],[29.7245,-30.5127,1200.2482],[29.7109,-30.5161,1403.9448],[29.7042,-30.5225,1459.8733],[29.695,-30.5194,1556.078],[29.6697,-30.5196,1468.0522],[29.6527,-30.5231,1461.6829],[29.6457,-30.5272,1516.0393],[29.6477,-30.5494,1809.9282],[29.6407,-30.562,1911.9216],[29.5863,-30.6171,2244.6033],[29.5713,-30.6577,2109.5569],[29.5807,-30.6542,1620.572],[29.5927,-30.6644,1375.8177],[29.5942,-30.6674,1319.3872],[29.5958,-30.6859,1121.7174],[29.5995,-30.6895,1087.1892],[29.6143,-30.6867,1022.8585],[29.617,-30.6889,1010.4944],[29.6202,-30.6885,1002.7912],[29.6349,-30.684,1001.5188],[29.6365,-30.6859,979.8842],[29.6371,-30.6838,979.6123],[29.6487,-30.6838,937.67],[29.6515,-30.6858,920.7637],[29.6572,-30.6806,945.7415],[29.6671,-30.6763,921.7865],[29.6719,-30.6714,896.678],[29.6714,-30.67,884.2315],[29.6737,-30.6692,896.9237],[29.6766,-30.6715,882.4323],[29.6763,-30.6737,868.9133],[29.6868,-30.6795,842.6391],[29.6865,-30.6819,857.4432],[29.6831,-30.6835,836.9796],[29.6835,-30.6854,843.8051],[29.6874,-30.6883,859.8699],[29.6917,-30.6862,840.1818],[29.6936,-30.6875,851.6232],[29.6943,-30.6958,800.1991],[29.6965,-30.6967,797.2305],[29.7008,-30.7053,787.5081],[29.7048,-30.703,784.0203],[29.7079,-30.7048,781.998],[29.7153,-30.7043,788.6776],[29.7208,-30.7084,782.8552],[29.7336,-30.7074,786.6799],[29.735,-30.7091,758.1056],[29.7296,-30.7159,750.7941],[29.7344,-30.7196,794.7413],[29.7389,-30.7176,755.5935],[29.7407,-30.7187,746.1918],[29.741,-30.72,741.9097],[29.739,-30.7212,750.0793],[29.7403,-30.7233,759.5794],[29.7442,-30.7229,735.6334],[29.7497,-30.7195,735.3202],[29.7507,-30.7164,726.9865],[29.7494,-30.7126,743.4031],[29.7525,-30.707,719.3224],[29.7553,-30.7106,725.8109],[29.7566,-30.7178,702.6763],[29.7591,-30.7192,706.45],[29.7707,-30.7185,746.0157],[29.7716,-30.7162,692.2914],[29.7685,-30.7128,689.6836],[29.7719,-30.7121,695.9227],[29.7722,-30.7054,695.7764],[29.7861,-30.7101,705.5025],[29.779,-30.7012,676.6105],[29.7777,-30.6974,690.6755],[29.7805,-30.6954,680.1213],[29.7856,-30.6962,680.4866],[29.7857,-30.6988,675.8953],[29.7963,-30.7044,662.8273],[29.8003,-30.7089,654.1971],[29.8058,-30.7035,652.6276],[29.8044,-30.7007,680.2412],[29.8108,-30.6985,653.4218],[29.8152,-30.7012,686.4265],[29.8154,-30.704,654.6068],[29.8146,-30.7067,702.0699],[29.8067,-30.7143,642.3207],[29.8041,-30.7149,652.9857],[29.8043,-30.7224,645.3987],[29.8068,-30.7281,633.8458],[29.8089,-30.7304,633.4412],[29.8142,-30.7315,689.7443],[29.8187,-30.7236,633.8336],[29.8251,-30.7206,649.4024],[29.8275,-30.7231,631.3827],[29.8242,-30.7283,628.3715],[29.8246,-30.7346,633.9705],[29.831,-30.7349,619.785],[29.8337,-30.7381,613.7903],[29.8296,-30.7408,608.5992],[29.8298,-30.7439,604.1234],[29.8334,-30.7426,601.9329],[29.8421,-30.7439,596.5561],[29.8448,-30.7368,582.3148],[29.8477,-30.7365,584.9762],[29.8518,-30.7488,565.5241],[29.8515,-30.7524,584.2406],[29.8477,-30.758,604.2822],[29.8496,-30.7608,553.4933],[29.8524,-30.7617,589.213],[29.8594,-30.7565,545.5387],[29.8638,-30.7575,546.3262],[29.8716,-30.7548,530.5762],[29.8732,-30.7586,540.9959],[29.8766,-30.7582,525.0531],[29.882,-30.7621,521.4374],[29.8863,-30.7591,532.2895],[29.8925,-30.7588,517.7227],[29.8965,-30.7675,511.0345],[29.8952,-30.7696,547.0374],[29.8884,-30.7704,498.5456],[29.886,-30.7726,493.4638],[29.8857,-30.7834,476.9548],[29.8869,-30.7847,499.9804],[29.8969,-30.7743,485.2969],[29.9041,-30.7754,467.194],[29.9118,-30.7699,456.1517],[29.9149,-30.7712,508.7915],[29.916,-30.7745,447.9673],[29.9098,-30.7807,500.054],[29.9097,-30.7846,445.3856],[29.9063,-30.792,442.3627],[29.908,-30.7982,482.2212],[29.9219,-30.7896,424.3316],[29.9252,-30.7936,430.3604],[29.9275,-30.794,422.3588],[29.9293,-30.792,494.926],[29.9295,-30.7807,443.4401],[29.9266,-30.775,424.2531],[29.9216,-30.7708,407.6556],[29.9224,-30.7687,426.1576],[29.9342,-30.7684,406.0622],[29.9492,-30.7708,421.9175],[29.9513,-30.7744,392.4521],[29.9502,-30.7811,393.66],[29.955,-30.7869,401.4573],[29.9552,-30.7897,388.5841],[29.9406,-30.7921,401.1044],[29.9332,-30.8008,385.7319],[29.9323,-30.8072,386.2078],[29.9376,-30.8094,405.9092],[29.945,-30.8099,385.4972],[29.9658,-30.8082,380.2965],[29.9685,-30.8064,361.5237],[29.9685,-30.8037,361.9737],[29.9724,-30.8023,373.3564],[29.974,-30.8066,374.8333],[29.9673,-30.8108,382.5127],[29.9665,-30.8171,351.5258],[29.9704,-30.819,353.0681],[29.9678,-30.8251,372.568],[29.9639,-30.8248,366.327],[29.9592,-30.8215,344.0163],[29.9582,-30.823,343.3485],[29.9596,-30.8274,366.7003],[29.9648,-30.8323,339.6433],[29.9705,-30.8344,353.1341],[29.9748,-30.8381,351.3763],[29.9799,-30.8374,338.4258],[29.9833,-30.835,338.2158],[29.9898,-30.838,384.9409],[29.9937,-30.836,353.767],[30.0003,-30.8375,348.1429],[30.0015,-30.8279,336.359],[30.0037,-30.8261,344.5233],[30.0077,-30.8258,349.7592],[30.0112,-30.8284,351.4843],[30.0119,-30.8321,333.2878],[30.007,-30.8422,336.2603],[30.0098,-30.8433,359.3953],[30.0162,-30.8396,314.9733],[30.0218,-30.8392,310.409],[30.0224,-30.8475,303.477],[30.0194,-30.853,302.7396],[30.0221,-30.8568,324.0093],[30.025,-30.8566,301.0813],[30.0255,-30.8488,348.7787],[30.0364,-30.8466,313.6195],[30.039,-30.8446,298.2417],[30.046,-30.848,320.6824],[30.0532,-30.8468,283.4535],[30.0579,-30.8485,282.3198],[30.0622,-30.8481,280.6863],[30.0668,-30.8517,283.6823],[30.0702,-30.8516,281.8382],[30.0742,-30.8564,276.3211],[30.0732,-30.8658,273.9957],[30.0818,-30.8659,274.1422],[30.0828,-30.8637,283.8459],[30.0946,-30.8622,279.6625],[30.0951,-30.8649,272.47],[30.0926,-30.8687,287.9868],[30.0932,-30.878,298.9961],[30.0882,-30.8745,288.3678],[30.0739,-30.8708,271.6329],[30.0704,-30.8713,260.6935],[30.0703,-30.8747,263.0811],[30.0745,-30.8784,255.1252],[30.0757,-30.8822,258.6393],[30.081,-30.885,269.2821],[30.0914,-30.883,256.2934],[30.0984,-30.8848,272.8595],[30.1092,-30.8845,279.6425],[30.115,-30.8877,244.3681],[30.1195,-30.888,263.7611],[30.1211,-30.891,240.9261],[30.1136,-30.9005,239.1411],[30.1269,-30.9058,265.742],[30.1201,-30.9101,283.9487],[30.1323,-30.9091,242.317],[30.1362,-30.9115,242.1663],[30.1395,-30.9181,225.6682],[30.1464,-30.9224,206.3],[30.1428,-30.927,230.1705],[30.1464,-30.9311,204.7761],[30.1465,-30.9339,216.8449],[30.1447,-30.9374,202.2515],[30.1413,-30.9375,219.8121],[30.1378,-30.9406,223.0762],[30.1411,-30.951,222.9137],[30.1392,-30.9544,196.6184],[30.1347,-30.9562,178.3704],[30.1345,-30.9638,197.8833],[30.1411,-30.9664,169.0566],[30.1477,-30.9713,178.4969],[30.1551,-30.9729,172.4473],[30.1564,-30.9759,178.4279],[30.1521,-30.9853,145.6934],[30.1413,-30.9873,131.2943],[30.1409,-30.9967,126.1665],[30.1452,-30.9984,134.4149],[30.1469,-31.0026,130.0358],[30.1446,-31.0054,107.8589],[30.1362,-31.0074,141.8786],[30.1354,-31.009,115.3645],[30.14,-31.0141,150.8615],[30.1396,-31.021,115.6781],[30.1408,-31.0229,97.203],[30.1431,-31.0226,80.2499],[30.1493,-31.0156,110.6127],[30.1556,-31.0224,60.6789],[30.1632,-31.0251,65.281],[30.17,-31.0254,61.6687],[30.1675,-31.0389,26.6831],[30.1632,-31.0456,39.8607],[30.1634,-31.0499,72.6901],[30.1725,-31.0627,5.1287],[30.1779,-31.0664,5.5232],[30.188,-31.0688,1.5993],[30.1954,-31.0796,0.0],[30.2112,-31.0737,0.0],[30.2282,-31.0582,0.0],[30.231,-31.0479,0.0],[30.2279,-31.0432,0.0],[30.2362,-31.0365,0.0],[30.2349,-31.0343,9.8766],[30.2368,-31.0321,2.5555],[30.2407,-31.0296,1.9181],[30.2426,-31.031,0.4695],[30.2443,-31.0299,0.0],[30.246,-31.0218,0.0],[30.2551,-31.0187,0.0],[30.2554,-31.016,6.3],[30.2585,-31.014,0.1266],[30.2574,-31.0104,3.1693],[30.2674,-31.0026,1.5895],[30.269,-30.9963,0.0],[30.278199999999998,-30.9888,0.0],[30.2776,-30.9835,5.3513],[30.2826,-30.976,6.7971],[30.2818,-30.971,0.6823],[30.279,-30.969,6.9263],[30.2865,-30.9718,0.0],[30.2976,-30.9632,0.0],[30.3021,-30.9551,0.0],[30.3015,-30.9487,0.0],[30.3046,-30.9424,7.8126],[30.309,-30.9385,0.0],[30.3085,-30.936,0.0],[30.3118,-30.9332,0.0],[30.314,-30.9335,0.0],[30.3182,-30.9254,1.614],[30.3293,-30.9185,0.0],[30.3296,-30.9154,15.3413],[30.3335,-30.9151,0.0],[30.3354,-30.9104,0.0],[30.3299,-30.9088,14.215],[30.3357,-30.9088,0.0],[30.3363,-30.9071,0.0],[30.3412,-30.9049,0.0],[30.3462,-30.8999,0.3637],[30.3479,-30.8937,2.3403],[30.359,-30.8815,0.0],[30.3601,-30.8771,0.0],[30.3643,-30.8762,0.0],[30.371,-30.871,0.3783],[30.3724,-30.8679,0.8662],[30.3721,-30.8604,4.2489],[30.3751,-30.8596,0.0],[30.3779,-30.8565,0.0],[30.3824,-30.8557,2.1523],[30.389,-30.8504,0.2702],[30.3965,-30.8379,0.0],[30.3962,-30.8363,0.0],[30.3935,-30.8354,25.9396],[30.3987,-30.8337,0.7759],[30.4043,-30.8279,0.0],[30.4057,-30.8221,5.0932],[30.4043,-30.819,2.146],[30.4107,-30.8143,0.0],[30.4129,-30.8046,0.0],[30.4163,-30.8032,0.0],[30.4179,-30.7979,11.8124],[30.4215,-30.7954,0.0],[30.4246,-30.7899,0.0],[30.4232,-30.789,0.0],[30.4235,-30.786,1.0956]]]]}}