{"type":"Feature","properties":{"GID_3":"ZAF.3.4.2_1","GID_0":"ZAF","country":"SouthAfrica","GID_1":"ZAF.3_1","province":"Gauteng","NL_NAME_1":"NA","GID_2":"ZAF.3.4_1","county":"Sedibeng","NL_NAME_2":"NA","city":"Midvaal","VARNAME_3":"NA","NL_NAME_3":"NA","TYPE_3":"LocalMunicipality","ENGTYPE_3":"LocalMunicipality","CC_3":"GT422","HASC_3":"NA","name":"Midvaal.city"},
"geometry":{"type": "MultiPolygon","coordinates": [[[[28.0314,-26.7949,1426.915],[28.035,-26.7948,1423.348],[28.0476,-26.8012,1424.5842],[28.051,-26.8141,1425.4309],[28.0656,-26.8209,1429.9049],[28.0657,-26.8235,1439.9539],[28.0795,-26.8344,1438.8293],[28.0956,-26.8402,1439.6436],[28.1148,-26.8444,1451.9874],[28.1213,-26.8558,1445.7531],[28.1208,-26.8694,1444.5],[28.1162,-26.8735,1452.4884],[28.1156,-26.8774,1447.5],[28.117,-26.886,1483.0],[28.1211,-26.8903,1483.0],[28.1251,-26.8909,1483.0],[28.1324,-26.8877,1483.0],[28.1429,-26.8898,1483.0],[28.1501,-26.8846,1483.0],[28.1539,-26.8841,1483.0],[28.1581,-26.8849,1483.0],[28.1638,-26.8904,1483.0],[28.1687,-26.89,1483.0],[28.1711,-26.8873,1483.0],[28.1713,-26.8837,1483.0],[28.1678,-26.868,1483.0],[28.1538,-26.8506,1483.0],[28.1562,-26.847,1483.0],[28.1598,-26.8454,1483.0],[28.1735,-26.8467,1483.0],[28.1786,-26.8532,1483.0],[28.1799,-26.8618,1483.0],[28.1852,-26.872,1483.0],[28.185,-26.8907,1483.0],[28.1932,-26.8962,1483.0],[28.203,-26.9116,1483.0],[28.215,-26.9116,1483.0],[28.2187,-26.9144,1483.0],[28.2246,-26.9229,1483.0],[28.2301,-26.9233,1483.0],[28.2402,-26.916,1483.0],[28.2385,-26.913,1483.0],[28.2298,-26.9066,1483.0],[28.2274,-26.8939,1483.0],[28.2354,-26.8814,1483.0],[28.2443,-26.8848,1483.0],[28.2484,-26.8841,1516.0725],[28.2435,-26.8737,1508.1514],[28.2619,-26.8752,1504.4313],[28.2633,-26.8665,1502.722],[28.2843,-26.8644,1508.1161],[28.2835,-26.8771,1492.0475],[28.3095,-26.8794,1523.884],[28.325,-26.8411,1506.7849],[28.3226,-26.8202,1505.146],[28.3193,-26.8194,1501.3981],[28.3183,-26.8118,1503.198],[28.3216,-26.8117,1504.4761],[28.3194,-26.7927,1511.9227],[28.3394,-26.7856,1542.7686],[28.3435,-26.7855,1544.0675],[28.3426,-26.7791,1552.4337],[28.3491,-26.7779,1554.4166],[28.3482,-26.7729,1551.3917],[28.4069,-26.7617,1582.8833],[28.394,-26.7167,1545.8324],[28.383,-26.7175,1549.5452],[28.4001,-26.655,1607.9921],[28.3927,-26.6362,1507.5563],[28.383,-26.6406,1505.4094],[28.3848,-26.6436,1502.5597],[28.3831,-26.6452,1501.8793],[28.3705,-26.6483,1498.1621],[28.3602,-26.6588,1493.7322],[28.3558,-26.6616,1491.8544],[28.3536,-26.6611,1493.5232],[28.3514,-26.6641,1489.704],[28.3373,-26.6615,1492.5408],[28.2817,-26.676,1534.5981],[28.2598,-26.6215,1479.8051],[28.2448,-26.6293,1477.5248],[28.2355,-26.6307,1472.5433],[28.2347,-26.6359,1465.7964],[28.2297,-26.6381,1465.5979],[28.2304,-26.6442,1463.6686],[28.2273,-26.6444,1463.8584],[28.2268,-26.6489,1467.2516],[28.2249,-26.6499,1463.1094],[28.218,-26.6391,1502.9729],[28.2194,-26.6363,1498.2021],[28.1987,-26.6097,1604.385],[28.1795,-26.5794,1573.1299],[28.2041,-26.5702,1598.1062],[28.2063,-26.5562,1634.936],[28.2156,-26.5523,1636.501],[28.2223,-26.5462,1611.6672],[28.2595,-26.5481,1570.1464],[28.2602,-26.5456,1548.1357],[28.2672,-26.5452,1537.0906],[28.2667,-26.5487,1553.2886],[28.2719,-26.5508,1544.3398],[28.2738,-26.5487,1530.4392],[28.2841,-26.5456,1575.9326],[28.2836,-26.5436,1591.4254],[28.2983,-26.5366,1583.234],[28.2912,-26.5313,1609.3229],[28.2962,-26.5269,1609.5811],[28.294,-26.5174,1634.6235],[28.3073,-26.5082,1628.9324],[28.3042,-26.5039,1676.22],[28.3084,-26.4994,1693.2019],[28.3128,-26.4978,1648.0679],[28.3211,-26.5025,1598.635],[28.3386,-26.4967,1635.8485],[28.3238,-26.483,1732.9185],[28.3159,-26.4899,1736.384],[28.2964,-26.4781,1825.894],[28.2888,-26.4823,1814.0895],[28.2839,-26.4807,1759.9604],[28.2714,-26.503,1702.6768],[28.2491,-26.4921,1686.9056],[28.2438,-26.4956,1709.4276],[28.2372,-26.494,1707.4755],[28.2286,-26.4851,1681.5349],[28.2258,-26.4798,1641.3402],[28.2252,-26.4726,1612.9192],[28.2177,-26.4713,1615.239],[28.1988,-26.4636,1606.147],[28.2205,-26.4356,1537.5244],[28.2171,-26.4334,1539.4349],[28.2152,-26.4358,1543.1218],[28.2087,-26.434,1534.0793],[28.1877,-26.4531,1565.7352],[28.1781,-26.4438,1557.4674],[28.196,-26.4292,1513.7043],[28.1868,-26.4303,1504.1294],[28.1811,-26.4292,1500.6907],[28.1843,-26.4251,1500.3329],[28.183,-26.4192,1524.1672],[28.1603,-26.438,1501.2179],[28.1472,-26.4239,1518.3789],[28.1347,-26.4229,1528.0668],[28.1372,-26.4255,1524.7905],[28.1257,-26.4307,1509.7439],[28.1179,-26.4191,1511.5198],[28.0932,-26.4172,1480.1464],[28.0848,-26.4181,1488.1323],[28.0826,-26.4162,1486.7123],[28.0761,-26.4154,1492.6305],[28.0975,-26.3603,1552.5419],[28.0812,-26.3357,1538.0413],[28.0511,-26.3491,1495.2107],[28.0503,-26.356,1493.7715],[28.0478,-26.3596,1517.1116],[28.0419,-26.3475,1508.6508],[28.0431,-26.3472,1508.6508],[28.0396,-26.3424,1511.5118],[28.0212,-26.342,1517.5565],[28.0114,-26.3392,1519.3572],[28.009,-26.3506,1545.238],[27.97,-26.3417,1546.7081],[27.9703,-26.3371,1538.6516],[27.9569,-26.3352,1535.073],[27.9534,-26.3532,1560.1863],[27.9122,-26.3589,1633.0042],[27.9046,-26.3653,1640.7789],[27.8964,-26.3779,1654.7415],[27.8932,-26.4043,1594.2821],[27.9356,-26.3998,1688.8855],[27.9334,-26.4242,1763.1602],[27.9223,-26.429,1690.5872],[27.9175,-26.4586,1585.1001],[27.9122,-26.4585,1578.2194],[27.9148,-26.441,1619.3854],[27.8792,-26.4468,1559.2366],[27.8786,-26.4409,1563.7866],[27.8801,-26.4387,1565.6875],[27.8773,-26.4392,1568.1222],[27.8691,-26.4448,1571.511],[27.8706,-26.475,1559.9938],[27.882,-26.4895,1541.7101],[27.8866,-26.5054,1527.1206],[27.888,-26.5352,1522.6821],[27.8937,-26.5077,1541.0656],[27.9088,-26.5127,1542.5062],[27.9028,-26.5248,1538.4567],[27.963,-26.5502,1507.905],[27.9809,-26.5542,1509.9485],[27.983,-26.5558,1505.5586],[27.9456,-26.5963,1472.3193],[27.9662,-26.5949,1467.8018],[27.9693,-26.5921,1469.5063],[27.9812,-26.6023,1457.8308],[27.9855,-26.6024,1449.9468],[27.9496,-26.6495,1444.149],[27.959,-26.6511,1431.6812],[27.9586,-26.6476,1431.5747],[27.9622,-26.6441,1428.519],[28.0137,-26.6524,1457.0078],[28.0125,-26.6591,1460.6302],[28.0208,-26.6726,1428.4774],[28.0088,-26.6701,1428.4912],[28.0079,-26.6654,1439.8628],[28.0038,-26.6645,1441.7344],[28.0022,-26.6747,1444.2667],[28.0217,-26.6783,1448.135],[28.0249,-26.6954,1454.6754],[28.0165,-26.6967,1452.0093],[28.0173,-26.7161,1450.6018],[28.0048,-26.7145,1428.6604],[28.0021,-26.7034,1431.1808],[28.0005,-26.7033,1420.5],[27.9922,-26.7256,1420.625],[27.9927,-26.7334,1426.8259],[28.0014,-26.7474,1426.3075],[28.0068,-26.7631,1430.6951],[28.0071,-26.7693,1430.8496],[28.0201,-26.7754,1422.7932],[28.0245,-26.7796,1426.4376],[28.0284,-26.7805,1421.0],[28.0265,-26.7844,1422.8181],[28.0155,-26.7896,1423.8556],[28.0146,-26.7936,1427.0485],[28.0202,-26.7957,1425.1632],[28.0314,-26.7949,1426.915]]]]}}