{"type": "Feature","bbox": [25.3778,-31.4853,28.6981,-30.3133],"geometry": {"type": "MultiPolygon","coordinates": [[[[26.9873,-31.3451,1621.2654],[27.0113,-31.3562,1701.2814],[27.0171,-31.361,1713.9127],[27.0475,-31.3445,1670.9277],[27.0676,-31.3614,1921.0433],[27.0635,-31.3726,1761.7506],[27.0673,-31.3739,1767.002],[27.0866,-31.3975,1756.8044],[27.0996,-31.3939,1682.1552],[27.1168,-31.421,1703.2513],[27.1308,-31.4266,1707.1213],[27.1752,-31.3678,1676.6631],[27.276,-31.3398,2007.8324],[27.2814,-31.3807,1532.9359],[27.2962,-31.375,1598.2723],[27.2908,-31.3562,1704.2614],[27.2935,-31.3542,1677.9716],[27.2979,-31.3552,1695.7056],[27.3043,-31.3483,1972.1012],[27.3038,-31.3463,2016.0864],[27.3218,-31.3741,2082.0825],[27.3225,-31.3792,1969.2249],[27.334,-31.3823,2086.0371],[27.3363,-31.3754,2070.1279],[27.3446,-31.3803,1925.2323],[27.3626,-31.4223,1374.072],[27.3859,-31.4155,1370.5826],[27.4085,-31.4185,1794.7294],[27.4398,-31.3847,1808.0281],[27.443,-31.3774,1862.1687],[27.4567,-31.301,2345.0889],[27.4339,-31.2795,2381.7915],[27.4513,-31.2572,2434.0234],[27.4907,-31.2526,2146.9624],[27.5145,-31.2367,2241.614],[27.526,-31.2271,2233.2537],[27.5515,-31.2303,2146.7642],[27.559,-31.225,2224.9438],[27.5577,-31.2197,2240.4375],[27.5696,-31.2091,2196.1885],[27.6052,-31.212,2277.9768],[27.6241,-31.224,2295.8228],[27.6302,-31.2223,2339.6194],[27.6803,-31.2279,2159.4834],[27.7101,-31.2168,2204.0195],[27.7063,-31.2301,2001.0537],[27.7329,-31.2334,2265.1062],[27.7365,-31.2351,2152.1646],[27.7483,-31.221,2211.7781],[27.7529,-31.2213,1991.5872],[27.76,-31.2036,2235.5078],[27.7858,-31.203,2094.8484],[27.8081,-31.2148,2045.8693],[27.815,-31.2076,2057.3472],[27.8329,-31.2085,2053.3306],[27.8718,-31.2033,2214.7031],[27.8784,-31.2074,2185.8804],[27.8874,-31.2165,2186.1421],[27.9038,-31.2272,2340.8013],[27.9061,-31.2481,2140.2258],[27.9313,-31.234,2183.8608],[27.9886,-31.2404,1837.6522],[27.9965,-31.2563,1740.4725],[28.0164,-31.2589,1783.5781],[28.0384,-31.2812,1711.2659],[28.0506,-31.2873,1570.551],[28.0644,-31.3089,1522.3823],[28.0808,-31.3237,1522.4952],[28.1014,-31.314,1463.4652],[28.1111,-31.2926,1458.5481],[28.1212,-31.3001,1509.3849],[28.1466,-31.3004,1516.5625],[28.1428,-31.3124,1493.641],[28.1668,-31.3103,1420.2981],[28.173,-31.3041,1436.3474],[28.1976,-31.3159,1473.6152],[28.2162,-31.3128,1435.782],[28.2219,-31.3244,1419.0315],[28.2295,-31.3301,1431.657],[28.2538,-31.334,1434.4148],[28.2514,-31.3565,1511.5059],[28.261,-31.3708,1500.1134],[28.281,-31.3902,1412.9819],[28.2938,-31.4167,1490.9087],[28.3107,-31.4224,1468.3751],[28.3222,-31.4285,1550.641],[28.3279,-31.4378,1569.9216],[28.3284,-31.4431,1546.6204],[28.3312,-31.4475,1538.1348],[28.337,-31.4477,1505.4648],[28.3529,-31.4614,1440.814],[28.3656,-31.4639,1513.5598],[28.3813,-31.4806,1567.5857],[28.3896,-31.4777,1527.8441],[28.3986,-31.4679,1539.8927],[28.4033,-31.4369,1519.6613],[28.4073,-31.4277,1511.7183],[28.4136,-31.4232,1531.6975],[28.4255,-31.4212,1575.7834],[28.4272,-31.4187,1575.9707],[28.4291,-31.4028,1551.0011],[28.4357,-31.398,1522.0309],[28.4449,-31.3969,1545.7241],[28.4431,-31.3901,1599.2279],[28.444,-31.3865,1658.3875],[28.4495,-31.3851,1680.4825],[28.4625,-31.3874,1672.7681],[28.4645,-31.3857,1653.3486],[28.4628,-31.383,1539.5007],[28.4651,-31.3811,1507.1182],[28.4727,-31.3772,1622.162],[28.4839,-31.3743,1393.9487],[28.4857,-31.3686,1329.641],[28.4906,-31.3668,1422.7266],[28.4965,-31.3494,1447.059],[28.4991,-31.3485,1462.3325],[28.4993,-31.3326,1446.6975],[28.4951,-31.3263,1416.3536],[28.4875,-31.3269,1428.0732],[28.4704,-31.3236,1193.2855],[28.4597,-31.3167,1120.9951],[28.456,-31.3068,1021.0094],[28.4519,-31.3035,1009.0408],[28.4548,-31.3017,1003.2494],[28.4605,-31.3027,998.6196],[28.466,-31.2988,997.6312],[28.4678,-31.2908,983.9744],[28.4649,-31.2872,974.7472],[28.4653,-31.2804,961.4477],[28.4725,-31.2746,965.5966],[28.4739,-31.2699,949.7587],[28.4768,-31.2703,949.1082],[28.4762,-31.2717,948.6449],[28.4804,-31.2714,950.4282],[28.479,-31.2673,944.4924],[28.4862,-31.2659,942.4369],[28.4956,-31.2542,935.0869],[28.4955,-31.2508,941.5974],[28.5107,-31.2504,931.9985],[28.5137,-31.2486,933.9669],[28.5141,-31.2437,928.7677],[28.522,-31.2433,924.894],[28.5276,-31.2456,929.9576],[28.5292,-31.2488,928.7844],[28.5311,-31.2475,922.976],[28.5305,-31.2447,920.6239],[28.5318,-31.2433,923.1977],[28.535,-31.2435,920.442],[28.5379,-31.246,917.6839],[28.5401,-31.2454,916.5568],[28.5437,-31.2413,918.6292],[28.5424,-31.2377,916.5779],[28.546,-31.236,936.0297],[28.5493,-31.2355,915.0871],[28.5536,-31.2396,918.6146],[28.5601,-31.2388,908.911],[28.5606,-31.2356,956.3469],[28.5552,-31.2318,909.1269],[28.5606,-31.2315,905.0469],[28.569,-31.2342,950.0937],[28.5711,-31.236,926.1849],[28.5708,-31.2408,902.4807],[28.5729,-31.2417,902.8788],[28.5765,-31.2404,900.1115],[28.5826,-31.2409,897.3383],[28.5831,-31.2319,896.6077],[28.588,-31.2365,902.0037],[28.5977,-31.2394,895.2964],[28.6095,-31.2373,885.9484],[28.6089,-31.2335,883.3176],[28.6128,-31.2291,899.9714],[28.6204,-31.2369,879.3599],[28.6225,-31.2352,892.8137],[28.6234,-31.2303,881.4741],[28.6276,-31.2274,879.1503],[28.6234,-31.2243,880.7821],[28.6222,-31.2211,904.319],[28.6301,-31.2211,883.0503],[28.635,-31.214,875.6868],[28.6467,-31.209,876.9557],[28.6552,-31.2013,880.4891],[28.6535,-31.1945,876.6583],[28.6708,-31.1845,875.613],[28.6727,-31.1852,873.0026],[28.6787,-31.1997,878.4537],[28.6812,-31.2005,872.3953],[28.6934,-31.1966,871.3655],[28.6922,-31.1937,872.5245],[28.6935,-31.1915,869.995],[28.6893,-31.1853,869.3874],[28.6823,-31.1793,869.8178],[28.6826,-31.1736,870.6957],[28.6872,-31.165,870.6666],[28.6776,-31.1633,873.8195],[28.676,-31.1646,875.4905],[28.6769,-31.1681,874.8213],[28.6681,-31.1698,884.5953],[28.6661,-31.1667,876.0101],[28.6711,-31.1632,876.7919],[28.6711,-31.1519,884.1483],[28.6746,-31.147,889.4689],[28.6755,-31.135,877.7555],[28.68,-31.1316,878.4918],[28.6884,-31.1313,878.7484],[28.6905,-31.1341,876.9813],[28.6929,-31.1334,877.5631],[28.6981,-31.1281,878.1554],[28.6952,-31.1205,879.0237],[28.6816,-31.1185,892.9462],[28.6773,-31.1146,892.9518],[28.6728,-31.1164,895.493],[28.6706,-31.12,895.3523],[28.6672,-31.1171,895.094],[28.6536,-31.1138,906.8253],[28.652,-31.1122,898.3817],[28.6545,-31.106,901.7512],[28.6505,-31.1064,910.4085],[28.6421,-31.0994,913.1678],[28.6356,-31.1045,909.8959],[28.6236,-31.0975,922.5972],[28.6181,-31.1024,916.1569],[28.6139,-31.104,910.7363],[28.6083,-31.1028,915.0685],[28.6065,-31.0998,910.4453],[28.6103,-31.1007,914.1874],[28.6116,-31.0968,923.177],[28.6084,-31.0912,921.3063],[28.6016,-31.0882,912.4389],[28.5997,-31.0901,913.4861],[28.6003,-31.0949,920.7504],[28.599,-31.096,915.2157],[28.5959,-31.0951,917.948],[28.5943,-31.0969,921.8417],[28.595,-31.0989,920.954],[28.5921,-31.1066,919.879],[28.5866,-31.1063,930.4922],[28.5851,-31.102,924.8285],[28.5762,-31.098,923.63],[28.5736,-31.0986,922.465],[28.5738,-31.1008,922.8684],[28.5766,-31.1028,923.1979],[28.5804,-31.1029,929.4586],[28.5782,-31.1058,923.599],[28.5681,-31.1031,925.9982],[28.5612,-31.1046,931.3204],[28.5602,-31.1031,931.2283],[28.5628,-31.1007,928.5994],[28.5635,-31.0924,929.001],[28.5601,-31.0846,929.4347],[28.554,-31.0868,928.3246],[28.5518,-31.0904,928.6608],[28.5396,-31.0904,936.5963],[28.5357,-31.0937,935.9219],[28.5386,-31.1023,934.5992],[28.5361,-31.1064,946.9312],[28.5252,-31.1078,960.8254],[28.5248,-31.1101,931.4395],[28.5184,-31.1125,931.5864],[28.514,-31.1088,930.6273],[28.5162,-31.1048,931.0162],[28.5233,-31.1021,939.1738],[28.5208,-31.0973,938.1195],[28.5211,-31.0863,943.4039],[28.513,-31.084,971.3326],[28.5142,-31.0814,946.4706],[28.5204,-31.0774,956.2431],[28.5187,-31.07,960.3859],[28.5092,-31.062,993.1512],[28.496,-31.0578,989.7816],[28.4925,-31.0417,1013.3913],[28.4907,-31.0399,1018.0461],[28.4937,-31.0314,1054.488],[28.5053,-31.0494,1448.6938],[28.5205,-31.0486,1524.1663],[28.5203,-31.0502,1514.8743],[28.5305,-31.0544,1521.5852],[28.538,-31.0552,1531.7444],[28.5373,-31.0533,1530.8805],[28.5253,-31.0488,1537.7887],[28.5307,-31.0415,1525.0964],[28.5417,-31.036,1502.8862],[28.5423,-31.0307,1492.3046],[28.5478,-31.0251,1512.8615],[28.5499,-31.0204,1451.4617],[28.5515,-31.0218,1472.126],[28.5552,-31.0174,1399.1235],[28.5604,-31.0158,1426.3478],[28.5505,-31.0133,1427.9165],[28.5486,-31.01,1447.9573],[28.5497,-31.0044,1501.4199],[28.5483,-31.0002,1533.1265],[28.5502,-30.9952,1528.6782],[28.5534,-30.9922,1550.5049],[28.568,-30.9972,1481.3219],[28.5714,-30.994,1460.0531],[28.5747,-30.9959,1464.8368],[28.5772,-30.9929,1466.4509],[28.5834,-30.9739,1465.4413],[28.5873,-30.9668,1547.7484],[28.5804,-30.9623,1632.516],[28.5755,-30.9518,1638.1658],[28.5772,-30.95,1631.1914],[28.577,-30.9437,1611.2515],[28.5801,-30.9397,1607.4321],[28.5771,-30.9349,1564.4443],[28.5784,-30.9329,1556.6727],[28.5823,-30.9301,1587.7756],[28.5917,-30.9311,1633.2322],[28.6386,-30.9209,1751.3306],[28.6576,-30.9246,1510.8317],[28.6558,-30.9257,1484.8729],[28.6559,-30.9278,1462.4622],[28.6594,-30.9247,1528.5018],[28.6624,-30.9263,1520.4634],[28.6572,-30.9171,1628.2916],[28.6528,-30.9151,1621.2756],[28.65,-30.9076,1550.7173],[28.648,-30.8802,1677.4708],[28.6733,-30.8673,1659.7754],[28.693,-30.8675,1696.7461],[28.6947,-30.8619,1551.0205],[28.6933,-30.8555,1287.0591],[28.6882,-30.8459,1131.9742],[28.6871,-30.8372,1049.3247],[28.68,-30.8356,1046.1692],[28.6768,-30.8314,1051.3621],[28.681,-30.8257,1069.3657],[28.6856,-30.824,1051.9139],[28.6869,-30.8199,1051.4746],[28.6861,-30.8169,1100.6709],[28.6803,-30.8178,1069.1166],[28.6773,-30.8206,1054.9282],[28.6742,-30.8169,1076.5848],[28.6669,-30.8184,1074.6182],[28.6653,-30.8119,1067.5309],[28.6586,-30.8119,1067.7732],[28.6509,-30.8056,1072.0818],[28.6512,-30.8045,1070.9175],[28.6557,-30.8047,1075.6443],[28.6586,-30.8009,1078.0219],[28.6511,-30.7989,1077.7789],[28.6494,-30.7955,1080.4199],[28.6508,-30.7944,1081.7693],[28.6609,-30.7945,1084.7914],[28.6617,-30.7904,1095.9032],[28.6538,-30.7919,1094.2701],[28.6483,-30.7767,1119.0127],[28.6419,-30.774,1104.8418],[28.641,-30.768,1114.0048],[28.629,-30.7581,1139.1146],[28.6274,-30.7549,1116.2042],[28.6234,-30.754,1124.766],[28.6158,-30.7562,1120.606],[28.6126,-30.7542,1156.3883],[28.6106,-30.7574,1115.1615],[28.6077,-30.7551,1119.9729],[28.6082,-30.7497,1116.3701],[28.6119,-30.7503,1185.9355],[28.6126,-30.7484,1149.2026],[28.6067,-30.737,1135.4476],[28.5975,-30.7343,1131.0342],[28.6024,-30.7285,1130.144],[28.5995,-30.7265,1157.728],[28.5962,-30.7195,1172.6537],[28.5917,-30.7175,1138.5312],[28.5902,-30.7117,1140.6274],[28.5863,-30.7127,1145.7168],[28.5807,-30.7085,1151.0991],[28.5727,-30.7096,1179.9574],[28.5664,-30.7074,1168.4294],[28.5601,-30.7088,1196.8129],[28.5631,-30.7013,1185.8937],[28.5541,-30.6975,1193.6956],[28.5499,-30.6924,1218.1101],[28.5522,-30.6891,1204.8781],[28.5525,-30.6837,1231.3706],[28.5546,-30.6818,1242.1013],[28.5506,-30.6787,1230.6239],[28.542,-30.6649,1313.8086],[28.544,-30.663,1388.4158],[28.5463,-30.6667,1397.2346],[28.5508,-30.6625,1505.5994],[28.5565,-30.6605,1575.6862],[28.5649,-30.6616,1572.5085],[28.5665,-30.6601,1512.6837],[28.556,-30.652,1582.715],[28.5561,-30.6452,1665.4939],[28.5602,-30.6413,1657.6394],[28.5558,-30.629,1678.5284],[28.5605,-30.6241,1556.6748],[28.5607,-30.6214,1552.0387],[28.5523,-30.6188,1583.7573],[28.5452,-30.6037,1595.5845],[28.5425,-30.6021,1605.2305],[28.5425,-30.5948,1541.7773],[28.5406,-30.589,1557.5784],[28.5367,-30.5884,1559.7003],[28.5349,-30.5843,1541.2494],[28.5285,-30.5812,1527.2643],[28.526,-30.5748,1520.7704],[28.519,-30.5724,1547.6403],[28.5136,-30.5672,1501.6658],[28.5249,-30.5482,1451.1505],[28.5358,-30.5515,1494.9022],[28.5414,-30.5511,1504.8048],[28.547,-30.5487,1603.4194],[28.5441,-30.541,1632.3933],[28.5494,-30.541,1742.8945],[28.5607,-30.5184,1481.2637],[28.5641,-30.5205,1469.4852],[28.5733,-30.5224,1563.9279],[28.5759,-30.5159,1476.6495],[28.5648,-30.5104,1438.3213],[28.5694,-30.5012,1448.5619],[28.5698,-30.4963,1432.2002],[28.5828,-30.4924,1431.4468],[28.5964,-30.4928,1425.3682],[28.5893,-30.4902,1433.5977],[28.588,-30.4873,1422.2544],[28.5922,-30.4839,1442.9623],[28.6007,-30.4817,1454.6589],[28.6085,-30.4774,1460.1877],[28.6231,-30.4754,1386.2349],[28.6243,-30.4764,1365.1926],[28.6234,-30.4798,1351.2189],[28.6196,-30.4832,1354.5463],[28.6109,-30.4862,1385.5078],[28.6084,-30.4902,1388.9412],[28.62,-30.4859,1351.5332],[28.6204,-30.4832,1348.644],[28.6285,-30.4775,1354.9626],[28.6276,-30.4728,1357.4434],[28.6245,-30.4709,1364.6246],[28.616,-30.4722,1362.0273],[28.6171,-30.4664,1360.2196],[28.6139,-30.4619,1357.902],[28.6106,-30.4662,1357.0664],[28.607,-30.4661,1356.0942],[28.607,-30.464,1362.6467],[28.601,-30.4574,1386.0056],[28.5877,-30.454,1450.9611],[28.5843,-30.4447,1485.153],[28.5751,-30.4369,1565.7388],[28.5709,-30.4397,1608.5536],[28.5451,-30.4483,1620.2151],[28.5402,-30.4515,1559.3635],[28.5376,-30.4567,1483.3929],[28.5362,-30.4673,1403.9708],[28.5331,-30.4701,1398.9342],[28.5282,-30.4702,1402.3818],[28.5272,-30.4665,1397.2301],[28.5221,-30.4672,1401.7712],[28.5184,-30.4697,1408.2776],[28.5143,-30.4678,1409.0522],[28.5062,-30.4694,1423.9584],[28.5108,-30.4601,1433.2218],[28.5106,-30.4524,1506.1044],[28.508,-30.4467,1662.2982],[28.5003,-30.4346,1745.0381],[28.4944,-30.4324,1756.2189],[28.4808,-30.4223,1726.0448],[28.4581,-30.4232,1542.2549],[28.4494,-30.4275,1480.647],[28.4462,-30.4275,1474.059],[28.4438,-30.423,1474.0608],[28.4368,-30.4192,1480.7172],[28.4349,-30.4204,1487.6433],[28.4297,-30.4177,1492.5042],[28.4247,-30.4209,1484.0277],[28.4215,-30.4212,1497.687],[28.418,-30.4177,1490.4462],[28.4153,-30.4188,1490.1351],[28.4097,-30.4126,1499.6608],[28.404,-30.4126,1503.1257],[28.4023,-30.4076,1553.5459],[28.3986,-30.4072,1510.8752],[28.3974,-30.4048,1511.8088],[28.3947,-30.4051,1516.3062],[28.3943,-30.4025,1561.0072],[28.3922,-30.403199999999998,1519.5306],[28.3905,-30.4016,1517.2861],[28.3856,-30.406,1524.3446],[28.3815,-30.4027,1558.3998],[28.377,-30.4035,1543.2427],[28.3764,-30.4012,1551.2354],[28.3725,-30.4043,1546.1765],[28.3434,-30.3965,1626.6415],[28.3348,-30.3929,1711.7084],[28.329,-30.3859,1759.853],[28.3039,-30.3772,1880.4651],[28.2988,-30.3735,1933.1428],[28.2938,-30.3726,2010.7881],[28.2894,-30.3748,2079.3521],[28.2754,-30.373,2487.7056],[28.2688,-30.3737,2771.8787],[28.2668,-30.378,2772.2681],[28.2672,-30.3841,2709.0208],[28.2636,-30.3868,2691.9673],[28.2586,-30.4023,2716.9834],[28.2531,-30.4045,2704.5583],[28.2577,-30.4164,2733.9043],[28.257,-30.4186,2710.4146],[28.2497,-30.4195,2642.3486],[28.2462,-30.4153,2625.5693],[28.2393,-30.4131,2652.479],[28.2373,-30.4182,2684.5857],[28.2322,-30.4207,2627.3987],[28.2283,-30.4305,2703.3474],[28.2154,-30.4306,2654.543],[28.2063,-30.4372,2682.9229],[28.1977,-30.433,2778.8079],[28.1861,-30.4352,2818.4929],[28.1796,-30.4389,2757.6152],[28.1767,-30.4456,2759.7461],[28.1725,-30.4506,2775.084],[28.1655,-30.4548,2809.2312],[28.1637,-30.4612,2835.9758],[28.1563,-30.4655,2999.1587],[28.1549,-30.4712,2978.3145],[28.1644,-30.4759,2930.7827],[28.1655,-30.4818,2835.0559],[28.1779,-30.4884,2924.1721],[28.1797,-30.4913,2806.0227],[28.1808,-30.5012,2818.0229],[28.1753,-30.5032,2651.5217],[28.1723,-30.5088,2698.6948],[28.1772,-30.5218,2595.5239],[28.1771,-30.5252,2618.0146],[28.1765,-30.527,2565.999],[28.1684,-30.528,2597.0132],[28.1637,-30.5351,2674.2974],[28.163,-30.5389,2681.9097],[28.157,-30.544,2748.1982],[28.1585,-30.5496,2658.676],[28.1635,-30.5567,2640.1777],[28.1608,-30.5586,2665.1941],[28.1626,-30.5628,2663.4839],[28.1593,-30.5683,2667.3928],[28.1604,-30.5725,2609.6057],[28.1536,-30.5758,2544.7168],[28.1512,-30.584,2582.8411],[28.145,-30.5859,2623.8367],[28.1373,-30.5924,2571.5144],[28.1295,-30.5918,2672.0269],[28.1227,-30.5959,2719.2148],[28.1216,-30.5989,2806.8198],[28.1131,-30.5999,2794.1726],[28.1106,-30.6087,2889.8323],[28.1128,-30.6119,2905.5774],[28.1122,-30.6147,2823.7905],[28.1188,-30.6227,2764.7676],[28.117,-30.6265,2793.772],[28.1177,-30.6333,2763.3704],[28.1163,-30.6348,2747.9304],[28.1175,-30.6402,2695.0945],[28.1214,-30.6434,2707.918],[28.1236,-30.6493,2663.5088],[28.1238,-30.6592,2668.5437],[28.1232,-30.6634,2706.3149],[28.1177,-30.6687,2797.1201],[28.1136,-30.6756,2827.9875],[28.0846,-30.654,2796.7988],[28.0524,-30.6581,2726.5295],[28.0037,-30.659,2677.6868],[27.9916,-30.6509,2800.7786],[27.9775,-30.655,2657.3567],[27.9405,-30.6441,2961.5002],[27.9405,-30.6397,2940.4314],[27.9335,-30.6332,2919.7893],[27.933,-30.6275,2883.3254],[27.9266,-30.6231,2927.4067],[27.9202,-30.622,2909.6978],[27.9224,-30.6092,2781.3215],[27.9184,-30.6026,2745.6416],[27.9155,-30.6013,2747.0608],[27.9069,-30.6043,2659.3208],[27.903199999999998,-30.6029,2634.2041],[27.8985,-30.6072,2513.6479],[27.8896,-30.6052,2229.7007],[27.8812,-30.6137,2054.728],[27.8607,-30.6142,1964.953],[27.8553,-30.6158,1947.3197],[27.8304,-30.6137,1854.6057],[27.8142,-30.6163,1833.6509],[27.8058,-30.6155,1781.4387],[27.7955,-30.6191,1734.4468],[27.7922,-30.6176,1740.4557],[27.787,-30.6189,1717.3396],[27.7855,-30.6173,1708.4119],[27.7736,-30.6143,1689.9338],[27.7699,-30.6111,1715.0461],[27.7685,-30.612,1688.4521],[27.7645,-30.6105,1663.0491],[27.7589,-30.6068,1634.9514],[27.7482,-30.6062,1643.3739],[27.7419,-30.6039,1589.9758],[27.735,-30.590699999999998,1566.3118],[27.7302,-30.5896,1572.0173],[27.7207,-30.5791,1545.0637],[27.7164,-30.5686,1541.4188],[27.7021,-30.5645,1522.7202],[27.7005,-30.5612,1524.5885],[27.6943,-30.5587,1516.304],[27.6939,-30.5554,1515.0542],[27.6973,-30.553,1512.5137],[27.6953,-30.5501,1512.8997],[27.6916,-30.5486,1548.6555],[27.6934,-30.5448,1522.1437],[27.6904,-30.5408,1528.0149],[27.6868,-30.54,1512.1533],[27.6796,-30.5345,1529.8672],[27.6726,-30.5354,1491.0404],[27.6651,-30.5254,1479.0022],[27.6576,-30.5225,1480.0424],[27.6573,-30.5193,1514.5826],[27.6531,-30.5174,1480.8716],[27.6459,-30.5197,1480.0889],[27.6453,-30.517,1473.2703],[27.6392,-30.5157,1494.1235],[27.6369,-30.5131,1472.2766],[27.6246,-30.507,1462.1891],[27.6209,-30.5021,1453.1327],[27.6219,-30.4993,1463.684],[27.6199,-30.4937,1454.3103],[27.6147,-30.4967,1472.9071],[27.6097,-30.4956,1451.9637],[27.6071,-30.4919,1440.8274],[27.6119,-30.4911,1450.4802],[27.6151,-30.4882,1462.3668],[27.6141,-30.4844,1505.6069],[27.615,-30.4777,1438.7854],[27.6089,-30.4709,1431.6533],[27.6038,-30.4585,1456.3217],[27.5976,-30.4573,1423.6801],[27.6043,-30.4499,1439.9185],[27.6034,-30.4476,1420.4004],[27.601,-30.4466,1421.5364],[27.5923,-30.4503,1419.1362],[27.5851,-30.4485,1419.9059],[27.5724,-30.4481,1416.0414],[27.5673,-30.4448,1421.0485],[27.5644,-30.4345,1420.406],[27.5715,-30.4302,1410.7522],[27.5714,-30.4286,1409.1515],[27.5601,-30.4155,1406.9893],[27.5546,-30.4026,1410.2844],[27.5474,-30.3969,1396.0],[27.5388,-30.3931,1398.373],[27.5334,-30.3841,1396.6338],[27.5204,-30.3833,1392.5],[27.512,-30.3871,1392.0],[27.5069,-30.3876,1393.0428],[27.5007,-30.3781,1395.2249],[27.5021,-30.3718,1393.2253],[27.4945,-30.3745,1393.7922],[27.4894,-30.3734,1397.1339],[27.49,-30.366,1399.1073],[27.4883,-30.3629,1392.6631],[27.4812,-30.3604,1401.2832],[27.4743,-30.355,1393.1538],[27.4769,-30.3488,1395.6709],[27.4748,-30.3374,1396.1018],[27.4753,-30.3218,1391.5298],[27.4646,-30.314,1394.0366],[27.4556,-30.3133,1395.5088],[27.4502,-30.3147,1390.2349],[27.4382,-30.3232,1396.5283],[27.4203,-30.3241,1399.5128],[27.4127,-30.3308,1387.2617],[27.393,-30.3398,1392.4441],[27.3827,-30.3367,1400.4678],[27.3808,-30.3292,1384.4827],[27.3782,-30.3268,1385.0956],[27.3627,-30.3237,1381.0],[27.3489,-30.3308,1381.9226],[27.3489,-30.3324,1379.0],[27.3534,-30.3359,1378.0],[27.3583,-30.3358,1380.0575],[27.3664,-30.3387,1377.6638],[27.367,-30.3452,1417.2329],[27.3629,-30.3552,1383.5936],[27.3683,-30.3709,1375.5],[27.3721,-30.3745,1378.1232],[27.3787,-30.3745,1375.0],[27.3799,-30.3619,1382.8982],[27.3834,-30.3583,1378.8518],[27.3914,-30.3575,1380.9332],[27.3967,-30.3611,1396.0485],[27.3959,-30.3703,1383.4436],[27.4029,-30.3804,1385.7799],[27.4018,-30.385,1409.4336],[27.4038,-30.3916,1374.9421],[27.3991,-30.3951,1378.9192],[27.3832,-30.4013,1383.009],[27.3809,-30.4064,1374.5969],[27.3769,-30.4088,1381.0544],[27.3734,-30.4053,1376.5439],[27.366,-30.403,1388.1628],[27.3522,-30.4011,1372.55],[27.3446,-30.3973,1377.9177],[27.3389,-30.3983,1369.6497],[27.3391,-30.4035,1372.7058],[27.3346,-30.4121,1384.7025],[27.3319,-30.4157,1390.1002],[27.3236,-30.4177,1420.7589],[27.3242,-30.4232,1378.9935],[27.3338,-30.4294,1390.1173],[27.340699999999998,-30.431,1384.3667],[27.3615,-30.4253,1366.9875],[27.3684,-30.4334,1365.7657],[27.3687,-30.437,1359.0],[27.3556,-30.4431,1370.0778],[27.3479,-30.4492,1380.3021],[27.3396,-30.4506,1369.4969],[27.3235,-30.4468,1381.8285],[27.3111,-30.4411,1375.9722],[27.3049,-30.4413,1375.7324],[27.3006,-30.4437,1363.6531],[27.2935,-30.4552,1360.4697],[27.2959,-30.4616,1382.3746],[27.299,-30.4639,1363.1968],[27.3148,-30.469,1357.1781],[27.3211,-30.4756,1366.0071],[27.3261,-30.4783,1363.6296],[27.3284,-30.4834,1350.5217],[27.3243,-30.4877,1352.4912],[27.3064,-30.4906,1361.2651],[27.2984,-30.4946,1356.3622],[27.3012,-30.5016,1381.9399],[27.3007,-30.5088,1351.8584],[27.2975,-30.5122,1352.641],[27.2902,-30.5103,1348.6819],[27.2833,-30.5031,1353.6425],[27.2747,-30.5023,1349.4894],[27.2665,-30.5063,1350.4675],[27.2621,-30.5037,1357.72],[27.2511,-30.5025,1346.1621],[27.2482,-30.4953,1341.5],[27.2481,-30.4868,1349.1985],[27.2456,-30.4818,1347.5828],[27.2395,-30.4806,1344.0166],[27.2332,-30.4848,1347.4995],[27.2336,-30.4933,1342.6813],[27.2295,-30.4992,1342.2537],[27.2297,-30.5096,1358.6482],[27.2215,-30.5104,1339.7583],[27.2197,-30.5086,1338.5],[27.2183,-30.5054,1367.5381],[27.219,-30.4923,1369.3077],[27.2153,-30.4876,1343.6753],[27.2128,-30.487,1338.0],[27.2099,-30.489,1363.7621],[27.2095,-30.4935,1337.5],[27.2057,-30.5006,1342.9148],[27.206,-30.5074,1340.933],[27.1864,-30.5246,1354.1848],[27.1763,-30.52,1335.2168],[27.1697,-30.5123,1340.0223],[27.1611,-30.5142,1338.1021],[27.1395,-30.5097,1339.0719],[27.1305,-30.5102,1352.0099],[27.1282,-30.5118,1354.4253],[27.1272,-30.5153,1329.0106],[27.1349,-30.5238,1345.5565],[27.138,-30.5322,1356.1948],[27.1327,-30.538,1374.5017],[27.1213,-30.5409,1357.4536],[27.1135,-30.5534,1327.4409],[27.1061,-30.5583,1343.0062],[27.0963,-30.5536,1328.0645],[27.0913,-30.5477,1349.2969],[27.0871,-30.5393,1381.0293],[27.089,-30.5305,1325.4667],[27.0853,-30.528,1335.2734],[27.065,-30.5297,1351.6858],[27.0427,-30.537,1324.5311],[27.0349,-30.5374,1327.9856],[27.0274,-30.5343,1328.2997],[27.0226,-30.5375,1318.0],[27.0129,-30.5363,1329.8176],[27.0057,-30.5373,1321.99],[27.0024,-30.5398,1317.5],[26.9981,-30.5487,1358.2925],[27.0004,-30.5534,1317.5],[27.0054,-30.5579,1327.2695],[27.0178,-30.5613,1315.7932],[27.0265,-30.5786,1311.0],[27.0392,-30.5791,1325.5033],[27.0415,-30.5815,1338.5303],[27.0426,-30.5876,1326.7373],[27.0337,-30.6007,1328.1915],[27.0279,-30.6046,1387.0732],[27.0138,-30.6064,1348.3195],[27.0103,-30.6041,1313.594],[27.0056,-30.5957,1313.3096],[27.0005,-30.5946,1319.8932],[26.9794,-30.5979,1346.0923],[26.9479,-30.6076,1306.0],[26.9398,-30.6174,1305.5],[26.933,-30.619,1308.8916],[26.9293,-30.6245,1318.7273],[26.9301,-30.6276,1310.4047],[26.9493,-30.6529,1328.3921],[26.9488,-30.6586,1307.5752],[26.9346,-30.6651,1308.1891],[26.9181,-30.6651,1303.8582],[26.903,-30.6689,1302.3389],[26.8962,-30.6671,1302.678],[26.8862,-30.6595,1312.3276],[26.8787,-30.6596,1302.5035],[26.8758,-30.6649,1302.744],[26.8773,-30.6737,1314.5021],[26.8761,-30.6781,1301.3376],[26.8727,-30.6813,1309.0645],[26.8641,-30.684,1300.4574],[26.8543,-30.6848,1305.616],[26.8443,-30.6826,1302.751],[26.8388,-30.6694,1301.2291],[26.8283,-30.6596,1298.4178],[26.8141,-30.6427,1297.8734],[26.8053,-30.6394,1301.7092],[26.7761,-30.6484,1296.0474],[26.7687,-30.6555,1295.4838],[26.762,-30.658,1301.5779],[26.7519,-30.6661,1296.7202],[26.7366,-30.6646,1297.5293],[26.7257,-30.6664,1296.0437],[26.7091,-30.684,1290.5],[26.7031,-30.6869,1294.7739],[26.6932,-30.6879,1293.6521],[26.6857,-30.686,1289.5],[26.6807,-30.6784,1289.0],[26.6773,-30.6682,1288.5],[26.6753,-30.6675,1297.4681],[26.6698,-30.6706,1288.0],[26.6608,-30.6853,1287.5],[26.6535,-30.6901,1291.6736],[26.6396,-30.6936,1290.2512],[26.6294,-30.6939,1286.0],[26.6253,-30.6912,1288.9866],[26.6249,-30.6832,1285.5],[26.6278,-30.6782,1286.5648],[26.6365,-30.6728,1286.7883],[26.629,-30.6617,1286.3103],[26.6077,-30.664,1283.6316],[26.5909,-30.6626,1287.5002],[26.5755,-30.6667,1284.9445],[26.5579,-30.6641,1281.9305],[26.5512,-30.6618,1285.2954],[26.5217,-30.6402,1279.5],[26.5105,-30.636,1279.0],[26.5042,-30.6318,1282.6294],[26.4834,-30.6296,1281.6807],[26.4809,-30.6271,1279.6045],[26.4807,-30.6213,1278.0],[26.4857,-30.6131,1278.0],[26.49,-30.6,1280.4987],[26.4894,-30.5938,1278.0433],[26.4873,-30.5916,1277.0],[26.4789,-30.5893,1277.5012],[26.4606,-30.5783,1273.0],[26.4491,-30.5693,1275.5994],[26.4293,-30.5655,1269.5],[26.4179,-30.5664,1270.8203],[26.4016,-30.5716,1269.0],[26.3956,-30.5778,1270.1667],[26.3897,-30.5815,1272.0786],[26.3719,-30.5818,1268.0],[26.3616,-30.5928,1267.0],[26.356,-30.595,1267.0],[26.344,-30.5937,1266.5],[26.3164,-30.5825,1269.0974],[26.3092,-30.584,1266.395],[26.291,-30.5918,1264.5],[26.2802,-30.5896,1269.7307],[26.2768,-30.5855,1264.0],[26.2804,-30.5814,1269.022],[26.2805,-30.5781,1275.6416],[26.2696,-30.5715,1269.2023],[26.2653,-30.5663,1263.0],[26.2651,-30.5494,1265.1307],[26.2631,-30.543,1262.5],[26.2563,-30.5394,1264.0347],[26.2298,-30.5354,1262.3972],[26.2186,-30.5317,1263.1196],[26.206,-30.5336,1261.5],[26.1973,-30.5316,1261.5],[26.1938,-30.528,1261.5],[26.1962,-30.513,1263.02],[26.1941,-30.5038,1265.1501],[26.1794,-30.4912,1260.5],[26.1626,-30.4835,1260.0],[26.1518,-30.4835,1260.0],[26.1455,-30.4853,1260.8506],[26.1357,-30.4924,1263.1683],[26.1301,-30.5001,1262.1628],[26.1301,-30.5049,1261.528],[26.1319,-30.5074,1262.8372],[26.1367,-30.5098,1261.4854],[26.1435,-30.5104,1261.298],[26.1487,-30.5175,1262.4294],[26.1493,-30.5359,1262.0608],[26.1421,-30.5402,1260.4395],[26.1341,-30.5406,1259.0],[26.1182,-30.5354,1261.2172],[26.1084,-30.5214,1258.5],[26.0974,-30.5165,1258.9163],[26.0696,-30.5235,1258.0],[26.052,-30.5227,1258.0],[26.0295,-30.5321,1258.9365],[25.9991,-30.5369,1258.0],[25.977,-30.5382,1258.0],[25.9552,-30.5471,1258.0],[25.9438,-30.5569,1258.0],[25.9406,-30.5649,1258.0],[25.9413,-30.5796,1258.0],[25.9377,-30.5836,1258.0],[25.931,-30.585,1258.0],[25.923,-30.5813,1258.0],[25.9227,-30.579,1258.0],[25.9268,-30.5713,1258.0],[25.9238,-30.5644,1258.0],[25.903199999999998,-30.5432,1258.0],[25.8952,-30.5406,1258.0],[25.8856,-30.5438,1258.0],[25.8792,-30.549,1258.0],[25.8726,-30.5581,1258.0],[25.8718,-30.5622,1258.0],[25.8748,-30.5728,1258.0],[25.892,-30.5968,1258.0],[25.8932,-30.6045,1258.0],[25.891,-30.6103,1258.0],[25.8873,-30.6122,1258.0],[25.8724,-30.6107,1258.0],[25.8606,-30.6129,1258.0],[25.8562,-30.6175,1258.0],[25.8512,-30.6293,1258.0],[25.8467,-30.6336,1258.0],[25.8338,-30.6324,1258.0],[25.819,-30.635,1258.0],[25.8003,-30.6347,1258.0],[25.793,-30.6371,1258.0],[25.7831,-30.6452,1258.0],[25.7808,-30.649,1258.0],[25.7791,-30.6566,1258.0],[25.7789,-30.6759,1258.0],[25.7769,-30.6816,1258.0],[25.7715,-30.686,1258.0],[25.7642,-30.6885,1258.0],[25.7568,-30.6875,1258.0],[25.7498,-30.6825,1258.0],[25.7166,-30.6825,1258.0],[25.7006,-30.6796,1258.0],[25.6932,-30.6761,1258.0],[25.6797,-30.6662,1258.0],[25.6801,-30.6598,1258.0],[25.6854,-30.6506,1258.0],[25.6853,-30.6471,1258.0],[25.6755,-30.6401,1258.0],[25.6716,-30.6409,1258.0],[25.654,-30.6524,1258.0],[25.6417,-30.6577,1258.0],[25.6298,-30.6593,1258.0],[25.6137,-30.656,1258.0],[25.6101,-30.653,1258.0],[25.6094,-30.6498,1258.0],[25.6229,-30.6324,1258.0],[25.6248,-30.6243,1258.0],[25.6185,-30.6205,1258.0],[25.613,-30.6135,1258.0],[25.6031,-30.5944,1258.0],[25.5954,-30.5901,1258.0],[25.5896,-30.5916,1258.0],[25.5746,-30.6088,1258.0],[25.564,-30.6158,1258.0],[25.5563,-30.6166,1258.0],[25.5385,-30.6134,1258.0],[25.5256,-30.6139,1258.0],[25.5169,-30.617,1258.0],[25.5037,-30.625,1200.8928],[25.4878,-30.6292,1196.4496],[25.4746,-30.635,1214.2603],[25.4682,-30.6326,1193.457],[25.4671,-30.6243,1193.4626],[25.4625,-30.6281,1267.5371],[25.4565,-30.637,1234.1599],[25.4585,-30.6574,1337.2618],[25.4604,-30.6608,1330.8794],[25.4713,-30.6667,1373.6936],[25.4697,-30.6688,1371.2648],[25.4719,-30.6729,1346.7124],[25.4633,-30.6777,1294.4294],[25.4602,-30.6833,1317.7456],[25.4638,-30.6894,1323.0811],[25.4665,-30.7098,1361.4369],[25.4625,-30.7155,1418.9847],[25.4624,-30.7221,1350.4558],[25.4739,-30.7231,1431.483],[25.4764,-30.7282,1403.8873],[25.4772,-30.7385,1409.2241],[25.4739,-30.7437,1383.6884],[25.4799,-30.7598,1372.3005],[25.4802,-30.7789,1564.3147],[25.4864,-30.7845,1576.1497],[25.505,-30.7836,1341.8887],[25.5084,-30.7888,1355.2605],[25.5249,-30.7964,1341.1456],[25.5479,-30.7898,1315.4014],[25.5493,-30.791,1314.1473],[25.5216,-30.8332,1646.0088],[25.4852,-30.8498,1579.6438],[25.4713,-30.8698,1565.897],[25.5006,-30.888,1554.3239],[25.5084,-30.8982,1492.8271],[25.5165,-30.9026,1452.4563],[25.5178,-30.9015,1469.8131],[25.514,-30.9215,1508.8706],[25.5104,-30.9284,1503.6636],[25.5046,-30.933,1450.573],[25.5083,-30.9422,1418.8153],[25.5064,-30.9503,1425.7302],[25.511,-30.9557,1421.6273],[25.4931,-30.9677,1474.0555],[25.475,-30.9839,1471.2437],[25.4758,-30.9912,1478.9155],[25.4848,-31.0063,1475.2864],[25.5016,-31.0074,1491.2051],[25.4867,-31.0369,1537.8043],[25.4638,-31.0547,1610.9819],[25.4532,-31.0542,1554.201],[25.4388,-31.0615,1686.9421],[25.4543,-31.0793,1752.4609],[25.4464,-31.1002,1582.3335],[25.4156,-31.1344,1625.426],[25.3982,-31.1307,1699.9844],[25.3919,-31.1384,1541.8835],[25.3846,-31.151,1557.4521],[25.3778,-31.1989,1505.3514],[25.3825,-31.2045,1495.1744],[25.3862,-31.2178,1522.6426],[25.3898,-31.2128,1502.4637],[25.3988,-31.211,1495.5022],[25.4336,-31.2291,1407.4381],[25.4398,-31.2307,1385.7473],[25.4407,-31.2315,1396.2241],[25.4326,-31.2361,1367.9366],[25.439,-31.2414,1387.4945],[25.4386,-31.2466,1368.9492],[25.4403,-31.2466,1355.4731],[25.4484,-31.2562,1390.2953],[25.4646,-31.2565,1554.1987],[25.4749,-31.2492,1609.5115],[25.4708,-31.245,1589.141],[25.4794,-31.2372,1607.0967],[25.4972,-31.2346,1869.2723],[25.4941,-31.2431,1541.4534],[25.5207,-31.2682,1361.5457],[25.5575,-31.278,1640.4288],[25.5354,-31.2964,1344.1205],[25.5155,-31.3168,1286.1884],[25.4974,-31.3203,1267.2885],[25.4744,-31.3132,1357.4111],[25.4436,-31.3343,1341.7816],[25.4635,-31.352,1233.387],[25.5121,-31.346,1254.686],[25.5645,-31.3585,1288.3816],[25.583,-31.3449,1331.9495],[25.5917,-31.4189,1276.5544],[25.582,-31.4409,1207.2866],[25.5893,-31.4853,1196.411],[25.617,-31.4739,1169.9421],[25.6347,-31.48,1168.2219],[25.6323,-31.4778,1170.9137],[25.6327,-31.4741,1170.2502],[25.6483,-31.4649,1175.5032],[25.6471,-31.4644,1176.2664],[25.6494,-31.4625,1177.8903],[25.6485,-31.4584,1178.6304],[25.6512,-31.4539,1182.3845],[25.6513,-31.4488,1183.7761],[25.6657,-31.461,1183.5336],[25.6917,-31.4581,1193.129],[25.7061,-31.4751,1199.8622],[25.7234,-31.4731,1206.1416],[25.7332,-31.4551,1212.6793],[25.7687,-31.4462,1238.2704],[25.7687,-31.4441,1240.4214],[25.8139,-31.4622,1248.2305],[25.8124,-31.4671,1245.7861],[25.8152,-31.4627,1248.2305],[25.823,-31.4659,1253.749],[25.8426,-31.4606,1292.9271],[25.8566,-31.4537,1288.6172],[25.8742,-31.458,1452.1385],[25.887,-31.4637,1466.0486],[25.9205,-31.4722,1369.4777],[25.9231,-31.4675,1423.8187],[25.966,-31.4768,1366.6722],[25.9914,-31.4354,1719.0931],[25.9877,-31.4237,1896.9248],[26.0015,-31.4104,1778.7834],[26.0055,-31.3819,1727.7699],[25.9992,-31.3349,1964.1454],[26.0142,-31.3267,1913.4855],[26.0332,-31.3322,1996.6561],[26.1218,-31.2937,1552.6843],[26.1346,-31.2515,1683.6885],[26.1615,-31.2663,1539.5378],[26.2034,-31.2772,1551.7794],[26.237,-31.2243,1567.4976],[26.2989,-31.2169,1554.4236],[26.2975,-31.2332,1527.6044],[26.3028,-31.2328,1536.0071],[26.3009,-31.235,1530.8109],[26.3167,-31.2444,1622.8754],[26.3361,-31.2494,1629.4742],[26.3408,-31.2428,1702.4987],[26.3397,-31.2323,1804.6289],[26.3479,-31.2164,1600.0779],[26.3582,-31.2223,1521.5121],[26.362,-31.2163,1519.968],[26.3619,-31.2133,1513.6953],[26.3573,-31.2118,1522.9698],[26.3563,-31.2096,1518.0593],[26.3587,-31.1961,1509.0807],[26.368,-31.192,1512.6694],[26.3686,-31.186,1511.4458],[26.371,-31.1837,1516.8523],[26.3793,-31.1883,1630.3369],[26.4263,-31.1847,1531.1558],[26.4126,-31.2066,1685.9504],[26.4203,-31.213,1710.3687],[26.4271,-31.223,1702.6931],[26.521,-31.2073,1972.9055],[26.532,-31.2078,2021.3154],[26.5287,-31.2263,1951.4729],[26.5538,-31.2326,1955.2996],[26.558,-31.2385,1925.4397],[26.5773,-31.2197,1736.4016],[26.602,-31.2266,1973.1329],[26.6287,-31.2294,1932.1365],[26.6441,-31.2166,1924.3179],[26.6892,-31.1917,1982.9863],[26.6894,-31.1971,1953.8047],[26.7039,-31.2122,1847.7595],[26.709,-31.2519,1872.0848],[26.7087,-31.2771,1758.5188],[26.6982,-31.2919,1776.24],[26.6667,-31.3214,1745.8591],[26.6664,-31.3398,1803.8456],[26.6714,-31.3534,1762.8657],[26.6637,-31.3726,1959.4032],[26.6127,-31.372,1766.6466],[26.6296,-31.4056,2039.4148],[26.6333,-31.4552,1834.499],[26.6798,-31.4386,1909.7767],[26.6991,-31.4517,1998.9982],[26.7302,-31.4463,1906.6758],[26.7432,-31.4173,1982.2925],[26.7807,-31.4245,2017.8978],[26.8052,-31.4331,2006.6368],[26.8469,-31.4359,1994.7673],[26.8558,-31.4121,1979.8574],[26.8845,-31.3981,2037.4534],[26.8823,-31.378,2027.255],[26.9346,-31.344,1818.8865],[26.9613,-31.3611,1740.6572],[26.9778,-31.3408,1597.1586],[26.9873,-31.3451,1621.2654]]]]}
,"properties": {"GID_2": "ZAF.1.6_1","GID_0": "ZAF","country": "SouthAfrica","GID_1": "ZAF.1_1","province": "EasternCape","NL_NAME_1": "NA","county": "JoeGqabi","VARNAME_2": "NA","NL_NAME_2": "NA","TYPE_2": "DistrictMunicipality","ENGTYPE_2": "DistrictMunicipality","CC_2": "DC14","HASC_2": "ZA.EC.UH","name": "Joe_Gqabi.county","area_km2": 25688.05,"hist_schema_id": "Elevation0-9000","hist_area_km2": {"875": 6.8,"900": 9.58,"925": 18.78,"950": 23.84,"975": 21.92,"1000": 16.85,"1025": 13.21,"1050": 14.02,"1075": 16.48,"1100": 17.3,"1125": 19.8,"1150": 26.1,"1175": 73.0,"1200": 119.43,"1225": 136.71,"1250": 392.19,"1275": 534.74,"1300": 781.51,"1325": 983.26,"1350": 1091.65,"1375": 1143.32,"1400": 1151.1,"1425": 1127.03,"1450": 1057.17,"1475": 1106.57,"1500": 1140.46,"1525": 1126.87,"1550": 1043.86,"1575": 958.26,"1600": 824.75,"1625": 696.35,"1650": 645.32,"1675": 596.59,"1700": 552.19,"1725": 528.35,"1750": 534.22,"1775": 554.89,"1800": 571.26,"1825": 565.36,"1850": 503.88,"1875": 430.95,"1900": 401.57,"1925": 376.93,"1950": 340.5,"1975": 289.31,"2000": 259.16,"2025": 232.84,"2050": 213.2,"2075": 193.77,"2100": 176.11,"2125": 160.61,"2150": 146.94,"2175": 136.31,"2200": 124.86,"2225": 116.87,"2250": 105.85,"2275": 103.07,"2300": 98.24,"2325": 100.81,"2350": 93.81,"2375": 91.83,"2400": 92.33,"2425": 87.45,"2450": 77.45,"2475": 76.98,"2500": 73.56,"2525": 68.86,"2550": 56.48,"2575": 44.45,"2600": 34.1,"2625": 28.51,"2650": 26.05,"2675": 21.0,"2700": 14.09,"2725": 11.68,"2750": 9.25,"2775": 7.08,"2800": 5.69,"2825": 4.32,"2850": 3.59,"2875": 2.52,"2900": 1.82,"2925": 1.42,"2950": 0.53,"2975": 0.22}}}