{"type":"Feature","properties":{"GID_2":"ZAF.1.3_1","GID_0":"ZAF","country":"SouthAfrica","GID_1":"ZAF.1_1","province":"EasternCape","NL_NAME_1":"NA","county":"BuffaloCity","VARNAME_2":"NA","NL_NAME_2":"NA","TYPE_2":"DistrictMunicipality","ENGTYPE_2":"DistrictMunicipality","CC_2":"BUF","HASC_2":"NA","name":"Buffalo_City.county"},
"geometry":{"type": "MultiPolygon","coordinates": [[[[27.4576,-33.2774,0.8199],[27.4575,-33.2776,0.8199],[27.4576,-33.2776,0.8199],[27.4576,-33.2774,0.8199]]],
[[[27.4583,-33.2815,0.0],[27.4585,-33.2816,0.0],[27.4585,-33.2815,0.0],[27.4583,-33.2815,0.0]]],
[[[27.4582,-33.2812,0.332],[27.458,-33.2812,0.332],[27.4582,-33.2815,0.0],[27.4582,-33.2812,0.332]]],
[[[27.4579,-33.281,0.332],[27.4578,-33.281,0.332],[27.4579,-33.2811,0.332],[27.4579,-33.281,0.332]]],
[[[27.5793,-33.2204,12.8481],[27.5796,-33.2226,13.5795],[27.5826,-33.2246,0.0],[27.5987,-33.2224,0.0],[27.6107,-33.2157,0.4742],[27.6151,-33.2071,0.0],[27.6335,-33.2026,0.0],[27.634,-33.196,8.7056],[27.636,-33.1932,5.7071],[27.6424,-33.1918,0.0],[27.6435,-33.1893,6.2012],[27.6543,-33.1818,1.4311],[27.6635,-33.171,10.0146],[27.6682,-33.1693,3.6665],[27.6699,-33.1715,0.0],[27.6768,-33.1685,0.0],[27.6785,-33.1674,0.0],[27.6771,-33.1646,1.0463],[27.6799,-33.1601,0.0],[27.6826,-33.1607,0.0],[27.6854,-33.1576,15.4492],[27.6921,-33.1585,0.0],[27.7004,-33.1532,0.0],[27.7043,-33.1476,0.0],[27.704,-33.146,0.0],[27.701,-33.1451,0.0],[27.7218,-33.1307,0.0],[27.7301,-33.1188,0.0],[27.7432,-33.1151,0.0],[27.7476,-33.1113,0.0],[27.7618,-33.1046,3.945],[27.776,-33.1015,0.0],[27.7785,-33.1037,0.0],[27.7824,-33.104,0.0],[27.8043,-33.0887,10.3903],[27.8182,-33.086,0.0],[27.8224,-33.0874,0.0],[27.8265,-33.084,0.0],[27.8265,-33.0774,2.749],[27.8363,-33.0724,0.0],[27.8382,-33.0699,0.0],[27.8412,-33.0704,0.0],[27.8613,-33.0621,0.0],[27.8643,-33.0599,0.0],[27.8646,-33.0576,0.0],[27.8701,-33.0568,0.0],[27.8796,-33.0496,0.0],[27.894,-33.044,8.5364],[27.8988,-33.0449,0.0],[27.9054,-33.0418,0.0],[27.9101,-33.0379,3.634],[27.9126,-33.0335,0.0],[27.919,-33.0293,0.0],[27.9115,-33.0293,2.7468],[27.9082,-33.0262,1.7479],[27.8974,-33.0237,1.4223],[27.8746,-33.0274,10.1481],[27.8699,-33.0268,3.5],[27.8937,-33.0224,28.5571],[27.9037,-33.0235,1.0],[27.9085,-33.026,1.7479],[27.9174,-33.0276,0.0],[27.9157,-33.024,3.6676],[27.9212,-33.019,0.0],[27.9218,-33.0143,0.618],[27.9268,-33.0065,1.2609],[27.9332,-33.0062,0.0],[27.9332,-33.0043,26.3936],[27.9371,-33.0029,11.6111],[27.9449,-33.0024,2.3774],[27.9471,-32.9985,35.0178],[27.9529,-32.9974,3.0671],[27.9488,-32.9929,4.4353],[27.949,-32.989,7.8364],[27.951,-32.9871,0.3977],[27.949,-32.984,1.8255],[27.944,-32.9829,0.4358],[27.941,-32.9854,10.1574],[27.9374,-32.9851,10.3237],[27.9326,-32.9826,5.7071],[27.9299,-32.9771,1.7817],[27.9326,-32.9787,0.5104],[27.9338,-32.9821,1.6787],[27.9379,-32.9843,2.5977],[27.9479,-32.981,29.9946],[27.9515,-32.9854,0.0],[27.9543,-32.9849,0.0],[27.9649,-32.9749,0.0],[27.9585,-32.9685,3.8588],[27.9624,-32.9637,2.6747],[27.9629,-32.966,0.2547],[27.9599,-32.9671,5.6845],[27.9596,-32.9687,7.6756],[27.9651,-32.9732,0.0],[27.9718,-32.9729,8.623],[27.9807,-32.9701,2.6279],[27.9951,-32.9601,1.8694],[28.0026,-32.9579,1.8097],[28.0032,-32.9562,6.9095],[28.0121,-32.9551,0.0],[28.0174,-32.951,6.8793],[28.0221,-32.9501,0.0],[28.0285,-32.9435,0.5152],[28.0357,-32.9435,0.0],[28.036,-32.9407,0.0],[28.0326,-32.9388,7.9337],[28.0315,-32.9335,8.7426],[28.0274,-32.9326,0.0],[28.0226,-32.936,2.2018],[28.0249,-32.9315,17.9655],[28.0299,-32.9307,26.5516],[28.0371,-32.934,0.0],[28.0382,-32.9307,0.0],[28.0443,-32.9293,0.0],[28.056,-32.9201,1.8207],[28.0637,-32.9188,0.0],[28.0718,-32.9137,6.3137],[28.079,-32.9143,0.0],[28.0818,-32.9129,0.0],[28.0815,-32.911,0.0],[28.0776,-32.9076,0.0],[28.0754,-32.9082,13.7377],[28.066,-32.9052,7.2879],[28.0644,-32.8996,4.1089],[28.0674,-32.8939,2.8877],[28.0667,-32.8923,13.0341],[28.0532,-32.8917,8.9944],[28.0506,-32.884,11.2413],[28.0475,-32.8821,19.9996],[28.0424,-32.8826,27.1428],[28.0411,-32.8869,14.8016],[28.0396,-32.8874,15.527],[28.0352,-32.8858,18.2665],[28.0348,-32.8805,22.7655],[28.0228,-32.8824,120.0229],[28.0182,-32.8769,120.1301],[28.0072,-32.8694,124.0511],[28.0075,-32.8644,159.8946],[27.9979,-32.8622,130.8943],[27.9979,-32.8584,167.3623],[27.9825,-32.8518,167.3214],[27.9812,-32.8414,170.8962],[27.9755,-32.8279,274.5481],[27.9737,-32.8292,248.2863],[27.9683,-32.8268,234.4125],[27.965,-32.8282,217.3619],[27.9635,-32.8314,194.5743],[27.9615,-32.8286,243.5479],[27.9615,-32.8242,289.3902],[27.9504,-32.8057,317.3651],[27.9286,-32.7742,444.693],[27.9471,-32.7524,251.5507],[27.9498,-32.74,307.0726],[27.9321,-32.7444,378.5702],[27.9054,-32.7583,414.9915],[27.8999,-32.7565,404.7991],[27.8969,-32.7658,385.9197],[27.8904,-32.7723,384.0056],[27.8858,-32.7741,400.7444],[27.8829,-32.7855,349.6463],[27.8772,-32.7871,350.671],[27.8644,-32.7863,324.7429],[27.8645,-32.7942,269.8033],[27.8585,-32.7973,214.456],[27.8566,-32.803,215.0757],[27.8551,-32.8012,201.1328],[27.856,-32.7965,199.8986],[27.8524,-32.7927,225.3388],[27.8498,-32.7916,205.4687],[27.8448,-32.794,207.5182],[27.8471,-32.803,220.1184],[27.8423,-32.8074,228.5294],[27.8276,-32.8155,240.4447],[27.8251,-32.814,236.0151],[27.8258,-32.8105,238.9142],[27.8228,-32.8044,264.5872],[27.8231,-32.7976,282.3683],[27.8241,-32.7933,246.3095],[27.833,-32.7864,309.4932],[27.8327,-32.7819,262.271],[27.83,-32.7803,260.9221],[27.8201,-32.7825,258.0161],[27.8103,-32.781,264.2791],[27.8089,-32.7787,277.1534],[27.8101,-32.7738,268.3633],[27.8164,-32.7653,336.8674],[27.8152,-32.7611,275.2735],[27.8041,-32.7642,287.996],[27.8026,-32.7562,295.3342],[27.7979,-32.7559,289.6512],[27.7953,-32.7533,309.2867],[27.7946,-32.7461,306.2185],[27.7921,-32.7461,330.0924],[27.7894,-32.7535,380.9375],[27.7872,-32.7491,309.3086],[27.7831,-32.7487,311.3213],[27.7822,-32.7525,326.891],[27.7857,-32.7551,321.434],[27.7873,-32.7598,352.0644],[27.7818,-32.7578,365.7511],[27.7793,-32.7663,348.6698],[27.7771,-32.7661,338.2646],[27.763,-32.7784,471.7416],[27.7424,-32.7777,477.7794],[27.7273,-32.7839,486.9453],[27.7078,-32.7783,507.0936],[27.7158,-32.7973,495.9915],[27.7205,-32.7999,497.4283],[27.7159,-32.8086,453.4168],[27.7043,-32.8155,453.9735],[27.6918,-32.8178,457.411],[27.674,-32.8344,441.335],[27.6671,-32.8284,335.8081],[27.6661,-32.8306,343.7537],[27.6613,-32.8322,329.6695],[27.6653,-32.8363,335.4101],[27.6566,-32.8376,326.6957],[27.6589,-32.8404,330.136],[27.6565,-32.8413,319.9658],[27.6519,-32.8397,335.873],[27.6552,-32.8279,353.1145],[27.6456,-32.8244,338.6907],[27.6462,-32.8222,341.0749],[27.6519,-32.8207,347.78],[27.6473,-32.8116,342.9445],[27.6396,-32.8135,345.4691],[27.6352,-32.8173,349.6589],[27.6274,-32.8123,360.1699],[27.6258,-32.8149,352.5204],[27.6305,-32.8221,372.2805],[27.6295,-32.8231,373.0068],[27.6258,-32.8207,362.958],[27.6214,-32.8202,372.2713],[27.6213,-32.8176,368.2144],[27.6169,-32.8153,378.4719],[27.6135,-32.8168,371.7744],[27.6136,-32.82,370.0194],[27.6114,-32.8208,370.1082],[27.6035,-32.8176,384.5477],[27.6083,-32.8128,391.0758],[27.6075,-32.81,378.8608],[27.5991,-32.8076,389.0092],[27.5925,-32.8076,393.467],[27.5897,-32.8118,404.2316],[27.5869,-32.8131,429.7777],[27.5847,-32.8099,392.7126],[27.5794,-32.8084,397.3515],[27.5801,-32.8048,399.0738],[27.5769,-32.8043,399.0584],[27.5746,-32.7989,402.9988],[27.5706,-32.7966,405.8993],[27.565,-32.7967,409.9395],[27.5654,-32.7986,411.8627],[27.5577,-32.8017,419.2686],[27.5459,-32.7948,424.142],[27.543,-32.796,428.7139],[27.5364,-32.7926,436.1977],[27.5256,-32.7666,562.2089],[27.5192,-32.7466,614.7676],[27.5356,-32.7395,652.0037],[27.5538,-32.7252,657.6659],[27.5153,-32.7159,677.0265],[27.5035,-32.7271,628.9014],[27.4933,-32.7436,608.6025],[27.4927,-32.7516,596.4661],[27.4899,-32.7595,565.1165],[27.4849,-32.758,546.4742],[27.4767,-32.7611,530.9516],[27.4751,-32.7727,519.2672],[27.467,-32.7722,537.39],[27.4622,-32.7796,586.3993],[27.4561,-32.7816,591.2263],[27.456,-32.7974,536.9941],[27.4501,-32.8136,558.7896],[27.4244,-32.8034,590.3033],[27.4213,-32.796,572.429],[27.4193,-32.7996,580.9566],[27.4161,-32.8007,569.3879],[27.3954,-32.8025,549.0193],[27.3929,-32.8005,532.3776],[27.3854,-32.8014,505.9673],[27.3849,-32.8102,455.1217],[27.3862,-32.8139,408.3642],[27.3936,-32.814,406.7919],[27.3945,-32.8191,411.0241],[27.3932,-32.8226,403.3873],[27.3804,-32.8281,397.8839],[27.378,-32.8328,395.7642],[27.3787,-32.836,394.7207],[27.3662,-32.8378,472.0601],[27.3563,-32.8274,460.0644],[27.3485,-32.8125,543.2437],[27.3402,-32.8074,546.567],[27.3383,-32.802,533.8865],[27.3385,-32.7943,562.231],[27.3426,-32.7946,537.4814],[27.342,-32.7929,568.6525],[27.3349,-32.7909,590.9297],[27.3303,-32.7915,589.5669],[27.3226,-32.7884,640.1101],[27.3324,-32.7842,618.1729],[27.3299,-32.7771,557.0471],[27.3305,-32.7724,532.2408],[27.3328,-32.7694,518.2883],[27.3335,-32.7642,485.9411],[27.3385,-32.7616,490.5833],[27.3261,-32.7398,604.6873],[27.3339,-32.7326,870.2529],[27.3371,-32.7327,843.3118],[27.3331,-32.7308,842.7137],[27.333,-32.7292,768.8459],[27.3425,-32.7247,564.3798],[27.3466,-32.7189,569.9929],[27.3437,-32.7181,547.926],[27.347,-32.7122,774.3946],[27.3824,-32.7249,846.0387],[27.3713,-32.6998,812.7048],[27.3873,-32.6798,850.6439],[27.3706,-32.6756,878.649],[27.3546,-32.6744,880.4916],[27.3391,-32.674,894.4664],[27.2974,-32.6767,917.5608],[27.2932,-32.6757,918.5563],[27.293,-32.681,960.954],[27.2872,-32.6849,1048.9395],[27.275,-32.6843,1054.3672],[27.2596,-32.6896,1219.5898],[27.232,-32.7145,1341.1158],[27.2306,-32.7174,1331.5986],[27.2383,-32.7405,1149.0134],[27.2414,-32.745,1185.7395],[27.2407,-32.7536,1249.6532],[27.2344,-32.7599,1183.3882],[27.2127,-32.7654,993.9542],[27.219,-32.7835,679.0919],[27.2154,-32.7926,664.9045],[27.1889,-32.7974,662.8333],[27.1902,-32.798,643.5264],[27.1851,-32.7997,690.7665],[27.1846,-32.8041,643.4688],[27.182,-32.8053,655.4408],[27.1819,-32.808,634.9234],[27.1777,-32.811,648.4636],[27.178,-32.8127,631.2866],[27.172,-32.8115,648.1177],[27.1695,-32.8092,671.9905],[27.1682,-32.8117,690.1044],[27.1771,-32.8154,686.3218],[27.1773,-32.8174,715.162],[27.1625,-32.8285,658.2374],[27.1618,-32.8323,621.6237],[27.1588,-32.832,612.5319],[27.1578,-32.8385,620.8601],[27.1772,-32.8425,578.1087],[27.2038,-32.8444,565.5142],[27.2041,-32.8493,589.1294],[27.2162,-32.8549,581.3195],[27.2234,-32.8549,575.5586],[27.2269,-32.8513,571.2731],[27.2307,-32.8518,540.9652],[27.2308,-32.8506,539.0944],[27.2333,-32.8526,540.0309],[27.2304,-32.8625,532.3364],[27.2268,-32.8638,541.0295],[27.2204,-32.8786,522.0175],[27.2236,-32.883,516.5688],[27.2216,-32.8852,513.0736],[27.2256,-32.8853,513.9211],[27.221,-32.8876,507.5494],[27.2185,-32.8859,539.9614],[27.2179,-32.8901,468.5201],[27.2221,-32.8985,537.1089],[27.2317,-32.896,538.6044],[27.2318,-32.9084,528.7173],[27.2374,-32.9148,527.3574],[27.235,-32.9184,523.5511],[27.2366,-32.921,518.2645],[27.2444,-32.9179,513.1119],[27.2545,-32.9204,505.0215],[27.2568,-32.9197,503.2372],[27.261,-32.9229,501.9184],[27.2651,-32.9207,501.1386],[27.2677,-32.9211,499.9173],[27.2694,-32.9219,496.6899],[27.2707,-32.9279,496.6961],[27.2793,-32.9251,493.0276],[27.2848,-32.9298,491.1245],[27.2868,-32.9291,495.7659],[27.2841,-32.9262,501.322],[27.2952,-32.9244,472.5589],[27.2996,-32.9219,470.0588],[27.3061,-32.9273,464.0064],[27.3079,-32.9255,467.4289],[27.312,-32.9267,469.2465],[27.3134,-32.9238,468.8285],[27.3247,-32.928,463.0011],[27.3269,-32.926,457.3876],[27.3309,-32.9271,440.4305],[27.3286,-32.9193,431.8372],[27.3295,-32.9128,435.5113],[27.3325,-32.912,438.5114],[27.3374,-32.915,439.4493],[27.3384,-32.9132,435.6362],[27.3369,-32.9099,414.9543],[27.339,-32.9095,440.3408],[27.3438,-32.9122,410.5089],[27.3454,-32.9193,403.6995],[27.3483,-32.9212,403.4547],[27.351,-32.9218,410.5141],[27.3542,-32.9199,401.4564],[27.3532,-32.9172,410.0146],[27.3486,-32.9162,395.7277],[27.3486,-32.9147,395.7277],[27.3509,-32.914,399.4403],[27.3553,-32.9137,399.9569],[27.3655,-32.9177,388.0033],[27.3852,-32.9161,375.483],[27.3897,-32.9144,382.743],[27.3927,-32.9158,365.8746],[27.3911,-32.9193,374.2236],[27.394,-32.9266,377.6836],[27.3972,-32.9214,351.277],[27.406,-32.9276,344.9608],[27.4079,-32.9269,343.9162],[27.4064,-32.9193,340.8683],[27.4088,-32.9162,336.4924],[27.4102,-32.9207,336.0161],[27.4174,-32.9257,335.5383],[27.417,-32.9311,332.3775],[27.4195,-32.9346,339.5266],[27.4189,-32.9379,341.2867],[27.4099,-32.9353,361.5416],[27.4054,-32.9372,370.2498],[27.4047,-32.935,367.221],[27.3956,-32.9323,398.2564],[27.389,-32.9373,407.9033],[27.3865,-32.9439,429.5497],[27.3656,-32.9519,536.9413],[27.368,-32.9662,499.4747],[27.4014,-32.9775,489.2019],[27.4179,-33.0058,389.4527],[27.44,-32.9898,436.3657],[27.4549,-32.9909,467.7853],[27.473,-32.9952,439.2135],[27.4867,-32.9928,456.427],[27.5039,-32.9952,401.4349],[27.4997,-33.0078,348.1016],[27.4788,-33.026,293.008],[27.4836,-33.0307,339.7852],[27.4588,-33.0452,264.9862],[27.4474,-33.0489,279.7108],[27.4374,-33.0587,229.6039],[27.4387,-33.0678,134.6354],[27.4422,-33.0676,134.1942],[27.4455,-33.072,126.2875],[27.4429,-33.0724,140.6885],[27.4442,-33.0798,202.8693],[27.4406,-33.0849,224.3084],[27.4435,-33.0939,233.7141],[27.4494,-33.1,251.0357],[27.4516,-33.1052,228.2014],[27.4586,-33.1094,211.4128],[27.4595,-33.1176,227.8853],[27.4563,-33.1231,204.7102],[27.4365,-33.1302,218.0998],[27.4167,-33.1291,235.3323],[27.3952,-33.1332,151.4852],[27.3695,-33.1506,32.1076],[27.3731,-33.1537,33.1028],[27.3875,-33.152,23.4497],[27.391,-33.1564,19.544],[27.389,-33.162,30.5235],[27.3797,-33.1639,15.507],[27.3784,-33.1654,15.7748],[27.3773,-33.1744,22.97],[27.3749,-33.1801,44.1549],[27.3774,-33.1845,16.8196],[27.3862,-33.1864,41.2039],[27.3947,-33.1847,8.6376],[27.3978,-33.189,12.1392],[27.4053,-33.1929,4.0578],[27.4239,-33.1928,24.8085],[27.4305,-33.1969,4.5854],[27.4334,-33.2037,11.9321],[27.4335,-33.2099,25.2418],[27.4162,-33.222,4.3457],[27.4128,-33.2334,0.917],[27.4188,-33.2367,20.0616],[27.4291,-33.2369,1.5213],[27.4359,-33.2401,0.5797],[27.4403,-33.2464,2.6013],[27.4402,-33.2539,0.3262],[27.4416,-33.2573,0.4137],[27.4506,-33.2597,0.3391],[27.4555,-33.2641,18.306],[27.4585,-33.2715,0.2515],[27.4579,-33.2796,0.332],[27.4593,-33.2818,0.0],[27.4668,-33.2846,0.0645],[27.471,-33.284,0.1837],[27.4754,-33.2799,0.0],[27.4754,-33.2782,0.0374],[27.4735,-33.2774,0.0],[27.4746,-33.2743,-0.0162],[27.4801,-33.2715,0.0],[27.4893,-33.2799,0.0],[27.496,-33.2796,0.0],[27.5085,-33.2732,0.1956],[27.5201,-33.2646,0.0],[27.5238,-33.2585,-0.0465],[27.529,-33.2546,0.0],[27.5549,-33.2449,0.0],[27.5807,-33.2307,0.0],[27.5832,-33.2268,0.0],[27.5774,-33.2232,14.4884],[27.5771,-33.2207,2.7873],[27.5804,-33.2193,0.0],[27.5793,-33.2204,12.8481]]]]}}