{"type": "Feature","bbox": [30.56,-30.2686,31.1854,-29.5011],"geometry": {"type": "MultiPolygon","coordinates": [[[[30.8257,-30.1621,4.3292],[30.8307,-30.1571,0.0],[30.831,-30.1518,7.7874],[30.834,-30.1471,7.0063],[30.8468,-30.1329,0.0],[30.8529,-30.1132,0.0],[30.8582,-30.1032,0.0],[30.861,-30.101,2.4685],[30.8646,-30.0901,5.393],[30.8713,-30.0812,0.0],[30.8729,-30.0751,5.4247],[30.8815,-30.0651,4.3987],[30.884,-30.0585,0.0],[30.8899,-30.0526,0.0],[30.8913,-30.0485,9.6126],[30.9474,-30.0004,0.0],[30.951,-29.9965,1.778],[30.9504,-29.9935,1.1722],[30.9629,-29.9879,0.0],[30.9688,-29.9824,2.8339],[30.9743,-29.9729,6.052],[30.9888,-29.9596,0.0],[30.9901,-29.956,19.9071],[30.9982,-29.9474,41.5947],[31.009,-29.9382,0.0],[31.0217,-29.9215,0.0],[31.0365,-29.9088,0.0],[31.0446,-29.8965,0.0],[31.0479,-29.8943,3.3676],[31.0613,-29.8771,0.0],[31.0621,-29.8738,0.4112],[31.0607,-29.8696,0.0],[31.0643,-29.8651,0.2436],[31.0615,-29.8665,0.9468],[31.059,-29.8718,9.4991],[31.0504,-29.8782,3.4963],[31.0465,-29.8838,3.321],[31.0399,-29.8849,0.0],[31.0285,-29.8912,0.5969],[31.0268,-29.8913,2.6239],[31.0257,-29.8887,0.0],[31.0287,-29.8849,0.5092],[31.0404,-29.8838,0.0],[31.0418,-29.8826,4.4483],[31.0412,-29.881,0.0],[31.0385,-29.8804,0.26],[31.0374,-29.8821,1.5759],[31.0357,-29.8804,0.0],[31.0326,-29.881,0.6481],[31.0332,-29.8757,0.0],[31.0299,-29.8768,2.416],[31.0257,-29.8826,0.47],[31.0229,-29.8824,3.6306],[31.0232,-29.8776,0.0],[31.0115,-29.879,1.0663],[31.0121,-29.8857,7.4766],[31.0096,-29.8874,0.0],[31.006,-29.8965,0.0],[31.0065,-29.9013,3.6719],[31.0035,-29.8976,2.1548],[31.0074,-29.8882,0.0],[30.9957,-29.8857,1.3127],[30.996,-29.8846,1.3127],[31.0043,-29.8838,0.6802],[31.0093,-29.8718,0.0],[31.0174,-29.8674,0.0],[31.0204,-29.8635,1.0522],[31.0238,-29.8651,0.0],[31.026,-29.864,0.0],[31.0257,-29.8621,2.1783],[31.0296,-29.8637,0.0],[31.0321,-29.8629,3.0523],[31.0335,-29.8662,0.0],[31.0324,-29.8715,0.0],[31.0346,-29.8718,0.0],[31.0371,-29.8676,3.3528],[31.0449,-29.8743,0.0],[31.0521,-29.8746,0.0],[31.0582,-29.8685,0.0],[31.0574,-29.8676,0.0],[31.0554,-29.8699,0.0],[31.0518,-29.8696,4.2685],[31.0485,-29.866,0.0],[31.0468,-29.8665,4.7984],[31.0443,-29.8646,2.8746],[31.0404,-29.8512,0.0],[31.0368,-29.8446,0.7966],[31.036,-29.8321,0.0],[31.0382,-29.8179,2.3859],[31.0415,-29.8132,0.4514],[31.0412,-29.8099,0.2894],[31.046,-29.7982,1.2313],[31.059,-29.7718,3.985],[31.0876,-29.7304,0.0],[31.0937,-29.7143,6.4811],[31.0976,-29.7093,4.4453],[31.0971,-29.7065,1.0408],[31.1051,-29.6982,0.0],[31.1101,-29.6863,0.0],[31.1129,-29.6837,0.0],[31.1162,-29.6737,0.0],[31.1224,-29.6668,0.0],[31.1271,-29.6521,7.8588],[31.126,-29.6496,16.5959],[31.1215,-29.6476,2.2715],[31.1301,-29.649,0.0],[31.1315,-29.6476,0.0],[31.1476,-29.6254,0.0],[31.1546,-29.6187,2.4445],[31.1604,-29.6082,2.4241],[31.1699,-29.5971,0.0],[31.1721,-29.5907,3.7198],[31.1849,-29.5754,0.0],[31.1854,-29.5716,0.6347],[31.1751,-29.5693,4.3818],[31.1728,-29.5669,18.1114],[31.1723,-29.5623,7.3043],[31.1744,-29.5581,26.0688],[31.1739,-29.5567,32.4642],[31.1707,-29.5572,13.2073],[31.1738,-29.5524,38.2047],[31.1682,-29.5473,101.4425],[31.1708,-29.5353,93.4621],[31.1771,-29.5333,113.9734],[31.1831,-29.528,112.245],[31.1358,-29.5011,172.6359],[31.1243,-29.5074,182.0199],[31.1211,-29.5047,170.9843],[31.1219,-29.5079,160.4694],[31.1142,-29.5094,201.4922],[31.1094,-29.5248,121.0514],[31.1097,-29.539,53.5732],[31.1084,-29.5432,61.0258],[31.1029,-29.5428,38.8356],[31.0944,-29.5381,52.7731],[31.0683,-29.5488,209.3846],[31.0407,-29.547,291.7755],[31.0207,-29.556,311.7639],[31.013,-29.5627,307.3433],[31.0061,-29.5914,213.6113],[31.0007,-29.5947,113.8579],[31.0015,-29.5902,130.1181],[31.0002,-29.5878,138.8981],[30.9963,-29.5872,133.2889],[30.9925,-29.5909,111.5289],[30.9873,-29.5913,134.8655],[30.9863,-29.5885,130.855],[30.9881,-29.5847,119.9972],[30.9807,-29.5823,122.9529],[30.9768,-29.5821,131.5895],[30.976,-29.5836,151.9286],[30.9774,-29.587,149.3663],[30.9828,-29.5897,155.5952],[30.9833,-29.5919,154.6778],[30.9721,-29.5902,172.3793],[30.9691,-29.5863,151.9419],[30.9614,-29.5864,233.5794],[30.9551,-29.5836,162.7978],[30.9506,-29.5861,183.3922],[30.9506,-29.5894,167.5426],[30.9293,-29.5955,186.7794],[30.9267,-29.5945,203.417],[30.922,-29.5886,203.433],[30.9167,-29.5943,208.6214],[30.9235,-29.5976,268.1907],[30.9229,-29.6015,236.168],[30.9068,-29.6034,231.7128],[30.8995,-29.5976,230.1433],[30.9075,-29.5897,239.746],[30.9076,-29.5869,237.4157],[30.8927,-29.5879,241.7495],[30.8914,-29.5896,358.3876],[30.8939,-29.5935,259.2892],[30.8878,-29.596,250.3002],[30.8825,-29.5948,268.2856],[30.8775,-29.5993,287.5415],[30.8781,-29.6029,299.145],[30.875,-29.6075,325.1158],[30.8746,-29.6177,565.4675],[30.8625,-29.6174,565.7766],[30.8503,-29.6223,595.5999],[30.8458,-29.6271,607.1995],[30.8425,-29.6232,585.8989],[30.8425,-29.6256,624.355],[30.8395,-29.6229,603.0545],[30.8398,-29.6214,603.0545],[30.8362,-29.6175,599.9824],[30.8293,-29.6157,619.132],[30.8254,-29.6181,595.4091],[30.8292,-29.6276,694.9178],[30.8144,-29.6234,635.8923],[30.8108,-29.6179,649.8302],[30.8119,-29.6139,593.525],[30.809,-29.6068,657.7007],[30.8085,-29.5981,805.8652],[30.8052,-29.597,719.6459],[30.8026,-29.5918,819.6104],[30.8026,-29.5849,822.1402],[30.7924,-29.5745,696.3796],[30.7921,-29.5694,710.5372],[30.7888,-29.5653,835.5762],[30.7885,-29.5724,628.4205],[30.7847,-29.575,572.1478],[30.7796,-29.5752,528.1534],[30.7694,-29.568,639.9373],[30.761,-29.5662,697.9252],[30.7554,-29.567,644.312],[30.7512,-29.5658,615.7266],[30.7465,-29.5677,564.6136],[30.7367,-29.5684,471.2546],[30.7328,-29.5665,360.34],[30.7301,-29.5677,331.2723],[30.7257,-29.5663,299.5147],[30.7272,-29.5708,303.0031],[30.7245,-29.5735,299.5156],[30.7251,-29.5787,278.1647],[30.7237,-29.5807,267.0382],[30.7262,-29.5848,251.8737],[30.7247,-29.5884,268.0077],[30.7288,-29.5973,232.7696],[30.7247,-29.6002,290.2211],[30.7288,-29.6021,222.7458],[30.7286,-29.6042,241.6191],[30.7242,-29.6068,314.4418],[30.7172,-29.607,409.398],[30.7142,-29.6051,508.7562],[30.6921,-29.6029,529.1705],[30.684,-29.6004,604.7205],[30.6741,-29.6047,544.2634],[30.6735,-29.6066,599.2747],[30.6754,-29.6103,500.5135],[30.6732,-29.6191,309.7254],[30.6761,-29.6205,282.1695],[30.6732,-29.6227,302.0419],[30.67,-29.6292,296.7873],[30.6591,-29.6337,304.9346],[30.6548,-29.6317,317.0922],[30.6487,-29.6333,334.8437],[30.6443,-29.6317,329.027],[30.6482,-29.639,326.3213],[30.6608,-29.6385,338.4741],[30.6629,-29.6361,346.0368],[30.6653,-29.6371,343.0887],[30.6683,-29.6399,340.9487],[30.6675,-29.6453,347.7034],[30.6712,-29.6475,339.7855],[30.6654,-29.6473,351.3008],[30.6578,-29.6417,347.9703],[30.6505,-29.643,353.2188],[30.6446,-29.653199999999998,382.2764],[30.6451,-29.655,357.5702],[30.6522,-29.6597,355.8453],[30.6472,-29.6608,361.0074],[30.6474,-29.6641,391.8879],[30.6453,-29.6647,389.1833],[30.6407,-29.6614,364.5405],[30.6346,-29.6609,366.6681],[30.6369,-29.6525,368.0946],[30.6363,-29.6434,372.8007],[30.6222,-29.6684,435.9587],[30.5853,-29.6544,603.1693],[30.5724,-29.7066,736.1082],[30.56,-29.7283,759.5365],[30.5694,-29.7316,746.0048],[30.5657,-29.746,702.2543],[30.576,-29.7461,720.5676],[30.5762,-29.7511,760.0165],[30.5806,-29.7506,737.9102],[30.582,-29.7595,758.9902],[30.5845,-29.7592,746.9312],[30.5865,-29.7807,679.0661],[30.5852,-29.781,671.0208],[30.5857,-29.7842,733.2723],[30.576,-29.8315,654.511],[30.5749,-29.8472,649.5503],[30.5945,-29.8357,439.3417],[30.6018,-29.8369,466.7628],[30.6035,-29.8343,457.4529],[30.6082,-29.8344,597.939],[30.6088,-29.8396,451.8144],[30.6119,-29.8401,429.9371],[30.6141,-29.8437,479.8665],[30.6135,-29.8469,414.6192],[30.6154,-29.8533,445.7013],[30.6204,-29.8527,463.4764],[30.6218,-29.8551,425.5858],[30.6216,-29.8614,442.2114],[30.625,-29.8691,491.4014],[30.6194,-29.877,586.4435],[30.6214,-29.8851,718.2591],[30.6364,-29.9009,719.6054],[30.6461,-29.9044,646.3926],[30.6501,-29.8932,584.7256],[30.6579,-29.8951,694.8989],[30.6566,-29.9083,512.1992],[30.6641,-29.911,515.1857],[30.6586,-29.9217,572.6666],[30.6662,-29.9247,729.6198],[30.6753,-29.9222,699.4736],[30.6533,-29.9733,691.2844],[30.6537,-29.9791,620.1856],[30.6576,-29.9853,641.4582],[30.6682,-29.9853,632.6245],[30.6884,-29.978,590.4638],[30.701,-29.9866,537.8414],[30.6988,-29.9881,511.6842],[30.7004,-29.9918,504.7858],[30.6929,-29.9999,505.1636],[30.6833,-30.0005,469.3956],[30.6765,-30.0056,482.2922],[30.6662,-30.0094,497.0261],[30.6626,-30.0144,571.5221],[30.6666,-30.0253,572.3808],[30.6734,-30.0274,577.9137],[30.675,-30.0243,585.4381],[30.6775,-30.0243,599.0385],[30.6784,-30.0268,581.5519],[30.6827,-30.0262,548.1149],[30.6836,-30.0308,588.5545],[30.695,-30.0315,524.7692],[30.7076,-30.0362,426.4744],[30.7103,-30.0349,412.1093],[30.7122,-30.0375,390.0886],[30.7167,-30.036,415.3739],[30.7219,-30.0388,308.1139],[30.7221,-30.045,267.0269],[30.7246,-30.0456,244.718],[30.7253,-30.048,244.3047],[30.7278,-30.046,215.7392],[30.7293,-30.0498,204.0874],[30.7343,-30.0495,166.331],[30.7336,-30.0459,195.0189],[30.7305,-30.0465,237.8777],[30.7267,-30.041,237.7783],[30.7244,-30.0401,269.9555],[30.7231,-30.0355,292.4283],[30.7304,-30.0256,436.3346],[30.7347,-30.0138,431.547],[30.7428,-30.011,370.4709],[30.7449,-30.0127,327.621],[30.7484,-30.0118,274.9646],[30.7502,-30.0158,236.5791],[30.7535,-30.0169,226.0138],[30.7645,-30.0116,207.9738],[30.7712,-30.0154,183.5156],[30.7754,-30.0158,183.4395],[30.7758,-30.0136,192.4781],[30.7776,-30.0136,189.6013],[30.7764,-30.017,237.1114],[30.7777,-30.0219,164.8803],[30.7818,-30.0209,342.2652],[30.8093,-30.059,200.416],[30.8287,-30.0817,23.7094],[30.8271,-30.0868,12.2586],[30.8202,-30.0926,6.9204],[30.82,-30.0972,16.6078],[30.8147,-30.1011,97.328],[30.8134,-30.106,161.0074],[30.8045,-30.1183,37.0803],[30.8019,-30.1203,47.4058],[30.7998,-30.1191,43.4994],[30.7951,-30.1231,73.0716],[30.794,-30.1202,51.0946],[30.7913,-30.1209,56.5648],[30.7881,-30.1188,74.9858],[30.7735,-30.1494,159.9484],[30.7184,-30.1439,148.1195],[30.7182,-30.1477,109.6423],[30.7256,-30.1466,245.2995],[30.7433,-30.159,191.1161],[30.7484,-30.1579,228.1923],[30.7534,-30.169,129.4008],[30.7477,-30.1739,5.2998],[30.7432,-30.1735,9.9023],[30.7362,-30.1778,8.1127],[30.7285,-30.1729,25.4316],[30.7211,-30.1715,33.3892],[30.7183,-30.1665,11.7129],[30.7187,-30.1617,8.7336],[30.7159,-30.1584,9.6869],[30.7126,-30.1616,20.5462],[30.7104,-30.17,18.7935],[30.7025,-30.1703,23.7579],[30.6945,-30.1671,20.057],[30.6963,-30.1821,261.8886],[30.703,-30.1878,249.8825],[30.6924,-30.1985,261.8739],[30.7354,-30.2294,160.4663],[30.747,-30.2438,89.9548],[30.7561,-30.2677,58.7677],[30.7615,-30.2647,9.8907],[30.7619,-30.2681,37.8563],[30.7646,-30.2686,0.0],[30.779,-30.2518,0.0],[30.7824,-30.251,2.3617],[30.7812,-30.2449,0.0],[30.7888,-30.2362,2.3377],[30.7907,-30.2287,5.8998],[30.7979,-30.2226,0.4713],[30.799,-30.2132,1.96],[30.8032,-30.2054,10.7966],[30.8037,-30.1996,0.0],[30.8115,-30.189,8.8227],[30.8215,-30.1676,16.2665],[30.8257,-30.1621,4.3292]]]]}
,"properties": {"GID_3": "ZAF.4.2.1_1","GID_0": "ZAF","country": "SouthAfrica","GID_1": "ZAF.4_1","province": "KwaZulu-Natal","NL_NAME_1": "NA","GID_2": "ZAF.4.2_1","county": "eThekwini","NL_NAME_2": "NA","city": "Ethekwini","VARNAME_3": "NA","NL_NAME_3": "NA","TYPE_3": "MetropolitanMunicipality","ENGTYPE_3": "MetropolitanMunicipality","CC_3": "ETH","HASC_3": "NA","name": "Ethekwini.city","area_km2": 2283.94,"hist_schema_id": "Elevation0-9000","hist_area_km2": {"-25": 0.092,"0": 88.519,"25": 111.709,"50": 145.24,"75": 177.929,"100": 157.059,"125": 105.714,"150": 99.301,"175": 79.316,"200": 71.249,"225": 72.216,"250": 71.895,"275": 74.582,"300": 75.495,"325": 75.473,"350": 70.46,"375": 66.228,"400": 59.038,"425": 55.628,"450": 57.631,"475": 54.647,"500": 52.365,"525": 52.988,"550": 56.506,"575": 56.688,"600": 56.878,"625": 51.234,"650": 49.397,"675": 40.307,"700": 28.954,"725": 24.539,"750": 19.126,"775": 10.862,"800": 11.251,"825": 2.209,"850": 1.086,"875": 0.129}}}