{"type":"Feature","properties":{"GID_3":"ZAF.5.4.2_1","GID_0":"ZAF","country":"SouthAfrica","GID_1":"ZAF.5_1","province":"Limpopo","NL_NAME_1":"NA","GID_2":"ZAF.5.4_1","county":"Vhembe","NL_NAME_2":"NA","city":"Musina","VARNAME_3":"NA","NL_NAME_3":"NA","TYPE_3":"LocalMunicipality","ENGTYPE_3":"LocalMunicipality","CC_3":"LIM341","HASC_3":"NA","name":"Musina.city"},
"geometry":{"type": "MultiPolygon","coordinates": [[[[30.2565,-22.6685,699.3621],[30.2882,-22.6537,637.6402],[30.3237,-22.653199999999998,741.3074],[30.3598,-22.6429,722.9184],[30.396,-22.6249,540.4694],[30.3988,-22.6184,532.1775],[30.3996,-22.6117,517.9544],[30.4035,-22.609,509.1953],[30.4019,-22.6005,511.3639],[30.4074,-22.5987,504.032],[30.4141,-22.5927,501.8825],[30.4198,-22.5908,495.0305],[30.4238,-22.584,491.9358],[30.4248,-22.5773,489.4966],[30.424,-22.5743,486.5099],[30.4211,-22.5722,484.9909],[30.4215,-22.5647,481.1014],[30.4234,-22.5624,483.5588],[30.4258,-22.563,482.6913],[30.4299,-22.5606,479.7738],[30.4323,-22.5569,477.1734],[30.4342,-22.5578,476.4722],[30.4432,-22.5539,473.6698],[30.4481,-22.5548,477.475],[30.4517,-22.5513,469.4241],[30.4579,-22.5521,471.4894],[30.57,-22.4807,546.3591],[30.5946,-22.448,444.9696],[30.6331,-22.4151,415.033],[30.6555,-22.386,408.7685],[30.6367,-22.3342,326.3376],[30.6317,-22.3363,332.5044],[30.6249,-22.3361,326.168],[30.6058,-22.3223,346.8041],[30.5874,-22.3188,349.5097],[30.5658,-22.3221,349.4932],[30.5577,-22.3298,354.6721],[30.5528,-22.3316,356.2423],[30.5174,-22.323,357.75],[30.5058,-22.3226,360.125],[30.4928,-22.3168,362.5],[30.4873,-22.3165,363.0],[30.4757,-22.3191,364.5],[30.4454,-22.334,368.1695],[30.3992,-22.3447,372.0],[30.3822,-22.3509,374.0],[30.3611,-22.3482,380.6421],[30.3361,-22.3506,380.0],[30.3163,-22.3477,381.0],[30.302,-22.3544,382.0],[30.2902,-22.3563,385.5592],[30.2829,-22.354,383.5],[30.2737,-22.3469,384.0],[30.2663,-22.3374,387.2522],[30.2576,-22.3207,387.0],[30.2498,-22.3134,388.0],[30.2406,-22.3084,389.0],[30.2363,-22.2998,390.0],[30.2311,-22.2959,391.9517],[30.1932,-22.2961,399.0925],[30.1574,-22.2998,399.0],[30.1502,-22.3019,400.0],[30.133,-22.311,402.5],[30.1262,-22.3111,403.0],[30.1216,-22.3087,403.5],[30.1013,-22.2867,404.625],[30.0758,-22.2743,407.1031],[30.0581,-22.2571,411.6567],[30.0505,-22.2549,411.3428],[30.0315,-22.256,416.486],[30.0256,-22.2536,434.2932],[30.0196,-22.2446,412.8814],[30.0198,-22.2334,418.3514],[30.0176,-22.2289,415.5714],[30.0112,-22.2274,416.3523],[29.9998,-22.2288,417.7399],[29.9819,-22.2235,423.5],[29.9699,-22.2242,430.2228],[29.9606,-22.213,433.1431],[29.9257,-22.1899,444.2853],[29.916,-22.1896,447.1794],[29.8903,-22.1952,448.4915],[29.8845,-22.1946,450.1144],[29.8777,-22.191,454.0562],[29.8599,-22.1752,453.8053],[29.8311,-22.175,458.7987],[29.8052,-22.1655,459.4778],[29.798,-22.1575,465.2927],[29.7736,-22.1414,463.7261],[29.7319,-22.1413,473.5873],[29.7166,-22.1434,470.9976],[29.7002,-22.1371,470.491],[29.6922,-22.1364,472.9149],[29.6726,-22.1388,472.8387],[29.6628,-22.1276,477.4853],[29.6544,-22.125,474.9899],[29.6415,-22.132,476.8444],[29.6282,-22.1356,478.6515],[29.6221,-22.1415,480.9786],[29.6165,-22.1521,480.332],[29.6102,-22.1557,481.6985],[29.6019,-22.1544,481.5726],[29.5883,-22.1434,483.5122],[29.5802,-22.1409,483.3613],[29.5748,-22.1423,484.3622],[29.5625,-22.1498,485.6667],[29.5392,-22.1527,487.7444],[29.5355,-22.1552,488.4309],[29.5342,-22.1583,492.7011],[29.5348,-22.1703,490.4464],[29.531,-22.1761,491.4183],[29.5265,-22.1782,492.3116],[29.5108,-22.1769,494.1802],[29.4832,-22.1673,495.9669],[29.4722,-22.1656,496.9845],[29.4641,-22.1661,497.2795],[29.4168,-22.1751,501.9126],[29.4096,-22.1782,502.6113],[29.4058,-22.1833,505.9879],[29.3992,-22.1842,503.3636],[29.3856,-22.1921,505.495],[29.3629,-22.1996,511.587],[29.3528,-22.198,507.3332],[29.3498,-22.1934,510.3492],[29.3466,-22.1928,511.0612],[29.3402,-22.2021,514.1176],[29.3338,-22.2048,516.7856],[29.3275,-22.2003,512.3356],[29.3241,-22.1891,514.9235],[29.3206,-22.187,511.3047],[29.3092,-22.1883,515.1098],[29.2994,-22.186,515.2223],[29.291,-22.1881,518.1201],[29.2842,-22.1861,517.9642],[29.2772,-22.1926,516.705],[29.2712,-22.1932,515.9796],[29.266,-22.1894,519.9244],[29.2577,-22.1934,519.2548],[29.2383,-22.1818,516.4609],[29.2189,-22.1781,519.515],[29.2115,-22.182,521.4609],[29.198,-22.1834,520.2563],[29.1908,-22.1858,522.7458],[29.1873,-22.1894,519.4766],[29.1805,-22.1928,522.6],[29.1745,-22.2006,522.4962],[29.1662,-22.2074,521.9163],[29.1555,-22.2143,524.1761],[29.15,-22.2159,524.9153],[29.1433,-22.2164,526.9645],[29.1333,-22.2136,526.2483],[29.1218,-22.2145,522.8451],[29.108,-22.2124,526.2206],[29.0864,-22.2206,529.8491],[29.0813,-22.2211,529.498],[29.0711,-22.2182,527.4017],[29.049,-22.2192,526.9011],[29.0448,-22.2168,527.658],[29.0352,-22.2169,528.5056],[29.0305,-22.2214,530.1339],[29.0289,-22.2284,530.3616],[29.0268,-22.229,530.3855],[29.0194,-22.2262,535.1866],[29.0142,-22.2309,534.2805],[29.0128,-22.2379,531.8234],[29.0137,-22.2569,533.8649],[29.0049,-22.2626,542.517],[29.0028,-22.2747,534.1208],[28.9965,-22.2805,534.865],[28.9821,-22.2852,532.2283],[28.9776,-22.2913,538.4963],[28.9779,-22.2963,537.4587],[28.9761,-22.3005,536.0327],[28.9666,-22.3075,538.0515],[28.9627,-22.3288,551.5905],[28.9641,-22.3376,562.2997],[28.9635,-22.3472,584.379],[28.969,-22.3574,573.9161],[28.9718,-22.368,597.1271],[28.9715,-22.377,601.6279],[28.9677,-22.3841,605.7296],[28.9524,-22.4041,617.6874],[28.9512,-22.4155,614.4023],[28.9445,-22.4262,623.0543],[28.9443,-22.432,619.0809],[28.9251,-22.4529,620.7618],[28.9196,-22.468,631.1257],[28.9174,-22.4905,637.6303],[28.906,-22.4922,639.8528],[28.9048,-22.4976,640.9585],[28.9058,-22.5083,640.8016],[28.902,-22.512,642.932],[28.9329,-22.5211,693.916],[28.9611,-22.561,749.0272],[28.9791,-22.5811,876.4666],[29.0139,-22.5706,758.6202],[29.0388,-22.5573,773.7874],[29.0617,-22.5484,774.1943],[29.1073,-22.5392,786.4272],[29.1659,-22.5531,784.1652],[29.1756,-22.5768,782.9109],[29.1999,-22.6225,795.3517],[29.2094,-22.6628,837.3427],[29.2417,-22.6469,817.666],[29.2836,-22.6194,779.2322],[29.2774,-22.6115,766.8818],[29.308,-22.6129,791.0544],[29.3088,-22.602,789.2899],[29.3687,-22.652,786.2301],[29.4238,-22.6393,755.7616],[29.4216,-22.6249,758.071],[29.4822,-22.6313,738.58],[29.4741,-22.5996,736.4542],[29.5385,-22.6151,708.6332],[29.5783,-22.6342,681.8867],[29.6188,-22.6595,668.2529],[29.6534,-22.6683,671.7945],[29.706,-22.6729,650.6853],[29.7073,-22.6718,650.4142],[29.7482,-22.6801,681.9712],[29.7638,-22.6712,672.7883],[29.7879,-22.7004,732.5702],[29.7904,-22.7302,912.7888],[29.7985,-22.7581,719.1422],[29.8212,-22.7409,723.066],[29.8595,-22.7251,757.1173],[29.8847,-22.7102,743.8246],[29.8765,-22.6885,718.3683],[29.9026,-22.671,714.2266],[29.9282,-22.6648,712.1876],[29.9363,-22.6919,695.0127],[29.962,-22.6777,682.0807],[29.986,-22.693,647.2041],[30.0213,-22.6759,664.5157],[30.0334,-22.6937,601.4286],[30.0586,-22.7113,622.4146],[30.0625,-22.6981,581.5383],[30.1056,-22.704,572.9514],[30.1383,-22.7196,1115.1482],[30.1342,-22.6896,670.1085],[30.1885,-22.6936,717.4788],[30.2267,-22.6926,891.0172],[30.2142,-22.6852,687.2705],[30.2565,-22.6685,699.3621]]]]}}