{"type":"Feature","properties":{"GID_2":"ZAF.6.2_1","GID_0":"ZAF","country":"SouthAfrica","GID_1":"ZAF.6_1","province":"Mpumalanga","NL_NAME_1":"NA","county":"GertSibande","VARNAME_2":"NA","NL_NAME_2":"NA","TYPE_2":"DistrictMunicipality","ENGTYPE_2":"DistrictMunicipality","CC_2":"DC30","HASC_2":"ZA.MP.GS","name":"Gert_Sibande.county"},
"geometry":{"type": "MultiPolygon","coordinates": [[[[29.9094,-27.3738,1703.2719],[29.9172,-27.3544,1702.4731],[29.9555,-27.3649,1742.3765],[29.9785,-27.373,1744.7395],[29.9951,-27.3884,1779.6521],[30.0162,-27.3976,2005.7916],[30.0245,-27.3945,1993.4424],[30.0306,-27.3867,1995.7429],[30.0396,-27.3893,2128.6313],[30.0464,-27.3868,2237.3032],[30.0522,-27.3797,2082.5181],[30.0683,-27.3659,2164.7007],[30.079,-27.3702,2006.9668],[30.0868,-27.3685,1965.7921],[30.1116,-27.3865,1734.3389],[30.1434,-27.4134,2001.0817],[30.1527,-27.4043,1950.9441],[30.1541,-27.397,2059.5056],[30.1502,-27.3923,2144.6018],[30.1607,-27.3871,2139.876],[30.1658,-27.3875,2033.3896],[30.1782,-27.3783,1950.499],[30.1901,-27.3689,1997.2207],[30.1981,-27.3552,2053.4563],[30.2286,-27.3654,2050.6616],[30.2347,-27.3807,1985.7244],[30.2466,-27.3739,2106.054],[30.2799,-27.3686,2180.1885],[30.2805,-27.3503,2116.0918],[30.2787,-27.3326,2175.6184],[30.2816,-27.3282,2205.0085],[30.2825,-27.3144,2073.7622],[30.3022,-27.3174,1951.0349],[30.3175,-27.302,1845.7458],[30.3284,-27.2996,1805.8887],[30.3667,-27.3117,1659.821],[30.3684,-27.2873,1649.5253],[30.3676,-27.2674,1548.7776],[30.3976,-27.2738,1717.8546],[30.4265,-27.2698,1842.0903],[30.426,-27.315,1819.7876],[30.4335,-27.3257,2043.5261],[30.4483,-27.3277,1874.9679],[30.4529,-27.3251,1868.3707],[30.4583,-27.3267,1857.1582],[30.4621,-27.3252,1847.55],[30.4659,-27.3263,1724.588],[30.4663,-27.3243,1689.1992],[30.475,-27.3195,1807.9928],[30.4971,-27.3124,1683.9519],[30.5257,-27.3151,1762.8434],[30.5408,-27.3216,1650.5461],[30.5462,-27.3258,1691.0135],[30.5511,-27.3255,1705.1016],[30.5577,-27.3276,1721.1089],[30.5871,-27.3231,1626.6222],[30.6606,-27.2879,1334.7247],[30.7068,-27.2833,1087.1074],[30.7132,-27.2861,1087.5688],[30.7176,-27.2838,1087.0348],[30.7188,-27.2845,1087.0348],[30.7179,-27.2872,1089.505],[30.7207,-27.2909,1086.3411],[30.7249,-27.2896,1086.5524],[30.7261,-27.2936,1084.6559],[30.7251,-27.2956,1089.1377],[30.7283,-27.2993,1086.6107],[30.7344,-27.2952,1086.16],[30.7404,-27.2946,1081.6259],[30.7439,-27.3006,1086.4462],[30.7419,-27.3032,1072.6096],[30.7432,-27.3061,1074.677],[30.7508,-27.2987,1072.7236],[30.7556,-27.3046,1073.9155],[30.7583,-27.3044,1090.469],[30.7627,-27.3074,1076.78],[30.76,-27.3136,1080.0374],[30.7628,-27.3145,1066.5085],[30.7662,-27.3193,1066.9277],[30.769,-27.319,1065.0896],[30.771,-27.3264,1067.5217],[30.7742,-27.3243,1059.7023],[30.7844,-27.3243,1043.4139],[30.7855,-27.3192,1043.3809],[30.7804,-27.3169,1047.4509],[30.7786,-27.3144,1051.1442],[30.7889,-27.3128,1031.7117],[30.791,-27.3185,1024.0742],[30.7969,-27.3224,1013.1401],[30.7971,-27.3266,1024.637],[30.8041,-27.3243,998.9461],[30.8088,-27.3283,1003.3862],[30.8022,-27.3321,1001.6202],[30.8048,-27.3345,1002.595],[30.8114,-27.3324,1000.634],[30.8083,-27.3389,996.109],[30.8161,-27.3401,1005.0428],[30.8205,-27.3361,1000.2722],[30.8213,-27.3395,997.4047],[30.8282,-27.3433,989.9199],[30.8286,-27.3447,993.9338],[30.8233,-27.3458,990.3113],[30.8223,-27.3542,991.589],[30.8302,-27.35,989.82],[30.8378,-27.35,987.956],[30.8414,-27.3529,991.6047],[30.8437,-27.3527,988.3555],[30.8449,-27.3461,988.4114],[30.8499,-27.3433,989.189],[30.8543,-27.3444,983.3409],[30.8576,-27.3433,997.642],[30.8559,-27.337,981.7503],[30.8613,-27.3391,977.2339],[30.8618,-27.334,976.515],[30.8648,-27.3318,980.1606],[30.8637,-27.3195,976.2524],[30.8659,-27.3127,978.3575],[30.8752,-27.3143,974.0008],[30.8821,-27.3124,972.8119],[30.8841,-27.3088,977.3168],[30.8867,-27.3108,972.0137],[30.9023,-27.3081,979.3146],[30.9065,-27.3055,970.7543],[30.9097,-27.3054,969.6956],[30.9116,-27.3081,977.3893],[30.9155,-27.3054,970.8549],[30.9222,-27.305,969.2174],[30.9238,-27.306,969.1285],[30.9245,-27.3113,966.0917],[30.921,-27.3182,991.3271],[30.9245,-27.3255,947.9985],[30.9233,-27.3305,946.3716],[30.9315,-27.3405,944.4356],[30.9393,-27.3466,928.6],[30.9382,-27.3568,898.4681],[30.9411,-27.3596,889.4366],[30.9405,-27.3658,873.2787],[30.9424,-27.3682,868.2864],[30.948,-27.3661,848.0316],[30.9554,-27.3597,831.5794],[30.9581,-27.3606,841.8725],[30.9599,-27.3641,820.6808],[30.9631,-27.3658,814.7347],[30.97,-27.3633,807.8326],[30.9774,-27.358,802.8799],[30.9815,-27.3592,802.7426],[30.9847,-27.3575,805.1502],[31.0026,-27.3588,798.007],[31.0055,-27.3511,776.442],[31.0084,-27.3488,771.8429],[31.0106,-27.3491,772.2509],[31.0139,-27.355,783.2142],[31.0205,-27.3606,753.8578],[31.0243,-27.3519,756.7456],[31.0309,-27.3463,742.0727],[31.0348,-27.3458,747.1113],[31.038,-27.3515,703.01],[31.044,-27.3533,710.5215],[31.0462,-27.3519,690.6534],[31.0484,-27.3451,683.5205],[31.0508,-27.3432,710.0943],[31.0652,-27.3383,673.4253],[31.0788,-27.3431,675.3405],[31.084,-27.3356,671.3943],[31.0988,-27.3298,646.4281],[31.1016,-27.3332,645.1224],[31.101,-27.3358,642.7002],[31.1409,-27.3627,1071.3105],[31.1659,-27.3685,861.8545],[31.2048,-27.3171,979.9731],[31.2748,-27.2429,902.6168],[31.1506,-27.2021,931.7006],[31.0613,-27.0963,1187.6685],[31.0218,-27.0678,1176.1912],[30.9848,-27.037,1253.9819],[30.9583,-26.9921,1302.5374],[30.9737,-26.9645,1314.8663],[30.9765,-26.9534,1310.9526],[30.9768,-26.9216,1146.5834],[30.9736,-26.9082,1068.2157],[30.943,-26.8882,1094.1613],[30.9407,-26.8839,1091.5775],[30.9372,-26.8831,1091.0962],[30.9252,-26.8718,1113.1516],[30.9074,-26.8599,1121.9949],[30.9069,-26.8549,1124.1661],[30.9023,-26.8518,1138.7007],[30.893,-26.8053,1307.9581],[30.8919,-26.7851,1178.4563],[30.89,-26.7876,1199.771],[30.8877,-26.7992,1263.9548],[30.8888,-26.802,1273.0986],[30.8873,-26.8036,1280.9307],[30.8249,-26.8404,1301.0095],[30.8132,-26.8445,1395.636],[30.8027,-26.824,1413.3882],[30.7987,-26.7887,1145.0691],[30.7908,-26.7123,1367.5377],[30.7917,-26.5715,1503.0604],[30.8051,-26.4667,1528.0162],[30.831,-26.4112,1511.4534],[30.8576,-26.3838,1370.7834],[30.8919,-26.3208,1616.8959],[30.9614,-26.2617,1612.0822],[31.071,-26.0673,1520.1746],[31.0896,-26.0262,1304.5626],[31.1127,-25.9826,1489.2003],[31.1266,-25.9212,1831.856],[31.0557,-25.9239,1508.1665],[31.0439,-25.9126,1665.3081],[31.0426,-25.8841,1827.3658],[31.0395,-25.8663,1842.5977],[30.9681,-25.9348,1567.7089],[30.9243,-25.9312,1730.6943],[30.8803,-25.9251,1763.3558],[30.8499,-25.9263,1732.9044],[30.8126,-25.9154,1566.4417],[30.821,-25.9093,1578.2726],[30.823,-25.8765,1473.2545],[30.8143,-25.8685,1458.9668],[30.7968,-25.8633,1470.3274],[30.7736,-25.8619,1599.3787],[30.7668,-25.8553,1617.7322],[30.7707,-25.85,1568.3896],[30.7611,-25.8313,1638.2833],[30.7522,-25.8226,1637.8723],[30.7495,-25.8039,1629.0823],[30.7519,-25.8015,1660.9033],[30.7523,-25.7983,1605.4087],[30.7394,-25.7886,1604.9219],[30.7301,-25.7725,1652.6277],[30.7251,-25.7592,1680.6595],[30.7327,-25.7414,1840.2207],[30.6466,-25.7124,1601.09],[30.6387,-25.7118,1654.2645],[30.6385,-25.724,1633.2115],[30.6185,-25.7238,1796.248],[30.6112,-25.719,1836.0378],[30.5796,-25.7535,1794.3004],[30.6061,-25.7897,1579.0928],[30.5586,-25.7683,1722.1193],[30.5193,-25.7285,1908.3265],[30.5087,-25.7369,1861.4061],[30.4864,-25.7622,1811.8783],[30.5149,-25.7879,1601.7771],[30.484,-25.8186,1510.5793],[30.4788,-25.7938,1508.3628],[30.4568,-25.8036,1257.7854],[30.4591,-25.8095,1243.7417],[30.4641,-25.8139,1245.405],[30.4489,-25.8306,1193.7944],[30.4554,-25.8383,1191.7435],[30.4306,-25.8555,1750.1611],[30.4191,-25.8776,1573.332],[30.3811,-25.8869,1825.0986],[30.3311,-25.8805,1781.5488],[30.299,-25.9264,1762.2285],[30.2789,-25.9072,1470.6595],[30.254,-25.8933,1701.6787],[30.2434,-25.8721,1603.8053],[30.2704,-25.8254,1754.0717],[30.2138,-25.804,1648.4408],[30.2008,-25.8364,1569.0424],[30.1517,-25.8193,1579.9883],[30.1497,-25.8297,1576.73],[30.0915,-25.8462,1776.5476],[30.0867,-25.8603,1765.5421],[30.0364,-25.8769,1749.0562],[29.9899,-25.8837,1714.4629],[29.9977,-25.9187,1672.3463],[29.9589,-25.9129,1670.0546],[29.9438,-25.9057,1686.3019],[29.899,-25.8693,1731.5613],[29.8618,-25.8624,1765.073],[29.8482,-25.876,1755.2825],[29.8393,-25.9062,1722.1539],[29.8306,-25.9219,1727.7521],[29.8568,-25.9345,1721.1038],[29.877,-25.9652,1711.6941],[29.8566,-25.979,1702.1741],[29.8569,-26.0032,1679.7509],[29.8658,-26.0139,1655.8203],[29.8305,-26.0735,1668.1737],[29.8274,-26.071,1663.3552],[29.8111,-26.1053,1675.7556],[29.8006,-26.1635,1740.7913],[29.8047,-26.1895,1714.1829],[29.7588,-26.2254,1690.257],[29.7154,-26.2038,1715.4619],[29.7051,-26.2281,1653.8818],[29.6975,-26.2276,1639.8347],[29.6974,-26.2316,1640.938],[29.6676,-26.2446,1638.6372],[29.6492,-26.2423,1632.1768],[29.5943,-26.2398,1627.9646],[29.5909,-26.2404,1629.1838],[29.5858,-26.2534,1613.5789],[29.5403,-26.2539,1633.7418],[29.5602,-26.2092,1649.6968],[29.5131,-26.1856,1606.5444],[29.4935,-26.1695,1621.2484],[29.4756,-26.1738,1616.8079],[29.4566,-26.2037,1661.4302],[29.4555,-26.2114,1577.153],[29.388,-26.2049,1608.457],[29.375,-26.1964,1547.4641],[29.3614,-26.2132,1561.8199],[29.3445,-26.2148,1618.3241],[29.3535,-26.2231,1590.3961],[29.340699999999998,-26.2451,1599.2533],[29.3673,-26.2638,1633.322],[29.3666,-26.2921,1633.8231],[29.3446,-26.3315,1561.2987],[29.352,-26.3361,1564.1992],[29.3452,-26.354,1590.3085],[29.3355,-26.3483,1591.9932],[29.2851,-26.3427,1567.885],[29.2606,-26.3624,1605.781],[29.2239,-26.3546,1566.5653],[29.2174,-26.351,1549.3818],[29.2155,-26.3522,1550.427],[29.214,-26.359,1554.0],[29.2163,-26.3622,1554.0],[29.1952,-26.362,1574.7633],[29.1849,-26.3477,1557.2161],[29.1822,-26.3488,1555.6271],[29.1799,-26.3479,1561.6979],[29.1763,-26.3505,1557.5867],[29.1734,-26.3486,1564.0692],[29.1678,-26.3528,1560.0468],[29.1693,-26.357,1561.1097],[29.162,-26.3581,1562.7874],[29.1614,-26.3598,1566.6907],[29.1236,-26.3843,1586.0195],[29.1034,-26.3452,1648.4133],[29.1022,-26.3298,1640.4741],[29.0658,-26.3143,1638.0919],[29.0401,-26.2594,1594.4652],[29.0333,-26.2258,1614.3735],[29.0011,-26.2288,1619.1132],[28.9842,-26.2369,1639.9849],[28.9835,-26.2421,1630.4994],[28.9708,-26.2384,1608.3069],[28.95,-26.2547,1587.364],[28.9395,-26.2658,1568.0759],[28.8863,-26.2577,1543.5419],[28.8876,-26.28,1556.0492],[28.8676,-26.3277,1599.9215],[28.8384,-26.340699999999998,1599.59],[28.8503,-26.367,1628.4857],[28.8613,-26.3986,1685.3751],[28.8321,-26.4078,1681.5762],[28.8055,-26.4222,1648.4325],[28.7991,-26.4212,1660.4954],[28.8,-26.424,1651.8077],[28.7899,-26.4265,1663.9924],[28.7838,-26.4381,1655.043],[28.7865,-26.4492,1639.4449],[28.7803,-26.4505,1638.1836],[28.7659,-26.4715,1631.4041],[28.7639,-26.518,1649.1124],[28.6889,-26.5131,1631.9128],[28.6618,-26.5059,1600.6617],[28.6534,-26.5087,1597.5223],[28.6502,-26.5079,1598.7389],[28.6499,-26.5111,1597.1666],[28.6416,-26.5076,1596.9955],[28.6312,-26.5246,1650.8939],[28.6381,-26.5473,1649.1484],[28.5849,-26.5386,1614.3438],[28.5867,-26.52,1602.8774],[28.58,-26.518,1611.6442],[28.5772,-26.5268,1594.5825],[28.569,-26.525,1622.8994],[28.5738,-26.5161,1617.5084],[28.5437,-26.507,1681.6989],[28.5406,-26.5036,1696.5006],[28.5418,-26.501,1751.9723],[28.5375,-26.5033,1720.1139],[28.5332,-26.5009,1768.0679],[28.5277,-26.5022,1800.5898],[28.5242,-26.5285,1734.8585],[28.526,-26.5625,1578.1682],[28.5285,-26.5649,1675.6882],[28.533,-26.5779,1673.4583],[28.5278,-26.5906,1594.8501],[28.5054,-26.5897,1552.6865],[28.5089,-26.5938,1550.1155],[28.5063,-26.5965,1557.8435],[28.5076,-26.6038,1545.6561],[28.4988,-26.6039,1544.8577],[28.4911,-26.6105,1543.6752],[28.4877,-26.6086,1541.7234],[28.486,-26.6096,1541.0854],[28.4831,-26.6187,1541.8068],[28.4798,-26.6175,1546.8822],[28.4903,-26.6353,1658.8091],[28.4431,-26.6392,1643.9014],[28.4438,-26.6544,1688.2029],[28.422,-26.6547,1691.9683],[28.415,-26.6562,1672.1094],[28.4001,-26.655,1607.9921],[28.383,-26.7175,1549.5452],[28.394,-26.7167,1545.8324],[28.4069,-26.7617,1582.8833],[28.3482,-26.7729,1551.3917],[28.3491,-26.7779,1554.4166],[28.3426,-26.7791,1552.4337],[28.3435,-26.7855,1544.0675],[28.3394,-26.7856,1542.7686],[28.3194,-26.7927,1511.9227],[28.3216,-26.8117,1504.4761],[28.3183,-26.8118,1503.198],[28.3193,-26.8194,1501.3981],[28.3226,-26.8202,1505.146],[28.325,-26.8411,1506.7849],[28.3095,-26.8794,1523.884],[28.2835,-26.8771,1492.0475],[28.2843,-26.8644,1508.1161],[28.2633,-26.8665,1502.722],[28.2619,-26.8752,1504.4313],[28.2435,-26.8737,1508.1514],[28.2484,-26.8841,1516.0725],[28.2443,-26.8848,1483.0],[28.2515,-26.8892,1483.0],[28.2517,-26.893,1483.0],[28.2618,-26.9027,1483.0],[28.2608,-26.9111,1483.0],[28.2623,-26.9146,1483.0],[28.267,-26.9143,1483.0],[28.2775,-26.9065,1483.0],[28.2815,-26.9061,1483.0],[28.2814,-26.9148,1483.0],[28.2886,-26.9281,1483.0],[28.3017,-26.9409,1483.0],[28.306,-26.9406,1483.0],[28.3111,-26.9359,1483.0],[28.3138,-26.9254,1483.0],[28.3219,-26.9226,1483.0],[28.3265,-26.9225,1483.696],[28.3312,-26.9255,1483.0],[28.3302,-26.9284,1483.0],[28.3197,-26.9365,1483.0],[28.3206,-26.9419,1483.0],[28.3248,-26.949,1483.0],[28.3529,-26.9316,1483.0],[28.3621,-26.9318,1483.0],[28.3726,-26.9347,1483.0],[28.389,-26.9307,1483.0],[28.3996,-26.9357,1483.0],[28.4015,-26.9407,1483.0],[28.4004,-26.9509,1483.0],[28.405,-26.9551,1483.0],[28.4149,-26.973,1483.0],[28.4207,-26.9781,1483.0],[28.4291,-26.9892,1483.0],[28.4261,-26.994,1483.0],[28.4135,-27.0062,1483.0],[28.4148,-27.0104,1483.0],[28.4185,-27.013,1483.0],[28.4317,-27.0057,1483.0],[28.4513,-26.9813,1483.0],[28.4515,-26.9789,1483.7692],[28.4365,-26.9669,1485.5961],[28.4366,-26.9646,1484.1924],[28.4438,-26.9603,1483.0],[28.4514,-26.9638,1483.0],[28.4613,-26.9723,1483.0],[28.4616,-26.9774,1491.8732],[28.4645,-26.9829,1483.765],[28.4676,-26.9828,1483.3228],[28.4724,-26.98,1483.0],[28.4702,-26.9728,1483.0],[28.476,-26.9627,1483.0],[28.4757,-26.9602,1483.0],[28.4712,-26.9584,1483.0],[28.4703,-26.9565,1483.0],[28.4754,-26.9505,1483.0],[28.4779,-26.9503,1483.0],[28.4858,-26.9711,1483.0],[28.4924,-26.9756,1483.0],[28.5005,-26.9778,1485.1873],[28.5096,-26.9866,1485.5005],[28.5109,-26.9928,1483.0],[28.5043,-27.0021,1488.715],[28.5036,-27.008,1483.0],[28.5276,-27.018,1483.6206],[28.5308,-27.0271,1484.3676],[28.5385,-27.0337,1483.7909],[28.5429,-27.0347,1483.2952],[28.5495,-27.0413,1486.3552],[28.5497,-27.045,1485.262],[28.5457,-27.0529,1484.5634],[28.5364,-27.056,1484.4487],[28.5329,-27.063,1488.5292],[28.5338,-27.0669,1483.5745],[28.5542,-27.0609,1486.1792],[28.5599,-27.0542,1487.1769],[28.5607,-27.0479,1488.301],[28.5592,-27.0409,1493.094],[28.5618,-27.0388,1484.6423],[28.569,-27.035,1485.025],[28.5762,-27.0392,1485.9086],[28.5833,-27.0378,1484.7642],[28.5933,-27.0238,1488.8585],[28.6089,-27.0207,1485.8085],[28.6083,-27.0082,1486.7031],[28.6255,-27.0107,1485.5378],[28.6394,-27.0199,1486.1396],[28.6444,-27.0203,1485.6958],[28.6473,-27.0166,1487.8931],[28.649,-27.0109,1486.6923],[28.6513,-27.0094,1486.8203],[28.6558,-26.9986,1486.7256],[28.6535,-26.9953,1487.3275],[28.6458,-26.9924,1487.614],[28.633,-26.9909,1490.6913],[28.6233,-26.9951,1487.6742],[28.6172,-27.0002,1487.397],[28.6097,-26.9938,1487.7235],[28.6059,-26.9944,1487.4979],[28.605,-26.9932,1486.8519],[28.6215,-26.9688,1490.6777],[28.6345,-26.962,1488.1797],[28.6369,-26.955,1487.3053],[28.6455,-26.9527,1489.2354],[28.6545,-26.9602,1490.9735],[28.6614,-26.9608,1491.8447],[28.6834,-26.9752,1490.4033],[28.7,-26.9757,1490.2454],[28.7062,-26.9687,1501.3896],[28.7109,-26.9692,1494.4274],[28.7138,-26.9716,1488.76],[28.715699999999998,-26.9791,1488.9636],[28.7254,-26.9846,1490.1403],[28.7311,-26.9955,1490.6886],[28.7365,-27.0017,1491.7456],[28.7437,-27.0034,1494.7394],[28.7552,-26.9974,1492.3723],[28.7639,-27.0019,1492.8672],[28.7707,-27.003,1492.8823],[28.7768,-27.0091,1492.5231],[28.7738,-27.019,1490.9011],[28.7922,-27.0254,1491.4449],[28.795,-27.0289,1499.7349],[28.7978,-27.0264,1495.4336],[28.802,-27.0172,1491.7457],[28.8013,-27.0126,1492.3145],[28.8049,-27.0115,1495.5206],[28.8098,-27.0193,1495.1592],[28.8117,-27.0334,1493.0452],[28.8108,-27.0383,1499.6205],[28.814,-27.0426,1493.932],[28.8259,-27.037,1492.9106],[28.8344,-27.0417,1497.615],[28.839,-27.0416,1499.3379],[28.8436,-27.0391,1493.8879],[28.8522,-27.0273,1495.3462],[28.8579,-27.0249,1495.9817],[28.8645,-27.0305,1496.1837],[28.8699,-27.0316,1493.9547],[28.8799,-27.0552,1497.3925],[28.8886,-27.0593,1496.5925],[28.8963,-27.0539,1498.8303],[28.9004,-27.0481,1501.7815],[28.8962,-27.0427,1500.5938],[28.8991,-27.0347,1496.9918],[28.898,-27.0296,1501.1748],[28.8939,-27.0265,1496.3065],[28.8853,-27.0248,1505.7528],[28.8936,-27.0134,1504.8647],[28.9042,-27.0198,1501.3473],[28.9075,-27.0201,1500.5796],[28.9128,-27.018,1506.8843],[28.9204,-27.0111,1505.7087],[28.9289,-27.0147,1498.8254],[28.9346,-27.0154,1499.8779],[28.9412,-27.0155,1500.21],[28.9543,-27.0117,1500.6133],[28.9615,-26.9989,1502.1769],[28.9661,-26.9949,1502.2136],[28.9672,-26.9916,1499.7814],[28.9695,-26.9916,1500.7338],[28.9935,-27.0032,1502.4779],[29.0097,-27.0064,1501.2006],[29.0227,-27.0153,1503.9603],[29.027,-27.0164,1503.08],[29.0281,-27.0184,1502.2622],[29.0262,-27.0221,1502.5388],[29.0312,-27.029,1505.4564],[29.0352,-27.0273,1503.6869],[29.0388,-27.0225,1502.0593],[29.0388,-27.0048,1502.3217],[29.0445,-27.004,1502.6357],[29.0555,-27.0079,1503.1675],[29.0584,-27.0114,1504.2513],[29.0598,-27.0173,1505.1052],[29.0536,-27.0299,1503.7195],[29.0533,-27.0337,1504.1753],[29.0649,-27.0428,1506.1445],[29.0615,-27.046,1504.9938],[29.0618,-27.0489,1505.085],[29.0683,-27.055,1507.3704],[29.072,-27.0563,1505.4689],[29.0708,-27.0601,1506.9148],[29.0742,-27.0635,1506.2356],[29.0733,-27.065,1508.7651],[29.0708,-27.064,1506.4161],[29.072,-27.0659,1506.0408],[29.0701,-27.0678,1506.9316],[29.0682,-27.0674,1506.3516],[29.0674,-27.0647,1506.0803],[29.0654,-27.0651,1506.9114],[29.061,-27.0718,1507.2979],[29.0621,-27.0755,1507.6418],[29.0609,-27.0785,1507.8971],[29.0557,-27.0787,1507.7725],[29.0557,-27.0813,1508.0367],[29.0619,-27.0853,1507.4937],[29.0647,-27.0837,1509.5632],[29.0673,-27.0855,1507.688],[29.0718,-27.0857,1509.8411],[29.0737,-27.0908,1508.3331],[29.0777,-27.0926,1508.6803],[29.0833,-27.1054,1508.8423],[29.0864,-27.1067,1509.3473],[29.0857,-27.1103,1509.3109],[29.0886,-27.113,1509.7858],[29.0862,-27.116,1509.9265],[29.0888,-27.1185,1510.175],[29.0927,-27.1182,1509.137],[29.0917,-27.1211,1510.4492],[29.097,-27.1227,1511.3651],[29.0992,-27.1269,1510.9304],[29.104,-27.1303,1513.2749],[29.1054,-27.1338,1511.0507],[29.1018,-27.1342,1511.2709],[29.1014,-27.1372,1511.5055],[29.1075,-27.1419,1511.5505],[29.1106,-27.1477,1511.4978],[29.1134,-27.1496,1512.1361],[29.1121,-27.1528,1512.7373],[29.1141,-27.1589,1513.5955],[29.1137,-27.1632,1512.212],[29.1169,-27.1724,1513.8225],[29.1206,-27.1719,1513.2662],[29.1244,-27.1672,1513.1217],[29.1265,-27.1671,1513.1699],[29.1269,-27.169,1513.9425],[29.1296,-27.1684,1513.6713],[29.1296,-27.1628,1514.5073],[29.1316,-27.1624,1514.9904],[29.1321,-27.1602,1513.9507],[29.1334,-27.1626,1514.5781],[29.1372,-27.1612,1514.3076],[29.138,-27.1584,1514.3225],[29.1363,-27.1546,1514.6268],[29.1377,-27.1524,1514.0557],[29.1417,-27.1538,1515.2235],[29.146,-27.1528,1514.7227],[29.1474,-27.1491,1514.6321],[29.151,-27.1519,1516.3818],[29.1527,-27.146,1515.511],[29.1562,-27.1449,1515.6414],[29.1588,-27.1461,1514.9448],[29.1595,-27.1431,1515.7668],[29.1701,-27.1414,1515.7778],[29.1782,-27.1465,1516.3992],[29.1798,-27.1441,1516.4033],[29.1831,-27.1454,1516.8322],[29.1902,-27.1432,1518.2324],[29.1897,-27.1409,1517.844],[29.1926,-27.1403,1517.4767],[29.1927,-27.1371,1520.5173],[29.195,-27.1402,1517.4276],[29.204,-27.1449,1518.2217],[29.2097,-27.1424,1518.5474],[29.2158,-27.1476,1517.5555],[29.2239,-27.1447,1519.106],[29.2278,-27.1471,1518.4348],[29.2271,-27.1499,1519.3279],[29.2292,-27.151,1519.144],[29.227,-27.1553,1524.0829],[29.2286,-27.1568,1518.1866],[29.2281,-27.1611,1517.4832],[29.2307,-27.1604,1518.4786],[29.2298,-27.1672,1518.915],[29.2355,-27.1731,1522.9524],[29.2365,-27.1776,1521.2158],[29.2347,-27.1832,1524.8932],[29.2412,-27.1823,1520.8811],[29.2437,-27.1835,1524.4758],[29.2434,-27.1852,1520.6895],[29.2406,-27.1846,1520.5449],[29.2396,-27.1863,1521.0724],[29.2419,-27.1884,1520.1842],[29.2426,-27.1861,1520.6895],[29.2443,-27.1862,1523.1394],[29.2465,-27.1885,1523.4443],[29.2453,-27.1909,1521.6892],[29.2463,-27.192,1521.907],[29.2541,-27.1897,1523.1298],[29.2535,-27.194,1522.8768],[29.2563,-27.1946,1526.8152],[29.2583,-27.1843,1522.282],[29.2604,-27.1813,1522.2114],[29.2629,-27.183,1523.2904],[29.2602,-27.1838,1522.1688],[29.2633,-27.1874,1522.4548],[29.2658,-27.1868,1522.4073],[29.2668,-27.184,1522.6605],[29.2682,-27.1849,1522.334],[29.2657,-27.1916,1522.8291],[29.2703,-27.1893,1523.1545],[29.2694,-27.1929,1523.1675],[29.2708,-27.1958,1523.6555],[29.2683,-27.1961,1524.7328],[29.2682,-27.1983,1526.2823],[29.2719,-27.1962,1523.6555],[29.2722,-27.1916,1523.6213],[29.2747,-27.1927,1528.7212],[29.2732,-27.1956,1523.9156],[29.2767,-27.1943,1524.3107],[29.282,-27.195,1524.4202],[29.2807,-27.1989,1524.8806],[29.2819,-27.1996,1525.0588],[29.285,-27.195,1525.1644],[29.2819,-27.1921,1524.5127],[29.2839,-27.1936,1524.0188],[29.2841,-27.1907,1525.182],[29.2864,-27.1903,1525.4191],[29.2871,-27.1911,1525.2753],[29.2849,-27.1925,1525.2053],[29.2876,-27.1927,1525.116],[29.2887,-27.1965,1526.2739],[29.2917,-27.1996,1526.806],[29.2957,-27.201,1527.0771],[29.2954,-27.2031,1527.0472],[29.298,-27.2041,1526.6821],[29.2972,-27.2058,1527.4602],[29.2988,-27.2092,1527.6379],[29.3019,-27.2097,1527.2855],[29.3005,-27.2119,1527.9501],[29.309,-27.2162,1527.8827],[29.312,-27.2141,1527.9656],[29.3112,-27.2113,1529.8956],[29.3255,-27.2085,1529.0283],[29.3299,-27.2036,1557.4932],[29.3308,-27.208,1528.4211],[29.3351,-27.2074,1529.1124],[29.3312,-27.2103,1528.8573],[29.3311,-27.213,1531.1216],[29.3341,-27.2141,1529.6899],[29.3315,-27.2182,1531.4531],[29.3329,-27.2191,1529.5782],[29.3329,-27.217,1530.085],[29.3355,-27.2173,1531.1437],[29.3359,-27.2145,1530.6255],[29.3371,-27.2181,1529.8337],[29.3356,-27.2219,1530.0598],[29.3377,-27.2239,1530.3342],[29.3365,-27.2246,1531.1924],[29.3351,-27.2226,1530.0598],[29.3335,-27.2239,1531.1766],[29.3362,-27.2267,1531.3086],[29.3321,-27.2305,1544.3297],[29.3361,-27.232,1531.0461],[29.3382,-27.2351,1531.5824],[29.3344,-27.2364,1532.616],[29.3352,-27.2398,1535.7529],[29.3321,-27.2446,1532.4008],[29.3281,-27.2466,1533.3522],[29.3253,-27.2521,1532.9097],[29.3312,-27.2634,1536.715],[29.3392,-27.2637,1535.2501],[29.3408,-27.2604,1547.8036],[29.3397,-27.252,1565.2307],[29.3427,-27.2485,1537.3602],[29.3532,-27.2498,1537.3013],[29.3619,-27.247,1535.0159],[29.3698,-27.2515,1550.4631],[29.3751,-27.251,1535.6665],[29.3807,-27.2474,1547.4436],[29.3845,-27.249,1537.1101],[29.3884,-27.246,1535.8923],[29.389,-27.2475,1535.917],[29.3863,-27.2489,1535.3982],[29.3875,-27.2499,1539.6853],[29.3902,-27.2477,1541.3672],[29.3869,-27.2436,1539.2092],[29.3909,-27.2427,1542.0404],[29.4002,-27.2429,1536.8083],[29.4015,-27.2496,1549.266],[29.4043,-27.2523,1538.2283],[29.4107,-27.2523,1537.2483],[29.4151,-27.2505,1539.1115],[29.4194,-27.2554,1556.2147],[29.422,-27.254,1540.2429],[29.4213,-27.2566,1544.6877],[29.4233,-27.2576,1538.9655],[29.4265,-27.2563,1540.3992],[29.4248,-27.2547,1537.5015],[29.4282,-27.2539,1539.2106],[29.432,-27.2622,1538.0417],[29.4343,-27.2613,1538.3641],[29.4357,-27.2628,1538.7311],[29.4364,-27.261,1539.5027],[29.4395,-27.2677,1542.1781],[29.4434,-27.2669,1540.2739],[29.4481,-27.273,1543.701],[29.4483,-27.2754,1541.4991],[29.4507,-27.2748,1540.079],[29.4506,-27.2781,1540.3723],[29.4517,-27.2763,1540.4531],[29.4533,-27.277,1540.4531],[29.4552,-27.2796,1541.1483],[29.4548,-27.2826,1546.144],[29.4566,-27.2815,1541.5068],[29.4565,-27.2842,1541.1566],[29.4603,-27.2844,1543.2731],[29.4591,-27.2863,1545.9929],[29.4611,-27.2867,1541.3787],[29.4617,-27.2853,1542.2386],[29.4637,-27.2877,1541.5302],[29.4663,-27.299,1542.7515],[29.4687,-27.2987,1543.5179],[29.47,-27.3003,1543.8718],[29.4687,-27.3015,1543.5326],[29.4709,-27.3015,1543.3102],[29.4697,-27.3036,1551.3572],[29.4722,-27.3095,1547.7604],[29.4676,-27.3156,1576.5251],[29.4702,-27.3204,1564.4166],[29.4694,-27.3248,1568.6882],[29.4807,-27.3328,1572.957],[29.4826,-27.3322,1584.5894],[29.4833,-27.3281,1576.6304],[29.4864,-27.3274,1581.793],[29.4837,-27.3388,1585.6466],[29.4865,-27.340699999999998,1586.5358],[29.4878,-27.3375,1587.302],[29.4901,-27.3369,1584.5961],[29.4899,-27.3447,1587.0366],[29.4848,-27.347,1593.4655],[29.4871,-27.3506,1587.9399],[29.483,-27.3569,1595.786],[29.4828,-27.36,1595.4634],[29.4865,-27.3628,1598.7961],[29.5029,-27.3582,1602.8265],[29.5052,-27.365,1606.834],[29.5124,-27.3678,1608.2866],[29.5095,-27.3692,1607.3345],[29.5087,-27.3727,1608.7075],[29.5088,-27.3764,1612.0908],[29.5119,-27.3796,1614.0103],[29.52,-27.3844,1617.3953],[29.5222,-27.3828,1619.1624],[29.5184,-27.3779,1625.05],[29.5239,-27.3772,1626.105],[29.5271,-27.3783,1624.4772],[29.5304,-27.3828,1640.4822],[29.5298,-27.3864,1664.2318],[29.5257,-27.3863,1637.9852],[29.5271,-27.3941,1642.0073],[29.5381,-27.387,1649.9124],[29.5416,-27.3915,1660.506],[29.5435,-27.399,1654.795],[29.552,-27.3988,1663.9519],[29.5489,-27.4047,1660.1826],[29.5492,-27.4092,1661.9716],[29.552,-27.4136,1664.045],[29.5474,-27.4141,1663.1609],[29.5425,-27.42,1665.8577],[29.55,-27.4241,1666.3022],[29.5465,-27.4311,1667.5491],[29.5599,-27.4322,1673.9812],[29.5613,-27.4413,1677.7812],[29.5633,-27.4427,1679.1213],[29.5691,-27.4421,1683.3795],[29.5791,-27.4545,1680.2448],[29.5787,-27.4565,1679.908],[29.5767,-27.4569,1680.0601],[29.5781,-27.4596,1680.2769],[29.58,-27.4584,1680.0992],[29.581,-27.4607,1680.3135],[29.5846,-27.4619,1680.4569],[29.5836,-27.4623,1680.4569],[29.5845,-27.4644,1681.0779],[29.589,-27.4632,1681.2712],[29.5897,-27.4663,1681.4072],[29.6007,-27.4701,1683.0415],[29.5998,-27.4728,1681.6503],[29.6016,-27.4718,1681.6503],[29.6029,-27.4741,1682.4215],[29.601,-27.4768,1682.2612],[29.6039,-27.4802,1682.7141],[29.6018,-27.4816,1682.3369],[29.6049,-27.4854,1682.3931],[29.604,-27.4942,1683.6121],[29.6068,-27.4966,1683.9536],[29.6093,-27.4964,1683.9913],[29.6192,-27.5061,1686.3408],[29.6255,-27.5057,1685.8519],[29.6297,-27.5023,1694.666],[29.6368,-27.5047,1689.4786],[29.6494,-27.5042,1687.1792],[29.6505,-27.4998,1687.1575],[29.6551,-27.4962,1698.5436],[29.6669,-27.4959,1688.4631],[29.6741,-27.498,1692.2092],[29.6795,-27.4968,1690.0519],[29.681,-27.5001,1691.9998],[29.6858,-27.4978,1698.4897],[29.6883,-27.4935,1695.8401],[29.6936,-27.4923,1715.1636],[29.6989,-27.4947,1710.6305],[29.7014,-27.4939,1713.7563],[29.7065,-27.4879,1712.1068],[29.7049,-27.4858,1714.1211],[29.7063,-27.4817,1723.2559],[29.6992,-27.4778,1735.5747],[29.6977,-27.4754,1756.5044],[29.6993,-27.4747,1734.3416],[29.6984,-27.4726,1734.5935],[29.7024,-27.4659,1737.2427],[29.6994,-27.4591,1748.3719],[29.6991,-27.4508,1757.9196],[29.7044,-27.4454,1757.7306],[29.7172,-27.4403,1803.2804],[29.717,-27.4384,1793.0175],[29.7197,-27.4383,1800.8245],[29.721,-27.4332,1790.9347],[29.7226,-27.4323,1792.5486],[29.7325,-27.4309,1808.6331],[29.7446,-27.4326,1885.0098],[29.7734,-27.4538,2133.4548],[29.7909,-27.4592,2115.9631],[29.7962,-27.4577,2123.592],[29.7991,-27.4512,2011.0334],[29.8058,-27.4504,1980.0869],[29.8114,-27.4461,2012.9131],[29.8113,-27.4356,1951.2017],[29.8137,-27.4339,1939.3494],[29.8145,-27.4306,1951.3782],[29.8227,-27.4273,1941.5106],[29.8217,-27.4115,1934.2252],[29.8249,-27.407,1937.9827],[29.8337,-27.4038,1921.9108],[29.836,-27.3969,1931.2266],[29.8349,-27.3903,1937.1532],[29.8402,-27.379,1732.2274],[29.8463,-27.3787,1710.9818],[29.8662,-27.3841,1671.7012],[29.8851,-27.3766,1636.2544],[29.8864,-27.3818,1620.1168],[29.8902,-27.3855,1591.8918],[29.8988,-27.3858,1568.2621],[29.9094,-27.3738,1703.2719]]]]}}