{"type": "Feature","bbox": [27.1563,-26.6495,27.6299,-26.0892],"geometry": {"type": "MultiPolygon","coordinates": [[[[27.5735,-26.6303,1501.0103],[27.5827,-26.5958,1522.8469],[27.5457,-26.5744,1531.0403],[27.6044,-26.592,1517.6089],[27.605,-26.557,1515.0422],[27.6125,-26.533,1510.7063],[27.6031,-26.5306,1513.0127],[27.6071,-26.4916,1529.1719],[27.6263,-26.4938,1517.7064],[27.6299,-26.4527,1566.4485],[27.6244,-26.4449,1593.5238],[27.6136,-26.443,1587.9012],[27.6156,-26.4497,1566.5498],[27.6119,-26.4509,1565.2854],[27.5571,-26.4564,1528.7098],[27.5515,-26.4416,1530.8612],[27.5504,-26.4406,1535.5878],[27.5491,-26.4447,1524.8574],[27.5428,-26.4317,1582.8398],[27.5353,-26.4331,1555.5306],[27.5385,-26.4296,1589.2524],[27.5451,-26.4268,1595.9059],[27.5369,-26.4019,1712.5179],[27.5401,-26.3876,1597.4259],[27.5503,-26.3864,1587.3877],[27.5511,-26.374,1575.3524],[27.5493,-26.3623,1567.515],[27.5512,-26.3547,1562.9636],[27.5478,-26.3433,1559.2948],[27.5252,-26.3473,1555.5238],[27.5261,-26.3026,1536.2869],[27.4819,-26.2844,1513.9927],[27.4715,-26.245,1523.7305],[27.4659,-26.2005,1552.5068],[27.4741,-26.2018,1568.5186],[27.49,-26.128,1587.7932],[27.4692,-26.0925,1608.1604],[27.4224,-26.0892,1597.9056],[27.4194,-26.1175,1562.1724],[27.3617,-26.1157,1599.6279],[27.3583,-26.1546,1575.0657],[27.2914,-26.1446,1560.4008],[27.3084,-26.2252,1532.6445],[27.3301,-26.2818,1524.8071],[27.2993,-26.3045,1496.0912],[27.2748,-26.3143,1517.2743],[27.2348,-26.3383,1488.1581],[27.188,-26.3779,1460.8429],[27.2248,-26.444,1527.1558],[27.2238,-26.4518,1546.4259],[27.2314,-26.5055,1609.9104],[27.2125,-26.5148,1593.3629],[27.1828,-26.5203,1464.2904],[27.1882,-26.5258,1469.6418],[27.1786,-26.521,1456.947],[27.1563,-26.5243,1471.6904],[27.1588,-26.5254,1493.2244],[27.1671,-26.5514,1455.5103],[27.1745,-26.5492,1463.0203],[27.1826,-26.5631,1483.792],[27.1826,-26.5746,1557.7754],[27.2284,-26.5711,1407.8915],[27.2345,-26.5949,1397.4995],[27.2332,-26.5955,1393.1603],[27.235,-26.6186,1378.2864],[27.2419,-26.6365,1348.912],[27.2474,-26.6344,1349.6139],[27.2488,-26.636,1349.4884],[27.2494,-26.6341,1350.3225],[27.2512,-26.6347,1350.1829],[27.2537,-26.6325,1351.6467],[27.2575,-26.632,1351.0397],[27.2574,-26.6308,1352.0541],[27.2605,-26.6315,1352.2333],[27.2617,-26.6335,1353.2866],[27.2671,-26.6306,1354.0869],[27.2683,-26.6329,1353.8215],[27.2718,-26.6304,1355.1901],[27.2731,-26.6322,1355.3971],[27.2769,-26.629,1355.469],[27.2768,-26.6259,1356.6687],[27.2789,-26.6265,1356.573],[27.2793,-26.6245,1359.5935],[27.2797,-26.6258,1357.4784],[27.2855,-26.625,1357.6479],[27.2842,-26.6222,1361.1394],[27.2862,-26.6214,1361.496],[27.2933,-26.6223,1359.8534],[27.2969,-26.6203,1360.5414],[27.2991,-26.6221,1361.6697],[27.3442,-26.6131,1381.6736],[27.3315,-26.5903,1372.28],[27.3389,-26.5781,1376.8665],[27.3386,-26.5717,1379.2317],[27.3658,-26.5738,1408.1537],[27.3854,-26.6043,1393.5317],[27.3783,-26.6107,1389.7351],[27.4258,-26.6495,1409.6362],[27.4347,-26.6318,1425.2566],[27.4548,-26.6303,1438.2335],[27.5065,-26.6462,1445.2256],[27.5691,-26.6472,1499.1606],[27.5735,-26.6303,1501.0103]]]]}
,"properties": {"GID_3": "ZAF.3.5.1_1","GID_0": "ZAF","country": "SouthAfrica","GID_1": "ZAF.3_1","province": "Gauteng","NL_NAME_1": "NA","GID_2": "ZAF.3.5_1","county": "WestRand","NL_NAME_2": "NA","city": "MerafongCity","VARNAME_3": "NA","NL_NAME_3": "NA","TYPE_3": "LocalMunicipality","ENGTYPE_3": "LocalMunicipality","CC_3": "GT484","HASC_3": "NA","name": "Merafong_City.city","area_km2": 1633.139,"hist_schema_id": "Elevation0-9000","hist_area_km2": {"1350": 6.141,"1375": 40.097,"1400": 78.833,"1425": 110.877,"1450": 130.264,"1475": 186.861,"1500": 199.039,"1525": 219.361,"1550": 270.727,"1575": 179.453,"1600": 85.781,"1625": 52.991,"1650": 27.927,"1675": 16.859,"1700": 14.942,"1725": 10.329,"1750": 2.658}}}