{"type": "Feature","bbox": [32.2104,-27.5863,32.8913,-26.8559],"geometry": {"type": "MultiPolygon","coordinates": [[[[32.4061,-27.5863,18.0],[32.6537,-27.5474,36.3016],[32.6793,-27.5454,18.3938],[32.6799,-27.5404,1.9932],[32.676,-27.5387,0.6018],[32.6732,-27.5279,31.2525],[32.6749,-27.5121,0.0],[32.6818,-27.4885,34.9423],[32.6993,-27.4518,0.0],[32.7132,-27.4321,0.0],[32.7201,-27.4076,0.0],[32.731,-27.3868,3.7571],[32.7329,-27.3765,7.9644],[32.7407,-27.3549,1.674],[32.7513,-27.3365,3.7068],[32.7504,-27.3349,17.4677],[32.7521,-27.3335,0.0],[32.7507,-27.3307,6.9777],[32.7524,-27.3226,0.0],[32.7715,-27.2849,0.0],[32.7732,-27.2793,0.0],[32.7724,-27.271,12.5317],[32.7751,-27.2615,0.0],[32.7935,-27.2307,0.0],[32.7949,-27.2154,20.1153],[32.8082,-27.1899,0.0],[32.8057,-27.1782,0.0],[32.8082,-27.1696,0.0],[32.814,-27.1579,0.0],[32.8268,-27.139,4.7179],[32.8315,-27.1354,0.0],[32.831,-27.1335,0.0],[32.8288,-27.1329,3.2817],[32.831,-27.1251,0.0],[32.8424,-27.1087,0.0],[32.8401,-27.0993,15.8862],[32.8479,-27.0826,23.3759],[32.8493,-27.0637,0.0],[32.8596,-27.0413,0.0],[32.8613,-27.0268,0.0],[32.8676,-27.0135,0.0],[32.864,-27.0093,5.2496],[32.864,-27.0046,4.2327],[32.8654,-26.9968,0.0],[32.8718,-26.984,0.0],[32.8754,-26.965699999999998,0.0],[32.8724,-26.956,6.5915],[32.8724,-26.9496,12.3566],[32.8771,-26.9363,0.0],[32.8807,-26.8982,8.0267],[32.8765,-26.9024,4.5283],[32.8729,-26.9021,0.0],[32.871,-26.9051,0.525],[32.861,-26.9035,0.0],[32.8632,-26.9065,0.0],[32.869,-26.9082,0.4739],[32.8593,-26.9129,0.3138],[32.8593,-26.9193,0.9672],[32.854,-26.9251,0.2076],[32.8546,-26.9262,0.2076],[32.8565,-26.9243,0.2286],[32.8615,-26.9243,4.5938],[32.8649,-26.9262,3.1047],[32.8635,-26.9326,2.4185],[32.8599,-26.9343,0.6018],[32.8596,-26.9365,0.2475],[32.8618,-26.9376,2.8593],[32.8626,-26.9421,0.4348],[32.8587,-26.9474,1.0149],[32.854,-26.9507,1.8647],[32.8493,-26.9499,0.7816],[32.8468,-26.9479,0.3435],[32.8465,-26.9443,0.2523],[32.8432,-26.9418,1.0109],[32.8432,-26.9385,0.0],[32.8468,-26.9349,0.1248],[32.8535,-26.9354,0.1237],[32.8565,-26.9335,0.7616],[32.8529,-26.9324,2.0796],[32.8549,-26.9274,2.352],[32.8529,-26.926,8.4063],[32.8526,-26.9215,11.4543],[32.8551,-26.9151,0.6823],[32.8593,-26.9101,0.1644],[32.8576,-26.9018,0.0],[32.8671,-26.8949,0.5876],[32.8765,-26.8987,0.673],[32.8771,-26.894,5.8755],[32.881,-26.8924,8.0302],[32.8846,-26.8751,0.0],[32.8913,-26.8584,16.2778],[32.8729,-26.8644,5.2194],[32.8442,-26.8683,28.9221],[32.7362,-26.8665,61.9913],[32.6829,-26.8681,58.0872],[32.5657,-26.8645,93.0665],[32.3469,-26.864,26.2059],[32.3459,-26.8559,21.2753],[32.3434,-26.8592,21.3457],[32.3466,-26.865,23.5091],[32.3467,-26.8738,21.2666],[32.3451,-26.8767,20.9224],[32.3393,-26.8798,20.9493],[32.3349,-26.8787,21.7732],[32.3291,-26.8797,22.8517],[32.3241,-26.889,22.4247],[32.3171,-26.8906,27.37],[32.3209,-26.8937,30.1854],[32.3213,-26.8976,24.8781],[32.3236,-26.8968,30.9236],[32.3252,-26.8996,33.5864],[32.3284,-26.8977,29.5219],[32.3296,-26.9001,33.3899],[32.3235,-26.9013,32.5786],[32.3264,-26.9022,30.9181],[32.3237,-26.9049,31.6293],[32.3272,-26.9065,33.6357],[32.3294,-26.9115,34.283],[32.3271,-26.9125,35.2658],[32.3245,-26.9113,33.3398],[32.3206,-26.9149,30.7146],[32.3241,-26.9177,34.8043],[32.323,-26.9206,35.0281],[32.3259,-26.9265,30.2131],[32.333,-26.9231,33.4876],[32.3351,-26.9239,34.5466],[32.3325,-26.9261,33.6707],[32.3332,-26.9289,27.5428],[32.3229,-26.9308,28.617],[32.3246,-26.9378,26.1216],[32.3275,-26.9363,27.5043],[32.3304,-26.9379,26.0454],[32.3288,-26.9426,28.4172],[32.3276,-26.944,27.73],[32.3263,-26.9433,27.73],[32.3257,-26.9396,26.4784],[32.3242,-26.9389,27.5401],[32.3244,-26.9432,24.4824],[32.318,-26.9438,28.0785],[32.3186,-26.9468,29.3067],[32.317,-26.949,27.3155],[32.3112,-26.945,26.2617],[32.3119,-26.9526,29.105],[32.3092,-26.957,26.3728],[32.3102,-26.9611,28.5345],[32.3043,-26.958,27.4638],[32.3025,-26.9594,27.2254],[32.2991,-26.9587,28.353],[32.2943,-26.9617,27.2053],[32.2951,-26.9637,27.3071],[32.2932,-26.9656,28.0259],[32.2883,-26.963,30.1062],[32.2903,-26.965699999999998,28.2192],[32.289,-26.9672,29.812],[32.2867,-26.9627,27.9096],[32.2802,-26.9643,28.0743],[32.282,-26.9694,30.0085],[32.2778,-26.9706,28.2351],[32.28,-26.9724,31.1435],[32.278,-26.9742,27.5659],[32.2802,-26.9758,29.8333],[32.2837,-26.9751,29.2175],[32.2868,-26.9815,27.6711],[32.3078,-26.9955,32.4223],[32.3092,-27.0,33.6267],[32.3079,-27.0124,34.4882],[32.3018,-27.0208,30.3029],[32.2909,-27.0205,32.3837],[32.2788,-27.0227,34.5905],[32.2755,-27.0263,31.4984],[32.272,-27.0271,33.0688],[32.2657,-27.0378,29.9665],[32.266,-27.0417,30.8205],[32.2501,-27.0409,49.3589],[32.2472,-27.042,44.9025],[32.2464,-27.0468,31.5986],[32.2483,-27.0466,32.2309],[32.249,-27.0497,30.3205],[32.2528,-27.0485,34.1439],[32.2546,-27.0528,35.4654],[32.2513,-27.0523,31.336],[32.2507,-27.0555,33.6089],[32.2539,-27.0542,34.555],[32.2551,-27.0575,34.2209],[32.2609,-27.0623,36.0037],[32.2598,-27.0641,33.1388],[32.2618,-27.065,35.9303],[32.2614,-27.0692,33.132],[32.2647,-27.0802,32.28],[32.2613,-27.0822,34.3804],[32.2583,-27.0816,34.7659],[32.2597,-27.0851,34.4541],[32.2525,-27.0886,36.0815],[32.2541,-27.0899,33.2871],[32.2603,-27.0879,33.2378],[32.2605,-27.0974,38.4681],[32.254,-27.0991,33.6613],[32.2558,-27.1025,37.3871],[32.255,-27.1065,33.7583],[32.2521,-27.107,35.8416],[32.2502,-27.1101,34.6678],[32.2467,-27.1104,35.5653],[32.2469,-27.1126,35.1841],[32.2504,-27.1139,35.3004],[32.2478,-27.1156,34.1358],[32.2505,-27.1191,36.243],[32.2472,-27.1213,35.9679],[32.2486,-27.1291,37.3402],[32.2455,-27.132,35.6736],[32.2442,-27.131,37.2559],[32.2458,-27.1276,40.3747],[32.2413,-27.1279,38.4318],[32.2396,-27.1301,41.3333],[32.2413,-27.1348,38.6738],[32.2441,-27.1346,39.4662],[32.2526,-27.1425,36.7579],[32.249,-27.1448,38.4621],[32.2398,-27.1464,40.324],[32.2407,-27.1525,40.5456],[32.2343,-27.1508,41.017],[32.2297,-27.1529,38.7464],[32.2192,-27.1632,40.3494],[32.2141,-27.1748,39.519],[32.2152,-27.1804,39.085],[32.2191,-27.179,41.2052],[32.2258,-27.1794,40.086],[32.2305,-27.1739,41.0462],[32.2361,-27.1787,40.5673],[32.2412,-27.1784,43.9782],[32.2379,-27.1812,41.2567],[32.2409,-27.1868,42.6837],[32.2344,-27.1911,42.0504],[32.2346,-27.1965,42.1281],[32.2319,-27.1961,40.8992],[32.2312,-27.1978,41.5425],[32.2206,-27.2036,41.088],[32.216,-27.204,40.1308],[32.2157,-27.2089,41.9449],[32.2111,-27.2125,45.3179],[32.2203,-27.2148,42.912],[32.2222,-27.2131,43.3154],[32.2217,-27.2109,43.2974],[32.2241,-27.2103,43.7186],[32.2314,-27.2129,43.0162],[32.2332,-27.2167,44.8264],[32.2311,-27.2248,45.5552],[32.2315,-27.2313,46.1235],[32.2426,-27.2343,45.8638],[32.25,-27.2397,46.4556],[32.2533,-27.2498,46.6505],[32.2497,-27.2526,47.3007],[32.2476,-27.2622,46.6354],[32.2415,-27.2642,48.0349],[32.2416,-27.2722,49.8066],[32.2378,-27.2751,49.959],[32.2337,-27.2852,49.7528],[32.2243,-27.2907,49.74],[32.2245,-27.3024,50.5006],[32.2109,-27.3147,53.9569],[32.2104,-27.3201,51.8628],[32.2138,-27.3235,52.7698],[32.2218,-27.3272,51.4555],[32.2203,-27.3313,54.0979],[32.2615,-27.3506,63.905],[32.2312,-27.3839,62.9628],[32.2354,-27.3981,78.5256],[32.2402,-27.3967,80.0662],[32.244,-27.4063,89.9378],[32.2436,-27.4271,98.7813],[32.2327,-27.4294,95.8602],[32.2305,-27.4579,149.0206],[32.2226,-27.4787,128.206],[32.2498,-27.4684,83.4151],[32.2579,-27.4673,90.2059],[32.2569,-27.4722,87.4494],[32.2588,-27.4842,75.7577],[32.2586,-27.4985,57.8611],[32.2566,-27.5042,56.2942],[32.2574,-27.5087,55.15],[32.2646,-27.5114,65.6697],[32.2829,-27.5127,70.3283],[32.2855,-27.512,70.1308],[32.2895,-27.5056,80.8991],[32.2991,-27.5049,86.536],[32.315,-27.5069,81.0778],[32.3376,-27.5052,59.0671],[32.3363,-27.4897,67.1847],[32.3511,-27.4885,110.4693],[32.3667,-27.4899,106.7602],[32.3705,-27.4873,99.5522],[32.3841,-27.4853,75.1984],[32.3899,-27.4824,68.976],[32.4086,-27.4836,47.8097],[32.4077,-27.5237,32.7769],[32.4147,-27.5299,30.9618],[32.4086,-27.5392,25.0838],[32.4092,-27.5548,22.9209],[32.4076,-27.5744,18.7447],[32.4095,-27.5803,18.0391],[32.4061,-27.5863,18.0]]],
[[[32.859,-26.9162,0.166],[32.8571,-26.9154,0.166],[32.8582,-26.9171,0.0],[32.8557,-26.919,0.0],[32.8576,-26.9188,0.0],[32.859,-26.9162,0.166]]],
[[[32.8613,-26.9076,0.0],[32.8601,-26.9071,0.1936],[32.861,-26.9104,0.1644],[32.8624,-26.909,0.1996],[32.8613,-26.9076,0.0]]]]}
,"properties": {"GID_3": "ZAF.4.7.5_1","GID_0": "ZAF","country": "SouthAfrica","GID_1": "ZAF.4_1","province": "KwaZulu-Natal","NL_NAME_1": "NA","GID_2": "ZAF.4.7_1","county": "Umkhanyakude","NL_NAME_2": "NA","city": "Umhlabuyalingana","VARNAME_3": "NA","NL_NAME_3": "NA","TYPE_3": "LocalMunicipality","ENGTYPE_3": "LocalMunicipality","CC_3": "KZN271","HASC_3": "NA","name": "Umhlabuyalingana.city","area_km2": 3960.787,"hist_schema_id": "Elevation0-9000","hist_area_km2": {"0": 82.146,"25": 476.784,"50": 1063.08,"75": 1909.734,"100": 401.941,"125": 25.03,"150": 2.072}}}