{"type":"Feature","properties":{"featurecla":"River","scalerank":7,"rivernum":583,"dissolve":"583River","name":"Gourits","name_alt":null,"note":null,"min_zoom":6.0,"strokeweig":0.2,"name_en":"Gourits","min_label":7.0},
"geometry":{"type": "LineString","coordinates": [[21.690185546875,-33.222686456255886,451.7773],[21.672753906250023,-33.23137786250588,415.819],[21.659570312500023,-33.246612237505886,417.534],[21.652734375000023,-33.265948175005889,422.5357],[21.638427734375,-33.33538176875588,833.6077],[21.63818359375,-33.34978606563088,816.7983],[21.641845703125,-33.38201262813088,578.1411],[21.640039062500023,-33.398955987505886,940.8705],[21.628808593750023,-33.450030206255889,395.7816],[21.615625,-33.47112395625588,313.2796],[21.595458984375,-33.47014739375588,254.5015],[21.595703125,-33.473663018755886,249.7349],[21.5986328125,-33.48455169063088,387.3795],[21.604394531250023,-33.49480559688088,439.319],[21.624755859375,-33.51799895625588,335.8609],[21.684228515625023,-33.571319268755886,213.7665],[21.696679687500023,-33.58953215938088,205.5519],[21.701171875,-33.600909112505889,201.1616],[21.712792968750023,-33.66912200313088,468.7154],[21.713769531250023,-33.685870050005889,224.0218],[21.71044921875,-33.701983331255889,658.376],[21.6923828125,-33.72673919063088,280.3279],[21.689843750000023,-33.73455169063088,140.8845],[21.695458984375023,-33.74480559688088,159.4444],[21.708154296875023,-33.750030206255886,264.1486],[21.722802734375023,-33.753448175005886,173.132],[21.734375,-33.75750090938088,139.8424],[21.745019531250023,-33.76970794063088,151.4628],[21.745263671875023,-33.783038018755889,237.3153],[21.712158203125,-33.857452081255886,130.105],[21.701318359375023,-33.87249114375588,276.071],[21.662109375,-33.90374114375588,200.2986],[21.6513671875,-33.916827081255889,72.0575]]}}