{"type":"Feature","properties":{"featurecla":"River","scalerank":8,"rivernum":811,"dissolve":"811River","name":"Olifants1","name_alt":null,"note":null,"min_zoom":7.0,"strokeweig":0.2,"name_en":"Olifants","min_label":8.0},
"geometry":{"type": "LineString","coordinates": [[19.082275390625,-32.77190520625588,377.9937],[19.079736328125023,-32.758623956255889,343.9789],[19.055908203125,-32.709502862505886,221.6947],[19.052636718750023,-32.69719817500588,205.4359],[19.048583984375,-32.661651300005886,212.9261],[19.045800781250023,-32.653350518755886,223.6616],[19.03466796875,-32.62957122188088,192.5277],[18.919921875,-32.248565362505886,104.0],[18.905029296875,-32.22136809688088,104.0],[18.897705078125,-32.21379973750588,105.876],[18.88037109375,-32.20086028438088,110.6684],[18.873779296875,-32.192217706255889,126.3009],[18.870263671875023,-32.180694268755886,108.0016],[18.866943359375,-32.156280206255886,118.0717],[18.863427734375023,-32.144366143755889,94.168],[18.799707031250023,-32.028643487505889,174.5855],[18.776025390625023,-32.000811456255889,81.3654],[18.665283203125,-31.913897393755889,41.7332],[18.646142578125023,-31.89446380000588,53.3414],[18.630029296875023,-31.872881768755889,41.1707],[18.6181640625,-31.84783294063088,30.4295],[18.607812500000023,-31.78753020625588,92.1502],[18.599853515625,-31.76018645625588,86.0641],[18.5810546875,-31.73674895625588,27.2633],[18.576171875,-31.73479583125588,39.2719],[18.563232421875,-31.73381926875588,53.3219],[18.557763671875023,-31.73162200313088,48.0865],[18.549218750000023,-31.72307708125588,33.3102],[18.5244140625,-31.67986419063088,22.595],[18.515771484375023,-31.66912200313088,17.245],[18.505859375,-31.659698175005886,18.9581],[18.493798828125023,-31.65129973750588,14.8904],[18.42919921875,-31.625811456255889,10.1569],[18.410546875000023,-31.61516692500588,29.2816],[18.404199218750023,-31.60833098750588,8.4662],[18.393798828125,-31.591827081255886,9.137],[18.386132812500023,-31.58416106563088,9.5969],[18.376855468750023,-31.57927825313088,7.4982],[18.344140625000023,-31.56804778438088,8.4395],[18.293212890625,-31.543291925005889,8.9544],[18.266845703125,-31.539873956255889,3.7616],[18.249658203125023,-31.557452081255889,21.0863],[18.243798828125023,-31.566729425005889,5.5061],[18.235986328125023,-31.56975676875588,6.072],[18.227929687500023,-31.571123956255889,5.4816],[18.221826171875023,-31.575518487505889,10.4932],[18.21826171875,-31.58660247188088,3.5049],[18.219482421875,-31.59539153438088,6.3],[18.218017578125,-31.60344817500588,5.0],[18.206298828125,-31.61199309688088,0.8163],[18.198974609375,-31.62444426875588,8.0916],[18.19482421875,-31.66912200313088,9.5524],[18.189355468750023,-31.68718840938088,46.3305]]}}