{"type":"Feature","properties":{"featurecla":"River","scalerank":7,"rivernum":583,"dissolve":"583River","name":"Gourits1","name_alt":null,"note":null,"min_zoom":6.0,"strokeweig":0.25,"name_en":"Gourits","min_label":7.0},
"geometry":{"type": "LineString","coordinates": [[21.6513671875,-33.916827081255889,72.0575],[21.644433593750023,-33.931182550005886,205.9234],[21.640380859375,-33.94670989375588,395.9517],[21.636621093750023,-33.978838800005889,92.4123],[21.638085937500023,-34.001983331255886,54.9038],[21.645263671875,-34.020049737505886,101.2652],[21.67041015625,-34.05510833125588,123.0158],[21.682031250000023,-34.06536223750588,165.7396],[21.689843750000023,-34.06121184688088,43.902],[21.696044921875,-34.052276300005886,36.2407],[21.70361328125,-34.048370050005886,33.1413],[21.711083984375023,-34.051788018755886,139.2779],[21.715966796875023,-34.057647393755886,49.3713],[21.7197265625,-34.064483331255886,34.6813],[21.724853515625,-34.071319268755886,54.6133],[21.729638671875023,-34.074737237505886,40.1117],[21.734375,-34.07683684688088,33.9944],[21.73828125,-34.08001067500588,26.0673],[21.740234375,-34.08587005000588,47.276],[21.736328125,-34.09124114375588,49.9275],[21.716796875,-34.10540130000588,47.9149],[21.7109375,-34.11223723750588,23.2061],[21.710205078125,-34.12542083125588,121.8918],[21.715722656250023,-34.137041925005889,14.7009],[21.733154296875,-34.15691497188088,24.4588],[21.740234375,-34.16985442500588,56.0545],[21.751855468750023,-34.21453215938088,86.7705],[21.778076171875,-34.257647393755889,10.7336],[21.878173828125,-34.343780206255886,6.7916]]}}