{"type":"Feature","properties":{"featurecla":"River","scalerank":7,"rivernum":489,"dissolve":"489River","name":"Gamka","name_alt":null,"note":null,"min_zoom":6.0,"strokeweig":0.2,"name_en":"Gamka","min_label":7.0},
"geometry":{"type": "LineString","coordinates": [[22.638671875,-32.16716887813088,1520.838],[22.57275390625,-32.26262786250588,970.2571],[22.562646484375023,-32.29876067500588,920.2869],[22.565576171875023,-32.32048919063088,875.6122],[22.580468750000023,-32.36174895625588,839.9821],[22.580078125,-32.380889581255886,823.5258],[22.568261718750023,-32.396026300005886,811.8621],[22.505859375,-32.44475676875588,774.2651],[22.487207031250023,-32.452471612505889,766.9755],[22.447900390625023,-32.46233489375588,731.7579],[22.428613281250023,-32.47063567500588,730.7626],[22.390283203125023,-32.493682550005886,702.663]]}}