{"type":"Feature","properties":{"featurecla":"River","scalerank":7,"rivernum":489,"dissolve":"489River","name":"Gamka1","name_alt":null,"note":null,"min_zoom":6.0,"strokeweig":0.2,"name_en":"Gamka","min_label":7.0},
"geometry":{"type": "LineString","coordinates": [[22.390283203125023,-32.493682550005886,702.663],[22.017822265625,-32.74895598750588,560.8397],[21.985595703125,-32.784991143755889,546.7016],[21.96484375,-32.831866143755889,535.4256],[21.963037109375023,-32.85051848750588,529.5231],[21.974609375,-32.903155206255889,513.4586],[21.975830078125,-32.92253997188088,509.3991],[21.97412109375,-32.96160247188088,500.3702],[21.97900390625,-33.016436456255889,505.1916],[21.971435546875,-33.051788018755886,481.3115],[21.955957031250023,-33.08513762813088,470.4716],[21.935302734375,-33.11467864375588,459.0283],[21.923730468750023,-33.127471612505886,447.9517],[21.827294921875023,-33.20305755000588,422.1725],[21.806640625,-33.215850518755886,441.3068],[21.792236328125,-33.220733331255886,412.7364],[21.777978515625023,-33.222198175005886,405.5469],[21.729394531250023,-33.21770598750588,461.884],[21.709375,-33.218584893755889,480.1497],[21.690185546875,-33.222686456255886,451.7773]]}}