{"type":"Feature","properties":{"featurecla":"River","scalerank":9,"rivernum":1039,"dissolve":"1039River","name":"Gamtoos","name_alt":null,"note":null,"min_zoom":7.1,"strokeweig":0.15,"name_en":"Gamtoos","min_label":8.1},
"geometry":{"type": "LineString","coordinates": [[23.052001953125,-32.232452081255886,941.4131],[23.049218750000023,-32.242217706255886,935.0431],[23.040771484375,-32.25969817500588,930.7206],[23.0390625,-32.26653411250588,928.8725],[23.041162109375023,-32.276885675005886,927.0417],[23.050048828125,-32.292315362505889,921.897],[23.052001953125,-32.30413176875588,917.4897],[23.052001953125,-32.34539153438088,903.0759],[23.05029296875,-32.355303643755889,899.3849],[23.041894531250023,-32.377764581255889,890.5889],[23.0390625,-32.389483331255889,886.4523],[23.03857421875,-32.411651300005886,879.7936],[23.0458984375,-32.468584893755889,863.1182]]}}