{"type":"Feature","properties":{"featurecla":"River","scalerank":8,"rivernum":811,"dissolve":"811River","name":"Olifants","name_alt":null,"note":null,"min_zoom":7.0,"strokeweig":0.15,"name_en":"Olifants","min_label":8.0},
"geometry":{"type": "LineString","coordinates": [[19.248291015625,-33.183135675005886,874.1934],[19.244531250000023,-33.170928643755886,808.0609],[19.239160156250023,-33.13347747188088,724.3047],[19.23583984375,-33.122881768755889,754.1973],[19.226708984375023,-33.10247161250588,761.968],[19.223876953125,-33.091631768755889,712.3857],[19.222070312500023,-33.030108331255889,974.2472],[19.218164062500023,-33.010088800005889,763.8384],[19.2099609375,-32.98748137813088,832.9144],[19.19921875,-32.96599700313088,546.9892],[19.186279296875,-32.94573333125588,660.7334],[19.171044921875023,-32.92717864375588,358.2386],[19.127343750000023,-32.889190362505886,594.109],[19.086669921875,-32.840362237505886,245.8428],[19.07763671875,-32.82122161250588,238.2388],[19.076562500000023,-32.799639581255889,249.128],[19.081933593750023,-32.779131768755889,425.7531],[19.082275390625,-32.77190520625588,377.9937]]}}