{"type": "Feature","bbox": [21.6404,-34.3449,22.3553,-33.8464],"geometry": {"type": "MultiPolygon","coordinates": [[[[22.1379,-34.1971,0.0],[22.141,-34.1957,3.1689],[22.1443,-34.1971,0.0],[22.1465,-34.194,-0.19],[22.1513,-34.1924,0.0],[22.1526,-34.1888,13.5577],[22.1615,-34.1879,0.0],[22.1618,-34.186,0.0],[22.1588,-34.1835,6.6808],[22.1585,-34.1813,6.6597],[22.1507,-34.1787,0.0],[22.1471,-34.1749,0.0],[22.1465,-34.1754,0.0],[22.1479,-34.1763,0.0],[22.1476,-34.1785,0.0],[22.1454,-34.176,0.0],[22.1418,-34.1787,4.6439],[22.1387,-34.1787,3.4102],[22.1357,-34.1735,0.9382],[22.1285,-34.1726,0.9736],[22.1213,-34.1671,2.307],[22.1143,-34.1657,2.8893],[22.111,-34.1632,7.2733],[22.1101,-34.1524,2.2966],[22.1118,-34.1504,0.0],[22.1118,-34.1432,0.0],[22.1143,-34.1399,0.0],[22.1149,-34.1343,16.9048],[22.1235,-34.1199,4.2356],[22.1229,-34.1165,0.0],[22.1507,-34.0929,0.0],[22.1401,-34.091,12.9877],[22.1357,-34.0876,1.4741],[22.1404,-34.0899,0.0],[22.1435,-34.0887,2.8883],[22.1465,-34.0907,0.4921],[22.1501,-34.0907,2.0799],[22.159,-34.0843,3.4315],[22.1901,-34.0715,0.0],[22.2124,-34.0638,1.5025],[22.2371,-34.0576,0.0],[22.2354,-34.0546,1.8986],[22.2318,-34.0526,0.0],[22.2363,-34.051,5.6191],[22.2376,-34.0515,2.757],[22.2371,-34.0537,3.9839],[22.2407,-34.0549,8.442],[22.2404,-34.0568,0.0],[22.2718,-34.0524,6.5861],[22.2938,-34.051,7.8098],[22.3204,-34.0512,30.3707],[22.3224,-34.0526,8.8646],[22.3351,-34.0526,28.8159],[22.3438,-34.0554,0.0],[22.3553,-34.0549,0.0],[22.3538,-34.0456,0.0],[22.3512,-34.0414,107.0171],[22.3507,-34.0421,107.0171],[22.3531,-34.0456,0.0],[22.3538,-34.0539,14.0491],[22.3225,-34.0514,8.8646],[22.3172,-34.0493,22.0418],[22.3196,-34.0428,167.6746],[22.3164,-34.0417,176.2772],[22.3154,-34.0435,135.7754],[22.313,-34.0432,164.6792],[22.3144,-34.0401,193.7321],[22.3097,-34.0397,177.0384],[22.3114,-34.0432,164.6792],[22.3086,-34.0434,150.4016],[22.3076,-34.0481,28.458],[22.3062,-34.048,38.0308],[22.3066,-34.0457,149.0035],[22.2999,-34.0464,100.9067],[22.299,-34.045,146.6055],[22.2936,-34.0451,108.4759],[22.2923,-34.047,74.1963],[22.2769,-34.045,61.5558],[22.2658,-34.0484,35.9975],[22.2641,-34.0467,47.3022],[22.2628,-34.0376,182.4633],[22.2651,-34.0339,188.3552],[22.2799,-34.0215,186.0105],[22.2709,-34.0052,200.5779],[22.2786,-33.9904,184.1777],[22.2763,-33.9908,185.1224],[22.2723,-33.9881,187.0479],[22.2698,-33.984,195.3441],[22.2637,-33.9811,203.9243],[22.2603,-33.9605,236.9795],[22.2604,-33.9549,247.5632],[22.2682,-33.9404,300.4412],[22.2679,-33.925,371.8689],[22.2335,-33.903,1365.2158],[22.2337,-33.8882,1424.9673],[22.2139,-33.8881,1034.1942],[22.1986,-33.8782,1025.6943],[22.1875,-33.8769,1095.7731],[22.1709,-33.8691,1028.2074],[22.1342,-33.8696,1468.0267],[22.1237,-33.8464,1213.8719],[22.0751,-33.8495,1062.8303],[22.0637,-33.883,1244.2412],[22.0427,-33.8839,1309.3801],[22.017,-33.8594,1211.8521],[21.9853,-33.8662,1113.6075],[21.9328,-33.8654,585.484],[21.8644,-33.8554,588.0044],[21.8038,-33.8549,703.9167],[21.7839,-33.8521,663.3855],[21.7445,-33.8547,508.8937],[21.7003,-33.8529,91.6373],[21.6983,-33.8586,89.9965],[21.6845,-33.8648,117.6582],[21.6733,-33.8772,80.6888],[21.663,-33.8794,100.1506],[21.6624,-33.8809,138.8945],[21.6762,-33.8825,262.3521],[21.6739,-33.9015,233.9935],[21.6649,-33.9143,189.216],[21.6529,-33.9164,84.4101],[21.6536,-33.9225,64.1596],[21.6514,-33.9282,63.8085],[21.6519,-33.9329,63.4555],[21.6581,-33.9378,62.0327],[21.6597,-33.9472,88.8173],[21.6585,-33.9635,154.2561],[21.6569,-33.9718,58.6266],[21.6527,-33.9808,45.84],[21.6408,-33.9962,43.2914],[21.6404,-34.0075,48.3774],[21.6492,-34.011,41.2542],[21.6661,-34.0089,37.6366],[21.6707,-34.0168,177.9934],[21.6944,-34.0169,212.2088],[21.6983,-34.0515,31.471],[21.7037,-34.048,33.1413],[21.7135,-34.046,35.2993],[21.7169,-34.0398,35.3629],[21.7176,-34.0321,24.5328],[21.7197,-34.0299,24.0689],[21.7262,-34.0297,28.6732],[21.7358,-34.0327,39.0089],[21.7385,-34.0364,50.5747],[21.7359,-34.0417,24.1464],[21.7205,-34.0503,40.1928],[21.7173,-34.0537,26.105],[21.7179,-34.0783,25.5481],[21.7197,-34.0807,26.1306],[21.7267,-34.0824,20.1093],[21.7474,-34.0798,20.7331],[21.7461,-34.1009,14.6258],[21.7435,-34.1023,11.25],[21.7342,-34.1026,17.3662],[21.7328,-34.0922,12.0307],[21.7313,-34.0904,11.405],[21.6896,-34.0899,156.1936],[21.6788,-34.1226,157.6383],[21.7172,-34.1289,23.7749],[21.7428,-34.1584,21.1508],[21.7363,-34.1625,98.1073],[21.7284,-34.1643,90.155],[21.7317,-34.2081,160.7729],[21.743,-34.2085,79.0943],[21.7505,-34.2139,10.9445],[21.7546,-34.2206,3.8913],[21.7536,-34.2251,5.251],[21.762,-34.2382,5.9549],[21.7689,-34.2576,2.6187],[21.7877,-34.2847,11.5043],[21.7975,-34.286,3.3731],[21.8192,-34.281,1.651],[21.8259,-34.2814,1.2486],[21.8296,-34.284,4.7816],[21.8339,-34.2912,5.0449],[21.8243,-34.2974,8.0654],[21.8276,-34.3115,0.3285],[21.8545,-34.3334,0.0],[21.86,-34.3354,0.0],[21.8782,-34.3363,0.4968],[21.8801,-34.3396,0.0],[21.8885,-34.3449,0.0],[21.906,-34.3443,0.0],[21.9129,-34.3399,0.4646],[21.9163,-34.3399,0.0],[21.9154,-34.3379,0.0],[21.9099,-34.3368,1.7889],[21.9043,-34.3324,0.0],[21.9049,-34.3246,0.0],[21.9068,-34.3201,1.2896],[21.9118,-34.3149,5.2375],[21.9251,-34.3068,0.918],[21.9387,-34.3054,0.0],[21.9401,-34.3026,0.2515],[21.9424,-34.3037,0.0],[21.9463,-34.3021,0.0],[21.9468,-34.299,0.0],[21.9432,-34.2999,14.9832],[21.934,-34.2929,0.0],[21.9304,-34.2938,11.0175],[21.926,-34.2918,2.8948],[21.9151,-34.2912,0.0],[21.9118,-34.2865,31.078],[21.9112,-34.2824,19.6581],[21.9138,-34.2674,25.9012],[21.9185,-34.2585,1.8222],[21.931,-34.2451,1.3957],[21.964,-34.2246,2.1987],[21.986,-34.216,18.7425],[22.0029,-34.2126,8.2128],[22.0118,-34.2093,10.5642],[22.0615,-34.2054,0.0],[22.0904,-34.2104,0.0],[22.0954,-34.2035,0.0],[22.0996,-34.2049,0.0],[22.1135,-34.2049,0.0],[22.1157,-34.2029,1.1224],[22.1224,-34.2024,0.0],[22.1246,-34.2004,0.942],[22.1301,-34.2001,0.0],[22.1379,-34.1971,0.0]]]]}
,"properties": {"GID_3": "ZAF.9.4.6_1","GID_0": "ZAF","country": "SouthAfrica","GID_1": "ZAF.9_1","province": "WesternCape","NL_NAME_1": "NA","GID_2": "ZAF.9.4_1","county": "Eden","NL_NAME_2": "NA","city": "MosselBay","VARNAME_3": "NA","NL_NAME_3": "NA","TYPE_3": "LocalMunicipality","ENGTYPE_3": "LocalMunicipality","CC_3": "WC043","HASC_3": "NA","name": "Mossel_Bay.city","area_km2": 2010.763,"hist_schema_id": "Elevation0-9000","hist_area_km2": {"0": 69.033,"25": 80.248,"50": 93.441,"75": 114.83,"100": 128.753,"125": 148.017,"150": 171.897,"175": 176.429,"200": 138.451,"225": 89.358,"250": 82.273,"275": 84.497,"300": 80.548,"325": 69.097,"350": 55.005,"375": 43.357,"400": 35.553,"425": 30.843,"450": 31.074,"475": 29.385,"500": 26.605,"525": 24.811,"550": 24.477,"575": 23.0,"600": 20.026,"625": 18.249,"650": 16.437,"675": 14.625,"700": 12.478,"725": 10.225,"750": 10.102,"775": 8.747,"800": 7.181,"825": 5.949,"850": 5.051,"875": 4.154,"900": 4.031,"925": 3.415,"950": 2.887,"975": 2.464,"1000": 1.936,"1025": 1.778,"1050": 1.725,"1075": 1.391,"1100": 1.303,"1125": 0.915,"1150": 0.845,"1175": 0.511,"1200": 0.598,"1225": 0.546,"1250": 0.546,"1275": 0.405,"1300": 0.352,"1325": 0.299,"1350": 0.158,"1375": 0.176,"1400": 0.123,"1425": 0.07,"1450": 0.053,"1475": 0.018,"1500": 0.018}}}