{"type": "Feature","bbox": [24.2659,-27.4244,25.4215,-26.2052],"geometry": {"type": "MultiPolygon","coordinates": [[[[24.3335,-27.0989,1365.6904],[24.3607,-27.1327,1360.0978],[24.4019,-27.1774,1352.8594],[24.4154,-27.2116,1357.3569],[24.3524,-27.2388,1384.8573],[24.3802,-27.2725,1377.6636],[24.4252,-27.3707,1368.2015],[24.4572,-27.4244,1351.7031],[24.5084,-27.3965,1339.7307],[24.5074,-27.3946,1339.5911],[24.5675,-27.3671,1309.1187],[24.5627,-27.3596,1307.5938],[24.6175,-27.3452,1223.3271],[24.5861,-27.2921,1289.5417],[24.6429,-27.2555,1241.6687],[24.6409,-27.2517,1248.6458],[24.6874,-27.2382,1133.6636],[24.7004,-27.2345,1119.713],[24.703,-27.2403,1117.4556],[24.7047,-27.2394,1116.7917],[24.7085,-27.2477,1117.6855],[24.7177,-27.2684,1125.498],[24.7159,-27.2691,1130.1108],[24.7463,-27.3109,1208.6866],[24.7605,-27.3186,1136.3036],[24.7715,-27.3365,1156.6307],[24.7772,-27.3332,1162.8224],[24.775,-27.3229,1151.2012],[24.7785,-27.3176,1154.0791],[24.7897,-27.3102,1170.7709],[24.7992,-27.3073,1183.7504],[24.8053,-27.2988,1180.0881],[24.8286,-27.2794,1193.9304],[24.8447,-27.2629,1199.6459],[24.8481,-27.2554,1200.4514],[24.8532,-27.2526,1204.726],[24.8608,-27.2378,1233.0864],[24.8703,-27.2085,1242.1713],[24.8953,-27.179,1230.9171],[24.912,-27.1685,1235.9863],[24.9164,-27.1678,1249.7061],[24.9187,-27.1641,1251.6572],[24.9393,-27.1551,1238.9902],[24.9487,-27.1467,1236.7526],[24.965699999999998,-27.1371,1244.6459],[24.9725,-27.1315,1247.8889],[24.9745,-27.1269,1248.9219],[24.9859,-27.1164,1257.8226],[24.9896,-27.1073,1257.23],[24.9962,-27.1034,1262.2576],[25.0073,-27.0933,1283.1865],[25.0382,-27.1354,1352.5879],[25.0764,-27.2015,1345.4268],[25.1323,-27.1681,1359.249],[25.1336,-27.1704,1360.2947],[25.1536,-27.1587,1354.8115],[25.1472,-27.1119,1365.8262],[25.1623,-27.1014,1357.2535],[25.1346,-27.0708,1323.6859],[25.1081,-27.0179,1287.0653],[25.1472,-27.0028,1299.8325],[25.1874,-26.9794,1313.2656],[25.2226,-27.0293,1345.1674],[25.2606,-27.0073,1366.5153],[25.2922,-27.024,1369.0737],[25.3245,-27.0143,1357.7903],[25.3329,-27.0312,1350.4008],[25.3654,-27.0637,1331.7965],[25.3869,-27.0409,1345.0369],[25.3991,-27.0377,1341.4104],[25.3908,-27.0043,1346.7596],[25.3736,-26.9793,1356.6006],[25.3491,-26.9524,1360.2356],[25.3888,-26.9291,1350.2047],[25.4215,-26.9201,1354.3147],[25.3827,-26.8617,1362.0468],[25.3208,-26.8863,1369.2117],[25.2575,-26.8022,1372.4518],[25.2255,-26.8324,1357.1675],[25.1804,-26.8687,1332.6765],[25.0984,-26.8906,1285.6843],[25.0938,-26.8846,1285.329],[25.0963,-26.8736,1289.423],[25.0994,-26.8355,1302.2933],[25.1078,-26.8192,1307.1058],[25.1109,-26.8081,1310.062],[25.1237,-26.7927,1313.7761],[25.1331,-26.7718,1321.7102],[25.1343,-26.7607,1327.0538],[25.1418,-26.7426,1334.9384],[25.1476,-26.714,1345.7825],[25.1526,-26.7077,1348.9279],[25.1688,-26.6766,1361.4612],[25.1787,-26.6625,1368.1976],[25.1743,-26.6529,1366.4594],[25.1628,-26.6047,1370.0724],[25.1696,-26.5844,1373.0216],[25.1688,-26.5635,1370.0715],[25.177,-26.559,1369.2771],[25.1697,-26.5199,1359.9016],[25.0957,-26.5356,1370.271],[25.0662,-26.5503,1357.5128],[25.0407,-26.5014,1354.8856],[25.0701,-26.4862,1366.422],[25.0455,-26.4364,1300.626],[25.0259,-26.4478,1317.4408],[24.9912,-26.3909,1296.3456],[24.9661,-26.4044,1290.5656],[24.9302,-26.4206,1302.1954],[24.9007,-26.3634,1260.1787],[24.8578,-26.395,1285.8892],[24.8523,-26.3813,1273.7874],[24.8336,-26.3829,1268.0732],[24.8358,-26.3707,1261.9841],[24.8476,-26.3681,1258.4404],[24.8317,-26.327,1267.1361],[24.8048,-26.2769,1257.8835],[24.7892,-26.2437,1238.5841],[24.7642,-26.2052,1208.9993],[24.6903,-26.2342,1259.0627],[24.6351,-26.2697,1253.8735],[24.6589,-26.2958,1266.6737],[24.6779,-26.3291,1264.5483],[24.6278,-26.3515,1269.2234],[24.5361,-26.4017,1236.8862],[24.5622,-26.4535,1271.1857],[24.6022,-26.5154,1322.2749],[24.6574,-26.4858,1310.2601],[24.6928,-26.549,1322.4152],[24.7292,-26.5964,1302.0922],[24.7613,-26.5801,1302.2405],[24.7531,-26.5704,1306.6483],[24.7633,-26.5649,1307.207],[24.7717,-26.5748,1304.5132],[24.7688,-26.5763,1303.9215],[24.7714,-26.5813,1303.0679],[24.7531,-26.590699999999998,1299.5803],[24.7803,-26.6426,1287.2955],[24.7015,-26.6855,1281.2743],[24.5796,-26.74,1252.7524],[24.5097,-26.7672,1275.7423],[24.4547,-26.7963,1289.1826],[24.3965,-26.824,1333.7263],[24.3336,-26.8594,1334.3785],[24.277,-26.8832,1336.5106],[24.3044,-26.9429,1319.1506],[24.2659,-26.9606,1318.5525],[24.3086,-27.0187,1344.3165],[24.3098,-27.0182,1342.7733],[24.3414,-27.068,1346.504],[24.3198,-27.0821,1363.6329],[24.3335,-27.0989,1365.6904]]]]}
,"properties": {"GID_3": "ZAF.7.3.5_1","GID_0": "ZAF","country": "SouthAfrica","GID_1": "ZAF.7_1","province": "NorthWest","NL_NAME_1": "NA","GID_2": "ZAF.7.3_1","county": "DrRuthSegomotsiMompati","NL_NAME_2": "NA","city": "Naledi","VARNAME_3": "NA","NL_NAME_3": "NA","TYPE_3": "LocalMunicipality","ENGTYPE_3": "LocalMunicipality","CC_3": "NW392","HASC_3": "NA","name": "Naledi.city","area_km2": 6954.199,"hist_schema_id": "Elevation0-9000","hist_area_km2": {"1100": 13.987,"1125": 82.327,"1150": 110.745,"1175": 276.963,"1200": 379.941,"1225": 644.53,"1250": 972.177,"1275": 1138.067,"1300": 1214.918,"1325": 1038.478,"1350": 742.51,"1375": 339.311,"1400": 0.246}}}