{"type":"Feature","properties":{"featurecla":"River","scalerank":7,"rivernum":560,"dissolve":"560River","name":"Tugela2","name_alt":null,"note":null,"min_zoom":6.0,"strokeweig":0.25,"name_en":"Tugela","min_label":7.0},
"geometry":{"type": "LineString","coordinates": [[31.035400390625,-28.87395598750588,200.963],[31.035400390625,-28.90935637813088,188.375],[31.037988281250023,-28.92644622188088,215.5668],[31.040625,-28.932452081255889,240.5727],[31.046142578125,-28.93962981563088,184.3933],[31.053955078125,-28.94500090938088,186.3623],[31.0615234375,-28.947588800005889,189.7759],[31.067138671875,-28.951202081255886,179.7465],[31.071875,-28.96843840938088,181.2339],[31.078222656250006,-28.97405364375588,178.0056],[31.087158203125,-28.97698333125588,158.4504],[31.097363281250011,-28.977569268755886,166.608],[31.09521484375,-28.970733331255886,195.6568],[31.092675781250023,-28.956377862505889,150.3337],[31.090576171875,-28.94963958125588,183.1081],[31.09921875,-28.95452239375588,164.8009],[31.118896484375,-28.960479425005886,141.1602],[31.128173828125,-28.96672942500588,131.9089],[31.12841796875,-28.97283294063088,131.1053],[31.124609375,-28.99627044063088,184.3967],[31.124755859375,-29.00481536250588,151.6521],[31.136132812500023,-29.01921965938088,218.4171],[31.169921875,-29.04656340938088,113.1518],[31.173242187500023,-29.05950286250588,160.5377],[31.218847656250006,-29.09514739375588,205.0048],[31.231201171875,-29.10100676875588,145.1043],[31.235595703125,-29.104522393755886,102.557],[31.2515625,-29.12273528438088,106.7592],[31.255078125000011,-29.13079192500588,290.0021],[31.259521484375,-29.13469817500588,241.7224],[31.26953125,-29.12810637813088,109.9328],[31.2861328125,-29.114092706255889,55.1601],[31.299902343750006,-29.12029387813088,163.0828],[31.295996093750006,-29.134600518755889,67.7764],[31.287988281250023,-29.150420831255886,71.5288],[31.289306640625,-29.16130950313088,95.8082],[31.300048828125,-29.16326262813088,102.2971],[31.308203125,-29.15837981563088,84.1939],[31.317138671875,-29.148272393755889,51.2766],[31.326562500000023,-29.14983489375588,44.5531],[31.3408203125,-29.15764739375588,108.9002],[31.351318359375,-29.16130950313088,82.027],[31.34814453125,-29.144073175005886,30.0],[31.35703125,-29.135772393755886,32.3808],[31.371679687500006,-29.135284112505886,44.5356],[31.385351562500006,-29.141436456255889,66.655],[31.380078125000011,-29.168780206255889,37.8864],[31.439843750000023,-29.17693450313088,13.0222],[31.433203125,-29.20281340938088,41.7255],[31.4462890625,-29.206573175005886,37.4676],[31.473388671875,-29.21111419063088,19.1845],[31.481542968750006,-29.217120050005889,4.5295]]}}