{"type":"Feature","properties":{"featurecla":"River","scalerank":7,"rivernum":560,"dissolve":"560River","name":"Tugela1","name_alt":null,"note":null,"min_zoom":6.0,"strokeweig":0.2,"name_en":"Tugela","min_label":7.0},
"geometry":{"type": "LineString","coordinates": [[29.433496093750023,-28.66106536250588,1108.4294],[29.4423828125,-28.660674737505886,1094.5704],[29.445214843750023,-28.660967706255889,1088.7693],[29.453125,-28.66350676875588,1073.4541],[29.468359375,-28.67131926875588,1107.6515],[29.4765625,-28.67424895625588,1103.7855],[29.485742187500023,-28.67546965938088,1107.8071],[29.505078125000011,-28.674151300005889,1092.9558],[29.524316406250023,-28.67009856563088,1075.6091],[29.54296875,-28.663897393755889,1048.5884],[29.552734375,-28.662627862505886,1044.0044],[29.578320312500011,-28.664385675005889,1083.9268],[29.587890625,-28.663116143755886,1057.1179],[29.592041015625,-28.661455987505889,1036.6462],[29.594335937500006,-28.65960051875588,1052.0812],[29.596923828125,-28.65911223750588,1035.9579],[29.601806640625,-28.661455987505889,1019.718],[29.605078125,-28.66497161250588,1023.9132],[29.607519531250006,-28.670245050005889,1033.3958],[29.6109375,-28.680498956255889,1017.948],[29.639404296875,-28.72795989375588,1023.0564],[29.648828125000023,-28.739776300005886,1004.4257],[29.660839843750011,-28.74700286250588,1002.4465],[29.67822265625,-28.74920012813088,971.6451],[29.747949218750023,-28.737139581255889,961.3156],[29.756103515625,-28.73430755000588,971.5971],[29.77099609375,-28.726885675005889,986.7692],[29.779199218750023,-28.72454192500588,971.5674],[29.787353515625,-28.724444268755889,963.8559],[29.802636718750023,-28.726104425005886,990.3787],[29.811132812500006,-28.724444268755889,968.69],[29.826269531250006,-28.71502044063088,982.521],[29.85888671875,-28.67205169063088,990.0864],[29.870214843750006,-28.660967706255889,974.1603],[29.879980468750006,-28.655108331255889,932.3724],[29.891357421875,-28.65374114375588,1079.1418],[29.933007812500023,-28.661651300005886,881.9276],[29.944042968750011,-28.66057708125588,955.0636],[29.95849609375,-28.655791925005886,914.1915],[29.97998046875,-28.645830987505889,786.6978],[29.990820312500006,-28.643389581255889,772.9738],[30.003662109375,-28.645342706255889,938.314],[30.012597656250023,-28.649737237505889,852.1786],[30.01611328125,-28.65447356563088,805.2273],[30.018164062500006,-28.66033294063088,861.7169],[30.022216796875,-28.667803643755889,857.1124],[30.027441406250006,-28.672686456255889,869.6395],[30.07275390625,-28.699541925005889,817.2271],[30.086035156250006,-28.703448175005889,982.3309],[30.102148437500006,-28.705889581255889,1039.0515],[30.11875,-28.710967706255886,1015.8718],[30.13046875,-28.720733331255886,672.5507],[30.140869140625,-28.73211028438088,712.5643],[30.153564453125,-28.74260833125588,774.7128],[30.171630859375,-28.747393487505889,633.9642],[30.188085937500006,-28.74212005000588,651.7803],[30.2041015625,-28.732745050005889,723.9233],[30.220458984375,-28.72551848750588,818.3302],[30.248437500000023,-28.72380950313088,781.7633],[30.261328125,-28.721221612505886,675.3727],[30.271875,-28.712725518755889,688.3411],[30.274658203125,-28.701690362505886,676.8979],[30.27490234375,-28.689288018755889,625.4691],[30.2783203125,-28.679522393755889,614.9919],[30.290917968750023,-28.676299737505886,955.2037],[30.2998046875,-28.678741143755886,695.3562],[30.333886718750023,-28.70281340938088,644.3622],[30.34033203125,-28.709307550005889,890.5901],[30.345898437500011,-28.71648528438088,703.0706],[30.358642578125,-28.74016692500588,670.1622],[30.36376953125,-28.74651458125588,548.2816],[30.37060546875,-28.75164153438088,567.7374],[30.3876953125,-28.756670831255889,565.1729],[30.405371093750006,-28.755401300005886,542.3145],[30.45556640625,-28.74016692500588,722.2222],[30.467480468750011,-28.741045831255889,695.2548],[30.49365234375,-28.75286223750588,588.3687],[30.509375,-28.757354425005886,639.5288],[30.525781250000023,-28.757647393755889,530.9936],[30.558496093750023,-28.751788018755889,555.4307],[30.643798828125,-28.72356536250588,507.6835],[30.671972656250006,-28.71892669063088,879.7433],[30.683984375000023,-28.71892669063088,560.9642],[30.697656250000023,-28.72087981563088,493.3514],[30.709716796875,-28.725909112505889,475.1632],[30.717480468750011,-28.735381768755886,619.8961],[30.717382812500006,-28.746416925005889,428.9704],[30.711035156250006,-28.755205987505889,797.7631],[30.703027343750023,-28.763702081255886,557.6838],[30.698339843750006,-28.77410247188088,416.8424],[30.700292968750006,-28.780791925005886,418.294],[30.706445312500023,-28.78460051875588,409.4175],[30.715039062500011,-28.786455987505889,475.5566],[30.724511718750023,-28.78679778438088,665.3499],[30.734472656250006,-28.785186456255886,702.5642],[30.741455078125,-28.78069426875588,393.7042],[30.746972656250023,-28.77385833125588,501.6262],[30.752197265625,-28.764971612505889,498.241],[30.755273437500023,-28.756182550005889,659.0054],[30.75830078125,-28.735674737505889,377.6374],[30.760839843750006,-28.72918059688088,411.2355],[30.769433593750023,-28.724639581255886,383.3221],[30.77890625,-28.72576262813088,405.621],[30.7880859375,-28.73015715938088,363.9407],[30.79541015625,-28.735674737505889,423.1978],[30.801171875000023,-28.743194268755886,699.219],[30.809472656250023,-28.76067473750588,450.6456],[30.814160156250011,-28.76702239375588,582.9014],[30.82177734375,-28.769854425005889,577.3184],[30.83251953125,-28.770830987505889,369.6956],[30.843652343750023,-28.77044036250588,405.7285],[30.85205078125,-28.769073175005886,629.0753],[30.869726562500006,-28.76165130000588,388.7972],[30.878515625,-28.75994231563088,372.076],[30.8896484375,-28.76238372188088,292.9691],[30.89892578125,-28.77263762813088,288.015],[30.899023437500006,-28.787627862505886,401.3676],[30.896875,-28.804229425005886,529.0289],[30.8994140625,-28.81926848750588,319.9876],[30.91064453125,-28.833330987505889,338.7053],[30.918701171875,-28.83196380000588,309.1593],[30.93359375,-28.813018487505886,281.9637],[30.9521484375,-28.795733331255889,324.358],[30.962890625,-28.79168059688088,251.7445],[30.980712890625,-28.79192473750588,281.2581],[30.973876953125,-28.79192473750588,275.7354],[30.984277343750023,-28.798174737505889,273.0817],[30.985449218750006,-28.803252862505886,232.1888],[30.982666015625,-28.80803801875588,253.0248],[30.980712890625,-28.813018487505886,272.6592],[30.978759765625,-28.81707122188088,272.0722],[30.96923828125,-28.819659112505889,273.1166],[30.967187500000023,-28.82268645625588,306.9192],[30.968164062500023,-28.828643487505886,237.6213],[30.970605468750023,-28.83196380000588,259.6144],[30.972753906250006,-28.834014581255886,280.3754],[30.973876953125,-28.83660247188088,239.4399],[30.982421875,-28.847198175005886,303.6458],[31.022216796875,-28.86345794063088,232.3408],[31.035400390625,-28.87395598750588,200.963]]}}