{"type":"Feature","properties":{"featurecla":"River","scalerank":8,"rivernum":664,"dissolve":"664River","name":"Pongola1","name_alt":null,"note":null,"min_zoom":7.0,"strokeweig":0.15,"name_en":"Pongola","min_label":8.0},
"geometry":{"type": "LineString","coordinates": [[30.387792968750006,-27.33098723750588,1354.7169],[30.418554687500006,-27.345245050005886,1331.8159],[30.515380859375,-27.34197356563088,1191.8513],[30.586328125000023,-27.35930755000588,1151.4008],[30.611083984375,-27.35735442500588,1171.6697],[30.63232421875,-27.34905364375588,1127.3397],[30.647705078125,-27.337432550005886,1110.2135],[30.67578125,-27.308428643755889,1099.2598],[30.702050781250023,-27.292998956255886,1097.8685],[30.729882812500023,-27.291338800005889,1116.6058],[30.75830078125,-27.298663018755889,1094.2407],[30.794824218750023,-27.31487395625588,1073.6382],[30.818359375,-27.328643487505886,1059.0791],[30.8330078125,-27.33440520625588,1081.2725],[30.842675781250023,-27.33196380000588,1053.0779],[30.851318359375,-27.32561614375588,1004.7034],[30.863525390625,-27.319170831255889,976.2524],[30.9013671875,-27.311358331255889,994.4769],[30.9169921875,-27.318877862505886,984.662],[30.92822265625,-27.334502862505886,947.8982],[30.953515625000023,-27.35125090938088,975.3988],[30.979882812500023,-27.354815362505889,915.8213],[31.060644531250006,-27.33538176875588,831.634],[31.07666015625,-27.337920831255886,703.4781],[31.0791015625,-27.347002862505889,649.5372],[31.07568359375,-27.35759856563088,665.5562],[31.074462890625,-27.364776300005886,909.4977]]}}