{"type":"Feature","properties":{"featurecla":"River","scalerank":7,"rivernum":560,"dissolve":"560River","name":"Tugela","name_alt":null,"note":null,"min_zoom":6.0,"strokeweig":0.15,"name_en":"Tugela","min_label":7.0},
"geometry":{"type": "LineString","coordinates": [[29.433496093750023,-28.66106536250588,1108.4294],[29.420312500000023,-28.668291925005889,1119.7126],[29.409423828125,-28.682452081255889,1153.5715],[29.392333984375,-28.700030206255889,1162.4618],[29.360253906250023,-28.71721770625588,1165.676],[29.352929687500023,-28.72283294063088,1125.2825],[29.3453125,-28.73772551875588,1130.4154],[29.335839843750023,-28.74382903438088,1138.8021],[29.3095703125,-28.749346612505889,1150.0712],[29.2822265625,-28.75969817500588,1188.9546],[29.265380859375,-28.76311614375588,1193.8674],[29.249755859375,-28.759112237505889,1137.5878],[29.23486328125,-28.74382903438088,1174.0],[29.218994140625,-28.71502044063088,1174.0],[29.21142578125,-28.707354425005889,1192.8682],[29.203027343750023,-28.70281340938088,1231.0737],[29.177001953125,-28.697100518755889,1175.837],[29.155029296875,-28.68450286250588,1174.0],[29.123046875,-28.64251067500588,1177.6171],[29.100830078125,-28.62957122188088,1260.7474],[29.074462890625,-28.62859465938088,1286.276],[29.051367187500006,-28.636065362505889,1244.9147],[29.004785156250023,-28.65935637813088,1403.5323]]}}