{"type":"Feature","properties":{"GID_3":"ZAF.4.8.1_1","GID_0":"ZAF","country":"SouthAfrica","GID_1":"ZAF.4_1","province":"KwaZulu-Natal","NL_NAME_1":"NA","GID_2":"ZAF.4.8_1","county":"Umzinyathi","NL_NAME_2":"NA","city":"Endumeni","VARNAME_3":"NA","NL_NAME_3":"NA","TYPE_3":"LocalMunicipality","ENGTYPE_3":"LocalMunicipality","CC_3":"KZN241","HASC_3":"NA","name":"Endumeni.city"},
"geometry":{"type": "MultiPolygon","coordinates": [[[[29.9959,-28.1898,1650.2916],[29.9904,-28.1849,1631.1421],[29.9781,-28.2065,1516.2765],[29.9859,-28.2204,1462.9258],[29.9768,-28.2396,1290.7109],[29.9912,-28.2531,1281.0198],[30.0342,-28.2712,1216.3257],[30.0654,-28.3051,1184.7811],[30.067,-28.3278,1226.6611],[30.0737,-28.345,1180.3229],[30.0715,-28.352,1207.4376],[30.0786,-28.3494,1108.5382],[30.0755,-28.3578,1124.0138],[30.0959,-28.3631,1254.2487],[30.0989,-28.3673,1253.3662],[30.128,-28.3492,1279.2377],[30.1251,-28.3438,1238.0796],[30.1356,-28.3405,1080.8547],[30.1402,-28.3432,1070.6101],[30.1426,-28.3418,1064.79],[30.1597,-28.3458,1097.2017],[30.153,-28.3601,1024.9071],[30.1743,-28.3693,1060.2142],[30.1754,-28.3711,1053.2029],[30.175,-28.3872,1048.2313],[30.1623,-28.3888,1022.1583],[30.1704,-28.4148,998.5772],[30.1627,-28.4228,1012.5713],[30.1726,-28.4221,1005.1655],[30.1781,-28.4397,1006.7727],[30.2152,-28.3928,1089.5636],[30.2336,-28.4087,1096.5446],[30.2776,-28.3643,1405.0],[30.2932,-28.3259,1458.0948],[30.3057,-28.3327,1373.6141],[30.3193,-28.2995,1467.2745],[30.3187,-28.2707,1415.9028],[30.3519,-28.2665,1454.9857],[30.3609,-28.2943,1351.9392],[30.3926,-28.2752,1363.2397],[30.4097,-28.2927,1384.344],[30.4204,-28.2806,1339.5497],[30.4492,-28.2819,1301.229],[30.4556,-28.2668,1154.6838],[30.4612,-28.2617,1133.7378],[30.4809,-28.2656,1129.541],[30.5057,-28.2627,1077.0422],[30.5018,-28.2584,1079.601],[30.5017,-28.2536,1077.9604],[30.5071,-28.2522,1083.1107],[30.5109,-28.2438,1080.5469],[30.5153,-28.2432,1084.3296],[30.5163,-28.2416,1084.4734],[30.5141,-28.2376,1082.1238],[30.5077,-28.238,1082.5367],[30.5089,-28.2311,1087.8191],[30.5177,-28.2327,1084.2413],[30.5207,-28.2275,1092.3772],[30.5269,-28.2244,1091.0139],[30.5285,-28.2211,1100.3944],[30.5356,-28.2207,1098.4575],[30.5358,-28.2143,1101.4661],[30.5302,-28.2073,1105.335],[30.5368,-28.1999,1106.1466],[30.542,-28.1982,1108.949],[30.543,-28.1958,1113.2466],[30.5403,-28.1923,1107.9159],[30.5429,-28.1905,1112.8878],[30.5412,-28.1873,1115.386],[30.5439,-28.1867,1111.6531],[30.5433,-28.1844,1109.6935],[30.5416,-28.1839,1111.7572],[30.5361,-28.1871,1113.8027],[30.5334,-28.1947,1121.0066],[30.53,-28.195,1121.1591],[30.5315,-28.1905,1119.1528],[30.5301,-28.1878,1141.1677],[30.5241,-28.189,1120.9011],[30.5223,-28.1863,1125.0872],[30.5223,-28.1796,1124.5636],[30.5177,-28.178,1126.3608],[30.5134,-28.1716,1124.6501],[30.5231,-28.166,1131.7671],[30.5213,-28.1627,1136.4268],[30.5234,-28.1602,1136.8333],[30.5264,-28.1603,1137.0267],[30.5301,-28.1539,1137.076],[30.528,-28.1518,1136.9352],[30.5288,-28.1404,1141.9767],[30.5334,-28.1385,1142.3428],[30.5384,-28.1388,1151.6805],[30.5411,-28.143,1160.4403],[30.5437,-28.1438,1150.2124],[30.5457,-28.1393,1149.8926],[30.5443,-28.1369,1150.4417],[30.5499,-28.1353,1150.9807],[30.5419,-28.124,1156.1512],[30.5433,-28.11,1153.9314],[30.5462,-28.1097,1155.5548],[30.5443,-28.108,1154.6345],[30.5432,-28.0965,1156.8844],[30.5352,-28.0944,1156.4821],[30.5365,-28.0929,1157.9222],[30.5352,-28.0904,1156.8048],[30.5395,-28.0901,1158.3136],[30.5391,-28.0855,1157.4622],[30.5408,-28.0863,1158.1897],[30.5443,-28.0819,1169.7954],[30.5413,-28.0725,1163.8158],[30.5429,-28.071,1158.9575],[30.5504,-28.0728,1161.1882],[30.5545,-28.0679,1163.4532],[30.5585,-28.0679,1161.5105],[30.5568,-28.0656,1162.2365],[30.559,-28.0646,1161.2257],[30.5627,-28.0648,1162.7136],[30.562,-28.0663,1161.6821],[30.5661,-28.069,1162.0112],[30.5707,-28.0576,1171.7393],[30.5741,-28.0554,1164.6926],[30.5761,-28.0576,1164.1064],[30.578,-28.0571,1164.6418],[30.5777,-28.0535,1164.8246],[30.5798,-28.0495,1164.2928],[30.575,-28.0433,1165.7615],[30.5705,-28.0428,1165.6678],[30.568,-28.0403,1168.6682],[30.5705,-28.0307,1166.2603],[30.5696,-28.0288,1168.1758],[30.5651,-28.0278,1166.399],[30.5664,-28.0215,1167.4773],[30.5628,-28.0187,1168.316],[30.5645,-28.0159,1167.6252],[30.5631,-28.0142,1168.4365],[30.5671,-28.0135,1169.8503],[30.5653,-28.0115,1168.3101],[30.5701,-28.0096,1173.4895],[30.5307,-28.0039,1224.7559],[30.4825,-27.9853,1522.3856],[30.4572,-27.9862,1433.2483],[30.4324,-27.9737,1215.4734],[30.3862,-27.9306,1212.6725],[30.3533,-27.9347,1206.2126],[30.2965,-27.9309,1176.7269],[30.2923,-27.9512,1149.8086],[30.2953,-27.9575,1145.7479],[30.3081,-27.9611,1145.0256],[30.315,-27.9609,1146.9756],[30.3159,-27.9646,1149.4565],[30.3053,-27.9761,1157.5721],[30.2823,-27.9825,1209.2731],[30.2584,-27.9787,1236.1802],[30.2453,-27.9953,1308.5991],[30.2469,-28.0095,1464.7745],[30.2553,-28.0352,1482.3833],[30.2841,-28.0419,1392.2729],[30.2792,-28.0494,1416.944],[30.2794,-28.0511,1436.301],[30.2709,-28.0557,1283.9005],[30.2558,-28.0779,1237.3853],[30.2385,-28.0731,1234.2438],[30.1977,-28.0715,1277.2478],[30.1934,-28.0795,1305.9207],[30.1901,-28.0956,1349.9171],[30.201,-28.099,1421.536],[30.2013,-28.1033,1574.2401],[30.1909,-28.1063,1575.2886],[30.1889,-28.1088,1563.585],[30.1918,-28.1166,1508.2854],[30.1809,-28.146,1346.8301],[30.1842,-28.1615,1261.887],[30.1657,-28.1616,1281.9641],[30.1619,-28.1566,1343.0786],[30.1581,-28.1449,1368.3236],[30.1461,-28.1465,1358.6193],[30.1413,-28.1346,1345.098],[30.1238,-28.1294,1368.9899],[30.1182,-28.1533,1318.3044],[30.1292,-28.1536,1349.6476],[30.1321,-28.1774,1379.8615],[30.0723,-28.1649,1352.5909],[30.0484,-28.1653,1351.6931],[30.0156,-28.1531,1361.8396],[29.9959,-28.1898,1650.2916]]]]}}