{"type":"Feature","properties":{"GID_2":"ZAF.7.2_1","GID_0":"ZAF","country":"SouthAfrica","GID_1":"ZAF.7_1","province":"NorthWest","NL_NAME_1":"NA","county":"DrKennethKaunda","VARNAME_2":"NA","NL_NAME_2":"NA","TYPE_2":"DistrictMunicipality","ENGTYPE_2":"DistrictMunicipality","CC_2":"DC40","HASC_2":"ZA.NW.KK","name":"Dr_Kenneth_Kaunda.county"},
"geometry":{"type": "MultiPolygon","coordinates": [[[[26.084,-27.5961,1226.5],[26.0882,-27.5939,1226.5],[26.105,-27.5956,1229.3899],[26.1133,-27.5933,1227.0],[26.1245,-27.5806,1228.583],[26.1221,-27.5724,1235.1646],[26.1238,-27.5669,1227.7124],[26.134,-27.5585,1227.0],[26.1403,-27.5576,1228.4506],[26.1451,-27.5626,1231.0427],[26.1536,-27.564,1228.4504],[26.1631,-27.5517,1228.6227],[26.168,-27.538,1230.1487],[26.1701,-27.5361,1228.6056],[26.1861,-27.5315,1231.3556],[26.2018,-27.5168,1230.8456],[26.2222,-27.5145,1230.8239],[26.2288,-27.5123,1228.0],[26.2312,-27.4954,1232.421],[26.2208,-27.4833,1229.1272],[26.22,-27.4739,1231.6978],[26.2339,-27.4542,1228.0],[26.2416,-27.432,1228.2986],[26.245,-27.4299,1229.9636],[26.2529,-27.4295,1230.0808],[26.2635,-27.4169,1228.6993],[26.2677,-27.4163,1232.3167],[26.2761,-27.4211,1229.5785],[26.2862,-27.4222,1229.72],[26.2929,-27.416,1231.4103],[26.3088,-27.4178,1234.543],[26.3136,-27.4224,1230.3219],[26.3168,-27.4314,1232.578],[26.3211,-27.4334,1233.4055],[26.3241,-27.4329,1230.9971],[26.3266,-27.4292,1229.5],[26.3279,-27.42,1234.8212],[26.3272,-27.4058,1230.0],[26.3354,-27.3984,1232.8676],[26.3396,-27.3894,1238.7032],[26.3467,-27.3853,1233.9377],[26.3616,-27.3893,1237.8157],[26.3724,-27.3838,1243.5021],[26.3802,-27.3884,1240.3531],[26.388,-27.3895,1245.1881],[26.3943,-27.394,1239.6667],[26.4165,-27.4027,1240.8762],[26.4231,-27.4069,1237.0],[26.435,-27.3988,1238.8982],[26.4452,-27.3881,1240.9333],[26.4519,-27.3857,1240.3621],[26.4589,-27.3866,1240.8647],[26.4683,-27.3912,1242.8276],[26.4976,-27.3957,1237.75],[26.5052,-27.3983,1244.6287],[26.5104,-27.3962,1239.6378],[26.5138,-27.3903,1238.0],[26.5142,-27.3868,1240.4218],[26.5128,-27.3848,1244.5618],[26.4995,-27.3797,1238.0],[26.4847,-27.3799,1239.0897],[26.4763,-27.3718,1240.0974],[26.462,-27.3657,1238.5],[26.4464,-27.3497,1264.9631],[26.4472,-27.344,1242.3799],[26.4555,-27.3374,1244.644],[26.4582,-27.3262,1240.0872],[26.4738,-27.3123,1243.782],[26.4755,-27.3083,1239.5],[26.4814,-27.3067,1242.7383],[26.4848,-27.3091,1244.1195],[26.4849,-27.3135,1241.2705],[26.4791,-27.3189,1242.9653],[26.4808,-27.3232,1243.1609],[26.4849,-27.3239,1240.0],[26.4934,-27.3191,1240.0],[26.4939,-27.3083,1240.0],[26.4883,-27.2963,1248.3486],[26.4885,-27.2861,1240.5],[26.4889,-27.2833,1240.5],[26.4962,-27.2738,1245.8837],[26.4972,-27.2678,1243.0],[26.4946,-27.2591,1249.4307],[26.4888,-27.2506,1246.5269],[26.4768,-27.2446,1249.9841],[26.4639,-27.2298,1247.6923],[26.4547,-27.2228,1247.5],[26.4437,-27.2174,1248.125],[26.4377,-27.21,1252.1207],[26.4328,-27.1901,1252.0814],[26.4272,-27.1852,1251.0],[26.4243,-27.1775,1253.1996],[26.4202,-27.1725,1260.718],[26.4201,-27.1684,1260.3003],[26.4255,-27.1536,1255.0],[26.4289,-27.1502,1256.3724],[26.4407,-27.15,1257.2891],[26.4592,-27.158,1260.3958],[26.4731,-27.1542,1261.8438],[26.4763,-27.1485,1259.4568],[26.4781,-27.1373,1259.4264],[26.4836,-27.131,1260.8325],[26.4874,-27.13,1261.4946],[26.4984,-27.1329,1264.1023],[26.507,-27.1272,1262.5],[26.5142,-27.1189,1264.0],[26.5221,-27.1037,1264.0],[26.5242,-27.0959,1265.9371],[26.5287,-27.091,1268.8367],[26.5385,-27.0903,1270.2322],[26.549,-27.0986,1269.2277],[26.5684,-27.1026,1268.0],[26.5835,-27.108,1272.8777],[26.5869,-27.1034,1274.2526],[26.5881,-27.0954,1271.0319],[26.5938,-27.0793,1270.5],[26.5924,-27.0709,1270.5],[26.5902,-27.0672,1271.0],[26.5836,-27.0634,1272.7889],[26.5815,-27.0598,1271.125],[26.5818,-27.0531,1273.0144],[26.5926,-27.0378,1277.2964],[26.6135,-27.0271,1279.4294],[26.6193,-27.0034,1274.0],[26.6361,-27.0034,1277.733],[26.646,-27.0004,1276.2084],[26.6589,-26.9938,1277.0],[26.6688,-26.9946,1284.6466],[26.6728,-26.9964,1287.209],[26.6763,-27.0008,1282.7048],[26.6765,-27.0102,1280.0],[26.6789,-27.0146,1281.8761],[26.6842,-27.0176,1284.3589],[26.6887,-27.018,1285.3481],[26.6966,-27.0139,1282.5117],[26.7006,-27.0086,1289.9839],[26.7064,-26.988,1284.3191],[26.711,-26.978,1287.3748],[26.7155,-26.9739,1282.0],[26.7411,-26.9649,1286.3475],[26.7496,-26.9651,1287.3854],[26.7552,-26.9619,1287.1761],[26.7615,-26.9525,1288.8711],[26.7667,-26.9481,1287.688],[26.7896,-26.9429,1282.5],[26.805,-26.932,1285.7845],[26.8098,-26.9317,1284.4988],[26.8117,-26.9342,1285.915],[26.8094,-26.9472,1290.5592],[26.8114,-26.9513,1286.5015],[26.8183,-26.9532,1285.2538],[26.8306,-26.9493,1285.3162],[26.8424,-26.9421,1286.1807],[26.8485,-26.9402,1283.7668],[26.858,-26.922,1289.3274],[26.8635,-26.9189,1283.0],[26.8682,-26.9196,1284.2825],[26.8743,-26.9238,1285.3523],[26.8755,-26.9263,1284.0957],[26.8748,-26.9301,1290.6731],[26.8804,-26.9349,1287.5968],[26.8961,-26.9351,1286.1985],[26.9076,-26.9445,1289.5696],[26.9097,-26.9525,1294.0563],[26.909,-26.9613,1293.9241],[26.9169,-26.9725,1292.0],[26.92,-26.9735,1293.2188],[26.9231,-26.969,1293.1128],[26.925,-26.9573,1292.0],[26.9233,-26.9434,1292.0],[26.9246,-26.9303,1296.3191],[26.9202,-26.906,1298.8055],[26.9272,-26.8871,1292.7675],[26.9404,-26.8715,1296.6897],[26.951,-26.8749,1295.5001],[26.9513,-26.8783,1296.4915],[26.9472,-26.892,1297.7122],[26.9561,-26.9002,1293.4714],[26.9748,-26.9121,1293.281],[27.0052,-26.9254,1293.0441],[27.0139,-26.9321,1294.5231],[27.028199999999998,-26.9359,1294.0],[27.04,-26.9382,1297.7168],[27.0506,-26.9367,1294.5],[27.0646,-26.9373,1295.0],[27.0734,-26.9348,1299.5306],[27.0868,-26.9385,1298.4562],[27.0949,-26.931,1301.124],[27.113,-26.9263,1302.2308],[27.1435,-26.9419,1298.5],[27.1537,-26.937,1301.9166],[27.1618,-26.9259,1301.5],[27.1647,-26.9241,1312.4106],[27.1701,-26.923,1306.5024],[27.1764,-26.9249,1304.4359],[27.1813,-26.9274,1303.875],[27.1829,-26.9304,1304.9729],[27.1818,-26.9407,1307.0278],[27.1832,-26.9503,1310.9332],[27.1815,-26.9577,1309.8218],[27.1752,-26.9636,1309.125],[27.174,-26.9685,1309.75],[27.1901,-26.9775,1315.7927],[27.207,-26.9802,1313.5],[27.2121,-26.9762,1314.5],[27.2111,-26.9624,1319.3046],[27.2175,-26.9461,1324.6832],[27.2295,-26.939,1318.855],[27.2344,-26.9274,1321.8759],[27.2416,-26.9187,1318.8761],[27.2469,-26.9144,1320.5582],[27.255,-26.9126,1318.063],[27.2621,-26.9082,1332.3287],[27.2704,-26.8915,1327.7861],[27.278199999999998,-26.8881,1316.5],[27.2821,-26.8836,1318.2429],[27.2898,-26.8794,1317.406],[27.2921,-26.8694,1320.27],[27.2995,-26.8631,1333.076],[27.301,-26.8605,1320.812],[27.3003,-26.8566,1320.2119],[27.3022,-26.8547,1322.6187],[27.3141,-26.8527,1323.451],[27.3328,-26.8542,1324.2788],[27.3402,-26.8609,1326.8959],[27.3395,-26.8685,1324.0],[27.340699999999998,-26.872,1326.0558],[27.3553,-26.8824,1327.9563],[27.3608,-26.8843,1331.1957],[27.3651,-26.891,1328.5],[27.3684,-26.8917,1330.5659],[27.3678,-26.8956,1334.4939],[27.3709,-26.9042,1329.5],[27.3766,-26.9049,1335.0002],[27.3808,-26.9009,1332.939],[27.3842,-26.9004,1337.2599],[27.389,-26.9039,1336.9402],[27.3913,-26.9138,1349.5957],[27.3983,-26.916,1353.0449],[27.4003,-26.9222,1352.4678],[27.4075,-26.9258,1356.2368],[27.4143,-26.9257,1370.8699],[27.4238,-26.9192,1370.6564],[27.44,-26.8995,1370.2308],[27.4442,-26.9004,1365.4091],[27.4552,-26.8906,1377.9594],[27.4713,-26.8868,1382.7712],[27.476,-26.8835,1386.145],[27.4809,-26.8634,1388.5],[27.4875,-26.8494,1391.1746],[27.491,-26.8466,1393.5273],[27.4997,-26.845,1394.73],[27.5112,-26.8378,1392.9558],[27.5108,-26.8255,1396.3798],[27.5182,-26.8102,1399.8181],[27.5153,-26.804,1394.5],[27.5059,-26.7948,1401.7098],[27.5056,-26.792,1398.6752],[27.5094,-26.7858,1403.4814],[27.5195,-26.7819,1400.7413],[27.5296,-26.7848,1399.2841],[27.5378,-26.7851,1398.0],[27.5498,-26.7752,1414.6506],[27.5557,-26.7732,1405.2574],[27.5699,-26.7812,1405.8359],[27.5816,-26.7739,1402.3539],[27.5823,-26.7679,1401.5],[27.5702,-26.7551,1402.5],[27.5697,-26.7478,1403.0],[27.5795,-26.7449,1410.9003],[27.5904,-26.7384,1406.6616],[27.5888,-26.7357,1431.7606],[27.5814,-26.731,1444.2992],[27.5891,-26.7241,1456.9739],[27.6022,-26.7229,1441.0083],[27.6028,-26.6924,1523.7415],[27.5742,-26.7158,1435.9105],[27.5742,-26.6841,1589.5878],[27.5702,-26.6836,1604.5844],[27.5691,-26.6472,1499.1606],[27.5065,-26.6462,1445.2256],[27.4548,-26.6303,1438.2335],[27.4347,-26.6318,1425.2566],[27.4258,-26.6495,1409.6362],[27.3783,-26.6107,1389.7351],[27.3854,-26.6043,1393.5317],[27.3658,-26.5738,1408.1537],[27.3386,-26.5717,1379.2317],[27.3389,-26.5781,1376.8665],[27.3315,-26.5903,1372.28],[27.3442,-26.6131,1381.6736],[27.2991,-26.6221,1361.6697],[27.2969,-26.6203,1360.5414],[27.2933,-26.6223,1359.8534],[27.2862,-26.6214,1361.496],[27.2842,-26.6222,1361.1394],[27.2855,-26.625,1357.6479],[27.2797,-26.6258,1357.4784],[27.2793,-26.6245,1359.5935],[27.2789,-26.6265,1356.573],[27.2768,-26.6259,1356.6687],[27.2769,-26.629,1355.469],[27.2731,-26.6322,1355.3971],[27.2718,-26.6304,1355.1901],[27.2683,-26.6329,1353.8215],[27.2671,-26.6306,1354.0869],[27.2617,-26.6335,1353.2866],[27.2605,-26.6315,1352.2333],[27.2574,-26.6308,1352.0541],[27.2575,-26.632,1351.0397],[27.2537,-26.6325,1351.6467],[27.2512,-26.6347,1350.1829],[27.2494,-26.6341,1350.3225],[27.2488,-26.636,1349.4884],[27.2474,-26.6344,1349.6139],[27.2419,-26.6365,1348.912],[27.235,-26.6186,1378.2864],[27.2332,-26.5955,1393.1603],[27.2345,-26.5949,1397.4995],[27.2284,-26.5711,1407.8915],[27.1826,-26.5746,1557.7754],[27.1826,-26.5631,1483.792],[27.1745,-26.5492,1463.0203],[27.1671,-26.5514,1455.5103],[27.1588,-26.5254,1493.2244],[27.1563,-26.5243,1471.6904],[27.1786,-26.521,1456.947],[27.1882,-26.5258,1469.6418],[27.1828,-26.5203,1464.2904],[27.2125,-26.5148,1593.3629],[27.2314,-26.5055,1609.9104],[27.2238,-26.4518,1546.4259],[27.2248,-26.444,1527.1558],[27.188,-26.3779,1460.8429],[27.2348,-26.3383,1488.1581],[27.2748,-26.3143,1517.2743],[27.2993,-26.3045,1496.0912],[27.3301,-26.2818,1524.8071],[27.3084,-26.2252,1532.6445],[27.2914,-26.1446,1560.4008],[27.3583,-26.1546,1575.0657],[27.3617,-26.1157,1599.6279],[27.3262,-26.1007,1628.1106],[27.2924,-26.0954,1642.0421],[27.2699,-26.0949,1636.5658],[27.2411,-26.092,1615.3574],[27.2107,-26.0826,1537.354],[27.1698,-26.0802,1495.4869],[27.1709,-26.0949,1491.5681],[27.158,-26.0977,1510.7141],[27.142,-26.1007,1549.7271],[27.0927,-26.0961,1587.0629],[27.0884,-26.114,1604.8774],[27.0867,-26.1429,1532.1362],[27.0597,-26.1406,1544.7758],[27.0809,-26.0981,1599.4181],[27.0715,-26.0996,1600.2129],[27.0445,-26.1317,1551.8322],[27.0538,-26.1007,1605.5795],[27.0263,-26.0879,1616.3396],[27.0265,-26.0866,1616.3396],[26.9748,-26.0651,1571.7507],[26.9784,-26.0551,1561.885],[26.9321,-26.0316,1585.8927],[26.9174,-26.0711,1553.7726],[26.8667,-26.0613,1570.2101],[26.8654,-26.0688,1563.5107],[26.8562,-26.0676,1565.1943],[26.855,-26.059,1569.1865],[26.8479,-26.0597,1563.4404],[26.8071,-26.084,1545.6846],[26.7331,-26.1016,1510.983],[26.7092,-26.0476,1594.611],[26.6177,-26.0649,1513.355],[26.6296,-26.1361,1523.2568],[26.5458,-26.1727,1514.0139],[26.5861,-26.2452,1516.6807],[26.5714,-26.252,1515.1316],[26.5347,-26.2642,1504.1074],[26.5587,-26.3098,1496.6331],[26.553,-26.314,1481.5225],[26.555,-26.3259,1465.9213],[26.5807,-26.3359,1455.3364],[26.5783,-26.3377,1447.7546],[26.5716,-26.3344,1457.3281],[26.5228,-26.3551,1451.3857],[26.5183,-26.3675,1434.0725],[26.4837,-26.3864,1407.4432],[26.5007,-26.4166,1391.7523],[26.4584,-26.4351,1440.8948],[26.4786,-26.4791,1402.0413],[26.4056,-26.4964,1491.1316],[26.3847,-26.4999,1515.1304],[26.3294,-26.5462,1543.6411],[26.3337,-26.5552,1539.5437],[26.2481,-26.5873,1563.1693],[26.2758,-26.6446,1572.3857],[26.251,-26.6457,1558.8712],[26.2674,-26.6812,1599.7303],[26.2635,-26.6835,1600.7708],[26.2724,-26.6914,1630.5267],[26.2603,-26.6993,1608.5615],[26.261,-26.7004,1605.6494],[26.2497,-26.7001,1606.9568],[26.2364,-26.7061,1592.9817],[26.2331,-26.701,1588.4556],[26.1854,-26.7106,1559.6987],[26.189,-26.7338,1559.7346],[26.1595,-26.7461,1549.3304],[26.1619,-26.7521,1548.4868],[26.1563,-26.7437,1549.5502],[26.1458,-26.7481,1546.6409],[26.1472,-26.7518,1545.5848],[26.143,-26.7534,1544.9677],[26.1458,-26.7642,1541.6876],[26.1151,-26.771,1534.3754],[26.1022,-26.8197,1539.5061],[26.0768,-26.8623,1537.8958],[26.0683,-26.8647,1537.6125],[26.0561,-26.8343,1523.1816],[26.0488,-26.8395,1534.4419],[26.0482,-26.8456,1527.1516],[26.042,-26.845,1511.9148],[26.0362,-26.8615,1524.2717],[26.0291,-26.8588,1525.9329],[26.0287,-26.8615,1527.7935],[26.0239,-26.8595,1528.7474],[26.0189,-26.8667,1532.7925],[26.0109,-26.8625,1532.9792],[26.0125,-26.8604,1534.2856],[26.0042,-26.8552,1528.7693],[25.9863,-26.8753,1507.014],[25.9137,-26.9068,1492.8152],[25.891,-26.8752,1478.7676],[25.8938,-26.8984,1487.8234],[25.8333,-26.9362,1463.095],[25.8097,-26.9012,1452.5828],[25.7625,-26.9151,1427.8297],[25.6919,-26.9416,1415.7793],[25.6778,-26.9677,1407.5344],[25.6656,-26.9669,1404.3365],[25.6656,-26.9627,1405.1208],[25.646,-26.9614,1404.6168],[25.6371,-26.9712,1400.355],[25.6446,-26.9845,1396.009],[25.6322,-26.9886,1394.1038],[25.6571,-27.0335,1371.2422],[25.6831,-27.0735,1401.9958],[25.6871,-27.098,1413.8502],[25.6616,-27.1095,1410.4669],[25.6163,-27.1429,1388.6436],[25.6101,-27.1763,1369.0264],[25.6286,-27.176,1387.0618],[25.6341,-27.1863,1385.5193],[25.6479,-27.1808,1387.4384],[25.6437,-27.1719,1388.4319],[25.6803,-27.1622,1378.4006],[25.7016,-27.2232,1344.4998],[25.7723,-27.2093,1351.1322],[25.7776,-27.2549,1340.4438],[25.806,-27.2906,1338.6379],[25.8248,-27.363,1306.4181],[25.761,-27.3675,1308.7729],[25.7596,-27.3633,1309.9617],[25.7023,-27.375,1310.993],[25.7214,-27.3793,1307.9298],[25.7681,-27.3941,1299.0891],[25.797,-27.3906,1298.5382],[25.805,-27.4464,1284.0566],[25.7387,-27.4692,1274.5348],[25.7383,-27.4842,1270.6912],[25.743,-27.4861,1269.1433],[25.7537,-27.5345,1256.9673],[25.8348,-27.5118,1258.8647],[25.8302,-27.5662,1226.5],[25.833,-27.5676,1226.5],[25.835,-27.5785,1226.5],[25.8462,-27.5923,1226.5],[25.8467,-27.5953,1226.5],[25.8437,-27.6005,1226.5],[25.8435,-27.6043,1226.5],[25.8526,-27.621,1226.5],[25.8724,-27.628,1226.5],[25.8911,-27.6261,1226.5],[25.8983,-27.6225,1227.4731],[25.8951,-27.6147,1226.5],[25.8957,-27.61,1226.5],[25.9097,-27.6104,1226.5],[25.9157,-27.6057,1226.5],[25.9243,-27.6035,1226.5],[25.932,-27.6064,1226.5],[25.9403,-27.6149,1226.5],[25.9473,-27.6329,1226.5],[25.9681,-27.625,1226.5],[25.9815,-27.6269,1226.5],[25.9806,-27.6371,1226.5],[25.9827,-27.6391,1226.5],[25.9921,-27.6412,1226.5],[26.0008,-27.6476,1226.5],[26.0049,-27.6522,1226.5],[26.008,-27.6604,1226.5],[26.0077,-27.6773,1226.5],[26.0107,-27.6898,1226.5],[26.003,-27.7023,1227.1848],[26.0032,-27.708,1226.5],[26.013,-27.7226,1227.3879],[26.0204,-27.7279,1226.9031],[26.025,-27.7339,1227.0804],[26.0329,-27.7367,1226.5],[26.0367,-27.7357,1226.5],[26.0477,-27.7255,1226.5],[26.0665,-27.7183,1230.5322],[26.0922,-27.6966,1226.5],[26.0945,-27.6917,1226.5],[26.0948,-27.6846,1232.0497],[26.0928,-27.6824,1226.5],[26.0678,-27.6808,1226.5],[26.0547,-27.6692,1228.3696],[26.0637,-27.6602,1226.5],[26.0799,-27.6534,1227.9036],[26.0862,-27.648,1228.2754],[26.0858,-27.6428,1226.5],[26.0749,-27.6205,1226.5],[26.084,-27.5961,1226.5]]]]}}