{"type": "Feature","bbox": [18.8093,-34.8351,21.0103,-33.622],"geometry": {"type": "MultiPolygon","coordinates": [[[[19.6635,-34.7876,0.0],[19.6682,-34.7879,0.0],[19.6682,-34.7865,0.0],[19.6629,-34.7865,0.0],[19.6635,-34.7876,0.0]]],
[[[19.4221,-34.6804,0.0],[19.421,-34.679,0.0],[19.4185,-34.6799,0.0],[19.4115,-34.6857,0.0],[19.4163,-34.6857,0.0],[19.4204,-34.6821,0.0],[19.4221,-34.6826,0.0],[19.4221,-34.6804,0.0]]],
[[[19.4215,-34.6126,0.6309],[19.4338,-34.6235,2.6466],[19.439,-34.6315,0.0],[19.4407,-34.6399,6.3792],[19.446,-34.6482,0.0],[19.4454,-34.6512,0.0],[19.4485,-34.6529,0.1553],[19.4485,-34.6551,0.0],[19.4676,-34.661,3.3421],[19.4724,-34.6607,3.3648],[19.4735,-34.6624,0.8141],[19.4707,-34.6635,0.0],[19.4726,-34.6651,0.0],[19.4737,-34.664,0.0],[19.4762,-34.6654,0.0],[19.4782,-34.6635,0.0],[19.4876,-34.6635,0.0],[19.4888,-34.6668,0.0],[19.4912,-34.6685,0.0],[19.4957,-34.6671,0.0],[19.4979,-34.6688,0.0],[19.4932,-34.6701,0.0],[19.4949,-34.6726,0.0],[19.4976,-34.671,0.0],[19.5096,-34.6732,0.0],[19.5171,-34.6704,1.4825],[19.526,-34.6738,2.2196],[19.5318,-34.6807,1.9216],[19.5318,-34.6837,0.0],[19.5301,-34.6851,0.0],[19.531,-34.689,0.0],[19.5415,-34.6924,1.1635],[19.541,-34.6943,0.0],[19.5449,-34.6985,0.0],[19.5418,-34.701,0.0],[19.5443,-34.7032,0.0],[19.5518,-34.7035,0.5832],[19.5479,-34.706,0.0],[19.549,-34.7132,0.0],[19.559,-34.7115,0.0],[19.5635,-34.7135,0.0],[19.5662,-34.7157,1.0018],[19.5654,-34.7179,0.0],[19.5674,-34.7207,0.0],[19.5749,-34.721,4.7571],[19.569,-34.724,0.0],[19.5746,-34.7282,0.0],[19.5865,-34.7287,0.0],[19.5888,-34.7251,0.0],[19.5926,-34.7274,0.0],[19.5957,-34.7318,0.0],[19.5979,-34.7313,0.0],[19.601,-34.736,0.0],[19.5976,-34.7376,0.0],[19.6013,-34.7387,5.1718],[19.5982,-34.7393,0.0],[19.5965,-34.744,0.0],[19.6007,-34.7471,0.0],[19.5999,-34.7499,0.0],[19.6051,-34.7501,0.0],[19.6085,-34.7535,1.3759],[19.6082,-34.7571,0.0],[19.6096,-34.7588,0.0],[19.6157,-34.7588,0.0],[19.624,-34.7537,0.0],[19.6326,-34.7549,7.769],[19.6407,-34.7685,0.0],[19.6421,-34.7754,0.0],[19.6399,-34.7782,0.0],[19.6357,-34.7785,0.0],[19.6321,-34.7821,0.0],[19.6285,-34.7829,0.0],[19.6321,-34.786,0.0],[19.6329,-34.784,0.0],[19.6371,-34.7821,0.0868],[19.6404,-34.7829,0.3637],[19.6451,-34.781,3.2498],[19.6549,-34.786,0.0],[19.6563,-34.7837,1.038],[19.6579,-34.7843,0.1603],[19.6571,-34.7863,0.0],[19.6521,-34.7882,0.0],[19.6349,-34.7876,0.0],[19.6387,-34.7915,0.0],[19.6449,-34.7887,0.0],[19.6535,-34.7915,0.0],[19.6585,-34.7899,0.0],[19.659,-34.7854,0.0],[19.6699,-34.7854,0.0],[19.6712,-34.7837,0.0],[19.6776,-34.7826,0.0],[19.6763,-34.7801,3.0173],[19.6737,-34.7799,12.6298],[19.6726,-34.7768,7.5279],[19.6779,-34.7729,3.3442],[19.6818,-34.7721,0.0],[19.6821,-34.7701,2.3322],[19.6849,-34.7693,2.1494],[19.6838,-34.7671,3.014],[19.6879,-34.766,0.0],[19.6876,-34.7646,0.0],[19.6904,-34.7626,4.8694],[19.7157,-34.7635,0.0],[19.729,-34.7674,2.1286],[19.7501,-34.7696,0.0],[19.7554,-34.7693,0.5467],[19.7615,-34.7651,1.5924],[19.7676,-34.764,2.8086],[19.7785,-34.7643,8.2438],[19.7996,-34.7679,1.245],[19.8068,-34.7674,0.0],[19.8101,-34.7643,0.2903],[19.8218,-34.7626,2.5465],[19.8276,-34.7663,0.0],[19.8343,-34.7657,5.1086],[19.8451,-34.7687,0.0],[19.8537,-34.7687,0.0],[19.8576,-34.766,3.5435],[19.8638,-34.7682,0.0],[19.8751,-34.7668,1.0051],[19.8865,-34.7724,1.8937],[19.8907,-34.7821,0.0],[19.9051,-34.7846,0.0],[19.9076,-34.7879,2.6311],[19.9263,-34.7993,15.6374],[19.9363,-34.8082,0.0],[19.9363,-34.8099,0.1284],[19.9343,-34.8107,0.0],[19.9351,-34.8118,0.0],[19.9404,-34.8129,0.0],[19.9401,-34.814,0.0],[19.9337,-34.8135,0.0],[19.934,-34.8157,0.0],[19.9374,-34.8157,0.0],[19.9387,-34.8185,0.0],[19.9435,-34.819,0.0],[19.9438,-34.8154,1.6496],[19.9465,-34.8143,4.6949],[19.956,-34.8157,0.0],[19.9562,-34.819,0.0],[19.9587,-34.8196,-0.034],[19.959,-34.8224,0.0],[19.9646,-34.8215,0.0193],[19.9682,-34.8237,2.4887],[19.9682,-34.8251,0.3885],[19.965699999999998,-34.8249,0.0],[19.965699999999998,-34.8265,0.0],[19.9737,-34.8249,0.1044],[19.9713,-34.8257,0.0],[19.9715,-34.8276,0.0],[19.9735,-34.8262,0.1044],[19.9788,-34.8293,0.0465],[19.9849,-34.8299,0.4332],[19.984,-34.8321,0.0],[19.9893,-34.8335,0.0],[19.9901,-34.8351,0.0],[19.9918,-34.8326,2.1765],[19.9965,-34.8338,0.0],[20.0063,-34.8335,0.0],[20.0079,-34.8318,1.1298],[20.0129,-34.8329,0.1218],[20.0143,-34.8318,0.1218],[20.0118,-34.8288,0.648],[20.0179,-34.8262,-0.0758],[20.0151,-34.824,4.6854],[20.0279,-34.8249,0.0],[20.0296,-34.8213,0.0],[20.028199999999998,-34.8176,0.7355],[20.0307,-34.8168,0.0],[20.0301,-34.8146,0.0],[20.0551,-34.8146,0.0],[20.0593,-34.8126,0.0766],[20.0585,-34.809,0.1127],[20.0604,-34.8093,0.0],[20.0662,-34.8043,0.0],[20.0624,-34.8015,0.1509],[20.0637,-34.8001,0.0],[20.0593,-34.8004,1.2887],[20.056,-34.7979,0.0],[20.0524,-34.7988,2.9423],[20.0501,-34.7965,2.1525],[20.0499,-34.7929,0.0],[20.0471,-34.7887,1.6942],[20.0493,-34.7699,0.0],[20.0588,-34.7554,0.0],[20.0718,-34.7426,2.5295],[20.0826,-34.7349,0.0],[20.0829,-34.7332,0.0],[20.101,-34.7226,3.4768],[20.1162,-34.716,0.0603],[20.1113,-34.7121,0.1954],[20.1043,-34.7118,7.3796],[20.1026,-34.7088,1.0846],[20.0937,-34.7124,0.0],[20.0926,-34.7115,0.4475],[20.1029,-34.7076,0.7042],[20.1051,-34.7113,7.3796],[20.1218,-34.7104,0.6846],[20.1229,-34.7124,0.8103],[20.1651,-34.6954,3.2588],[20.1901,-34.6904,4.9873],[20.231,-34.6874,4.4249],[20.2346,-34.684,3.0497],[20.2335,-34.6746,0.0],[20.2357,-34.6707,0.0],[20.2332,-34.6671,0.0],[20.2343,-34.6626,0.0],[20.2332,-34.6604,0.633],[20.2374,-34.6568,0.0],[20.2368,-34.6554,8.9924],[20.2396,-34.6538,0.0],[20.241,-34.6501,0.0],[20.2471,-34.6476,0.992],[20.2526,-34.6424,0.2021],[20.2732,-34.6321,0.5626],[20.3035,-34.6226,0.4925],[20.3151,-34.6176,0.7622],[20.3215,-34.6126,3.0744],[20.3279,-34.611,0.0],[20.3382,-34.5996,0.0],[20.3404,-34.5951,0.7834],[20.3451,-34.5915,0.0],[20.3876,-34.5737,0.0],[20.3937,-34.5735,0.0],[20.3974,-34.5704,0.0],[20.4007,-34.5724,0.0],[20.4007,-34.569,0.9181],[20.4029,-34.5679,1.3329],[20.4115,-34.5551,3.2749],[20.416,-34.5451,0.0],[20.419,-34.5435,0.0],[20.4207,-34.5351,1.8982],[20.4271,-34.5265,1.0935],[20.4496,-34.5057,3.4185],[20.4796,-34.489,10.8094],[20.4993,-34.4818,4.1672],[20.5151,-34.4785,0.0],[20.5138,-34.4768,5.8283],[20.524,-34.4757,0.0],[20.5338,-34.4701,0.0],[20.5515,-34.4663,0.0],[20.5557,-34.4668,0.0],[20.5585,-34.4643,7.6304],[20.5654,-34.4635,0.0],[20.5668,-34.4618,0.0],[20.5757,-34.461,0.0],[20.5765,-34.459,12.6197],[20.6318,-34.451,14.2355],[20.6688,-34.4493,19.4658],[20.6796,-34.4538,0.0],[20.6854,-34.4538,0.0],[20.6913,-34.4512,19.7738],[20.7121,-34.4532,0.0],[20.714,-34.4551,0.0],[20.7185,-34.4532,0.0],[20.7185,-34.4543,0.0],[20.7243,-34.4557,0.0],[20.7332,-34.4535,0.6988],[20.7349,-34.4565,0.0],[20.741,-34.4554,0.5011],[20.7479,-34.4576,0.0],[20.7521,-34.4568,0.0],[20.7582,-34.4596,0.0],[20.7615,-34.4588,0.8987],[20.7724,-34.4621,0.0],[20.7768,-34.4607,20.3536],[20.784,-34.4637,0.0],[20.7946,-34.464,24.8248],[20.7971,-34.4671,0.0],[20.8154,-34.4693,22.7236],[20.8193,-34.4726,0.0],[20.8235,-34.471,16.198],[20.829,-34.4721,0.0],[20.8315,-34.4699,8.6809],[20.834,-34.4718,0.0],[20.8374,-34.4699,0.0],[20.8468,-34.4751,0.0],[20.8507,-34.4715,0.0],[20.8521,-34.4726,0.0],[20.8546,-34.4715,0.0],[20.8524,-34.4685,0.0],[20.8559,-34.4648,0.6508],[20.859,-34.4643,12.1996],[20.8618,-34.466,1.1211],[20.8643,-34.4649,0.0],[20.8699,-34.4668,0.0],[20.8688,-34.4624,0.0],[20.8657,-34.4593,1.4325],[20.8704,-34.4529,17.497],[20.8729,-34.4524,0.0],[20.8707,-34.4465,0.0],[20.8718,-34.4379,0.0],[20.8682,-34.4351,28.6349],[20.8682,-34.4318,6.9616],[20.8701,-34.4315,0.0],[20.8701,-34.4301,0.0],[20.8676,-34.4263,2.3666],[20.8607,-34.4251,10.8374],[20.8568,-34.4218,0.0],[20.8568,-34.419,0.0],[20.8543,-34.416,0.0],[20.8549,-34.4101,0.0],[20.8512,-34.4101,0.0],[20.8535,-34.3989,0.0],[20.85,-34.4034,0.0],[20.82,-34.4013,0.0],[20.8105,-34.4028,0.0],[20.8014,-34.4081,0.0],[20.7954,-34.4072,0.0],[20.7666,-34.3946,0.0],[20.75,-34.392,0.0],[20.7346,-34.3875,0.0],[20.7216,-34.379,0.0],[20.7066,-34.364,0.0],[20.6907,-34.3587,0.0],[20.6874,-34.3539,0.0],[20.6875,-34.3473,0.0],[20.6856,-34.3465,0.0],[20.6688,-34.3498,0.0],[20.6558,-34.3485,0.2912],[20.6477,-34.3549,2.2933],[20.6419,-34.3555,0.3975],[20.6359,-34.3533,0.696],[20.6294,-34.3449,2.0581],[20.6224,-34.3436,0.0],[20.6085,-34.3467,1.3248],[20.6029,-34.352,0.652],[20.5977,-34.3519,1.1884],[20.5963,-34.348,0.0],[20.6042,-34.3348,0.9348],[20.6046,-34.3245,20.4207],[20.6084,-34.321,5.6607],[20.6196,-34.3185,3.0765],[20.6221,-34.3165,4.7048],[20.6223,-34.3133,0.0],[20.6178,-34.3027,15.4081],[20.6136,-34.3016,0.4559],[20.6022,-34.305,0.0],[20.5914,-34.3043,3.1477],[20.5891,-34.298,34.6428],[20.5828,-34.2947,3.5537],[20.5788,-34.2952,1.3541],[20.5736,-34.3012,1.2763],[20.5682,-34.3042,4.6324],[20.5656,-34.3028,1.4743],[20.5656,-34.2993,0.5],[20.5726,-34.283,26.0908],[20.5747,-34.2834,30.3285],[20.5994,-34.2729,62.2325],[20.6377,-34.2429,170.6509],[20.6392,-34.2343,148.0071],[20.6528,-34.2236,154.1595],[20.6928,-34.2024,181.1488],[20.6996,-34.2132,223.8812],[20.7189,-34.1955,194.529],[20.6969,-34.1843,172.595],[20.6865,-34.1874,160.0477],[20.6649,-34.1885,154.0049],[20.6543,-34.1714,141.2826],[20.6453,-34.1755,100.5022],[20.6497,-34.1491,192.8581],[20.6562,-34.1448,218.5203],[20.6421,-34.1353,181.9007],[20.6475,-34.126,175.299],[20.6487,-34.1194,202.6023],[20.6474,-34.1092,177.6447],[20.6393,-34.0976,242.9863],[20.6401,-34.086,216.1429],[20.6605,-34.089,288.0915],[20.6873,-34.0874,248.1536],[20.691,-34.0891,260.1469],[20.693,-34.1008,257.2285],[20.7043,-34.0909,241.8576],[20.7032,-34.0881,230.1621],[20.7209,-34.0925,264.6657],[20.7335,-34.0933,279.6191],[20.7543,-34.0973,197.414],[20.7404,-34.0713,309.1942],[20.7476,-34.0667,360.3992],[20.7286,-34.0575,345.3617],[20.7227,-34.0368,228.1732],[20.7101,-34.0402,270.9495],[20.6999,-34.0397,328.1314],[20.694,-34.0068,157.3792],[20.7107,-34.0102,143.2189],[20.7119,-34.0123,155.0506],[20.71,-34.0165,214.5824],[20.7128,-34.0179,183.3616],[20.7296,-34.0181,231.7778],[20.7281,-34.0066,141.2294],[20.7321,-33.9989,212.875],[20.729,-33.9884,375.5503],[20.7178,-33.9865,195.1522],[20.7153,-33.9884,183.8048],[20.7052,-33.9902,163.0343],[20.7083,-33.9851,211.7473],[20.7064,-33.9826,205.9227],[20.7073,-33.9802,209.8418],[20.7008,-33.9782,252.1753],[20.6995,-33.9763,242.1187],[20.6947,-33.976,217.891],[20.7024,-33.9677,240.3571],[20.7021,-33.9609,260.4473],[20.707,-33.9591,274.6819],[20.7073,-33.9551,284.6491],[20.8066,-33.9464,1056.1326],[20.8164,-33.9402,1131.3137],[20.8191,-33.9405,1105.1658],[20.8195,-33.9469,714.8643],[20.8272,-33.9615,400.3475],[20.8267,-33.9658,354.0269],[20.8296,-33.9652,363.0356],[20.8331,-33.9675,344.9799],[20.8342,-33.9717,313.5569],[20.8411,-33.9732,318.6108],[20.8419,-33.9648,451.5645],[20.8456,-33.9628,520.3618],[20.8539,-33.9632,692.8312],[20.8678,-33.955,970.8613],[20.8782,-33.964,391.8288],[20.9215,-33.9528,688.332],[20.9364,-33.9612,734.9629],[20.934,-33.9476,1260.5889],[20.9386,-33.925,1159.656],[20.9524,-33.9018,736.7577],[20.9238,-33.8893,723.4695],[20.9361,-33.8792,505.5634],[20.9568,-33.8063,491.3712],[20.9656,-33.8043,472.418],[21.0103,-33.7566,378.6599],[20.9806,-33.7396,357.4497],[20.965699999999998,-33.7426,337.9407],[20.9341,-33.7246,368.9147],[20.9388,-33.6998,510.4133],[20.8799,-33.6926,467.5436],[20.885,-33.7174,508.8414],[20.8003,-33.715,573.8123],[20.8095,-33.6985,452.6268],[20.8072,-33.6898,442.0438],[20.7756,-33.6917,514.9557],[20.7378,-33.6592,417.0976],[20.7189,-33.6406,438.6609],[20.666,-33.622,607.9998],[20.6455,-33.6362,607.1833],[20.5862,-33.6672,645.4331],[20.5816,-33.6221,714.933],[20.5033,-33.637,693.8564],[20.5352,-33.6607,632.3482],[20.5039,-33.682,821.6732],[20.4692,-33.682,852.3441],[20.4728,-33.7292,843.9562],[20.4479,-33.774,879.2733],[20.5145,-33.8026,757.1481],[20.4805,-33.8228,884.4339],[20.4684,-33.8183,930.3782],[20.4682,-33.8134,856.1802],[20.4502,-33.8068,1030.8899],[20.4437,-33.8101,1049.9413],[20.4266,-33.811,1042.0022],[20.4415,-33.8198,923.4065],[20.4354,-33.8264,1000.8821],[20.4417,-33.8371,978.1335],[20.4425,-33.8579,818.8969],[20.4608,-33.8764,788.1437],[20.4683,-33.8803,761.423],[20.4699,-33.8897,780.8879],[20.4695,-33.8957,763.9043],[20.4602,-33.9063,681.3814],[20.436,-33.9577,1608.7183],[20.3244,-33.9496,1575.7731],[20.2344,-33.8979,1061.3068],[20.2225,-33.9128,483.6143],[20.2269,-33.9139,450.3855],[20.2584,-33.9417,280.7572],[20.2832,-33.9574,240.8968],[20.2803,-33.9538,325.6766],[20.2843,-33.9544,379.5546],[20.2909,-33.9609,483.4285],[20.2969,-33.964,385.4586],[20.328,-33.973,412.3872],[20.3178,-33.9936,187.9152],[20.3242,-34.0018,179.5261],[20.3138,-34.0017,264.3229],[20.3071,-34.0056,228.7702],[20.3041,-34.014,209.3194],[20.3046,-34.0228,136.3581],[20.3071,-34.0294,156.0951],[20.2959,-34.0363,107.2826],[20.2908,-34.0419,123.8],[20.2792,-34.0396,81.7004],[20.284,-34.0414,78.2572],[20.2865,-34.0511,97.0274],[20.2945,-34.0504,126.9756],[20.2989,-34.0603,129.5932],[20.2858,-34.065,74.0248],[20.2856,-34.07,75.1141],[20.2873,-34.0719,76.2838],[20.2861,-34.0789,75.7536],[20.2901,-34.0801,77.2409],[20.3024,-34.0762,80.7544],[20.3057,-34.0773,72.7981],[20.2913,-34.0913,115.0525],[20.2701,-34.0902,99.7006],[20.2727,-34.1062,109.4855],[20.2497,-34.1061,135.9045],[20.2468,-34.1173,186.6473],[20.2218,-34.1111,181.3781],[20.2244,-34.1023,136.9366],[20.2291,-34.1007,158.1717],[20.23,-34.0952,211.4801],[20.2031,-34.0884,302.2285],[20.1974,-34.1005,221.0076],[20.1873,-34.102,216.7063],[20.1878,-34.0974,302.6526],[20.1405,-34.0854,99.9649],[20.1413,-34.084,100.565],[20.1376,-34.0824,101.327],[20.1493,-34.0766,108.1212],[20.15,-34.0784,170.757],[20.2022,-34.0786,138.632],[20.2049,-34.0655,99.8113],[20.2003,-34.053,141.1271],[20.1925,-34.0462,168.7956],[20.1961,-34.04,171.9891],[20.1859,-34.0359,195.0307],[20.1778,-34.0298,219.2241],[20.1724,-34.0398,178.9125],[20.1615,-34.0409,146.5604],[20.1517,-34.0446,142.8982],[20.1425,-34.0559,184.7453],[20.1417,-34.0592,255.4281],[20.0808,-34.0646,197.6521],[20.0328,-34.0597,640.6639],[20.0085,-34.0639,615.822],[20.0108,-34.0915,339.3532],[20.0075,-34.0939,403.3992],[19.9893,-34.0855,591.9734],[19.9865,-34.0782,890.0726],[19.9062,-34.0762,1209.2573],[19.8855,-34.0662,1491.8494],[19.8536,-34.0633,1606.8037],[19.8103,-34.0554,1454.9669],[19.7552,-34.0544,1250.03],[19.735,-34.0412,1339.2986],[19.7148,-34.049,1471.1045],[19.7001,-34.0464,1230.863],[19.6807,-34.0091,1343.7932],[19.6412,-34.0017,1136.377],[19.6084,-34.0074,1336.7816],[19.5898,-34.0124,1428.0596],[19.5662,-34.002,966.4669],[19.5333,-33.9695,1333.2612],[19.5069,-33.9717,1601.4921],[19.4558,-33.9999,1597.9146],[19.4267,-33.9932,1570.1066],[19.3618,-33.9715,1228.811],[19.3486,-33.9552,694.382],[19.3359,-33.9582,523.1911],[19.3251,-33.9521,406.7631],[19.3189,-33.9472,523.0638],[19.3128,-33.935,959.4313],[19.3106,-33.9137,960.1859],[19.2974,-33.8897,1188.9109],[19.278199999999998,-33.8795,1148.564],[19.2584,-33.8831,1223.4397],[19.2652,-33.9003,1019.858],[19.2438,-33.8974,1224.8989],[19.2066,-33.9504,1233.8022],[19.191,-33.9472,958.8356],[19.1646,-33.9714,318.3528],[19.1455,-33.956,987.9157],[19.1261,-33.9617,1176.8738],[19.0424,-34.0083,1492.0325],[19.0264,-34.0206,1486.0686],[18.9846,-34.0359,1557.2942],[19.0047,-34.0748,1214.0305],[18.9668,-34.1024,1111.6432],[18.9439,-34.1382,513.938],[18.9652,-34.14,434.9986],[18.9638,-34.1529,432.662],[18.9803,-34.155,477.3551],[18.9625,-34.1777,460.2313],[18.9543,-34.1736,472.9188],[18.9544,-34.1838,553.8052],[18.9419,-34.1889,698.4071],[18.9344,-34.1967,752.2886],[18.931,-34.1959,802.5123],[18.9291,-34.2015,786.3734],[18.9307,-34.2035,800.5987],[18.9282,-34.2067,843.4943],[18.9202,-34.2122,929.7449],[18.9139,-34.2109,977.5055],[18.9084,-34.217,944.967],[18.8994,-34.2169,1039.5848],[18.8986,-34.2208,1156.9736],[18.9004,-34.2275,1129.0562],[18.8929,-34.2343,1125.5244],[18.8753,-34.2294,786.5774],[18.8802,-34.2482,278.8257],[18.8677,-34.2574,239.4602],[18.8654,-34.2641,410.8173],[18.8502,-34.2703,160.9803],[18.8454,-34.2694,0.6571],[18.8304,-34.2757,3.1484],[18.8268,-34.2824,14.763],[18.8246,-34.2832,0.0],[18.8243,-34.2871,0.0],[18.821,-34.2915,0.152],[18.8204,-34.2949,0.0],[18.8226,-34.2996,3.2865],[18.821,-34.3004,8.9286],[18.8193,-34.2979,0.0],[18.8168,-34.299,4.4203],[18.8151,-34.2962,0.0],[18.8126,-34.2965,0.0],[18.8121,-34.304,0.0],[18.8149,-34.3074,0.0],[18.8101,-34.3096,0.0],[18.8129,-34.3124,0.0],[18.8182,-34.3115,0.0],[18.8154,-34.3187,0.0],[18.8179,-34.324,1.4449],[18.821,-34.3262,0.3811],[18.8196,-34.3312,1.5279],[18.8243,-34.3368,0.0],[18.8304,-34.3393,4.7369],[18.8301,-34.3435,3.2056],[18.8274,-34.3457,4.4334],[18.8093,-34.3485,1.3089],[18.816,-34.3554,0.0],[18.816,-34.3574,0.0],[18.8179,-34.3574,4.1578],[18.8157,-34.3585,0.0],[18.8151,-34.3657,0.1707],[18.8174,-34.3668,3.6342],[18.8193,-34.3737,0.5073],[18.8254,-34.3737,8.3751],[18.8268,-34.3774,0.2884],[18.8288,-34.3776,4.2995],[18.8282,-34.3818,6.0287],[18.8249,-34.3807,0.0],[18.8218,-34.3812,0.0],[18.8215,-34.3826,0.5368],[18.8274,-34.384,6.6854],[18.8263,-34.3876,2.7405],[18.8296,-34.3896,0.0],[18.831,-34.3868,0.1261],[18.8363,-34.3876,0.2095],[18.8343,-34.3862,1.5127],[18.8346,-34.3846,1.5127],[18.8321,-34.3838,1.6749],[18.8315,-34.3804,0.0],[18.8326,-34.381,0.0],[18.8351,-34.3785,1.7117],[18.8376,-34.3796,0.0],[18.8385,-34.3776,2.4119],[18.8426,-34.3779,2.9303],[18.8524,-34.3843,0.0],[18.8554,-34.384,0.0],[18.8518,-34.3868,0.0],[18.8543,-34.391,-0.0365],[18.8621,-34.3893,-0.2722],[18.864,-34.391,0.0],[18.8635,-34.3854,0.0],[18.856,-34.3804,3.0912],[18.8565,-34.3774,0.0],[18.8596,-34.3771,0.0],[18.8626,-34.3713,0.0],[18.8724,-34.3688,1.376],[18.8762,-34.3696,0.0],[18.8818,-34.3749,0.0],[18.8868,-34.3754,0.0],[18.8862,-34.3732,0.0],[18.8899,-34.374,1.7948],[18.8907,-34.3757,0.0],[18.8968,-34.3754,0.0],[18.8951,-34.3724,1.5346],[18.8974,-34.3701,0.0],[18.8957,-34.3679,3.3216],[18.8996,-34.3704,0.0],[18.9054,-34.3682,0.0],[18.9057,-34.3668,0.0],[18.9018,-34.3635,0.5476],[18.9057,-34.3587,0.0],[18.9143,-34.3568,3.5816],[18.9338,-34.359,0.0],[18.9349,-34.3565,0.0],[18.944,-34.3604,0.0],[18.9487,-34.359,7.6885],[18.9513,-34.3618,0.0],[18.9674,-34.364,0.0],[18.971,-34.3601,0.0],[18.9762,-34.3607,0.0],[18.9779,-34.3585,0.0],[18.9793,-34.359,0.0],[18.9799,-34.3543,0.2327],[18.9826,-34.3549,0.0],[18.9843,-34.3518,0.0],[18.9871,-34.3507,0.0],[18.9871,-34.349,1.4614],[18.9932,-34.3485,0.0],[18.9951,-34.3462,0.0],[18.9904,-34.3401,1.7393],[18.9904,-34.3371,3.8712],[18.9954,-34.3413,3.9361],[18.9954,-34.3432,0.0],[19.0029,-34.3465,0.0],[19.0163,-34.3482,0.0],[19.0251,-34.3457,2.7823],[19.0332,-34.3457,0.0964],[19.0354,-34.3488,0.0],[19.0376,-34.3476,0.0],[19.0365,-34.3457,0.0],[19.0379,-34.3451,0.0],[19.0376,-34.3413,0.0],[19.0443,-34.3413,0.0],[19.0807,-34.3568,2.7966],[19.0965,-34.3668,0.0],[19.099,-34.3613,0.0],[19.0954,-34.3557,0.1213],[19.0904,-34.3526,0.9407],[19.0912,-34.3501,0.2795],[19.0932,-34.3488,1.7303],[19.0985,-34.3493,1.0167],[19.1015,-34.3401,0.7466],[19.1046,-34.3363,0.9986],[19.1176,-34.3349,0.0],[19.1151,-34.3301,10.765],[19.1179,-34.326,1.2767],[19.1257,-34.3224,4.5737],[19.1304,-34.3232,0.0],[19.1346,-34.3201,0.0],[19.1385,-34.3207,0.0],[19.1382,-34.3157,0.0],[19.1396,-34.3151,0.0],[19.1426,-34.3215,8.4895],[19.1388,-34.3249,1.4532],[19.1371,-34.3296,5.926],[19.1282,-34.3304,0.0],[19.1276,-34.3335,0.0],[19.131,-34.3399,0.0],[19.1307,-34.3424,0.7078],[19.1235,-34.3488,0.0],[19.1304,-34.3535,0.0],[19.126,-34.356,0.0],[19.1182,-34.3537,0.0],[19.116,-34.3585,4.9304],[19.1118,-34.3599,0.0],[19.1126,-34.3643,0.0],[19.1029,-34.3646,0.0],[19.0993,-34.3685,0.0],[19.119,-34.3865,0.0],[19.1262,-34.3976,7.8427],[19.1257,-34.3993,13.3448],[19.1168,-34.4038,0.0],[19.1149,-34.4071,0.0],[19.1204,-34.4121,0.0],[19.1179,-34.4162,0.0],[19.1182,-34.4193,0.0],[19.1226,-34.4185,0.0],[19.1257,-34.4218,0.0],[19.1318,-34.4188,0.0],[19.1332,-34.4201,0.0],[19.1343,-34.4193,1.0391],[19.1385,-34.4246,0.0],[19.1479,-34.4246,0.0],[19.1518,-34.4226,1.6033],[19.1554,-34.4246,0.0],[19.161,-34.4193,2.9872],[19.1657,-34.4204,0.0],[19.1707,-34.4176,0.0],[19.1712,-34.4193,0.0],[19.1682,-34.421,0.0],[19.1699,-34.4232,0.0],[19.1804,-34.4201,0.0],[19.1824,-34.424,0.0],[19.1854,-34.4238,0.0],[19.1887,-34.4287,0.0],[19.1915,-34.4285,0.0],[19.1938,-34.4313,0.0],[19.204,-34.4287,8.4657],[19.2013,-34.434,0.0],[19.2018,-34.4357,0.0],[19.2057,-34.436,0.1653],[19.2076,-34.4382,0.0],[19.2201,-34.4393,0.0],[19.2271,-34.4351,0.0],[19.2285,-34.4304,5.3089],[19.2318,-34.4293,0.0],[19.2337,-34.4265,0.0],[19.2357,-34.4274,0.0],[19.2357,-34.4246,0.0],[19.2388,-34.4221,8.7973],[19.2415,-34.4251,0.0],[19.2437,-34.4246,0.0],[19.2454,-34.4185,5.026],[19.249,-34.4179,3.2038],[19.2526,-34.414,2.2362],[19.2551,-34.4151,0.0],[19.2665,-34.4101,0.0],[19.2707,-34.4107,0.0],[19.2712,-34.4093,4.8964],[19.2801,-34.4118,0.0],[19.2821,-34.4137,0.0],[19.2868,-34.4137,1.0554],[19.2957,-34.4168,0.0],[19.3051,-34.4154,0.0],[19.3088,-34.4118,9.2518],[19.3132,-34.411,0.0],[19.3151,-34.4087,0.2494],[19.3182,-34.4101,0.0],[19.3224,-34.4082,0.0],[19.3257,-34.4096,0.0],[19.3312,-34.4082,0.0],[19.3399,-34.411,3.0085],[19.3465,-34.409,2.6595],[19.3626,-34.4107,0.0],[19.3813,-34.4096,0.0],[19.3868,-34.414,0.0],[19.3857,-34.4151,0.0],[19.381,-34.4143,0.0],[19.3788,-34.4176,0.0],[19.3732,-34.4162,0.0],[19.3676,-34.4168,0.0],[19.3665,-34.4182,0.0],[19.361,-34.4171,0.0],[19.3596,-34.4207,0.0],[19.361,-34.4218,1.9921],[19.3546,-34.424,0.0],[19.3507,-34.4285,4.0017],[19.3426,-34.424,0.0],[19.3329,-34.4251,1.4944],[19.3296,-34.4218,0.0],[19.324,-34.4196,3.2448],[19.3229,-34.414,0.0],[19.3182,-34.4143,0.0],[19.3151,-34.4171,0.0],[19.3118,-34.416,0.0],[19.3088,-34.4174,0.0],[19.3082,-34.4232,1.4373],[19.3049,-34.4238,2.1002],[19.3332,-34.4501,1.9449],[19.3326,-34.4526,0.0],[19.336,-34.4543,4.3805],[19.3487,-34.4704,7.6098],[19.3515,-34.4762,0.0],[19.354,-34.4774,4.4585],[19.3618,-34.4932,1.1978],[19.364,-34.4949,4.3931],[19.3651,-34.501,2.0895],[19.3718,-34.5157,3.6361],[19.3713,-34.5193,3.1241],[19.3735,-34.5199,8.1532],[19.3729,-34.5235,2.889],[19.3749,-34.5271,4.7755],[19.3735,-34.5285,0.0],[19.3757,-34.5304,1.5992],[19.3746,-34.5337,0.0],[19.3785,-34.544,0.0],[19.3707,-34.5476,0.0],[19.3624,-34.556,4.3027],[19.3538,-34.5576,0.0],[19.3515,-34.5593,0.0],[19.3515,-34.5618,0.0],[19.349,-34.5612,0.0],[19.3512,-34.564,0.0],[19.3512,-34.5676,0.0],[19.3404,-34.5779,0.0],[19.3446,-34.5857,3.6522],[19.3379,-34.5854,0.0],[19.3374,-34.589,0.0],[19.3324,-34.5946,0.0],[19.331,-34.6021,0.0],[19.3288,-34.6032,0.0],[19.3288,-34.6085,1.3082],[19.324,-34.611,0.0],[19.3118,-34.611,0.0],[19.3037,-34.6138,0.0],[19.301,-34.6165,1.6476],[19.3018,-34.6196,2.4317],[19.2987,-34.6224,0.0],[19.2987,-34.6243,0.0],[19.2949,-34.6232,0.0],[19.2929,-34.626,0.0],[19.2899,-34.626,0.0],[19.2896,-34.6307,0.0],[19.2918,-34.6338,0.0],[19.2954,-34.6335,0.0],[19.2971,-34.6349,0.0],[19.299,-34.6332,0.0],[19.3057,-34.6335,0.0],[19.3099,-34.629,0.2844],[19.3137,-34.6285,0.0],[19.3149,-34.6249,9.7931],[19.3176,-34.6229,8.5601],[19.3221,-34.6265,0.0],[19.3326,-34.6246,0.0],[19.3382,-34.6274,0.0],[19.3476,-34.6265,0.0],[19.3529,-34.624,0.0],[19.3551,-34.6185,0.0],[19.359,-34.6201,0.0],[19.3568,-34.616,0.8201],[19.3671,-34.6171,0.0],[19.371,-34.614,0.0],[19.3732,-34.6165,0.0],[19.3765,-34.6171,0.0],[19.381,-34.614,0.3467],[19.3829,-34.6151,0.0],[19.3824,-34.6168,0.0],[19.3857,-34.6171,0.0],[19.3893,-34.6157,0.0],[19.3885,-34.6137,0.0],[19.3904,-34.6124,0.0],[19.3946,-34.614,0.0],[19.3951,-34.6121,0.0],[19.3926,-34.6113,0.0],[19.3937,-34.6093,3.0558],[19.4093,-34.6049,0.1314],[19.4118,-34.6054,0.5682],[19.4179,-34.601,1.6986],[19.4238,-34.6007,0.0],[19.4282,-34.5985,0.0336],[19.4257,-34.6001,0.0],[19.4285,-34.601,0.116],[19.4243,-34.6012,0.0],[19.4199,-34.6043,0.1074],[19.4154,-34.6037,0.6183],[19.4112,-34.6063,0.5467],[19.4215,-34.6126,0.6309]]],
[[[19.4178,-34.6888,0.0],[19.4165,-34.6876,0.0],[19.4112,-34.6896,0.0],[19.4146,-34.6907,0.0],[19.4179,-34.6901,0.0],[19.4178,-34.6888,0.0]]]]}
,"properties": {"GID_2": "ZAF.9.5_1","GID_0": "ZAF","country": "SouthAfrica","GID_1": "ZAF.9_1","province": "WesternCape","NL_NAME_1": "NA","county": "Overberg","VARNAME_2": "NA","NL_NAME_2": "NA","TYPE_2": "DistrictMunicipality","ENGTYPE_2": "DistrictMunicipality","CC_2": "DC3","HASC_2": "ZA.WC.OV","name": "Overberg.county","area_km2": 12233.055,"hist_schema_id": "Elevation0-9000","hist_area_km2": {"0": 712.556,"25": 839.683,"50": 488.162,"75": 631.444,"100": 706.009,"125": 751.795,"150": 772.808,"175": 790.014,"200": 746.503,"225": 681.07,"250": 619.492,"275": 497.413,"300": 435.868,"325": 312.513,"350": 237.326,"375": 221.372,"400": 192.136,"425": 181.648,"450": 172.973,"475": 167.046,"500": 163.821,"525": 161.283,"550": 136.881,"575": 124.106,"600": 114.104,"625": 102.713,"650": 97.473,"675": 102.459,"700": 109.608,"725": 107.232,"750": 101.152,"775": 90.353,"800": 72.805,"825": 62.618,"850": 56.455,"875": 51.088,"900": 45.813,"925": 37.672,"950": 33.642,"975": 31.356,"1000": 29.121,"1025": 26.8,"1050": 24.285,"1075": 21.807,"1100": 19.644,"1125": 18.202,"1150": 15.477,"1175": 14.686,"1200": 13.227,"1225": 12.048,"1250": 11.802,"1275": 10.641,"1300": 9.199,"1325": 8.67,"1350": 6.876,"1375": 6.331,"1400": 5.381,"1425": 4.256,"1450": 3.412,"1475": 3.095,"1500": 2.585,"1525": 1.829,"1550": 1.178,"1575": 0.932,"1600": 0.51,"1625": 0.334,"1650": 0.141,"1675": 0.106}}}