{"type": "Feature","bbox": [28.5796,-28.7757,29.564,-27.9729],"geometry": {"type": "MultiPolygon","coordinates": [[[[28.7959,-28.7013,2955.4028],[28.7992,-28.7073,2959.1609],[28.8062,-28.7099,2948.2065],[28.8069,-28.7176,2982.9517],[28.8116,-28.7203,2990.5652],[28.8033,-28.73,3082.1777],[28.8004,-28.7426,3099.4958],[28.8009,-28.7454,3100.467],[28.8042,-28.7474,3207.5613],[28.8039,-28.7592,3253.5913],[28.8075,-28.7643,3223.4856],[28.8085,-28.7715,3255.604],[28.8179,-28.7757,3256.8936],[28.8231,-28.772,3269.0605],[28.8243,-28.7671,3186.1125],[28.829,-28.7658,3173.7808],[28.8304,-28.7633,3226.0686],[28.8404,-28.7603,3129.9902],[28.8415,-28.7586,3143.687],[28.8524,-28.7596,3179.3296],[28.8576,-28.756,3177.552],[28.8686,-28.7606,3179.9612],[28.8736,-28.7707,3226.0715],[28.883,-28.7487,3002.2686],[28.8913,-28.7465,3051.0383],[28.8921,-28.7449,2909.0933],[28.9,-28.7032,2251.189],[28.8962,-28.6947,2216.3862],[28.8972,-28.6909,2191.2354],[28.8991,-28.6873,2177.4517],[28.9034,-28.6872,2137.2773],[28.9089,-28.6814,2060.5352],[28.922,-28.6637,2150.2205],[28.926,-28.6638,2136.1592],[28.9284,-28.6601,2197.8662],[28.9346,-28.6569,2034.7354],[28.9357,-28.6538,2002.2428],[28.9428,-28.6509,2070.76],[28.9447,-28.6387,1961.86],[28.9409,-28.6314,1973.1671],[28.9443,-28.6226,2057.0452],[28.9466,-28.6208,2075.3689],[28.9486,-28.6133,1949.1184],[28.9559,-28.6075,2073.8726],[28.966,-28.6053,1944.0486],[28.9613,-28.5972,2095.7725],[28.974,-28.5746,2284.0674],[29.0963,-28.5451,1866.7767],[29.135,-28.5663,1738.9611],[29.1615,-28.5421,1894.0406],[29.171,-28.53,1934.2775],[29.1787,-28.5427,1793.8099],[29.1964,-28.545,1787.4575],[29.2162,-28.5191,1889.4696],[29.1915,-28.4938,1869.4736],[29.229,-28.4563,1843.5167],[29.2488,-28.4249,2021.2703],[29.2615,-28.4337,1886.0714],[29.2685,-28.4319,1815.9746],[29.2901,-28.4379,1773.0728],[29.3226,-28.424,1831.6057],[29.3201,-28.4068,1808.7238],[29.3388,-28.3988,1997.2815],[29.3575,-28.388,1712.2362],[29.3734,-28.3719,1694.4805],[29.4143,-28.3759,1835.8569],[29.4277,-28.3393,1788.8467],[29.4381,-28.3321,1871.9723],[29.4376,-28.3211,1823.1554],[29.4587,-28.3104,1842.1471],[29.4793,-28.2907,1743.3143],[29.4829,-28.2722,1700.1167],[29.5099,-28.2654,1720.2786],[29.5101,-28.2568,1742.0242],[29.52,-28.2206,1824.1375],[29.564,-28.1891,1802.5446],[29.536,-28.1624,2214.5068],[29.5278,-28.1616,2133.4741],[29.465,-28.1155,1911.0812],[29.4051,-28.078,2008.4854],[29.3805,-28.1203,1875.5443],[29.3668,-28.1157,1835.1504],[29.3678,-28.111,1843.8127],[29.331,-28.0959,1744.2002],[29.3191,-28.0858,1747.2347],[29.3249,-28.0798,1742.2114],[29.3145,-28.0728,1732.0728],[29.3111,-28.0115,1786.3683],[29.3088,-28.0079,1762.8484],[29.3086,-27.9963,1700.5491],[29.3138,-27.9927,1731.5219],[29.3012,-27.9845,1687.9452],[29.2992,-27.9881,1656.2661],[29.302,-27.9917,1655.9832],[29.2983,-27.9914,1656.5753],[29.2964,-27.9966,1655.7844],[29.2916,-27.9914,1655.8457],[29.2906,-27.9984,1660.0469],[29.2856,-27.9946,1657.6707],[29.2795,-27.9974,1656.5962],[29.2785,-27.9995,1681.6077],[29.2708,-27.9967,1786.5852],[29.2593,-28.0246,1651.0214],[29.2318,-28.0042,1667.5951],[29.2404,-27.9897,1702.8939],[29.2221,-27.9769,1761.7356],[29.2135,-27.9729,1730.9183],[29.2071,-27.9806,1700.1396],[29.2031,-27.9892,1686.2676],[29.197,-28.0165,1631.2639],[29.1877,-28.0166,1629.0051],[29.1854,-28.0187,1628.8945],[29.1773,-28.0133,1624.6055],[29.1686,-28.0121,1621.8571],[29.1659,-28.0138,1621.38],[29.1611,-28.0118,1619.8354],[29.1572,-28.0137,1621.7869],[29.1556,-28.0178,1618.0947],[29.1512,-28.0215,1621.6886],[29.1522,-28.025,1626.6516],[29.1477,-28.0259,1616.5731],[29.1436,-28.0242,1625.4951],[29.1391,-28.0249,1621.5166],[29.1368,-28.027,1618.009],[29.1328,-28.0261,1616.0341],[29.1327,-28.0307,1625.0693],[29.1302,-28.0313,1632.1975],[29.1295,-28.0337,1635.171],[29.1313,-28.0362,1634.8622],[29.1252,-28.0381,1613.6135],[29.1278,-28.0427,1611.6594],[29.1173,-28.0423,1613.4316],[29.1176,-28.0492,1610.2673],[29.1149,-28.0516,1612.1082],[29.1172,-28.0538,1612.4659],[29.1173,-28.0565,1619.0259],[29.1145,-28.06,1613.1969],[29.1118,-28.0585,1617.4337],[29.1113,-28.0505,1608.3292],[29.1086,-28.0472,1612.8885],[29.0956,-28.0457,1608.3903],[29.0928,-28.0427,1608.101],[29.088,-28.0462,1607.3013],[29.0851,-28.0463,1617.104],[29.0855,-28.0423,1605.6439],[29.0827,-28.0442,1606.9243],[29.0809,-28.0425,1611.1392],[29.0838,-28.0388,1604.4557],[29.0824,-28.0365,1604.8999],[29.076,-28.0343,1605.927],[29.0776,-28.0312,1613.8101],[29.0659,-28.0222,1600.7856],[29.0592,-28.0251,1606.1702],[29.0553,-28.0223,1600.8762],[29.0447,-28.0219,1601.3657],[29.0361,-28.0176,1607.9929],[29.0339,-28.0183,1601.9994],[29.028199999999998,-28.0164,1600.7949],[29.025,-28.0198,1600.0273],[29.0184,-28.021,1599.0679],[29.0183,-28.0232,1611.4009],[29.0149,-28.0193,1603.1722],[29.0132,-28.0223,1599.2637],[29.0101,-28.0225,1598.8726],[29.0076,-28.0201,1598.4036],[28.9989,-28.0745,1665.3098],[28.9615,-28.0745,1678.567],[28.963,-28.0834,1696.8298],[28.9374,-28.0905,1641.6763],[28.9394,-28.1045,1622.7771],[28.9039,-28.113,1585.5747],[28.9106,-28.1206,1602.8018],[28.9118,-28.1248,1584.2554],[28.8838,-28.1245,1593.2357],[28.8824,-28.1318,1590.1932],[28.8791,-28.1377,1594.0905],[28.8477,-28.1247,1679.967],[28.8373,-28.1319,1668.7891],[28.8358,-28.1289,1661.8468],[28.7827,-28.13,1670.5171],[28.7529,-28.1175,1642.9952],[28.7378,-28.1404,1632.069],[28.7343,-28.1385,1630.775],[28.7392,-28.1342,1628.6316],[28.7313,-28.1292,1652.6023],[28.7365,-28.1236,1664.8596],[28.7271,-28.1231,1722.4521],[28.7241,-28.1269,1679.8837],[28.7308,-28.1355,1641.4724],[28.7288,-28.1395,1640.8644],[28.7334,-28.1471,1638.1956],[28.7276,-28.1558,1640.0153],[28.7232,-28.2051,1730.4567],[28.7262,-28.2046,1721.2377],[28.7241,-28.2071,1723.225],[28.7363,-28.2209,1723.9702],[28.7351,-28.2242,1723.9047],[28.7112,-28.2173,1725.5029],[28.7058,-28.2252,1732.7689],[28.7142,-28.2258,1723.4381],[28.7156,-28.2357,1728.8812],[28.6803,-28.2438,1762.5048],[28.6796,-28.2498,1762.6132],[28.655,-28.2519,1707.4155],[28.6566,-28.258,1710.0795],[28.6464,-28.2605,1732.1299],[28.6503,-28.2933,1851.0012],[28.6314,-28.343,1920.6792],[28.6495,-28.3912,2009.6296],[28.6322,-28.3931,1944.9343],[28.6104,-28.3824,1903.5078],[28.604,-28.3769,1845.1067],[28.5828,-28.3913,1822.7897],[28.5966,-28.4111,1836.3647],[28.6113,-28.4039,1761.3951],[28.6121,-28.4122,1822.103],[28.6121,-28.415,1800.9666],[28.5804,-28.4175,1804.4646],[28.5796,-28.4239,1794.635],[28.5822,-28.4292,1780.9031],[28.5824,-28.4494,1911.514],[28.6013,-28.4491,1996.2551],[28.6014,-28.4505,1992.6006],[28.61,-28.456,1887.3135],[28.6047,-28.4791,2260.7571],[28.6231,-28.4789,2269.9783],[28.6284,-28.4825,2210.6843],[28.6327,-28.4913,2427.2441],[28.6353,-28.489,2348.5471],[28.6383,-28.4898,2332.7905],[28.6481,-28.4964,2072.3174],[28.6518,-28.4965,2052.6777],[28.6551,-28.5063,2049.3796],[28.6544,-28.5126,2071.8574],[28.6521,-28.5119,2048.365],[28.642,-28.5167,2040.3781],[28.6409,-28.5197,2017.3069],[28.6391,-28.5198,2035.3694],[28.6396,-28.5233,2090.1633],[28.6419,-28.5245,2086.5466],[28.6408,-28.5341,2262.3843],[28.6341,-28.5417,2474.094],[28.6329,-28.5468,2540.1172],[28.63,-28.5497,2646.0391],[28.6315,-28.5825,1926.7993],[28.6329,-28.5819,1985.3243],[28.6326,-28.5789,1938.4977],[28.6351,-28.5788,1935.0933],[28.6366,-28.5756,1937.4116],[28.6388,-28.5778,1936.7395],[28.6395,-28.5754,1937.6277],[28.6447,-28.5753,1942.1194],[28.645,-28.5731,1943.7029],[28.6514,-28.5708,1970.1917],[28.6519,-28.5733,1955.6047],[28.6612,-28.5781,1971.2117],[28.6642,-28.5772,1983.1335],[28.674,-28.5861,2054.4644],[28.6821,-28.5899,2044.4401],[28.6826,-28.5939,2072.8713],[28.6859,-28.5991,2100.7266],[28.6921,-28.604,2142.9089],[28.6939,-28.6075,2178.3145],[28.6969,-28.6082,2217.8354],[28.6982,-28.6124,2244.8936],[28.7038,-28.6183,2320.7007],[28.6977,-28.6262,2498.1309],[28.6981,-28.631,2546.4937],[28.7009,-28.6366,2688.678],[28.6961,-28.6382,2921.0476],[28.6969,-28.6397,2969.9358],[28.6947,-28.6444,2969.6396],[28.6981,-28.6451,2965.2107],[28.7064,-28.6523,2963.3403],[28.7047,-28.6563,2893.5808],[28.7081,-28.6638,2918.2026],[28.7046,-28.6713,3030.7419],[28.7242,-28.6816,3134.3965],[28.7265,-28.6843,3127.6367],[28.7261,-28.6877,3145.3599],[28.7299,-28.689,3116.9602],[28.734,-28.6864,3109.8418],[28.7434,-28.6877,3090.6089],[28.7535,-28.6838,3111.0547],[28.7658,-28.6901,2911.2429],[28.7778,-28.7008,2958.4861],[28.7847,-28.7012,2975.7612],[28.7913,-28.6986,2954.9688],[28.7959,-28.7013,2955.4028]]]]}
,"properties": {"GID_3": "ZAF.2.4.2_1","GID_0": "ZAF","country": "SouthAfrica","GID_1": "ZAF.2_1","province": "FreeState","NL_NAME_1": "NA","GID_2": "ZAF.2.4_1","county": "ThaboMofutsanyane","NL_NAME_2": "NA","city": "MalutiaPhofung","VARNAME_3": "NA","NL_NAME_3": "NA","TYPE_3": "LocalMunicipality","ENGTYPE_3": "LocalMunicipality","CC_3": "FS194","HASC_3": "NA","name": "Malutia_Phofung.city","area_km2": 4343.75,"hist_schema_id": "Elevation0-9000","hist_area_km2": {"1575": 3.346,"1600": 113.034,"1625": 239.7,"1650": 455.822,"1675": 575.013,"1700": 593.72,"1725": 453.171,"1750": 375.695,"1775": 303.875,"1800": 264.224,"1825": 201.24,"1850": 127.407,"1875": 91.508,"1900": 66.492,"1925": 52.341,"1950": 49.744,"1975": 49.346,"2000": 47.9,"2025": 38.931,"2050": 29.781,"2075": 24.509,"2100": 20.632,"2125": 17.575,"2150": 15.92,"2175": 11.895,"2200": 9.142,"2225": 8.789,"2250": 9.313,"2275": 10.51,"2300": 6.948,"2325": 6.502,"2350": 5.212,"2375": 3.852,"2400": 3.46,"2425": 3.032,"2450": 2.902,"2475": 2.381,"2500": 2.883,"2525": 2.697,"2550": 2.604,"2575": 2.25,"2600": 1.86,"2625": 1.618,"2650": 1.525,"2675": 1.543,"2700": 1.376,"2725": 1.302,"2750": 1.339,"2775": 1.079,"2800": 1.227,"2825": 1.395,"2850": 1.079,"2875": 2.009,"2900": 1.618,"2925": 2.158,"2950": 1.767,"2975": 1.823,"3000": 2.232,"3025": 2.269,"3050": 2.008,"3075": 1.971,"3100": 0.948,"3125": 1.06,"3150": 0.818,"3175": 0.743,"3200": 0.632,"3225": 0.651,"3250": 0.316,"3275": 0.093}}}