{"type": "Feature","bbox": [28.9196,-26.3843,29.407,-25.6565],"geometry": {"type": "MultiPolygon","coordinates": [[[[29.1849,-26.3477,1557.2161],[29.1952,-26.362,1574.7633],[29.2163,-26.3622,1554.0],[29.214,-26.359,1554.0],[29.2155,-26.3522,1550.427],[29.2174,-26.351,1549.3818],[29.2239,-26.3546,1566.5653],[29.2606,-26.3624,1605.781],[29.2851,-26.3427,1567.885],[29.3355,-26.3483,1591.9932],[29.3452,-26.354,1590.3085],[29.3489,-26.3456,1588.4781],[29.352,-26.3361,1564.1992],[29.3446,-26.3315,1561.2987],[29.3666,-26.2921,1633.8231],[29.3673,-26.2638,1633.322],[29.340699999999998,-26.2451,1599.2533],[29.3535,-26.2231,1590.3961],[29.3445,-26.2148,1618.3241],[29.3614,-26.2132,1561.8199],[29.375,-26.1964,1547.4641],[29.388,-26.2049,1608.457],[29.407,-26.1397,1603.9592],[29.391,-26.1442,1586.1884],[29.3799,-26.1363,1597.8533],[29.3337,-26.0952,1561.8041],[29.3661,-26.0801,1577.6217],[29.3864,-26.0784,1621.275],[29.3885,-26.0697,1618.2522],[29.4024,-26.0632,1620.0205],[29.3727,-26.0356,1566.8076],[29.3298,-25.9869,1512.3378],[29.3608,-25.96,1589.3499],[29.3472,-25.9594,1591.6843],[29.3495,-25.9481,1571.4711],[29.3611,-25.9414,1579.4004],[29.3649,-25.943,1581.4185],[29.3804,-25.899,1544.152],[29.351,-25.8993,1545.8414],[29.340699999999998,-25.8442,1511.0403],[29.3094,-25.8446,1463.5048],[29.328,-25.7917,1454.9567],[29.292,-25.795,1513.6825],[29.2891,-25.7454,1477.9771],[29.2425,-25.7088,1461.2493],[29.2195,-25.7418,1544.6521],[29.1888,-25.7229,1485.031],[29.1962,-25.6857,1426.032],[29.1173,-25.6565,1507.2012],[29.107,-25.6612,1532.5679],[29.0933,-25.678,1459.0651],[29.0415,-25.708,1435.0419],[29.0083,-25.6606,1368.29],[28.9688,-25.6733,1352.8721],[28.9507,-25.7283,1405.1477],[28.9813,-25.7425,1350.0485],[28.9576,-25.7746,1448.1257],[28.9382,-25.8233,1500.3746],[28.9433,-25.8244,1480.1958],[28.9504,-25.8374,1551.6729],[28.9411,-25.8773,1551.1305],[28.9515,-25.8769,1506.1902],[28.9597,-25.8809,1483.5547],[28.9506,-25.9002,1551.0032],[28.9563,-25.9055,1544.6797],[28.9817,-25.8866,1572.968],[28.9911,-25.8697,1456.3625],[29.0161,-25.9094,1493.1899],[29.0267,-25.9167,1493.1637],[28.9937,-25.9395,1543.593],[28.9657,-25.9179,1579.7228],[28.969,-25.9485,1571.6296],[28.9687,-25.9693,1560.3596],[28.9537,-25.9748,1571.2543],[28.9568,-25.9911,1573.2834],[28.9676,-26.027,1583.7043],[28.9249,-26.0238,1566.7388],[28.9207,-26.0581,1564.1484],[28.931,-26.0705,1565.5514],[28.9196,-26.1,1541.1205],[28.9993,-26.1209,1629.9014],[28.9978,-26.1472,1601.3403],[29.0196,-26.1466,1608.6075],[29.0203,-26.1932,1619.4592],[28.9822,-26.1963,1643.0608],[28.9842,-26.2369,1639.9849],[29.0011,-26.2288,1619.1132],[29.0333,-26.2258,1614.3735],[29.0401,-26.2594,1594.4652],[29.0658,-26.3143,1638.0919],[29.1022,-26.3298,1640.4741],[29.1034,-26.3452,1648.4133],[29.1236,-26.3843,1586.0195],[29.1614,-26.3598,1566.6907],[29.162,-26.3581,1562.7874],[29.1693,-26.357,1561.1097],[29.1678,-26.3528,1560.0468],[29.1713,-26.3498,1561.6868],[29.1735,-26.3486,1564.0692],[29.1766,-26.3504,1557.5867],[29.1799,-26.3479,1561.6979],[29.1822,-26.3488,1555.6271],[29.1849,-26.3477,1557.2161]]]]}
,"properties": {"GID_3": "ZAF.6.3.3_1","GID_0": "ZAF","country": "SouthAfrica","GID_1": "ZAF.6_1","province": "Mpumalanga","NL_NAME_1": "NA","GID_2": "ZAF.6.3_1","county": "Nkangala","NL_NAME_2": "NA","city": "Emalahleni","VARNAME_3": "NA","NL_NAME_3": "NA","TYPE_3": "LocalMunicipality","ENGTYPE_3": "LocalMunicipality","CC_3": "MP312","HASC_3": "NA","name": "Emalahleni.city","area_km2": 2682.756,"hist_schema_id": "Elevation0-9000","hist_area_km2": {"1275": 3.305,"1300": 7.068,"1325": 10.086,"1350": 16.963,"1375": 28.117,"1400": 50.63,"1425": 103.316,"1450": 136.972,"1475": 142.843,"1500": 186.805,"1525": 329.618,"1550": 524.483,"1575": 545.946,"1600": 415.415,"1625": 164.322,"1650": 16.123,"1675": 0.741}}}