{"type": "Feature","bbox": [20.5654,-34.441,21.887,-33.7939],"geometry": {"type": "MultiPolygon","coordinates": [[[[21.4221,-34.3782,13.8424],[21.4146,-34.3704,1.2981],[21.4126,-34.366,5.6987],[21.416,-34.3587,7.1505],[21.4165,-34.3599,14.6551],[21.414,-34.366,-0.2553],[21.4157,-34.3696,1.2981],[21.4196,-34.3712,0.1495],[21.4229,-34.3751,1.2073],[21.4221,-34.3768,4.9494],[21.4246,-34.3779,1.019],[21.4299,-34.3732,2.5788],[21.4446,-34.3682,2.8854],[21.4615,-34.3662,12.7227],[21.4821,-34.3676,4.799],[21.4935,-34.366,7.4911],[21.5104,-34.3604,0.0],[21.5179,-34.3615,0.0],[21.5238,-34.3576,25.3852],[21.5368,-34.3568,9.9793],[21.5501,-34.3615,0.0],[21.5651,-34.361,34.8756],[21.5696,-34.3637,0.0],[21.5776,-34.3649,0.0],[21.5824,-34.3637,4.7235],[21.5851,-34.3665,0.0],[21.611,-34.3721,19.9932],[21.6351,-34.3824,0.0],[21.6435,-34.381,42.3908],[21.6465,-34.3838,0.0],[21.6485,-34.3829,40.9291],[21.6607,-34.3871,0.4126],[21.669,-34.3865,5.1921],[21.6768,-34.3885,9.9973],[21.6832,-34.3924,0.0],[21.6913,-34.3918,4.1671],[21.6921,-34.3946,0.0],[21.6951,-34.3957,0.0],[21.7126,-34.3937,0.6727],[21.7296,-34.3951,0.2211],[21.7357,-34.394,0.1314],[21.7435,-34.3874,0.9076],[21.7563,-34.3879,0.0582],[21.7607,-34.3851,0.363],[21.7665,-34.3865,0.0],[21.7707,-34.384,2.984],[21.786,-34.384,0.1499],[21.7899,-34.3821,0.7779],[21.8037,-34.3829,0.0082],[21.8057,-34.3801,2.696],[21.8132,-34.3815,0.0],[21.8187,-34.3776,3.8385],[21.8226,-34.3785,0.0],[21.8271,-34.3763,0.0],[21.8357,-34.3754,0.2829],[21.8504,-34.3701,0.0],[21.8576,-34.3629,7.1968],[21.8696,-34.364,0.0],[21.8724,-34.3604,2.144],[21.8857,-34.3537,0.0],[21.8863,-34.3515,0.0],[21.8815,-34.3501,4.3431],[21.8829,-34.3457,0.0],[21.8796,-34.3432,0.6277],[21.8779,-34.3385,0.0],[21.8547,-34.3335,0.0],[21.8288,-34.3132,12.8672],[21.8243,-34.2974,8.0654],[21.8339,-34.2909,5.0449],[21.8279,-34.2825,3.4472],[21.8187,-34.281,1.651],[21.7941,-34.2862,3.5273],[21.7884,-34.2852,11.5043],[21.7852,-34.2823,1.5721],[21.7689,-34.2576,2.6187],[21.762,-34.2382,5.9549],[21.7536,-34.2251,5.251],[21.7546,-34.2206,3.8913],[21.7505,-34.2139,10.9445],[21.743,-34.2085,79.0943],[21.7317,-34.2081,160.7729],[21.7284,-34.1643,90.155],[21.7363,-34.1625,98.1073],[21.7428,-34.1584,21.1508],[21.7172,-34.1289,23.7749],[21.6788,-34.1226,157.6383],[21.6896,-34.0899,156.1936],[21.7313,-34.0904,11.405],[21.7328,-34.0922,12.0307],[21.7342,-34.1026,17.3662],[21.741,-34.1027,16.5575],[21.7461,-34.1009,14.6258],[21.7474,-34.0798,20.7331],[21.7267,-34.0824,20.1093],[21.7197,-34.0807,26.1306],[21.7179,-34.0783,25.5481],[21.7173,-34.0537,26.105],[21.7205,-34.0503,40.1928],[21.7359,-34.0417,24.1464],[21.7383,-34.0378,50.5747],[21.738,-34.0348,54.2331],[21.7327,-34.0313,26.4841],[21.7197,-34.0299,24.0689],[21.7176,-34.0321,24.5328],[21.7169,-34.0398,35.3629],[21.7135,-34.046,35.2993],[21.7037,-34.048,33.1413],[21.6983,-34.0515,31.471],[21.6944,-34.0169,212.2088],[21.6707,-34.0168,177.9934],[21.6661,-34.0089,37.6366],[21.6492,-34.011,41.2542],[21.6402,-34.0072,51.7139],[21.6408,-33.9962,43.2914],[21.6527,-33.9808,45.84],[21.6569,-33.9718,58.6266],[21.6585,-33.9635,154.2561],[21.6597,-33.9472,88.8173],[21.6581,-33.9378,62.0327],[21.6519,-33.9329,63.4555],[21.6514,-33.9282,63.8085],[21.6536,-33.9225,64.1596],[21.6529,-33.9164,84.4101],[21.6649,-33.9143,189.216],[21.6739,-33.9015,233.9935],[21.6762,-33.8825,262.3521],[21.6624,-33.8809,138.8945],[21.6628,-33.8798,138.8945],[21.6731,-33.8773,96.3713],[21.6845,-33.8648,117.6582],[21.6983,-33.8586,89.9965],[21.7003,-33.8529,91.6373],[21.6954,-33.8524,302.4429],[21.7616,-33.8279,193.3326],[21.7493,-33.7939,268.2169],[21.6951,-33.807,338.5986],[21.6483,-33.8304,196.7029],[21.6396,-33.8265,150.857],[21.6341,-33.8264,142.4809],[21.6324,-33.8278,117.0133],[21.6266,-33.8252,245.1656],[21.604,-33.8252,206.7244],[21.6035,-33.831,310.829],[21.5483,-33.8228,282.4276],[21.4233,-33.8476,294.6859],[21.3819,-33.8453,350.8387],[21.3711,-33.8199,304.2198],[21.2812,-33.8185,402.8271],[21.2726,-33.822,380.562],[21.1856,-33.8233,378.9615],[21.1541,-33.8323,436.3853],[21.1075,-33.8319,434.5856],[21.1014,-33.8267,424.1868],[21.0846,-33.8229,395.7534],[21.0726,-33.8244,444.0275],[21.0607,-33.8293,493.9982],[21.0532,-33.8385,555.8086],[21.0516,-33.8343,597.7382],[21.0415,-33.8542,455.5934],[20.9916,-33.868,527.2902],[21.0026,-33.8479,577.2991],[20.9816,-33.8456,564.8378],[20.9434,-33.8519,449.2704],[20.9361,-33.8792,505.5634],[20.9238,-33.8893,723.4695],[20.9524,-33.9018,736.7577],[20.9386,-33.925,1159.656],[20.934,-33.9476,1260.5889],[20.9364,-33.9612,734.9629],[20.9215,-33.9528,688.332],[20.8782,-33.964,391.8288],[20.8678,-33.955,970.8613],[20.8539,-33.9632,692.8312],[20.8456,-33.9628,520.3618],[20.8419,-33.9648,451.5645],[20.8411,-33.9732,318.6108],[20.8342,-33.9717,313.5569],[20.8331,-33.9675,344.9799],[20.8296,-33.9652,363.0356],[20.8267,-33.9658,354.0269],[20.8272,-33.9615,400.3475],[20.8195,-33.9469,714.8643],[20.8191,-33.9405,1105.1658],[20.8164,-33.9402,1131.3137],[20.8066,-33.9464,1056.1326],[20.7073,-33.9551,284.6491],[20.707,-33.9591,274.6819],[20.7021,-33.9609,260.4473],[20.7024,-33.9677,240.3571],[20.6947,-33.976,217.891],[20.6995,-33.9763,242.1187],[20.7008,-33.9782,252.1753],[20.7073,-33.9802,209.8418],[20.7064,-33.9826,205.9227],[20.7083,-33.9851,211.7473],[20.7052,-33.9902,163.0343],[20.7153,-33.9884,183.8048],[20.7178,-33.9865,195.1522],[20.729,-33.9884,375.5503],[20.7321,-33.9989,212.875],[20.7281,-34.0066,141.2294],[20.7296,-34.0181,231.7778],[20.7128,-34.0179,183.3616],[20.71,-34.0165,214.5824],[20.7119,-34.0123,155.0506],[20.7107,-34.0102,143.2189],[20.694,-34.0068,157.3792],[20.6999,-34.0397,328.1314],[20.7101,-34.0402,270.9495],[20.7227,-34.0368,228.1732],[20.7286,-34.0575,345.3617],[20.7476,-34.0667,360.3992],[20.7404,-34.0713,309.1942],[20.7543,-34.0973,197.414],[20.7335,-34.0933,279.6191],[20.7209,-34.0925,264.6657],[20.7032,-34.0881,230.1621],[20.7043,-34.0909,241.8576],[20.693,-34.1008,257.2285],[20.691,-34.0891,260.1469],[20.6873,-34.0874,248.1536],[20.6605,-34.089,288.0915],[20.6401,-34.086,216.1429],[20.6393,-34.0976,242.9863],[20.6474,-34.1092,177.6447],[20.6487,-34.1194,202.6023],[20.6475,-34.126,175.299],[20.6421,-34.1353,181.9007],[20.6562,-34.1448,218.5203],[20.6497,-34.1491,192.8581],[20.6453,-34.1755,100.5022],[20.6543,-34.1714,141.2826],[20.6649,-34.1885,154.0049],[20.6865,-34.1874,160.0477],[20.6969,-34.1843,172.595],[20.7189,-34.1955,194.529],[20.6996,-34.2132,223.8812],[20.6928,-34.2024,181.1488],[20.6528,-34.2236,154.1595],[20.6392,-34.2343,148.0071],[20.6377,-34.2429,170.6509],[20.5994,-34.2729,62.2325],[20.5747,-34.2834,30.3285],[20.5726,-34.283,26.0908],[20.5654,-34.3006,1.0402],[20.5661,-34.3036,6.5937],[20.5682,-34.3042,4.6324],[20.5736,-34.3012,1.2763],[20.5788,-34.2952,1.3541],[20.5828,-34.2947,3.5537],[20.5891,-34.298,34.6428],[20.5914,-34.3043,3.1477],[20.6022,-34.305,0.0],[20.6136,-34.3016,0.4559],[20.6178,-34.3027,15.4081],[20.6223,-34.3133,0.0],[20.6221,-34.3165,4.7048],[20.6196,-34.3185,3.0765],[20.6084,-34.321,5.6607],[20.6046,-34.3245,20.4207],[20.6042,-34.3348,0.9348],[20.5966,-34.3472,0.7978],[20.5974,-34.3518,1.1884],[20.6029,-34.352,0.652],[20.6085,-34.3467,1.3248],[20.6224,-34.3436,0.0],[20.6294,-34.3449,2.0581],[20.6359,-34.3533,0.696],[20.6419,-34.3555,0.3975],[20.6477,-34.3549,2.2933],[20.6558,-34.3485,0.2912],[20.6688,-34.3498,0.0],[20.6861,-34.3466,0.0],[20.6875,-34.3475,0.0],[20.6875,-34.3541,0.0],[20.6907,-34.3587,0.0],[20.7066,-34.364,0.0],[20.7216,-34.379,0.0],[20.7346,-34.3875,0.0],[20.75,-34.392,0.0],[20.7666,-34.3946,0.0],[20.7988,-34.4081,0.0],[20.8016,-34.4081,0.0],[20.811,-34.4026,0.0],[20.82,-34.4013,0.0],[20.85,-34.4034,0.0],[20.8538,-34.3976,4.4183],[20.8593,-34.3957,0.9673],[20.8804,-34.3812,13.2555],[20.8899,-34.3768,2.325],[20.9154,-34.3696,0.0],[20.9307,-34.3668,0.0],[20.9588,-34.3651,0.0],[21.0015,-34.3649,6.8015],[21.0007,-34.3615,0.0],[21.006,-34.361,0.9586],[21.0079,-34.3515,0.1134],[21.0018,-34.3496,41.3531],[21.0026,-34.349,2.5088],[21.0085,-34.351,0.0],[21.0082,-34.3601,0.0],[21.0063,-34.3632,5.0334],[21.0007,-34.3657,6.8015],[21.0012,-34.3682,0.0],[21.0029,-34.3662,17.3304],[21.0046,-34.3682,0.0],[21.0096,-34.3668,0.0],[21.0365,-34.3712,31.6198],[21.0471,-34.3701,3.9571],[21.1051,-34.3774,9.6664],[21.1146,-34.3804,0.0],[21.1293,-34.3821,13.7958],[21.1612,-34.3907,29.7735],[21.2043,-34.4049,11.1643],[21.2071,-34.4071,1.3511],[21.2076,-34.4113,0.0],[21.2138,-34.4118,0.1872],[21.2188,-34.4171,0.0],[21.2221,-34.416,4.9742],[21.2249,-34.4188,0.0],[21.2274,-34.4179,3.879],[21.2288,-34.419,0.0],[21.231,-34.4162,37.571],[21.2337,-34.4201,0.0],[21.2438,-34.4204,0.0],[21.2485,-34.4229,-0.065],[21.2543,-34.4235,0.0],[21.2588,-34.4265,0.0],[21.2618,-34.426,10.0901],[21.2729,-34.4315,0.0],[21.2796,-34.4304,2.3679],[21.2846,-34.436,0.0],[21.2899,-34.4385,0.0],[21.2971,-34.4382,0.0],[21.299,-34.4404,0.0],[21.3051,-34.441,0.0],[21.3057,-34.4393,0.3023],[21.3146,-34.4396,0.0],[21.3146,-34.4343,14.4831],[21.3179,-34.4351,0.0],[21.3207,-34.434,0.0],[21.321,-34.4324,0.0],[21.3324,-34.4354,0.0],[21.3335,-34.434,3.9775],[21.3388,-34.434,0.0],[21.3379,-34.4285,0.0],[21.339,-34.4268,0.3621],[21.3429,-34.4285,0.0],[21.346,-34.4279,0.0],[21.3521,-34.4215,0.1105],[21.3604,-34.4199,0.0],[21.371,-34.4246,0.0],[21.3749,-34.4235,0.0],[21.3757,-34.4201,0.0],[21.3826,-34.411,9.7626],[21.3896,-34.4107,0.0],[21.3951,-34.4129,0.0],[21.4035,-34.4043,10.1374],[21.409,-34.4049,0.0],[21.4171,-34.3999,0.0],[21.4132,-34.3968,3.1744],[21.4163,-34.3924,0.0],[21.4246,-34.3907,8.444],[21.426,-34.3937,0.0],[21.4307,-34.3937,0.0],[21.4315,-34.3918,0.0],[21.4276,-34.3879,1.3318],[21.4279,-34.3865,1.3318],[21.424,-34.3857,5.4567],[21.4221,-34.3835,10.9562],[21.4221,-34.3782,13.8424]]],
[[[21.8854,-34.3432,0.0],[21.8863,-34.3437,0.0],[21.887,-34.3437,0.0],[21.8851,-34.3428,1.7877],[21.8854,-34.3432,0.0]]]]}
,"properties": {"GID_3": "ZAF.9.4.3_1","GID_0": "ZAF","country": "SouthAfrica","GID_1": "ZAF.9_1","province": "WesternCape","NL_NAME_1": "NA","GID_2": "ZAF.9.4_1","county": "Eden","NL_NAME_2": "NA","city": "Hessequa","VARNAME_3": "NA","NL_NAME_3": "NA","TYPE_3": "LocalMunicipality","ENGTYPE_3": "LocalMunicipality","CC_3": "WC042","HASC_3": "NA","name": "Hessequa.city","area_km2": 5738.489,"hist_schema_id": "Elevation0-9000","hist_area_km2": {"0": 56.774,"25": 89.904,"50": 176.717,"75": 295.773,"100": 548.54,"125": 642.614,"150": 654.337,"175": 636.531,"200": 527.484,"225": 373.931,"250": 233.686,"275": 167.792,"300": 139.878,"325": 128.331,"350": 141.243,"375": 135.805,"400": 120.136,"425": 98.261,"450": 76.493,"475": 59.21,"500": 47.438,"525": 42.073,"550": 37.64,"575": 31.923,"600": 26.276,"625": 21.668,"650": 19.275,"675": 17.024,"700": 17.024,"725": 15.934,"750": 14.087,"775": 12.962,"800": 12.838,"825": 12.241,"850": 11.502,"875": 10.781,"900": 10.253,"925": 9.268,"950": 7.826,"975": 7.932,"1000": 6.789,"1025": 6.63,"1050": 5.909,"1075": 5.294,"1100": 4.08,"1125": 4.256,"1150": 3.588,"1175": 3.007,"1200": 2.374,"1225": 1.97,"1250": 1.635,"1275": 1.319,"1300": 0.774,"1325": 0.422,"1350": 0.299,"1375": 0.158,"1400": 0.158,"1425": 0.229,"1450": 0.141}}}