{"type": "Feature","bbox": [29.1012,-29.978,29.6872,-29.4966],"geometry": {"type": "MultiPolygon","coordinates": [[[[29.6485,-29.8342,1414.0627],[29.65,-29.833,1427.4255],[29.6479,-29.8302,1413.98],[29.6507,-29.826,1418.5485],[29.6483,-29.825,1416.9686],[29.6492,-29.8227,1427.5906],[29.6585,-29.8183,1451.8351],[29.6602,-29.8149,1456.1118],[29.6364,-29.8073,1462.7607],[29.6586,-29.7961,1511.7026],[29.6408,-29.7879,1516.9264],[29.6521,-29.7685,1589.4506],[29.6737,-29.7649,1833.6349],[29.6754,-29.7565,1899.5175],[29.6432,-29.7454,1829.3337],[29.6514,-29.7384,1962.0795],[29.6385,-29.7349,1914.0399],[29.6465,-29.7129,1932.444],[29.6399,-29.7078,1873.0719],[29.6625,-29.7019,1893.5413],[29.6709,-29.6958,1869.2021],[29.6721,-29.685,1648.1282],[29.6872,-29.6756,1580.6082],[29.6787,-29.6722,1368.1896],[29.664,-29.67,1344.5535],[29.6621,-29.6711,1345.9561],[29.6604,-29.6701,1344.845],[29.6606,-29.6713,1358.1667],[29.6559,-29.6666,1366.9562],[29.6556,-29.674,1353.952],[29.65,-29.6712,1430.8031],[29.6374,-29.669,1467.5675],[29.638,-29.6705,1377.4711],[29.634,-29.6734,1383.1017],[29.6298,-29.6715,1381.2686],[29.6251,-29.6733,1387.9473],[29.6211,-29.6713,1385.4885],[29.618,-29.6726,1392.7223],[29.615,-29.6703,1393.5247],[29.6126,-29.6706,1392.834],[29.6032,-29.6781,1555.4985],[29.5937,-29.6738,1621.533],[29.5924,-29.6554,1436.0385],[29.5658,-29.656,1510.3676],[29.5545,-29.6526,1466.7905],[29.5566,-29.6394,1562.8992],[29.563,-29.639,1524.6017],[29.568,-29.6067,1339.7166],[29.5607,-29.6045,1288.5627],[29.5579,-29.602,1309.8898],[29.5608,-29.5975,1261.485],[29.5659,-29.5968,1251.3237],[29.5764,-29.5891,1381.6067],[29.5903,-29.5891,1369.1711],[29.5929,-29.5774,1556.6813],[29.5769,-29.5837,1457.4154],[29.5732,-29.5755,1649.7085],[29.5636,-29.5744,1519.4425],[29.5566,-29.5616,1625.8348],[29.5448,-29.5719,1401.7512],[29.5348,-29.5633,1382.1539],[29.529,-29.5637,1490.4165],[29.523,-29.5666,1425.7947],[29.5162,-29.5662,1380.3195],[29.5203,-29.57,1338.6552],[29.5258,-29.5716,1356.3353],[29.5258,-29.5758,1306.2434],[29.5196,-29.5756,1323.665],[29.5169,-29.5784,1319.843],[29.4937,-29.5869,1614.1307],[29.475,-29.5777,1950.449],[29.4773,-29.572,1783.0211],[29.4497,-29.56,1725.4923],[29.4547,-29.5431,1534.7622],[29.4407,-29.5449,1575.8783],[29.437,-29.5476,1518.4136],[29.4328,-29.5422,1678.2878],[29.431,-29.5362,1552.5701],[29.4339,-29.5325,1490.1305],[29.421,-29.5347,1543.4252],[29.4049,-29.5298,1672.8917],[29.3995,-29.5249,1714.6906],[29.384,-29.5257,1731.9064],[29.3699,-29.516,1906.0151],[29.3639,-29.5172,1895.489],[29.3333,-29.5068,2158.5938],[29.3101,-29.4966,2623.3682],[29.2998,-29.4989,3248.9409],[29.3041,-29.5034,3283.7422],[29.305,-29.5098,3250.4419],[29.3069,-29.5102,3184.8193],[29.3055,-29.5167,3278.8066],[29.2997,-29.5192,3296.4675],[29.2932,-29.517,3356.8174],[29.2946,-29.52,3299.98],[29.3031,-29.5262,3177.8696],[29.3071,-29.5337,3078.5261],[29.3129,-29.5366,3048.7502],[29.3127,-29.5458,3076.5771],[29.3069,-29.5494,3149.2544],[29.3056,-29.5543,3249.1262],[29.3148,-29.5585,3086.8762],[29.3167,-29.5627,3060.8628],[29.3203,-29.563,3068.1355],[29.3212,-29.5661,3024.2576],[29.3243,-29.5673,3027.6929],[29.3251,-29.5701,3030.988],[29.3197,-29.5814,2896.7844],[29.3097,-29.5846,2778.4199],[29.3049,-29.5832,2901.6445],[29.2982,-29.5854,2878.7798],[29.2852,-29.5844,2872.051],[29.2856,-29.59,2920.4248],[29.2925,-29.6008,3042.6992],[29.2931,-29.6088,3045.752],[29.2911,-29.6132,3178.1653],[29.2926,-29.6157,3184.2268],[29.2827,-29.6214,3157.6514],[29.2871,-29.6283,3057.4839],[29.2826,-29.6423,2887.0125],[29.2792,-29.6447,2841.5442],[29.2693,-29.643,2813.7583],[29.2647,-29.639,2856.7939],[29.2552,-29.6421,2823.7437],[29.2402,-29.6425,2859.9526],[29.235,-29.6397,2832.616],[29.2303,-29.6429,2819.1836],[29.2296,-29.6465,2783.7561],[29.227,-29.6451,2845.1677],[29.2219,-29.648,2942.0417],[29.218,-29.6474,2942.8723],[29.2144,-29.655,2819.1543],[29.2114,-29.6551,2820.886],[29.2086,-29.6598,2822.4417],[29.2001,-29.6599,2900.7434],[29.1911,-29.6707,3042.3357],[29.1879,-29.6715,3042.8384],[29.1828,-29.6681,3052.5957],[29.1795,-29.6751,2903.981],[29.1762,-29.6772,2839.103],[29.1718,-29.6789,2857.8806],[29.1624,-29.6773,2895.8896],[29.1597,-29.6828,2928.0801],[29.1636,-29.6887,2982.8787],[29.1616,-29.6911,3021.752],[29.1627,-29.6924,3083.1094],[29.1622,-29.6973,3058.1238],[29.1591,-29.7017,2996.2275],[29.1607,-29.7068,2972.1965],[29.1507,-29.7085,3027.7192],[29.1495,-29.7122,3100.9846],[29.1465,-29.7135,3166.7339],[29.1452,-29.7164,3237.5115],[29.1516,-29.7336,3063.7803],[29.1488,-29.7349,3083.5205],[29.1499,-29.7369,3093.624],[29.1465,-29.7385,3150.7029],[29.146,-29.741,3196.8105],[29.136,-29.7391,3253.0901],[29.1358,-29.7439,3113.5247],[29.1379,-29.7485,3054.3145],[29.1407,-29.7503,3044.8462],[29.14,-29.7591,2983.7378],[29.1338,-29.7612,3043.9431],[29.1348,-29.7651,3009.3022],[29.1285,-29.7643,3072.9309],[29.1236,-29.7674,3263.2537],[29.1311,-29.7732,3110.9749],[29.1294,-29.7766,3111.3467],[29.1294,-29.7893,2953.0205],[29.1249,-29.7952,2872.5713],[29.1237,-29.8073,2658.3372],[29.1272,-29.8123,2533.4629],[29.1325,-29.8148,2521.7695],[29.1294,-29.8189,2559.3066],[29.1316,-29.8259,2622.958],[29.1288,-29.8316,2549.0891],[29.1183,-29.8334,2758.28],[29.1137,-29.8414,2839.9954],[29.1101,-29.8441,2983.5808],[29.103,-29.8451,2949.9487],[29.1012,-29.8469,2947.9014],[29.1026,-29.8501,2906.0779],[29.1083,-29.8514,2622.6064],[29.1119,-29.8542,2567.8286],[29.1159,-29.8535,2502.4326],[29.1318,-29.8599,2472.6226],[29.1388,-29.861,2369.7595],[29.1393,-29.8643,2411.7947],[29.1454,-29.8682,2407.6462],[29.1412,-29.875,2472.0422],[29.1414,-29.8771,2485.6377],[29.1459,-29.8789,2431.5796],[29.1489,-29.8839,2391.2317],[29.1543,-29.885,2364.4619],[29.1605,-29.8828,2361.105],[29.1626,-29.8836,2364.0674],[29.1636,-29.893,2369.9226],[29.1609,-29.8955,2374.6978],[29.1616,-29.9031,2449.4563],[29.1582,-29.906,2470.9895],[29.1645,-29.9087,2483.4709],[29.1688,-29.9127,2509.9512],[29.1921,-29.9081,1928.8713],[29.1997,-29.9085,1834.5867],[29.2059,-29.9048,1786.9623],[29.2138,-29.905,1751.1854],[29.2177,-29.907,1742.8007],[29.2202,-29.9058,1737.8638],[29.2276,-29.9093,1724.1772],[29.233,-29.9153,1697.3357],[29.2405,-29.9145,1696.1804],[29.2448,-29.9202,1659.8386],[29.2523,-29.9181,1648.948],[29.2557,-29.9216,1638.8032],[29.2546,-29.9261,1632.7842],[29.2612,-29.9293,1631.804],[29.2661,-29.9351,1622.1985],[29.2705,-29.9325,1658.0868],[29.273,-29.934,1647.8615],[29.2747,-29.9375,1608.1536],[29.2791,-29.9392,1681.4717],[29.2781,-29.9426,1608.9679],[29.2872,-29.9423,1589.353],[29.2915,-29.9398,1588.536],[29.2904,-29.939,1583.9905],[29.2924,-29.9373,1581.6807],[29.2914,-29.9362,1593.84],[29.2935,-29.936,1583.6282],[29.2956,-29.939,1578.4911],[29.3027,-29.9389,1583.0613],[29.3062,-29.9405,1601.2863],[29.305,-29.9427,1574.0751],[29.3039,-29.9423,1574.0751],[29.3052,-29.9441,1573.7493],[29.3058,-29.9429,1580.2153],[29.3089,-29.9442,1567.0342],[29.3119,-29.9428,1607.8777],[29.3179,-29.9436,1558.7456],[29.32,-29.9429,1556.922],[29.3194,-29.9403,1558.1208],[29.3205,-29.9401,1556.8888],[29.3219,-29.9422,1555.063],[29.323,-29.9407,1555.6526],[29.3328,-29.9427,1547.6901],[29.3404,-29.9401,1583.7871],[29.3443,-29.9453,1540.8519],[29.3456,-29.9424,1539.0168],[29.3445,-29.9414,1539.0168],[29.3457,-29.9422,1539.0168],[29.3512,-29.9396,1541.1409],[29.354,-29.9435,1540.7402],[29.3584,-29.9393,1565.4451],[29.3661,-29.942,1537.8602],[29.3691,-29.9416,1528.762],[29.3727,-29.9443,1521.5989],[29.3769,-29.9387,1522.0139],[29.3794,-29.9442,1520.1678],[29.382,-29.9438,1520.694],[29.3843,-29.948,1530.291],[29.3894,-29.9465,1517.0348],[29.3957,-29.9469,1505.8658],[29.393,-29.9512,1503.7063],[29.3908,-29.9513,1509.3041],[29.393,-29.9569,1506.1483],[29.3976,-29.957,1509.6824],[29.399,-29.9606,1497.0323],[29.4043,-29.96,1539.5431],[29.4042,-29.9638,1493.8363],[29.4052,-29.9627,1512.7667],[29.4077,-29.9668,1501.0643],[29.4124,-29.9665,1512.3188],[29.4118,-29.9693,1489.9418],[29.417,-29.9688,1496.5044],[29.4202,-29.9715,1494.8381],[29.4223,-29.976,1481.2639],[29.4317,-29.978,1479.5892],[29.4333,-29.9774,1478.8604],[29.4342,-29.9734,1485.5674],[29.4399,-29.9738,1473.577],[29.4422,-29.9707,1489.1122],[29.4496,-29.9708,1470.3086],[29.4544,-29.9675,1479.3805],[29.4574,-29.9701,1468.4973],[29.4605,-29.9696,1470.8038],[29.4618,-29.9651,1467.1914],[29.4644,-29.966,1467.4949],[29.4659,-29.9634,1480.5251],[29.4699,-29.9667,1468.0601],[29.4771,-29.966,1465.0359],[29.5629,-29.9432,1647.6453],[29.6358,-29.8991,1708.9442],[29.6309,-29.8937,1684.1096],[29.6322,-29.8777,1590.3647],[29.6388,-29.8832,1632.8124],[29.6552,-29.8817,1267.698],[29.6534,-29.8796,1270.7256],[29.6541,-29.8764,1277.5945],[29.6519,-29.8712,1296.8885],[29.653199999999998,-29.8705,1294.8],[29.6528,-29.869,1299.847],[29.6472,-29.8682,1313.1627],[29.6487,-29.8655,1334.0779],[29.6454,-29.8646,1351.5909],[29.6452,-29.8568,1359.4354],[29.6513,-29.8545,1376.646],[29.6542,-29.8497,1383.3245],[29.6576,-29.8497,1413.625],[29.6562,-29.8475,1398.5471],[29.6512,-29.8474,1404.689],[29.6527,-29.8436,1404.1558],[29.6503,-29.843,1413.1533],[29.6511,-29.838,1434.4495],[29.6446,-29.836,1438.9507],[29.6485,-29.8342,1414.0627]]]]}
,"properties": {"GID_3": "ZAF.4.4.3_1","GID_0": "ZAF","country": "SouthAfrica","GID_1": "ZAF.4_1","province": "KwaZulu-Natal","NL_NAME_1": "NA","GID_2": "ZAF.4.4_1","county": "Sisonke","NL_NAME_2": "NA","city": "KwaSani","VARNAME_3": "NA","NL_NAME_3": "NA","TYPE_3": "LocalMunicipality","ENGTYPE_3": "LocalMunicipality","CC_3": "KZN432","HASC_3": "NA","name": "Kwa_Sani.city","area_km2": 1854.282,"hist_schema_id": "Elevation0-9000","hist_area_km2": {"1225": 0.074,"1250": 0.423,"1275": 2.285,"1300": 4.865,"1325": 6.026,"1350": 7.887,"1375": 9.302,"1400": 13.622,"1425": 29.482,"1450": 43.26,"1475": 74.321,"1500": 110.252,"1525": 104.737,"1550": 90.822,"1575": 96.719,"1600": 98.043,"1625": 98.666,"1650": 91.907,"1675": 89.494,"1700": 80.275,"1725": 66.724,"1750": 56.025,"1775": 47.328,"1800": 41.063,"1825": 34.169,"1850": 30.305,"1875": 27.03,"1900": 26.329,"1925": 27.418,"1950": 28.819,"1975": 29.317,"2000": 25.891,"2025": 23.46,"2050": 20.696,"2075": 21.012,"2100": 18.95,"2125": 19.411,"2150": 17.993,"2175": 17.478,"2200": 16.5,"2225": 16.445,"2250": 15.395,"2275": 14.972,"2300": 14.403,"2325": 13.758,"2350": 14.418,"2375": 12.189,"2400": 10.571,"2425": 9.871,"2450": 8.895,"2475": 7.57,"2500": 5.802,"2525": 4.826,"2550": 4.256,"2575": 3.408,"2600": 3.279,"2625": 3.058,"2650": 2.985,"2675": 2.727,"2700": 2.837,"2725": 2.284,"2750": 2.34,"2775": 2.395,"2800": 1.898,"2825": 2.395,"2850": 2.469,"2875": 2.377,"2900": 3.151,"2925": 2.654,"2950": 2.285,"2975": 1.75,"3000": 1.474,"3025": 1.455,"3050": 1.179,"3075": 0.976,"3100": 0.682,"3125": 0.571,"3150": 0.461,"3175": 0.369,"3200": 0.276,"3225": 0.24,"3250": 0.184,"3275": 0.111,"3300": 0.185,"3325": 0.037,"3350": 0.037}}}