{"type": "Feature","bbox": [30.5627,-30.504,30.7646,-30.1985],"geometry": {"type": "MultiPolygon","coordinates": [[[[30.6868,-30.4007,2.0968],[30.6937,-30.3954,0.3095],[30.6937,-30.3929,4.7019],[30.7001,-30.3854,3.0531],[30.7018,-30.3765,0.0],[30.7065,-30.3715,2.8622],[30.7068,-30.369,4.0916],[30.7176,-30.3621,0.0],[30.7196,-30.3535,0.0],[30.736,-30.339,0.0],[30.7346,-30.3335,5.5029],[30.741,-30.3224,6.2514],[30.7462,-30.3068,0.0],[30.7501,-30.2993,7.1399],[30.7604,-30.289,0.0],[30.7607,-30.2824,1.5041],[30.759,-30.2779,4.6961],[30.7646,-30.2687,0.0],[30.7619,-30.2681,37.8563],[30.7615,-30.2647,9.8907],[30.7561,-30.2677,58.7677],[30.747,-30.2438,89.9548],[30.7354,-30.2294,160.4663],[30.6924,-30.1985,261.8739],[30.6902,-30.2113,179.5014],[30.6671,-30.203,312.8087],[30.6583,-30.2055,373.6426],[30.6669,-30.2356,321.4623],[30.6721,-30.2467,280.3663],[30.6851,-30.2506,267.6627],[30.6833,-30.2638,204.3737],[30.6796,-30.2675,73.6426],[30.6785,-30.2613,78.1811],[30.671,-30.2614,97.1653],[30.6693,-30.2601,71.87],[30.6565,-30.2728,241.5737],[30.6437,-30.2667,275.832],[30.6423,-30.27,286.6227],[30.6567,-30.2866,288.6685],[30.6554,-30.2932,165.2896],[30.6576,-30.2958,165.2006],[30.6481,-30.296,177.35],[30.6522,-30.3103,215.6213],[30.6579,-30.3109,179.5087],[30.6553,-30.3159,175.1039],[30.6536,-30.315,226.5457],[30.6496,-30.318,108.1394],[30.6541,-30.3234,97.0222],[30.6484,-30.3328,72.5143],[30.6462,-30.3329,109.9962],[30.6485,-30.3332,76.4731],[30.6472,-30.3351,78.0879],[30.6482,-30.3358,78.0879],[30.6328,-30.3476,222.7456],[30.6195,-30.3644,178.5291],[30.6149,-30.3729,252.0365],[30.6077,-30.3876,174.4422],[30.6139,-30.3914,144.9535],[30.6099,-30.4058,90.8335],[30.6078,-30.4045,63.9728],[30.6083,-30.4023,64.7165],[30.605,-30.3969,73.1866],[30.5926,-30.4013,79.2591],[30.5926,-30.4083,83.471],[30.5835,-30.4035,80.0154],[30.5841,-30.3963,151.7773],[30.5643,-30.4006,99.1629],[30.5652,-30.403,120.2705],[30.5627,-30.4086,96.3033],[30.5649,-30.4126,93.7432],[30.5675,-30.414,92.5244],[30.5702,-30.4129,88.3445],[30.5712,-30.4093,84.8765],[30.5761,-30.4039,92.6514],[30.5822,-30.4033,83.6814],[30.5822,-30.417,219.6872],[30.5905,-30.4643,17.3247],[30.5931,-30.465,24.7099],[30.5952,-30.4699,123.2617],[30.6026,-30.4732,10.2637],[30.5887,-30.4925,142.4618],[30.6017,-30.4995,68.0991],[30.6089,-30.4886,90.0268],[30.6299,-30.504,3.1207],[30.6313,-30.5018,0.0],[30.6304,-30.4999,24.5417],[30.6332,-30.4982,0.0],[30.6329,-30.4943,0.0],[30.6351,-30.491,0.0],[30.6329,-30.489,0.0],[30.6335,-30.4846,0.4523],[30.6385,-30.4818,6.9725],[30.6421,-30.4749,0.0],[30.6529,-30.4651,1.612],[30.6526,-30.4618,10.7885],[30.6549,-30.4604,2.4452],[30.654,-30.4535,0.9739],[30.6593,-30.4487,1.1187],[30.661,-30.4426,9.3117],[30.6679,-30.4379,0.0],[30.6676,-30.4346,0.0],[30.6735,-30.4304,5.7102],[30.6724,-30.4246,0.0],[30.6735,-30.4199,13.5691],[30.6815,-30.4126,2.9698],[30.6835,-30.4049,0.0],[30.6868,-30.4007,2.0968]]]]}
,"properties": {"GID_3": "ZAF.4.5.3_1","GID_0": "ZAF","country": "SouthAfrica","GID_1": "ZAF.4_1","province": "KwaZulu-Natal","NL_NAME_1": "NA","GID_2": "ZAF.4.5_1","county": "Ugu","NL_NAME_2": "NA","city": "Umdoni","VARNAME_3": "NA","NL_NAME_3": "NA","TYPE_3": "LocalMunicipality","ENGTYPE_3": "LocalMunicipality","CC_3": "KZN212","HASC_3": "NA","name": "Umdoni.city","area_km2": 251.5869,"hist_schema_id": "Elevation0-9000","hist_area_km2": {"0": 9.7669,"25": 21.1259,"50": 32.3387,"75": 44.3051,"100": 45.556,"125": 35.409,"150": 24.6709,"175": 14.204,"200": 7.9273,"225": 5.2747,"250": 4.0845,"275": 3.1138,"300": 1.9782,"325": 1.3372,"350": 0.4947}}}