{"type":"Feature","properties":{"GID_3":"ZAF.5.2.1_1","GID_0":"ZAF","country":"SouthAfrica","GID_1":"ZAF.5_1","province":"Limpopo","NL_NAME_1":"NA","GID_2":"ZAF.5.2_1","county":"Mopani","NL_NAME_2":"NA","city":"Ba-Phalaborwa","VARNAME_3":"NA","NL_NAME_3":"NA","TYPE_3":"LocalMunicipality","ENGTYPE_3":"LocalMunicipality","CC_3":"LIM334","HASC_3":"NA","name":"Ba-Phalaborwa.city"},
"geometry":{"type": "MultiPolygon","coordinates": [[[[31.1451,-24.0702,302.875],[31.1626,-24.06,292.3432],[31.1698,-24.0586,292.7978],[31.1713,-24.0442,293.6113],[31.1757,-24.0364,283.9176],[31.1882,-24.0317,283.6451],[31.1943,-24.0312,286.9501],[31.206,-24.041,279.0201],[31.22,-24.0456,273.6205],[31.2347,-24.0576,277.7687],[31.2452,-24.0714,282.5845],[31.2523,-24.0977,271.9108],[31.2572,-24.101,275.0723],[31.2641,-24.0998,270.8895],[31.2751,-24.0938,275.2755],[31.2934,-24.0744,278.8795],[31.3016,-24.0738,258.5803],[31.3132,-24.0814,265.7547],[31.3206,-24.0826,268.5325],[31.3495,-24.0727,270.4736],[31.36,-24.0712,262.7986],[31.3651,-24.0685,264.5912],[31.3791,-24.0522,267.5557],[31.3864,-24.0522,246.3887],[31.3926,-24.0658,242.7989],[31.399,-24.0676,254.6326],[31.42,-24.0564,242.3847],[31.428,-24.0545,255.6445],[31.4339,-24.0495,253.6674],[31.4406,-24.0383,249.8926],[31.4409,-24.021,251.2215],[31.4476,-24.0199,233.441],[31.4625,-24.0296,237.7224],[31.482,-24.0316,229.9831],[31.5055,-24.0408,235.866],[31.5099,-24.0432,233.5779],[31.5209,-24.0543,224.8384],[31.5291,-24.0567,223.5296],[31.5426,-24.054,221.7982],[31.5446,-24.0424,230.5433],[31.5487,-24.0372,244.218],[31.5682,-24.0331,218.1344],[31.5737,-24.0373,213.2165],[31.5803,-24.0471,211.3924],[31.5869,-24.0528,210.1764],[31.5947,-24.0564,208.9532],[31.5981,-24.0563,210.4803],[31.6083,-24.0476,209.9762],[31.6096,-24.0363,218.504],[31.6209,-24.0233,205.163],[31.6326,-24.0179,214.3075],[31.6524,-24.0142,214.4241],[31.663,-24.0149,200.2411],[31.6688,-24.021,196.7436],[31.6743,-24.043,193.6214],[31.68,-24.0567,191.0403],[31.6837,-24.0595,191.607],[31.7019,-24.0599,186.0474],[31.7187,-24.0568,181.125],[31.7358,-24.0461,180.1823],[31.7376,-24.039,185.6992],[31.7336,-24.0184,174.2788],[31.7349,-24.0113,176.092],[31.7466,-24.0035,172.14],[31.77,-23.9832,168.1136],[31.7764,-23.9812,170.0869],[31.7827,-23.9821,145.047],[31.7946,-23.9919,153.2176],[31.8012,-23.9941,148.7221],[31.8047,-23.9972,174.8029],[31.8125,-23.9993,141.1137],[31.8204,-23.9984,137.2109],[31.8221,-23.9965,154.2216],[31.8216,-23.9909,166.491],[31.825,-23.9862,155.1718],[31.8527,-23.9869,183.7233],[31.8838,-23.9846,240.2158],[31.8809,-23.9679,133.6367],[31.8807,-23.955,178.647],[31.7692,-23.8878,381.1542],[31.6974,-23.7219,419.0501],[31.6905,-23.6294,386.5903],[31.6658,-23.5914,393.3637],[31.561,-23.482,422.4361],[31.5507,-23.4103,367.387],[31.5559,-23.2691,304.9494],[31.5592,-23.2312,241.3398],[31.5612,-23.2269,240.9507],[31.5549,-23.2224,236.2074],[31.5391,-23.219,245.7679],[31.5338,-23.2204,250.634],[31.528,-23.2189,251.621],[31.524,-23.2152,256.3688],[31.5198,-23.2158,256.5054],[31.5162,-23.2186,260.5575],[31.5156,-23.2208,263.3705],[31.5074,-23.2244,264.811],[31.5052,-23.2333,271.2488],[31.4974,-23.24,274.0207],[31.491,-23.2515,282.126],[31.4814,-23.2517,285.477],[31.4762,-23.2536,288.9068],[31.4683,-23.2524,293.2587],[31.4585,-23.2576,299.3956],[31.4558,-23.263,304.0229],[31.4421,-23.2604,307.2548],[31.4402,-23.2641,308.084],[31.4412,-23.2666,310.8254],[31.4364,-23.2732,315.1592],[31.431,-23.2746,317.6141],[31.4282,-23.2784,319.8857],[31.425,-23.2796,321.778],[31.418,-23.2776,325.6052],[31.4096,-23.281,331.0194],[31.3928,-23.2836,337.153],[31.3883,-23.2826,340.72],[31.38,-23.2764,344.8714],[31.3727,-23.2803,350.7346],[31.3636,-23.2912,358.9922],[31.3532,-23.2966,367.6636],[31.3275,-23.3014,387.6135],[31.318,-23.301,396.7848],[31.3234,-23.3316,403.8125],[31.3232,-23.3375,401.0741],[31.3191,-23.3481,391.724],[31.3199,-23.3673,382.233],[31.311,-23.3696,389.9741],[31.3019,-23.3781,385.1682],[31.2997,-23.3826,377.1273],[31.2943,-23.3784,378.6912],[31.2908,-23.3703,384.6932],[31.2861,-23.367,386.1826],[31.2827,-23.368,387.7285],[31.278199999999998,-23.3667,389.9805],[31.2651,-23.3552,396.223],[31.2607,-23.3541,398.431],[31.2559,-23.3554,401.2907],[31.2509,-23.3537,404.0297],[31.2448,-23.3486,407.5481],[31.2383,-23.34,413.4187],[31.2339,-23.3378,417.5218],[31.2171,-23.337,430.1129],[31.2169,-23.3484,435.0195],[31.1735,-23.3502,407.8062],[31.1703,-23.3643,400.9194],[31.1665,-23.3718,396.5715],[31.1657,-23.3799,395.5881],[31.1589,-23.3861,391.3664],[31.1543,-23.3853,388.4214],[31.1524,-23.3886,386.8149],[31.1536,-23.3997,382.8344],[31.1575,-23.4026,381.1066],[31.1593,-23.4106,377.3313],[31.1578,-23.4155,375.781],[31.1603,-23.4225,372.6864],[31.1581,-23.4325,370.7025],[31.1556,-23.435,369.0132],[31.157,-23.4401,368.9552],[31.1537,-23.4448,364.8499],[31.1567,-23.4513,364.1414],[31.1517,-23.4562,361.2063],[31.1501,-23.4612,359.5333],[31.1517,-23.4672,357.5139],[31.15,-23.4757,354.196],[31.1511,-23.481,352.076],[31.1473,-23.4832,349.9377],[31.1453,-23.4875,348.3469],[31.147,-23.4942,351.2733],[31.1514,-23.5008,345.8501],[31.1504,-23.5044,344.36],[31.1528,-23.5071,342.4202],[31.1502,-23.5137,342.1053],[31.1461,-23.5186,343.5341],[31.1491,-23.524,338.6877],[31.1453,-23.5258,336.7318],[31.1434,-23.5319,336.5144],[31.1405,-23.5329,333.6163],[31.135,-23.5318,331.848],[31.1302,-23.5361,337.831],[31.1285,-23.5389,339.0332],[31.1309,-23.542,332.1158],[31.1304,-23.5449,330.583],[31.125,-23.5431,326.8104],[31.1209,-23.5451,326.3745],[31.1265,-23.5542,322.8182],[31.1292,-23.5637,317.0214],[31.1254,-23.5676,317.6988],[31.1235,-23.5673,312.0902],[31.1253,-23.5714,310.7318],[31.123,-23.5805,313.7886],[31.1186,-23.5842,308.7441],[31.1033,-23.5877,311.6248],[31.1001,-23.5902,306.3225],[31.101,-23.597,311.385],[31.1126,-23.6096,301.2508],[31.1229,-23.6269,298.698],[31.1446,-23.6484,294.6163],[31.1296,-23.6523,296.4583],[31.1154,-23.6538,306.0199],[31.114,-23.6684,300.4139],[31.1073,-23.6759,300.8452],[31.0995,-23.6776,303.5783],[31.0932,-23.6704,304.4729],[31.0893,-23.6683,313.1713],[31.0845,-23.6525,309.8791],[31.0783,-23.646,317.2032],[31.0581,-23.6463,325.2536],[31.0485,-23.6423,317.3559],[31.0465,-23.6434,318.3457],[31.0453,-23.6474,317.5861],[31.0495,-23.6563,320.9806],[31.0495,-23.6598,318.0385],[31.0445,-23.6666,328.1799],[31.0388,-23.6688,324.6406],[31.0256,-23.6666,323.691],[31.0084,-23.6762,325.0201],[31.0008,-23.6758,325.9233],[30.9922,-23.6713,332.6868],[30.9792,-23.6687,329.2471],[30.9714,-23.6649,331.519],[30.9661,-23.668,334.1906],[30.9674,-23.6774,332.9267],[30.9661,-23.6824,336.0673],[30.9592,-23.6845,338.2649],[30.9542,-23.6836,335.2319],[30.9417,-23.6775,341.8322],[30.9365,-23.68,344.6061],[30.9355,-23.6826,339.4126],[30.9313,-23.6835,338.527],[30.9185,-23.6758,343.7706],[30.9149,-23.6758,344.8912],[30.9064,-23.682,345.0184],[30.9005,-23.6768,344.3489],[30.8926,-23.6775,347.3615],[30.8929,-23.6734,345.0447],[30.8889,-23.6727,348.8703],[30.8759,-23.6785,348.9865],[30.8681,-23.6875,344.5923],[30.8432,-23.6907,356.1061],[30.8313,-23.6859,357.6312],[30.8189,-23.6842,356.4659],[30.81,-23.6924,354.9033],[30.7881,-23.692,362.9116],[30.7841,-23.6949,362.9817],[30.7764,-23.6936,364.0843],[30.7666,-23.7005,368.723],[30.7638,-23.7006,367.125],[30.7574,-23.6937,371.8896],[30.7522,-23.6796,380.3819],[30.7505,-23.6691,383.6974],[30.743,-23.6603,390.1446],[30.7335,-23.641,395.0052],[30.7289,-23.6407,393.5569],[30.715699999999998,-23.6481,398.1104],[30.6249,-23.5967,476.8957],[30.6135,-23.6332,444.5521],[30.5561,-23.6724,481.2607],[30.5403,-23.6801,461.5164],[30.5199,-23.6861,508.5195],[30.4921,-23.7138,493.9951],[30.51,-23.7316,455.1267],[30.519,-23.7299,454.6166],[30.5243,-23.7269,453.1139],[30.5262,-23.7281,457.0266],[30.5269,-23.7347,451.7034],[30.5346,-23.7512,452.545],[30.5354,-23.7558,444.6221],[30.5337,-23.7686,465.8632],[30.537,-23.7683,465.166],[30.5355,-23.7992,556.9031],[30.5315,-23.805,564.9598],[30.5857,-23.8474,569.2488],[30.5079,-23.8657,690.3859],[30.5131,-23.8867,738.0739],[30.555,-23.8909,595.8001],[30.5574,-23.9415,638.4417],[30.5234,-23.9494,727.0741],[30.5266,-23.976,617.2858],[30.4801,-23.9809,698.637],[30.6755,-24.1459,484.3487],[30.7782,-24.090699999999998,532.6509],[30.7796,-24.0772,536.378],[30.7766,-24.072,561.8091],[30.7788,-24.066,555.814],[30.7779,-24.0631,556.6116],[30.7729,-24.0625,571.0485],[30.772,-24.0584,571.9359],[30.8049,-24.0259,528.6968],[30.8211,-24.0598,577.7321],[30.838,-24.0866,516.611],[30.8391,-24.0859,487.4485],[30.8444,-24.0931,490.0146],[30.8463,-24.0983,495.4022],[30.9084,-24.0759,472.1856],[30.9237,-24.0367,519.2647],[30.9402,-24.053,442.4112],[30.9937,-24.0427,450.1183],[31.0074,-24.072,474.7029],[30.9762,-24.0902,427.1618],[31.0127,-24.1294,328.558],[31.0318,-24.1154,320.0193],[31.0332,-24.1113,321.3436],[31.03,-24.1012,314.8809],[31.0319,-24.0981,315.8958],[31.0362,-24.0957,313.8964],[31.0436,-24.0936,313.4299],[31.0593,-24.0936,315.3983],[31.0665,-24.09,310.5],[31.0731,-24.0827,315.2034],[31.0942,-24.0755,308.9205],[31.1009,-24.0708,312.2483],[31.1206,-24.0682,306.8308],[31.1338,-24.0737,305.0],[31.1451,-24.0702,302.875]]]]}}