{"type":"Feature","properties":{"GID_3":"ZAF.1.8.1_1","GID_0":"ZAF","country":"SouthAfrica","GID_1":"ZAF.1_1","province":"EasternCape","NL_NAME_1":"NA","GID_2":"ZAF.1.8_1","county":"O.R.Tambo","NL_NAME_2":"NA","city":"KingSabataDalindyebo","VARNAME_3":"NA","NL_NAME_3":"NA","TYPE_3":"LocalMunicipality","ENGTYPE_3":"LocalMunicipality","CC_3":"EC157","HASC_3":"NA","name":"King_Sabata_Dalindyebo.city"},
"geometry":{"type": "MultiPolygon","coordinates": [[[[29.1843,-31.9484,2.4929],[29.1846,-31.949,2.4929],[29.1853,-31.949,2.4929],[29.1851,-31.9489,2.4929],[29.1843,-31.9484,2.4929]]],
[[[28.6766,-31.9805,584.1115],[28.6767,-31.9805,584.1115],[28.6767,-31.9804,584.1115],[28.6766,-31.9804,584.1115],[28.6766,-31.9805,584.1115]]],
[[[29.0374,-32.0401,209.8199],[29.0424,-32.0421,177.4046],[29.0432,-32.0395,161.9837],[29.0658,-32.0353,131.7715],[29.0728,-32.0406,97.3744],[29.0735,-32.043,116.5392],[29.0677,-32.0488,165.4873],[29.0741,-32.0499,141.8185],[29.0787,-32.0452,54.4154],[29.0805,-32.0466,113.0309],[29.0837,-32.0458,63.317],[29.0865,-32.048,57.3197],[29.0855,-32.0521,122.9093],[29.0908,-32.0516,104.9957],[29.094,-32.0535,95.3483],[29.0948,-32.0551,80.9227],[29.0919,-32.0565,99.6432],[29.0933,-32.0574,99.6432],[29.0927,-32.0592,82.4257],[29.0996,-32.0554,0.0],[29.1021,-32.0471,2.897],[29.1068,-32.046,0.0],[29.1071,-32.0435,0.0],[29.1143,-32.0382,0.0],[29.1124,-32.036,0.0],[29.1151,-32.0324,1.1103],[29.1174,-32.0321,0.0],[29.1165,-32.0299,0.0],[29.1182,-32.0288,0.0],[29.124,-32.0296,0.0],[29.1251,-32.0268,0.0],[29.1229,-32.0243,0.0],[29.1299,-32.0204,3.8113],[29.1301,-32.0143,26.9672],[29.1332,-32.0132,0.0],[29.131,-32.0085,0.0],[29.1329,-32.0051,0.0],[29.1371,-32.0029,0.0],[29.1376,-31.9957,12.4582],[29.1418,-31.9929,43.1992],[29.1488,-31.9912,2.1195],[29.1496,-31.9887,0.0],[29.1546,-31.9876,0.0],[29.1518,-31.9835,0.0],[29.1526,-31.9813,2.4988],[29.1626,-31.9782,0.0],[29.1651,-31.9724,48.9772],[29.1688,-31.9721,1.4237],[29.1707,-31.9701,0.0],[29.1699,-31.965699999999998,5.4307],[29.186,-31.9549,0.0],[29.1854,-31.9526,0.0],[29.1813,-31.9532,15.5344],[29.1804,-31.9518,3.5452],[29.1829,-31.9463,1.6463],[29.1776,-31.9379,0.3142],[29.1764,-31.9331,2.8687],[29.1703,-31.9257,0.9066],[29.1577,-31.9198,2.1559],[29.1559,-31.9208,5.3458],[29.1564,-31.9259,3.8833],[29.1537,-31.9363,16.8931],[29.1513,-31.939,13.8546],[29.1358,-31.935,44.7845],[29.1339,-31.9291,18.8609],[29.1377,-31.9217,4.728],[29.1295,-31.9157,38.8168],[29.1282,-31.9063,15.8387],[29.125,-31.9031,10.7024],[29.1226,-31.9039,13.7575],[29.1188,-31.9132,21.9628],[29.1222,-31.9178,23.1282],[29.12,-31.9196,51.7303],[29.1167,-31.9176,19.9295],[29.1132,-31.9018,43.8987],[29.1043,-31.8955,30.2548],[29.1027,-31.8927,67.2363],[29.1109,-31.8873,35.746],[29.1123,-31.8843,97.8618],[29.1023,-31.8765,41.3458],[29.0987,-31.877,41.7838],[29.0965,-31.8791,40.6022],[29.0944,-31.8852,43.2475],[29.0891,-31.8915,65.5961],[29.0891,-31.8993,51.7844],[29.0846,-31.9041,51.9684],[29.0782,-31.8999,54.7587],[29.0748,-31.8934,59.1464],[29.0675,-31.8925,58.5578],[29.0662,-31.8899,74.0714],[29.0752,-31.879,74.0275],[29.0801,-31.8784,66.3359],[29.0865,-31.8815,126.2752],[29.0883,-31.8797,73.9033],[29.0852,-31.8719,71.3873],[29.0814,-31.8676,140.3967],[29.0726,-31.8726,80.1927],[29.0568,-31.8697,87.0296],[29.0438,-31.8713,89.533],[29.0448,-31.879,113.9327],[29.0422,-31.8839,143.0148],[29.038,-31.8859,100.8622],[29.0361,-31.8852,99.4324],[29.0344,-31.872,133.5331],[29.0262,-31.8646,117.1863],[29.0147,-31.8679,169.2241],[29.0052,-31.8752,160.333],[29.0004,-31.8754,122.521],[28.9969,-31.871,131.2304],[28.9971,-31.8629,161.9687],[29.0028,-31.8594,180.2098],[29.0068,-31.86,152.9502],[29.017,-31.8459,158.743],[29.0171,-31.8432,169.5482],[29.0124,-31.8379,199.7315],[29.0089,-31.8398,167.2982],[29.0064,-31.8463,158.62],[28.9957,-31.8516,187.754],[28.989,-31.8521,172.1491],[28.983,-31.8491,184.8224],[28.9814,-31.8436,188.509],[28.983,-31.8382,205.9194],[28.9867,-31.8353,199.6844],[28.9934,-31.8366,209.1278],[28.9963,-31.8307,213.3694],[28.9941,-31.8244,215.9659],[28.989,-31.821,243.265],[28.9849,-31.8199,221.2517],[28.9744,-31.8229,227.5645],[28.9625,-31.8213,239.8875],[28.9577,-31.8223,235.5598],[28.9545,-31.825,250.7524],[28.9541,-31.8327,238.4341],[28.9526,-31.8346,248.2449],[28.9497,-31.8352,242.6925],[28.9445,-31.8333,275.799],[28.9396,-31.8295,252.0631],[28.9394,-31.8174,274.3687],[28.9334,-31.8182,275.0562],[28.9309,-31.8205,298.0193],[28.9278,-31.8195,276.6096],[28.9307,-31.8049,282.0995],[28.9219,-31.7996,327.3134],[28.9182,-31.7912,305.4092],[28.9093,-31.7886,307.4509],[28.9016,-31.7896,310.7812],[28.8994,-31.7962,318.1597],[28.9144,-31.8055,377.5029],[28.9151,-31.8112,329.4223],[28.9123,-31.8169,335.6697],[28.9081,-31.8182,351.4423],[28.8872,-31.8162,346.509],[28.8857,-31.8132,346.0884],[28.8866,-31.8085,347.932],[28.8926,-31.8017,347.5808],[28.896,-31.7916,398.4045],[28.8926,-31.7899,358.4238],[28.8842,-31.7915,400.8712],[28.8826,-31.789,359.0792],[28.8896,-31.787,358.7073],[28.8965,-31.7799,376.383],[28.8966,-31.7767,378.5242],[28.8922,-31.7724,369.5782],[28.8915,-31.7666,429.4912],[28.8953,-31.7646,367.3052],[28.9009,-31.7715,406.3444],[28.9028,-31.7677,378.8332],[28.9143,-31.7629,376.1096],[28.9206,-31.7567,432.5097],[28.9181,-31.7518,382.214],[28.916,-31.7511,414.7699],[28.9015,-31.7603,396.3331],[28.8887,-31.7579,388.238],[28.8868,-31.755,401.7357],[28.8886,-31.75,392.514],[28.8997,-31.7482,393.0661],[28.9049,-31.7494,394.4439],[28.9092,-31.7469,409.111],[28.9092,-31.7451,397.934],[28.9038,-31.7427,397.5352],[28.9007,-31.7386,399.5357],[28.8882,-31.7328,404.5328],[28.8853,-31.7291,541.7188],[28.8871,-31.7271,410.5269],[28.8974,-31.7265,448.4889],[28.903,-31.7241,421.8454],[28.9061,-31.7201,414.269],[28.908,-31.7092,419.819],[28.9053,-31.7065,423.1873],[28.8981,-31.7049,430.2527],[28.894,-31.7072,450.5932],[28.8901,-31.7132,440.9531],[28.8845,-31.7084,437.2542],[28.874,-31.7054,443.1929],[28.8729,-31.7022,470.5552],[28.8748,-31.6995,502.2504],[28.8876,-31.7003,454.5188],[28.8922,-31.6989,457.942],[28.8939,-31.6961,498.0239],[28.8892,-31.6899,464.5862],[28.8848,-31.6878,479.3298],[28.8834,-31.6817,527.6171],[28.8793,-31.6787,525.3528],[28.8747,-31.6801,531.734],[28.8584,-31.6796,528.1276],[28.8543,-31.6815,540.6313],[28.8533,-31.6836,528.2382],[28.8564,-31.6875,530.2265],[28.8561,-31.6934,530.9305],[28.8541,-31.6946,538.2968],[28.8393,-31.6953,539.4162],[28.8274,-31.6933,535.3165],[28.8244,-31.6957,536.1318],[28.8147,-31.69,538.8916],[28.8114,-31.69,554.035],[28.8114,-31.6858,575.0299],[28.8207,-31.6866,549.6698],[28.8193,-31.6809,550.4163],[28.8201,-31.6727,549.2989],[28.8298,-31.6659,585.0043],[28.8393,-31.6641,551.6055],[28.8434,-31.6607,568.0724],[28.8402,-31.6562,576.8009],[28.8273,-31.6556,560.2444],[28.8334,-31.6509,570.0012],[28.835,-31.6452,586.2397],[28.8266,-31.6418,567.3207],[28.8215,-31.6418,605.8282],[28.818,-31.6342,576.569],[28.8185,-31.632,576.3356],[28.8255,-31.6304,585.5617],[28.8339,-31.6337,582.7498],[28.8379,-31.6262,587.0415],[28.8333,-31.6171,592.6094],[28.8361,-31.6112,595.4283],[28.8342,-31.6065,647.0682],[28.8319,-31.6055,615.7219],[28.8283,-31.6103,627.6329],[28.8235,-31.6117,653.1978],[28.8217,-31.6079,639.6246],[28.823,-31.6028,614.3353],[28.8182,-31.601,619.163],[28.8168,-31.5987,645.0],[28.8169,-31.5923,647.9676],[28.8145,-31.5872,679.1001],[28.8188,-31.5821,653.8373],[28.8169,-31.5793,662.7967],[28.8174,-31.5766,664.431],[28.8152,-31.5744,688.6904],[28.8189,-31.573,674.6624],[28.817,-31.5622,689.0399],[28.8135,-31.5592,686.079],[28.8078,-31.5602,684.3397],[28.8068,-31.5575,697.658],[28.8039,-31.5558,697.0661],[28.7993,-31.5574,690.8391],[28.7976,-31.5564,691.48],[28.799,-31.5543,693.4304],[28.7941,-31.5522,695.9222],[28.7887,-31.5445,718.0459],[28.7905,-31.5424,701.4106],[28.7893,-31.5411,701.6566],[28.7931,-31.5356,711.403],[28.793,-31.5328,710.5521],[28.799,-31.5321,714.2152],[28.8022,-31.5297,717.5065],[28.8022,-31.5257,721.7578],[28.8002,-31.5238,720.1774],[28.8056,-31.5212,752.3291],[28.8131,-31.5207,730.4777],[28.8157,-31.5167,750.533],[28.8104,-31.5125,742.6697],[28.8137,-31.511,745.5381],[28.8129,-31.5075,761.0773],[28.7973,-31.5082,813.4866],[28.7949,-31.5071,853.245],[28.7958,-31.5054,875.1202],[28.7894,-31.5035,876.1761],[28.791,-31.5013,855.5881],[28.7992,-31.4985,804.8524],[28.8078,-31.4979,850.1464],[28.8083,-31.4949,849.1306],[28.8028,-31.487,862.2025],[28.7872,-31.4971,884.1735],[28.7839,-31.4975,864.1891],[28.7831,-31.4997,866.0712],[28.7849,-31.5041,871.0242],[28.7805,-31.5035,788.7134],[28.7759,-31.4991,749.855],[28.7731,-31.5018,778.1331],[28.7691,-31.5025,806.4114],[28.7616,-31.4967,744.6591],[28.7543,-31.4854,693.1681],[28.7604,-31.4778,759.8713],[28.7615,-31.4727,793.2989],[28.7586,-31.4696,795.7694],[28.7591,-31.4538,828.1622],[28.7554,-31.4485,841.9614],[28.7555,-31.4447,854.1002],[28.757,-31.4443,839.6473],[28.7555,-31.4378,884.3392],[28.7511,-31.4438,825.3314],[28.7482,-31.442,839.043],[28.7477,-31.4463,832.0448],[28.7443,-31.4489,833.5407],[28.7448,-31.4538,822.9955],[28.7404,-31.4566,815.5654],[28.7426,-31.4598,816.0409],[28.7374,-31.4615,779.7454],[28.739,-31.4693,795.2198],[28.741,-31.4702,786.4354],[28.7441,-31.4687,751.6956],[28.7455,-31.4621,793.1515],[28.7494,-31.4616,792.0461],[28.748,-31.4585,798.6587],[28.7521,-31.4567,793.6934],[28.7513,-31.4507,810.4042],[28.7544,-31.4547,797.1968],[28.751,-31.4621,773.4109],[28.7467,-31.4663,757.7435],[28.7447,-31.4716,747.8569],[28.7393,-31.4738,733.4133],[28.7346,-31.4814,696.2869],[28.7267,-31.4861,693.0],[28.7217,-31.4773,693.0],[28.7191,-31.4775,693.0],[28.7099,-31.4843,693.0],[28.7093,-31.482,693.0],[28.7116,-31.4788,693.0],[28.711,-31.4751,693.0],[28.7068,-31.4718,693.0],[28.7063,-31.4681,693.0],[28.701,-31.4635,693.0],[28.6989,-31.4568,693.0],[28.6955,-31.455,693.0],[28.6849,-31.456,693.0],[28.683,-31.4529,693.0],[28.68,-31.4518,693.0],[28.6786,-31.4539,693.0],[28.6787,-31.4614,694.0072],[28.6642,-31.4623,693.0],[28.6647,-31.4573,693.0],[28.6619,-31.4551,693.9269],[28.6618,-31.4523,693.0],[28.6693,-31.4487,693.0],[28.6712,-31.4447,693.0],[28.6694,-31.4434,693.0],[28.6659,-31.4468,694.1826],[28.6606,-31.443,695.1676],[28.659,-31.4437,693.0],[28.6614,-31.4461,698.8838],[28.6608,-31.4479,694.4743],[28.6511,-31.4525,695.6787],[28.6539,-31.4557,694.5929],[28.6546,-31.4599,695.7811],[28.6506,-31.4591,694.6246],[28.6465,-31.4539,697.4962],[28.6422,-31.4568,701.0943],[28.6376,-31.4571,702.5754],[28.6424,-31.46,702.2105],[28.6367,-31.4602,700.8624],[28.6349,-31.4619,701.1513],[28.6359,-31.4647,717.1794],[28.6393,-31.4667,702.7553],[28.6467,-31.4669,702.35],[28.6429,-31.4713,704.5475],[28.6375,-31.4706,702.0636],[28.6316,-31.4664,701.6499],[28.6295,-31.4699,707.0979],[28.6252,-31.4715,706.7177],[28.6155,-31.4706,708.4513],[28.613,-31.4748,717.2015],[28.6016,-31.4747,723.5626],[28.6004,-31.4799,726.4023],[28.5991,-31.4795,713.5787],[28.599,-31.4768,711.3806],[28.5938,-31.4738,722.043],[28.5856,-31.4749,717.8845],[28.5829,-31.4768,714.7675],[28.5786,-31.4748,712.3382],[28.5777,-31.4792,739.9455],[28.5744,-31.4825,720.1853],[28.5697,-31.4773,719.9059],[28.5671,-31.4768,726.2472],[28.5666,-31.4804,742.941],[28.5648,-31.4818,725.1565],[28.5655,-31.4851,723.8225],[28.5637,-31.487,731.0182],[28.5527,-31.4769,738.7579],[28.5512,-31.4737,741.8686],[28.5457,-31.4732,733.2476],[28.5489,-31.4781,736.6001],[28.546,-31.4802,737.297],[28.5431,-31.4792,741.5977],[28.5413,-31.4806,744.9788],[28.5432,-31.4808,733.1836],[28.5449,-31.484,735.7993],[28.5381,-31.4924,737.8565],[28.5392,-31.4953,737.502],[28.5359,-31.5026,743.3799],[28.5261,-31.4932,745.2548],[28.5207,-31.4976,760.5477],[28.5238,-31.4997,738.1966],[28.5196,-31.5003,738.2993],[28.5172,-31.5022,770.3365],[28.516,-31.5068,739.4867],[28.513,-31.5078,742.8724],[28.5115,-31.5053,754.1699],[28.509,-31.5048,751.0386],[28.5087,-31.5024,744.588],[28.5122,-31.4995,751.3146],[28.5089,-31.4977,745.3326],[28.514,-31.4949,749.1151],[28.5109,-31.4905,750.106],[28.5078,-31.4901,746.1296],[28.512,-31.4865,751.5264],[28.507,-31.4824,777.5276],[28.5005,-31.4822,769.8152],[28.496,-31.4846,757.7038],[28.492,-31.4826,769.3448],[28.4911,-31.4868,761.5917],[28.4958,-31.4865,760.98],[28.496,-31.4888,765.5565],[28.4937,-31.4899,759.5444],[28.4922,-31.4888,764.5771],[28.49,-31.494,759.4786],[28.4889,-31.4919,769.1867],[28.4875,-31.4939,764.4952],[28.4834,-31.4945,766.6053],[28.4801,-31.4919,770.0665],[28.4763,-31.4928,773.4994],[28.4746,-31.4902,780.4492],[28.4704,-31.491,778.0718],[28.4649,-31.4896,784.8974],[28.4622,-31.4931,793.4047],[28.4561,-31.4953,805.8841],[28.4573,-31.4968,804.3878],[28.4561,-31.4982,832.6952],[28.4451,-31.4995,834.2129],[28.4406,-31.4963,842.3278],[28.438,-31.4981,851.5716],[28.4374,-31.5012,868.793],[28.4301,-31.5007,877.3021],[28.4247,-31.5034,882.9437],[28.4215,-31.502,907.6243],[28.4183,-31.5041,915.0685],[28.4125,-31.5049,933.6024],[28.4104,-31.5028,979.8311],[28.406,-31.5031,953.8038],[28.4036,-31.5017,958.0778],[28.4015,-31.496,1057.5334],[28.39,-31.4853,1471.1301],[28.3813,-31.48,1567.5857],[28.3759,-31.4801,1571.973],[28.3732,-31.4903,1526.1984],[28.3634,-31.5022,1529.6993],[28.3733,-31.5239,1576.2314],[28.3692,-31.538,1472.9756],[28.3742,-31.5377,1608.6309],[28.3825,-31.553,1565.4185],[28.3811,-31.558,1294.3457],[28.3644,-31.5732,1017.5502],[28.3633,-31.5777,1083.3462],[28.3543,-31.5732,1047.8511],[28.351,-31.5766,1015.7205],[28.3394,-31.5786,926.8877],[28.3393,-31.5807,914.4948],[28.3369,-31.5814,907.3489],[28.3339,-31.587,893.0825],[28.3256,-31.5865,836.9017],[28.3215,-31.5899,815.9149],[28.3195,-31.5942,791.7919],[28.3204,-31.5965,771.303],[28.3181,-31.5968,759.8181],[28.3188,-31.5985,754.3923],[28.3152,-31.6033,734.8134],[28.3155,-31.6061,728.9917],[28.3105,-31.6123,695.1666],[28.3114,-31.6131,685.4514],[28.309,-31.6183,682.4092],[28.3101,-31.62,683.8699],[28.309,-31.6246,680.1557],[28.3116,-31.6264,681.9274],[28.3116,-31.6304,679.9133],[28.3179,-31.6289,687.9254],[28.3228,-31.6354,680.1757],[28.3197,-31.6387,681.3856],[28.3136,-31.6404,678.8875],[28.3169,-31.6445,679.686],[28.3129,-31.6502,678.0409],[28.302,-31.652,675.4736],[28.3102,-31.6572,677.6538],[28.3151,-31.6567,676.5192],[28.318,-31.6534,679.6119],[28.3206,-31.6559,681.811],[28.3212,-31.6589,677.3149],[28.3195,-31.6622,676.5455],[28.31,-31.6638,673.7958],[28.3107,-31.6703,673.9352],[28.3134,-31.6716,672.0175],[28.3045,-31.6757,676.7893],[28.3097,-31.6805,696.8917],[28.3112,-31.6882,706.2567],[28.318,-31.6892,679.5748],[28.3226,-31.6932,656.9031],[28.3255,-31.6924,651.0699],[28.3295,-31.6946,650.7109],[28.3321,-31.7015,707.7529],[28.3291,-31.707,642.0399],[28.3425,-31.7124,670.7346],[28.344,-31.7155,636.7703],[28.3404,-31.7247,672.9747],[28.3365,-31.7271,635.4888],[28.3352,-31.73,630.9507],[28.3453,-31.7353,632.3964],[28.3442,-31.7413,631.2198],[28.3452,-31.7433,637.6814],[28.3549,-31.7435,626.7066],[28.3581,-31.7466,620.2862],[28.3567,-31.7481,634.5614],[28.3413,-31.7504,616.7239],[28.3378,-31.7555,632.6293],[28.3386,-31.7597,629.9729],[28.3501,-31.7652,613.6817],[28.3503,-31.7726,606.1656],[28.3474,-31.7787,601.3873],[28.3528,-31.7816,599.1541],[28.3529,-31.7838,599.4391],[28.3358,-31.7894,582.3459],[28.3266,-31.7843,598.9549],[28.325,-31.7855,570.4923],[28.3239,-31.7915,564.8428],[28.3378,-31.8045,551.5598],[28.3511,-31.8105,545.8383],[28.3422,-31.8146,544.1869],[28.3396,-31.8198,585.9609],[28.3441,-31.8231,563.0955],[28.351,-31.8249,579.8256],[28.352,-31.8286,525.1216],[28.3567,-31.8324,528.2039],[28.361,-31.8424,525.759],[28.3648,-31.847,520.641],[28.3687,-31.8457,520.0526],[28.3669,-31.8385,536.3306],[28.3696,-31.8351,513.4223],[28.3825,-31.8357,514.3987],[28.3856,-31.8379,622.7202],[28.3865,-31.8417,532.3501],[28.3789,-31.8519,503.1431],[28.3786,-31.8552,507.1143],[28.3809,-31.858,558.6922],[28.384,-31.8597,550.7631],[28.3864,-31.8592,502.0856],[28.3925,-31.8516,498.0956],[28.4003,-31.8499,495.9419],[28.4168,-31.8607,490.0891],[28.4181,-31.8643,489.7755],[28.4169,-31.8677,490.5984],[28.4073,-31.8718,481.5634],[28.4055,-31.8758,486.0515],[28.4062,-31.8789,477.3396],[28.4143,-31.8766,476.4431],[28.422,-31.8694,487.0452],[28.4275,-31.8702,468.5755],[28.4296,-31.8785,485.7065],[28.426,-31.8884,488.9631],[28.4295,-31.892,459.4952],[28.4424,-31.8971,452.91],[28.4403,-31.9086,451.3606],[28.4445,-31.9179,449.916],[28.4601,-31.9251,463.9874],[28.464,-31.9214,481.1736],[28.4679,-31.912,448.2541],[28.4746,-31.9095,454.889],[28.478,-31.9135,444.3786],[28.4784,-31.9169,442.0173],[28.4676,-31.9248,435.5536],[28.4678,-31.9292,439.6369],[28.4713,-31.9336,439.8106],[28.4748,-31.9349,445.9439],[28.494,-31.9349,431.0793],[28.4993,-31.9314,419.4623],[28.5058,-31.93,409.1845],[28.5155,-31.9341,405.4129],[28.5086,-31.954,397.2089],[28.5042,-31.955,412.6584],[28.4876,-31.9511,421.2738],[28.4786,-31.9528,399.4477],[28.4731,-31.9571,389.1349],[28.4652,-31.9678,385.4058],[28.4678,-31.9732,397.9161],[28.4713,-31.9744,384.771],[28.4822,-31.974,383.6024],[28.49,-31.9691,388.7291],[28.5131,-31.9728,376.8869],[28.5261,-31.9728,372.4698],[28.5299,-31.9706,381.1744],[28.5307,-31.9663,372.5965],[28.5235,-31.9636,369.919],[28.521,-31.9599,383.0749],[28.5223,-31.9563,369.2696],[28.5268,-31.9556,365.3956],[28.5317,-31.9576,368.3656],[28.5347,-31.9615,360.3128],[28.5465,-31.9861,357.2313],[28.5451,-31.9883,355.8938],[28.5421,-31.9885,349.75],[28.5351,-31.9821,355.8815],[28.5241,-31.9794,385.9933],[28.5202,-31.9817,347.5457],[28.5189,-31.985,345.5],[28.5196,-31.99,346.308],[28.5224,-31.9929,345.0739],[28.53,-31.9955,343.7587],[28.5451,-31.9941,332.6058],[28.551,-31.9895,334.4793],[28.5547,-31.9802,334.8947],[28.5584,-31.9793,351.7309],[28.5684,-31.9853,337.4137],[28.5791,-31.9985,328.8632],[28.5865,-32.001,313.1674],[28.5912,-31.9976,305.307],[28.5912,-31.9898,308.2365],[28.5789,-31.9715,293.5199],[28.5822,-31.9677,311.8665],[28.5881,-31.9678,301.1387],[28.5986,-31.9723,285.9993],[28.6126,-31.9852,287.017],[28.6129,-31.9887,295.9536],[28.6105,-31.993,283.664],[28.6018,-31.9927,277.6098],[28.6015,-31.9961,288.5288],[28.6037,-31.9984,273.5444],[28.6082,-31.9994,267.8452],[28.618,-31.9937,271.0464],[28.6218,-31.9931,271.1943],[28.6264,-31.9951,262.5391],[28.628,-31.9984,274.8796],[28.6273,-32.003,257.6999],[28.6231,-32.0048,256.0444],[28.6088,-32.0015,252.2155],[28.6033,-32.0026,310.5175],[28.5987,-32.0071,250.3307],[28.5999,-32.012,248.2043],[28.6139,-32.0196,270.2031],[28.6199,-32.0202,245.7474],[28.6313,-32.0182,231.5417],[28.6437,-32.0244,228.4295],[28.6477,-32.0188,282.714],[28.6526,-32.0172,304.1237],[28.6534,-32.0148,315.1043],[28.6626,-32.0092,391.3973],[28.6672,-32.0036,459.7422],[28.6763,-32.0009,590.8692],[28.6785,-31.9982,638.0131],[28.6713,-31.9949,654.726],[28.6646,-31.9955,637.9545],[28.6621,-31.9986,631.8937],[28.662,-31.9965,615.7214],[28.6577,-31.9937,584.0986],[28.6575,-31.9921,585.2948],[28.6637,-31.9883,607.4209],[28.6688,-31.9873,633.8906],[28.6777,-31.9793,571.436],[28.6775,-31.9781,571.436],[28.6629,-31.9787,663.6057],[28.661,-31.9701,728.9977],[28.663,-31.965699999999998,741.7156],[28.6679,-31.961,663.4628],[28.6799,-31.9562,587.2225],[28.6854,-31.957,582.2748],[28.6897,-31.9599,576.9266],[28.6984,-31.9591,624.8374],[28.7006,-31.9616,674.7329],[28.6951,-31.9644,657.827],[28.6972,-31.9676,607.7178],[28.6979,-31.9754,570.5601],[28.6923,-31.9863,625.0613],[28.7024,-31.9814,610.4789],[28.7057,-31.9839,578.423],[28.7063,-31.9865,567.9205],[28.7049,-31.9901,585.1753],[28.701,-31.9936,626.639],[28.6945,-31.9951,646.9714],[28.7091,-31.9973,633.9952],[28.7097,-32.0047,600.7318],[28.7128,-32.0077,574.9803],[28.7175,-32.0063,618.3494],[28.7188,-32.0092,614.3912],[28.7244,-32.0111,592.7042],[28.7292,-32.0114,581.9311],[28.7339,-32.009,543.7032],[28.7375,-32.0167,474.3949],[28.7458,-32.0205,483.4083],[28.7449,-32.0306,562.5557],[28.7497,-32.0355,574.5522],[28.7546,-32.0362,576.231],[28.7613,-32.0424,563.66],[28.7735,-32.0425,563.0879],[28.7822,-32.046,523.4244],[28.7901,-32.0434,508.7714],[28.7879,-32.0401,434.5183],[28.7881,-32.0355,413.5789],[28.791,-32.0324,382.0608],[28.7933,-32.0322,395.9586],[28.7927,-32.0309,395.7857],[28.7945,-32.0295,356.5591],[28.7934,-32.0284,356.5591],[28.7945,-32.0272,347.3094],[28.7968,-32.0278,345.733],[28.8015,-32.02,342.4623],[28.7975,-32.0192,336.5468],[28.7946,-32.016,352.3909],[28.7865,-32.0141,324.306],[28.7863,-32.0119,335.2402],[28.7899,-32.0102,322.9412],[28.7987,-32.0113,315.7026],[28.8014,-32.0143,312.8067],[28.8038,-32.0126,316.2415],[28.8052,-32.0148,318.4659],[28.8073,-32.015,308.2626],[28.8086,-32.0135,320.4625],[28.803,-32.0032,340.9753],[28.8074,-31.9991,326.9706],[28.8088,-31.9996,310.0781],[28.8101,-32.0048,335.5284],[28.8149,-32.0012,320.8544],[28.8201,-32.006,288.3519],[28.8207,-32.0024,292.0544],[28.8246,-32.0002,311.0947],[28.8272,-32.0105,280.1596],[28.8284,-32.0108,305.2136],[28.8277,-32.0039,291.4203],[28.8302,-31.9973,270.5946],[28.8381,-32.0018,267.5048],[28.8408,-32.0015,336.1389],[28.8395,-31.9975,258.7408],[28.8281,-31.9953,269.1435],[28.8335,-31.9931,290.4296],[28.8337,-31.9865,278.024],[28.839,-31.9848,275.2501],[28.8373,-31.9882,295.9157],[28.8402,-31.9898,314.2519],[28.8432,-31.9879,288.413],[28.8425,-31.9831,287.3536],[28.8489,-31.986,287.1992],[28.8514,-31.9851,291.6261],[28.8541,-31.9822,289.7939],[28.8479,-31.9806,324.358],[28.8477,-31.9767,325.5551],[28.8542,-31.9762,297.5165],[28.8556,-31.9704,304.0011],[28.8608,-31.9659,425.7242],[28.8633,-31.9656,480.7498],[28.8665,-31.9606,382.4247],[28.8738,-31.9624,397.9353],[28.8766,-31.9659,382.9536],[28.8811,-31.9661,391.6512],[28.8853,-31.9626,420.7334],[28.8856,-31.957,443.0458],[28.8874,-31.9536,435.5331],[28.9011,-31.9514,429.0856],[28.9043,-31.9516,405.4151],[28.9057,-31.9534,389.2715],[28.9098,-31.9531,370.1431],[28.9128,-31.9505,373.7695],[28.9175,-31.9518,359.27],[28.9193,-31.9474,358.255],[28.9248,-31.944,336.1963],[28.9264,-31.9479,313.9477],[28.9295,-31.9478,296.4714],[28.9299,-31.9498,334.2369],[28.9328,-31.9478,280.7985],[28.9352,-31.952,277.4853],[28.9413,-31.9524,313.7271],[28.9405,-31.9569,259.7592],[28.9423,-31.9601,272.0534],[28.948,-31.9586,245.3571],[28.9507,-31.9605,240.5685],[28.9496,-31.9651,256.6076],[28.9559,-31.9648,243.5009],[28.9578,-31.9709,215.56],[28.9598,-31.9722,219.2218],[28.9595,-31.9795,218.9705],[28.9638,-31.9784,240.012],[28.969,-31.9889,181.1751],[28.9739,-31.9859,226.6466],[28.9812,-31.9845,336.0145],[28.9817,-31.987,374.5356],[28.9857,-31.9906,345.2666],[28.9904,-31.9901,360.985],[28.993,-31.9954,312.9199],[28.9968,-31.9965,290.7969],[28.9992,-32.0002,283.1786],[29.0022,-32.0006,288.7516],[29.0108,-32.0071,299.0131],[29.0147,-32.0153,334.6012],[29.0199,-32.0142,319.9052],[29.0253,-32.0154,276.023],[29.0253,-32.0174,227.5528],[29.0305,-32.0214,203.9488],[29.033,-32.0295,211.9487],[29.0396,-32.0342,226.356],[29.0374,-32.0401,209.8199]]]]}}