{"type":"Feature","properties":{"GID_3":"ZAF.4.11.1_1","GID_0":"ZAF","country":"SouthAfrica","GID_1":"ZAF.4_1","province":"KwaZulu-Natal","NL_NAME_1":"NA","GID_2":"ZAF.4.11_1","county":"Zululand","NL_NAME_2":"NA","city":"Abaqulusi","VARNAME_3":"NA","NL_NAME_3":"NA","TYPE_3":"LocalMunicipality","ENGTYPE_3":"LocalMunicipality","CC_3":"KZN263","HASC_3":"NA","name":"Abaqulusi.city"},
"geometry":{"type": "MultiPolygon","coordinates": [[[[30.6898,-28.1315,1089.0806],[30.6966,-28.131,1079.4233],[30.6981,-28.1291,1082.2311],[30.7021,-28.1283,1074.8408],[30.7225,-28.1302,1065.0011],[30.7292,-28.1278,1061.4697],[30.7344,-28.1226,1055.2045],[30.7385,-28.1287,1051.7188],[30.746,-28.1293,1060.5161],[30.7476,-28.1322,1042.0293],[30.7464,-28.1339,1040.9855],[30.7496,-28.1355,1040.1013],[30.7558,-28.1344,1035.8361],[30.7614,-28.136,1035.8833],[30.7657,-28.1353,1032.0308],[30.771,-28.1366,1028.9482],[30.774,-28.1396,1041.4507],[30.7772,-28.1381,1028.5771],[30.7822,-28.1383,1024.0657],[30.79,-28.1415,1024.0718],[30.8001,-28.1341,1007.138],[30.8045,-28.1328,1005.6531],[30.8073,-28.1292,1004.2607],[30.8129,-28.1279,1009.4044],[30.8131,-28.131,1000.2077],[30.8153,-28.1323,998.4852],[30.8234,-28.1233,992.375],[30.8286,-28.1283,993.5785],[30.8374,-28.1283,988.85],[30.8405,-28.1309,991.4428],[30.844,-28.1259,991.6968],[30.8474,-28.1285,983.7975],[30.8461,-28.1303,984.3018],[30.848,-28.1304,983.314],[30.8541,-28.1247,976.7761],[30.8595,-28.1235,983.5422],[30.8656,-28.1164,968.5864],[30.867,-28.1185,975.4924],[30.8717,-28.12,970.4351],[30.8719,-28.1223,967.5322],[30.8746,-28.1242,966.3009],[30.8739,-28.1274,963.892],[30.8787,-28.1273,966.4581],[30.8757,-28.1308,965.6608],[30.8787,-28.1326,963.0277],[30.8791,-28.1369,962.3212],[30.8834,-28.1389,962.5156],[30.8827,-28.142,956.9389],[30.8771,-28.1418,954.3293],[30.8788,-28.1443,954.8006],[30.8777,-28.1476,951.8215],[30.882,-28.1478,958.867],[30.8862,-28.1504,954.4166],[30.887,-28.1492,952.87],[30.8851,-28.1472,947.8265],[30.8871,-28.1453,950.3024],[30.8903,-28.1479,953.1609],[30.8902,-28.1511,943.4187],[30.8939,-28.1497,945.9553],[30.8956,-28.1534,939.1175],[30.8992,-28.1558,932.7397],[30.8997,-28.1574,932.9802],[30.8955,-28.1584,926.3948],[30.8957,-28.1598,929.0082],[30.9052,-28.166,926.0814],[30.9097,-28.1662,930.9979],[30.914,-28.1702,916.942],[30.9251,-28.1708,915.3052],[30.9319,-28.1687,909.9003],[30.9406,-28.1716,912.9307],[30.9425,-28.1675,903.6677],[30.9392,-28.1593,913.1346],[30.9359,-28.1558,896.9626],[30.9381,-28.1497,896.5573],[30.9433,-28.1475,888.175],[30.9443,-28.1441,890.5543],[30.9505,-28.1436,873.5571],[30.9713,-28.132,923.785],[31.0034,-28.1083,953.7188],[30.9653,-28.0909,942.7931],[30.9869,-28.0569,952.5139],[30.9942,-27.9966,1007.0063],[31.0275,-28.0131,995.9747],[31.0286,-28.0096,998.0548],[31.0663,-28.02,1067.2131],[31.066,-28.024,1039.3993],[31.1001,-28.0342,786.4123],[31.101,-28.0264,790.3896],[31.1421,-28.0331,736.9971],[31.1451,-28.0073,773.4407],[31.1517,-28.0042,747.9233],[31.1552,-28.0004,733.6018],[31.1509,-28.0253,701.5054],[31.1517,-28.0303,697.0285],[31.1569,-28.0321,693.4823],[31.159,-28.0272,688.7539],[31.172,-28.0287,713.1281],[31.1694,-28.0406,751.2527],[31.1763,-28.0443,721.4257],[31.1812,-28.0222,674.6379],[31.218,-28.0217,935.8425],[31.2671,-28.0333,935.9829],[31.2649,-28.0422,900.1318],[31.3077,-28.0374,894.793],[31.3204,-28.0161,479.0081],[31.3255,-28.0136,475.153],[31.3278,-28.0141,486.0965],[31.3317,-28.0219,490.9971],[31.3451,-27.9701,1236.7954],[31.5118,-27.8397,851.8321],[31.5043,-27.8125,804.7477],[31.5228,-27.7564,649.572],[31.5368,-27.726,762.416],[31.5493,-27.6899,628.5641],[31.5708,-27.6486,550.5568],[31.5322,-27.6254,738.1202],[31.5199,-27.67,757.3548],[31.4783,-27.6486,809.648],[31.4405,-27.6528,702.9426],[31.4553,-27.6092,676.4944],[31.4076,-27.6081,752.4409],[31.4185,-27.584,796.9905],[31.3764,-27.5577,877.6331],[31.386,-27.5392,919.7468],[31.3384,-27.5229,857.3856],[31.3398,-27.5195,814.5633],[31.2974,-27.5117,903.9701],[31.2775,-27.5576,1410.0492],[31.2733,-27.5566,1392.7732],[31.2718,-27.5634,1403.6357],[31.2648,-27.572,1295.8096],[31.2578,-27.5757,1229.0256],[31.2546,-27.5816,1324.7721],[31.2646,-27.5874,1310.5289],[31.2607,-27.5964,1141.8522],[31.202,-27.5893,850.9071],[31.2108,-27.5564,782.6122],[31.1714,-27.564,916.0148],[31.1709,-27.5381,949.6287],[31.1782,-27.4914,1052.2577],[31.1085,-27.5208,1091.4197],[31.1194,-27.547,918.8081],[31.1265,-27.5888,1081.9489],[31.1232,-27.5892,1011.1566],[31.1365,-27.6196,1063.0359],[31.0993,-27.6276,1052.932],[31.0634,-27.6302,1433.5654],[31.0484,-27.6222,1045.2517],[30.9582,-27.6188,933.0272],[30.9629,-27.6293,1070.4301],[30.9478,-27.6602,1057.6521],[30.9185,-27.6677,1022.8565],[30.9239,-27.6314,1057.4056],[30.885,-27.6436,1056.4878],[30.8361,-27.6508,1149.7727],[30.82,-27.6562,1270.4132],[30.8118,-27.6481,1523.2192],[30.8108,-27.6525,1564.577],[30.8141,-27.6581,1533.1156],[30.7985,-27.6633,1489.3273],[30.7726,-27.6619,1374.7496],[30.7321,-27.6654,1367.6348],[30.7356,-27.6741,1348.9823],[30.7335,-27.6848,1292.2939],[30.6638,-27.6791,1328.3887],[30.6624,-27.6993,1350.7487],[30.6686,-27.6971,1318.1987],[30.6749,-27.698,1300.637],[30.6771,-27.7004,1294.7034],[30.6756,-27.7078,1277.4985],[30.6807,-27.7094,1249.5698],[30.6804,-27.7129,1228.2007],[30.6855,-27.7148,1222.3479],[30.6908,-27.7134,1215.4954],[30.6917,-27.7166,1214.1691],[30.6892,-27.7199,1218.1626],[30.6933,-27.7222,1196.9265],[30.6953,-27.7288,1190.8114],[30.6932,-27.7331,1187.5171],[30.6945,-27.7382,1186.5884],[30.6936,-27.7415,1179.9788],[30.6999,-27.7458,1176.9771],[30.6948,-27.7484,1179.0775],[30.6789,-27.7478,1192.2894],[30.6735,-27.7532,1208.3124],[30.6665,-27.7502,1207.3827],[30.6594,-27.7524,1221.4037],[30.6527,-27.7497,1255.8551],[30.651,-27.7449,1242.042],[30.6375,-27.7466,1274.959],[30.6294,-27.7421,1301.7449],[30.6279,-27.7396,1317.4568],[30.6176,-27.7476,1260.4153],[30.6163,-27.7518,1241.7507],[30.6183,-27.7593,1227.6957],[30.6264,-27.7735,1222.71],[30.6304,-27.7759,1212.2887],[30.6305,-27.7843,1210.0082],[30.6332,-27.7884,1204.8335],[30.6294,-27.8103,1196.9379],[30.6176,-27.8195,1196.0239],[30.615,-27.8244,1194.2156],[30.6122,-27.8249,1193.5],[30.6123,-27.8276,1192.516],[30.6082,-27.8299,1190.8344],[30.603,-27.8283,1195.0676],[30.6011,-27.8314,1190.8975],[30.6016,-27.8345,1187.896],[30.5994,-27.8343,1187.7826],[30.596,-27.838,1187.7172],[30.5966,-27.8433,1188.3237],[30.5931,-27.8463,1185.7867],[30.5928,-27.8502,1185.7822],[30.5942,-27.8507,1186.0056],[30.5932,-27.8538,1186.1045],[30.5904,-27.8538,1185.0718],[30.5904,-27.858,1189.0371],[30.5865,-27.8606,1184.8363],[30.5917,-27.862,1188.1906],[30.593,-27.8646,1184.4905],[30.5922,-27.8671,1184.2703],[30.5878,-27.8654,1183.9664],[30.5875,-27.8633,1184.9082],[30.5866,-27.8649,1184.0657],[30.5834,-27.8645,1184.9379],[30.5833,-27.8664,1183.746],[30.5849,-27.8664,1183.746],[30.5836,-27.8676,1183.746],[30.5819,-27.8668,1184.0723],[30.5831,-27.8682,1185.7166],[30.5858,-27.8684,1183.7975],[30.5864,-27.8729,1183.12],[30.5881,-27.8723,1183.1758],[30.5869,-27.8757,1183.0872],[30.5901,-27.8751,1183.374],[30.5914,-27.877,1182.6038],[30.5895,-27.8774,1182.6038],[30.5896,-27.8795,1182.0],[30.5913,-27.8798,1182.7551],[30.5858,-27.8825,1182.1709],[30.5889,-27.8859,1182.7271],[30.5886,-27.889,1183.329],[30.5816,-27.8885,1183.6185],[30.5802,-27.8898,1183.2654],[30.582,-27.8918,1182.6522],[30.5802,-27.8938,1182.2678],[30.5815,-27.8943,1184.3772],[30.5805,-27.901,1183.0743],[30.5823,-27.9029,1182.1641],[30.5858,-27.9027,1185.6353],[30.5828,-27.9055,1182.2961],[30.584,-27.9057,1182.1702],[30.5838,-27.9104,1182.0],[30.5814,-27.9114,1182.229],[30.5827,-27.9134,1182.0],[30.5815,-27.9156,1182.0],[30.5839,-27.9165,1182.7494],[30.5815,-27.9207,1182.0],[30.5826,-27.9215,1182.3019],[30.5789,-27.9248,1182.0],[30.58,-27.9268,1182.0],[30.5811,-27.9257,1182.0],[30.5829,-27.9315,1181.0802],[30.5863,-27.9311,1192.1871],[30.5895,-27.9333,1179.7068],[30.5961,-27.9316,1179.2603],[30.5988,-27.9293,1186.3636],[30.604,-27.9315,1179.864],[30.6021,-27.9336,1179.0946],[30.6088,-27.9316,1180.6581],[30.6166,-27.9352,1183.2617],[30.6236,-27.9324,1185.162],[30.6244,-27.9336,1186.5333],[30.6282,-27.932,1187.8315],[30.6388,-27.9321,1194.9604],[30.6397,-27.9351,1193.7234],[30.646,-27.9399,1199.7842],[30.6581,-27.9457,1210.5266],[30.6595,-27.9491,1219.3081],[30.6657,-27.9493,1221.2843],[30.666,-27.952,1231.339],[30.6725,-27.9565,1263.8185],[30.6735,-27.9664,1353.668],[30.6775,-27.9621,1281.5388],[30.6838,-27.9699,1204.0807],[30.6857,-27.9779,1178.9443],[30.685,-27.9859,1163.2986],[30.6719,-27.985,1228.1912],[30.6128,-28.0352,1238.0574],[30.6292,-28.0518,1233.626],[30.632,-28.0613,1236.5984],[30.6399,-28.0747,1201.7006],[30.6423,-28.0764,1204.1465],[30.6449,-28.084,1215.967],[30.6524,-28.0904,1251.3293],[30.6555,-28.0959,1334.9982],[30.6626,-28.0977,1393.8118],[30.6684,-28.1024,1513.0337],[30.6606,-28.1025,1478.1626],[30.6316,-28.1399,1342.5332],[30.6324,-28.1436,1301.035],[30.6348,-28.1455,1278.1709],[30.6418,-28.1457,1238.3191],[30.6472,-28.1412,1168.0381],[30.6546,-28.1398,1152.0314],[30.6576,-28.1376,1134.8229],[30.6625,-28.1377,1126.8105],[30.6675,-28.1357,1115.3538],[30.6731,-28.1364,1113.3757],[30.6838,-28.1311,1096.1155],[30.6862,-28.1313,1090.8922],[30.6875,-28.1291,1092.7783],[30.6898,-28.1315,1089.0806]]]]}}