{"type": "Feature","bbox": [27.416,-31.7322,28.2607,-31.203],"geometry": {"type": "MultiPolygon","coordinates": [[[[27.437,-31.6762,1074.1731],[27.4542,-31.6782,1114.5042],[27.4511,-31.69,1103.9702],[27.4807,-31.6947,1223.2725],[27.4959,-31.7007,1718.6967],[27.4766,-31.7322,1728.7769],[27.4823,-31.7294,1675.2019],[27.4879,-31.7292,1653.2239],[27.4933,-31.7245,1568.7704],[27.4966,-31.7245,1479.4999],[27.5052,-31.7193,1403.5642],[27.5169,-31.721,1346.1189],[27.5254,-31.7251,1296.397],[27.5264,-31.7272,1282.5112],[27.5363,-31.7231,1290.1444],[27.5358,-31.7252,1270.6842],[27.5374,-31.7255,1270.6842],[27.5434,-31.7178,1218.8921],[27.5488,-31.7171,1202.3263],[27.5486,-31.7126,1181.0682],[27.5518,-31.7101,1175.9805],[27.5608,-31.7121,1154.4879],[27.5688,-31.72,1218.6169],[27.6081,-31.715,1623.261],[27.6123,-31.7115,1555.6674],[27.6176,-31.7181,1561.2745],[27.6335,-31.7131,1424.8794],[27.6493,-31.7226,1184.489],[27.6538,-31.7286,1291.3549],[27.6616,-31.73,1203.2747],[27.6647,-31.7186,1221.7543],[27.6704,-31.7118,1041.9539],[27.6702,-31.7093,1036.9203],[27.673,-31.7101,1036.5879],[27.675,-31.7143,1034.828],[27.6873,-31.7122,1058.6427],[27.6944,-31.7134,1109.9824],[27.7085,-31.7044,1546.0295],[27.7086,-31.7018,1574.7848],[27.71,-31.7017,1574.7848],[27.7151,-31.7017,1588.405],[27.7227,-31.7065,1656.5103],[27.7356,-31.6893,1559.3499],[27.7362,-31.6855,1603.0757],[27.7415,-31.6769,1625.801],[27.7408,-31.6719,1622.2235],[27.7438,-31.6674,1642.4388],[27.7508,-31.6636,1611.9819],[27.7585,-31.6565,1488.0068],[27.7547,-31.6491,1541.7856],[27.7463,-31.6399,1519.5125],[27.7462,-31.6353,1519.1803],[27.7318,-31.6125,1551.9578],[27.7256,-31.6079,1687.8352],[27.7291,-31.5902,1654.8016],[27.7327,-31.5823,1696.834],[27.7323,-31.5706,1723.0917],[27.734,-31.5636,1636.3655],[27.7388,-31.559,1642.8914],[27.8351,-31.5366,1274.9005],[27.8459,-31.5406,1382.9694],[27.8605,-31.5344,1359.4248],[27.8739,-31.5378,1324.6851],[27.8939,-31.5509,1285.6028],[27.9074,-31.5393,1250.3551],[27.9131,-31.5319,1155.2916],[27.9308,-31.5285,937.7369],[27.9307,-31.5321,884.4756],[27.9363,-31.536,877.6389],[27.9423,-31.5346,897.36],[27.9544,-31.5349,1259.0123],[27.9718,-31.5377,1290.1118],[27.9753,-31.5352,1310.531],[27.9873,-31.5329,1276.6281],[27.9931,-31.5254,1370.0635],[28.0484,-31.5058,1490.9729],[28.0546,-31.464,1503.8696],[28.0753,-31.4668,1450.1565],[28.0901,-31.4571,1421.6331],[28.0995,-31.4395,1508.2032],[28.1078,-31.4416,1426.9342],[28.157,-31.4019,1527.0853],[28.1693,-31.4032,1517.3586],[28.1809,-31.393,1355.6808],[28.2607,-31.3704,1500.1134],[28.2514,-31.3565,1511.5059],[28.2538,-31.334,1434.4148],[28.2295,-31.3301,1431.657],[28.2219,-31.3244,1419.0315],[28.2162,-31.3128,1435.782],[28.1976,-31.3159,1473.6152],[28.173,-31.3041,1436.3474],[28.1668,-31.3103,1420.2981],[28.1428,-31.3124,1493.641],[28.1466,-31.3004,1516.5625],[28.1212,-31.3001,1509.3849],[28.1111,-31.2926,1458.5481],[28.1014,-31.314,1463.4652],[28.0808,-31.3237,1522.4952],[28.0644,-31.3089,1522.3823],[28.0506,-31.2873,1570.551],[28.0384,-31.2812,1711.2659],[28.0164,-31.2589,1783.5781],[27.9965,-31.2563,1740.4725],[27.9886,-31.2404,1837.6522],[27.9313,-31.234,2183.8608],[27.9061,-31.2481,2140.2258],[27.9038,-31.2272,2340.8013],[27.8874,-31.2165,2186.1421],[27.8784,-31.2074,2185.8804],[27.8718,-31.2033,2214.7031],[27.8329,-31.2085,2053.3306],[27.815,-31.2076,2057.3472],[27.8081,-31.2148,2045.8693],[27.7858,-31.203,2094.8484],[27.76,-31.2036,2235.5078],[27.7529,-31.2213,1991.5872],[27.7483,-31.221,2211.7781],[27.7365,-31.2351,2152.1646],[27.7329,-31.2334,2265.1062],[27.7063,-31.2301,2001.0537],[27.7101,-31.2168,2204.0195],[27.6803,-31.2279,2159.4834],[27.6302,-31.2223,2339.6194],[27.6241,-31.224,2295.8228],[27.6163,-31.2365,1952.188],[27.6178,-31.2525,1746.8588],[27.6173,-31.2685,1498.4766],[27.6255,-31.2766,1461.7986],[27.629,-31.2929,1453.9698],[27.613,-31.303,1382.2432],[27.5994,-31.3368,1306.9871],[27.596,-31.335,1311.9388],[27.5926,-31.3367,1316.1726],[27.5898,-31.3629,1310.1226],[27.5877,-31.3587,1328.6121],[27.5838,-31.3601,1307.9949],[27.5792,-31.3572,1326.4698],[27.5791,-31.3605,1345.6443],[27.5911,-31.3824,1400.4734],[27.5774,-31.3892,1335.58],[27.5765,-31.417,1338.7607],[27.5893,-31.417,1446.209],[27.5986,-31.4359,1439.2502],[27.5986,-31.4437,1473.2717],[27.5691,-31.4525,1469.866],[27.5244,-31.4598,1478.6787],[27.5163,-31.4652,1488.8972],[27.5126,-31.4717,1466.0071],[27.5123,-31.4774,1459.8866],[27.5029,-31.4764,1473.0107],[27.4964,-31.4784,1500.4641],[27.4898,-31.4869,1525.6921],[27.4865,-31.4854,1553.7808],[27.4867,-31.4806,1578.1401],[27.4842,-31.4787,1514.5913],[27.4754,-31.4804,1491.4768],[27.4727,-31.4882,1460.3864],[27.4629,-31.49,1428.1553],[27.4544,-31.4989,1386.798],[27.4467,-31.4986,1370.2649],[27.4426,-31.4958,1358.9247],[27.4364,-31.4965,1352.6639],[27.4348,-31.5034,1365.7095],[27.4323,-31.5066,1315.6763],[27.4315,-31.5153,1462.153],[27.4419,-31.5296,1259.2816],[27.4505,-31.5257,1263.9539],[27.4568,-31.5272,1271.0133],[27.4584,-31.5329,1285.9945],[27.4567,-31.5351,1301.0603],[27.4573,-31.539,1326.1882],[27.4615,-31.543,1368.561],[27.4597,-31.5464,1384.0725],[27.4619,-31.5476,1388.1593],[27.4612,-31.555,1481.0507],[27.4506,-31.5551,1366.417],[27.4451,-31.5518,1326.4313],[27.4437,-31.5462,1283.4258],[27.4395,-31.54,1246.1711],[27.4362,-31.5381,1233.022],[27.4334,-31.5324,1215.7063],[27.424,-31.5327,1202.8879],[27.4217,-31.5363,1198.097],[27.416,-31.5399,1189.7874],[27.4193,-31.5411,1189.093],[27.4162,-31.544,1187.6901],[27.4179,-31.5495,1185.3687],[27.4221,-31.5513,1183.8706],[27.4232,-31.5535,1184.6166],[27.4232,-31.5564,1187.793],[27.4212,-31.5561,1184.3187],[27.4202,-31.5584,1188.2489],[27.4241,-31.559,1183.4645],[27.4272,-31.5633,1182.0299],[27.4258,-31.5664,1181.557],[27.4266,-31.569,1182.7069],[27.4284,-31.5707,1179.7085],[27.4345,-31.5706,1180.1199],[27.437,-31.5765,1177.2947],[27.4422,-31.58,1174.8442],[27.4398,-31.5851,1196.3481],[27.4357,-31.5825,1168.3535],[27.4312,-31.5854,1166.5984],[27.4319,-31.5895,1167.9475],[27.4296,-31.5909,1166.0784],[27.4341,-31.5963,1152.4944],[27.4344,-31.6032,1161.4746],[27.4367,-31.6075,1170.0942],[27.4421,-31.6108,1145.8296],[27.4426,-31.6126,1140.5648],[27.4327,-31.6115,1130.479],[27.4223,-31.6158,1112.3357],[27.4276,-31.6182,1248.072],[27.4352,-31.625,1165.9662],[27.4337,-31.6348,1115.0039],[27.4296,-31.6349,1088.5836],[27.4305,-31.6365,1091.4945],[27.4259,-31.6417,1088.17],[27.4267,-31.6442,1083.9043],[27.4357,-31.6459,1080.7144],[27.4364,-31.6476,1082.0648],[27.4432,-31.6474,1076.0466],[27.4462,-31.654,1075.0774],[27.4433,-31.6572,1076.0007],[27.4394,-31.6572,1073.4707],[27.4373,-31.6596,1077.0839],[27.4382,-31.6616,1082.0522],[27.4355,-31.6633,1073.3801],[27.4354,-31.6653,1073.9135],[27.4382,-31.6676,1081.2163],[27.4366,-31.6713,1073.4785],[27.4379,-31.6733,1074.6567],[27.4351,-31.6736,1069.7444],[27.437,-31.6762,1074.1731]]]]}
,"properties": {"GID_3": "ZAF.1.5.7_1","GID_0": "ZAF","country": "SouthAfrica","GID_1": "ZAF.1_1","province": "EasternCape","NL_NAME_1": "NA","GID_2": "ZAF.1.5_1","county": "ChrisHani","NL_NAME_2": "NA","city": "Sakhisizwe","VARNAME_3": "NA","NL_NAME_3": "NA","TYPE_3": "LocalMunicipality","ENGTYPE_3": "LocalMunicipality","CC_3": "EC138","HASC_3": "NA","name": "Sakhisizwe.city","area_km2": 2356.926,"hist_schema_id": "Elevation0-9000","hist_area_km2": {"875": 0.126,"900": 0.994,"925": 1.572,"950": 1.536,"975": 2.35,"1000": 2.856,"1025": 4.157,"1050": 7.734,"1075": 12.283,"1100": 22.015,"1125": 43.34,"1150": 57.405,"1175": 65.814,"1200": 67.785,"1225": 67.568,"1250": 82.351,"1275": 101.362,"1300": 111.361,"1325": 131.682,"1350": 143.47,"1375": 162.91,"1400": 164.574,"1425": 172.023,"1450": 171.65,"1475": 155.112,"1500": 138.61,"1525": 107.168,"1550": 70.85,"1575": 51.475,"1600": 33.215,"1625": 25.844,"1650": 24.367,"1675": 18.641,"1700": 11.516,"1725": 10.215,"1750": 7.884,"1775": 7.432,"1800": 7.106,"1825": 7.921,"1850": 7.323,"1875": 8.357,"1900": 8.665,"1925": 8.067,"1950": 7.523,"1975": 6.943,"2000": 6.146,"2025": 6.853,"2050": 5.892,"2075": 5.366,"2100": 3.734,"2125": 2.176,"2150": 1.287,"2175": 0.58,"2200": 0.526,"2225": 0.453,"2250": 0.363,"2275": 0.272,"2300": 0.073,"2325": 0.036}}}