{"type":"Feature","properties":{"featurecla":"River","scalerank":4,"rivernum":101,"dissolve":"101River","name":"Vaal4","name_alt":null,"note":null,"min_zoom":4.0,"strokeweig":0.2,"name_en":"Vaal","min_label":5.0},
"geometry":{"type": "LineString","coordinates": [[30.049072265625,-26.70891692500588,1618.7881],[30.015722656250006,-26.742510675005889,1588.4087],[30.000683593750011,-26.750518487505886,1584.5117],[29.98095703125,-26.75432708125588,1598.5586],[29.945214843750023,-26.75701262813088,1591.9534],[29.925537109375,-26.76409270625588,1590.5066],[29.901562500000011,-26.781280206255886,1618.9456],[29.893164062500006,-26.78508880000588,1584.4313],[29.87255859375,-26.783038018755889,1599.0078],[29.863525390625,-26.784698175005886,1636.8375],[29.839257812500023,-26.807647393755886,1593.4324],[29.826562500000023,-26.811553643755886,1622.9963],[29.809472656250023,-26.79827239375588,1588.5536],[29.799414062500006,-26.806182550005886,1585.6772],[29.789794921875,-26.828936456255889,1593.8832],[29.781494140625,-26.83928801875588,1604.6277],[29.76953125,-26.84514739375588,1584.3418],[29.767333984375,-26.83855559688088,1585.6309],[29.76708984375,-26.826983331255889,1635.5477],[29.76171875,-26.81878020625588,1632.1442],[29.752050781250006,-26.81780364375588,1652.3916],[29.7490234375,-26.822588800005889,1620.8911],[29.748632812500006,-26.828936456255889,1597.116],[29.747460937500023,-26.83245208125588,1572.2065],[29.742285156250006,-26.832842706255889,1605.0524],[29.73095703125,-26.83220794063088,1610.3218],[29.727636718750006,-26.83245208125588,1611.7205],[29.64453125,-26.854034112505886,1619.0399],[29.63046875,-26.85491301875588,1584.4158],[29.590039062500011,-26.849639581255886,1576.7288],[29.580468750000023,-26.85027434688088,1576.0648],[29.5693359375,-26.852373956255889,1588.9672],[29.54931640625,-26.858916925005886,1616.1116],[29.536376953125,-26.86150481563088,1589.0454],[29.521484375,-26.860381768755886,1560.3801],[29.5146484375,-26.856475518755886,1571.0463],[29.507080078125,-26.850616143755886,1571.3759],[29.496191406250006,-26.846026300005889,1555.4246],[29.479882812500023,-26.84612395625588,1582.395],[29.492089843750023,-26.863604425005889,1571.9943],[29.494873046875,-26.87322356563088,1570.7004],[29.48876953125,-26.88274505000588,1560.7288],[29.4736328125,-26.90007903438088,1572.3362],[29.461328125000023,-26.920245050005889,1553.7776],[29.45947265625,-26.924639581255889,1550.4596],[29.454199218750006,-26.930498956255889,1564.0962],[29.442578125000011,-26.92620208125588,1579.7864],[29.42529296875,-26.914385675005889,1574.7325],[29.414941406250023,-26.915069268755886,1560.4104],[29.395410156250023,-26.92009856563088,1566.0852],[29.387792968750006,-26.917803643755889,1566.7358],[29.37548828125,-26.91057708125588,1556.5922],[29.368554687500023,-26.912432550005889,1547.7175],[29.363671875000023,-26.91790130000588,1546.0],[29.35693359375,-26.921221612505889,1546.0],[29.33642578125,-26.926104425005889,1549.2449],[29.326562500000023,-26.92376067500588,1546.0],[29.322265625,-26.910967706255889,1552.9969],[29.31796875,-26.903155206255889,1548.0917],[29.308007812500023,-26.90178801875588,1546.0],[29.296630859375,-26.90422942500588,1549.9847],[29.288183593750006,-26.907549737505889,1559.8463],[29.272070312500006,-26.919268487505889,1545.5851],[29.25830078125,-26.935088800005886,1527.0702],[29.224853515625,-26.98723723750588,1515.1648],[29.216064453125,-26.99700286250588,1532.496],[29.1875,-27.018389581255889,1517.8861],[29.174560546875,-27.024444268755886,1517.3527],[29.15869140625,-27.028350518755886,1519.5374],[29.137939453125,-27.03045012813088,1511.9434],[29.113525390625,-27.025713800005889,1506.0332],[29.1015625,-27.02800872188088,1508.3956],[29.096289062500006,-27.04094817500588,1510.0875],[29.091796875,-27.043780206255889,1511.4039],[29.08154296875,-27.04485442500588,1513.6332],[29.062255859375,-27.04412200313088,1507.4486]]}}