{"type":"Feature","properties":{"featurecla":"River","scalerank":4,"rivernum":101,"dissolve":"101River","name":"Vaal5","name_alt":null,"note":null,"min_zoom":4.0,"strokeweig":0.2,"name_en":"Vaal","min_label":5.0},
"geometry":{"type": "LineString","coordinates": [[29.056054687500023,-27.04412200313088,1505.7012],[29.057226562500006,-27.03045012813088,1505.8491],[29.052636718750023,-27.026690362505889,1505.8586],[29.044189453125,-27.026397393755886,1514.417],[29.034765625,-27.02361419063088,1505.0347],[28.990234375,-26.99627044063088,1504.0947],[28.970458984375,-26.99431731563088,1502.7217],[28.958398437500023,-26.99504973750588,1513.5146],[28.94921875,-27.000030206255886,1527.3706],[28.939160156250011,-27.00872161250588,1522.0369],[28.930273437500006,-27.011553643755889,1502.6952],[28.921630859375,-27.01287200313088,1501.9233],[28.912011718750023,-27.017413018755889,1501.6182],[28.904687500000023,-27.02459075313088,1527.2596],[28.892675781250006,-27.03923919063088,1512.34],[28.884033203125,-27.04412200313088,1512.9526],[28.873632812500006,-27.04436614375588,1498.5447],[28.86767578125,-27.039385675005889,1502.4514],[28.8623046875,-27.03337981563088,1501.3069],[28.853417968750023,-27.03045012813088,1503.3246],[28.843994140625,-27.03289153438088,1502.043],[28.833398437500023,-27.03728606563088,1498.0],[28.822509765625,-27.03923919063088,1494.3778],[28.81201171875,-27.03411223750588,1493.0452],[28.80126953125,-27.02532317500588,1500.4271],[28.793847656250023,-27.02288176875588,1509.2056],[28.7861328125,-27.02190520625588,1494.3562],[28.774121093750011,-27.017413018755889,1491.0098],[28.696875,-26.97136809688088,1516.9421],[28.651562500000011,-26.955889581255889,1490.2693],[28.623437500000023,-26.96965911250588,1500.2583],[28.619873046875,-26.979522393755886,1493.444],[28.622460937500023,-26.979522393755886,1502.2816],[28.629003906250006,-26.977862237505889,1502.396],[28.6376953125,-26.98259856563088,1501.347],[28.65478515625,-26.996905206255889,1489.8206],[28.657470703125,-27.005889581255886,1491.234],[28.64111328125,-27.00994231563088,1501.7941],[28.619873046875,-27.009795831255886,1491.0972],[28.605859375000023,-27.01140715938088,1497.137],[28.593017578125,-27.01726653438088,1533.4003],[28.546777343750023,-27.05413176875588,1501.7837],[28.53466796875,-27.058428643755889,1484.281],[28.5419921875,-27.034991143755889,1483.2952],[28.549707031250023,-27.022295831255889,1524.7817],[28.546484375,-27.013995050005889,1508.7726],[28.51904296875,-26.996612237505886,1507.3237]]}}