{"type":"Feature","properties":{"featurecla":"River","scalerank":4,"rivernum":101,"dissolve":"101River","name":"Vaal2","name_alt":null,"note":null,"min_zoom":4.0,"strokeweig":0.2,"name_en":"Vaal","min_label":5.0},
"geometry":{"type": "LineString","coordinates": [[30.134765625,-26.383330987505886,1713.0101],[30.169189453125,-26.40227630000588,1678.9847],[30.18603515625,-26.416338800005889,1684.0925],[30.19873046875,-26.45256926875588,1644.6604],[30.234619140625,-26.510284112505886,1652.7703],[30.22705078125,-26.52654387813088,1638.5491],[30.220117187500023,-26.563995050005886,1640.9983],[30.213623046875,-26.57854583125588,1647.2012],[30.190039062500006,-26.596026300005889,1637.5222],[30.182861328125,-26.59905364375588,1627.9232],[30.171142578125,-26.602080987505886,1643.4911],[30.168212890625,-26.60930755000588,1632.0315],[30.168066406250006,-26.61834075313088,1645.7928],[30.165136718750006,-26.62639739375588,1657.8928],[30.14013671875,-26.647784112505889,1618.606],[30.049072265625,-26.70891692500588,1618.7881]]}}