{"type": "Feature","bbox": [28.302,-32.0592,30.0471,-30.8298],"geometry": {"type": "MultiPolygon","coordinates": [[[[29.0383,-32.0385,208.8396],[29.0373,-32.041,209.8199],[29.0424,-32.0421,177.4046],[29.0432,-32.0395,161.9837],[29.0658,-32.0353,131.7715],[29.0728,-32.0406,97.3744],[29.0735,-32.043,116.5392],[29.0677,-32.0488,165.4873],[29.0741,-32.0499,141.8185],[29.0787,-32.0452,54.4154],[29.0805,-32.0466,113.0309],[29.0837,-32.0458,63.317],[29.0865,-32.048,57.3197],[29.0855,-32.0521,122.9093],[29.0908,-32.0516,104.9957],[29.094,-32.0535,95.3483],[29.0948,-32.0551,80.9227],[29.0919,-32.0565,99.6432],[29.0933,-32.0574,99.6432],[29.0927,-32.0592,82.4257],[29.0996,-32.0554,0.0],[29.1021,-32.0471,2.897],[29.1068,-32.046,0.0],[29.1071,-32.0435,0.0],[29.1143,-32.0382,0.0],[29.1124,-32.036,0.0],[29.1151,-32.0324,1.1103],[29.1174,-32.0321,0.0],[29.1165,-32.0299,0.0],[29.1182,-32.0288,0.0],[29.124,-32.0296,0.0],[29.1251,-32.0268,0.0],[29.1229,-32.0243,0.0],[29.1299,-32.0204,3.8113],[29.1301,-32.0143,26.9672],[29.1332,-32.0132,0.0],[29.131,-32.0085,0.0],[29.1329,-32.0051,0.0],[29.1371,-32.0029,0.0],[29.1376,-31.9957,12.4582],[29.1418,-31.9929,43.1992],[29.1488,-31.9912,2.1195],[29.1496,-31.9887,0.0],[29.1546,-31.9876,0.0],[29.1518,-31.9835,0.0],[29.1526,-31.9813,2.4988],[29.1626,-31.9782,0.0],[29.1651,-31.9724,48.9772],[29.1688,-31.9721,1.4237],[29.1707,-31.9701,0.0],[29.1699,-31.965699999999998,5.4307],[29.186,-31.9549,0.0],[29.1854,-31.9526,0.0],[29.1813,-31.9532,15.5344],[29.1804,-31.9518,3.5452],[29.1829,-31.9463,1.6463],[29.1801,-31.9424,0.6316],[29.1835,-31.9449,2.114],[29.1846,-31.949,2.4929],[29.196,-31.9465,2.8075],[29.2024,-31.9485,0.0],[29.2038,-31.9465,0.0],[29.209,-31.9465,0.0],[29.209,-31.9443,9.2423],[29.2174,-31.9426,0.8447],[29.2201,-31.9396,0.0],[29.2188,-31.936,0.0],[29.215699999999998,-31.9374,13.3974],[29.2149,-31.9324,0.0],[29.2049,-31.9274,4.6961],[29.2113,-31.9262,19.1642],[29.2149,-31.9301,0.6727],[29.2188,-31.931,2.3405],[29.2235,-31.929,0.0],[29.2285,-31.9246,0.0],[29.2288,-31.9196,0.0],[29.2332,-31.9157,3.0681],[29.2354,-31.9157,0.0],[29.2354,-31.9118,0.0],[29.2399,-31.9085,0.0],[29.2399,-31.9068,0.0],[29.2443,-31.9051,0.0],[29.2457,-31.9007,1.464],[29.2479,-31.901,0.0],[29.2476,-31.8979,0.0],[29.2443,-31.8954,0.0],[29.2454,-31.894,3.3051],[29.2479,-31.8949,0.0],[29.2493,-31.8929,0.0],[29.2457,-31.8896,0.0],[29.2479,-31.8885,3.3963],[29.2488,-31.8901,0.0],[29.2521,-31.8879,18.1076],[29.261,-31.8862,1.4401],[29.2626,-31.8843,0.0],[29.2649,-31.8815,0.0],[29.2635,-31.8801,0.0903],[29.2646,-31.8749,0.0],[29.2635,-31.8699,0.0],[29.2665,-31.8679,0.0],[29.2654,-31.8632,4.5175],[29.2699,-31.8593,5.3887],[29.2726,-31.8529,2.1952],[29.2709,-31.851,0.8526],[29.2651,-31.8501,5.4559],[29.2732,-31.8504,1.7906],[29.2718,-31.8582,1.4224],[29.2724,-31.8599,0.0],[29.2751,-31.8596,0.0],[29.286,-31.8482,0.0],[29.2874,-31.8443,7.0577],[29.2943,-31.8399,0.0],[29.2965,-31.8338,5.6412],[29.3046,-31.8296,0.0],[29.3051,-31.8274,2.9791],[29.3029,-31.8265,0.771],[29.3068,-31.8268,0.0],[29.3099,-31.8251,0.0],[29.314,-31.819,0.0],[29.3176,-31.8168,0.0],[29.3165,-31.8146,0.0],[29.3243,-31.8096,0.0],[29.324,-31.8082,0.0],[29.3204,-31.8085,7.606],[29.3176,-31.8057,0.6442],[29.3093,-31.8026,1.2128],[29.3121,-31.8018,0.0],[29.3226,-31.8071,0.0],[29.3326,-31.8079,2.1214],[29.334,-31.8068,2.1214],[29.3382,-31.8085,0.0],[29.3515,-31.8032,0.0],[29.3526,-31.7999,1.9387],[29.3476,-31.7951,9.5155],[29.3476,-31.7935,2.1207],[29.3532,-31.7926,0.0],[29.3557,-31.7887,7.4772],[29.3563,-31.7813,18.7106],[29.3585,-31.7774,22.3581],[29.3549,-31.7738,0.0],[29.3582,-31.7646,12.8062],[29.3574,-31.761,4.3424],[29.3593,-31.759,0.0],[29.3646,-31.7579,0.9815],[29.3724,-31.7499,0.0],[29.3813,-31.7485,0.0],[29.3865,-31.7457,0.0],[29.3882,-31.7415,0.0],[29.3946,-31.7371,11.5321],[29.4029,-31.7351,0.0],[29.4024,-31.7321,0.0],[29.4068,-31.7268,0.0],[29.404,-31.7243,13.4812],[29.4054,-31.7229,0.0],[29.4029,-31.7213,2.5711],[29.4035,-31.7187,6.8133],[29.4115,-31.714,0.0],[29.4126,-31.7076,0.0],[29.4171,-31.7054,0.0],[29.4182,-31.6996,1.5562],[29.4215,-31.6976,0.0],[29.4215,-31.6957,0.0],[29.4254,-31.6951,0.0],[29.4243,-31.6924,0.0],[29.421,-31.6921,4.0175],[29.4168,-31.6949,13.0925],[29.4154,-31.6926,0.0],[29.4093,-31.6938,0.6246],[29.4104,-31.6921,0.5522],[29.4188,-31.6918,0.0],[29.4204,-31.6893,3.9861],[29.4229,-31.691,2.3231],[29.4293,-31.6868,0.0],[29.4371,-31.6846,1.7604],[29.4413,-31.6857,0.0],[29.4438,-31.6818,2.3006],[29.4515,-31.6785,0.0],[29.4532,-31.6762,9.5758],[29.4521,-31.6729,0.7432],[29.4546,-31.6685,1.0573],[29.4538,-31.6646,2.0862],[29.4562,-31.669,4.7571],[29.4535,-31.6715,0.7432],[29.4535,-31.674,0.6685],[29.465699999999998,-31.6774,0.0],[29.4732,-31.6779,20.2046],[29.4768,-31.6751,0.9959],[29.4932,-31.6718,0.0],[29.494,-31.6701,0.0],[29.4921,-31.6693,2.0925],[29.4926,-31.6679,46.1467],[29.4971,-31.6649,0.0],[29.5021,-31.6646,0.0],[29.5021,-31.659,7.8307],[29.5046,-31.6599,0.0],[29.5065,-31.6554,17.2796],[29.5112,-31.6568,0.0],[29.5163,-31.6549,0.0],[29.519,-31.6518,0.0],[29.5185,-31.6496,0.0],[29.5201,-31.6474,2.0145],[29.521,-31.6499,0.0],[29.5254,-31.6493,2.5244],[29.5268,-31.6507,2.2271],[29.5293,-31.6488,3.6327],[29.5362,-31.6482,0.0],[29.5413,-31.6435,2.1761],[29.5449,-31.6432,0.0],[29.5479,-31.6385,10.179],[29.5546,-31.6365,0.0],[29.551,-31.6315,0.0],[29.5476,-31.6307,9.603],[29.5474,-31.6212,0.461],[29.5293,-31.5979,1.0],[29.5362,-31.6026,100.4088],[29.541,-31.6121,0.5],[29.5501,-31.6201,0.1236],[29.5524,-31.624,0.4273],[29.5699,-31.6162,1.5364],[29.5807,-31.6087,2.3507],[29.5904,-31.609,0.0],[29.5951,-31.6046,9.5864],[29.5999,-31.6029,0.0],[29.6046,-31.5974,1.7299],[29.6065,-31.5976,0.1164],[29.6099,-31.5951,0.0],[29.6096,-31.594,0.0],[29.6043,-31.5946,20.1415],[29.6038,-31.5921,10.4431],[29.6063,-31.594,0.0],[29.609,-31.5888,7.9707],[29.616,-31.5874,0.0],[29.6168,-31.5846,0.0],[29.6246,-31.5835,0.0],[29.6279,-31.581,14.2452],[29.6288,-31.574,3.567],[29.6338,-31.5726,0.0],[29.6343,-31.5682,0.935],[29.6374,-31.5649,0.0],[29.6371,-31.5629,0.0],[29.6349,-31.5649,1.2992],[29.6315,-31.5643,4.2998],[29.6335,-31.5626,0.0],[29.6315,-31.561,1.9358],[29.634,-31.5613,0.0],[29.6351,-31.5629,5.439],[29.646,-31.556,8.3459],[29.6493,-31.5574,0.0],[29.6501,-31.556,6.4258],[29.6571,-31.5554,0.0],[29.6585,-31.5521,0.0],[29.6624,-31.5501,0.0],[29.661,-31.5485,6.731],[29.6646,-31.5468,0.0],[29.6665,-31.5479,0.0],[29.6663,-31.5457,0.0],[29.6676,-31.5449,0.0],[29.6688,-31.5462,0.0],[29.6685,-31.5443,10.5347],[29.6718,-31.5449,0.0],[29.6782,-31.5351,0.0],[29.6815,-31.536,0.0],[29.6846,-31.5329,0.0],[29.6887,-31.5218,0.0],[29.6849,-31.5193,0.0],[29.6893,-31.5199,0.0],[29.6896,-31.5232,0.0],[29.6921,-31.524,0.0],[29.6982,-31.5185,5.0145],[29.6976,-31.5126,11.825],[29.7007,-31.5126,0.0],[29.7032,-31.509,0.4149],[29.7068,-31.5074,0.0],[29.7076,-31.5037,5.3199],[29.7113,-31.5043,0.0],[29.714,-31.5024,0.0],[29.7129,-31.4993,3.171],[29.7162,-31.4979,3.3258],[29.716,-31.4935,8.791],[29.7201,-31.4932,0.0],[29.7235,-31.489,0.0],[29.7201,-31.4837,2.5881],[29.7218,-31.4799,0.0],[29.7237,-31.4807,0.0],[29.7246,-31.4787,11.3587],[29.7315,-31.4785,0.0],[29.7346,-31.4735,3.4916],[29.736,-31.4685,0.0],[29.7337,-31.465699999999998,4.6893],[29.7343,-31.4618,1.1944],[29.7354,-31.4621,1.1944],[29.7349,-31.465699999999998,4.6893],[29.7446,-31.4635,0.0],[29.7549,-31.456,0.0],[29.7551,-31.4515,0.0],[29.7574,-31.4496,0.0],[29.7643,-31.4479,0.0],[29.7687,-31.4446,0.0],[29.7763,-31.4457,5.5066],[29.7801,-31.4418,0.0],[29.7871,-31.4393,22.1089],[29.8057,-31.436,54.8339],[29.8096,-31.4368,0.0],[29.8154,-31.4351,10.7832],[29.8312,-31.4349,0.0],[29.8546,-31.4237,0.4529],[29.8607,-31.4171,1.4579],[29.8638,-31.4165,0.0],[29.8696,-31.4096,0.0],[29.8738,-31.4074,0.4534],[29.8796,-31.3974,3.5151],[29.8835,-31.3993,0.0],[29.906,-31.386,0.0],[29.9054,-31.376,3.5514],[29.9171,-31.3732,0.0],[29.9254,-31.3626,1.5988],[29.9343,-31.3596,0.0],[29.9399,-31.3515,0.0],[29.9468,-31.349,0.0],[29.9529,-31.3426,6.4066],[29.9615,-31.3376,1.6683],[29.965699999999998,-31.3282,0.0],[29.9665,-31.3224,0.0],[29.9618,-31.3176,15.0327],[29.966,-31.3193,3.5999],[29.971,-31.3182,0.0],[29.9718,-31.3199,0.0],[29.9751,-31.3193,1.3791],[29.9832,-31.3162,0.0],[29.9857,-31.3135,0.0],[29.9901,-31.3124,0.0],[29.999,-31.3065,0.0],[29.999,-31.3046,0.0],[30.0043,-31.299,8.2233],[30.0068,-31.2985,1.0859],[30.0132,-31.2926,3.0122],[30.0135,-31.2882,0.5023],[30.0107,-31.2871,2.2235],[30.0163,-31.2849,0.0],[30.0254,-31.2751,15.123],[30.0332,-31.2707,4.3334],[30.0382,-31.2657,0.1708],[30.0399,-31.2626,2.9664],[30.0388,-31.2612,8.3826],[30.0446,-31.2582,0.0],[30.0449,-31.2526,0.7957],[30.0471,-31.2493,0.0],[30.039,-31.2424,0.0],[30.0459,-31.2465,0.0],[30.0395,-31.2419,0.0],[30.0277,-31.2369,19.6091],[30.0202,-31.2314,13.3325],[30.018,-31.2312,26.8023],[30.0151,-31.2341,8.5938],[30.0119,-31.2336,29.3449],[30.0095,-31.2279,100.3205],[30.004,-31.224,46.6145],[29.9947,-31.2188,89.4713],[29.9838,-31.2158,83.5526],[29.9736,-31.2091,144.5487],[29.97,-31.2091,72.9867],[29.966,-31.2114,177.8258],[29.9636,-31.2106,85.1642],[29.9582,-31.203,75.7862],[29.9487,-31.1972,83.5034],[29.9496,-31.195,98.3775],[29.9538,-31.1926,112.2256],[29.9512,-31.1859,103.3095],[29.9475,-31.1858,104.9032],[29.942,-31.1884,124.0347],[29.9359,-31.186,118.7042],[29.9401,-31.1803,109.2798],[29.9344,-31.1807,126.8161],[29.932,-31.1778,181.1128],[29.9217,-31.1816,158.856],[29.9166,-31.1784,134.7517],[29.9123,-31.178,232.8955],[29.9116,-31.1757,132.9302],[29.9154,-31.1708,136.7916],[29.913,-31.1694,171.5605],[29.9061,-31.1735,155.495],[29.9052,-31.1756,147.1929],[29.9065,-31.1796,222.4997],[29.9047,-31.1796,170.0696],[29.892,-31.1739,155.039],[29.8871,-31.1627,212.2811],[29.8824,-31.1672,165.685],[29.8746,-31.1628,179.8076],[29.8661,-31.1644,176.2798],[29.8658,-31.1623,170.2242],[29.8703,-31.1576,191.337],[29.8665,-31.1542,184.1437],[29.8604,-31.1533,209.7083],[29.8635,-31.1493,199.2607],[29.8627,-31.1479,195.8813],[29.8511,-31.1464,181.172],[29.8453,-31.1487,186.6265],[29.8366,-31.1483,191.8494],[29.8367,-31.1454,183.9532],[29.8452,-31.1427,184.4332],[29.8466,-31.1356,188.8486],[29.8441,-31.1316,190.0071],[29.8399,-31.1309,208.3059],[29.832,-31.1354,197.9054],[29.8286,-31.1356,211.2225],[29.8261,-31.1336,196.4002],[29.8288,-31.1315,208.6076],[29.8269,-31.1292,226.2274],[29.8223,-31.135,218.6584],[29.8186,-31.1368,232.5312],[29.8142,-31.1322,248.4533],[29.8087,-31.1409,211.2773],[29.8046,-31.1431,244.0863],[29.803,-31.1401,260.9482],[29.8044,-31.1347,219.308],[29.8033,-31.1308,221.7319],[29.7972,-31.1303,223.4626],[29.8001,-31.119,242.2547],[29.7971,-31.1157,276.1805],[29.7943,-31.1166,238.012],[29.7947,-31.1213,237.6733],[29.7914,-31.1235,252.395],[29.7874,-31.1233,286.1628],[29.7859,-31.1181,246.7072],[29.7827,-31.1202,267.8573],[29.7844,-31.1273,250.2979],[29.7813,-31.1295,253.5277],[29.7788,-31.1286,253.8492],[29.7741,-31.121,266.377],[29.7664,-31.119,268.2764],[29.7615,-31.1194,352.4849],[29.7604,-31.1234,280.0559],[29.7623,-31.1266,271.0826],[29.7697,-31.1297,274.2864],[29.7692,-31.1323,276.4441],[29.767,-31.1333,315.7587],[29.7653,-31.1335,295.4087],[29.7616,-31.1295,279.0723],[29.7551,-31.1304,284.4525],[29.7486,-31.1284,286.2156],[29.7454,-31.1295,287.93],[29.7434,-31.1232,289.9109],[29.7377,-31.1287,331.733],[29.7364,-31.1244,296.2496],[29.7391,-31.12,301.3193],[29.7348,-31.1119,361.726],[29.7411,-31.1066,313.8637],[29.7297,-31.0965,319.2247],[29.726,-31.0869,322.5922],[29.7167,-31.0834,330.5111],[29.7083,-31.0834,400.8795],[29.7076,-31.0803,339.1648],[29.6995,-31.0759,427.313],[29.6958,-31.0803,384.4968],[29.6994,-31.0842,363.187],[29.6914,-31.0876,371.0533],[29.687,-31.0815,380.7577],[29.6884,-31.0777,382.0883],[29.688,-31.0728,380.0786],[29.6811,-31.0686,394.255],[29.6778,-31.0597,393.1294],[29.6752,-31.0594,423.6599],[29.6725,-31.0625,402.4308],[29.6631,-31.0628,411.3964],[29.6616,-31.0604,423.2091],[29.6581,-31.0604,419.891],[29.6569,-31.0636,460.4136],[29.6534,-31.0607,463.6013],[29.6504,-31.0643,438.1408],[29.6488,-31.0624,461.5783],[29.6453,-31.0631,484.3844],[29.6377,-31.059,484.8453],[29.6338,-31.0614,495.9825],[29.6324,-31.0592,478.9431],[29.6293,-31.0586,494.4485],[29.6293,-31.062,494.2363],[29.6259,-31.0607,497.1232],[29.6246,-31.0616,525.7722],[29.6229,-31.0582,501.4562],[29.6266,-31.0582,510.3174],[29.6217,-31.0516,561.787],[29.6222,-31.0489,536.3218],[29.6192,-31.0459,543.5056],[29.6123,-31.0429,596.9023],[29.6103,-31.0444,550.3934],[29.6075,-31.0431,555.7609],[29.6054,-31.045,585.3007],[29.6025,-31.0447,575.6782],[29.599,-31.0434,581.2411],[29.599,-31.0416,572.2775],[29.5962,-31.0425,575.6869],[29.5936,-31.0393,623.4802],[29.5841,-31.0379,624.9336],[29.5848,-31.0284,662.5917],[29.59,-31.0273,681.6378],[29.591,-31.025,693.4677],[29.5925,-31.025,685.3308],[29.5918,-31.0184,713.2712],[29.5857,-31.0184,767.2766],[29.5864,-31.0158,759.2538],[29.5842,-31.0139,764.8174],[29.585,-31.01,786.6973],[29.5827,-31.0079,805.3259],[29.5829,-31.0038,803.9009],[29.5754,-30.9971,839.692],[29.5744,-30.9942,851.8473],[29.5918,-30.9905,810.8886],[29.6065,-30.9906,702.8924],[29.6075,-30.9879,703.3717],[29.6064,-30.986,715.9753],[29.6087,-30.9865,724.8063],[29.6097,-30.983,737.337],[29.6043,-30.9802,775.5966],[29.6021,-30.9809,755.7985],[29.6007,-30.9788,771.8931],[29.5983,-30.9795,773.4255],[29.5929,-30.9737,812.2146],[29.5907,-30.9736,818.5773],[29.5898,-30.9698,832.6949],[29.5862,-30.9706,839.7167],[29.5844,-30.9661,856.2662],[29.5813,-30.9661,867.6028],[29.578,-30.9621,884.7043],[29.5586,-30.9568,944.1821],[29.5529,-30.9507,968.6375],[29.5538,-30.9461,944.7982],[29.5491,-30.9429,934.7982],[29.5383,-30.9431,897.2679],[29.5333,-30.9391,886.4034],[29.5325,-30.9331,861.1093],[29.5266,-30.938,858.2574],[29.5192,-30.9341,955.1161],[29.5289,-30.9268,912.5145],[29.5208,-30.9297,888.7919],[29.5159,-30.9282,862.0657],[29.5088,-30.9316,825.9215],[29.4945,-30.9205,887.8975],[29.4906,-30.9233,934.6154],[29.4907,-30.9289,990.8702],[29.4895,-30.9294,996.4938],[29.4831,-30.9267,1011.1809],[29.4854,-30.9183,1066.4647],[29.4841,-30.916,1052.5718],[29.4824,-30.9149,1052.5718],[29.4805,-30.9183,1012.6374],[29.4781,-30.9194,951.4096],[29.471,-30.9134,1055.6429],[29.4678,-30.9137,1088.191],[29.4615,-30.9179,1136.8104],[29.4547,-30.9301,947.8237],[29.4635,-30.9493,790.1674],[29.4624,-30.9527,704.0802],[29.4596,-30.9539,638.7576],[29.4587,-30.9599,615.5273],[29.4526,-30.9664,610.1486],[29.4468,-30.9633,588.3414],[29.4367,-30.9677,645.2263],[29.4312,-30.9743,585.8562],[29.4329,-30.9824,568.9965],[29.4141,-30.9891,596.6436],[29.4156,-30.9984,566.0625],[29.4055,-31.0036,538.5098],[29.406,-31.006,557.6392],[29.4134,-31.0126,557.913],[29.4155,-31.0205,520.3444],[29.4195,-31.0206,515.149],[29.4248,-31.0179,560.9513],[29.4272,-31.0195,515.1554],[29.4236,-31.0414,490.8594],[29.4258,-31.0456,490.0723],[29.433,-31.0506,522.5959],[29.4279,-31.0593,473.4914],[29.4142,-31.0682,454.1298],[29.4095,-31.0742,453.3754],[29.4031,-31.0772,450.9904],[29.3997,-31.0827,453.0538],[29.4018,-31.0858,468.7169],[29.4073,-31.0848,460.8196],[29.4085,-31.0775,440.6963],[29.4102,-31.0763,440.6963],[29.4198,-31.0761,448.9563],[29.4365,-31.0791,427.5117],[29.4377,-31.0826,479.8543],[29.4339,-31.0862,421.5096],[29.4333,-31.089,413.2878],[29.4374,-31.1007,447.5482],[29.4367,-31.1037,409.0077],[29.4331,-31.1065,411.8715],[29.429,-31.1061,404.9803],[29.4248,-31.0975,415.9654],[29.4222,-31.0955,407.3064],[29.4204,-31.0957,484.7665],[29.4171,-31.1003,396.7538],[29.4126,-31.1009,389.7482],[29.4107,-31.0985,387.8946],[29.4155,-31.0944,381.5542],[29.4158,-31.0922,380.59],[29.4089,-31.0904,378.6591],[29.4014,-31.0971,388.473],[29.3989,-31.1052,370.9861],[29.3944,-31.1107,385.3457],[29.3903,-31.1115,402.3607],[29.3828,-31.1088,365.1535],[29.3796,-31.1105,360.5702],[29.3798,-31.1141,356.9359],[29.3851,-31.1174,357.2117],[29.3851,-31.1194,353.9557],[29.3778,-31.1199,352.3265],[29.3701,-31.1282,368.7637],[29.3654,-31.1241,349.6718],[29.3533,-31.1259,337.6259],[29.3513,-31.1311,339.2616],[29.3528,-31.1342,336.4198],[29.365,-31.137,326.1151],[29.3727,-31.1407,317.6238],[29.3748,-31.1425,315.9869],[29.3742,-31.1466,313.46],[29.3708,-31.1491,310.7374],[29.355,-31.1541,305.5422],[29.3449,-31.1653,315.9142],[29.3413,-31.1673,303.5173],[29.3382,-31.1662,302.7968],[29.3349,-31.1606,310.9898],[29.3301,-31.1585,293.139],[29.3222,-31.1598,289.3679],[29.316,-31.1673,283.8304],[29.3139,-31.1775,309.5568],[29.3006,-31.1856,266.8134],[29.2948,-31.1868,277.5795],[29.2873,-31.1826,256.9085],[29.2832,-31.1871,258.9531],[29.2794,-31.2003,269.2343],[29.2796,-31.2051,249.3666],[29.2836,-31.2114,245.3141],[29.2833,-31.215699999999998,244.5052],[29.281,-31.2171,247.8081],[29.2746,-31.2179,250.7934],[29.2661,-31.2166,257.5808],[29.2593,-31.2072,245.0404],[29.2537,-31.194,230.7432],[29.2496,-31.1928,258.8262],[29.2458,-31.195,234.6798],[29.2425,-31.2014,218.5075],[29.2418,-31.2095,217.0947],[29.2434,-31.2134,244.6902],[29.248,-31.2164,214.254],[29.2514,-31.2213,229.301],[29.2511,-31.2343,210.7867],[29.2389,-31.2498,195.4941],[29.2361,-31.2653,198.3806],[29.222,-31.2808,179.3589],[29.2251,-31.2852,179.0166],[29.2318,-31.282,184.8162],[29.2352,-31.2864,188.3642],[29.2325,-31.2922,182.9854],[29.2264,-31.2983,171.4863],[29.2047,-31.2959,173.4642],[29.2005,-31.2891,188.7284],[29.1985,-31.2819,180.2237],[29.1906,-31.2753,182.069],[29.1915,-31.2688,210.5769],[29.1901,-31.2639,205.4853],[29.1811,-31.2591,212.8566],[29.1699,-31.2588,207.2489],[29.1728,-31.2347,231.5896],[29.169,-31.2282,261.1996],[29.1764,-31.2273,305.602],[29.175,-31.2263,296.8736],[29.1785,-31.2195,678.8417],[29.1772,-31.2166,708.6826],[29.1797,-31.2078,778.3123],[29.1835,-31.2082,845.2289],[29.1847,-31.211,814.8475],[29.1938,-31.2164,679.1269],[29.1932,-31.2145,692.7064],[29.1956,-31.2106,716.462],[29.1951,-31.2054,749.4684],[29.1984,-31.2024,782.1465],[29.2044,-31.1886,941.3254],[29.1996,-31.1891,976.9856],[29.1938,-31.1986,912.9838],[29.1876,-31.2034,876.9664],[29.1866,-31.2005,889.804],[29.1894,-31.1934,903.4858],[29.1883,-31.1904,829.6836],[29.1933,-31.1863,872.5729],[29.1964,-31.1896,963.0189],[29.2039,-31.1842,997.0502],[29.2076,-31.18,1019.5458],[29.2065,-31.1769,1014.803],[29.2074,-31.1722,1046.8577],[29.2009,-31.1693,1025.2136],[29.1999,-31.1659,1104.6844],[29.1882,-31.1686,1091.8047],[29.1694,-31.1676,1085.3275],[29.1673,-31.165,1101.0852],[29.1641,-31.1653,1126.2603],[29.1612,-31.1611,1119.0292],[29.1488,-31.1551,1094.2035],[29.1351,-31.1526,1098.8032],[29.1359,-31.1461,1137.7461],[29.1424,-31.139,1130.4524],[29.1353,-31.1203,1121.5537],[29.1349,-31.1088,1099.7634],[29.1307,-31.0972,1093.8241],[29.1323,-31.0914,1115.3219],[29.1216,-31.0829,1045.4885],[29.1121,-31.0831,1036.9716],[29.1034,-31.0802,1063.3464],[29.0941,-31.0667,1120.7729],[29.0877,-31.0655,1125.8521],[29.0691,-31.0527,1057.9215],[29.0617,-31.0431,1049.0067],[29.0623,-31.0396,1057.8352],[29.0648,-31.0376,1035.822],[29.0629,-31.0349,1038.9741],[29.0604,-31.0346,1050.5828],[29.0606,-31.0324,999.3704],[29.0545,-31.0316,1059.1058],[29.0567,-31.0264,1057.907],[29.0491,-31.021,1036.0001],[29.0453,-31.0204,1079.0543],[29.0426,-31.01,1077.4657],[29.0366,-31.0075,1127.2056],[29.0319,-31.0091,1145.2211],[29.0268,-31.0041,1172.9404],[29.0182,-31.0023,1130.2942],[29.0154,-31.0029,1108.3141],[29.0133,-31.0062,1098.7878],[29.0144,-31.02,1083.2805],[29.003,-31.0185,984.3286],[28.9997,-31.0251,931.3143],[28.9957,-31.0273,915.0511],[28.9893,-31.0267,895.1199],[28.9832,-31.0228,873.6659],[28.9789,-31.025,840.037],[28.9807,-31.0325,826.9808],[28.984,-31.0369,815.6721],[28.9776,-31.0413,820.2737],[28.9811,-31.0438,825.145],[28.9781,-31.0455,826.5665],[28.9826,-31.054,769.6423],[28.98,-31.0553,788.5569],[28.9772,-31.06,745.1072],[28.9716,-31.0593,751.0616],[28.963,-31.0621,762.1801],[28.9561,-31.0729,739.6901],[28.9521,-31.071,742.5561],[28.9545,-31.0662,751.8557],[28.9595,-31.0615,745.4631],[28.9595,-31.0592,741.9305],[28.9512,-31.0546,768.4694],[28.9482,-31.0495,747.5751],[28.9488,-31.046,753.9007],[28.9472,-31.0434,749.6025],[28.9412,-31.0495,752.1623],[28.9328,-31.0533,764.6815],[28.9328,-31.0546,762.8472],[28.9418,-31.0602,760.6253],[28.9382,-31.0683,762.8051],[28.9345,-31.072,762.7709],[28.9301,-31.0728,761.8821],[28.9319,-31.0667,764.2494],[28.9259,-31.0594,770.6667],[28.9255,-31.0537,774.1505],[28.9193,-31.0538,769.3768],[28.9083,-31.0576,781.889],[28.9083,-31.0594,770.0411],[28.9164,-31.0625,777.5806],[28.9196,-31.0658,775.7703],[28.9137,-31.0692,775.3048],[28.9119,-31.075,783.6631],[28.9057,-31.0777,778.4165],[28.8987,-31.0763,793.3528],[28.8889,-31.0635,781.8386],[28.8694,-31.0531,785.4233],[28.8646,-31.0514,785.9188],[28.8514,-31.0533,807.7627],[28.8559,-31.0483,797.3114],[28.8579,-31.0432,821.2217],[28.8611,-31.0415,803.1542],[28.8673,-31.0434,820.8096],[28.8729,-31.0495,805.0497],[28.8754,-31.0493,847.8138],[28.8758,-31.0467,833.3057],[28.871,-31.0377,821.5338],[28.8722,-31.0337,820.4175],[28.8772,-31.0333,813.7852],[28.8829,-31.038,852.4125],[28.8859,-31.0385,860.3831],[28.8879,-31.0368,839.2902],[28.8785,-31.0243,826.0825],[28.8759,-31.0172,845.51],[28.8702,-31.0126,835.327],[28.8744,-31.0031,838.8356],[28.8696,-30.9986,841.8688],[28.8691,-30.9903,841.8619],[28.8611,-30.9903,847.4641],[28.8483,-30.9697,922.5208],[28.8484,-30.9664,912.5464],[28.8504,-30.9647,868.4771],[28.8553,-30.9652,863.4222],[28.861,-30.9685,868.3436],[28.8676,-30.968,931.9188],[28.8688,-30.9644,902.0928],[28.8635,-30.9622,874.8797],[28.8678,-30.9532,942.6667],[28.8671,-30.9499,953.1292],[28.8631,-30.9471,911.402],[28.8537,-30.947,905.8143],[28.8464,-30.9419,911.8756],[28.8348,-30.9422,923.0167],[28.835,-30.947,944.0638],[28.8278,-30.9485,949.5282],[28.829,-30.9558,941.7116],[28.8334,-30.9629,971.9393],[28.8315,-30.9647,967.2152],[28.8278,-30.9629,947.5886],[28.823,-30.9545,992.1603],[28.8106,-30.9556,967.9183],[28.8072,-30.9494,979.1182],[28.8135,-30.9452,982.8869],[28.8129,-30.938,998.1102],[28.8175,-30.9339,984.5682],[28.8205,-30.9246,990.5245],[28.8104,-30.9203,994.5644],[28.8127,-30.9137,997.6447],[28.8013,-30.9117,1001.3189],[28.8022,-30.9059,1007.7479],[28.7962,-30.907,1002.2822],[28.7918,-30.904,999.0959],[28.7929,-30.8994,1005.1534],[28.7904,-30.8955,999.9117],[28.7981,-30.8942,1012.1428],[28.8006,-30.8956,1008.4994],[28.8025,-30.894,1005.9619],[28.7969,-30.89,1026.5579],[28.7935,-30.8835,1009.7965],[28.7868,-30.8811,1029.8496],[28.7817,-30.8837,1013.9274],[28.7751,-30.8836,1015.6867],[28.7698,-30.8803,1020.0497],[28.7652,-30.8827,1021.7839],[28.7649,-30.8891,1019.2219],[28.7583,-30.8898,1032.2036],[28.7591,-30.8841,1017.8491],[28.7616,-30.8804,1022.3706],[28.7583,-30.8733,1017.7328],[28.7565,-30.8636,1034.5234],[28.753,-30.8619,1026.2007],[28.7474,-30.8629,1049.5471],[28.7408,-30.8699,1049.1376],[28.7411,-30.8635,1027.9369],[28.7374,-30.8565,1036.7626],[28.7355,-30.8548,1038.5557],[28.728,-30.8551,1045.0386],[28.7264,-30.8537,1053.9707],[28.7293,-30.8431,1061.8755],[28.7209,-30.8423,1041.8127],[28.7147,-30.8378,1044.6613],[28.7046,-30.8354,1044.5028],[28.6918,-30.8298,1051.0291],[28.6904,-30.837,1056.896],[28.6871,-30.8372,1049.3247],[28.6869,-30.84,1067.9551],[28.6946,-30.8591,1390.4711],[28.693,-30.8675,1696.7461],[28.6733,-30.8673,1659.7754],[28.648,-30.8802,1677.4708],[28.65,-30.9076,1550.7173],[28.6528,-30.9151,1621.2756],[28.6572,-30.9171,1628.2916],[28.6624,-30.9263,1520.4634],[28.6594,-30.9247,1528.5018],[28.6559,-30.9278,1462.4622],[28.6558,-30.9257,1484.8729],[28.6576,-30.9246,1510.8317],[28.6386,-30.9209,1751.3306],[28.5917,-30.9311,1633.2322],[28.5817,-30.9305,1587.7756],[28.5771,-30.9349,1564.4443],[28.5801,-30.9397,1607.4321],[28.577,-30.9437,1611.2515],[28.5772,-30.95,1631.1914],[28.5755,-30.9518,1638.1658],[28.5804,-30.9623,1632.516],[28.5873,-30.9668,1547.7484],[28.5834,-30.9739,1465.4413],[28.5772,-30.9929,1466.4509],[28.5747,-30.9959,1464.8368],[28.5714,-30.994,1460.0531],[28.568,-30.9972,1481.3219],[28.5534,-30.9922,1550.5049],[28.5502,-30.9952,1528.6782],[28.5483,-31.0002,1533.1265],[28.5497,-31.0044,1501.4199],[28.5486,-31.01,1447.9573],[28.5505,-31.0133,1427.9165],[28.5604,-31.0158,1426.3478],[28.5552,-31.0174,1399.1235],[28.5515,-31.0218,1472.126],[28.5499,-31.0204,1451.4617],[28.5478,-31.0251,1512.8615],[28.5423,-31.0307,1492.3046],[28.5417,-31.036,1502.8862],[28.5307,-31.0415,1525.0964],[28.5253,-31.0488,1537.7887],[28.5373,-31.0533,1530.8805],[28.538,-31.0552,1531.7444],[28.5305,-31.0544,1521.5852],[28.5203,-31.0502,1514.8743],[28.5205,-31.0486,1524.1663],[28.5053,-31.0494,1448.6938],[28.4937,-31.0314,1054.488],[28.4907,-31.0399,1018.0461],[28.4925,-31.0417,1013.3913],[28.496,-31.0578,989.7816],[28.5092,-31.062,993.1512],[28.5187,-31.07,960.3859],[28.5204,-31.0774,956.2431],[28.5142,-31.0814,946.4706],[28.513,-31.084,971.3326],[28.5211,-31.0863,943.4039],[28.5208,-31.0973,938.1195],[28.5233,-31.1021,939.1738],[28.5162,-31.1048,931.0162],[28.514,-31.1088,930.6273],[28.5184,-31.1125,931.5864],[28.5248,-31.1101,931.4395],[28.5252,-31.1078,960.8254],[28.5361,-31.1064,946.9312],[28.5386,-31.1023,934.5992],[28.5357,-31.0937,935.9219],[28.5396,-31.0904,936.5963],[28.5518,-31.0904,928.6608],[28.554,-31.0868,928.3246],[28.5601,-31.0846,929.4347],[28.5635,-31.0924,929.001],[28.5628,-31.1007,928.5994],[28.5602,-31.1031,931.2283],[28.5612,-31.1046,931.3204],[28.5681,-31.1031,925.9982],[28.5782,-31.1058,923.599],[28.5804,-31.1029,929.4586],[28.5766,-31.1028,923.1979],[28.5738,-31.1008,922.8684],[28.5736,-31.0986,922.465],[28.5762,-31.098,923.63],[28.5851,-31.102,924.8285],[28.5866,-31.1063,930.4922],[28.5921,-31.1066,919.879],[28.595,-31.0989,920.954],[28.5943,-31.0969,921.8417],[28.5959,-31.0951,917.948],[28.599,-31.096,915.2157],[28.6003,-31.0949,920.7504],[28.5997,-31.0901,913.4861],[28.6016,-31.0882,912.4389],[28.6084,-31.0912,921.3063],[28.6116,-31.0968,923.177],[28.6103,-31.1007,914.1874],[28.6065,-31.0998,910.4453],[28.6083,-31.1028,915.0685],[28.6139,-31.104,910.7363],[28.6181,-31.1024,916.1569],[28.6236,-31.0975,922.5972],[28.6356,-31.1045,909.8959],[28.6421,-31.0994,913.1678],[28.6505,-31.1064,910.4085],[28.6545,-31.106,901.7512],[28.652,-31.1122,898.3817],[28.6536,-31.1138,906.8253],[28.6672,-31.1171,895.094],[28.6706,-31.12,895.3523],[28.6728,-31.1164,895.493],[28.6773,-31.1146,892.9518],[28.6816,-31.1185,892.9462],[28.6952,-31.1205,879.0237],[28.6981,-31.1281,878.1554],[28.6929,-31.1334,877.5631],[28.6905,-31.1341,876.9813],[28.6884,-31.1313,878.7484],[28.68,-31.1316,878.4918],[28.6755,-31.135,877.7555],[28.6746,-31.147,889.4689],[28.6711,-31.1519,884.1483],[28.6711,-31.1632,876.7919],[28.6661,-31.1667,876.0101],[28.6681,-31.1698,884.5953],[28.6769,-31.1681,874.8213],[28.676,-31.1646,875.4905],[28.6776,-31.1633,873.8195],[28.6872,-31.165,870.6666],[28.6826,-31.1736,870.6957],[28.6823,-31.1793,869.8178],[28.6893,-31.1853,869.3874],[28.6935,-31.1915,869.995],[28.6922,-31.1937,872.5245],[28.6934,-31.1966,871.3655],[28.6812,-31.2005,872.3953],[28.6787,-31.1997,878.4537],[28.6727,-31.1852,873.0026],[28.6708,-31.1845,875.613],[28.6535,-31.1945,876.6583],[28.6552,-31.2013,880.4891],[28.6467,-31.209,876.9557],[28.635,-31.214,875.6868],[28.6301,-31.2211,883.0503],[28.6222,-31.2211,904.319],[28.6234,-31.2243,880.7821],[28.6276,-31.2274,879.1503],[28.6234,-31.2303,881.4741],[28.6225,-31.2352,892.8137],[28.6204,-31.2369,879.3599],[28.6128,-31.2291,899.9714],[28.6089,-31.2335,883.3176],[28.6095,-31.2373,885.9484],[28.5977,-31.2394,895.2964],[28.588,-31.2365,902.0037],[28.5831,-31.2319,896.6077],[28.5826,-31.2409,897.3383],[28.5765,-31.2404,900.1115],[28.5729,-31.2417,902.8788],[28.5708,-31.2408,902.4807],[28.5711,-31.236,926.1849],[28.569,-31.2342,950.0937],[28.5606,-31.2315,905.0469],[28.5552,-31.2318,909.1269],[28.5606,-31.2356,956.3469],[28.5601,-31.2388,908.911],[28.5536,-31.2396,918.6146],[28.5481,-31.2354,918.6788],[28.5427,-31.2373,916.5779],[28.5437,-31.2413,918.6292],[28.5401,-31.2454,916.5568],[28.5379,-31.246,917.6839],[28.535,-31.2435,920.442],[28.5318,-31.2433,923.1977],[28.5305,-31.2447,920.6239],[28.5311,-31.2475,922.976],[28.5292,-31.2488,928.7844],[28.5276,-31.2456,929.9576],[28.5203,-31.2431,928.225],[28.5141,-31.2437,928.7677],[28.5137,-31.2486,933.9669],[28.5107,-31.2504,931.9985],[28.4955,-31.2508,941.5974],[28.4956,-31.2542,935.0869],[28.4862,-31.2659,942.4369],[28.479,-31.2673,944.4924],[28.4799,-31.2716,947.1416],[28.4762,-31.2717,948.6449],[28.4768,-31.2703,949.1082],[28.4739,-31.2699,949.7587],[28.4725,-31.2746,965.5966],[28.4653,-31.2804,961.4477],[28.4649,-31.2872,974.7472],[28.4678,-31.2908,983.9744],[28.466,-31.2988,997.6312],[28.4605,-31.3027,998.6196],[28.4548,-31.3017,1003.2494],[28.4519,-31.3035,1009.0408],[28.456,-31.3068,1021.0094],[28.4597,-31.3167,1120.9951],[28.4704,-31.3236,1193.2855],[28.4875,-31.3269,1428.0732],[28.4951,-31.3263,1416.3536],[28.4993,-31.3326,1446.6975],[28.4998,-31.3371,1363.121],[28.4991,-31.3485,1462.3325],[28.4965,-31.3494,1447.059],[28.4938,-31.3601,1407.1074],[28.4906,-31.3668,1422.7266],[28.4857,-31.3686,1329.641],[28.4839,-31.3743,1393.9487],[28.4727,-31.3772,1622.162],[28.4651,-31.3811,1507.1182],[28.4628,-31.383,1539.5007],[28.4645,-31.3857,1653.3486],[28.4625,-31.3874,1672.7681],[28.4495,-31.3851,1680.4825],[28.444,-31.3865,1658.3875],[28.4431,-31.3901,1599.2279],[28.4449,-31.3969,1545.7241],[28.4357,-31.398,1522.0309],[28.4291,-31.4028,1551.0011],[28.4272,-31.4187,1575.9707],[28.4255,-31.4212,1575.7834],[28.4136,-31.4232,1531.6975],[28.4073,-31.4277,1511.7183],[28.4033,-31.4369,1519.6613],[28.3986,-31.4679,1539.8927],[28.3896,-31.4777,1527.8441],[28.3823,-31.4806,1578.2961],[28.3759,-31.4801,1571.973],[28.3732,-31.4903,1526.1984],[28.3634,-31.5022,1529.6993],[28.3733,-31.5239,1576.2314],[28.3692,-31.538,1472.9756],[28.3742,-31.5377,1608.6309],[28.3825,-31.553,1565.4185],[28.3811,-31.558,1294.3457],[28.3644,-31.5732,1017.5502],[28.3633,-31.5777,1083.3462],[28.3543,-31.5732,1047.8511],[28.351,-31.5766,1015.7205],[28.3394,-31.5786,926.8877],[28.3393,-31.5807,914.4948],[28.3369,-31.5814,907.3489],[28.3339,-31.587,893.0825],[28.3256,-31.5865,836.9017],[28.3212,-31.5903,815.9149],[28.3195,-31.5944,791.7919],[28.3204,-31.5965,771.303],[28.3181,-31.5968,759.8181],[28.3188,-31.5985,754.3923],[28.3152,-31.6033,734.8134],[28.3155,-31.6061,728.9917],[28.3105,-31.6123,695.1666],[28.3114,-31.6131,685.4514],[28.309,-31.6183,682.4092],[28.3101,-31.62,683.8699],[28.309,-31.6246,680.1557],[28.3116,-31.6264,681.9274],[28.3116,-31.6304,679.9133],[28.3179,-31.6289,687.9254],[28.3228,-31.6354,680.1757],[28.3197,-31.6387,681.3856],[28.3136,-31.6404,678.8875],[28.3169,-31.6445,679.686],[28.3129,-31.6502,678.0409],[28.302,-31.652,675.4736],[28.3109,-31.6573,677.6538],[28.3156,-31.6564,687.1108],[28.3184,-31.6534,679.6119],[28.3212,-31.6589,677.3149],[28.3186,-31.6626,676.5455],[28.3102,-31.6635,673.7958],[28.3107,-31.6703,673.9352],[28.3134,-31.6716,672.0175],[28.3045,-31.6757,676.7893],[28.3097,-31.6805,696.8917],[28.3112,-31.6882,706.2567],[28.318,-31.6892,679.5748],[28.3226,-31.6932,656.9031],[28.3255,-31.6924,651.0699],[28.3295,-31.6946,650.7109],[28.3321,-31.7015,707.7529],[28.3291,-31.707,642.0399],[28.3425,-31.7124,670.7346],[28.344,-31.7155,636.7703],[28.3404,-31.7247,672.9747],[28.3365,-31.7271,635.4888],[28.3352,-31.73,630.9507],[28.3453,-31.7353,632.3964],[28.3442,-31.7413,631.2198],[28.3452,-31.7433,637.6814],[28.3549,-31.7435,626.7066],[28.3581,-31.7466,620.2862],[28.3567,-31.7481,634.5614],[28.3413,-31.7504,616.7239],[28.3378,-31.7555,632.6293],[28.3386,-31.7597,629.9729],[28.3501,-31.7652,613.6817],[28.3503,-31.7726,606.1656],[28.3474,-31.7787,601.3873],[28.3528,-31.7816,599.1541],[28.3529,-31.7838,599.4391],[28.3358,-31.7894,582.3459],[28.3266,-31.7843,598.9549],[28.325,-31.7855,570.4923],[28.3239,-31.7915,564.8428],[28.3378,-31.8045,551.5598],[28.3511,-31.8105,545.8383],[28.3422,-31.8146,544.1869],[28.3396,-31.8198,585.9609],[28.3441,-31.8231,563.0955],[28.351,-31.8249,579.8256],[28.352,-31.8286,525.1216],[28.3567,-31.8324,528.2039],[28.361,-31.8424,525.759],[28.3648,-31.847,520.641],[28.3687,-31.8457,520.0526],[28.3669,-31.8385,536.3306],[28.3696,-31.8351,513.4223],[28.3825,-31.8357,514.3987],[28.3856,-31.8379,622.7202],[28.3865,-31.8417,532.3501],[28.3789,-31.8519,503.1431],[28.3786,-31.8552,507.1143],[28.3809,-31.858,558.6922],[28.384,-31.8597,550.7631],[28.3864,-31.8592,502.0856],[28.3925,-31.8516,498.0956],[28.4003,-31.8499,495.9419],[28.4168,-31.8607,490.0891],[28.4181,-31.8643,489.7755],[28.4169,-31.8677,490.5984],[28.4073,-31.8718,481.5634],[28.4055,-31.8758,486.0515],[28.4062,-31.8789,477.3396],[28.4143,-31.8766,476.4431],[28.422,-31.8694,487.0452],[28.4275,-31.8702,468.5755],[28.4296,-31.8785,485.7065],[28.426,-31.8884,488.9631],[28.4295,-31.892,459.4952],[28.4424,-31.8971,452.91],[28.4403,-31.9086,451.3606],[28.4445,-31.9179,449.916],[28.4601,-31.9251,463.9874],[28.464,-31.9214,481.1736],[28.4679,-31.912,448.2541],[28.4746,-31.9095,454.889],[28.478,-31.9135,444.3786],[28.4784,-31.9169,442.0173],[28.4676,-31.9248,435.5536],[28.4678,-31.9292,439.6369],[28.4718,-31.934,439.8106],[28.494,-31.9349,431.0793],[28.5041,-31.93,410.1919],[28.5148,-31.9334,412.4189],[28.5108,-31.9503,402.691],[28.5086,-31.954,397.2089],[28.5042,-31.955,412.6584],[28.4876,-31.9511,421.2738],[28.4806,-31.952,390.8318],[28.4731,-31.9571,389.1349],[28.4652,-31.9688,385.74],[28.4665,-31.9721,384.9081],[28.4713,-31.9744,384.771],[28.484,-31.9736,379.2969],[28.49,-31.9691,388.7291],[28.5131,-31.9728,376.8869],[28.5261,-31.9728,372.4698],[28.5299,-31.9706,381.1744],[28.5307,-31.9663,372.5965],[28.5218,-31.9623,367.8797],[28.5211,-31.9584,377.8484],[28.5232,-31.9557,363.8238],[28.5292,-31.9565,371.4146],[28.5317,-31.9576,368.3656],[28.5361,-31.964,373.4479],[28.5465,-31.9861,357.2313],[28.5451,-31.9883,355.8938],[28.5421,-31.9885,349.75],[28.5351,-31.9821,355.8815],[28.5241,-31.9794,385.9933],[28.5202,-31.9817,347.5457],[28.5187,-31.9867,345.5],[28.5196,-31.99,346.308],[28.5244,-31.9939,339.4179],[28.5307,-31.9955,343.7587],[28.5458,-31.9938,332.6058],[28.5511,-31.9892,334.4793],[28.5547,-31.9802,334.8947],[28.558,-31.9792,348.7814],[28.5684,-31.9853,337.4137],[28.5795,-31.9988,328.8632],[28.5837,-32.0008,311.5035],[28.5882,-32.0005,309.413],[28.5914,-31.997,323.4229],[28.5911,-31.9895,303.87],[28.5789,-31.9718,293.5199],[28.5819,-31.9679,311.8665],[28.5874,-31.9676,301.1387],[28.5986,-31.9723,285.9993],[28.6126,-31.9852,287.017],[28.6129,-31.9887,295.9536],[28.6105,-31.993,283.664],[28.6018,-31.9927,277.6098],[28.6015,-31.9961,288.5288],[28.6037,-31.9984,273.5444],[28.6082,-31.9994,267.8452],[28.6214,-31.9931,271.1943],[28.626,-31.9948,274.4005],[28.6279,-31.9981,274.8796],[28.6275,-32.0027,263.9898],[28.6234,-32.0048,256.0444],[28.6088,-32.0015,252.2155],[28.6029,-32.0027,310.5175],[28.5987,-32.0071,250.3307],[28.5999,-32.012,248.2043],[28.6139,-32.0196,270.2031],[28.6199,-32.0202,245.7474],[28.6313,-32.0182,231.5417],[28.6437,-32.0244,228.4295],[28.6477,-32.0188,282.714],[28.6526,-32.0172,304.1237],[28.6534,-32.0148,315.1043],[28.6626,-32.0092,391.3973],[28.6672,-32.0036,459.7422],[28.6763,-32.0009,590.8692],[28.6785,-31.9982,638.0131],[28.6713,-31.9949,654.726],[28.6646,-31.9955,637.9545],[28.6621,-31.9986,631.8937],[28.662,-31.9965,615.7214],[28.6577,-31.9937,584.0986],[28.6575,-31.9921,585.2948],[28.6637,-31.9883,607.4209],[28.6688,-31.9873,633.8906],[28.6777,-31.9793,571.436],[28.6775,-31.9781,571.436],[28.6629,-31.9787,663.6057],[28.661,-31.9701,728.9977],[28.663,-31.965699999999998,741.7156],[28.6679,-31.961,663.4628],[28.6799,-31.9562,587.2225],[28.6854,-31.957,582.2748],[28.6897,-31.9599,576.9266],[28.6984,-31.9591,624.8374],[28.7006,-31.9616,674.7329],[28.6951,-31.9644,657.827],[28.6972,-31.9676,607.7178],[28.6979,-31.9754,570.5601],[28.6923,-31.9863,625.0613],[28.7024,-31.9814,610.4789],[28.7057,-31.9839,578.423],[28.7063,-31.9865,567.9205],[28.7049,-31.9901,585.1753],[28.701,-31.9936,626.639],[28.6945,-31.9951,646.9714],[28.7091,-31.9973,633.9952],[28.7097,-32.0047,600.7318],[28.7128,-32.0077,574.9803],[28.7175,-32.0063,618.3494],[28.7188,-32.0092,614.3912],[28.7244,-32.0111,592.7042],[28.7292,-32.0114,581.9311],[28.7339,-32.009,543.7032],[28.7375,-32.0167,474.3949],[28.7458,-32.0205,483.4083],[28.7449,-32.0306,562.5557],[28.7497,-32.0355,574.5522],[28.7546,-32.0362,576.231],[28.7613,-32.0424,563.66],[28.7735,-32.0425,563.0879],[28.7822,-32.046,523.4244],[28.7901,-32.0434,508.7714],[28.7879,-32.0401,434.5183],[28.7881,-32.0355,413.5789],[28.791,-32.0324,382.0608],[28.7933,-32.0322,395.9586],[28.7927,-32.0309,395.7857],[28.7945,-32.0295,356.5591],[28.7934,-32.0284,356.5591],[28.7945,-32.0272,347.3094],[28.7968,-32.0278,345.733],[28.8015,-32.02,342.4623],[28.7975,-32.0192,336.5468],[28.7946,-32.016,352.3909],[28.7865,-32.0141,324.306],[28.7863,-32.0119,335.2402],[28.7899,-32.0102,322.9412],[28.7987,-32.0113,315.7026],[28.8014,-32.0143,312.8067],[28.8038,-32.0126,316.2415],[28.8052,-32.0148,318.4659],[28.8073,-32.015,308.2626],[28.8086,-32.0135,320.4625],[28.803,-32.0032,340.9753],[28.8074,-31.9991,326.9706],[28.8088,-31.9996,310.0781],[28.8101,-32.0048,335.5284],[28.8149,-32.0012,320.8544],[28.8201,-32.006,288.3519],[28.8207,-32.0024,292.0544],[28.8246,-32.0002,311.0947],[28.8272,-32.0105,280.1596],[28.8284,-32.0108,305.2136],[28.8277,-32.0039,291.4203],[28.8302,-31.9973,270.5946],[28.8381,-32.0018,267.5048],[28.8408,-32.0015,336.1389],[28.8395,-31.9975,258.7408],[28.8281,-31.9953,269.1435],[28.8335,-31.9931,290.4296],[28.8337,-31.9865,278.024],[28.839,-31.9848,275.2501],[28.8373,-31.9882,295.9157],[28.8402,-31.9898,314.2519],[28.8432,-31.9879,288.413],[28.8425,-31.9831,287.3536],[28.8489,-31.986,287.1992],[28.8514,-31.9851,291.6261],[28.8541,-31.9822,289.7939],[28.8479,-31.9806,324.358],[28.8477,-31.9767,325.5551],[28.8542,-31.9762,297.5165],[28.8556,-31.9704,304.0011],[28.8608,-31.9659,425.7242],[28.8633,-31.9656,480.7498],[28.8665,-31.9606,382.4247],[28.8738,-31.9624,397.9353],[28.8766,-31.9659,382.9536],[28.8811,-31.9661,391.6512],[28.8853,-31.9626,420.7334],[28.8856,-31.957,443.0458],[28.8874,-31.9536,435.5331],[28.9011,-31.9514,429.0856],[28.9043,-31.9516,405.4151],[28.9057,-31.9534,389.2715],[28.9098,-31.9531,370.1431],[28.9128,-31.9505,373.7695],[28.9175,-31.9518,359.27],[28.9193,-31.9474,358.255],[28.9248,-31.944,336.1963],[28.9264,-31.9479,313.9477],[28.9295,-31.9478,296.4714],[28.9299,-31.9498,334.2369],[28.9328,-31.9478,280.7985],[28.9352,-31.952,277.4853],[28.9413,-31.9524,313.7271],[28.9405,-31.9569,259.7592],[28.9423,-31.9601,272.0534],[28.948,-31.9586,245.3571],[28.9507,-31.9605,240.5685],[28.9496,-31.9651,256.6076],[28.9559,-31.9648,243.5009],[28.9578,-31.9709,215.56],[28.9598,-31.9722,219.2218],[28.9595,-31.9795,218.9705],[28.9638,-31.9784,240.012],[28.969,-31.9889,181.1751],[28.9739,-31.9859,226.6466],[28.9812,-31.9845,336.0145],[28.9817,-31.987,374.5356],[28.9857,-31.9906,345.2666],[28.9904,-31.9901,360.985],[28.993,-31.9954,312.9199],[28.9968,-31.9965,290.7969],[28.9992,-32.0002,283.1786],[29.0022,-32.0006,288.7516],[29.0108,-32.0071,299.0131],[29.0147,-32.0153,334.6012],[29.0199,-32.0142,319.9052],[29.0253,-32.0154,276.023],[29.0253,-32.0174,227.5528],[29.0305,-32.0214,203.9488],[29.033,-32.0295,211.9487],[29.0396,-32.0342,226.356],[29.0383,-32.0385,208.8396]]],
[[[28.6766,-31.9804,584.1115],[28.6767,-31.9805,584.1115],[28.6767,-31.9804,584.1115],[28.6766,-31.9804,584.1115],[28.6766,-31.9804,584.1115]]],
[[[29.9693,-31.3262,0.0],[29.9671,-31.3251,0.0],[29.9674,-31.3299,0.0],[29.9685,-31.3293,0.0],[29.9693,-31.3262,0.0]]]]}
,"properties": {"GID_2": "ZAF.1.8_1","GID_0": "ZAF","country": "SouthAfrica","GID_1": "ZAF.1_1","province": "EasternCape","NL_NAME_1": "NA","county": "O.R.Tambo","VARNAME_2": "NA","NL_NAME_2": "NA","TYPE_2": "DistrictMunicipality","ENGTYPE_2": "DistrictMunicipality","CC_2": "DC15","HASC_2": "ZA.EC.TA","name": "O.R.Tambo.county","area_km2": 12092.742,"hist_schema_id": "Elevation0-9000","hist_area_km2": {"0": 65.619,"25": 79.841,"50": 98.078,"75": 126.857,"100": 149.648,"125": 160.535,"150": 168.269,"175": 173.124,"200": 184.229,"225": 178.05,"250": 178.268,"275": 175.71,"300": 181.469,"325": 177.641,"350": 173.979,"375": 178.533,"400": 179.781,"425": 198.484,"450": 231.958,"475": 251.941,"500": 269.893,"525": 267.901,"550": 288.035,"575": 287.308,"600": 291.741,"625": 283.249,"650": 291.252,"675": 306.754,"700": 375.991,"725": 413.358,"750": 470.778,"775": 485.177,"800": 472.403,"825": 449.611,"850": 412.952,"875": 392.555,"900": 364.861,"925": 332.433,"950": 313.741,"975": 287.98,"1000": 255.119,"1025": 220.055,"1050": 182.339,"1075": 150.928,"1100": 118.583,"1125": 90.857,"1150": 69.601,"1175": 56.617,"1200": 49.619,"1225": 50.905,"1250": 46.447,"1275": 44.981,"1300": 40.025,"1325": 32.988,"1350": 30.693,"1375": 26.079,"1400": 28.548,"1425": 27.971,"1450": 28.486,"1475": 32.238,"1500": 35.721,"1525": 31.259,"1550": 21.877,"1575": 13.41,"1600": 10.763,"1625": 10.073,"1650": 9.021,"1675": 4.962,"1700": 1.956,"1725": 0.58}}}