{"type": "Feature","bbox": [29.5713,-30.8281,30.1725,-30.4674],"geometry": {"type": "MultiPolygon","coordinates": [[[[29.965,-30.8253,366.327],[29.9612,-30.8232,354.141],[29.9642,-30.8253,366.327],[29.9697,-30.8277,386.3846],[29.9828,-30.8281,577.4365],[29.9895,-30.8071,667.9343],[30.0107,-30.7647,716.7838],[30.021,-30.7383,737.4644],[30.008,-30.7327,709.0103],[30.0184,-30.7131,671.5936],[30.0312,-30.719,592.52],[30.0363,-30.7194,584.259],[30.0352,-30.7303,713.1001],[30.0509,-30.7204,658.2792],[30.0458,-30.7057,568.8192],[30.0593,-30.7072,607.631],[30.0685,-30.7061,516.6683],[30.0741,-30.6995,502.2324],[30.0821,-30.6967,533.4171],[30.0674,-30.6766,584.1093],[30.0835,-30.6655,672.1266],[30.0798,-30.6553,708.0448],[30.0631,-30.6651,681.67],[30.0367,-30.6714,654.2993],[30.0225,-30.6537,717.6127],[30.0199,-30.6461,725.1963],[30.0296,-30.6406,720.3027],[30.0391,-30.6445,708.0578],[30.0493,-30.6413,723.408],[30.0632,-30.6445,708.2518],[30.0667,-30.6385,652.7351],[30.0731,-30.6501,671.5652],[30.0814,-30.6444,636.5325],[30.092,-30.6422,605.3935],[30.1361,-30.6249,168.6711],[30.1388,-30.618,202.0232],[30.1489,-30.6079,187.9081],[30.1568,-30.6075,179.6539],[30.157,-30.602,205.2153],[30.1617,-30.5881,177.1476],[30.1725,-30.5817,183.758],[30.1698,-30.5789,185.03],[30.1585,-30.5762,183.7745],[30.1571,-30.5634,238.2975],[30.1617,-30.5543,199.3481],[30.1608,-30.549,199.353],[30.1543,-30.5483,195.8637],[30.1449,-30.5528,222.5779],[30.1422,-30.5595,198.0233],[30.1376,-30.565,204.8718],[30.1341,-30.5653,204.9368],[30.1228,-30.5617,204.7845],[30.1149,-30.5571,206.8203],[30.1091,-30.547,210.9847],[30.1024,-30.5415,219.3343],[30.0945,-30.5425,229.328],[30.0885,-30.5477,220.7287],[30.0841,-30.5464,228.7502],[30.0791,-30.5422,259.7694],[30.0787,-30.5344,235.6678],[30.0899,-30.5271,231.1601],[30.0962,-30.5256,240.2448],[30.0996,-30.5193,247.7336],[30.0997,-30.5161,257.2842],[30.0932,-30.5113,260.4308],[30.0754,-30.5112,260.0293],[30.0712,-30.5058,267.0722],[30.0718,-30.5034,260.8906],[30.0779,-30.5,303.3313],[30.0849,-30.4929,292.5154],[30.0937,-30.4886,271.4776],[30.1047,-30.4922,277.2178],[30.1128,-30.4924,282.4363],[30.1145,-30.4896,291.5095],[30.1132,-30.4858,290.9031],[30.1078,-30.4838,284.6465],[30.0973,-30.4853,297.8886],[30.089,-30.4846,326.9065],[30.0834,-30.4824,299.4176],[30.0781,-30.4835,298.7428],[30.0676,-30.4904,304.2678],[30.056,-30.4931,318.3808],[30.0519,-30.4992,320.6773],[30.0457,-30.5001,322.0358],[30.0456,-30.5117,324.6371],[30.0426,-30.5136,329.3365],[30.0363,-30.5049,330.2532],[30.036,-30.5021,344.1899],[30.0385,-30.496,335.8868],[30.0426,-30.4926,350.5394],[30.0461,-30.4831,338.4547],[30.0522,-30.4788,346.3689],[30.057,-30.4674,360.7909],[30.023,-30.4717,792.5411],[30.0088,-30.4829,769.5039],[30.0016,-30.4937,764.3828],[30.0012,-30.5065,818.2491],[30.0028,-30.5117,844.9583],[29.9968,-30.5142,865.1111],[30.0011,-30.5225,801.7891],[29.9894,-30.5286,851.3048],[29.9966,-30.5361,862.459],[29.9932,-30.5428,882.9178],[29.9767,-30.5542,881.8831],[29.9678,-30.5511,923.3878],[29.9644,-30.5592,923.7048],[29.9542,-30.5658,923.0305],[29.9561,-30.5832,978.7175],[29.9535,-30.586,1008.5269],[29.9486,-30.5842,994.1071],[29.9207,-30.5495,859.7552],[29.8938,-30.5607,889.2385],[29.8712,-30.557,954.5467],[29.8575,-30.5587,998.745],[29.855,-30.5448,1026.6252],[29.8348,-30.5428,1071.8882],[29.8198,-30.532,1116.7798],[29.8133,-30.5351,1143.2385],[29.7953,-30.5187,1196.0895],[29.7877,-30.5179,1206.3936],[29.7822,-30.5105,1173.8417],[29.7636,-30.5113,1154.7415],[29.7512,-30.516,1146.2117],[29.7396,-30.5182,1172.5746],[29.7287,-30.5175,1180.823],[29.7245,-30.5127,1200.2482],[29.7109,-30.5161,1403.9448],[29.7042,-30.5225,1459.8733],[29.695,-30.5194,1556.078],[29.6697,-30.5196,1468.0522],[29.6527,-30.5231,1461.6829],[29.6457,-30.5272,1516.0393],[29.6477,-30.5494,1809.9282],[29.6407,-30.562,1911.9216],[29.5863,-30.6171,2244.6033],[29.5713,-30.6577,2109.5569],[29.5807,-30.6542,1620.572],[29.5929,-30.6646,1351.9696],[29.5958,-30.6859,1121.7174],[29.5978,-30.6881,1087.1892],[29.6011,-30.6895,1088.1265],[29.6143,-30.6867,1022.8585],[29.6185,-30.6887,1006.6367],[29.6258,-30.6876,1007.398],[29.6316,-30.6843,1007.24],[29.6352,-30.684,1001.5188],[29.6365,-30.6859,979.8842],[29.6369,-30.6839,979.6123],[29.6386,-30.6837,979.6123],[29.6487,-30.6838,937.67],[29.6515,-30.6858,920.7637],[29.6572,-30.6806,945.7415],[29.6671,-30.6763,921.7865],[29.6719,-30.6714,896.678],[29.6714,-30.67,884.2315],[29.6737,-30.6692,896.9237],[29.6766,-30.6715,882.4323],[29.6763,-30.6737,868.9133],[29.6868,-30.6795,842.6391],[29.6865,-30.6819,857.4432],[29.6831,-30.6835,836.9796],[29.6835,-30.6854,843.8051],[29.6874,-30.6883,859.8699],[29.6917,-30.6862,840.1818],[29.6936,-30.6875,851.6232],[29.6943,-30.6958,800.1991],[29.6965,-30.6967,797.2305],[29.7008,-30.7053,787.5081],[29.7048,-30.703,784.0203],[29.7079,-30.7048,781.998],[29.7153,-30.7043,788.6776],[29.7208,-30.7084,782.8552],[29.7336,-30.7074,786.6799],[29.735,-30.7091,758.1056],[29.7296,-30.7159,750.7941],[29.7344,-30.7196,794.7413],[29.7389,-30.7176,755.5935],[29.7407,-30.7187,746.1918],[29.741,-30.72,741.9097],[29.7389,-30.7215,744.0225],[29.7407,-30.7234,759.5794],[29.7497,-30.7195,735.3202],[29.7507,-30.7164,726.9865],[29.7494,-30.7126,743.4031],[29.7525,-30.707,719.3224],[29.7553,-30.7106,725.8109],[29.7566,-30.7178,702.6763],[29.7591,-30.7192,706.45],[29.7707,-30.7185,746.0157],[29.7716,-30.7162,692.2914],[29.7685,-30.7128,689.6836],[29.7719,-30.7121,695.9227],[29.7722,-30.7054,695.7764],[29.7861,-30.7101,705.5025],[29.779,-30.7012,676.6105],[29.7777,-30.6974,690.6755],[29.7805,-30.6954,680.1213],[29.7856,-30.6962,680.4866],[29.7857,-30.6988,675.8953],[29.7963,-30.7044,662.8273],[29.8003,-30.7089,654.1971],[29.8058,-30.7035,652.6276],[29.8044,-30.7007,680.2412],[29.8108,-30.6985,653.4218],[29.8152,-30.7012,686.4265],[29.8154,-30.704,654.6068],[29.8146,-30.7067,702.0699],[29.8067,-30.7143,642.3207],[29.8041,-30.7149,652.9857],[29.8043,-30.7224,645.3987],[29.8068,-30.7281,633.8458],[29.8089,-30.7304,633.4412],[29.8142,-30.7315,689.7443],[29.8187,-30.7236,633.8336],[29.8251,-30.7206,649.4024],[29.8275,-30.7231,631.3827],[29.8242,-30.7283,628.3715],[29.8246,-30.7346,633.9705],[29.831,-30.7349,619.785],[29.8337,-30.7381,613.7903],[29.8296,-30.7408,608.5992],[29.8298,-30.7439,604.1234],[29.8334,-30.7426,601.9329],[29.8421,-30.7439,596.5561],[29.8448,-30.7368,582.3148],[29.8477,-30.7365,584.9762],[29.8518,-30.7488,565.5241],[29.8515,-30.7524,584.2406],[29.8477,-30.758,604.2822],[29.8496,-30.7608,553.4933],[29.8524,-30.7617,589.213],[29.8594,-30.7565,545.5387],[29.8638,-30.7575,546.3262],[29.8716,-30.7548,530.5762],[29.8732,-30.7586,540.9959],[29.8766,-30.7582,525.0531],[29.882,-30.7621,521.4374],[29.8863,-30.7591,532.2895],[29.8925,-30.7588,517.7227],[29.8965,-30.7675,511.0345],[29.8952,-30.7696,547.0374],[29.8884,-30.7704,498.5456],[29.886,-30.7726,493.4638],[29.8857,-30.7834,476.9548],[29.8869,-30.7847,499.9804],[29.8969,-30.7743,485.2969],[29.9041,-30.7754,467.194],[29.9118,-30.7699,456.1517],[29.9149,-30.7712,508.7915],[29.916,-30.7745,447.9673],[29.9098,-30.7807,500.054],[29.9097,-30.7846,445.3856],[29.9063,-30.792,442.3627],[29.908,-30.7982,482.2212],[29.9219,-30.7896,424.3316],[29.9252,-30.7936,430.3604],[29.9275,-30.794,422.3588],[29.9293,-30.792,494.926],[29.9295,-30.7807,443.4401],[29.9266,-30.775,424.2531],[29.9216,-30.7708,407.6556],[29.922,-30.7689,426.1576],[29.9332,-30.7683,406.0622],[29.9489,-30.7705,421.9175],[29.9513,-30.7744,392.4521],[29.9502,-30.7811,393.66],[29.9556,-30.789,493.4682],[29.9536,-30.7906,388.5841],[29.9481,-30.7902,389.2821],[29.9406,-30.7921,401.1044],[29.9332,-30.8008,385.7319],[29.9323,-30.8072,386.2078],[29.9376,-30.8094,405.9092],[29.945,-30.8099,385.4972],[29.9658,-30.8082,380.2965],[29.9685,-30.8064,361.5237],[29.9685,-30.8037,361.9737],[29.9724,-30.8022,373.3564],[29.9743,-30.8062,419.6024],[29.9675,-30.81,382.5127],[29.9665,-30.817,351.5258],[29.9702,-30.8184,353.0681],[29.9702,-30.8202,363.6638],[29.9678,-30.8251,372.568],[29.965,-30.8253,366.327]]]]}
,"properties": {"GID_3": "ZAF.4.5.4_1","GID_0": "ZAF","country": "SouthAfrica","GID_1": "ZAF.4_1","province": "KwaZulu-Natal","NL_NAME_1": "NA","GID_2": "ZAF.4.5_1","county": "Ugu","NL_NAME_2": "NA","city": "UMuziwabantu","VARNAME_3": "NA","NL_NAME_3": "NA","TYPE_3": "LocalMunicipality","ENGTYPE_3": "LocalMunicipality","CC_3": "KZN214","HASC_3": "NA","name": "U_Muziwabantu.city","area_km2": 1089.7723,"hist_schema_id": "Elevation0-9000","hist_area_km2": {"175": 1.2774,"200": 2.9934,"225": 3.8151,"250": 4.1984,"275": 4.3816,"300": 4.2539,"325": 4.5827,"350": 6.0059,"375": 7.9551,"400": 9.9803,"425": 12.2419,"450": 13.3362,"475": 12.2782,"500": 14.6668,"525": 18.7144,"550": 23.3627,"575": 25.1685,"600": 27.3573,"625": 30.3292,"650": 33.4292,"675": 37.8061,"700": 45.6852,"725": 49.6442,"750": 49.7368,"775": 49.0454,"800": 46.1291,"825": 45.8606,"850": 45.0805,"875": 39.2054,"900": 30.8668,"925": 33.1487,"950": 30.6699,"975": 33.0462,"1000": 29.4163,"1025": 28.341,"1050": 23.5232,"1075": 20.0929,"1100": 19.1638,"1125": 18.9637,"1150": 19.366,"1175": 18.3631,"1200": 14.1462,"1225": 10.039,"1250": 8.4506,"1275": 6.6435,"1300": 6.2782,"1325": 6.0041,"1350": 6.132,"1375": 6.6064,"1400": 5.6026,"1425": 5.2744,"1450": 4.9091,"1475": 3.7959,"1500": 2.5186,"1525": 2.1716,"1550": 2.2626,"1575": 2.4267,"1600": 2.5178,"1625": 1.7152,"1650": 1.2773,"1675": 1.2773,"1700": 0.9489,"1725": 1.0766,"1750": 1.3138,"1775": 1.6424,"1800": 1.7152,"1825": 1.3868,"1850": 0.9124,"1875": 1.1679,"1900": 1.0584,"1925": 1.2043,"1950": 0.8211,"1975": 0.894,"2000": 0.7846,"2025": 0.3649,"2050": 0.3832,"2075": 0.1642,"2100": 0.073,"2125": 0.146,"2150": 0.073,"2175": 0.0365,"2225": 0.0182,"2250": 0.0365,"2275": 0.0182}}}