{"type":"Feature","properties":{"GID_3":"ZAF.5.3.3_1","GID_0":"ZAF","country":"SouthAfrica","GID_1":"ZAF.5_1","province":"Limpopo","NL_NAME_1":"NA","GID_2":"ZAF.5.3_1","county":"Sekhukhune","NL_NAME_2":"NA","city":"Fetakgomo","VARNAME_3":"NA","NL_NAME_3":"NA","TYPE_3":"LocalMunicipality","ENGTYPE_3":"LocalMunicipality","CC_3":"LIM474","HASC_3":"NA","name":"Fetakgomo.city"},
"geometry":{"type": "MultiPolygon","coordinates": [[[[29.8624,-24.5962,982.0743],[29.861,-24.596,982.0743],[29.9017,-24.5946,1229.5817],[29.909,-24.6038,1114.3901],[29.9131,-24.6046,1168.6915],[29.9178,-24.6089,1194.4248],[29.9208,-24.6184,1091.3717],[29.924,-24.6211,1079.4934],[29.9292,-24.6203,1079.1174],[29.9319,-24.6106,1123.8574],[29.9339,-24.6112,1123.6765],[29.9433,-24.624,1063.2977],[29.9452,-24.6194,1075.7467],[29.9459,-24.6206,1077.0935],[29.9538,-24.6103,1103.1492],[29.9619,-24.6078,1125.4775],[29.9622,-24.6039,1153.8926],[29.9695,-24.6005,1162.0513],[29.972,-24.5912,1216.6721],[29.9733,-24.5933,1193.0156],[29.976,-24.5917,1214.9055],[29.9797,-24.5857,1292.7849],[29.9903,-24.5808,1366.6643],[29.9793,-24.567,1387.3759],[29.9866,-24.5349,1167.7701],[29.9607,-24.5204,1215.9098],[29.9679,-24.5007,1228.405],[29.951,-24.4822,1183.8734],[29.9795,-24.4433,1515.7112],[29.9704,-24.4043,1375.3212],[30.0211,-24.3798,1360.9757],[30.0616,-24.3353,1044.1265],[30.0602,-24.2745,899.5013],[30.0765,-24.2378,672.124],[30.0707,-24.2389,669.2267],[30.055,-24.226,676.2886],[30.0491,-24.2176,676.2634],[30.0475,-24.2115,693.7394],[30.0411,-24.2068,686.9638],[30.0102,-24.2042,695.0596],[29.9966,-24.2105,693.9656],[29.9913,-24.2075,703.0967],[29.9823,-24.2091,700.403],[29.9793,-24.2123,700.8593],[29.9776,-24.2239,697.782],[29.9744,-24.2255,696.712],[29.9608,-24.2191,702.6257],[29.9533,-24.2175,701.7454],[29.9479,-24.2188,703.3961],[29.9423,-24.2236,702.584],[29.938,-24.2251,705.8955],[29.9059,-24.2236,715.0616],[29.8973,-24.2215,713.5625],[29.8856,-24.225,716.859],[29.8811,-24.2221,713.1808],[29.8752,-24.2221,723.9264],[29.8732,-24.2251,716.8112],[29.8762,-24.233,717.5601],[29.8746,-24.2476,717.4147],[29.8479,-24.2542,720.1885],[29.8206,-24.2533,722.3933],[29.8152,-24.2483,722.9038],[29.806,-24.2532,729.0334],[29.8054,-24.2613,729.683],[29.8,-24.2683,727.8253],[29.7906,-24.2674,727.7967],[29.7798,-24.2715,731.2462],[29.7683,-24.2731,728.1388],[29.7603,-24.2811,729.0242],[29.76,-24.2904,735.0533],[29.755,-24.295,733.2162],[29.7537,-24.3011,735.0222],[29.7567,-24.31,733.3513],[29.7561,-24.3145,735.3748],[29.7586,-24.3246,736.1114],[29.7556,-24.3268,735.2524],[29.7457,-24.3279,742.4962],[29.7449,-24.33,737.3094],[29.7513,-24.3402,739.8621],[29.7517,-24.348,743.9398],[29.7542,-24.3495,739.2113],[29.7642,-24.3493,743.5366],[29.7677,-24.3539,742.7828],[29.7375,-24.3857,746.7022],[29.7373,-24.392,743.777],[29.7409,-24.4018,745.0114],[29.737,-24.4159,745.0936],[29.7379,-24.4233,749.1526],[29.7361,-24.4268,748.5764],[29.7283,-24.426,749.3153],[29.7252,-24.4318,748.6691],[29.7296,-24.4445,750.4462],[29.7212,-24.4495,752.4993],[29.7216,-24.4562,750.7893],[29.719,-24.4593,750.9247],[29.7057,-24.4618,753.4362],[29.6966,-24.4668,752.9657],[29.7203,-24.5267,1048.7689],[29.7735,-24.5508,979.761],[29.7579,-24.5571,1131.1956],[29.768,-24.5618,1122.8215],[29.7718,-24.5668,1052.5575],[29.7661,-24.5679,1092.655],[29.764,-24.5724,1104.9568],[29.7707,-24.5746,1056.8164],[29.7702,-24.5888,1107.3992],[29.7763,-24.6047,1235.4038],[29.8083,-24.626,1381.7844],[29.8398,-24.5967,1083.0068],[29.8481,-24.5964,1051.9962],[29.8491,-24.6,1050.0908],[29.8547,-24.6005,1065.6709],[29.8573,-24.6026,1073.6531],[29.8624,-24.6002,1023.7848],[29.8636,-24.5967,987.4838],[29.8624,-24.5962,982.0743]]]]}}