{"type":"Feature","properties":{"GID_3":"ZAF.4.10.4_1","GID_0":"ZAF","country":"SouthAfrica","GID_1":"ZAF.4_1","province":"KwaZulu-Natal","NL_NAME_1":"NA","GID_2":"ZAF.4.10_1","county":"Uthungulu","NL_NAME_2":"NA","city":"Ntambanana","VARNAME_3":"NA","NL_NAME_3":"NA","TYPE_3":"LocalMunicipality","ENGTYPE_3":"LocalMunicipality","CC_3":"KZN283","HASC_3":"NA","name":"Ntambanana.city"},
"geometry":{"type": "MultiPolygon","coordinates": [[[[31.8838,-28.5552,139.5324],[31.871,-28.5312,177.9302],[31.8437,-28.5011,258.2797],[31.8402,-28.4943,281.622],[31.8531,-28.4683,199.8744],[31.8624,-28.4588,129.0417],[31.8598,-28.4532,121.3984],[31.8637,-28.4457,113.317],[31.8358,-28.4274,182.2528],[31.8109,-28.4317,287.4116],[31.7411,-28.4335,180.1778],[31.7478,-28.4129,131.6068],[31.7402,-28.4114,131.1139],[31.7269,-28.4034,131.1149],[31.7143,-28.39,155.704],[31.7113,-28.3832,139.9118],[31.7049,-28.3803,134.8533],[31.7096,-28.3734,137.3731],[31.7154,-28.3744,139.8736],[31.7203,-28.3731,168.3316],[31.7208,-28.3708,138.5834],[31.7193,-28.3692,147.662],[31.7073,-28.3693,151.6057],[31.6926,-28.3764,180.4672],[31.6833,-28.3776,162.5708],[31.6832,-28.3828,152.8719],[31.6931,-28.391,204.6031],[31.6917,-28.3948,163.1724],[31.681,-28.3932,159.5822],[31.6777,-28.3955,170.9413],[31.6756,-28.3998,179.1318],[31.6682,-28.4022,163.1927],[31.6597,-28.3943,166.6365],[31.6558,-28.3879,193.2037],[31.6495,-28.3858,175.3062],[31.643,-28.3891,170.5271],[31.6379,-28.3941,215.0714],[31.6414,-28.4013,207.0177],[31.6404,-28.4044,182.6644],[31.628,-28.4078,180.4958],[31.618,-28.4041,184.679],[31.6097,-28.3988,194.3343],[31.6118,-28.3874,214.3359],[31.6101,-28.3805,199.8595],[31.611,-28.3777,198.8868],[31.6072,-28.3745,238.4669],[31.6005,-28.3728,241.8223],[31.5977,-28.375,202.2146],[31.5993,-28.385,202.8219],[31.5982,-28.391,235.174],[31.5957,-28.392,227.3362],[31.5922,-28.3871,212.375],[31.5886,-28.3866,217.5303],[31.5826,-28.3929,242.3741],[31.583,-28.3992,242.7866],[31.5793,-28.4001,249.7985],[31.5753,-28.4045,258.6176],[31.5753,-28.408,270.0139],[31.5641,-28.4174,305.1949],[31.5663,-28.4193,303.6252],[31.5663,-28.423,323.8982],[31.5699,-28.4299,343.6577],[31.5693,-28.4324,350.8766],[31.5706,-28.4331,359.3773],[31.5681,-28.4362,389.9484],[31.5672,-28.4412,386.8631],[31.5702,-28.4471,438.9608],[31.5808,-28.4556,673.7115],[31.5866,-28.4666,463.4953],[31.5952,-28.4711,418.0874],[31.5909,-28.4753,438.4161],[31.589,-28.48,451.7633],[31.5867,-28.4789,454.8456],[31.5833,-28.4804,459.8454],[31.5817,-28.4791,477.3102],[31.5775,-28.4812,471.9735],[31.5752,-28.4797,480.4596],[31.5654,-28.4874,529.4045],[31.5676,-28.4954,578.919],[31.5709,-28.4953,565.861],[31.5724,-28.4987,551.4348],[31.5773,-28.5014,531.6781],[31.5769,-28.5046,500.6306],[31.5742,-28.5061,520.6344],[31.5779,-28.5101,494.3848],[31.579,-28.5145,458.5322],[31.5806,-28.5148,448.4045],[31.5801,-28.5178,442.9226],[31.5776,-28.5192,428.767],[31.5801,-28.522,417.8424],[31.5782,-28.5237,414.5349],[31.5758,-28.5198,435.1498],[31.5726,-28.52,453.0825],[31.5694,-28.5177,492.6075],[31.5595,-28.5207,552.2315],[31.5506,-28.5302,646.3491],[31.549,-28.5355,571.8584],[31.5377,-28.5414,480.3186],[31.5348,-28.5517,377.8833],[31.537,-28.5536,451.3666],[31.5337,-28.5552,380.0029],[31.5249,-28.5534,365.421],[31.5232,-28.555,399.9684],[31.5208,-28.553,360.4542],[31.5197,-28.5562,379.6441],[31.508,-28.5542,540.5612],[31.5067,-28.5498,524.9368],[31.5039,-28.5468,478.6464],[31.5062,-28.5442,448.1962],[31.5036,-28.5423,445.3074],[31.5035,-28.5396,454.0387],[31.4964,-28.539,484.48],[31.4876,-28.5964,446.2763],[31.5001,-28.5957,447.1873],[31.5015,-28.6021,433.6422],[31.505,-28.6,408.3506],[31.5057,-28.5943,406.9532],[31.5036,-28.5894,406.3811],[31.5121,-28.5908,377.5038],[31.5156,-28.5993,336.4314],[31.5199,-28.5972,346.7812],[31.5248,-28.6035,323.2599],[31.5305,-28.6078,293.3775],[31.5333,-28.6163,316.5302],[31.5376,-28.6156,284.8703],[31.5383,-28.6191,280.7397],[31.5361,-28.6233,293.0472],[31.539,-28.6241,275.2441],[31.5453,-28.6226,277.2557],[31.5475,-28.6163,260.2736],[31.556,-28.6184,255.2005],[31.5623,-28.6177,244.1606],[31.5666,-28.6099,260.206],[31.5701,-28.6113,253.731],[31.5701,-28.6184,299.6155],[31.5616,-28.6241,242.6671],[31.568,-28.6347,254.8459],[31.568,-28.6382,253.9544],[31.5623,-28.6389,247.0046],[31.5616,-28.641,265.2668],[31.5538,-28.6403,280.6],[31.5461,-28.6424,335.1098],[31.5383,-28.6531,456.3549],[31.5354,-28.6714,566.5794],[31.534,-28.6729,566.5794],[31.5418,-28.6821,549.7507],[31.556,-28.6764,525.3371],[31.5666,-28.6906,471.8739],[31.5701,-28.6877,459.7332],[31.5814,-28.692,355.8324],[31.585,-28.6955,328.5645],[31.5812,-28.7031,187.2321],[31.6445,-28.697,169.1494],[31.6531,-28.7065,71.3953],[31.6546,-28.7148,75.4093],[31.6566,-28.7179,73.8414],[31.66,-28.721,70.3881],[31.6675,-28.7239,75.6107],[31.6714,-28.723,71.7053],[31.6746,-28.72,73.3885],[31.6763,-28.7083,65.9177],[31.6871,-28.7016,64.7959],[31.6966,-28.6992,67.5878],[31.6984,-28.7075,63.7511],[31.6959,-28.7184,64.7313],[31.6967,-28.7221,60.5738],[31.7029,-28.7219,67.8545],[31.708,-28.715699999999998,71.0704],[31.7167,-28.7116,57.5879],[31.7238,-28.7172,55.858],[31.7278,-28.7233,61.9509],[31.7262,-28.7354,54.5332],[31.7276,-28.7397,63.0688],[31.7342,-28.7387,53.2138],[31.7426,-28.7299,51.9266],[31.7597,-28.7364,53.5229],[31.7597,-28.741,54.4911],[31.758,-28.744,49.195],[31.7546,-28.7467,55.7701],[31.7451,-28.7492,46.806399999999996],[31.7447,-28.7547,46.9147],[31.7479,-28.7584,53.6263],[31.7505,-28.7588,47.9027],[31.7621,-28.7572,43.4241],[31.7694,-28.7494,52.3152],[31.7716,-28.7423,60.1932],[31.7881,-28.7222,181.4416],[31.8137,-28.7036,130.8432],[31.8232,-28.7043,110.4327],[31.8353,-28.7088,90.7927],[31.8396,-28.713,82.1154],[31.839,-28.7192,77.2904],[31.8416,-28.7202,74.5347],[31.8448,-28.7201,72.412],[31.8524,-28.7149,68.5581],[31.8603,-28.7175,65.0266],[31.8682,-28.7167,62.8217],[31.8727,-28.7135,59.576],[31.8769,-28.715,57.8888],[31.8795,-28.7118,60.4128],[31.8887,-28.7091,52.7211],[31.8818,-28.7035,60.2588],[31.8745,-28.7024,65.1702],[31.8708,-28.6987,67.6423],[31.8704,-28.6964,70.4643],[31.8725,-28.695,71.1516],[31.8685,-28.6863,80.1019],[31.8699,-28.6833,94.4371],[31.8678,-28.6793,100.848],[31.8944,-28.6606,114.4753],[31.9038,-28.65,67.8565],[31.907,-28.6506,59.0186],[31.9163,-28.6442,57.0354],[31.9181,-28.6391,62.5164],[31.9118,-28.6387,55.3448],[31.9089,-28.6369,57.6536],[31.913,-28.6318,59.0957],[31.9145,-28.6196,66.4041],[31.9119,-28.6164,83.4359],[31.905,-28.6148,111.0871],[31.9034,-28.6126,133.2816],[31.9069,-28.6077,282.5262],[31.8955,-28.5952,103.8825],[31.8967,-28.5715,292.4109],[31.8903,-28.5674,367.0922],[31.8838,-28.5552,139.5324]]]]}}