{"type": "Feature","bbox": [29.8979,-28.0089,30.6999,-27.2674],"geometry": {"type": "MultiPolygon","coordinates": [[[[30.2922,-27.9511,1149.8086],[30.2965,-27.9309,1176.7269],[30.3533,-27.9347,1206.2126],[30.3862,-27.9306,1212.6725],[30.4324,-27.9737,1215.4734],[30.4572,-27.9862,1433.2483],[30.4825,-27.9853,1522.3856],[30.5307,-28.0039,1224.7559],[30.5697,-28.0089,1172.863],[30.5666,-28.007,1169.7983],[30.5665,-28.0046,1170.4395],[30.5714,-27.9998,1170.8571],[30.578,-27.9986,1171.4033],[30.5778,-27.9963,1170.4371],[30.5856,-27.9959,1173.1758],[30.5813,-27.9921,1171.4023],[30.5836,-27.9872,1172.6086],[30.5872,-27.9886,1173.3113],[30.5873,-27.9822,1172.4379],[30.5839,-27.9806,1171.7856],[30.5868,-27.9774,1176.3354],[30.5839,-27.9764,1172.6975],[30.5827,-27.974,1172.5935],[30.5863,-27.9714,1178.819],[30.5838,-27.9703,1173.5322],[30.5847,-27.9684,1172.821],[30.5833,-27.9669,1173.4602],[30.585,-27.9663,1173.4602],[30.5841,-27.965,1174.2271],[30.5862,-27.9658,1173.4974],[30.5874,-27.9644,1173.7457],[30.5862,-27.9628,1174.2234],[30.5902,-27.9598,1174.4814],[30.5901,-27.9578,1177.4738],[30.5955,-27.9595,1175.175],[30.5982,-27.9537,1177.6536],[30.6008,-27.9531,1178.5641],[30.5989,-27.9497,1177.5],[30.6001,-27.9482,1178.2848],[30.5982,-27.9474,1177.5],[30.5959,-27.949,1177.5],[30.597,-27.9441,1177.5],[30.5933,-27.944,1177.5],[30.594,-27.9425,1177.5],[30.5914,-27.9404,1179.4619],[30.593,-27.9412,1177.899],[30.5938,-27.9378,1177.6257],[30.5979,-27.9387,1178.188],[30.5994,-27.9346,1178.8939],[30.602,-27.9348,1178.748],[30.604,-27.9315,1179.864],[30.5988,-27.9293,1186.3636],[30.5906,-27.9333,1179.7068],[30.5851,-27.9308,1182.5414],[30.5835,-27.9318,1179.8444],[30.581,-27.9288,1182.0],[30.5811,-27.9257,1182.0],[30.58,-27.9268,1182.0],[30.5789,-27.925,1182.0],[30.5826,-27.9215,1182.3019],[30.5815,-27.9207,1182.0],[30.5839,-27.9165,1182.7494],[30.5815,-27.9156,1182.0],[30.5827,-27.9134,1182.0],[30.5814,-27.9114,1182.229],[30.5838,-27.9104,1182.0],[30.584,-27.9057,1182.1702],[30.5828,-27.9055,1182.2961],[30.5858,-27.9027,1185.6353],[30.5823,-27.9029,1182.1641],[30.5805,-27.901,1183.0743],[30.5815,-27.8943,1184.3772],[30.5802,-27.8938,1182.2678],[30.582,-27.8918,1182.6522],[30.5802,-27.8898,1183.2654],[30.5816,-27.8885,1183.6185],[30.5886,-27.889,1183.329],[30.5889,-27.8859,1182.7271],[30.5858,-27.8825,1182.1709],[30.5913,-27.8798,1182.7551],[30.5896,-27.8795,1182.0],[30.5895,-27.8774,1182.6038],[30.5914,-27.877,1182.6038],[30.5901,-27.8751,1183.374],[30.5869,-27.8757,1183.0872],[30.5881,-27.8723,1183.1758],[30.5864,-27.8729,1183.12],[30.5858,-27.8684,1183.7975],[30.5831,-27.8682,1185.7166],[30.5819,-27.8669,1184.0723],[30.5836,-27.8676,1183.746],[30.5849,-27.8664,1183.746],[30.5833,-27.8664,1183.746],[30.5834,-27.8645,1184.9379],[30.5866,-27.8649,1184.0657],[30.5875,-27.8633,1184.9082],[30.5878,-27.8654,1183.9664],[30.592,-27.8674,1184.2703],[30.593,-27.8646,1184.4905],[30.5917,-27.862,1188.1906],[30.5865,-27.8606,1184.8363],[30.5904,-27.858,1189.0371],[30.5904,-27.8538,1185.0718],[30.5937,-27.8526,1188.3196],[30.5931,-27.8463,1185.7867],[30.5966,-27.8433,1188.3237],[30.596,-27.838,1187.7172],[30.5994,-27.8343,1187.7826],[30.6016,-27.8345,1187.896],[30.6011,-27.8314,1190.8975],[30.6033,-27.828,1195.0676],[30.6082,-27.8299,1190.8344],[30.6123,-27.8276,1192.516],[30.6122,-27.8249,1193.5],[30.615,-27.8244,1194.2156],[30.6176,-27.8195,1196.0239],[30.6294,-27.8103,1196.9379],[30.6332,-27.7888,1204.8335],[30.6305,-27.7843,1210.0082],[30.6304,-27.7759,1212.2887],[30.6264,-27.7735,1222.71],[30.6183,-27.7593,1227.6957],[30.6163,-27.7518,1241.7507],[30.6175,-27.7479,1260.4153],[30.6279,-27.7396,1317.4568],[30.6294,-27.7421,1301.7449],[30.6375,-27.7466,1274.959],[30.651,-27.7449,1242.042],[30.6527,-27.7497,1255.8551],[30.6594,-27.7524,1221.4037],[30.6665,-27.7502,1207.3827],[30.6735,-27.7532,1208.3124],[30.6789,-27.7478,1192.2894],[30.6948,-27.7484,1179.0775],[30.6999,-27.7458,1176.9771],[30.6936,-27.7415,1179.9788],[30.6945,-27.7382,1186.5884],[30.6932,-27.7331,1187.5171],[30.6953,-27.7288,1190.8114],[30.6933,-27.7222,1196.9265],[30.6892,-27.7199,1218.1626],[30.6917,-27.7166,1214.1691],[30.6908,-27.7134,1215.4954],[30.6855,-27.7148,1222.3479],[30.6804,-27.7129,1228.2007],[30.6807,-27.7094,1249.5698],[30.6756,-27.7078,1277.4985],[30.6771,-27.7004,1294.7034],[30.6749,-27.698,1300.637],[30.6686,-27.6971,1318.1987],[30.6624,-27.6993,1350.7487],[30.6676,-27.6449,1312.9786],[30.615,-27.636,1528.3076],[30.6247,-27.6284,1491.9033],[30.6418,-27.6015,1503.0867],[30.6152,-27.5608,1350.9303],[30.6134,-27.5525,1510.798],[30.5925,-27.5325,1604.6614],[30.5868,-27.4998,1761.3635],[30.543,-27.482,1752.2385],[30.5206,-27.4693,1428.4512],[30.5096,-27.4566,1409.4529],[30.5162,-27.4284,1445.314],[30.4936,-27.4121,1412.3031],[30.4829,-27.4156,1447.0365],[30.4821,-27.4131,1439.066],[30.5004,-27.3906,1262.0095],[30.4778,-27.3721,1456.8849],[30.4863,-27.357,1394.9608],[30.4811,-27.3433,1210.324],[30.472,-27.3429,1247.678],[30.4679,-27.3467,1220.7725],[30.4634,-27.3467,1231.4893],[30.4651,-27.3493,1226.4373],[30.4577,-27.3513,1235.1129],[30.4549,-27.3503,1241.6628],[30.4541,-27.3538,1239.3962],[30.4494,-27.3589,1255.5925],[30.4447,-27.3575,1262.7731],[30.4484,-27.327,1874.9679],[30.4335,-27.3257,2043.5261],[30.426,-27.315,1819.7876],[30.4265,-27.2698,1842.0903],[30.3976,-27.2738,1717.8546],[30.3676,-27.2674,1548.7776],[30.3684,-27.2873,1649.5253],[30.3667,-27.3117,1659.821],[30.3284,-27.2996,1805.8887],[30.3175,-27.302,1845.7458],[30.3022,-27.3174,1951.0349],[30.2825,-27.3144,2073.7622],[30.2816,-27.3282,2205.0085],[30.2787,-27.3326,2175.6184],[30.2805,-27.3503,2116.0918],[30.2799,-27.3686,2180.1885],[30.2466,-27.3739,2106.054],[30.2347,-27.3807,1985.7244],[30.2286,-27.3654,2050.6616],[30.1981,-27.3552,2053.4563],[30.1901,-27.3689,1997.2207],[30.1782,-27.3783,1950.499],[30.1658,-27.3875,2033.3896],[30.1607,-27.3871,2139.876],[30.1502,-27.3923,2144.6018],[30.1541,-27.397,2059.5056],[30.1527,-27.4043,1950.9441],[30.1434,-27.4134,2001.0817],[30.1116,-27.3865,1734.3389],[30.0868,-27.3685,1965.7921],[30.079,-27.3702,2006.9668],[30.0683,-27.3659,2164.7007],[30.0522,-27.3797,2082.5181],[30.0464,-27.3868,2237.3032],[30.0396,-27.3893,2128.6313],[30.0306,-27.3867,1995.7429],[30.0245,-27.3945,1993.4424],[30.0162,-27.3976,2005.7916],[29.9951,-27.3884,1779.6521],[29.9785,-27.373,1744.7395],[29.9555,-27.3649,1742.3765],[29.9172,-27.3544,1702.4731],[29.9094,-27.3738,1703.2719],[29.8991,-27.3855,1568.2621],[29.902,-27.3874,1565.828],[29.8979,-27.3907,1583.7404],[29.9018,-27.3909,1561.895],[29.9002,-27.3934,1555.6594],[29.9028,-27.3964,1587.2239],[29.9011,-27.3985,1558.4426],[29.902,-27.4014,1573.2483],[29.9055,-27.4041,1543.6238],[29.9032,-27.4057,1515.9506],[29.9029,-27.408,1510.2495],[29.9064,-27.4081,1496.415],[29.9088,-27.4127,1465.8177],[29.9145,-27.4119,1481.1295],[29.9161,-27.4142,1459.1932],[29.9149,-27.417,1473.8455],[29.9102,-27.4193,1490.3369],[29.9104,-27.4252,1490.5623],[29.9071,-27.4277,1439.3367],[29.9099,-27.4335,1426.2085],[29.902,-27.436,1508.3679],[29.9007,-27.4392,1426.0198],[29.9017,-27.4411,1426.7715],[29.908,-27.4405,1416.1057],[29.906,-27.4497,1427.4604],[29.9115,-27.4508,1427.9038],[29.9154,-27.4538,1406.063],[29.9126,-27.4603,1409.1782],[29.9142,-27.4633,1406.0706],[29.9135,-27.4707,1411.3818],[29.91,-27.4748,1487.637],[29.9143,-27.4775,1391.4912],[29.9153,-27.485,1386.0344],[29.9141,-27.4904,1382.2034],[29.9103,-27.4902,1450.4685],[29.9113,-27.4942,1397.1498],[29.9083,-27.4982,1359.2179],[29.9118,-27.4993,1390.5173],[29.9119,-27.5009,1359.0194],[29.9061,-27.504,1389.1167],[29.9089,-27.5072,1325.5612],[29.904,-27.5079,1390.229],[29.9061,-27.5139,1306.371],[29.9043,-27.518,1294.8535],[29.9075,-27.5223,1289.5288],[29.9113,-27.523,1298.2103],[29.9127,-27.528199999999998,1279.6995],[29.9121,-27.53,1290.2839],[29.9079,-27.5303,1291.6252],[29.9079,-27.5369,1288.9253],[29.9256,-27.5396,1248.8933],[29.9226,-27.5446,1246.7897],[29.924,-27.549,1238.426],[29.9215,-27.5606,1236.5977],[29.9224,-27.5624,1237.6012],[29.9307,-27.5653,1227.1775],[29.9225,-27.5693,1228.448],[29.9202,-27.5796,1225.4329],[29.9271,-27.5789,1224.189],[29.9232,-27.5807,1222.8245],[29.9238,-27.5836,1223.3235],[29.931,-27.5804,1235.4536],[29.932,-27.5816,1224.3921],[29.9335,-27.5852,1223.6157],[29.9292,-27.5836,1221.8687],[29.9257,-27.5886,1222.5386],[29.9315,-27.5895,1220.1146],[29.9365,-27.5861,1227.7047],[29.9382,-27.5876,1233.8632],[29.9379,-27.591,1225.0276],[29.9326,-27.591,1220.5101],[29.9292,-27.593,1218.4095],[29.9309,-27.5976,1217.9886],[29.9396,-27.598,1217.7909],[29.9396,-27.6002,1215.8552],[29.9433,-27.6015,1214.1376],[29.9433,-27.6045,1211.3621],[29.9513,-27.6079,1202.0386],[29.9544,-27.6109,1197.4006],[29.956,-27.6164,1196.3358],[29.9628,-27.6198,1195.2343],[29.9622,-27.6242,1192.6851],[29.9692,-27.6259,1188.5408],[29.9713,-27.6279,1184.4893],[29.9737,-27.6272,1186.6436],[29.9757,-27.6292,1185.933],[29.9746,-27.6312,1184.0621],[29.9761,-27.632,1183.8577],[29.9762,-27.6345,1185.6621],[29.9816,-27.6357,1185.9058],[29.9858,-27.6442,1182.5565],[29.9844,-27.6478,1183.7067],[29.9871,-27.6498,1182.25],[29.9858,-27.6529,1181.8408],[29.9884,-27.6564,1181.6923],[29.9867,-27.6584,1181.9812],[29.9897,-27.6595,1181.7462],[29.9865,-27.6631,1180.8906],[29.9871,-27.667,1181.2239],[29.9908,-27.6658,1182.6278],[29.9925,-27.6678,1179.8651],[29.9971,-27.667,1179.9357],[29.998,-27.6683,1179.4209],[29.9949,-27.6712,1179.2749],[30.0042,-27.6736,1178.743],[30.0039,-27.6812,1177.9805],[30.0099,-27.681,1178.4407],[30.0135,-27.6753,1177.7129],[30.0145,-27.678,1180.6514],[30.0202,-27.6765,1177.8479],[30.0259,-27.6825,1182.2786],[30.0287,-27.6889,1177.5176],[30.0358,-27.6855,1176.6221],[30.0388,-27.6779,1175.8735],[30.0402,-27.678,1176.2213],[30.044,-27.6864,1175.6565],[30.0476,-27.6881,1175.5222],[30.0464,-27.6912,1175.9102],[30.0491,-27.6936,1175.1658],[30.0502,-27.6986,1176.8405],[30.0578,-27.7004,1175.8063],[30.0612,-27.7066,1175.1997],[30.0668,-27.7026,1176.9143],[30.0721,-27.7052,1173.4469],[30.0726,-27.7072,1173.3367],[30.0685,-27.706,1174.238],[30.0676,-27.7078,1172.3645],[30.0651,-27.7076,1173.3193],[30.0689,-27.7103,1177.3921],[30.0686,-27.7125,1173.77],[30.0739,-27.7129,1172.6594],[30.0806,-27.7084,1171.4467],[30.079,-27.7123,1171.491],[30.0763,-27.7136,1173.4275],[30.0782,-27.7163,1174.0698],[30.0758,-27.7186,1171.5807],[30.0842,-27.7261,1170.9326],[30.0881,-27.7257,1171.0854],[30.0897,-27.7217,1170.1327],[30.0931,-27.7188,1172.4062],[30.0963,-27.7193,1170.1763],[30.1024,-27.7169,1169.7006],[30.1083,-27.7177,1168.9082],[30.1161,-27.7078,1171.6052],[30.1213,-27.7149,1171.2278],[30.129,-27.7149,1167.8153],[30.133,-27.719,1168.4664],[30.1405,-27.7232,1169.6675],[30.1463,-27.7121,1167.9884],[30.1615,-27.7181,1167.4352],[30.1674,-27.7232,1167.0873],[30.1684,-27.717,1167.2961],[30.1723,-27.718,1166.3308],[30.173,-27.7206,1169.3701],[30.1748,-27.7212,1165.9913],[30.1796,-27.7165,1165.6641],[30.184,-27.7154,1166.8231],[30.1882,-27.7204,1169.2208],[30.1822,-27.7232,1168.7966],[30.1823,-27.7274,1168.6541],[30.1895,-27.7313,1172.6763],[30.195,-27.7293,1165.8542],[30.1991,-27.7233,1164.9233],[30.2031,-27.7213,1165.8335],[30.2106,-27.7326,1163.696],[30.2064,-27.7343,1165.0133],[30.2033,-27.7397,1164.8813],[30.2079,-27.7451,1166.1019],[30.213,-27.7482,1170.7878],[30.2106,-27.7567,1164.0767],[30.2044,-27.7675,1164.4521],[30.1987,-27.7703,1165.7828],[30.1879,-27.7724,1162.8391],[30.1881,-27.7779,1165.6486],[30.1904,-27.7793,1163.3434],[30.1978,-27.7776,1166.1279],[30.2042,-27.7787,1163.4214],[30.2077,-27.7812,1165.3279],[30.2099,-27.7862,1165.9369],[30.1987,-27.8034,1161.7861],[30.1937,-27.8086,1161.3331],[30.1927,-27.8135,1162.3752],[30.1974,-27.8154,1162.2561],[30.2031,-27.8103,1163.111],[30.2083,-27.8018,1162.7837],[30.2124,-27.8025,1160.8853],[30.2241,-27.7989,1161.1875],[30.2409,-27.8039,1159.9924],[30.2565,-27.8055,1156.9127],[30.2598,-27.8083,1157.9399],[30.2592,-27.8128,1155.3685],[30.2605,-27.8138,1156.4055],[30.2703,-27.811,1160.6925],[30.277,-27.8128,1160.209],[30.2813,-27.8156,1157.4075],[30.2877,-27.8255,1154.3713],[30.2931,-27.8277,1157.907],[30.292,-27.8334,1154.2974],[30.2936,-27.8396,1155.064],[30.2889,-27.843,1163.6187],[30.2821,-27.8389,1154.1294],[30.278,-27.8404,1154.6582],[30.282,-27.8446,1151.8971],[30.2902,-27.8588,1151.7036],[30.2891,-27.8693,1152.5699],[30.2907,-27.8727,1150.1818],[30.2932,-27.8747,1153.295],[30.2987,-27.8735,1150.4095],[30.3024,-27.8745,1152.3164],[30.3075,-27.8883,1153.1155],[30.3071,-27.891,1149.3021],[30.3034,-27.894,1149.1675],[30.3012,-27.9063,1149.9375],[30.2898,-27.9062,1148.2966],[30.2817,-27.9104,1148.9375],[30.2721,-27.9235,1150.3391],[30.2736,-27.9258,1148.6274],[30.2776,-27.9247,1147.4282],[30.2803,-27.9268,1149.0641],[30.2826,-27.9338,1146.4598],[30.283,-27.946,1147.1921],[30.2922,-27.9511,1149.8086]]]]}
,"properties": {"GID_3": "ZAF.4.1.2_1","GID_0": "ZAF","country": "SouthAfrica","GID_1": "ZAF.4_1","province": "KwaZulu-Natal","NL_NAME_1": "NA","GID_2": "ZAF.4.1_1","county": "Amajuba","NL_NAME_2": "NA","city": "Emadlangeni","VARNAME_3": "NA","NL_NAME_3": "NA","TYPE_3": "LocalMunicipality","ENGTYPE_3": "LocalMunicipality","CC_3": "KZN253","HASC_3": "NA","name": "Emadlangeni.city","area_km2": 3544.866,"hist_schema_id": "Elevation0-9000","hist_area_km2": {"1150": 13.476,"1175": 134.493,"1200": 296.392,"1225": 342.683,"1250": 274.913,"1275": 186.675,"1300": 132.045,"1325": 107.633,"1350": 94.378,"1375": 84.887,"1400": 88.078,"1425": 92.681,"1450": 84.262,"1475": 79.263,"1500": 73.512,"1525": 70.485,"1550": 77.772,"1575": 87.71,"1600": 94.819,"1625": 114.654,"1650": 104.175,"1675": 93.882,"1700": 74.463,"1725": 81.214,"1750": 73.429,"1775": 75.804,"1800": 60.04,"1825": 61.526,"1850": 57.835,"1875": 54.673,"1900": 57.718,"1925": 50.398,"1950": 50.364,"1975": 35.921,"2000": 25.325,"2025": 16.048,"2050": 11.796,"2075": 9.314,"2100": 9.183,"2125": 4.779,"2150": 2.728,"2175": 2.182,"2200": 0.583,"2225": 0.245,"2250": 0.357,"2275": 0.075}}}