{"type":"Feature","properties":{"GID_3":"ZAF.6.2.2_1","GID_0":"ZAF","country":"SouthAfrica","GID_1":"ZAF.6_1","province":"Mpumalanga","NL_NAME_1":"NA","GID_2":"ZAF.6.2_1","county":"GertSibande","NL_NAME_2":"NA","city":"Dipaleseng","VARNAME_3":"NA","NL_NAME_3":"NA","TYPE_3":"LocalMunicipality","ENGTYPE_3":"LocalMunicipality","CC_3":"MP306","HASC_3":"NA","name":"Dipaleseng.city"},
"geometry":{"type": "MultiPolygon","coordinates": [[[[28.6358,-26.9578,1487.1891],[28.6369,-26.955,1487.3053],[28.6463,-26.9528,1489.2354],[28.6545,-26.9602,1490.9735],[28.6614,-26.9608,1491.8447],[28.6797,-26.9736,1490.9375],[28.6856,-26.9756,1490.3123],[28.7,-26.9757,1490.2454],[28.7062,-26.9687,1501.3896],[28.7109,-26.9692,1494.4274],[28.7138,-26.9716,1488.76],[28.715699999999998,-26.9791,1488.9636],[28.7254,-26.9846,1490.1403],[28.7311,-26.9955,1490.6886],[28.7365,-27.0017,1491.7456],[28.7437,-27.0034,1494.7394],[28.7552,-26.9974,1492.3723],[28.7639,-27.0019,1492.8672],[28.7707,-27.003,1492.8823],[28.7768,-27.0091,1492.5231],[28.7738,-27.019,1490.9011],[28.7922,-27.0254,1491.4449],[28.795,-27.0289,1499.7349],[28.7978,-27.0264,1495.4336],[28.802,-27.0172,1491.7457],[28.8013,-27.0126,1492.3145],[28.8049,-27.0115,1495.5206],[28.8098,-27.0193,1495.1592],[28.8117,-27.0334,1493.0452],[28.8108,-27.0383,1499.6205],[28.814,-27.0426,1493.932],[28.8259,-27.037,1492.9106],[28.8347,-27.0417,1497.615],[28.8404,-27.041,1496.153],[28.8476,-27.0346,1493.6975],[28.8522,-27.0273,1495.3462],[28.8575,-27.0248,1495.9817],[28.8645,-27.0305,1496.1837],[28.8699,-27.0317,1493.9547],[28.8812,-27.0564,1503.6321],[28.8901,-27.059,1496.9055],[28.9004,-27.0483,1501.7815],[28.8962,-27.0427,1500.5938],[28.8991,-27.0347,1496.9918],[28.898,-27.0296,1501.1748],[28.8947,-27.0269,1496.3065],[28.8864,-27.0256,1498.1023],[28.8854,-27.024,1502.7673],[28.8936,-27.0134,1504.8647],[28.9046,-27.02,1501.3473],[28.9111,-27.0185,1500.4237],[28.8919,-26.9766,1532.2208],[28.8544,-26.9706,1558.3761],[28.8282,-26.9197,1515.9927],[28.8317,-26.9203,1515.9468],[28.8351,-26.9235,1513.8765],[28.8516,-26.923,1525.7224],[28.8533,-26.9207,1517.4283],[28.8539,-26.9135,1515.2739],[28.8624,-26.91,1516.0356],[28.8533,-26.9005,1517.7109],[28.8536,-26.898,1517.923],[28.8621,-26.8927,1518.8434],[28.8726,-26.8973,1517.9077],[28.885,-26.8841,1523.5287],[28.886,-26.8821,1524.4863],[28.8849,-26.8799,1522.392],[28.8889,-26.8758,1519.6499],[28.8911,-26.8687,1519.5428],[28.8884,-26.8656,1520.8933],[28.8827,-26.8637,1526.4263],[28.8902,-26.8579,1521.7395],[28.8888,-26.8521,1521.2534],[28.8911,-26.8522,1523.265],[28.8929,-26.8554,1524.627],[28.8985,-26.8559,1523.6292],[28.9002,-26.8521,1523.2776],[28.9055,-26.8532,1525.2266],[28.9088,-26.8479,1525.8118],[28.9155,-26.8454,1525.2134],[28.9183,-26.8418,1527.5527],[28.9147,-26.8402,1525.3369],[28.9124,-26.8363,1526.855],[28.9138,-26.8318,1525.5103],[28.9197,-26.8328,1527.4844],[28.923,-26.8351,1525.2819],[28.9233,-26.8384,1525.6553],[28.9254,-26.8396,1527.9639],[28.9363,-26.836,1526.9126],[28.9425,-26.8422,1526.3104],[28.945,-26.84,1528.2192],[28.9449,-26.8336,1533.6138],[28.9468,-26.8331,1528.8529],[28.9488,-26.8356,1530.757],[28.9605,-26.8401,1528.3103],[28.9639,-26.8397,1530.7855],[28.9722,-26.8337,1532.0983],[28.9746,-26.8351,1530.2007],[28.9733,-26.8393,1529.1842],[28.9761,-26.8402,1529.4518],[28.9873,-26.8353,1528.9208],[28.9843,-26.8284,1530.4077],[28.988,-26.8246,1530.6028],[28.9864,-26.8234,1530.3142],[28.9806,-26.8258,1530.3799],[28.9776,-26.8232,1535.0391],[28.9775,-26.8149,1531.4429],[28.9747,-26.8159,1530.9901],[28.9498,-26.8073,1571.5172],[28.9516,-26.8036,1568.0562],[28.9383,-26.7982,1571.6666],[28.9377,-26.7997,1572.2019],[28.9308,-26.7971,1576.8333],[28.9298,-26.7995,1577.3916],[28.9217,-26.7976,1581.6946],[28.8827,-26.7574,1605.6975],[28.9031,-26.7416,1563.4],[28.9164,-26.7344,1551.9681],[28.916,-26.7322,1552.158],[28.9138,-26.733,1556.2251],[28.9138,-26.7271,1553.5266],[28.912,-26.7258,1554.4587],[28.9134,-26.7216,1556.2533],[28.9121,-26.7185,1557.5796],[28.9128,-26.7153,1564.2645],[28.919,-26.7129,1619.373],[28.9321,-26.7111,1571.9872],[28.9002,-26.6526,1642.8752],[28.88,-26.6283,1680.6218],[28.8541,-26.6184,1670.5696],[28.8389,-26.6059,1667.7197],[28.8553,-26.5682,1666.2438],[28.8526,-26.5676,1684.0118],[28.8413,-26.5246,1648.1362],[28.8342,-26.5271,1651.5825],[28.8368,-26.5364,1664.7463],[28.7629,-26.5403,1633.5975],[28.7639,-26.518,1649.1124],[28.6889,-26.5131,1631.9128],[28.6618,-26.5059,1600.6617],[28.6534,-26.5087,1597.5223],[28.6502,-26.5079,1598.7389],[28.6499,-26.5111,1597.1666],[28.6416,-26.5076,1596.9955],[28.6312,-26.5246,1650.8939],[28.6381,-26.5473,1649.1484],[28.5849,-26.5386,1614.3438],[28.5867,-26.52,1602.8774],[28.58,-26.518,1611.6442],[28.5772,-26.5268,1594.5825],[28.569,-26.525,1622.8994],[28.5738,-26.5161,1617.5084],[28.5437,-26.507,1681.6989],[28.5406,-26.5036,1696.5006],[28.5418,-26.501,1751.9723],[28.5375,-26.5033,1720.1139],[28.5332,-26.5009,1768.0679],[28.5277,-26.5022,1800.5898],[28.5242,-26.5285,1734.8585],[28.526,-26.5625,1578.1682],[28.5285,-26.5649,1675.6882],[28.533,-26.5779,1673.4583],[28.5278,-26.5906,1594.8501],[28.5054,-26.5897,1552.6865],[28.5089,-26.5938,1550.1155],[28.5063,-26.5965,1557.8435],[28.5076,-26.6038,1545.6561],[28.4988,-26.6039,1544.8577],[28.4911,-26.6105,1543.6752],[28.4877,-26.6086,1541.7234],[28.486,-26.6096,1541.0854],[28.4831,-26.6187,1541.8068],[28.4798,-26.6175,1546.8822],[28.4903,-26.6353,1658.8091],[28.4431,-26.6392,1643.9014],[28.4438,-26.6544,1688.2029],[28.422,-26.6547,1691.9683],[28.415,-26.6562,1672.1094],[28.4001,-26.655,1607.9921],[28.383,-26.7175,1549.5452],[28.394,-26.7167,1545.8324],[28.4069,-26.7617,1582.8833],[28.3482,-26.7729,1551.3917],[28.3491,-26.7779,1554.4166],[28.3426,-26.7791,1552.4337],[28.3435,-26.7855,1544.0675],[28.3394,-26.7856,1542.7686],[28.3194,-26.7927,1511.9227],[28.3216,-26.8117,1504.4761],[28.3183,-26.8118,1503.198],[28.3193,-26.8194,1501.3981],[28.3226,-26.8202,1505.146],[28.325,-26.8411,1506.7849],[28.3095,-26.8794,1523.884],[28.2835,-26.8771,1492.0475],[28.2843,-26.8644,1508.1161],[28.2633,-26.8665,1502.722],[28.2619,-26.8752,1504.4313],[28.2435,-26.8737,1508.1514],[28.2484,-26.8841,1516.0725],[28.2443,-26.8848,1483.0],[28.2515,-26.8892,1483.0],[28.2517,-26.893,1483.0],[28.2618,-26.9027,1483.0],[28.2608,-26.9111,1483.0],[28.2623,-26.9146,1483.0],[28.267,-26.9143,1483.0],[28.2775,-26.9065,1483.0],[28.2815,-26.9061,1483.0],[28.2814,-26.9148,1483.0],[28.2886,-26.9281,1483.0],[28.3017,-26.9409,1483.0],[28.306,-26.9406,1483.0],[28.3111,-26.9359,1483.0],[28.3138,-26.9254,1483.0],[28.3219,-26.9226,1483.0],[28.3265,-26.9225,1483.696],[28.3312,-26.9255,1483.0],[28.3302,-26.9284,1483.0],[28.3197,-26.9365,1483.0],[28.3206,-26.9419,1483.0],[28.3248,-26.949,1483.0],[28.3529,-26.9316,1483.0],[28.3621,-26.9318,1483.0],[28.3726,-26.9347,1483.0],[28.389,-26.9307,1483.0],[28.3996,-26.9357,1483.0],[28.4015,-26.9407,1483.0],[28.4004,-26.9509,1483.0],[28.405,-26.9551,1483.0],[28.4149,-26.973,1483.0],[28.4207,-26.9781,1483.0],[28.4291,-26.9892,1483.0],[28.4261,-26.994,1483.0],[28.4135,-27.0062,1483.0],[28.4148,-27.0104,1483.0],[28.4185,-27.013,1483.0],[28.4317,-27.0057,1483.0],[28.4513,-26.9813,1483.0],[28.4515,-26.9789,1483.7692],[28.4365,-26.9669,1485.5961],[28.4366,-26.9646,1484.1924],[28.4438,-26.9603,1483.0],[28.4514,-26.9638,1483.0],[28.4613,-26.9723,1483.0],[28.4616,-26.9774,1491.8732],[28.4645,-26.9829,1483.765],[28.4676,-26.9828,1483.3228],[28.4724,-26.98,1483.0],[28.4702,-26.9728,1483.0],[28.476,-26.9627,1483.0],[28.4757,-26.9602,1483.0],[28.4712,-26.9584,1483.0],[28.4703,-26.9565,1483.0],[28.4754,-26.9505,1483.0],[28.4779,-26.9503,1483.0],[28.4858,-26.9711,1483.0],[28.4924,-26.9756,1483.0],[28.5005,-26.9778,1485.1873],[28.5096,-26.9866,1485.5005],[28.5109,-26.9928,1483.0],[28.5043,-27.0021,1488.715],[28.5036,-27.008,1483.0],[28.5276,-27.018,1483.6206],[28.5308,-27.0271,1484.3676],[28.5385,-27.0337,1483.7909],[28.5429,-27.0347,1483.2952],[28.5495,-27.0413,1486.3552],[28.5497,-27.045,1485.262],[28.5457,-27.0529,1484.5634],[28.5364,-27.056,1484.4487],[28.5329,-27.063,1488.5292],[28.5338,-27.0669,1483.5745],[28.5542,-27.0609,1486.1792],[28.5599,-27.0542,1487.1769],[28.5607,-27.0479,1488.301],[28.5592,-27.0409,1493.094],[28.5618,-27.0388,1484.6423],[28.569,-27.035,1485.025],[28.5762,-27.0392,1485.9086],[28.5833,-27.0378,1484.7642],[28.5933,-27.0238,1488.8585],[28.6089,-27.0207,1485.8085],[28.6083,-27.0082,1486.7031],[28.6255,-27.0107,1485.5378],[28.6394,-27.0199,1486.1396],[28.6444,-27.0203,1485.6958],[28.6473,-27.0166,1487.8931],[28.649,-27.0109,1486.6923],[28.6513,-27.0094,1486.8203],[28.6558,-26.9986,1486.7256],[28.6535,-26.9953,1487.3275],[28.6458,-26.9924,1487.614],[28.633,-26.9909,1490.6913],[28.6233,-26.9951,1487.6742],[28.6172,-27.0002,1487.397],[28.6097,-26.9938,1487.7235],[28.6051,-26.9937,1486.8519],[28.6212,-26.9691,1490.6777],[28.6343,-26.9622,1488.1797],[28.6358,-26.9578,1487.1891]]]]}}