{"type":"Feature","properties":{"GID_3":"ZAF.1.4.7_1","GID_0":"ZAF","country":"SouthAfrica","GID_1":"ZAF.1_1","province":"EasternCape","NL_NAME_1":"NA","GID_2":"ZAF.1.4_1","county":"Cacadu","NL_NAME_2":"NA","city":"Makana","VARNAME_3":"NA","NL_NAME_3":"NA","TYPE_3":"LocalMunicipality","ENGTYPE_3":"LocalMunicipality","CC_3":"EC104","HASC_3":"NA","name":"Makana.city"},
"geometry":{"type": "MultiPolygon","coordinates": [[[[26.0117,-33.2666,416.3322],[26.0083,-33.278,538.7964],[25.9879,-33.3066,402.27],[26.0174,-33.3242,574.4467],[26.0384,-33.3279,603.3201],[26.0389,-33.3325,662.4185],[26.0505,-33.3357,564.9626],[26.0632,-33.3331,532.9667],[26.0474,-33.3812,264.7812],[26.0366,-33.3949,282.3357],[26.0423,-33.4025,233.5102],[26.0401,-33.4039,239.9529],[26.0383,-33.4103,231.5709],[26.043,-33.4171,234.2494],[26.0363,-33.4217,226.4587],[26.0364,-33.4229,226.4587],[26.0588,-33.4292,224.1336],[26.0619,-33.4323,226.6591],[26.0592,-33.4359,224.1943],[26.0485,-33.4438,219.6572],[26.0527,-33.4456,239.3865],[26.0495,-33.4521,237.9823],[26.0531,-33.4528,237.3877],[26.0524,-33.46,215.0781],[26.0552,-33.4577,224.5519],[26.0512,-33.4748,212.9022],[26.0653,-33.4778,243.6577],[26.0613,-33.4792,231.4043],[26.0628,-33.4811,243.3757],[26.0842,-33.4755,232.5452],[26.0911,-33.4869,205.4735],[26.094,-33.4858,192.7305],[26.0933,-33.4834,193.4311],[26.1237,-33.4793,256.3308],[26.132,-33.4816,284.268],[26.1292,-33.4882,213.3784],[26.1267,-33.4883,190.967],[26.1277,-33.4902,191.7854],[26.1252,-33.4933,187.3974],[26.1261,-33.4941,187.3974],[26.1082,-33.5361,185.0848],[26.1093,-33.5413,232.5678],[26.1169,-33.5424,184.2585],[26.1216,-33.5414,194.0349],[26.1245,-33.537,182.3036],[26.1299,-33.537,181.3977],[26.1342,-33.5319,181.1637],[26.16,-33.5296,212.5471],[26.1667,-33.5131,179.1352],[26.2123,-33.5272,171.9212],[26.2131,-33.5238,273.1241],[26.2311,-33.5294,209.0365],[26.2193,-33.522,168.5801],[26.2307,-33.5175,253.3379],[26.2451,-33.5028,325.2042],[26.258,-33.512,207.3982],[26.2638,-33.5204,134.7053],[26.3013,-33.5185,283.3265],[26.3013,-33.5173,254.5297],[26.3295,-33.5276,246.3206],[26.3411,-33.5376,157.7451],[26.3727,-33.5552,265.5283],[26.3692,-33.5594,245.6141],[26.3807,-33.5626,249.9166],[26.3812,-33.5583,251.1337],[26.4146,-33.5575,260.9781],[26.4155,-33.5408,209.6505],[26.4376,-33.5328,89.2063],[26.4458,-33.5344,76.2763],[26.4559,-33.53,75.5354],[26.4653,-33.5356,72.8938],[26.4653,-33.5386,85.1028],[26.4611,-33.5436,79.8392],[26.4621,-33.5454,62.9937],[26.475,-33.5458,61.637],[26.4778,-33.5442,56.687],[26.4779,-33.5423,56.9302],[26.4756,-33.5408,62.6973],[26.4779,-33.5392,79.2894],[26.4804,-33.5403,65.7337],[26.4825,-33.5471,52.8038],[26.4879,-33.5492,50.1236],[26.4987,-33.5491,144.2936],[26.4995,-33.5473,144.2077],[26.4976,-33.5435,53.4758],[26.4988,-33.5423,56.8429],[26.5133,-33.5441,73.0676],[26.513,-33.5467,84.4511],[26.5082,-33.5531,74.2939],[26.5167,-33.5501,210.7768],[26.5227,-33.5531,120.3],[26.5246,-33.5595,37.4344],[26.5221,-33.5631,60.0431],[26.5176,-33.5631,95.3937],[26.5108,-33.5603,44.2134],[26.507,-33.562,35.0628],[26.503,-33.5683,24.9705],[26.5046,-33.5715,16.3921],[26.5358,-33.5727,225.6744],[26.5473,-33.5516,260.1202],[26.5697,-33.5289,185.1089],[26.5939,-33.4914,175.9824],[26.6269,-33.4852,209.2144],[26.6273,-33.4905,217.6105],[26.632,-33.4908,197.2654],[26.6543,-33.4684,284.5799],[26.6405,-33.4596,284.5923],[26.6177,-33.425,324.4018],[26.6607,-33.4071,161.2973],[26.6635,-33.4029,214.4214],[26.6733,-33.4076,159.0193],[26.6749,-33.4011,167.4529],[26.6728,-33.3957,174.9047],[26.6822,-33.3973,167.3473],[26.6819,-33.393,174.6651],[26.6787,-33.3885,171.668],[26.6797,-33.3862,200.9287],[26.6863,-33.3879,205.8734],[26.6902,-33.3936,186.0378],[26.6939,-33.3959,179.8532],[26.6976,-33.3942,181.384],[26.7008,-33.3882,196.3143],[26.7062,-33.3887,196.2292],[26.7072,-33.391,191.7708],[26.7131,-33.3914,215.4077],[26.7198,-33.3868,203.7463],[26.7277,-33.3863,264.32],[26.7274,-33.385,214.0602],[26.7232,-33.3837,210.6555],[26.7304,-33.3767,230.34],[26.7294,-33.3743,263.4791],[26.7239,-33.3714,230.026],[26.7253,-33.3782,236.4574],[26.7199,-33.378,238.6523],[26.7207,-33.3693,281.3547],[26.7257,-33.3654,264.3862],[26.7209,-33.3649,273.6064],[26.7171,-33.3665,318.725],[26.716,-33.3652,315.5727],[26.7197,-33.3587,297.8198],[26.7224,-33.3577,280.3261],[26.7197,-33.3524,301.446],[26.7349,-33.3383,454.6844],[26.7752,-33.3513,501.2181],[26.7918,-33.354,512.1057],[26.7972,-33.3463,464.2013],[26.7566,-33.3262,607.327],[26.7662,-33.3037,634.4448],[26.7908,-33.3133,659.5887],[26.8018,-33.2846,433.797],[26.8339,-33.2924,419.4684],[26.8403,-33.2975,388.9886],[26.863,-33.3075,318.1827],[26.8673,-33.304,324.7527],[26.8841,-33.308,302.6685],[26.8846,-33.3067,298.7865],[26.8829,-33.3056,317.9441],[26.8902,-33.2838,507.9452],[26.9093,-33.2943,422.8448],[26.9333,-33.2835,386.0952],[26.9439,-33.2727,364.5571],[26.9259,-33.2675,368.9491],[26.9298,-33.2642,305.3304],[26.969,-33.2677,19.9517],[26.9707,-33.2594,19.831],[26.9726,-33.2568,18.4741],[26.9814,-33.2538,32.4402],[26.9868,-33.2545,66.9031],[26.99,-33.2595,28.7898],[26.994,-33.2621,28.8504],[27.0033,-33.2636,32.3216],[27.0059,-33.2621,29.8593],[27.009,-33.2535,39.6934],[27.0059,-33.2476,39.0482],[26.9887,-33.2341,40.072],[26.981,-33.2331,39.3796],[26.9734,-33.237,41.6105],[26.9669,-33.2381,56.3542],[26.9615,-33.2375,45.6515],[26.9591,-33.2352,46.4474],[26.9596,-33.2312,41.2494],[26.9625,-33.2281,43.1294],[26.967,-33.2253,48.5337],[26.977,-33.2228,44.9523],[26.9792,-33.2207,42.5231],[26.9738,-33.2107,54.3498],[26.9615,-33.2012,72.85],[26.9614,-33.1948,53.0407],[26.9571,-33.1918,50.1922],[26.9563,-33.1845,55.7152],[26.953,-33.1785,65.8402],[26.9553,-33.175,54.1859],[26.96,-33.1729,62.0217],[26.9551,-33.169,53.2253],[26.9443,-33.1655,59.1474],[26.9251,-33.165,55.618],[26.9216,-33.1687,54.4168],[26.9234,-33.1814,57.951],[26.9257,-33.1866,55.6049],[26.9211,-33.1914,56.3834],[26.925,-33.1914,57.1679],[26.9279,-33.1947,56.11],[26.9253,-33.1981,66.4414],[26.9194,-33.2009,59.035],[26.9113,-33.2011,73.6378],[26.9086,-33.2026,61.6273],[26.9,-33.1997,66.5718],[26.8958,-33.192,64.9055],[26.8992,-33.1881,59.0423],[26.899,-33.1819,59.1398],[26.8906,-33.1765,64.8049],[26.8963,-33.1714,70.4395],[26.8852,-33.1693,70.1698],[26.8765,-33.1719,78.7303],[26.8803,-33.1762,65.7668],[26.8781,-33.1803,64.8628],[26.8794,-33.1898,131.1593],[26.877,-33.1923,65.3276],[26.8728,-33.1931,72.144],[26.8706,-33.1986,73.0456],[26.8737,-33.1996,68.0164],[26.8726,-33.2032,70.3538],[26.8646,-33.2069,70.8863],[26.8571,-33.2077,73.1896],[26.8427,-33.2045,76.752],[26.8424,-33.2013,77.8288],[26.8397,-33.1989,88.5297],[26.84,-33.1948,82.2293],[26.8493,-33.1923,81.3401],[26.8553,-33.1924,75.6631],[26.8609,-33.189,86.3778],[26.8615,-33.1866,73.3603],[26.8658,-33.1832,78.506],[26.8657,-33.1814,75.8116],[26.8621,-33.1777,77.264],[26.8577,-33.1792,77.6392],[26.8531,-33.1778,86.7192],[26.8468,-33.1784,90.2473],[26.8376,-33.1746,94.0532],[26.8396,-33.1662,80.2437],[26.8376,-33.1551,75.9752],[26.8321,-33.155,80.0788],[26.8204,-33.1294,86.1217],[26.8244,-33.1239,83.1601],[26.8319,-33.1233,88.7831],[26.8347,-33.1214,86.9469],[26.8379,-33.1221,88.4512],[26.8408,-33.1257,86.0028],[26.8398,-33.1288,111.6686],[26.8415,-33.1309,95.745],[26.8487,-33.131,89.6504],[26.8528,-33.1259,100.2018],[26.8526,-33.1217,95.5113],[26.8567,-33.1138,90.0783],[26.8586,-33.1006,189.5921],[26.866,-33.0899,105.0845],[26.8689,-33.0891,105.3906],[26.876,-33.0801,107.3379],[26.8773,-33.0751,117.0125],[26.8768,-33.065,126.1564],[26.8735,-33.0534,115.5649],[26.8669,-33.046,116.2122],[26.8614,-33.0445,127.8049],[26.8567,-33.0498,118.1455],[26.8552,-33.0641,122.1477],[26.8568,-33.0701,123.7181],[26.8548,-33.076,123.5712],[26.849,-33.0799,127.3135],[26.8378,-33.0808,136.9956],[26.8282,-33.0678,134.2461],[26.8281,-33.0624,139.2872],[26.8267,-33.0614,134.9267],[26.8256,-33.0548,137.1644],[26.8256,-33.0397,144.5205],[26.8207,-33.0366,145.9449],[26.8133,-33.0359,212.0648],[26.8096,-33.0405,149.2077],[26.8044,-33.0533,158.5344],[26.7924,-33.0706,160.0723],[26.7846,-33.0855,164.5747],[26.7791,-33.0889,163.1676],[26.775,-33.0882,162.8494],[26.7717,-33.0845,167.6788],[26.7722,-33.0776,166.9432],[26.7923,-33.0552,179.3671],[26.7957,-33.0466,176.5881],[26.7969,-33.039,238.3653],[26.7949,-33.0263,182.0384],[26.8018,-33.0085,191.3736],[26.8025,-33.0009,189.0731],[26.8011,-32.9943,226.2449],[26.7984,-32.9912,239.7634],[26.7912,-32.9903,190.5684],[26.784,-32.9953,195.1076],[26.7827,-33.0151,199.114],[26.7843,-33.0179,197.1348],[26.7843,-33.0266,199.6147],[26.7785,-33.0352,207.4893],[26.7722,-33.0362,204.4935],[26.7583,-33.0303,206.9778],[26.7506,-33.0298,206.4896],[26.7478,-33.0315,209.8109],[26.7441,-33.0477,211.9738],[26.7365,-33.0556,211.9064],[26.7318,-33.0567,217.4891],[26.7237,-33.0529,215.0905],[26.7196,-33.0435,216.203],[26.7143,-33.0404,226.5363],[26.709,-33.0428,226.5989],[26.7,-33.0536,224.0934],[26.6906,-33.0564,247.6177],[26.6847,-33.0526,226.5443],[26.6803,-33.0474,229.9541],[26.6742,-33.0347,230.4613],[26.667,-33.0297,230.726],[26.6618,-33.03,232.1919],[26.6583,-33.0432,238.1176],[26.6524,-33.0482,237.1368],[26.6419,-33.0503,252.4003],[26.6365,-33.0488,241.4531],[26.6351,-33.0458,241.3551],[26.641,-33.0321,283.2246],[26.6388,-33.0296,246.3642],[26.6302,-33.026,276.3777],[26.6272,-33.0227,251.4413],[26.6267,-33.019,250.3316],[26.6294,-33.0129,250.313],[26.6301,-33.0043,255.5089],[26.6286,-33.0008,281.7274],[26.624,-32.9973,268.6888],[26.6156,-32.9979,288.8662],[26.6062,-33.0104,262.3149],[26.5921,-33.0167,278.8248],[26.5857,-33.0167,286.9277],[26.583,-33.0126,270.5422],[26.583,-33.0097,271.3281],[26.5929,-32.9993,276.5632],[26.5957,-32.9903,308.1885],[26.5919,-32.9622,295.876],[26.5885,-32.9581,289.4814],[26.5839,-32.9586,291.3252],[26.5792,-32.9637,297.0267],[26.5787,-32.9799,331.5436],[26.5773,-32.9844,304.2795],[26.5732,-32.9893,306.012],[26.5676,-32.9914,335.6407],[26.5642,-32.991,309.7584],[26.5578,-32.9871,334.3913],[26.552,-32.981,317.8205],[26.5421,-32.9789,329.227],[26.5359,-32.9811,315.1418],[26.5275,-32.9902,324.5153],[26.5207,-32.9923,326.0491],[26.5161,-32.9886,335.7306],[26.5158,-32.9859,322.5843],[26.5171,-32.9799,329.5966],[26.5233,-32.9707,349.6388],[26.5236,-32.962,333.2738],[26.5206,-32.9576,334.9194],[26.5184,-32.9468,343.4216],[26.5128,-32.9426,344.3822],[26.507,-32.9429,350.9452],[26.497,-32.9493,361.8076],[26.4943,-32.954,352.0311],[26.4936,-32.962,350.2506],[26.4964,-32.9716,355.0399],[26.4955,-32.9769,356.4619],[26.4913,-32.9812,358.2119],[26.485,-32.9818,364.7834],[26.479,-32.9792,363.2752],[26.4722,-32.9725,365.9709],[26.47,-32.9677,365.2351],[26.4707,-32.9555,379.0469],[26.4662,-32.95,388.0716],[26.4629,-32.9524,372.4127],[26.4622,-32.9622,373.6692],[26.455,-32.9644,377.7365],[26.4518,-32.9626,377.285],[26.4466,-32.9479,386.7465],[26.4423,-32.9448,381.8689],[26.4385,-32.9445,403.6637],[26.4359,-32.9477,385.7899],[26.3881,-32.9734,600.335],[26.3628,-32.9637,639.3246],[26.3586,-32.9345,660.1489],[26.3216,-32.9352,675.712],[26.299,-32.9321,667.0491],[26.2499,-32.9438,710.6578],[26.1357,-32.9602,833.1537],[26.134,-32.966,789.6185],[26.0961,-32.9831,763.8316],[26.0935,-32.9938,722.6767],[26.0712,-33.0097,680.6823],[26.0536,-33.0307,587.0684],[26.0243,-33.0527,486.8668],[26.0353,-33.0587,496.416],[26.0215,-33.0819,423.8],[26.0182,-33.0767,423.0128],[26.0148,-33.076,429.0176],[26.0121,-33.0784,425.6885],[26.0089,-33.0879,431.5673],[26.0056,-33.0905,426.5214],[25.9973,-33.0911,429.274],[25.9907,-33.1,436.7933],[25.9755,-33.0966,432.6316],[25.9729,-33.0974,432.9847],[25.9676,-33.1064,435.2205],[25.9626,-33.11,445.2036],[25.9482,-33.1727,538.5665],[25.982,-33.1796,600.9463],[25.9688,-33.2004,571.5193],[25.9834,-33.2045,662.2147],[25.9708,-33.2329,498.4308],[26.0165,-33.2504,443.486],[26.0117,-33.2666,416.3322]]]]}}