{"type": "Feature","bbox": [24.4137,-33.3153,26.2851,-32.2412],"geometry": {"type": "MultiPolygon","coordinates": [[[[26.2052,-32.7494,756.29],[26.1795,-32.7634,696.2695],[26.1091,-32.7695,635.1334],[26.1094,-32.765,637.6584],[26.0951,-32.7643,691.986],[26.066,-32.7869,671.7265],[26.049,-32.7808,712.1049],[26.0462,-32.7783,709.1252],[26.032,-32.764,725.764],[26.064,-32.6856,791.541],[26.0268,-32.6701,926.3967],[26.0376,-32.6585,1094.1718],[26.0472,-32.6543,1355.8784],[26.0443,-32.6443,1402.7012],[26.0476,-32.6328,1391.3419],[26.0741,-32.6383,1331.9553],[26.0803,-32.6297,1243.9314],[26.0941,-32.6246,1180.4376],[26.0972,-32.6169,1107.3386],[26.1162,-32.6049,1342.6003],[26.1139,-32.6054,1410.0869],[26.1189,-32.5982,1507.2888],[26.1272,-32.5954,1547.2068],[26.1213,-32.5802,1538.7527],[26.1111,-32.5711,1555.3523],[26.0941,-32.5649,1530.9851],[26.0954,-32.5586,1513.2611],[26.0896,-32.5586,1557.1882],[26.0808,-32.5466,1326.2712],[26.0283,-32.54,1280.2563],[26.0266,-32.5466,1053.3833],[25.9766,-32.5459,943.5884],[25.9593,-32.5521,929.7211],[25.9398,-32.5387,1139.9049],[25.93,-32.4946,933.9732],[25.9343,-32.4761,1302.0018],[25.8871,-32.4871,1373.9287],[25.8584,-32.492,1350.8472],[25.834,-32.4905,1118.6792],[25.7974,-32.4772,962.5229],[25.7855,-32.5379,874.7411],[25.734,-32.5295,925.1396],[25.699,-32.522,1121.3239],[25.6899,-32.4991,1279.8339],[25.6551,-32.5069,1198.4308],[25.6449,-32.4797,1355.2501],[25.6373,-32.4754,1332.2703],[25.6217,-32.4568,1429.1018],[25.6047,-32.4518,1528.8059],[25.592,-32.4586,1549.1833],[25.5744,-32.4578,1489.2334],[25.5481,-32.4104,1345.1075],[25.5341,-32.3945,1410.0902],[25.5127,-32.3984,1328.7617],[25.4946,-32.4127,1225.6591],[25.4931,-32.4105,1227.2548],[25.4287,-32.4187,1224.3939],[25.4203,-32.4234,1666.3599],[25.3987,-32.413,1669.6707],[25.4174,-32.3745,1385.2701],[25.4077,-32.374,1551.0988],[25.3829,-32.3467,1473.3904],[25.3602,-32.3408,1787.2563],[25.3583,-32.3235,1782.8618],[25.3634,-32.3067,1837.1293],[25.3354,-32.3118,2002.8759],[25.3095,-32.3133,1987.6204],[25.2786,-32.3456,1876.4583],[25.2328,-32.3386,1626.7946],[25.2174,-32.3471,1712.1627],[25.2145,-32.3468,1696.7667],[25.2135,-32.3367,1754.4104],[25.2039,-32.3346,1887.1946],[25.1861,-32.3238,1899.3594],[25.1676,-32.3287,1872.6211],[25.1553,-32.3142,1893.6426],[25.1283,-32.2911,2006.3546],[25.0781,-32.2735,1972.0836],[25.055,-32.28,1966.8439],[25.046,-32.2666,1910.3862],[25.0241,-32.2643,2017.0405],[25.0185,-32.2546,1875.1575],[25.0033,-32.2504,2055.2458],[24.9802,-32.2589,2117.7161],[24.9496,-32.2412,2097.1443],[24.9292,-32.2625,1986.4529],[24.9317,-32.2837,1395.9125],[24.9241,-32.299,1622.3831],[24.9219,-32.3102,1528.3993],[24.9062,-32.3049,1539.4885],[24.8932,-32.3165,1268.9425],[24.8874,-32.3157,1343.6051],[24.8855,-32.3207,1393.0134],[24.8769,-32.3177,1489.3827],[24.8741,-32.3186,1488.6451],[24.8707,-32.3264,1453.0774],[24.8602,-32.3297,1418.8311],[24.851,-32.3242,1351.7311],[24.8437,-32.3232,1258.4995],[24.837,-32.3278,957.6857],[24.8231,-32.3302,1010.1353],[24.8224,-32.3383,1205.9573],[24.8272,-32.3426,1165.7039],[24.828,-32.3498,1202.292],[24.8149,-32.3456,1106.3495],[24.8123,-32.3472,1126.1476],[24.8164,-32.353,1138.7134],[24.8065,-32.3581,1060.3206],[24.8101,-32.3615,1094.5215],[24.8111,-32.3652,1126.1479],[24.8171,-32.3616,1066.5782],[24.8193,-32.3696,1151.7634],[24.8259,-32.3691,1204.178],[24.8204,-32.3785,1277.4008],[24.8233,-32.3831,1265.3278],[24.8172,-32.3836,1253.3237],[24.8137,-32.3805,1323.0632],[24.8109,-32.3895,934.7184],[24.7952,-32.4092,810.2965],[24.7614,-32.3776,902.8182],[24.7018,-32.3821,1288.4459],[24.6949,-32.3745,1113.7843],[24.6946,-32.3541,958.8328],[24.6779,-32.3781,1138.0737],[24.6796,-32.3804,1202.0044],[24.6714,-32.3795,933.0302],[24.6791,-32.3855,1077.0227],[24.6962,-32.407,1172.7816],[24.6407,-32.4286,731.3892],[24.5898,-32.4438,691.6089],[24.5641,-32.4783,662.8426],[24.5566,-32.5156,624.5419],[24.5774,-32.5237,619.7612],[24.5687,-32.5447,617.9619],[24.566,-32.5662,597.882],[24.5453,-32.562,592.1514],[24.4926,-32.6053,621.8151],[24.4399,-32.581,667.1804],[24.4566,-32.6408,660.8748],[24.4251,-32.6958,645.1379],[24.4137,-32.737,686.0244],[24.4174,-32.7419,685.9738],[24.4718,-32.7654,697.8581],[24.51,-32.7383,615.92],[24.5294,-32.7351,576.0646],[24.5429,-32.7167,598.8964],[24.6052,-32.7036,546.8109],[24.6662,-32.7077,611.884],[24.691,-32.6917,630.4352],[24.7833,-32.7041,765.3527],[24.784,-32.7231,756.4519],[24.8818,-32.7442,663.2842],[24.9108,-32.7432,647.9468],[24.9163,-32.7563,653.4652],[24.913,-32.7589,639.1608],[24.9122,-32.7635,639.9769],[24.9338,-32.7635,662.9694],[24.934,-32.7815,610.7901],[24.9715,-32.7881,694.3729],[24.9768,-32.7863,770.6082],[24.9925,-32.8003,836.9006],[24.989,-32.8375,842.0231],[25.0015,-32.8419,803.4944],[25.0441,-32.8344,649.9964],[25.056,-32.8489,623.6003],[25.0874,-32.871,675.9335],[25.0737,-32.8918,627.8204],[25.0364,-32.8955,857.45],[25.0162,-32.9149,818.1033],[25.0559,-32.9463,585.4528],[25.1016,-32.9512,578.9318],[25.0939,-32.9912,390.5837],[25.0716,-32.9933,375.4094],[25.077,-33.0029,357.7937],[25.0784,-33.043,287.7033],[25.099,-33.041,298.3571],[25.1138,-33.0947,247.9387],[25.1137,-33.1157,245.4867],[25.174,-33.1196,253.0251],[25.171,-33.225,243.4366],[25.1659,-33.2242,215.2574],[25.167,-33.2291,212.9714],[25.1723,-33.2286,372.7559],[25.1813,-33.2629,715.7428],[25.2149,-33.2566,767.9403],[25.2934,-33.2602,942.7763],[25.3157,-33.2599,747.3367],[25.3961,-33.2706,625.181],[25.4507,-33.2835,874.1269],[25.5146,-33.2738,809.9517],[25.6081,-33.2812,777.1556],[25.6336,-33.3069,585.9784],[25.6977,-33.2854,835.0367],[25.7896,-33.2845,785.6542],[25.8326,-33.2915,711.7493],[25.8418,-33.2965,598.5958],[25.8396,-33.2998,481.3087],[25.8475,-33.3023,612.204],[25.8492,-33.3001,700.1378],[25.8496,-33.2947,740.7825],[25.8765,-33.2995,847.007],[25.9281,-33.3136,806.486],[25.9277,-33.3124,784.0333],[25.969,-33.3153,709.9847],[25.9879,-33.3066,402.27],[26.0083,-33.278,538.7964],[26.0165,-33.2504,443.486],[25.9708,-33.2329,498.4308],[25.9834,-33.2045,662.2147],[25.9688,-33.2004,571.5193],[25.982,-33.1796,600.9463],[25.9482,-33.1727,538.5665],[25.9626,-33.11,445.2036],[25.9676,-33.1064,435.2205],[25.9737,-33.0968,432.9847],[25.9906,-33.1001,436.7933],[25.9973,-33.0911,429.274],[26.0056,-33.0905,426.5214],[26.009,-33.0877,431.5673],[26.0121,-33.0784,425.6885],[26.0148,-33.076,429.0176],[26.0182,-33.0767,423.0128],[26.0215,-33.0819,423.8],[26.0353,-33.0587,496.416],[26.0243,-33.0527,486.8668],[26.0536,-33.0307,587.0684],[26.0712,-33.0097,680.6823],[26.0935,-32.9938,722.6767],[26.0961,-32.9831,763.8316],[26.134,-32.966,789.6185],[26.1357,-32.9602,833.1537],[26.2499,-32.9438,710.6578],[26.2749,-32.937,684.1233],[26.2851,-32.8992,462.7023],[26.2747,-32.8806,479.9654],[26.2689,-32.8776,493.2521],[26.2629,-32.8797,469.8767],[26.2632,-32.8888,484.0099],[26.2608,-32.8908,472.7854],[26.2528,-32.8854,474.6478],[26.2471,-32.8848,490.8662],[26.2426,-32.8816,502.9455],[26.2405,-32.8749,479.8995],[26.2361,-32.8712,504.2354],[26.2256,-32.8774,489.9562],[26.2194,-32.8782,521.4039],[26.2186,-32.8761,543.4096],[26.2259,-32.8656,494.6013],[26.2257,-32.8577,512.5366],[26.2171,-32.8592,516.9454],[26.2103,-32.8633,539.5124],[26.1992,-32.8502,511.4961],[26.1967,-32.8516,513.9247],[26.1933,-32.8665,536.8323],[26.1832,-32.8693,540.5578],[26.1821,-32.8673,526.3265],[26.1866,-32.8635,535.9448],[26.1866,-32.8583,528.4766],[26.1804,-32.8446,535.2759],[26.1784,-32.8448,536.0852],[26.1765,-32.8483,537.4506],[26.1758,-32.855,554.8958],[26.1685,-32.8556,548.741],[26.1681,-32.8481,558.6296],[26.1656,-32.8444,597.3636],[26.189,-32.8122,689.5126],[26.2457,-32.8152,522.041],[26.2473,-32.8102,550.5106],[26.2404,-32.793,603.1738],[26.2081,-32.7696,660.2636],[26.2052,-32.7494,756.29]]]]}
,"properties": {"GID_3": "ZAF.1.4.2_1","GID_0": "ZAF","country": "SouthAfrica","GID_1": "ZAF.1_1","province": "EasternCape","NL_NAME_1": "NA","GID_2": "ZAF.1.4_1","county": "Cacadu","NL_NAME_2": "NA","city": "BlueCraneRoute","VARNAME_3": "NA","NL_NAME_3": "NA","TYPE_3": "LocalMunicipality","ENGTYPE_3": "LocalMunicipality","CC_3": "EC102","HASC_3": "NA","name": "Blue_Crane_Route.city","area_km2": 11073.434,"hist_schema_id": "Elevation0-9000","hist_area_km2": {"225": 1.046,"250": 41.28,"275": 79.513,"300": 93.081,"325": 87.963,"350": 94.459,"375": 95.491,"400": 100.806,"425": 116.554,"450": 174.1,"475": 226.294,"500": 284.152,"525": 337.572,"550": 411.994,"575": 473.51,"600": 547.677,"625": 614.031,"650": 648.19,"675": 661.474,"700": 681.398,"725": 642.971,"750": 586.772,"775": 460.455,"800": 359.265,"825": 308.441,"850": 248.534,"875": 211.244,"900": 179.08,"925": 140.654,"950": 117.371,"975": 102.169,"1000": 98.919,"1025": 97.244,"1050": 103.05,"1075": 102.364,"1100": 97.135,"1125": 90.585,"1150": 83.438,"1175": 85.108,"1200": 84.004,"1225": 92.04,"1250": 96.356,"1275": 92.478,"1300": 87.021,"1325": 78.131,"1350": 75.965,"1375": 67.505,"1400": 59.797,"1425": 54.31,"1450": 49.825,"1475": 45.346,"1500": 39.234,"1525": 33.387,"1550": 28.952,"1575": 25.986,"1600": 23.195,"1625": 19.924,"1650": 19.315,"1675": 16.721,"1700": 16.041,"1725": 14.395,"1750": 10.78,"1775": 10.889,"1800": 10.191,"1825": 8.705,"1850": 7.344,"1875": 7.147,"1900": 4.818,"1925": 3.081,"1950": 1.845,"1975": 0.843,"2000": 0.843,"2025": 0.484,"2050": 0.43,"2075": 0.323,"2100": 0.341}}}