{"type":"Feature","properties":{"GID_3":"ZAF.4.4.5_1","GID_0":"ZAF","country":"SouthAfrica","GID_1":"ZAF.4_1","province":"KwaZulu-Natal","NL_NAME_1":"NA","GID_2":"ZAF.4.4_1","county":"Sisonke","NL_NAME_2":"NA","city":"Umzimkhulu","VARNAME_3":"NA","NL_NAME_3":"NA","TYPE_3":"LocalMunicipality","ENGTYPE_3":"LocalMunicipality","CC_3":"KZN435","HASC_3":"NA","name":"Umzimkhulu.city"},
"geometry":{"type": "MultiPolygon","coordinates": [[[[29.7534,-30.0767,993.3155],[29.7486,-30.0738,993.38],[29.7519,-30.0672,1004.5246],[29.7494,-30.0629,1035.045],[29.7462,-30.0698,1014.5643],[29.739,-30.0726,1018.8685],[29.7343,-30.0715,1012.4471],[29.7345,-30.0784,1015.0026],[29.731,-30.0833,1020.2689],[29.7308,-30.0863,1034.7766],[29.7248,-30.0828,1017.6995],[29.7237,-30.0791,1022.3677],[29.7216,-30.0799,1017.3193],[29.7203,-30.0832,1023.3499],[29.7162,-30.0848,1023.0781],[29.7059,-30.0785,1021.3399],[29.7019,-30.0787,1022.9302],[29.6976,-30.0758,1033.0624],[29.6916,-30.0796,1030.8152],[29.692,-30.0828,1032.532],[29.6906,-30.0836,1028.2141],[29.6873,-30.0813,1027.8707],[29.6834,-30.0817,1030.0137],[29.678,-30.0793,1041.4902],[29.675,-30.0801,1030.571],[29.6706,-30.0765,1033.5],[29.6743,-30.0751,1047.8834],[29.6705,-30.0715,1040.3403],[29.6748,-30.0709,1047.2913],[29.6755,-30.0682,1043.0073],[29.6673,-30.0664,1046.0602],[29.6678,-30.0647,1049.3303],[29.666,-30.0636,1052.8105],[29.6606,-30.0651,1052.5222],[29.6611,-30.062,1052.23],[29.6545,-30.0559,1065.1493],[29.6555,-30.0541,1063.4984],[29.6537,-30.0479,1095.5431],[29.6469,-30.0455,1110.839],[29.6403,-30.0407,1109.475],[29.6366,-30.0352,1138.1735],[29.6321,-30.0339,1166.8541],[29.6284,-30.0395,1173.2874],[29.6263,-30.0373,1176.8472],[29.6242,-30.039,1173.0781],[29.6177,-30.0375,1191.3943],[29.6161,-30.0394,1177.9254],[29.6185,-30.0418,1177.2058],[29.6176,-30.0426,1177.9614],[29.6144,-30.0407,1186.256],[29.6131,-30.0429,1180.5491],[29.6112,-30.043,1191.7394],[29.61,-30.0383,1187.5814],[29.6015,-30.0406,1195.7817],[29.6,-30.0397,1195.7817],[29.5981,-30.0433,1216.6774],[29.5948,-30.0437,1215.0988],[29.5932,-30.0389,1210.9478],[29.5906,-30.0372,1224.6643],[29.5916,-30.0332,1232.876],[29.5839,-30.0337,1256.4824],[29.5793,-30.0358,1256.3433],[29.5764,-30.0301,1307.6875],[29.5799,-30.0289,1288.5654],[29.5801,-30.027,1281.1632],[29.5722,-30.0251,1298.0745],[29.5683,-30.0189,1304.2736],[29.5618,-30.017,1304.4181],[29.5624,-30.0127,1314.7355],[29.5607,-30.0109,1353.3361],[29.5591,-30.0106,1310.7974],[29.5553,-30.0139,1315.4186],[29.5562,-30.0213,1319.2876],[29.5534,-30.0222,1322.4353],[29.5506,-30.0198,1322.9196],[29.5517,-30.0112,1359.1238],[29.5479,-30.0088,1339.9227],[29.5423,-30.0098,1354.3372],[29.5398,-30.007,1347.6926],[29.5335,-30.0063,1358.8838],[29.5326,-30.0037,1358.2466],[29.5287,-30.0095,1366.5176],[29.5305,-30.0132,1385.7328],[29.5354,-30.015,1386.9739],[29.5368,-30.0193,1403.2964],[29.5348,-30.0204,1402.9254],[29.5284,-30.0174,1433.0004],[29.5203,-30.0114,1444.3921],[29.5194,-30.0102,1440.4468],[29.5206,-30.0084,1438.6932],[29.5133,-30.0069,1449.5371],[29.516,-30.0045,1465.6967],[29.5142,-30.0019,1452.7346],[29.5089,-30.0029,1451.3131],[29.5111,-29.9946,1451.4828],[29.5059,-29.9889,1459.7732],[29.4949,-29.9906,1457.8976],[29.4931,-29.9898,1458.8385],[29.4947,-29.9879,1476.5847],[29.4931,-29.9836,1468.9612],[29.4858,-29.9845,1464.3755],[29.4861,-29.9809,1464.2393],[29.4899,-29.9811,1460.1714],[29.4935,-29.9784,1466.6512],[29.4812,-29.9788,1463.4792],[29.4795,-29.9727,1486.7402],[29.4829,-29.9723,1463.3132],[29.4852,-29.9699,1464.3167],[29.4803,-29.9674,1474.1013],[29.4794,-29.9649,1463.9385],[29.47,-29.9668,1466.4739],[29.4659,-29.9634,1480.5251],[29.4644,-29.966,1467.4949],[29.4618,-29.9651,1467.1914],[29.4605,-29.9696,1470.8038],[29.4574,-29.9701,1468.4973],[29.4544,-29.9675,1479.3805],[29.4496,-29.9708,1470.3086],[29.4422,-29.9707,1489.1122],[29.4399,-29.9738,1473.577],[29.4342,-29.9734,1485.5674],[29.4333,-29.9774,1478.8604],[29.4317,-29.978,1479.5892],[29.4222,-29.9759,1481.2639],[29.4202,-29.9715,1494.8381],[29.4165,-29.9689,1496.5044],[29.4141,-29.9898,1622.4775],[29.4315,-29.9995,1880.9696],[29.4349,-30.0094,1871.9497],[29.447,-30.0073,1737.1147],[29.4766,-30.0141,2087.6392],[29.4828,-30.0231,2019.5131],[29.4789,-30.0404,1694.4758],[29.4645,-30.0536,1758.1201],[29.4513,-30.0477,1549.6012],[29.4494,-30.0507,1543.8907],[29.4411,-30.0548,1571.1267],[29.4455,-30.0647,1816.0807],[29.4067,-30.0959,2180.9468],[29.414,-30.1219,2299.6909],[29.409,-30.1387,2096.9895],[29.388,-30.1576,1984.4894],[29.4207,-30.1717,1966.6589],[29.4315,-30.1876,1983.4717],[29.455,-30.1905,1908.9589],[29.4957,-30.2078,1813.7667],[29.511,-30.2125,1798.9448],[29.5246,-30.2224,1826.1973],[29.5196,-30.2521,1634.3046],[29.4983,-30.2699,1673.5596],[29.5008,-30.2967,1953.5894],[29.514,-30.3049,1977.4674],[29.4978,-30.3403,1825.1029],[29.533,-30.3575,1698.3931],[29.5548,-30.385,1748.8745],[29.5738,-30.4049,1718.1051],[29.5744,-30.4117,1933.5571],[29.5957,-30.4483,1958.0436],[29.6078,-30.4479,1748.2239],[29.5835,-30.4643,1877.8755],[29.6218,-30.4904,1667.8323],[29.6228,-30.5029,1491.3306],[29.6198,-30.5056,1525.775],[29.612,-30.5066,1559.3295],[29.6016,-30.522,1609.3141],[29.6082,-30.5342,1620.8448],[29.5974,-30.5515,1871.8821],[29.6229,-30.5516,1758.9983],[29.6406,-30.562,1911.9216],[29.6477,-30.5494,1809.9282],[29.6457,-30.5272,1516.0393],[29.6527,-30.5231,1461.6829],[29.6697,-30.5196,1468.0522],[29.695,-30.5194,1556.078],[29.7042,-30.5225,1459.8733],[29.7109,-30.5161,1403.9448],[29.7245,-30.5127,1200.2482],[29.7287,-30.5175,1180.823],[29.7396,-30.5182,1172.5746],[29.7512,-30.516,1146.2117],[29.7636,-30.5113,1154.7415],[29.7822,-30.5105,1173.8417],[29.7877,-30.5179,1206.3936],[29.7953,-30.5187,1196.0895],[29.8133,-30.5351,1143.2385],[29.8198,-30.532,1116.7798],[29.8348,-30.5428,1071.8882],[29.855,-30.5448,1026.6252],[29.8575,-30.5587,998.745],[29.8712,-30.557,954.5467],[29.8938,-30.5607,889.2385],[29.9207,-30.5495,859.7552],[29.9486,-30.5842,994.1071],[29.9535,-30.586,1008.5269],[29.9561,-30.5832,978.7175],[29.9542,-30.5658,923.0305],[29.9644,-30.5592,923.7048],[29.9678,-30.5511,923.3878],[29.9767,-30.5542,881.8831],[29.9932,-30.5428,882.9178],[29.996,-30.5376,867.2352],[29.9966,-30.5361,862.459],[29.9894,-30.5286,851.3048],[30.0011,-30.5225,801.7891],[29.9968,-30.5142,865.1111],[30.0028,-30.5117,844.9583],[30.0012,-30.5065,818.2491],[30.0016,-30.4937,764.3828],[30.0088,-30.4829,769.5039],[30.023,-30.4717,792.5411],[30.057,-30.4674,360.7909],[30.0525,-30.4608,410.0614],[30.0533,-30.4528,405.3857],[30.0472,-30.4488,401.3031],[30.04,-30.4403,412.3112],[30.043,-30.4335,430.8572],[30.0476,-30.4307,420.2459],[30.0532,-30.432,424.9864],[30.0532,-30.4371,430.956],[30.0585,-30.4398,432.1524],[30.0586,-30.4443,435.0981],[30.0601,-30.446,461.1821],[30.0707,-30.4459,473.52],[30.0736,-30.4472,456.5973],[30.0796,-30.4426,483.2853],[30.0791,-30.437,487.5368],[30.0821,-30.4308,480.6024],[30.1006,-30.4167,490.5655],[30.1047,-30.417,494.0273],[30.1109,-30.4239,503.0496],[30.1168,-30.4256,501.0365],[30.1188,-30.4222,498.031],[30.1194,-30.413,505.9506],[30.1145,-30.4044,515.3577],[30.1145,-30.4018,516.8789],[30.1202,-30.3948,516.5186],[30.1202,-30.3912,522.2392],[30.1173,-30.3871,524.6868],[30.1077,-30.3847,558.3198],[30.0999,-30.3768,536.0508],[30.0966,-30.3778,539.5516],[30.0877,-30.3854,561.212],[30.083,-30.3862,547.2318],[30.0798,-30.3771,552.2598],[30.0831,-30.3674,554.9666],[30.0804,-30.3636,552.0824],[30.0678,-30.3661,562.2129],[30.0546,-30.3735,578.1743],[30.05,-30.3719,594.8743],[30.0483,-30.3637,562.4964],[30.0492,-30.3577,559.5701],[30.0407,-30.3372,580.1699],[30.0472,-30.3298,580.1544],[30.0518,-30.3276,601.2992],[30.0548,-30.3272,585.3793],[30.0608,-30.3295,588.1291],[30.0637,-30.3284,588.6804],[30.0658,-30.325,590.9476],[30.0658,-30.3202,594.4897],[30.062,-30.3155,600.3977],[30.0587,-30.3152,603.6043],[30.0499,-30.3187,613.3557],[30.043,-30.3154,618.3661],[30.0352,-30.3154,619.0615],[30.0334,-30.3197,653.5403],[30.041,-30.3288,627.0754],[30.0283,-30.3405,655.8035],[30.0239,-30.3389,650.246],[30.0268,-30.3332,661.8007],[30.026,-30.3302,674.7069],[30.0196,-30.328,693.4938],[30.0162,-30.3249,676.2358],[30.005,-30.3263,690.7656],[29.9984,-30.3307,699.0486],[29.9903,-30.3234,701.405],[29.9809,-30.3179,701.9621],[29.9793,-30.3146,710.3303],[29.9801,-30.3121,724.5417],[29.9916,-30.3101,710.5814],[29.9995,-30.3037,716.353],[30.0007,-30.3004,702.9706],[29.9928,-30.2992,708.2678],[29.9901,-30.2981,723.2977],[29.9898,-30.2964,705.0233],[29.9845,-30.2995,705.5174],[29.9819,-30.2979,706.2537],[29.9827,-30.2934,709.0533],[29.9879,-30.2897,708.306],[29.9879,-30.2858,709.1382],[29.9834,-30.2803,710.8466],[29.9659,-30.2837,717.7711],[29.9599,-30.2802,717.2753],[29.9489,-30.2789,718.5146],[29.9468,-30.2712,722.5463],[29.944,-30.2687,719.4743],[29.9451,-30.2637,723.5884],[29.9435,-30.2572,732.6335],[29.9349,-30.254,724.5184],[29.9323,-30.2544,724.1562],[29.9298,-30.2472,728.0804],[29.9249,-30.2461,729.7126],[29.9282,-30.239,733.427],[29.9265,-30.2317,750.6644],[29.9289,-30.2272,734.4365],[29.9356,-30.2274,742.7076],[29.9334,-30.2381,741.707],[29.9444,-30.2288,744.6559],[29.9495,-30.23,739.8287],[29.951,-30.2323,735.3128],[29.9506,-30.2358,736.9289],[29.9525,-30.2377,737.4913],[29.9575,-30.2347,740.7518],[29.9611,-30.2281,739.6375],[29.9569,-30.2262,743.1971],[29.9519,-30.2191,740.3393],[29.9528,-30.213,744.0092],[29.9478,-30.2093,748.3805],[29.9342,-30.2048,743.7312],[29.9256,-30.2099,755.9894],[29.9159,-30.2042,749.1],[29.916,-30.1995,753.1514],[29.9219,-30.1977,750.5709],[29.9276,-30.1936,752.4833],[29.9244,-30.1913,755.3678],[29.9227,-30.1942,756.229],[29.9207,-30.1934,756.1263],[29.9206,-30.1899,755.1645],[29.9144,-30.1821,763.7957],[29.9159,-30.1715,763.6329],[29.9028,-30.1701,771.8246],[29.9007,-30.1723,773.5443],[29.8933,-30.1731,781.9996],[29.887,-30.1716,785.5096],[29.8834,-30.1653,788.2355],[29.871,-30.1584,820.0712],[29.862,-30.1469,814.7999],[29.8576,-30.1443,817.2279],[29.8562,-30.1387,844.9626],[29.8632,-30.1371,831.252],[29.8648,-30.135,829.0958],[29.8638,-30.1329,840.7901],[29.8578,-30.1299,858.6082],[29.8522,-30.1171,847.6201],[29.8572,-30.1061,848.6621],[29.8576,-30.0995,856.3854],[29.8541,-30.0958,883.2611],[29.8498,-30.094,908.4044],[29.8378,-30.0985,906.2759],[29.829,-30.095,909.2172],[29.8274,-30.088,904.4524],[29.8329,-30.0831,928.6904],[29.8332,-30.0811,914.3776],[29.8307,-30.0793,913.2783],[29.8284,-30.073,915.6348],[29.825,-30.0708,924.7156],[29.8205,-30.0712,936.2471],[29.8144,-30.0676,926.2026],[29.8099,-30.055,932.7108],[29.8059,-30.0548,936.0678],[29.7999,-30.0646,942.7305],[29.7973,-30.0635,938.7498],[29.7959,-30.0572,938.4385],[29.7934,-30.0555,942.6046],[29.7904,-30.0569,939.4454],[29.7879,-30.0611,943.521],[29.7774,-30.0626,949.0594],[29.7715,-30.0615,954.3091],[29.769,-30.0646,962.9262],[29.7686,-30.0696,991.8745],[29.7611,-30.071,1012.9154],[29.7534,-30.0767,993.3155]]]]}}