{"type":"Feature","properties":{"GID_3":"ZAF.2.4.5_1","GID_0":"ZAF","country":"SouthAfrica","GID_1":"ZAF.2_1","province":"FreeState","NL_NAME_1":"NA","GID_2":"ZAF.2.4_1","county":"ThaboMofutsanyane","NL_NAME_2":"NA","city":"Phumelela","VARNAME_3":"NA","NL_NAME_3":"NA","TYPE_3":"LocalMunicipality","ENGTYPE_3":"LocalMunicipality","CC_3":"FS195","HASC_3":"NA","name":"Phumelela.city"},
"geometry":{"type": "MultiPolygon","coordinates": [[[[28.7959,-27.8877,1570.8593],[28.7877,-27.8988,1600.7805],[28.7679,-27.8887,1603.6893],[28.7463,-27.8978,1689.35],[28.7214,-27.9182,1682.21],[28.7414,-27.9509,1648.6996],[28.738,-27.9761,1726.0703],[28.7551,-27.9904,1687.3525],[28.7575,-27.9771,1712.3704],[28.7937,-27.9857,1659.5979],[28.7884,-28.016,1618.8975],[28.8048,-28.0198,1625.9937],[28.7969,-28.0506,1706.83],[28.7787,-28.0783,1735.1072],[28.7919,-28.1092,1607.1221],[28.7843,-28.1081,1608.8098],[28.7835,-28.1195,1637.4994],[28.7707,-28.1174,1631.6862],[28.7698,-28.1246,1617.6287],[28.7827,-28.13,1670.5171],[28.8358,-28.1289,1661.8468],[28.8373,-28.1319,1668.7891],[28.8477,-28.1247,1679.967],[28.8791,-28.1377,1594.0905],[28.8824,-28.1318,1590.1932],[28.8838,-28.1245,1593.2357],[28.9113,-28.1253,1584.2554],[28.9106,-28.1206,1602.8018],[28.9039,-28.113,1585.5747],[28.9394,-28.1045,1622.7771],[28.9374,-28.0905,1641.6763],[28.963,-28.0834,1696.8298],[28.9615,-28.0745,1678.567],[28.9989,-28.0745,1665.3098],[29.0063,-28.0225,1615.7351],[29.0078,-28.02,1598.4036],[29.0101,-28.0225,1598.8726],[29.0132,-28.0223,1599.2637],[29.0149,-28.0193,1603.1722],[29.0183,-28.0232,1611.4009],[29.0184,-28.021,1599.0679],[29.025,-28.0198,1600.0273],[29.028199999999998,-28.0164,1600.7949],[29.0339,-28.0183,1601.9994],[29.0361,-28.0176,1607.9929],[29.0447,-28.0219,1601.3657],[29.0553,-28.0223,1600.8762],[29.0592,-28.0251,1606.1702],[29.0659,-28.0222,1600.7856],[29.0776,-28.0312,1613.8101],[29.076,-28.0343,1605.927],[29.0824,-28.0365,1604.8999],[29.0838,-28.0388,1604.4557],[29.0809,-28.0425,1611.1392],[29.0827,-28.0442,1606.9243],[29.0855,-28.0423,1605.6439],[29.0851,-28.0463,1617.104],[29.088,-28.0462,1607.3013],[29.0928,-28.0427,1608.101],[29.0956,-28.0457,1608.3903],[29.1086,-28.0472,1612.8885],[29.1113,-28.0505,1608.3292],[29.1118,-28.0585,1617.4337],[29.1143,-28.0601,1613.1969],[29.1173,-28.0565,1619.0259],[29.1172,-28.0538,1612.4659],[29.1149,-28.0516,1612.1082],[29.1176,-28.0492,1610.2673],[29.1173,-28.0423,1613.4316],[29.1278,-28.0427,1611.6594],[29.1252,-28.0381,1613.6135],[29.1313,-28.0362,1634.8622],[29.1295,-28.0337,1635.171],[29.1302,-28.0313,1632.1975],[29.1327,-28.0307,1625.0693],[29.1328,-28.0261,1616.0341],[29.1368,-28.027,1618.009],[29.1391,-28.0249,1621.5166],[29.1436,-28.0242,1625.4951],[29.1477,-28.0259,1616.5731],[29.1522,-28.025,1626.6516],[29.1512,-28.0215,1621.6886],[29.1556,-28.0178,1618.0947],[29.1572,-28.0137,1621.7869],[29.1611,-28.0118,1619.8354],[29.1659,-28.0138,1621.38],[29.1686,-28.0121,1621.8571],[29.1773,-28.0133,1624.6055],[29.1854,-28.0187,1628.8945],[29.1877,-28.0166,1629.0051],[29.197,-28.0165,1631.2639],[29.2031,-27.9892,1686.2676],[29.2071,-27.9806,1700.1396],[29.2135,-27.9729,1730.9183],[29.2221,-27.9769,1761.7356],[29.2404,-27.9897,1702.8939],[29.2318,-28.0042,1667.5951],[29.2593,-28.0246,1651.0214],[29.2708,-27.9967,1786.5852],[29.2785,-27.9995,1681.6077],[29.2795,-27.9974,1656.5962],[29.2856,-27.9946,1657.6707],[29.2906,-27.9984,1660.0469],[29.2916,-27.9914,1655.8457],[29.2964,-27.9966,1655.7844],[29.2983,-27.9914,1656.5753],[29.302,-27.9918,1655.9832],[29.2992,-27.9881,1656.2661],[29.3018,-27.9845,1663.0486],[29.3138,-27.9927,1731.5219],[29.3086,-27.9963,1700.5491],[29.3088,-28.0079,1762.8484],[29.3111,-28.0115,1786.3683],[29.3145,-28.0728,1732.0728],[29.3249,-28.0798,1742.2114],[29.3191,-28.0858,1747.2347],[29.331,-28.0959,1744.2002],[29.3678,-28.111,1843.8127],[29.3668,-28.1157,1835.1504],[29.3805,-28.1203,1875.5443],[29.4051,-28.078,2008.4854],[29.465,-28.1155,1911.0812],[29.5278,-28.1616,2133.4741],[29.536,-28.1624,2214.5068],[29.564,-28.1891,1802.5446],[29.52,-28.2206,1824.1375],[29.5101,-28.2568,1742.0242],[29.5099,-28.2654,1720.2786],[29.5506,-28.2472,1740.406],[29.5587,-28.2583,1758.4203],[29.6198,-28.2412,1784.822],[29.6244,-28.225,1860.8154],[29.6096,-28.215,1831.6213],[29.6263,-28.1857,1918.9664],[29.6628,-28.1772,1830.0269],[29.6633,-28.142,1892.2695],[29.6541,-28.1383,1904.6117],[29.6606,-28.1261,1876.7861],[29.6526,-28.0988,1853.6477],[29.6555,-28.09,1851.8206],[29.6318,-28.069,1916.6262],[29.6169,-28.0468,2096.9819],[29.6394,-28.0156,1858.6007],[29.6359,-27.9945,1932.9542],[29.6508,-27.9667,1959.9727],[29.6636,-27.9573,1988.0555],[29.6737,-27.9576,1965.2249],[29.6768,-27.9595,1985.8452],[29.6798,-27.9574,1987.1995],[29.6732,-27.9432,1983.335],[29.6646,-27.9418,1981.1649],[29.6576,-27.9374,1990.0684],[29.6632,-27.93,1980.4248],[29.6578,-27.9245,2000.7402],[29.6538,-27.9233,2008.5175],[29.6567,-27.9189,2003.9594],[29.6641,-27.9213,1972.1099],[29.6717,-27.917,1972.0055],[29.678,-27.9088,1962.7522],[29.682,-27.9068,1959.4634],[29.6903,-27.8957,1933.1227],[29.6869,-27.8907,1937.4037],[29.6827,-27.888,1938.6471],[29.683,-27.8836,1966.2935],[29.6859,-27.8831,1958.1313],[29.6872,-27.878,1917.0144],[29.685,-27.8675,1850.3888],[29.6896,-27.8644,1893.4521],[29.6871,-27.8585,1924.936],[29.699,-27.8598,1973.3784],[29.7028,-27.8566,1946.9016],[29.6969,-27.8437,1977.4945],[29.6931,-27.8393,2000.8611],[29.6938,-27.8323,1977.3085],[29.6963,-27.8291,1935.1589],[29.697,-27.8245,1850.2349],[29.7022,-27.8222,1871.965],[29.7038,-27.8189,1851.4441],[29.7095,-27.8157,1895.4788],[29.7134,-27.8181,1882.3865],[29.716,-27.8147,1911.5416],[29.7217,-27.8118,1897.3728],[29.7229,-27.8128,1897.3728],[29.7293,-27.812,1892.1252],[29.7313,-27.8081,1930.657],[29.7283,-27.801,1979.4069],[29.724,-27.7968,1963.8574],[29.7108,-27.7956,1982.6978],[29.7115,-27.7927,1973.9113],[29.7175,-27.7875,1958.9016],[29.7127,-27.7805,1960.8396],[29.709,-27.7799,1962.5364],[29.7078,-27.7752,1968.8547],[29.7108,-27.7717,1969.1902],[29.7035,-27.7667,1964.7792],[29.703,-27.7614,1967.4312],[29.7083,-27.7572,2006.7349],[29.7047,-27.7469,2137.5095],[29.7091,-27.7389,2011.1946],[29.7103,-27.7302,1960.1392],[29.7086,-27.7262,1960.8964],[29.71,-27.7222,1974.509],[29.7123,-27.7209,1973.4812],[29.7086,-27.7165,1975.8969],[29.709,-27.6985,2041.1757],[29.6997,-27.698,2018.6537],[29.6939,-27.6953,2037.4254],[29.6854,-27.6862,2057.5708],[29.6854,-27.6814,2003.2552],[29.6838,-27.6796,1975.1951],[29.6779,-27.6771,1996.5061],[29.6701,-27.6701,2048.5771],[29.6698,-27.6672,1960.2964],[29.6743,-27.66,1893.848],[29.6712,-27.6505,1864.1021],[29.678,-27.6389,1806.0697],[29.6844,-27.6377,1793.5863],[29.6979,-27.6408,1801.2607],[29.7121,-27.6306,1806.5881],[29.7148,-27.6319,1811.5726],[29.7183,-27.6295,1817.2533],[29.7206,-27.6268,1813.3589],[29.7196,-27.6257,1826.7643],[29.7229,-27.6188,1783.2512],[29.7281,-27.6167,1782.3032],[29.7312,-27.6177,1785.114],[29.7315,-27.613,1794.0913],[29.7348,-27.6071,1793.2538],[29.7402,-27.6056,1793.4341],[29.7489,-27.6137,1784.2474],[29.7522,-27.6051,1751.6013],[29.757,-27.604,1760.5814],[29.7589,-27.6015,1762.4343],[29.7707,-27.5956,1786.0729],[29.774,-27.5951,1798.5278],[29.7808,-27.5994,1794.7067],[29.7851,-27.5967,1794.1641],[29.7796,-27.5873,1785.8942],[29.7808,-27.5791,1829.5331],[29.7838,-27.5735,1913.8501],[29.7804,-27.5595,1785.6912],[29.7721,-27.5534,1794.196],[29.7711,-27.5464,1780.9634],[29.766,-27.5413,1796.6873],[29.7655,-27.5367,1776.3193],[29.7585,-27.5295,1818.1093],[29.7584,-27.5271,1826.584],[29.7449,-27.5255,1749.312],[29.7434,-27.5231,1767.3923],[29.736,-27.5196,1788.827],[29.7246,-27.5243,1797.0879],[29.7124,-27.5184,1799.2764],[29.7092,-27.5136,1795.2712],[29.7109,-27.5101,1788.1204],[29.7105,-27.4987,1750.0839],[29.7216,-27.4883,1749.7168],[29.725,-27.4894,1755.3046],[29.7319,-27.4879,1761.0631],[29.7143,-27.4804,1735.5831],[29.7032,-27.472,1803.2454],[29.7084,-27.4618,1769.176],[29.7169,-27.4649,1761.4138],[29.7352,-27.4508,1935.8824],[29.7587,-27.4426,2234.5369],[29.7446,-27.4326,1885.0098],[29.7325,-27.4309,1808.6331],[29.7214,-27.4328,1792.5486],[29.7197,-27.4383,1800.8245],[29.717,-27.4384,1793.0175],[29.7172,-27.4403,1803.2804],[29.7044,-27.4454,1757.7306],[29.6991,-27.4508,1757.9196],[29.6994,-27.4591,1748.3719],[29.7024,-27.4659,1737.2427],[29.6984,-27.4726,1734.5935],[29.6993,-27.4747,1734.3416],[29.6977,-27.4754,1756.5044],[29.6992,-27.4778,1735.5747],[29.7063,-27.4817,1723.2559],[29.7049,-27.4858,1714.1211],[29.7065,-27.4879,1712.1068],[29.7014,-27.4939,1713.7563],[29.6989,-27.4947,1710.6305],[29.6936,-27.4923,1715.1636],[29.6883,-27.4935,1695.8401],[29.6858,-27.4978,1698.4897],[29.681,-27.5001,1691.9998],[29.6795,-27.4968,1690.0519],[29.6741,-27.498,1692.2092],[29.6669,-27.4959,1688.4631],[29.6551,-27.4962,1698.5436],[29.6505,-27.4998,1687.1575],[29.6494,-27.5042,1687.1792],[29.6368,-27.5047,1689.4786],[29.6297,-27.5023,1694.666],[29.6255,-27.5057,1685.8519],[29.6189,-27.506,1686.3408],[29.6093,-27.4964,1683.9913],[29.6068,-27.4966,1683.9536],[29.604,-27.4942,1683.6121],[29.6049,-27.4854,1682.3931],[29.6018,-27.4816,1682.3369],[29.6039,-27.4802,1682.7141],[29.601,-27.4768,1682.2612],[29.6029,-27.4741,1682.4215],[29.6016,-27.4718,1681.6503],[29.5998,-27.4728,1681.6503],[29.6007,-27.4701,1683.0415],[29.5897,-27.4663,1681.4072],[29.589,-27.4632,1681.2712],[29.5845,-27.4644,1681.0779],[29.5836,-27.4623,1680.4569],[29.5846,-27.4619,1680.4569],[29.581,-27.4607,1680.3135],[29.58,-27.4584,1680.0992],[29.5781,-27.4596,1680.2769],[29.5767,-27.4569,1680.0601],[29.5787,-27.4565,1679.908],[29.5791,-27.4545,1680.2448],[29.5691,-27.4421,1683.3795],[29.5633,-27.4427,1679.1213],[29.5613,-27.4413,1677.7812],[29.5599,-27.4322,1673.9812],[29.5465,-27.4311,1667.5491],[29.55,-27.4241,1666.3022],[29.5425,-27.42,1665.8577],[29.5474,-27.4141,1663.1609],[29.552,-27.4136,1664.045],[29.5492,-27.4092,1661.9716],[29.5489,-27.4047,1660.1826],[29.552,-27.3988,1663.9519],[29.5435,-27.399,1654.795],[29.5416,-27.3915,1660.506],[29.5381,-27.387,1649.9124],[29.5271,-27.3941,1642.0073],[29.5257,-27.3863,1637.9852],[29.5298,-27.3864,1664.2318],[29.5304,-27.3828,1640.4822],[29.5271,-27.3783,1624.4772],[29.5239,-27.3772,1626.105],[29.5184,-27.3779,1625.05],[29.5222,-27.3828,1619.1624],[29.52,-27.3844,1617.3953],[29.5119,-27.3796,1614.0103],[29.5088,-27.3764,1612.0908],[29.5087,-27.3727,1608.7075],[29.5095,-27.3692,1607.3345],[29.5124,-27.3678,1608.2866],[29.5052,-27.365,1606.834],[29.5029,-27.3582,1602.8265],[29.4865,-27.3628,1598.7961],[29.4828,-27.36,1595.4634],[29.483,-27.3569,1595.786],[29.4871,-27.3506,1587.9399],[29.4848,-27.347,1593.4655],[29.4899,-27.3447,1587.0366],[29.4901,-27.3369,1584.5961],[29.4878,-27.3375,1587.302],[29.4865,-27.340699999999998,1586.5358],[29.4837,-27.3388,1585.6466],[29.4864,-27.3274,1581.793],[29.4833,-27.3281,1576.6304],[29.4826,-27.3322,1584.5894],[29.4807,-27.3328,1572.957],[29.4694,-27.3248,1568.6882],[29.4702,-27.3204,1564.4166],[29.4676,-27.3156,1576.5251],[29.4722,-27.3095,1547.7604],[29.4697,-27.3036,1551.3572],[29.4709,-27.3015,1543.3102],[29.4687,-27.3015,1543.5326],[29.47,-27.3003,1543.8718],[29.4687,-27.2987,1543.5179],[29.4663,-27.299,1542.7515],[29.4637,-27.2877,1541.5302],[29.4617,-27.2853,1542.2386],[29.4611,-27.2867,1541.3787],[29.4591,-27.2863,1545.9929],[29.4603,-27.2844,1543.2731],[29.4565,-27.2842,1541.1566],[29.4566,-27.2815,1541.5068],[29.4548,-27.2826,1546.144],[29.4552,-27.2796,1541.1483],[29.4533,-27.277,1540.4531],[29.4517,-27.2763,1540.4531],[29.4506,-27.2781,1540.3723],[29.4507,-27.2748,1540.079],[29.4483,-27.2754,1541.4991],[29.4481,-27.273,1543.701],[29.4434,-27.2669,1540.2739],[29.4395,-27.2677,1542.1781],[29.4364,-27.261,1539.5027],[29.4357,-27.2628,1538.7311],[29.4343,-27.2613,1538.3641],[29.432,-27.2622,1538.0417],[29.4282,-27.2539,1539.2106],[29.4248,-27.2547,1537.5015],[29.4265,-27.2563,1540.3992],[29.4233,-27.2576,1538.9655],[29.4213,-27.2566,1544.6877],[29.422,-27.254,1540.2429],[29.4194,-27.2554,1556.2147],[29.4151,-27.2505,1539.1115],[29.4107,-27.2523,1537.2483],[29.4043,-27.2523,1538.2283],[29.4015,-27.2496,1549.266],[29.4002,-27.2429,1536.8083],[29.3909,-27.2427,1542.0404],[29.3869,-27.2436,1539.2092],[29.3902,-27.2477,1541.3672],[29.3875,-27.2499,1539.6853],[29.3863,-27.2489,1535.3982],[29.389,-27.2475,1535.917],[29.3884,-27.246,1535.8923],[29.3845,-27.249,1537.1101],[29.3807,-27.2474,1547.4436],[29.3751,-27.251,1535.6665],[29.3698,-27.2515,1550.4631],[29.3619,-27.247,1535.0159],[29.3532,-27.2498,1537.3013],[29.3427,-27.2485,1537.3602],[29.3397,-27.252,1565.2307],[29.3408,-27.2604,1547.8036],[29.3392,-27.2637,1535.2501],[29.3312,-27.2634,1536.715],[29.3253,-27.2521,1532.9097],[29.3281,-27.2466,1533.3522],[29.3321,-27.2446,1532.4008],[29.3352,-27.2398,1535.7529],[29.3344,-27.2364,1532.616],[29.3382,-27.2351,1531.5824],[29.3361,-27.232,1531.0461],[29.3321,-27.2305,1544.3297],[29.3362,-27.2267,1531.3086],[29.3335,-27.2239,1531.1766],[29.3351,-27.2226,1530.0598],[29.3365,-27.2246,1531.1924],[29.3377,-27.2239,1530.3342],[29.3356,-27.2219,1530.0598],[29.3371,-27.2181,1529.8337],[29.3359,-27.2145,1530.6255],[29.3355,-27.2173,1531.1437],[29.3329,-27.217,1530.085],[29.3329,-27.2191,1529.5782],[29.3315,-27.2182,1531.4531],[29.3341,-27.2141,1529.6899],[29.3311,-27.213,1531.1216],[29.3312,-27.2103,1528.8573],[29.3351,-27.2074,1529.1124],[29.3308,-27.208,1528.4211],[29.3299,-27.2036,1557.4932],[29.3255,-27.2085,1529.0283],[29.3112,-27.2113,1529.8956],[29.312,-27.2141,1527.9656],[29.309,-27.2162,1527.8827],[29.3005,-27.2119,1527.9501],[29.3019,-27.2097,1527.2855],[29.2988,-27.2092,1527.6379],[29.2972,-27.2058,1527.4602],[29.298,-27.2041,1526.6821],[29.2954,-27.2031,1527.0472],[29.2957,-27.201,1527.0771],[29.2917,-27.1996,1526.806],[29.2887,-27.1965,1526.2739],[29.2876,-27.1927,1525.116],[29.2849,-27.1925,1525.2053],[29.2871,-27.1911,1525.2753],[29.2864,-27.1903,1525.4191],[29.2841,-27.1907,1525.182],[29.2839,-27.1936,1524.0188],[29.2819,-27.1921,1524.5127],[29.285,-27.195,1525.1644],[29.2819,-27.1996,1525.0588],[29.2807,-27.1989,1524.8806],[29.282,-27.195,1524.4202],[29.2767,-27.1943,1524.3107],[29.2732,-27.1956,1523.9156],[29.2747,-27.1927,1528.7212],[29.2722,-27.1916,1523.6213],[29.2719,-27.1962,1523.6555],[29.2682,-27.1983,1526.2823],[29.2683,-27.1961,1524.7328],[29.2708,-27.1958,1523.6555],[29.2694,-27.1929,1523.1675],[29.2703,-27.1893,1523.1545],[29.2657,-27.1916,1522.8291],[29.2682,-27.1849,1522.334],[29.2668,-27.184,1522.6605],[29.2658,-27.1868,1522.4073],[29.2633,-27.1874,1522.4548],[29.2602,-27.1838,1522.1688],[29.2629,-27.183,1523.2904],[29.2604,-27.1813,1522.2114],[29.2583,-27.1843,1522.282],[29.2563,-27.1946,1526.8152],[29.2535,-27.194,1522.8768],[29.2541,-27.1897,1523.1298],[29.2463,-27.192,1521.907],[29.2453,-27.1909,1521.6892],[29.2465,-27.1885,1523.4443],[29.2443,-27.1862,1523.1394],[29.2426,-27.1861,1520.6895],[29.2419,-27.1884,1520.1842],[29.2396,-27.1863,1521.0724],[29.2406,-27.1846,1520.5449],[29.2434,-27.1852,1520.6895],[29.2437,-27.1835,1524.4758],[29.2412,-27.1823,1520.8811],[29.2347,-27.1832,1524.8932],[29.2365,-27.1776,1521.2158],[29.2355,-27.1731,1522.9524],[29.2298,-27.1672,1518.915],[29.2307,-27.1604,1518.4786],[29.2281,-27.1611,1517.4832],[29.2286,-27.1568,1518.1866],[29.227,-27.1553,1524.0829],[29.2292,-27.151,1519.144],[29.2271,-27.1499,1519.3279],[29.2278,-27.1471,1518.4348],[29.2239,-27.1447,1519.106],[29.2158,-27.1476,1517.5555],[29.2097,-27.1424,1518.5474],[29.204,-27.1449,1518.2217],[29.195,-27.1402,1517.4276],[29.1927,-27.1371,1520.5173],[29.1926,-27.1403,1517.4767],[29.1897,-27.1409,1517.844],[29.1902,-27.1432,1518.2324],[29.1831,-27.1454,1516.8322],[29.1798,-27.1441,1516.4033],[29.1782,-27.1465,1516.3992],[29.1701,-27.1414,1515.7778],[29.1595,-27.1431,1515.7668],[29.1588,-27.1461,1514.9448],[29.1562,-27.1449,1515.6414],[29.1527,-27.146,1515.511],[29.151,-27.1519,1516.3818],[29.1474,-27.1491,1514.6321],[29.146,-27.1528,1514.7227],[29.1417,-27.1538,1515.2235],[29.1377,-27.1524,1514.0557],[29.1363,-27.1546,1514.6268],[29.138,-27.1584,1514.3225],[29.1372,-27.1612,1514.3076],[29.1334,-27.1626,1514.5781],[29.1321,-27.1602,1513.9507],[29.1316,-27.1624,1514.9904],[29.1296,-27.1628,1514.5073],[29.1296,-27.1684,1513.6713],[29.1269,-27.169,1513.9425],[29.1265,-27.1671,1513.1699],[29.1244,-27.1672,1513.1217],[29.121,-27.1716,1513.2662],[29.1171,-27.1725,1513.8225],[29.1137,-27.1632,1512.212],[29.1141,-27.1589,1513.5955],[29.1121,-27.1528,1512.7373],[29.1134,-27.1496,1512.1361],[29.1106,-27.1477,1511.4978],[29.1075,-27.1419,1511.5505],[29.1014,-27.1372,1511.5055],[29.1018,-27.1342,1511.2709],[29.1054,-27.1338,1511.0507],[29.104,-27.1303,1513.2749],[29.0992,-27.1269,1510.9304],[29.097,-27.1227,1511.3651],[29.0917,-27.1211,1510.4492],[29.0927,-27.1182,1509.137],[29.0888,-27.1185,1510.175],[29.0862,-27.116,1509.9265],[29.0886,-27.113,1509.7858],[29.0857,-27.1103,1509.3109],[29.0864,-27.1067,1509.3473],[29.0833,-27.1054,1508.8423],[29.0777,-27.0926,1508.6803],[29.0737,-27.0908,1508.3331],[29.0718,-27.0857,1509.8411],[29.0673,-27.0855,1507.688],[29.0647,-27.0837,1509.5632],[29.0619,-27.0853,1507.4937],[29.0557,-27.0813,1508.0367],[29.0557,-27.0787,1507.7725],[29.0609,-27.0785,1507.8971],[29.0621,-27.0755,1507.6418],[29.061,-27.0718,1507.2979],[29.0654,-27.0651,1506.9114],[29.0674,-27.0647,1506.0803],[29.0682,-27.0674,1506.3516],[29.0701,-27.0678,1506.9316],[29.072,-27.0659,1506.0408],[29.0708,-27.064,1506.4161],[29.0733,-27.065,1508.7651],[29.0742,-27.0635,1506.2356],[29.0708,-27.0601,1506.9148],[29.072,-27.0563,1505.4689],[29.0683,-27.055,1507.3704],[29.0618,-27.0489,1505.085],[29.0615,-27.046,1504.9938],[29.0649,-27.0428,1506.1445],[29.0533,-27.0335,1504.1753],[29.0536,-27.0299,1503.7195],[29.0597,-27.018,1504.6432],[29.0572,-27.0093,1502.1466],[29.0445,-27.004,1502.6357],[29.0388,-27.0048,1502.3217],[29.0388,-27.0225,1502.0593],[29.0352,-27.0273,1503.6869],[29.0312,-27.029,1505.4564],[29.0262,-27.0221,1502.5388],[29.0281,-27.0184,1502.2622],[29.027,-27.0164,1503.08],[29.0227,-27.0153,1503.9603],[29.0151,-27.01,1504.3787],[29.0017,-27.0506,1544.6198],[28.9965,-27.0797,1550.6753],[29.0034,-27.1093,1555.6301],[29.0055,-27.1097,1558.7559],[28.998,-27.1466,1568.9907],[29.0056,-27.1669,1587.0808],[29.0024,-27.167,1577.401],[29.004,-27.1802,1534.0283],[28.9973,-27.1823,1536.1379],[28.9787,-27.2063,1603.2173],[28.982,-27.2155,1614.3635],[28.9942,-27.2176,1603.812],[28.9819,-27.2357,1632.55],[29.0063,-27.2488,1556.6432],[29.003,-27.2533,1557.8538],[29.0027,-27.2611,1561.5485],[28.9795,-27.2561,1666.3995],[28.9788,-27.2541,1647.8022],[28.9674,-27.2573,1655.4602],[28.9643,-27.2619,1670.5481],[28.967,-27.28,1616.9299],[28.957,-27.2847,1643.9604],[28.9374,-27.2877,1685.407],[28.9169,-27.3458,1712.1007],[28.9274,-27.4025,1769.2587],[28.9228,-27.4199,1753.7518],[28.9128,-27.4131,1702.4454],[28.9001,-27.4074,1760.9364],[28.8912,-27.4075,1746.349],[28.8808,-27.4435,1681.1387],[28.8677,-27.4348,1667.1489],[28.8644,-27.4468,1654.4812],[28.8302,-27.4523,1646.2445],[28.8356,-27.4799,1666.7041],[28.8173,-27.4655,1630.075],[28.7855,-27.4625,1599.6141],[28.7711,-27.4839,1670.3446],[28.7739,-27.5315,1598.7424],[28.771,-27.5337,1596.7622],[28.7456,-27.5337,1522.2549],[28.7435,-27.5403,1517.3529],[28.7374,-27.5464,1515.0005],[28.7379,-27.5491,1519.1099],[28.7409,-27.5496,1516.4855],[28.7428,-27.5521,1516.8347],[28.7437,-27.5618,1521.6465],[28.7455,-27.5635,1516.2417],[28.7413,-27.5831,1520.9553],[28.7425,-27.5869,1518.6517],[28.737,-27.5917,1518.9308],[28.736,-27.5948,1522.6731],[28.7397,-27.5982,1518.4924],[28.7429,-27.5987,1519.0413],[28.747,-27.6044,1519.1632],[28.7325,-27.6081,1520.9194],[28.7279,-27.6139,1529.1714],[28.7163,-27.6191,1530.2762],[28.7167,-27.622,1528.2714],[28.7225,-27.6248,1546.8419],[28.7305,-27.6206,1528.1555],[28.736,-27.6211,1558.9624],[28.7346,-27.6258,1530.6035],[28.7384,-27.6342,1536.0942],[28.7327,-27.6385,1531.8051],[28.7324,-27.6415,1534.6676],[28.7394,-27.641,1539.9559],[28.7506,-27.6452,1529.0107],[28.7489,-27.653,1541.8447],[28.7576,-27.6591,1533.843],[28.7563,-27.6656,1533.3018],[28.759,-27.6695,1543.7834],[28.7589,-27.672,1536.2217],[28.7686,-27.6743,1552.4495],[28.7722,-27.678,1537.5092],[28.7726,-27.6828,1553.4329],[28.7811,-27.6871,1541.4448],[28.7827,-27.6899,1549.4668],[28.7825,-27.6953,1539.8423],[28.778,-27.7004,1542.3964],[28.7709,-27.6982,1542.449],[28.764,-27.7043,1543.207],[28.754,-27.7014,1544.9399],[28.7388,-27.7094,1542.3909],[28.7408,-27.7126,1543.9209],[28.7435,-27.7135,1547.4443],[28.754,-27.7106,1561.4917],[28.7491,-27.7227,1544.1023],[28.7443,-27.7277,1545.7491],[28.7466,-27.738,1546.2489],[28.7494,-27.7398,1548.5646],[28.7604,-27.7356,1558.6594],[28.764,-27.7362,1557.8654],[28.7679,-27.743,1546.8931],[28.7639,-27.7453,1548.5212],[28.7611,-27.7542,1566.0121],[28.7678,-27.7604,1548.2979],[28.7713,-27.7614,1557.9723],[28.7751,-27.7594,1557.3827],[28.7788,-27.7623,1551.1782],[28.7784,-27.7672,1562.6238],[28.781,-27.7712,1571.4014],[28.7807,-27.7738,1570.1022],[28.7768,-27.775,1553.3202],[28.7676,-27.7711,1557.5774],[28.7661,-27.7743,1555.2733],[28.7666,-27.7795,1552.3979],[28.7562,-27.7815,1551.9041],[28.7524,-27.7842,1567.3134],[28.7537,-27.7897,1558.4944],[28.756,-27.7921,1553.0974],[28.7693,-27.7957,1554.3026],[28.7664,-27.8111,1565.2998],[28.7703,-27.8132,1566.2991],[28.7814,-27.811,1565.0114],[28.7833,-27.8151,1560.6046],[28.7835,-27.8219,1562.2681],[28.7852,-27.8229,1563.4686],[28.796,-27.8128,1568.8633],[28.8058,-27.8129,1564.6224],[28.8077,-27.815,1564.7721],[28.8074,-27.8211,1565.369],[28.8045,-27.8281,1564.0713],[28.7927,-27.8385,1565.049],[28.7879,-27.8402,1564.9916],[28.7787,-27.8338,1571.2263],[28.7751,-27.833,1565.3346],[28.7709,-27.8347,1567.5546],[28.7683,-27.8402,1565.4109],[28.7729,-27.8466,1564.9615],[28.7843,-27.8456,1569.9865],[28.782,-27.8538,1565.8242],[28.7839,-27.8573,1565.9089],[28.7847,-27.868,1566.9467],[28.7829,-27.8726,1569.8492],[28.7768,-27.8782,1566.323],[28.7959,-27.8877,1570.8593]]]]}}