{"type":"Feature","properties":{"GID_3":"ZAF.1.8.3_1","GID_0":"ZAF","country":"SouthAfrica","GID_1":"ZAF.1_1","province":"EasternCape","NL_NAME_1":"NA","GID_2":"ZAF.1.8_1","county":"O.R.Tambo","NL_NAME_2":"NA","city":"NgquzaHill","VARNAME_3":"NA","NL_NAME_3":"NA","TYPE_3":"LocalMunicipality","ENGTYPE_3":"LocalMunicipality","CC_3":"EC153","HASC_3":"NA","name":"Ngquza_Hill.city"},
"geometry":{"type": "MultiPolygon","coordinates": [[[[29.9613,-31.3182,16.673],[29.9751,-31.3193,1.3791],[29.9832,-31.3162,0.0],[29.9857,-31.3135,0.0],[29.9901,-31.3124,0.0],[29.999,-31.3065,0.0],[29.999,-31.3046,0.0],[30.0043,-31.299,8.2233],[30.0068,-31.2985,1.0859],[30.0132,-31.2926,3.0122],[30.0135,-31.2882,0.5023],[30.0107,-31.2871,2.2235],[30.0163,-31.2849,0.0],[30.0254,-31.2751,15.123],[30.0332,-31.2707,4.3334],[30.0382,-31.2657,0.1708],[30.0399,-31.2626,2.9664],[30.0388,-31.2612,8.3826],[30.0446,-31.2582,0.0],[30.0449,-31.2526,0.7957],[30.0471,-31.2493,0.0],[30.039,-31.2424,0.0],[30.0459,-31.2465,0.0],[30.0395,-31.2419,0.0],[30.0277,-31.2369,19.6091],[30.0202,-31.2314,13.3325],[30.018,-31.2312,26.8023],[30.0151,-31.2341,8.5938],[30.0119,-31.2336,29.3449],[30.0095,-31.2279,100.3205],[30.004,-31.224,46.6145],[29.9947,-31.2188,89.4713],[29.9838,-31.2158,83.5526],[29.9736,-31.2091,144.5487],[29.97,-31.2091,72.9867],[29.966,-31.2114,177.8258],[29.9636,-31.2106,85.1642],[29.9582,-31.203,75.7862],[29.9487,-31.1972,83.5034],[29.9496,-31.195,98.3775],[29.9538,-31.1926,112.2256],[29.9512,-31.1859,103.3095],[29.9475,-31.1858,104.9032],[29.942,-31.1884,124.0347],[29.9359,-31.186,118.7042],[29.9401,-31.1803,109.2798],[29.9344,-31.1807,126.8161],[29.932,-31.1778,181.1128],[29.9217,-31.1816,158.856],[29.9166,-31.1784,134.7517],[29.9123,-31.178,232.8955],[29.9116,-31.1757,132.9302],[29.9154,-31.1708,136.7916],[29.913,-31.1694,171.5605],[29.9061,-31.1735,155.495],[29.9052,-31.1756,147.1929],[29.9065,-31.1796,222.4997],[29.9047,-31.1796,170.0696],[29.892,-31.1739,155.039],[29.8871,-31.1627,212.2811],[29.8824,-31.1672,165.685],[29.8746,-31.1628,179.8076],[29.8661,-31.1644,176.2798],[29.8658,-31.1623,170.2242],[29.8703,-31.1576,191.337],[29.8665,-31.1542,184.1437],[29.8604,-31.1533,209.7083],[29.8635,-31.1493,199.2607],[29.8627,-31.1479,195.8813],[29.8511,-31.1464,181.172],[29.8453,-31.1487,186.6265],[29.8366,-31.1483,191.8494],[29.8367,-31.1454,183.9532],[29.8452,-31.1427,184.4332],[29.8466,-31.1356,188.8486],[29.8441,-31.1316,190.0071],[29.8399,-31.1309,208.3059],[29.832,-31.1354,197.9054],[29.8286,-31.1356,211.2225],[29.8261,-31.1336,196.4002],[29.8288,-31.1315,208.6076],[29.8269,-31.1292,226.2274],[29.8223,-31.135,218.6584],[29.8186,-31.1368,232.5312],[29.8142,-31.1322,248.4533],[29.8087,-31.1409,211.2773],[29.8046,-31.1431,244.0863],[29.803,-31.1401,260.9482],[29.8044,-31.1347,219.308],[29.8033,-31.1308,221.7319],[29.7972,-31.1303,223.4626],[29.8001,-31.119,242.2547],[29.7971,-31.1157,276.1805],[29.7943,-31.1166,238.012],[29.7947,-31.1213,237.6733],[29.7914,-31.1235,252.395],[29.7874,-31.1233,286.1628],[29.7859,-31.1181,246.7072],[29.7827,-31.1202,267.8573],[29.7844,-31.1273,250.2979],[29.7813,-31.1295,253.5277],[29.7788,-31.1286,253.8492],[29.7741,-31.121,266.377],[29.7664,-31.119,268.2764],[29.7615,-31.1194,352.4849],[29.7604,-31.1234,280.0559],[29.7623,-31.1266,271.0826],[29.7697,-31.1297,274.2864],[29.7692,-31.1323,276.4441],[29.767,-31.1333,315.7587],[29.7653,-31.1335,295.4087],[29.7616,-31.1295,279.0723],[29.7551,-31.1304,284.4525],[29.7486,-31.1284,286.2156],[29.7454,-31.1295,287.93],[29.7434,-31.1232,289.9109],[29.7377,-31.1287,331.733],[29.7364,-31.1244,296.2496],[29.7391,-31.12,301.3193],[29.7348,-31.1119,361.726],[29.7411,-31.1066,313.8637],[29.7297,-31.0965,319.2247],[29.726,-31.0869,322.5922],[29.7167,-31.0834,330.5111],[29.7083,-31.0834,400.8795],[29.7076,-31.0803,339.1648],[29.6995,-31.0759,427.313],[29.6958,-31.0803,384.4968],[29.6994,-31.0842,363.187],[29.6914,-31.0876,371.0533],[29.687,-31.0815,380.7577],[29.6884,-31.0777,382.0883],[29.688,-31.0728,380.0786],[29.6811,-31.0686,394.255],[29.6778,-31.0597,393.1294],[29.6752,-31.0594,423.6599],[29.6725,-31.0625,402.4308],[29.6631,-31.0628,411.3964],[29.6616,-31.0604,423.2091],[29.6581,-31.0604,419.891],[29.6569,-31.0636,460.4136],[29.6534,-31.0607,463.6013],[29.6504,-31.0643,438.1408],[29.6488,-31.0624,461.5783],[29.6453,-31.0631,484.3844],[29.6377,-31.059,484.8453],[29.6338,-31.0614,495.9825],[29.6324,-31.0592,478.9431],[29.6293,-31.0586,494.4485],[29.6293,-31.062,494.2363],[29.6259,-31.0607,497.1232],[29.6246,-31.0616,525.7722],[29.6229,-31.0582,501.4562],[29.6266,-31.0582,510.3174],[29.6217,-31.0516,561.787],[29.6222,-31.0489,536.3218],[29.6192,-31.0459,543.5056],[29.6123,-31.0429,596.9023],[29.6103,-31.0444,550.3934],[29.6075,-31.0431,555.7609],[29.6054,-31.045,585.3007],[29.6025,-31.0447,575.6782],[29.599,-31.0434,581.2411],[29.599,-31.0416,572.2775],[29.5962,-31.0425,575.6869],[29.5936,-31.0393,623.4802],[29.5841,-31.0379,624.9336],[29.5848,-31.0284,662.5917],[29.59,-31.0273,681.6378],[29.591,-31.025,693.4677],[29.5925,-31.025,685.3308],[29.5918,-31.0184,713.2712],[29.5857,-31.0184,767.2766],[29.5864,-31.0158,759.2538],[29.5842,-31.0139,764.8174],[29.585,-31.01,786.6973],[29.5827,-31.0079,805.3259],[29.5829,-31.0038,803.9009],[29.5754,-30.9971,839.692],[29.5744,-30.9942,851.8473],[29.5918,-30.9905,810.8886],[29.6065,-30.9906,702.8924],[29.6075,-30.9879,703.3717],[29.6064,-30.986,715.9753],[29.6087,-30.9865,724.8063],[29.6097,-30.983,737.337],[29.6043,-30.9802,775.5966],[29.6021,-30.9809,755.7985],[29.6007,-30.9788,771.8931],[29.5983,-30.9795,773.4255],[29.5929,-30.9737,812.2146],[29.5907,-30.9736,818.5773],[29.5898,-30.9698,832.6949],[29.5862,-30.9706,839.7167],[29.5844,-30.9661,856.2662],[29.5813,-30.9661,867.6028],[29.578,-30.9621,884.7043],[29.5586,-30.9568,944.1821],[29.5529,-30.9507,968.6375],[29.5538,-30.9461,944.7982],[29.5491,-30.9429,934.7982],[29.5383,-30.9431,897.2679],[29.5333,-30.9391,886.4034],[29.5325,-30.9331,861.1093],[29.5266,-30.938,858.2574],[29.5192,-30.9341,955.1161],[29.5289,-30.9268,912.5145],[29.5208,-30.9297,888.7919],[29.5159,-30.9282,862.0657],[29.5088,-30.9316,825.9215],[29.4945,-30.9205,887.8975],[29.4906,-30.9233,934.6154],[29.4907,-30.9289,990.8702],[29.4895,-30.9294,996.4938],[29.4831,-30.9267,1011.1809],[29.4854,-30.9183,1066.4647],[29.4841,-30.916,1052.5718],[29.4824,-30.9149,1052.5718],[29.4805,-30.9183,1012.6374],[29.4781,-30.9194,951.4096],[29.471,-30.9134,1055.6429],[29.4678,-30.9137,1088.191],[29.4615,-30.9179,1136.8104],[29.4547,-30.9301,947.8237],[29.4635,-30.9493,790.1674],[29.4624,-30.9527,704.0802],[29.4596,-30.9539,638.7576],[29.4587,-30.9599,615.5273],[29.4526,-30.9664,610.1486],[29.4468,-30.9633,588.3414],[29.4367,-30.9677,645.2263],[29.4312,-30.9743,585.8562],[29.4329,-30.9824,568.9965],[29.4141,-30.9891,596.6436],[29.4156,-30.9984,566.0625],[29.4055,-31.0036,538.5098],[29.406,-31.006,557.6392],[29.4134,-31.0126,557.913],[29.4155,-31.0205,520.3444],[29.4195,-31.0206,515.149],[29.4248,-31.0179,560.9513],[29.4272,-31.0195,515.1554],[29.4236,-31.0414,490.8594],[29.4258,-31.0456,490.0723],[29.433,-31.0506,522.5959],[29.4279,-31.0593,473.4914],[29.4142,-31.0682,454.1298],[29.4095,-31.0742,453.3754],[29.4031,-31.0772,450.9904],[29.3997,-31.0827,453.0538],[29.4018,-31.0858,468.7169],[29.4073,-31.0848,460.8196],[29.4085,-31.0775,440.6963],[29.4102,-31.0763,440.6963],[29.4198,-31.0761,448.9563],[29.4365,-31.0791,427.5117],[29.4377,-31.0826,479.8543],[29.4339,-31.0862,421.5096],[29.4333,-31.089,413.2878],[29.4374,-31.1007,447.5482],[29.4367,-31.1037,409.0077],[29.4331,-31.1065,411.8715],[29.429,-31.1061,404.9803],[29.4248,-31.0975,415.9654],[29.4222,-31.0955,407.3064],[29.4204,-31.0957,484.7665],[29.4171,-31.1003,396.7538],[29.4126,-31.1009,389.7482],[29.4107,-31.0985,387.8946],[29.4155,-31.0944,381.5542],[29.4158,-31.0922,380.59],[29.4089,-31.0904,378.6591],[29.4014,-31.0971,388.473],[29.3989,-31.1052,370.9861],[29.3944,-31.1107,385.3457],[29.3903,-31.1115,402.3607],[29.3828,-31.1088,365.1535],[29.3796,-31.1105,360.5702],[29.3798,-31.1141,356.9359],[29.3851,-31.1174,357.2117],[29.3851,-31.1194,353.9557],[29.3778,-31.1199,352.3265],[29.3701,-31.1282,368.7637],[29.3654,-31.1241,349.6718],[29.3533,-31.1259,337.6259],[29.3513,-31.1311,339.2616],[29.3528,-31.1342,336.4198],[29.365,-31.137,326.1151],[29.3727,-31.1407,317.6238],[29.3748,-31.1425,315.9869],[29.3742,-31.1466,313.46],[29.3708,-31.1491,310.7374],[29.355,-31.1541,305.5422],[29.3449,-31.1653,315.9142],[29.3413,-31.1673,303.5173],[29.3382,-31.1662,302.7968],[29.3349,-31.1606,310.9898],[29.3301,-31.1585,293.139],[29.3222,-31.1598,289.3679],[29.316,-31.1673,283.8304],[29.3139,-31.1775,309.5568],[29.3006,-31.1856,266.8134],[29.2948,-31.1868,277.5795],[29.2873,-31.1826,256.9085],[29.2832,-31.1871,258.9531],[29.2794,-31.2003,269.2343],[29.2796,-31.2051,249.3666],[29.2836,-31.2114,245.3141],[29.2833,-31.215699999999998,244.5052],[29.281,-31.2171,247.8081],[29.2746,-31.2179,250.7934],[29.2661,-31.2166,257.5808],[29.2593,-31.2072,245.0404],[29.2537,-31.194,230.7432],[29.2496,-31.1928,258.8262],[29.2458,-31.195,234.6798],[29.2425,-31.2014,218.5075],[29.2418,-31.2095,217.0947],[29.2434,-31.2134,244.6902],[29.248,-31.2164,214.254],[29.2514,-31.2213,229.301],[29.2519,-31.2308,204.8429],[29.2493,-31.2375,208.9541],[29.2389,-31.2498,195.4941],[29.2361,-31.2653,198.3806],[29.222,-31.2808,179.3589],[29.2251,-31.2852,179.0166],[29.2318,-31.282,184.8162],[29.2352,-31.2864,188.3642],[29.2325,-31.2922,182.9854],[29.2264,-31.2983,171.4863],[29.2269,-31.303,166.0596],[29.2248,-31.3063,202.882],[29.2272,-31.3112,198.5614],[29.2277,-31.317,176.9713],[29.2202,-31.3248,166.9149],[29.2077,-31.3282,155.2927],[29.1971,-31.3338,152.576],[29.1957,-31.3385,149.5],[29.1979,-31.3459,155.4519],[29.2045,-31.3497,179.2835],[29.2218,-31.3478,166.9912],[29.2308,-31.3507,141.6938],[29.2334,-31.3581,141.6094],[29.2315,-31.3637,153.8755],[29.2187,-31.3664,200.68],[29.2111,-31.3648,143.3659],[29.2047,-31.3699,134.1523],[29.2044,-31.3717,145.1628],[29.2071,-31.3748,149.9571],[29.2129,-31.3764,138.4728],[29.2325,-31.3736,124.5081],[29.2398,-31.3765,126.2032],[29.241,-31.3818,121.5155],[29.2325,-31.3894,121.8313],[29.2288,-31.3967,120.7038],[29.233,-31.3987,116.2769],[29.2413,-31.41,126.5066],[29.2445,-31.4109,112.7819],[29.2471,-31.4096,120.0465],[29.2532,-31.4006,125.9932],[29.2712,-31.3953,109.7119],[29.2693,-31.3947,105.4767],[29.2646,-31.3872,144.2286],[29.2702,-31.3839,183.647],[29.2748,-31.3834,185.4948],[29.2809,-31.3778,187.7488],[29.283,-31.3789,177.1832],[29.2891,-31.373,212.8758],[29.2914,-31.3695,187.9741],[29.2857,-31.3684,236.8081],[29.2852,-31.3658,217.2194],[29.2889,-31.3655,236.927],[29.2903,-31.3602,226.8481],[29.2929,-31.3595,231.692],[29.2934,-31.3573,234.8955],[29.2957,-31.3561,238.7086],[29.2959,-31.3488,252.187],[29.2994,-31.3462,267.0339],[29.3011,-31.3404,270.8508],[29.3002,-31.3385,276.8086],[29.3017,-31.3367,285.9777],[29.3091,-31.3358,299.4327],[29.3098,-31.334,307.1664],[29.316,-31.3314,350.4094],[29.3168,-31.3292,330.2122],[29.3223,-31.3266,344.6903],[29.3244,-31.3216,375.4078],[29.3336,-31.3173,391.7858],[29.333,-31.3143,409.2685],[29.3372,-31.3121,412.5216],[29.3371,-31.3101,422.7637],[29.3416,-31.3057,455.4437],[29.345,-31.3031,466.5594],[29.3479,-31.3047,520.9628],[29.354,-31.302,644.0635],[29.3589,-31.2949,881.8749],[29.3625,-31.2943,873.8616],[29.3714,-31.2983,857.9601],[29.373,-31.3032,856.7183],[29.3722,-31.3084,842.5971],[29.368,-31.313,829.8727],[29.3735,-31.3196,827.3819],[29.3773,-31.321,820.2772],[29.3785,-31.3237,803.6732],[29.3833,-31.322,806.3441],[29.386,-31.3234,810.8005],[29.3866,-31.3246,804.6663],[29.384,-31.3276,794.0825],[29.3879,-31.3293,812.9357],[29.3988,-31.3238,763.1913],[29.4094,-31.3159,817.2182],[29.4136,-31.3149,754.8032],[29.416,-31.3075,726.4843],[29.4198,-31.3026,728.4843],[29.4222,-31.3018,709.2208],[29.4296,-31.3039,698.2689],[29.4334,-31.302,686.5279],[29.4319,-31.3003,672.8327],[29.4349,-31.2981,663.9742],[29.4405,-31.2992,650.5278],[29.4407,-31.2962,669.5202],[29.449,-31.2947,621.4805],[29.4541,-31.2987,616.382],[29.455,-31.3012,613.5494],[29.4584,-31.3033,613.8149],[29.4594,-31.302,609.3755],[29.4615,-31.303,609.3623],[29.4574,-31.3082,639.0513],[29.4412,-31.3125,723.9786],[29.4406,-31.3178,756.3234],[29.4452,-31.3213,789.9677],[29.4472,-31.3315,797.6655],[29.4526,-31.3308,724.7816],[29.4606,-31.3351,674.5413],[29.4822,-31.3376,662.5187],[29.4876,-31.3369,639.2625],[29.4862,-31.3325,644.1057],[29.4931,-31.3335,684.4095],[29.4974,-31.33,678.5818],[29.4983,-31.337,707.3223],[29.5014,-31.339,666.1418],[29.5107,-31.340699999999998,645.441],[29.5051,-31.3584,582.1856],[29.5141,-31.36,566.9202],[29.5202,-31.3634,526.8811],[29.5244,-31.3631,492.9493],[29.5233,-31.3655,523.4688],[29.5179,-31.3673,504.1584],[29.5152,-31.3703,511.5521],[29.5141,-31.3638,521.3969],[29.5051,-31.3597,563.6885],[29.5058,-31.3629,560.0571],[29.517,-31.374,474.008],[29.5172,-31.3756,461.8248],[29.5141,-31.3779,463.8935],[29.5179,-31.3816,482.4752],[29.5172,-31.387,458.4472],[29.5136,-31.3895,454.0201],[29.5096,-31.3892,459.6352],[29.5084,-31.3915,453.8441],[29.5135,-31.3913,449.833],[29.5146,-31.3926,449.833],[29.5076,-31.396,448.9443],[29.5068,-31.3982,447.4556],[29.5105,-31.399,474.6418],[29.5159,-31.393,487.6008],[29.52,-31.3941,551.2825],[29.5261,-31.3857,568.7578],[29.5286,-31.3869,517.2446],[29.5294,-31.3962,475.8707],[29.532,-31.4047,437.606],[29.5307,-31.4069,436.9051],[29.5283,-31.4057,480.2743],[29.5373,-31.415,442.4564],[29.5353,-31.4162,418.5579],[29.5368,-31.4182,408.8884],[29.5373,-31.4251,392.3031],[29.5463,-31.4242,382.1562],[29.5459,-31.4287,373.6914],[29.5471,-31.4296,402.7662],[29.5507,-31.4253,362.4292],[29.554,-31.4251,365.6478],[29.5546,-31.4284,370.106],[29.5564,-31.4273,374.6381],[29.5583,-31.4304,380.886],[29.563,-31.4325,335.0824],[29.5637,-31.4298,330.184],[29.5699,-31.4306,278.4888],[29.5717,-31.4377,242.1552],[29.5759,-31.437,245.8148],[29.5816,-31.4326,269.1925],[29.5849,-31.4362,237.0899],[29.583,-31.4409,237.6378],[29.5839,-31.4442,177.4792],[29.5909,-31.4425,175.1697],[29.5912,-31.438,191.1029],[29.5944,-31.4351,167.4391],[29.5941,-31.4393,162.9217],[29.5989,-31.4414,166.566],[29.5972,-31.451,144.5294],[29.5994,-31.4584,130.3832],[29.5987,-31.4595,130.3832],[29.5925,-31.4582,160.9684],[29.5953,-31.4636,124.0423],[29.5943,-31.4652,131.1296],[29.5913,-31.4651,152.328],[29.5919,-31.4684,118.9772],[29.5952,-31.4701,162.3624],[29.601,-31.4661,144.3282],[29.6063,-31.4722,125.5058],[29.6085,-31.4647,104.7292],[29.6154,-31.4645,130.3103],[29.6162,-31.4663,154.1584],[29.6113,-31.4711,134.43],[29.6141,-31.4739,152.5567],[29.6156,-31.479,83.9302],[29.6205,-31.4793,79.9955],[29.6257,-31.4766,75.0821],[29.6282,-31.4815,72.7702],[29.6256,-31.4839,84.791],[29.6291,-31.4877,63.9648],[29.6377,-31.4862,83.1807],[29.6416,-31.4875,53.8371],[29.645,-31.4862,93.893],[29.6454,-31.4894,50.8845],[29.6407,-31.492,36.7978],[29.6484,-31.4971,54.8821],[29.6433,-31.4977,37.743],[29.6432,-31.4999,40.6577],[29.6527,-31.5008,19.8385],[29.653199999999998,-31.4974,24.3919],[29.6554,-31.4971,30.2241],[29.6566,-31.504,46.9604],[29.6586,-31.5061,10.3719],[29.6622,-31.5044,42.4395],[29.6704,-31.5069,5.3912],[29.6717,-31.5104,12.15],[29.6782,-31.5131,0.7996],[29.6837,-31.5191,0.0],[29.6893,-31.5199,0.0],[29.6896,-31.5232,0.0],[29.6921,-31.524,0.0],[29.6982,-31.5185,5.0145],[29.6971,-31.5132,0.0],[29.7007,-31.5126,0.0],[29.7032,-31.509,0.4149],[29.7068,-31.5074,0.0],[29.7076,-31.5037,5.3199],[29.7129,-31.5035,0.0],[29.714,-31.5018,0.0],[29.7129,-31.4993,3.171],[29.7154,-31.499,0.0],[29.7168,-31.4968,3.3258],[29.716,-31.4935,8.791],[29.7201,-31.4932,0.0],[29.7226,-31.4907,0.1844],[29.7235,-31.4887,0.0],[29.7201,-31.4837,2.5881],[29.7218,-31.4799,0.0],[29.7237,-31.4807,0.0],[29.7246,-31.4787,11.3587],[29.7315,-31.4785,0.0],[29.736,-31.469,0.0],[29.7337,-31.465699999999998,4.6893],[29.7343,-31.4618,1.1944],[29.7354,-31.4621,1.1944],[29.7349,-31.465699999999998,4.6893],[29.7446,-31.4635,0.0],[29.7549,-31.456,0.0],[29.7551,-31.4515,0.0],[29.7574,-31.4496,0.0],[29.7643,-31.4479,0.0],[29.7687,-31.4446,0.0],[29.7763,-31.4457,5.5066],[29.7801,-31.4418,0.0],[29.7871,-31.4393,22.1089],[29.8057,-31.436,54.8339],[29.8096,-31.4368,0.0],[29.8154,-31.4351,10.7832],[29.8312,-31.4349,0.0],[29.8546,-31.4237,0.4529],[29.8607,-31.4171,1.4579],[29.8638,-31.4165,0.0],[29.8696,-31.4096,0.0],[29.8738,-31.4074,0.4534],[29.8796,-31.3974,3.5151],[29.8835,-31.3993,0.0],[29.906,-31.386,0.0],[29.9054,-31.376,3.5514],[29.9171,-31.3732,0.0],[29.9254,-31.3626,1.5988],[29.9343,-31.3596,0.0],[29.9399,-31.3515,0.0],[29.9468,-31.349,0.0],[29.9529,-31.3426,6.4066],[29.9615,-31.3376,1.6683],[29.965699999999998,-31.3282,0.0],[29.9665,-31.3213,0.0],[29.9613,-31.3182,16.673]]],
[[[29.9687,-31.326,0.0],[29.9671,-31.3251,0.0],[29.9674,-31.3299,0.0],[29.9693,-31.3276,0.1592],[29.9687,-31.326,0.0]]]]}}