{"type":"Feature","properties":{"GID_3":"ZAF.1.5.5_1","GID_0":"ZAF","country":"SouthAfrica","GID_1":"ZAF.1_1","province":"EasternCape","NL_NAME_1":"NA","GID_2":"ZAF.1.5_1","county":"ChrisHani","NL_NAME_2":"NA","city":"InxubaYethemba","VARNAME_3":"NA","NL_NAME_3":"NA","TYPE_3":"LocalMunicipality","ENGTYPE_3":"LocalMunicipality","CC_3":"EC131","HASC_3":"NA","name":"Inxuba_Yethemba.city"},
"geometry":{"type": "MultiPolygon","coordinates": [[[[25.6448,-31.9039,1189.2493],[25.6401,-31.9014,1180.5217],[25.6416,-31.874,1318.0631],[25.6341,-31.8396,1256.7627],[25.6166,-31.8392,1231.9796],[25.6159,-31.8331,1240.2759],[25.607,-31.8192,1201.4469],[25.5905,-31.8201,1181.5269],[25.5915,-31.8123,1173.2897],[25.5637,-31.8029,1214.3586],[25.561,-31.7642,1128.3898],[25.5492,-31.7609,1148.0485],[25.5414,-31.7674,1164.4211],[25.5274,-31.7617,1260.9044],[25.5086,-31.7612,1143.6309],[25.4895,-31.7539,1059.9454],[25.4779,-31.7393,1060.0023],[25.4416,-31.7582,1069.9806],[25.4272,-31.7411,1082.9486],[25.4046,-31.7309,1120.8206],[25.381,-31.7271,1091.9994],[25.3604,-31.7145,1124.2506],[25.3719,-31.7011,1391.8533],[25.392,-31.6907,1370.0955],[25.3995,-31.6767,1470.6489],[25.4149,-31.6742,1117.4867],[25.4545,-31.6846,1108.5073],[25.4795,-31.669,1093.2623],[25.4966,-31.643,1103.7444],[25.5027,-31.6399,1110.761],[25.5283,-31.6138,1169.5918],[25.5268,-31.6129,1168.0748],[25.5161,-31.5884,1108.0092],[25.5074,-31.576,1124.3064],[25.5058,-31.5489,1145.4917],[25.5345,-31.5345,1143.2257],[25.548,-31.5543,1128.4219],[25.6174,-31.5773,1412.1637],[25.6169,-31.5801,1458.2511],[25.6288,-31.5797,1261.6387],[25.6423,-31.5765,1286.2458],[25.6338,-31.5639,1247.785],[25.6155,-31.5434,1185.8323],[25.5641,-31.5268,1136.8788],[25.5669,-31.5185,1140.1909],[25.5714,-31.5169,1142.4489],[25.5756,-31.5129,1146.543],[25.5797,-31.5141,1147.0618],[25.5866,-31.5114,1148.551],[25.5785,-31.4912,1214.5806],[25.5893,-31.4853,1196.411],[25.582,-31.4409,1207.2866],[25.5917,-31.4189,1276.5544],[25.583,-31.3449,1331.9495],[25.5645,-31.3585,1288.3816],[25.5121,-31.346,1254.686],[25.4635,-31.352,1233.387],[25.4436,-31.3343,1341.7816],[25.4744,-31.3132,1357.4111],[25.4974,-31.3203,1267.2885],[25.5155,-31.3168,1286.1884],[25.5354,-31.2964,1344.1205],[25.5575,-31.278,1640.4288],[25.5207,-31.2682,1361.5457],[25.4941,-31.2431,1541.4534],[25.4972,-31.2346,1869.2723],[25.4794,-31.2372,1607.0967],[25.4708,-31.245,1589.141],[25.4749,-31.2492,1609.5115],[25.4646,-31.2565,1554.1987],[25.4484,-31.2562,1390.2953],[25.4403,-31.2466,1355.4731],[25.4386,-31.2466,1368.9492],[25.439,-31.2414,1387.4945],[25.4326,-31.2361,1367.9366],[25.4407,-31.2315,1396.2241],[25.4398,-31.2307,1385.7473],[25.4336,-31.2291,1407.4381],[25.3988,-31.211,1495.5022],[25.3898,-31.2128,1502.4637],[25.3862,-31.2178,1522.6426],[25.3688,-31.226,1504.6309],[25.3544,-31.236,1544.4504],[25.2906,-31.2135,1546.5774],[25.2849,-31.2234,1629.7771],[25.2682,-31.2208,1578.8851],[25.2693,-31.2144,1540.5261],[25.225,-31.1952,1531.1958],[25.2238,-31.1923,1644.1108],[25.2197,-31.1904,1678.2124],[25.211,-31.1921,1688.2432],[25.2043,-31.2017,1655.5734],[25.2096,-31.2048,1677.9592],[25.2048,-31.2151,1655.8621],[25.1984,-31.2155,1665.2009],[25.1924,-31.2134,1614.1019],[25.1791,-31.2222,1700.5833],[25.1771,-31.2346,1665.8903],[25.1705,-31.2392,1677.9944],[25.1552,-31.2311,1644.1982],[25.1527,-31.2431,1649.1681],[25.1307,-31.2394,1710.7781],[25.1152,-31.2463,1806.2477],[25.1008,-31.2595,1678.3296],[25.0844,-31.2623,1641.4702],[25.0735,-31.2533,1606.781],[25.0585,-31.2694,1760.9512],[25.0445,-31.2661,1750.8337],[25.0056,-31.2631,1633.8551],[24.9605,-31.2855,1505.4429],[24.9487,-31.2983,1617.0392],[24.942,-31.3151,1630.5909],[24.9336,-31.3204,1547.2137],[24.9234,-31.3135,1650.4396],[24.9002,-31.3167,1824.2861],[24.8988,-31.3137,1679.495],[24.853,-31.3282,1772.8783],[24.8613,-31.3563,1849.0549],[24.8629,-31.3736,1930.9722],[24.8602,-31.374,1903.4856],[24.8461,-31.3656,1859.677],[24.8255,-31.3565,1763.6152],[24.7887,-31.3895,1779.4895],[24.7243,-31.3999,1566.4132],[24.7106,-31.4095,1697.8529],[24.7048,-31.4006,1725.3347],[24.665,-31.3837,1456.7511],[24.5961,-31.3992,1438.4399],[24.5672,-31.4186,1470.384],[24.5676,-31.4272,1493.8247],[24.5588,-31.4818,1555.3594],[24.5413,-31.4868,1564.6115],[24.5194,-31.4979,1531.7209],[24.533,-31.5098,1542.0477],[24.5245,-31.5454,1678.4871],[24.5039,-31.5684,1738.8201],[24.523,-31.6037,1840.7146],[24.5173,-31.6446,2013.1226],[24.5141,-31.705,2035.5847],[24.5063,-31.7068,2038.8083],[24.5085,-31.7185,1920.5123],[24.5083,-31.7385,2123.7961],[24.5104,-31.7542,2116.7766],[24.5182,-31.7538,2078.6409],[24.5507,-31.7612,2021.9668],[24.5776,-31.7385,1847.8781],[24.5772,-31.7306,2100.5625],[24.6165,-31.7262,2167.6091],[24.6223,-31.7063,2096.7627],[24.6416,-31.6904,1904.2867],[24.6278,-31.7123,2115.0791],[24.636,-31.7185,2060.0625],[24.6559,-31.7162,1847.486],[24.642,-31.7282,1803.5936],[24.6764,-31.7335,1706.2769],[24.7044,-31.7443,1801.2822],[24.6975,-31.7586,1856.792],[24.6994,-31.7663,2001.2465],[24.7189,-31.7751,1880.0105],[24.7276,-31.7842,1919.8635],[24.7335,-31.7873,1927.9528],[24.7407,-31.7792,1962.6476],[24.7533,-31.782,1931.2701],[24.7538,-31.7917,1783.6511],[24.7719,-31.7928,1756.123],[24.7629,-31.8057,1670.8826],[24.7922,-31.7888,1918.6012],[24.8019,-31.785,1958.5942],[24.8316,-31.806,1955.9686],[24.8386,-31.8146,1966.1005],[24.8483,-31.8175,2084.0649],[24.8503,-31.8269,1846.0865],[24.8556,-31.8349,1849.8187],[24.874,-31.8403,1816.5427],[24.8959,-31.8334,1977.2473],[24.8993,-31.8373,1905.8793],[24.8979,-31.8451,2057.374],[24.9012,-31.8484,2006.8981],[24.901,-31.8571,1915.7334],[24.9048,-31.8693,1955.7386],[24.9167,-31.8644,2007.4619],[24.9184,-31.8719,1885.5269],[24.9246,-31.8801,2017.5636],[24.9199,-31.8846,2010.0969],[24.9323,-31.8917,2028.8939],[24.9391,-31.9051,1788.0117],[24.9405,-31.9227,1836.3394],[24.9439,-31.9282,1809.0447],[24.9232,-31.9437,1755.7294],[24.9254,-31.9545,1772.1345],[24.9344,-31.9713,1798.6344],[24.9437,-31.9799,1815.3383],[24.9507,-32.0073,1838.76],[24.938,-32.0533,1962.0295],[24.9479,-32.0718,2009.924],[24.9549,-32.0697,1997.7661],[24.9618,-32.0839,2016.751],[24.9671,-32.1075,1773.4169],[24.9511,-32.1227,1954.0525],[24.954,-32.1403,1787.7004],[24.9376,-32.158,1960.3717],[24.9383,-32.1736,1984.535],[24.9246,-32.1675,2135.5759],[24.9155,-32.1721,1890.6025],[24.9095,-32.1891,2080.7092],[24.9067,-32.2146,2263.0142],[24.904,-32.2219,2358.1301],[24.9224,-32.2398,2258.0249],[24.9496,-32.2412,2097.1443],[24.9802,-32.2589,2117.7161],[25.0033,-32.2504,2055.2458],[25.0185,-32.2546,1875.1575],[25.0241,-32.2643,2017.0405],[25.046,-32.2666,1910.3862],[25.055,-32.28,1966.8439],[25.0781,-32.2735,1972.0836],[25.1283,-32.2911,2006.3546],[25.1553,-32.3142,1893.6426],[25.1676,-32.3287,1872.6211],[25.1861,-32.3238,1899.3594],[25.2039,-32.3346,1887.1946],[25.2135,-32.3367,1754.4104],[25.2145,-32.3468,1696.7667],[25.2174,-32.3471,1712.1627],[25.2328,-32.3386,1626.7946],[25.2786,-32.3456,1876.4583],[25.3095,-32.3133,1987.6204],[25.3354,-32.3118,2002.8759],[25.3634,-32.3067,1837.1293],[25.3583,-32.3235,1782.8618],[25.3602,-32.3408,1787.2563],[25.3829,-32.3467,1473.3904],[25.4077,-32.374,1551.0988],[25.4174,-32.3745,1385.2701],[25.3987,-32.413,1669.6707],[25.4203,-32.4234,1666.3599],[25.4287,-32.4187,1224.3939],[25.4931,-32.4105,1227.2548],[25.4946,-32.4127,1225.6591],[25.5127,-32.3984,1328.7617],[25.5341,-32.3945,1410.0902],[25.5481,-32.4104,1345.1075],[25.5744,-32.4578,1489.2334],[25.592,-32.4586,1549.1833],[25.6047,-32.4518,1528.8059],[25.6217,-32.4568,1429.1018],[25.6373,-32.4754,1332.2703],[25.6449,-32.4797,1355.2501],[25.6551,-32.5069,1198.4308],[25.6899,-32.4991,1279.8339],[25.699,-32.522,1121.3239],[25.734,-32.5295,925.1396],[25.7855,-32.5379,874.7411],[25.7974,-32.4772,962.5229],[25.834,-32.4905,1118.6792],[25.8584,-32.492,1350.8472],[25.8871,-32.4871,1373.9287],[25.9078,-32.4574,1656.0769],[25.8994,-32.4329,1625.7793],[25.9393,-32.4061,1573.9216],[25.9401,-32.3839,1727.5824],[25.9488,-32.3768,1668.6729],[25.9506,-32.3638,1768.6826],[25.9705,-32.3544,1764.6766],[25.9962,-32.3544,1784.8083],[25.9993,-32.3504,1734.6465],[26.0327,-32.3263,1620.285],[26.047,-32.3227,1511.3513],[26.0468,-32.3167,1599.476],[26.052,-32.3123,1615.5356],[26.0816,-32.3179,1587.5424],[26.0859,-32.3145,1583.8903],[26.1194,-32.2984,1738.2211],[26.1305,-32.2822,1818.8162],[26.1297,-32.275,1704.7666],[26.1413,-32.2717,1703.578],[26.1913,-32.2852,1814.4331],[26.1991,-32.2689,1849.9707],[26.1929,-32.2169,1746.8444],[26.2008,-32.1803,1816.1786],[26.2069,-32.1645,1754.9557],[26.1409,-32.1468,1388.6393],[26.1416,-32.1395,1452.8466],[26.1392,-32.1191,1494.3953],[26.101,-32.1134,1224.2158],[26.076,-32.1126,1055.5032],[26.0735,-32.1034,1091.9421],[26.0553,-32.0996,1272.6774],[26.0641,-32.0801,1185.0813],[26.0349,-32.077,1015.0],[26.032,-32.0733,1015.0],[26.0218,-32.0766,1040.1362],[26.0124,-32.0724,1074.4763],[26.0096,-32.0764,1040.7443],[25.9997,-32.0706,1065.9896],[26.0239,-32.0552,1021.7626],[26.0199,-32.0543,1025.2852],[26.0193,-32.0528,1027.0775],[26.0216,-32.0444,1028.4546],[26.0132,-32.0403,1031.4327],[26.0108,-32.042,1033.8462],[26.0004,-32.0379,1038.6049],[26.0029,-32.034,1040.3247],[26.0026,-32.0317,1041.1948],[26.0341,-32.0016,1212.609],[25.9994,-32.005,1149.7697],[25.9484,-31.9811,1455.0266],[25.9055,-31.945,1496.1031],[25.8502,-31.9089,1318.8535],[25.845,-31.9102,1317.2191],[25.8301,-31.921,1291.2834],[25.7622,-31.8979,1306.1692],[25.7653,-31.8788,1354.9207],[25.7375,-31.8832,1373.8494],[25.7232,-31.8636,1430.2366],[25.7339,-31.8578,1527.1998],[25.7228,-31.8549,1479.4994],[25.7069,-31.8623,1499.7283],[25.7,-31.8753,1351.5137],[25.6993,-31.8829,1304.5587],[25.6739,-31.8991,1262.8409],[25.664,-31.9031,1244.6443],[25.6448,-31.9039,1189.2493]]]]}}