{"type":"Feature","properties":{"GID_3":"ZAF.4.4.1_1","GID_0":"ZAF","country":"SouthAfrica","GID_1":"ZAF.4_1","province":"KwaZulu-Natal","NL_NAME_1":"NA","GID_2":"ZAF.4.4_1","county":"Sisonke","NL_NAME_2":"NA","city":"GreaterKokstad","VARNAME_3":"NA","NL_NAME_3":"NA","TYPE_3":"LocalMunicipality","ENGTYPE_3":"LocalMunicipality","CC_3":"KZN433","HASC_3":"NA","name":"Greater_Kokstad.city"},
"geometry":{"type": "MultiPolygon","coordinates": [[[[29.136,-30.6034,1856.4386],[29.1353,-30.6051,1810.5496],[29.1681,-30.6131,1283.4346],[29.168,-30.6176,1283.6912],[29.1728,-30.6242,1274.569],[29.1807,-30.6189,1267.8625],[29.1853,-30.6185,1264.1868],[29.1854,-30.6213,1278.9644],[29.1808,-30.6236,1265.2052],[29.1778,-30.6287,1258.4963],[29.1809,-30.6396,1269.5114],[29.1829,-30.6413,1268.671],[29.1919,-30.6348,1241.3179],[29.1979,-30.6344,1240.2324],[29.1987,-30.632,1234.5431],[29.1955,-30.6283,1229.0785],[29.1952,-30.6245,1237.1898],[29.2046,-30.6202,1217.1775],[29.2111,-30.6215,1252.021],[29.218,-30.6185,1209.8645],[29.2202,-30.6208,1207.1187],[29.2284,-30.6197,1430.7747],[29.2613,-30.6212,1586.881],[29.2773,-30.6373,1588.269],[29.3035,-30.6394,1838.5016],[29.3198,-30.645,1656.2654],[29.3225,-30.6445,1558.4526],[29.3456,-30.6717,1666.5428],[29.3728,-30.649,1326.8586],[29.3855,-30.6501,1371.6166],[29.4013,-30.6394,1503.8805],[29.443,-30.639,1861.2871],[29.4686,-30.6242,1655.5488],[29.5124,-30.6182,1670.9657],[29.5243,-30.6412,1682.5266],[29.5713,-30.6558,2087.1128],[29.5863,-30.6171,2244.6033],[29.6406,-30.562,1911.9216],[29.6229,-30.5516,1758.9983],[29.5974,-30.5515,1871.8821],[29.6082,-30.5342,1620.8448],[29.6016,-30.522,1609.3141],[29.612,-30.5066,1559.3295],[29.6198,-30.5056,1525.775],[29.6228,-30.5029,1491.3306],[29.6218,-30.4904,1667.8323],[29.5835,-30.4643,1877.8755],[29.6078,-30.4479,1748.2239],[29.5957,-30.4483,1958.0436],[29.5744,-30.4117,1933.5571],[29.5738,-30.4049,1718.1051],[29.5548,-30.385,1748.8745],[29.533,-30.3575,1698.3931],[29.4978,-30.3403,1825.1029],[29.514,-30.3049,1977.4674],[29.5008,-30.2967,1953.5894],[29.4983,-30.2699,1673.5596],[29.5196,-30.2521,1634.3046],[29.5246,-30.2224,1826.1973],[29.511,-30.2125,1798.9448],[29.4957,-30.2078,1813.7667],[29.455,-30.1905,1908.9589],[29.4315,-30.1876,1983.4717],[29.4207,-30.1717,1966.6589],[29.388,-30.1576,1984.4894],[29.409,-30.1387,2096.9895],[29.414,-30.1219,2299.6909],[29.4067,-30.0959,2180.9468],[29.4455,-30.0647,1816.0807],[29.4411,-30.0548,1571.1267],[29.4494,-30.0507,1543.8907],[29.4513,-30.0477,1549.6012],[29.4645,-30.0536,1758.1201],[29.4789,-30.0404,1694.4758],[29.4828,-30.0231,2019.5131],[29.4766,-30.0141,2087.6392],[29.447,-30.0073,1737.1147],[29.4349,-30.0094,1871.9497],[29.4315,-29.9995,1880.9696],[29.4141,-29.9898,1622.4775],[29.4173,-29.9691,1496.5044],[29.4161,-29.9685,1495.0142],[29.4118,-29.9693,1489.9418],[29.4124,-29.9665,1512.3188],[29.4077,-29.9668,1501.0643],[29.4052,-29.9627,1512.7667],[29.4041,-29.9636,1494.4342],[29.4043,-29.96,1539.5431],[29.399,-29.9606,1497.0323],[29.3976,-29.957,1509.6824],[29.393,-29.9569,1506.1483],[29.3908,-29.9513,1509.3041],[29.393,-29.9512,1503.7063],[29.3957,-29.9469,1505.8658],[29.3894,-29.9465,1517.0348],[29.3843,-29.948,1530.291],[29.382,-29.9438,1520.694],[29.3794,-29.9442,1520.1678],[29.3769,-29.9387,1522.0139],[29.3727,-29.9443,1521.5989],[29.3691,-29.9416,1528.762],[29.3661,-29.942,1537.8602],[29.3584,-29.9393,1565.4451],[29.354,-29.9435,1540.7402],[29.3512,-29.9396,1541.1409],[29.3457,-29.9422,1539.0168],[29.3445,-29.9414,1539.0168],[29.3441,-29.9421,1544.8993],[29.3456,-29.9424,1539.0168],[29.3443,-29.9453,1540.8519],[29.3404,-29.9401,1583.7871],[29.3328,-29.9427,1547.6901],[29.323,-29.9407,1555.6526],[29.3219,-29.9422,1555.063],[29.3205,-29.9401,1556.8888],[29.3194,-29.9403,1558.1208],[29.32,-29.9429,1556.922],[29.3179,-29.9436,1558.7456],[29.3119,-29.9428,1607.8777],[29.3089,-29.9442,1567.0342],[29.3058,-29.9429,1580.2153],[29.3052,-29.9441,1573.7493],[29.3039,-29.9423,1574.0751],[29.305,-29.9427,1574.0751],[29.3062,-29.9405,1601.2863],[29.3027,-29.9389,1583.0613],[29.2956,-29.939,1578.4911],[29.2935,-29.936,1583.6282],[29.2914,-29.9362,1593.84],[29.2924,-29.9373,1581.6807],[29.2904,-29.939,1583.9905],[29.2915,-29.9398,1588.536],[29.2872,-29.9423,1589.353],[29.2781,-29.9426,1608.9679],[29.2791,-29.9392,1681.4717],[29.2747,-29.9375,1608.1536],[29.273,-29.934,1647.8615],[29.2705,-29.9325,1658.0868],[29.2661,-29.9351,1622.1985],[29.2612,-29.9293,1631.804],[29.2546,-29.9261,1632.7842],[29.2557,-29.9216,1638.8032],[29.2523,-29.9181,1648.948],[29.2448,-29.9202,1659.8386],[29.2405,-29.9145,1696.1804],[29.233,-29.9153,1697.3357],[29.2276,-29.9093,1724.1772],[29.2202,-29.9058,1737.8638],[29.2177,-29.907,1742.8007],[29.2138,-29.905,1751.1854],[29.2059,-29.9048,1786.9623],[29.1997,-29.9085,1834.5867],[29.1921,-29.9081,1928.8713],[29.1689,-29.9126,2509.9512],[29.1694,-29.9163,2461.1709],[29.1621,-29.9214,2429.5791],[29.158,-29.9219,2427.6094],[29.1554,-29.9258,2448.4302],[29.148,-29.9251,2423.8442],[29.1376,-29.9293,2490.7068],[29.1251,-29.9303,2415.1577],[29.1222,-29.933,2422.6665],[29.1183,-29.9333,2392.572],[29.115,-29.9369,2383.1484],[29.111,-29.9357,2438.1006],[29.1088,-29.9372,2422.4192],[29.1091,-29.9423,2395.0811],[29.1064,-29.9443,2429.0315],[29.1045,-29.9548,2482.6328],[29.1025,-29.9571,2486.1445],[29.1041,-29.9591,2494.9814],[29.1037,-29.967,2507.1594],[29.0838,-29.9531,2552.3899],[29.0671,-29.9724,2531.1113],[29.0509,-29.9822,2477.4675],[29.0446,-29.9821,2460.7544],[29.0418,-29.985,2478.0657],[29.0387,-29.9841,2457.564],[29.034,-29.986,2430.3721],[29.0322,-29.9876,2420.0059],[29.0334,-29.9923,2377.1372],[29.03,-29.9972,2376.5532],[29.0243,-29.9992,2396.9026],[29.0202,-29.9967,2381.9167],[29.0147,-30.0018,2444.009],[29.045,-30.013,2351.8459],[29.0678,-30.044,2273.6904],[29.0901,-30.0567,2153.7537],[29.1073,-30.0785,2005.7651],[29.1119,-30.0972,1628.3739],[29.1137,-30.0963,1588.4943],[29.1172,-30.1002,1587.5657],[29.1212,-30.0988,1581.7664],[29.1187,-30.1029,1583.5952],[29.1196,-30.1054,1582.6489],[29.1174,-30.1054,1586.3416],[29.1145,-30.1023,1596.5507],[29.1123,-30.1056,1585.6138],[29.1152,-30.1078,1586.6068],[29.1148,-30.1106,1577.332],[29.1186,-30.1094,1596.5684],[29.12,-30.1106,1568.9655],[29.1153,-30.1144,1578.7788],[29.1194,-30.1222,1547.4102],[29.1158,-30.1248,1553.156],[29.1177,-30.1259,1543.4724],[29.1154,-30.1328,1549.9668],[29.1163,-30.1364,1535.813],[29.1188,-30.1385,1537.1504],[29.1163,-30.1421,1532.7415],[29.1215,-30.1435,1530.0737],[29.1206,-30.1512,1509.8577],[29.118,-30.1528,1509.0598],[29.1139,-30.1518,1510.5063],[29.1104,-30.1538,1506.454],[29.1134,-30.1576,1503.4462],[29.1204,-30.1604,1503.3271],[29.1171,-30.1633,1507.1558],[29.1139,-30.1621,1505.3044],[29.1131,-30.1682,1515.6385],[29.1103,-30.1683,1497.6345],[29.1067,-30.1721,1490.7451],[29.1068,-30.1762,1489.6211],[29.1041,-30.1753,1490.6927],[29.1026,-30.1771,1490.1259],[29.1038,-30.1807,1490.7211],[29.1099,-30.1838,1492.2903],[29.1132,-30.1904,1490.6257],[29.1174,-30.1898,1484.6753],[29.1221,-30.192,1485.0286],[29.1208,-30.1943,1482.5281],[29.1141,-30.1939,1487.5012],[29.1108,-30.1969,1483.1665],[29.1124,-30.2096,1494.0125],[29.1197,-30.2059,1485.2803],[29.1216,-30.2073,1477.6594],[29.1215,-30.2099,1497.2407],[29.1271,-30.2112,1494.3726],[29.1323,-30.2149,1473.5073],[29.1318,-30.2166,1489.6212],[29.1241,-30.2179,1495.2593],[29.1224,-30.222,1472.3344],[29.1282,-30.2242,1466.2351],[29.1302,-30.2266,1472.7852],[29.1297,-30.2337,1464.6937],[29.126,-30.2387,1458.6477],[29.1292,-30.2396,1456.7284],[29.1289,-30.2478,1451.7045],[29.133,-30.2497,1460.4423],[29.1319,-30.2516,1451.248],[29.1355,-30.2562,1450.2296],[29.136,-30.2612,1449.5963],[29.1373,-30.2624,1449.5983],[29.1411,-30.2617,1459.1625],[29.1518,-30.2567,1455.3699],[29.1538,-30.262,1446.8563],[29.1518,-30.2647,1445.6989],[29.1565,-30.2648,1446.0701],[29.1556,-30.2619,1446.522],[29.1627,-30.2636,1444.9409],[29.1621,-30.2663,1444.0344],[29.156,-30.2685,1444.5989],[29.161,-30.2707,1443.9863],[29.1593,-30.2743,1443.406],[29.1618,-30.2723,1443.4867],[29.1632,-30.2738,1442.5629],[29.1612,-30.2759,1442.5809],[29.1579,-30.2744,1443.4015],[29.1568,-30.2756,1442.1572],[29.1579,-30.277,1443.347],[29.1558,-30.2775,1442.6825],[29.1674,-30.2816,1452.2291],[29.1742,-30.2808,1445.7787],[29.1757,-30.2828,1449.6528],[29.1726,-30.2834,1450.4233],[29.1881,-30.2887,1463.2203],[29.2275,-30.2974,1469.1974],[29.2334,-30.3063,1492.5768],[29.2547,-30.3048,1535.5654],[29.2315,-30.2691,1449.6864],[29.2368,-30.2669,1449.7925],[29.2622,-30.2784,1483.1565],[29.3019,-30.3201,1973.8564],[29.2987,-30.3343,1951.1742],[29.2919,-30.3456,2090.5117],[29.2988,-30.3532,2153.2332],[29.305,-30.3799,2182.478],[29.2771,-30.3762,1932.3643],[29.2824,-30.3957,2140.5684],[29.2382,-30.4049,1762.0242],[29.2276,-30.4103,1858.7583],[29.2273,-30.4263,1885.9938],[29.2185,-30.4212,1758.9662],[29.1968,-30.4344,1633.3152],[29.1984,-30.4623,1667.6935],[29.1878,-30.4842,1631.4711],[29.1773,-30.5157,1503.1471],[29.1504,-30.5104,1516.375],[29.1402,-30.5338,1369.1597],[29.1448,-30.531,1389.9825],[29.1466,-30.5316,1365.4373],[29.1455,-30.5327,1365.4373],[29.1476,-30.5412,1363.0115],[29.1531,-30.547,1369.2104],[29.1518,-30.5486,1361.8313],[29.1528,-30.5546,1380.2563],[29.1556,-30.5554,1367.2391],[29.1577,-30.5538,1384.9908],[29.1614,-30.547,1361.7117],[29.1579,-30.5476,1359.2698],[29.1578,-30.5451,1358.5614],[29.1599,-30.5447,1359.4393],[29.1611,-30.5418,1358.5083],[29.1653,-30.5436,1358.6299],[29.1663,-30.5414,1357.3541],[29.1631,-30.5396,1358.6716],[29.1651,-30.538,1357.2616],[29.1738,-30.5518,1370.4161],[29.163,-30.5582,1356.954],[29.162,-30.5601,1357.4402],[29.1515,-30.5604,1382.545],[29.1153,-30.5796,1636.6368],[29.1238,-30.5871,1722.8872],[29.146,-30.5952,1657.0587],[29.136,-30.6034,1856.4386]]]]}}