{"type": "Feature","bbox": [30.7026,-29.6276,31.264,-29.1768],"geometry": {"type": "MultiPolygon","coordinates": [[[[30.8144,-29.6234,635.8923],[30.8292,-29.6276,694.9178],[30.8254,-29.6181,595.4091],[30.8314,-29.6154,622.1997],[30.8362,-29.6175,599.9824],[30.8398,-29.6214,603.0545],[30.8395,-29.6229,603.0545],[30.8425,-29.6256,624.355],[30.8425,-29.6232,585.8989],[30.8458,-29.6271,607.1995],[30.8503,-29.6223,595.5999],[30.8625,-29.6174,565.7766],[30.8746,-29.6177,565.4675],[30.875,-29.6075,325.1158],[30.8781,-29.6029,299.145],[30.8775,-29.5993,287.5415],[30.8825,-29.5948,268.2856],[30.8878,-29.596,250.3002],[30.8939,-29.5935,259.2892],[30.8914,-29.5896,358.3876],[30.8927,-29.5879,241.7495],[30.9076,-29.5869,237.4157],[30.9075,-29.5897,239.746],[30.8995,-29.5976,230.1433],[30.9068,-29.6034,231.7128],[30.9229,-29.6015,236.168],[30.9235,-29.5976,268.1907],[30.9167,-29.5943,208.6214],[30.922,-29.5886,203.433],[30.9267,-29.5945,203.417],[30.9293,-29.5955,186.7794],[30.9506,-29.5894,167.5426],[30.9506,-29.5861,183.3922],[30.9551,-29.5836,162.7978],[30.9614,-29.5864,233.5794],[30.9691,-29.5863,151.9419],[30.9721,-29.5902,172.3793],[30.9833,-29.5919,154.6778],[30.9828,-29.5897,155.5952],[30.9774,-29.587,149.3663],[30.976,-29.5836,151.9286],[30.9768,-29.5821,131.5895],[30.9807,-29.5823,122.9529],[30.9881,-29.5847,119.9972],[30.9863,-29.5885,130.855],[30.9873,-29.5913,134.8655],[30.9925,-29.5909,111.5289],[30.9963,-29.5872,133.2889],[31.0002,-29.5878,138.8981],[31.0015,-29.5902,130.1181],[31.0007,-29.5947,113.8579],[31.0061,-29.5914,213.6113],[31.013,-29.5627,307.3433],[31.0207,-29.556,311.7639],[31.0407,-29.547,291.7755],[31.0683,-29.5488,209.3846],[31.0944,-29.5381,52.7731],[31.0858,-29.5227,134.0283],[31.0807,-29.5262,78.1383],[31.0745,-29.5216,79.4685],[31.0652,-29.5241,83.7913],[31.0592,-29.5192,94.4518],[31.0599,-29.5156,100.7821],[31.0513,-29.5164,131.5205],[31.0533,-29.5121,126.7245],[31.0516,-29.5048,133.0007],[31.0484,-29.5012,128.7568],[31.0505,-29.4984,153.2562],[31.0495,-29.4904,144.9024],[31.0513,-29.4885,173.9933],[31.0494,-29.4879,156.7522],[31.0507,-29.4863,185.55],[31.0817,-29.4857,327.9577],[31.086,-29.4816,285.0036],[31.0828,-29.4777,294.6498],[31.0858,-29.4778,290.9779],[31.0846,-29.4751,281.0726],[31.0821,-29.4769,294.6498],[31.0813,-29.4747,293.8716],[31.0797,-29.4758,306.4737],[31.0787,-29.4742,317.5178],[31.0774,-29.4702,295.2402],[31.0798,-29.4688,316.0504],[31.0792,-29.4658,291.4385],[31.0766,-29.4627,327.7732],[31.0708,-29.4605,341.7705],[31.0856,-29.4415,340.7189],[31.1043,-29.4342,306.915],[31.1292,-29.4107,269.3172],[31.1483,-29.4116,247.5228],[31.1537,-29.3899,372.6748],[31.1631,-29.3761,339.8648],[31.1931,-29.3808,261.7278],[31.2008,-29.3755,244.7198],[31.2059,-29.3579,162.3496],[31.1827,-29.353,167.7351],[31.16,-29.3324,230.5969],[31.1611,-29.331,285.8416],[31.1514,-29.3261,431.8438],[31.1814,-29.3038,157.9955],[31.1742,-29.2972,122.8407],[31.1725,-29.2926,96.8924],[31.1727,-29.29,99.8673],[31.1751,-29.2895,124.5508],[31.1749,-29.2816,150.7448],[31.1702,-29.2795,196.4483],[31.1693,-29.2741,248.9326],[31.1722,-29.2688,310.7862],[31.166,-29.2584,406.4204],[31.1783,-29.2524,532.8814],[31.1933,-29.2507,513.3372],[31.2038,-29.2477,484.0526],[31.2561,-29.2454,366.5165],[31.264,-29.2281,364.5932],[31.2621,-29.204,378.9917],[31.2602,-29.2059,359.302],[31.2484,-29.2008,352.9001],[31.247,-29.1846,330.9082],[31.2337,-29.1808,260.4442],[31.2336,-29.1774,280.5613],[31.2305,-29.179,278.2696],[31.2274,-29.1768,285.9119],[31.222,-29.1806,314.9904],[31.2229,-29.184,316.9474],[31.2187,-29.1819,329.9107],[31.2155,-29.1831,348.9617],[31.218,-29.1849,350.615],[31.216,-29.1854,362.0223],[31.2132,-29.1908,360.7546],[31.1621,-29.2009,661.3092],[31.1372,-29.2076,744.3022],[31.1226,-29.2345,676.37],[31.0971,-29.3286,632.9874],[31.0919,-29.3347,637.1845],[31.0885,-29.3471,613.1075],[31.0759,-29.3547,643.4233],[31.0697,-29.3471,476.4977],[31.0717,-29.3343,261.1978],[31.0677,-29.3327,381.5123],[31.0678,-29.3303,420.2156],[31.0584,-29.3243,307.4014],[31.0496,-29.3237,257.4782],[31.0478,-29.3099,196.6017],[31.0451,-29.3097,191.1143],[31.0401,-29.3166,203.2923],[31.0392,-29.3192,214.7614],[31.0414,-29.3218,210.9067],[31.0376,-29.3246,230.8976],[31.0397,-29.3284,231.1765],[31.0358,-29.3316,243.3047],[31.0336,-29.3305,256.9294],[31.0287,-29.3327,274.9313],[31.0275,-29.3351,279.3705],[31.0229,-29.3359,306.5161],[31.0177,-29.3414,303.6146],[31.0152,-29.3413,328.1949],[31.0124,-29.3379,446.4432],[31.0124,-29.3249,351.9651],[31.0233,-29.3168,313.3454],[31.0288,-29.3142,278.4592],[31.0309,-29.3147,271.8077],[31.0368,-29.3097,260.1575],[31.039,-29.2972,176.2566],[31.0315,-29.2966,210.7706],[31.0298,-29.2915,180.2867],[31.0415,-29.2881,185.5343],[31.0439,-29.282,188.2077],[31.0353,-29.2803,193.1341],[31.0316,-29.2751,192.8165],[31.0276,-29.2726,205.1807],[31.0285,-29.2704,197.258],[31.027,-29.2681,207.4812],[31.0179,-29.2676,273.5513],[31.0158,-29.2632,369.3021],[31.0063,-29.2648,453.4124],[30.9996,-29.2686,481.4024],[30.9905,-29.2634,592.0756],[30.9883,-29.2665,557.6978],[30.9834,-29.2693,569.535],[30.9743,-29.2713,600.8055],[30.9725,-29.2737,593.8007],[30.9512,-29.27,829.1945],[30.936,-29.2709,828.0929],[30.9313,-29.2738,894.5226],[30.9265,-29.2716,904.0225],[30.9174,-29.2808,883.2872],[30.905,-29.2704,910.8235],[30.8978,-29.2853,845.1174],[30.898,-29.2884,965.8519],[30.8772,-29.2756,438.5365],[30.8793,-29.2841,449.6878],[30.87,-29.283,460.6691],[30.8682,-29.284,462.6935],[30.8684,-29.2856,467.3311],[30.872,-29.2868,478.4429],[30.8718,-29.2893,473.0063],[30.8677,-29.2897,481.4229],[30.8692,-29.2928,495.767],[30.8684,-29.2943,519.2162],[30.8634,-29.2952,495.5328],[30.8654,-29.298,501.519],[30.865,-29.3007,521.5886],[30.8575,-29.3024,513.411],[30.8603,-29.3067,558.3132],[30.8561,-29.3092,605.5793],[30.8589,-29.3117,543.1712],[30.855,-29.3136,547.5375],[30.8546,-29.3221,616.8214],[30.8573,-29.3234,649.6208],[30.859,-29.3299,633.4445],[30.8605,-29.3293,585.0229],[30.8606,-29.3259,616.7389],[30.867,-29.3272,588.4611],[30.8683,-29.3297,599.7012],[30.8724,-29.3321,623.014],[30.8757,-29.3384,706.7386],[30.8791,-29.3398,745.299],[30.8846,-29.3458,958.2249],[30.8817,-29.3504,963.1599],[30.8824,-29.3605,922.5771],[30.8804,-29.3648,922.1042],[30.8804,-29.3684,923.5106],[30.8837,-29.3732,916.0159],[30.889,-29.3764,866.87],[30.8953,-29.3762,824.5422],[30.9056,-29.383,768.7767],[30.9172,-29.3829,669.1924],[30.9195,-29.3847,668.2161],[30.9167,-29.386,628.1558],[30.9153,-29.39,640.3662],[30.9093,-29.3966,662.3648],[30.9037,-29.3994,671.1619],[30.8977,-29.4049,697.6385],[30.8969,-29.4076,699.4506],[30.8903,-29.4088,716.5725],[30.8908,-29.4127,730.0458],[30.8884,-29.4156,736.9471],[30.8501,-29.4037,1011.9644],[30.7936,-29.4496,975.6686],[30.7903,-29.4763,968.3113],[30.7662,-29.488,973.5795],[30.7681,-29.455,1059.2354],[30.7481,-29.4534,837.7744],[30.7486,-29.464,813.2172],[30.7477,-29.4673,784.2434],[30.7441,-29.4709,700.3146],[30.7427,-29.4804,631.5217],[30.7373,-29.4856,881.9601],[30.7345,-29.4956,891.9692],[30.7314,-29.4984,784.8574],[30.7276,-29.4987,873.0371],[30.7244,-29.5023,882.8644],[30.7225,-29.511,824.4125],[30.7242,-29.5229,848.089],[30.7219,-29.5258,796.8094],[30.7226,-29.5277,750.5316],[30.7187,-29.5301,652.5073],[30.7178,-29.5278,753.3784],[30.7097,-29.5272,741.8818],[30.706,-29.5354,869.6594],[30.704,-29.5455,839.5811],[30.7037,-29.55,788.0522],[30.7066,-29.5566,718.5436],[30.7036,-29.559,683.7659],[30.7026,-29.563,701.8766],[30.7048,-29.5685,661.3179],[30.7081,-29.5694,653.4733],[30.709,-29.5715,636.6032],[30.7187,-29.5712,467.5577],[30.7243,-29.5692,348.372],[30.7272,-29.5709,303.0031],[30.7257,-29.5663,299.5147],[30.7301,-29.5677,331.2723],[30.7328,-29.5665,360.34],[30.7367,-29.5684,471.2546],[30.7465,-29.5677,564.6136],[30.7512,-29.5658,615.7266],[30.7694,-29.568,639.9373],[30.7781,-29.5751,543.7042],[30.7847,-29.575,572.1478],[30.7885,-29.5724,628.4205],[30.7888,-29.5653,835.5762],[30.7921,-29.5694,710.5372],[30.7924,-29.5745,696.3796],[30.8026,-29.5849,822.1402],[30.8026,-29.5918,819.6104],[30.8052,-29.597,719.6459],[30.8085,-29.5981,805.8652],[30.809,-29.6068,657.7007],[30.8119,-29.6139,593.525],[30.8108,-29.6179,649.8302],[30.8144,-29.6234,635.8923]]]]}
,"properties": {"GID_3": "ZAF.4.3.4_1","GID_0": "ZAF","country": "SouthAfrica","GID_1": "ZAF.4_1","province": "KwaZulu-Natal","NL_NAME_1": "NA","GID_2": "ZAF.4.3_1","county": "iLembe","NL_NAME_2": "NA","city": "Ndwedwe","VARNAME_3": "NA","NL_NAME_3": "NA","TYPE_3": "LocalMunicipality","ENGTYPE_3": "LocalMunicipality","CC_3": "KZN293","HASC_3": "NA","name": "Ndwedwe.city","area_km2": 1094.4933,"hist_schema_id": "Elevation0-9000","hist_area_km2": {"50": 0.3321,"75": 1.2545,"100": 4.5426,"125": 9.8835,"150": 11.3044,"175": 12.7984,"200": 15.8092,"225": 20.7768,"250": 25.1688,"275": 32.2951,"300": 40.4559,"325": 46.8641,"350": 51.0238,"375": 51.8597,"400": 53.1668,"425": 56.4912,"450": 59.7568,"475": 63.1057,"500": 69.3331,"525": 62.3408,"550": 56.0404,"575": 51.5349,"600": 46.6603,"625": 40.8433,"650": 32.8124,"675": 27.0872,"700": 23.1008,"725": 18.0418,"750": 14.9042,"775": 15.3493,"800": 13.0041,"825": 10.8062,"850": 10.5862,"875": 12.6184,"900": 11.2151,"925": 9.7578,"950": 6.3386,"975": 3.3266,"1000": 0.8867,"1025": 0.6279,"1050": 0.3509,"1075": 0.0369}}}