{"type":"Feature","properties":{"GID_3":"ZAF.5.3.4_1","GID_0":"ZAF","country":"SouthAfrica","GID_1":"ZAF.5_1","province":"Limpopo","NL_NAME_1":"NA","GID_2":"ZAF.5.3_1","county":"Sekhukhune","NL_NAME_2":"NA","city":"GreaterTubatse","VARNAME_3":"NA","NL_NAME_3":"NA","TYPE_3":"LocalMunicipality","ENGTYPE_3":"LocalMunicipality","CC_3":"LIM475","HASC_3":"NA","name":"Greater_Tubatse.city"},
"geometry":{"type": "MultiPolygon","coordinates": [[[[29.9618,-24.9788,933.0172],[29.9594,-24.9866,1088.0215],[29.9059,-25.0475,1068.1292],[29.9789,-25.0921,1698.2791],[30.0298,-25.0846,1952.0972],[30.0299,-25.0641,1887.5096],[30.0902,-25.1081,2091.6641],[30.0909,-25.1255,2030.3224],[30.1211,-25.1209,1170.5193],[30.1444,-25.1238,1549.7026],[30.1444,-25.0912,1560.8577],[30.1486,-25.09,1666.2716],[30.1485,-25.0324,1301.1158],[30.1593,-25.028,1415.2583],[30.1987,-25.0364,1838.2549],[30.1972,-25.0309,1817.0413],[30.1792,-24.9991,1474.1637],[30.1795,-24.9896,1377.8092],[30.1721,-24.9892,1381.6886],[30.1717,-24.9698,1305.5529],[30.1785,-24.9221,1350.5686],[30.192,-24.8555,1599.1931],[30.2973,-24.8677,1426.7808],[30.3068,-24.8815,994.5568],[30.3063,-24.8843,985.9506],[30.308,-24.885,966.892],[30.3088,-24.8827,972.3098],[30.3117,-24.8838,960.1416],[30.3124,-24.8825,960.2652],[30.31,-24.8806,954.822],[30.3086,-24.8754,955.334],[30.3109,-24.8729,947.2689],[30.3529,-24.8834,1649.874],[30.3542,-24.8493,1352.9545],[30.3965,-24.8712,909.4311],[30.3986,-24.8683,921.0901],[30.396,-24.861,947.9929],[30.3916,-24.8623,892.7285],[30.3897,-24.8603,927.925],[30.3908,-24.8521,882.0217],[30.3897,-24.8495,878.6819],[30.4251,-24.8549,1281.8212],[30.438,-24.8643,1379.3173],[30.4515,-24.912,1425.9489],[30.4942,-24.9533,1515.2627],[30.4963,-24.9147,1519.0037],[30.5629,-24.8965,1487.5796],[30.5812,-24.9169,1720.1592],[30.58,-24.8874,1236.4258],[30.6084,-24.8724,1723.8284],[30.6187,-24.8442,1417.776],[30.6349,-24.8528,1589.667],[30.6562,-24.8117,1636.6355],[30.6642,-24.7746,1593.1965],[30.6337,-24.7585,1373.2845],[30.6366,-24.7341,1366.4037],[30.6786,-24.7358,1758.0704],[30.6855,-24.7324,1808.7985],[30.7201,-24.7052,1532.6078],[30.7097,-24.6674,1567.5801],[30.6792,-24.6237,1378.0264],[30.7015,-24.5864,1501.1938],[30.7303,-24.6087,1291.3612],[30.7323,-24.5481,892.2186],[30.7302,-24.4985,1357.801],[30.759,-24.4602,1776.6821],[30.7286,-24.4531,1720.425],[30.7037,-24.4506,1509.157],[30.6418,-24.4509,1164.7019],[30.6183,-24.433,490.2179],[30.6188,-24.4378,490.1452],[30.6139,-24.4419,497.5314],[30.5973,-24.4432,507.3499],[30.5838,-24.4375,509.4296],[30.5716,-24.4453,508.6751],[30.5658,-24.4472,510.5759],[30.5625,-24.4371,519.0131],[30.5557,-24.4245,526.5919],[30.5532,-24.427,522.429],[30.5512,-24.4391,545.1465],[30.5408,-24.445,540.688],[30.5335,-24.4397,907.3198],[30.5182,-24.4056,1657.0574],[30.4953,-24.3965,1732.2377],[30.4703,-24.3717,1857.2141],[30.4367,-24.3535,1844.5112],[30.4092,-24.3336,1761.1431],[30.3662,-24.2831,1826.887],[30.325,-24.3107,1257.9539],[30.2914,-24.3173,635.6222],[30.2776,-24.318,625.421],[30.2743,-24.3205,635.9424],[30.2662,-24.3095,631.7613],[30.2558,-24.3051,655.0439],[30.2525,-24.2996,658.1071],[30.2477,-24.298,640.7456],[30.2408,-24.2908,642.1504],[30.2417,-24.2867,636.9532],[30.2387,-24.2835,636.2605],[30.2224,-24.2844,644.2012],[30.21,-24.2885,641.3912],[30.2003,-24.288,640.0687],[30.183,-24.2999,644.9413],[30.1799,-24.3047,649.3297],[30.1721,-24.2999,646.9521],[30.1634,-24.2996,664.3771],[30.1527,-24.2939,648.8126],[30.1483,-24.2933,653.6347],[30.1434,-24.2873,652.5284],[30.1483,-24.2774,663.838],[30.1479,-24.2726,686.3718],[30.144,-24.2648,666.3588],[30.147,-24.2558,669.7522],[30.1405,-24.2479,669.0361],[30.1043,-24.2447,703.379],[30.0958,-24.2394,718.4995],[30.0854,-24.2409,668.792],[30.0785,-24.2371,670.7605],[30.0765,-24.2378,672.124],[30.0602,-24.2745,899.5013],[30.0616,-24.3353,1044.1265],[30.0211,-24.3798,1360.9757],[29.9704,-24.4043,1375.3212],[29.9795,-24.4433,1515.7112],[29.951,-24.4822,1183.8734],[29.9679,-24.5007,1228.405],[29.9607,-24.5204,1215.9098],[29.9866,-24.5349,1167.7701],[29.9793,-24.567,1387.3759],[30.0348,-24.6367,1764.1917],[30.0769,-24.6455,1711.9443],[30.0675,-24.6262,1762.989],[30.0873,-24.6206,1329.0715],[30.1198,-24.6997,1228.1555],[30.1042,-24.7407,1135.74],[30.0835,-24.7794,1477.8505],[30.0481,-24.8197,1380.1711],[30.0212,-24.8391,1311.6018],[29.9832,-24.8412,1245.3385],[29.9342,-24.814,1724.0228],[29.9235,-24.8267,1666.1244],[29.9194,-24.8269,1675.1382],[29.9187,-24.8341,1543.0826],[29.9265,-24.8484,1542.9655],[29.896,-24.8585,1538.5146],[29.9025,-24.8749,1410.2344],[29.899,-24.9072,1488.8221],[29.9048,-24.9131,1514.4603],[29.9075,-24.9197,1570.3705],[29.9051,-24.9324,1536.7302],[29.9182,-24.9155,1104.3481],[29.9598,-24.9265,873.5148],[29.9754,-24.9354,1022.8019],[29.9618,-24.9788,933.0172]]]]}}