{"type":"Feature","properties":{"GID_3":"ZAF.8.1.2_1","GID_0":"ZAF","country":"SouthAfrica","GID_1":"ZAF.8_1","province":"NorthernCape","NL_NAME_1":"NA","GID_2":"ZAF.8.1_1","county":"FrancesBaard","NL_NAME_2":"NA","city":"Magareng","VARNAME_3":"NA","NL_NAME_3":"NA","TYPE_3":"LocalMunicipality","ENGTYPE_3":"LocalMunicipality","CC_3":"NC093","HASC_3":"NA","name":"Magareng.city"},
"geometry":{"type": "MultiPolygon","coordinates": [[[[24.899,-28.4305,1155.7798],[24.9376,-28.3249,1183.5444],[24.8903,-28.3102,1236.3884],[24.8705,-28.2704,1220.088],[24.9053,-28.2748,1248.684],[24.9267,-28.2469,1241.4027],[24.9646,-28.2507,1296.9343],[25.0281,-28.0735,1188.6108],[25.0201,-28.0774,1188.0],[25.0098,-28.0767,1188.0],[24.9993,-28.0819,1188.0],[24.9848,-28.0796,1188.3884],[24.9734,-28.081,1188.8058],[24.9694,-28.085,1188.0],[24.9667,-28.0928,1188.0],[24.9595,-28.1035,1187.5],[24.9506,-28.1132,1187.5],[24.862,-27.98,1215.3302],[24.8492,-27.9948,1210.8956],[24.8543,-27.9813,1196.5536],[24.8308,-27.9853,1188.5952],[24.8299,-27.9735,1173.4736],[24.82,-27.9762,1175.5166],[24.8209,-27.9831,1178.485],[24.816,-27.9849,1181.9452],[24.8073,-27.994,1180.6355],[24.8053,-27.9946,1180.0399],[24.7954,-27.9834,1160.1379],[24.7904,-27.9848,1160.562],[24.7848,-27.9916,1157.8291],[24.7774,-27.9901,1147.6182],[24.7773,-27.9929,1149.8169],[24.7752,-27.9941,1150.5189],[24.7697,-27.9909,1149.167],[24.7709,-27.9902,1149.6492],[24.7691,-27.9879,1144.7333],[24.7656,-27.9898,1159.1229],[24.7433,-27.9669,1126.7579],[24.7636,-27.952,1120.0057],[24.7374,-27.9377,1106.4277],[24.7323,-27.9191,1097.5165],[24.7287,-27.9158,1090.9189],[24.7204,-27.9194,1090.7073],[24.7191,-27.9231,1090.7031],[24.7051,-27.9209,1089.9211],[24.7065,-27.9136,1079.1077],[24.6983,-27.9135,1080.1459],[24.698,-27.9199,1089.5537],[24.6645,-27.9163,1079.4948],[24.6168,-27.9071,1055.293],[24.6128,-27.8987,1050.7184],[24.6077,-27.8977,1050.557],[24.606,-27.901,1050.3547],[24.6071,-27.9012,1050.3547],[24.6068,-27.9084,1050.0951],[24.6115,-27.91,1049.0739],[24.6173,-27.9155,1048.7867],[24.6184,-27.9213,1048.7384],[24.6222,-27.9269,1048.459],[24.6257,-27.9287,1048.134],[24.6288,-27.9353,1048.036],[24.6265,-27.938,1047.8188],[24.627,-27.9419,1048.1542],[24.6198,-27.9512,1050.155],[24.6222,-27.9611,1046.8533],[24.6265,-27.963,1046.8243],[24.6256,-27.9672,1046.7621],[24.6219,-27.972,1047.8403],[24.6227,-27.974,1045.9038],[24.6208,-27.9749,1046.4202],[24.6231,-27.9765,1046.1239],[24.6209,-27.9788,1046.431],[24.6249,-27.9906,1045.7539],[24.6273,-27.9909,1045.4734],[24.6294,-27.9943,1045.2911],[24.6273,-27.9971,1045.1547],[24.6283,-27.9995,1045.5751],[24.6248,-27.9992,1044.788],[24.6232,-28.0017,1044.9105],[24.6209,-28.0012,1044.6804],[24.6166,-28.0065,1044.5652],[24.617,-28.008,1044.657],[24.6082,-28.0117,1044.6771],[24.6086,-28.015,1045.6544],[24.6141,-28.0204,1044.0107],[24.6144,-28.0224,1045.8778],[24.6089,-28.0273,1044.1279],[24.608,-28.0262,1043.6171],[24.6031,-28.0292,1043.6332],[24.5941,-28.0287,1043.4589],[24.5919,-28.0313,1043.6035],[24.5887,-28.0279,1041.3081],[24.5788,-28.0326,1042.2131],[24.5664,-28.0348,1041.0],[24.5595,-28.0388,1041.0],[24.5577,-28.0445,1041.0],[24.5632,-28.0569,1041.0],[24.5637,-28.07,1041.0],[24.5599,-28.0747,1041.0],[24.5526,-28.0784,1041.0],[24.5346,-28.0921,1041.0],[24.5365,-28.0931,1041.0],[24.5479,-28.1178,1059.8689],[24.5717,-28.1355,1058.3639],[24.6183,-28.1767,1116.4579],[24.6563,-28.2024,1160.2961],[24.6301,-28.2271,1161.8699],[24.6833,-28.2636,1167.1277],[24.698,-28.2778,1124.3696],[24.6947,-28.2883,1112.2297],[24.6963,-28.3004,1111.6121],[24.7123,-28.3235,1107.9583],[24.7181,-28.3274,1110.0214],[24.7264,-28.3379,1106.4293],[24.7364,-28.359,1106.001],[24.7299,-28.3735,1102.25],[24.7173,-28.371,1101.5],[24.7076,-28.3733,1102.651],[24.7035,-28.3772,1101.0],[24.6984,-28.3875,1102.2485],[24.6992,-28.3901,1102.5964],[24.7067,-28.394,1100.6084],[24.7169,-28.4028,1100.4713],[24.7215,-28.41,1103.7915],[24.7233,-28.4178,1098.698],[24.7211,-28.4313,1096.911],[24.7235,-28.4447,1095.474],[24.7265,-28.4497,1102.8704],[24.7281,-28.4496,1094.5159],[24.7301,-28.4521,1099.552],[24.735,-28.4506,1100.8079],[24.7391,-28.4457,1103.0332],[24.7439,-28.4456,1102.9968],[24.7488,-28.4407,1106.6293],[24.7554,-28.4436,1107.8765],[24.7574,-28.4375,1109.3423],[24.7558,-28.4342,1110.5475],[24.7598,-28.4305,1111.3929],[24.762,-28.4257,1112.6072],[24.7679,-28.4223,1117.1135],[24.7751,-28.4272,1117.5027],[24.779,-28.4333,1119.7151],[24.7863,-28.4343,1121.3099],[24.7912,-28.4417,1123.6782],[24.7988,-28.448,1126.4182],[24.8058,-28.4418,1128.0592],[24.8148,-28.4426,1129.6342],[24.8331,-28.4383,1136.2566],[24.8451,-28.4277,1141.6158],[24.8516,-28.4282,1143.908],[24.8553,-28.4312,1145.6016],[24.8602,-28.4321,1146.9233],[24.8656,-28.4318,1148.5929],[24.8736,-28.4284,1149.6171],[24.8818,-28.4315,1152.9143],[24.8931,-28.4279,1155.7076],[24.899,-28.4305,1155.7798]]]]}}