{"type":"Feature","properties":{"GID_1":"ZAF.5_1","GID_0":"ZAF","country":"SouthAfrica","province":"Limpopo","VARNAME_1":"NoordelikeProvinsie|NorthernTr","NL_NAME_1":"NA","TYPE_1":"Provinsie","ENGTYPE_1":"Province","CC_1":"LIM","HASC_1":"ZA.NP","ISO_1":"ZA-LP","name":"Limpopo.province"},
"geometry":{"type": "MultiPolygon","coordinates": [[[[29.7935,-25.3621,1480.6885],[29.8171,-25.362,1434.2218],[29.8201,-25.3607,1426.0204],[29.8203,-25.3589,1431.0981],[29.8229,-25.3623,1427.1697],[29.8258,-25.3621,1430.323],[29.8273,-25.365,1431.0071],[29.832,-25.3655,1431.3171],[29.8327,-25.37,1435.1334],[29.8372,-25.3768,1436.2859],[29.8373,-25.3818,1439.2964],[29.8403,-25.3863,1446.9564],[29.8878,-25.3643,1497.7518],[29.8879,-25.3386,1474.3289],[29.9376,-25.331,1774.454],[30.0062,-25.3403,1842.3058],[30.0007,-25.2795,1806.0634],[30.0129,-25.231,1845.4772],[30.0098,-25.2313,1867.6292],[30.0054,-25.1444,1894.5951],[29.979,-25.0921,1698.2791],[30.0298,-25.0846,1952.0972],[30.0299,-25.0641,1887.5096],[30.0902,-25.1081,2091.6641],[30.0909,-25.1255,2030.3224],[30.1211,-25.1209,1170.5193],[30.1444,-25.1238,1549.7026],[30.1444,-25.0912,1560.8577],[30.1486,-25.09,1666.2716],[30.1485,-25.0324,1301.1158],[30.1593,-25.028,1415.2583],[30.1987,-25.0364,1838.2549],[30.1972,-25.0309,1817.0413],[30.1792,-24.9991,1474.1637],[30.1795,-24.9896,1377.8092],[30.1721,-24.9892,1381.6886],[30.1717,-24.9698,1305.5529],[30.1785,-24.9221,1350.5686],[30.192,-24.8555,1599.1931],[30.2973,-24.8677,1426.7808],[30.3068,-24.8815,994.5568],[30.3063,-24.8843,985.9506],[30.308,-24.885,966.892],[30.3088,-24.8827,972.3098],[30.3117,-24.8838,960.1416],[30.3124,-24.8825,960.2652],[30.31,-24.8806,954.822],[30.3086,-24.8754,955.334],[30.3109,-24.8729,947.2689],[30.3529,-24.8834,1649.874],[30.3542,-24.8493,1352.9545],[30.3965,-24.8712,909.4311],[30.3986,-24.8683,921.0901],[30.396,-24.861,947.9929],[30.3916,-24.8623,892.7285],[30.3897,-24.8603,927.925],[30.3908,-24.8521,882.0217],[30.3897,-24.8495,878.6819],[30.4251,-24.8549,1281.8212],[30.438,-24.8643,1379.3173],[30.4515,-24.912,1425.9489],[30.4942,-24.9533,1515.2627],[30.4963,-24.9147,1519.0037],[30.5629,-24.8965,1487.5796],[30.5812,-24.9169,1720.1592],[30.58,-24.8874,1236.4258],[30.6084,-24.8724,1723.8284],[30.6187,-24.8442,1417.776],[30.6349,-24.8528,1589.667],[30.6562,-24.8117,1636.6355],[30.6642,-24.7746,1593.1965],[30.6337,-24.7585,1373.2845],[30.6366,-24.7341,1366.4037],[30.6786,-24.7358,1758.0704],[30.6855,-24.7324,1808.7985],[30.7201,-24.7052,1532.6078],[30.7097,-24.6674,1567.5801],[30.6792,-24.6237,1378.0264],[30.7015,-24.5864,1501.1938],[30.7303,-24.6087,1291.3612],[30.7323,-24.5481,892.2186],[30.7302,-24.4985,1357.801],[30.759,-24.4602,1776.6821],[30.7993,-24.4989,1492.2078],[30.8717,-24.5385,1814.5959],[30.9089,-24.5258,837.8264],[30.9543,-24.5213,664.8846],[30.9593,-24.5821,685.8248],[31.0537,-24.5703,655.5724],[31.2262,-24.556,520.9554],[31.2537,-24.4991,518.1112],[31.2032,-24.4265,517.5305],[31.16,-24.4374,509.602],[31.16,-24.3756,467.9514],[31.242,-24.3654,470.2492],[31.2001,-24.305,465.144],[31.1525,-24.3187,448.2609],[31.1022,-24.3237,479.6738],[31.056,-24.3219,476.8023],[31.0604,-24.2718,477.6372],[31.0544,-24.2319,478.8547],[31.0499,-24.1873,430.8296],[31.1073,-24.1457,431.757],[31.0961,-24.1174,400.926],[31.1151,-24.1192,391.706],[31.1206,-24.0903,340.3636],[31.086,-24.0945,401.5623],[31.0634,-24.0915,315.3948],[31.0669,-24.0896,318.1919],[31.0721,-24.0833,310.4499],[31.0942,-24.0755,308.9205],[31.1015,-24.0706,312.2483],[31.1206,-24.0682,306.8308],[31.1338,-24.0737,305.0],[31.1471,-24.0697,304.7169],[31.1626,-24.06,292.3432],[31.1698,-24.0586,292.7978],[31.1713,-24.0442,293.6113],[31.1757,-24.0364,283.9176],[31.1934,-24.031,286.9501],[31.206,-24.041,279.0201],[31.22,-24.0456,273.6205],[31.2347,-24.0576,277.7687],[31.2452,-24.0714,282.5845],[31.2523,-24.0977,271.9108],[31.2572,-24.101,275.0723],[31.2641,-24.0998,270.8895],[31.2751,-24.0938,275.2755],[31.2934,-24.0744,278.8795],[31.3016,-24.0738,258.5803],[31.3132,-24.0814,265.7547],[31.3206,-24.0826,268.5325],[31.3495,-24.0727,270.4736],[31.36,-24.0712,262.7986],[31.3651,-24.0685,264.5912],[31.3791,-24.0522,267.5557],[31.3864,-24.0522,246.3887],[31.3926,-24.0658,242.7989],[31.399,-24.0676,254.6326],[31.42,-24.0564,242.3847],[31.4312,-24.0523,247.7111],[31.4406,-24.0383,249.8926],[31.4409,-24.021,251.2215],[31.4476,-24.0199,233.441],[31.4625,-24.0296,237.7224],[31.482,-24.0316,229.9831],[31.5055,-24.0408,235.866],[31.5099,-24.0432,233.5779],[31.5209,-24.0543,224.8384],[31.5291,-24.0567,223.5296],[31.5426,-24.054,221.7982],[31.5446,-24.0424,230.5433],[31.5487,-24.0372,244.218],[31.5682,-24.0331,218.1344],[31.5737,-24.0373,213.2165],[31.5803,-24.0471,211.3924],[31.5869,-24.0528,210.1764],[31.5947,-24.0564,208.9532],[31.5981,-24.0563,210.4803],[31.6083,-24.0476,209.9762],[31.6096,-24.0363,218.504],[31.6209,-24.0233,205.163],[31.6326,-24.0179,214.3075],[31.6593,-24.0141,210.8795],[31.666,-24.0167,212.1032],[31.6688,-24.021,196.7436],[31.6743,-24.043,193.6214],[31.68,-24.0567,191.0403],[31.6837,-24.0595,191.607],[31.7019,-24.0599,186.0474],[31.7187,-24.0568,181.125],[31.7358,-24.0461,180.1823],[31.7376,-24.039,185.6992],[31.7336,-24.0184,174.2788],[31.7349,-24.0113,176.092],[31.7466,-24.0035,172.14],[31.77,-23.9832,168.1136],[31.7764,-23.9812,170.0869],[31.7827,-23.9821,145.047],[31.7946,-23.9919,153.2176],[31.8012,-23.9941,148.7221],[31.8047,-23.9972,174.8029],[31.8125,-23.9993,141.1137],[31.8204,-23.9984,137.2109],[31.8221,-23.9965,154.2216],[31.8216,-23.9909,166.491],[31.825,-23.9862,155.1718],[31.8527,-23.9869,183.7233],[31.8838,-23.9846,240.2158],[31.8809,-23.9679,133.6367],[31.8807,-23.955,178.647],[31.7692,-23.8878,381.1542],[31.6974,-23.7219,419.0501],[31.6905,-23.6294,386.5903],[31.6658,-23.5914,393.3637],[31.561,-23.482,422.4361],[31.5507,-23.4103,367.387],[31.5559,-23.2691,304.9494],[31.5636,-23.1982,288.2188],[31.5458,-23.1372,282.747],[31.3074,-22.4235,193.0],[31.3094,-22.422,199.111],[31.2871,-22.4044,199.7168],[31.2771,-22.3878,202.9179],[31.2737,-22.3747,202.9674],[31.269,-22.368,203.9221],[31.2651,-22.3655,202.4588],[31.2495,-22.3629,204.9598],[31.2209,-22.3698,209.052],[31.2131,-22.3687,209.9024],[31.2009,-22.3608,208.3328],[31.1874,-22.3389,213.8607],[31.1741,-22.3315,215.1126],[31.163,-22.3285,213.0],[31.141,-22.3319,215.0],[31.0976,-22.3477,222.1908],[31.0884,-22.349,220.5492],[31.0501,-22.3371,227.2634],[31.022,-22.3245,229.483],[30.9997,-22.3164,235.6962],[30.9953,-22.3175,229.0],[30.9929,-22.3241,230.5934],[30.9901,-22.3266,230.0],[30.9809,-22.3276,232.6132],[30.9732,-22.3237,234.8094],[30.9687,-22.3149,233.0],[30.9463,-22.3151,235.0],[30.9411,-22.312,238.3159],[30.9338,-22.303,238.3029],[30.9301,-22.3013,237.375],[30.9172,-22.3007,239.7404],[30.9081,-22.2973,244.7383],[30.9002,-22.2964,240.8833],[30.8824,-22.3048,244.7385],[30.8698,-22.2987,244.3186],[30.8354,-22.292,251.6779],[30.7959,-22.301,267.1164],[30.7744,-22.3043,280.9302],[30.7603,-22.3042,285.0748],[30.7498,-22.3079,289.353],[30.7318,-22.3094,289.3592],[30.7086,-22.3171,301.0904],[30.6694,-22.3106,311.3871],[30.6633,-22.311,311.6215],[30.6526,-22.3161,315.0753],[30.6391,-22.3323,325.6684],[30.6317,-22.3363,332.5044],[30.6237,-22.3357,326.7917],[30.6072,-22.323,343.6702],[30.5947,-22.3197,344.5],[30.5809,-22.3189,349.4773],[30.5671,-22.3216,351.5372],[30.5625,-22.3242,350.8261],[30.5577,-22.3298,354.6721],[30.5528,-22.3316,356.2423],[30.5174,-22.323,357.75],[30.5058,-22.3226,360.125],[30.4894,-22.3164,363.0],[30.4757,-22.3191,364.5],[30.4522,-22.3315,367.5],[30.4407,-22.3356,368.5],[30.3992,-22.3447,372.0],[30.3822,-22.3509,374.0],[30.3611,-22.3482,380.6421],[30.3361,-22.3506,380.0],[30.3163,-22.3477,381.0],[30.302,-22.3544,382.0],[30.2902,-22.3563,385.5592],[30.2829,-22.354,383.5],[30.2737,-22.3469,384.0],[30.2663,-22.3374,387.2522],[30.2576,-22.3207,387.0],[30.2498,-22.3134,388.0],[30.2406,-22.3084,389.0],[30.2363,-22.2998,390.0],[30.2311,-22.2959,391.9517],[30.1932,-22.2961,399.0925],[30.1574,-22.2998,399.0],[30.1502,-22.3019,400.0],[30.133,-22.311,402.5],[30.1262,-22.3111,403.0],[30.1216,-22.3087,403.5],[30.1013,-22.2867,404.625],[30.0758,-22.2743,407.1031],[30.0581,-22.2571,411.6567],[30.0505,-22.2549,411.3428],[30.0315,-22.256,416.486],[30.0256,-22.2536,434.2932],[30.0196,-22.2446,412.8814],[30.0198,-22.2334,418.3514],[30.0176,-22.2289,415.5714],[30.0112,-22.2274,416.3523],[29.9998,-22.2288,417.7399],[29.9819,-22.2235,423.5],[29.9699,-22.2242,430.2228],[29.9606,-22.213,433.1431],[29.9257,-22.1899,444.2853],[29.916,-22.1896,447.1794],[29.8903,-22.1952,448.4915],[29.8845,-22.1946,450.1144],[29.8777,-22.191,454.0562],[29.8599,-22.1752,453.8053],[29.8311,-22.175,458.7987],[29.8052,-22.1655,459.4778],[29.798,-22.1575,465.2927],[29.7736,-22.1414,463.7261],[29.7319,-22.1413,473.5873],[29.7166,-22.1434,470.9976],[29.7002,-22.1371,470.491],[29.6922,-22.1364,472.9149],[29.6726,-22.1388,472.8387],[29.6628,-22.1276,477.4853],[29.6567,-22.1251,475.2153],[29.653,-22.1255,476.2885],[29.6407,-22.1323,476.2038],[29.6282,-22.1356,478.6515],[29.6221,-22.1415,480.9786],[29.6165,-22.1521,480.332],[29.6102,-22.1557,481.6985],[29.6019,-22.1544,481.5726],[29.5883,-22.1434,483.5122],[29.5802,-22.1409,483.3613],[29.5748,-22.1423,484.3622],[29.5625,-22.1498,485.6667],[29.5392,-22.1527,487.7444],[29.5355,-22.1552,488.4309],[29.5342,-22.1583,492.7011],[29.5348,-22.1703,490.4464],[29.531,-22.1761,491.4183],[29.5265,-22.1782,492.3116],[29.5108,-22.1769,494.1802],[29.4832,-22.1673,495.9669],[29.4722,-22.1656,496.9845],[29.4641,-22.1661,497.2795],[29.4168,-22.1751,501.9126],[29.4096,-22.1782,502.6113],[29.4058,-22.1833,505.9879],[29.3992,-22.1842,503.3636],[29.3856,-22.1921,505.495],[29.3629,-22.1996,511.587],[29.3528,-22.198,507.3332],[29.3498,-22.1934,510.3492],[29.3466,-22.1928,511.0612],[29.3402,-22.2021,514.1176],[29.3338,-22.2048,516.7856],[29.3275,-22.2003,512.3356],[29.3241,-22.1891,514.9235],[29.3206,-22.187,511.3047],[29.3092,-22.1883,515.1098],[29.2994,-22.186,515.2223],[29.291,-22.1881,518.1201],[29.2842,-22.1861,517.9642],[29.2772,-22.1926,516.705],[29.2712,-22.1932,515.9796],[29.266,-22.1894,519.9244],[29.2577,-22.1934,519.2548],[29.2383,-22.1818,516.4609],[29.2189,-22.1781,519.515],[29.2115,-22.182,521.4609],[29.198,-22.1834,520.2563],[29.1908,-22.1858,522.7458],[29.1873,-22.1894,519.4766],[29.1805,-22.1928,522.6],[29.1745,-22.2006,522.4962],[29.1662,-22.2074,521.9163],[29.1555,-22.2143,524.1761],[29.15,-22.2159,524.9153],[29.1433,-22.2164,526.9645],[29.1333,-22.2136,526.2483],[29.1218,-22.2145,522.8451],[29.108,-22.2124,526.2206],[29.0864,-22.2206,529.8491],[29.0813,-22.2211,529.498],[29.0711,-22.2182,527.4017],[29.049,-22.2192,526.9011],[29.0448,-22.2168,527.658],[29.0359,-22.2166,529.16],[29.0305,-22.2214,530.1339],[29.0289,-22.2284,530.3616],[29.0268,-22.229,530.3855],[29.0194,-22.2262,535.1866],[29.0142,-22.2309,534.2805],[29.0128,-22.2379,531.8234],[29.0137,-22.2569,533.8649],[29.0049,-22.2626,542.517],[29.0028,-22.2747,534.1208],[28.9965,-22.2805,534.865],[28.9821,-22.2852,532.2283],[28.9776,-22.2913,538.4963],[28.9779,-22.2963,537.4587],[28.9761,-22.3005,536.0327],[28.9666,-22.3075,538.0515],[28.9627,-22.3288,551.5905],[28.9641,-22.3376,562.2997],[28.9635,-22.3472,584.379],[28.969,-22.3574,573.9161],[28.9718,-22.368,597.1271],[28.9715,-22.377,601.6279],[28.9677,-22.3841,605.7296],[28.9524,-22.4041,617.6874],[28.9512,-22.4155,614.4023],[28.9445,-22.4262,623.0543],[28.9443,-22.432,619.0809],[28.9341,-22.4417,618.8953],[28.9219,-22.4584,625.0551],[28.9168,-22.4614,626.6652],[28.9118,-22.4614,623.9514],[28.8993,-22.453,624.7969],[28.8787,-22.4475,627.2112],[28.8689,-22.4477,631.1488],[28.8561,-22.4512,634.6597],[28.8325,-22.4618,632.9241],[28.8297,-22.4646,639.4364],[28.8289,-22.4707,639.2851],[28.8337,-22.4798,638.4913],[28.8332,-22.4849,638.6299],[28.8311,-22.4883,640.4287],[28.7901,-22.4964,648.9669],[28.7762,-22.5007,642.8049],[28.7381,-22.5043,647.3514],[28.7223,-22.5119,646.3727],[28.7077,-22.516,647.7985],[28.7012,-22.5206,648.4559],[28.7005,-22.5264,655.7288],[28.6878,-22.5335,652.9443],[28.6781,-22.5319,652.0377],[28.6698,-22.5347,658.3367],[28.6642,-22.5391,654.8553],[28.658,-22.5483,655.4637],[28.6413,-22.558,659.8198],[28.6174,-22.5625,665.8928],[28.5755,-22.5598,668.0177],[28.5641,-22.561,673.8962],[28.5419,-22.5786,695.7985],[28.5328,-22.5816,698.3379],[28.5235,-22.5874,701.1437],[28.5144,-22.5892,699.2078],[28.5083,-22.5888,701.8873],[28.4966,-22.5785,704.1462],[28.4791,-22.5709,708.2614],[28.4578,-22.5726,711.8189],[28.45,-22.5694,713.1362],[28.4429,-22.569,712.5376],[28.4231,-22.5731,714.6932],[28.4061,-22.5696,724.0781],[28.3928,-22.5704,719.3248],[28.3833,-22.5693,722.8948],[28.3665,-22.573,720.9966],[28.3491,-22.5717,724.8618],[28.343,-22.5735,731.1093],[28.3348,-22.5885,726.436],[28.3257,-22.5971,725.4791],[28.3062,-22.609,729.249],[28.2988,-22.6087,728.0289],[28.2912,-22.6123,730.3918],[28.2777,-22.6155,727.1558],[28.2739,-22.6213,731.2367],[28.271,-22.6325,735.0637],[28.2672,-22.6388,736.3146],[28.2571,-22.6439,738.2097],[28.2463,-22.6566,740.3416],[28.2366,-22.657,736.6298],[28.2261,-22.6604,737.5107],[28.2192,-22.6646,742.6437],[28.2097,-22.6645,744.3079],[28.1979,-22.6777,747.0455],[28.1826,-22.6886,752.0312],[28.1592,-22.7195,748.9313],[28.1582,-22.7243,752.6821],[28.1639,-22.7419,751.5029],[28.1628,-22.7548,759.1444],[28.1451,-22.7748,755.6107],[28.1214,-22.7845,760.5729],[28.1101,-22.8005,758.2593],[28.0948,-22.8137,759.7665],[28.0826,-22.8172,758.9448],[28.0737,-22.8222,761.1555],[28.068,-22.8278,765.9467],[28.0468,-22.8296,762.9994],[28.0414,-22.8331,765.4343],[28.0392,-22.8425,763.1123],[28.0474,-22.8606,765.5347],[28.0445,-22.8719,766.2629],[28.05,-22.8797,769.2355],[28.0513,-22.8846,766.9526],[28.05,-22.8891,771.4569],[28.0455,-22.8931,766.7651],[28.0454,-22.8994,768.4277],[28.0395,-22.9103,768.2305],[28.0244,-22.92,769.4465],[28.0138,-22.931,769.0413],[27.9936,-22.9374,771.2114],[27.9788,-22.9486,771.9677],[27.9662,-22.9546,775.9693],[27.9611,-22.9599,772.1515],[27.955,-22.9616,775.5002],[27.9484,-22.9611,774.5893],[27.941,-22.9556,773.8259],[27.9354,-22.9626,772.9121],[27.9406,-22.9806,775.6829],[27.9427,-22.9942,776.1105],[27.9414,-23.0005,777.4227],[27.9376,-23.0059,781.188],[27.9375,-23.0154,781.4476],[27.9431,-23.028199999999998,780.6698],[27.9437,-23.0332,778.4285],[27.9424,-23.0392,778.5193],[27.936,-23.0517,779.2751],[27.9276,-23.0574,780.491],[27.9201,-23.0683,784.1125],[27.9159,-23.0699,780.8953],[27.9102,-23.0751,781.8927],[27.8997,-23.0781,781.1218],[27.8949,-23.0828,779.951],[27.8811,-23.0905,782.6838],[27.854,-23.0998,785.0479],[27.8479,-23.1048,782.5863],[27.8346,-23.1085,782.5085],[27.8284,-23.107,784.0199],[27.8226,-23.1081,784.0723],[27.8196,-23.1046,786.7227],[27.8141,-23.1065,783.7279],[27.812,-23.1102,781.9985],[27.8133,-23.1151,786.9822],[27.8189,-23.1196,786.6651],[27.8196,-23.1243,787.069],[27.8184,-23.1281,785.5469],[27.8118,-23.1307,783.92],[27.8095,-23.1345,784.0376],[27.7938,-23.1375,784.1649],[27.7911,-23.1414,787.0251],[27.7876,-23.141,787.3627],[27.7819,-23.1431,786.2226],[27.7798,-23.1407,784.0927],[27.7808,-23.1354,787.2021],[27.7785,-23.1318,790.4619],[27.7745,-23.1309,786.9872],[27.7667,-23.1339,785.1555],[27.7653,-23.1424,786.5568],[27.7711,-23.146,790.3562],[27.7833,-23.1577,787.7908],[27.7856,-23.1647,783.9603],[27.7851,-23.1708,785.0851],[27.7809,-23.1769,791.3962],[27.7696,-23.1805,785.9846],[27.7684,-23.1846,790.5591],[27.7596,-23.1906,787.0143],[27.7593,-23.1965,789.3081],[27.7561,-23.1989,793.0347],[27.7541,-23.2038,793.5759],[27.7508,-23.2057,788.2738],[27.7521,-23.2193,788.3344],[27.7416,-23.2304,790.0779],[27.7353,-23.2332,790.8936],[27.726,-23.2329,786.4663],[27.7241,-23.229,792.6064],[27.7199,-23.2305,789.7001],[27.714,-23.2286,791.1647],[27.7118,-23.226,791.4304],[27.7113,-23.2201,791.5067],[27.7037,-23.2037,792.8129],[27.6998,-23.2,795.3467],[27.6893,-23.1962,792.4164],[27.672,-23.2005,791.4106],[27.6677,-23.2052,796.8592],[27.6669,-23.2111,795.2317],[27.6602,-23.2176,793.363],[27.6604,-23.2207,793.5791],[27.6587,-23.2222,794.2234],[27.6524,-23.2219,794.106],[27.6495,-23.2257,793.9475],[27.6408,-23.2248,798.1073],[27.639,-23.2261,794.9141],[27.6213,-23.2181,794.9138],[27.6131,-23.2197,796.6844],[27.6041,-23.2158,792.5878],[27.5997,-23.2176,792.3895],[27.5966,-23.2237,793.6771],[27.5978,-23.2261,795.7325],[27.5961,-23.2344,795.7223],[27.6009,-23.2434,796.1874],[27.6012,-23.2472,800.6867],[27.5915,-23.2568,796.9547],[27.5808,-23.2582,796.0638],[27.5761,-23.2608,796.1878],[27.5729,-23.2653,799.9522],[27.574,-23.2693,797.2371],[27.5731,-23.2722,798.4314],[27.5763,-23.2809,799.7386],[27.5726,-23.2904,798.7213],[27.5731,-23.2942,797.5799],[27.5686,-23.2989,801.5441],[27.5683,-23.303,798.9766],[27.5638,-23.3058,796.8599],[27.5602,-23.3149,801.4844],[27.5707,-23.326,800.8545],[27.5671,-23.3411,797.9335],[27.5628,-23.3496,802.7371],[27.5575,-23.3505,798.6953],[27.5539,-23.3571,801.381],[27.548,-23.3582,797.6195],[27.5417,-23.365,801.233],[27.5385,-23.3658,801.525],[27.5366,-23.3757,802.7857],[27.5323,-23.3778,803.039],[27.5286,-23.3828,800.7258],[27.5287,-23.3853,800.334],[27.523,-23.3873,804.0575],[27.5138,-23.3855,801.9297],[27.5044,-23.3881,803.8499],[27.4956,-23.3841,800.1558],[27.4941,-23.3843,802.6707],[27.4932,-23.3871,804.4319],[27.4828,-23.3846,806.0109],[27.474,-23.3866,804.9712],[27.4711,-23.3845,804.0114],[27.4673,-23.3864,805.2934],[27.4584,-23.3839,806.5438],[27.4553,-23.3858,807.1749],[27.4484,-23.3865,805.228],[27.442,-23.3847,803.7224],[27.4414,-23.3922,806.0151],[27.435,-23.3979,806.5925],[27.4333,-23.4129,805.7529],[27.4306,-23.4164,805.9716],[27.4283,-23.4247,806.8472],[27.4218,-23.4265,805.3472],[27.41,-23.4243,806.6156],[27.4052,-23.42,806.2043],[27.4012,-23.413,810.0104],[27.4102,-23.3996,807.1993],[27.4105,-23.391,809.0931],[27.4072,-23.3888,807.6989],[27.3877,-23.39,809.7323],[27.3772,-23.399,810.1483],[27.3767,-23.4039,812.4781],[27.373,-23.4077,810.5454],[27.3728,-23.41,809.8062],[27.3808,-23.4203,809.5427],[27.3757,-23.4228,812.0543],[27.3743,-23.4271,810.5848],[27.3581,-23.4278,810.6481],[27.352,-23.4272,810.3682],[27.3489,-23.4253,808.46],[27.348,-23.4224,811.8397],[27.3505,-23.4202,814.2065],[27.3523,-23.4139,810.2354],[27.3564,-23.4106,815.1884],[27.3555,-23.4037,809.6058],[27.3571,-23.4016,808.6793],[27.3559,-23.3992,812.0703],[27.3485,-23.3976,810.0148],[27.3298,-23.4031,811.6444],[27.3252,-23.4066,813.7821],[27.3248,-23.4173,813.0908],[27.3201,-23.4207,811.5015],[27.3161,-23.4294,811.8896],[27.3122,-23.4318,812.3092],[27.3119,-23.434,812.3307],[27.3156,-23.4352,815.2994],[27.313,-23.4407,814.4893],[27.3166,-23.4446,814.4704],[27.3167,-23.4466,814.8935],[27.3104,-23.4471,816.7009],[27.3132,-23.4505,817.9677],[27.311,-23.4524,812.4407],[27.3084,-23.4509,816.0863],[27.3054,-23.4532,818.9479],[27.3059,-23.4575,817.0671],[27.303,-23.4627,817.25],[27.2944,-23.4601,818.4345],[27.2876,-23.4623,815.9916],[27.2843,-23.4706,818.5046],[27.2672,-23.4779,819.8131],[27.2636,-23.4781,816.7897],[27.2603,-23.4722,818.0324],[27.2586,-23.4723,818.545],[27.2552,-23.4772,817.8459],[27.2466,-23.4786,820.2016],[27.2428,-23.483,817.37],[27.2391,-23.4829,818.7062],[27.2364,-23.4849,817.8752],[27.2355,-23.4944,816.9913],[27.2333,-23.4959,817.1503],[27.2265,-23.4972,817.1949],[27.2238,-23.4947,817.1631],[27.2261,-23.4851,819.0497],[27.2093,-23.49,819.2017],[27.2073,-23.4921,819.4448],[27.1924,-23.4981,822.8405],[27.194,-23.5146,820.5704],[27.1996,-23.5155,820.6569],[27.2026,-23.519,820.5531],[27.209,-23.5214,820.7994],[27.2109,-23.526,818.913],[27.2104,-23.5274,820.5858],[27.2048,-23.5268,822.401],[27.2019,-23.5287,821.4106],[27.201,-23.5343,820.3212],[27.197,-23.5347,820.5952],[27.1937,-23.5315,821.4673],[27.1918,-23.534,822.2879],[27.1882,-23.533,822.3558],[27.1722,-23.5219,822.3371],[27.1661,-23.5247,825.2238],[27.1674,-23.5286,824.9064],[27.1647,-23.5364,821.6096],[27.1599,-23.5371,822.3757],[27.159,-23.5332,822.6953],[27.1564,-23.5354,820.4447],[27.1548,-23.5346,823.1694],[27.1544,-23.5304,821.065],[27.1479,-23.5238,822.0547],[27.1437,-23.5248,823.5173],[27.1382,-23.5228,822.4913],[27.1348,-23.5239,823.6774],[27.1333,-23.5286,823.072],[27.1376,-23.5269,823.1401],[27.1395,-23.5288,825.7563],[27.1348,-23.5336,823.6401],[27.1346,-23.5436,827.6207],[27.14,-23.5533,825.0106],[27.1484,-23.5513,826.2643],[27.15,-23.5594,827.4142],[27.1548,-23.5692,820.111],[27.1508,-23.5676,827.1378],[27.1508,-23.5721,824.3832],[27.1458,-23.5748,825.6461],[27.1408,-23.5728,828.0615],[27.1299,-23.5741,827.1007],[27.1312,-23.5694,828.6941],[27.1245,-23.5686,828.5374],[27.1172,-23.5622,827.0504],[27.1171,-23.5665,827.7811],[27.1133,-23.5705,826.6523],[27.1101,-23.5704,830.5123],[27.108,-23.5674,830.2809],[27.1083,-23.5791,826.418],[27.1065,-23.5833,826.1115],[27.1086,-23.5903,824.3615],[27.1055,-23.5975,828.7315],[27.0997,-23.599,829.1768],[27.0997,-23.6029,829.2238],[27.0941,-23.6006,830.6792],[27.0816,-23.5989,829.2794],[27.0795,-23.6001,829.5003],[27.0797,-23.6072,831.7535],[27.0851,-23.609,829.4487],[27.08,-23.6135,829.1713],[27.0736,-23.6145,831.8004],[27.071,-23.6119,831.1804],[27.0726,-23.6094,832.0279],[27.0594,-23.6126,829.3033],[27.063,-23.6256,832.837],[27.0649,-23.6273,828.7125],[27.0688,-23.6256,832.0146],[27.0699,-23.6301,829.8303],[27.0742,-23.6321,828.3644],[27.0752,-23.6358,828.9987],[27.0812,-23.6433,837.3304],[27.0788,-23.6481,831.5662],[27.0813,-23.6551,829.083],[27.0776,-23.6539,830.4499],[27.0746,-23.6548,830.577],[27.0775,-23.6576,830.8062],[27.0778,-23.6608,829.5804],[27.0737,-23.6637,828.8757],[27.0706,-23.6707,829.1499],[27.0644,-23.6709,830.4379],[27.0588,-23.6762,832.5961],[27.0456,-23.6827,831.8304],[27.038,-23.6827,835.0762],[27.0311,-23.6757,832.7104],[27.035,-23.6677,832.2736],[27.0366,-23.6565,834.2758],[27.0329,-23.6569,831.8328],[27.031,-23.6598,835.3648],[27.0274,-23.66,835.1593],[27.0213,-23.6552,837.4203],[27.026,-23.651,838.314],[27.0257,-23.6445,837.0922],[27.0194,-23.6438,834.6485],[27.0111,-23.6378,839.088],[27.0081,-23.6427,836.4902],[27.0028,-23.6443,837.1497],[26.9997,-23.6524,829.0],[26.9957,-23.6527,836.1081],[26.9971,-23.6559,835.0433],[27.0009,-23.6579,838.4133],[27.0026,-23.6647,834.1647],[27.0018,-23.6702,835.103],[26.9993,-23.6719,834.9413],[26.9978,-23.6772,838.8157],[27.0024,-23.6881,836.5892],[26.9794,-23.6966,837.2338],[26.9711,-23.7028,837.9062],[26.9735,-23.7071,839.4888],[26.9743,-23.7134,839.8405],[26.9701,-23.7163,839.3235],[26.9683,-23.7234,838.4713],[26.9705,-23.728,840.0764],[26.9666,-23.7299,840.3378],[26.9667,-23.7337,840.2864],[26.9614,-23.7469,839.2529],[26.9654,-23.7545,839.2814],[26.9628,-23.7635,840.2938],[26.9655,-23.7689,840.1239],[26.9638,-23.7714,841.3066],[26.964,-23.7771,841.1418],[26.9575,-23.784,842.3207],[26.9519,-23.794,839.2546],[26.9534,-23.8055,841.3667],[26.9491,-23.8139,840.0287],[26.9488,-23.8235,841.2059],[26.9545,-23.8262,840.9797],[26.9587,-23.8308,840.245],[26.9509,-23.8415,842.6231],[26.9398,-23.8439,841.5726],[26.9323,-23.8511,840.6716],[26.9339,-23.8568,844.0752],[26.937,-23.8564,846.3513],[26.9432,-23.8595,846.7482],[26.9474,-23.8598,843.8619],[26.951,-23.8627,843.6326],[26.9539,-23.8671,845.2082],[26.9553,-23.8736,849.0642],[26.9527,-23.8784,845.451],[26.9485,-23.8804,844.6447],[26.9428,-23.8867,844.0469],[26.9434,-23.89,847.1341],[26.9412,-23.894,845.868],[26.9425,-23.9034,845.2347],[26.9278,-23.9224,848.2306],[26.9317,-23.9368,846.5283],[26.9322,-23.9554,846.9504],[26.9268,-23.9613,850.0333],[26.9214,-23.9637,848.4271],[26.9146,-23.9714,849.0782],[26.9111,-23.9889,854.3986],[26.9128,-23.9962,850.9832],[26.9106,-23.9995,853.288],[26.9101,-24.004,855.444],[26.9125,-24.012,854.9637],[26.9093,-24.0284,853.0966],[26.9038,-24.0327,854.0634],[26.8942,-24.0446,857.9766],[26.8892,-24.0548,852.176],[26.8889,-24.0746,856.2685],[26.8838,-24.0916,854.1312],[26.8779,-24.0957,856.167],[26.8632,-24.0997,858.5613],[26.8602,-24.1066,857.6653],[26.8642,-24.1124,859.2156],[26.8676,-24.1239,861.6573],[26.8617,-24.1385,859.1552],[26.8665,-24.1437,858.9019],[26.8745,-24.147,858.258],[26.8791,-24.1601,859.5461],[26.8787,-24.1656,857.7258],[26.8759,-24.1691,862.7544],[26.8715,-24.1714,861.5681],[26.8655,-24.172,860.2631],[26.8645,-24.1791,863.1843],[26.8675,-24.1821,863.8079],[26.8687,-24.1904,861.6989],[26.8718,-24.1912,861.4899],[26.8755,-24.1895,865.0538],[26.8798,-24.1914,865.2139],[26.8812,-24.1877,864.47],[26.8833,-24.1896,863.725],[26.8801,-24.1929,865.2139],[26.8809,-24.1965,863.0081],[26.8786,-24.1962,865.2753],[26.8794,-24.201,864.1378],[26.873,-24.2069,863.7704],[26.871,-24.2152,862.1852],[26.8622,-24.2163,863.0587],[26.8626,-24.2197,863.3784],[26.8593,-24.2231,863.0587],[26.8605,-24.2299,864.7745],[26.8618,-24.2315,863.9329],[26.8639,-24.2305,864.4414],[26.8646,-24.2351,865.2037],[26.8625,-24.2362,864.5359],[26.8626,-24.238,864.5923],[26.866,-24.2392,864.6736],[26.8668,-24.2427,865.6041],[26.8691,-24.2441,864.3915],[26.8653,-24.2457,865.3781],[26.8664,-24.2481,865.6333],[26.8644,-24.2495,867.4487],[26.8659,-24.251,865.5347],[26.8595,-24.2531,865.5339],[26.8591,-24.2554,866.265],[26.8575,-24.2549,865.3058],[26.8548,-24.2597,866.0036],[26.8561,-24.2604,866.0036],[26.8557,-24.2635,866.3528],[26.854,-24.2637,866.6527],[26.8537,-24.2622,865.1501],[26.8513,-24.263,865.4114],[26.8517,-24.2643,865.4114],[26.85,-24.265,865.4104],[26.8514,-24.2675,865.6716],[26.8495,-24.2663,865.6277],[26.8473,-24.2696,865.3458],[26.8457,-24.2693,865.9382],[26.8427,-24.2744,865.3316],[26.8408,-24.2747,865.7105],[26.8389,-24.2709,866.7169],[26.8385,-24.2726,865.9492],[26.8356,-24.2734,867.7313],[26.834,-24.2701,867.129],[26.8328,-24.2742,868.1275],[26.8286,-24.2708,868.1931],[26.829,-24.273,867.5307],[26.825,-24.273,867.9715],[26.8233,-24.2797,867.7469],[26.8223,-24.2783,867.8625],[26.8188,-24.2792,868.9735],[26.8194,-24.2819,868.2235],[26.8144,-24.2852,869.1931],[26.8156,-24.2866,868.311],[26.8108,-24.2855,868.9767],[26.8099,-24.2882,868.7059],[26.8077,-24.2876,868.8658],[26.8084,-24.2894,869.3218],[26.8054,-24.2877,869.0505],[26.8013,-24.2881,868.3646],[26.8033,-24.2919,869.191],[26.8019,-24.2944,869.6774],[26.803,-24.2964,869.7657],[26.8008,-24.2998,871.2905],[26.7975,-24.2986,870.6766],[26.7978,-24.3009,870.6362],[26.7897,-24.3013,870.3114],[26.7858,-24.3066,870.173],[26.7839,-24.3054,870.534],[26.7816,-24.299,870.9267],[26.7807,-24.3003,870.8965],[26.7757,-24.3007,870.7989],[26.7765,-24.3022,871.1388],[26.7733,-24.3051,871.1563],[26.7668,-24.3058,871.2086],[26.7653,-24.3044,871.5135],[26.7635,-24.3057,871.3573],[26.7625,-24.3104,872.3152],[26.7545,-24.3112,873.5393],[26.755,-24.3126,872.3273],[26.7519,-24.3132,872.5878],[26.7461,-24.3114,872.1932],[26.7471,-24.3065,872.6244],[26.742,-24.3044,872.9563],[26.7412,-24.3067,873.8064],[26.7392,-24.3043,873.4795],[26.7334,-24.3041,873.7722],[26.7311,-24.3085,873.9078],[26.729,-24.3089,873.3557],[26.731,-24.3111,874.1771],[26.7286,-24.3115,874.004],[26.7296,-24.3125,874.1615],[26.7277,-24.3128,874.004],[26.7279,-24.315,874.4879],[26.7264,-24.3136,874.2309],[26.7228,-24.3165,874.4445],[26.7201,-24.3167,874.5906],[26.7201,-24.3198,875.0812],[26.7165,-24.3189,874.5574],[26.7156,-24.3206,874.7432],[26.7113,-24.3209,875.2651],[26.7116,-24.3192,875.2577],[26.7099,-24.3182,874.8906],[26.7096,-24.32,875.0818],[26.7076,-24.3202,875.3053],[26.709,-24.3216,875.6199],[26.7064,-24.3202,875.3108],[26.704,-24.3218,875.168],[26.7052,-24.3248,875.6301],[26.7021,-24.3255,876.1663],[26.7008,-24.3306,876.3681],[26.7025,-24.3323,875.7476],[26.7005,-24.333,876.9636],[26.7026,-24.3347,876.4779],[26.6969,-24.3357,877.0789],[26.697,-24.3392,877.2167],[26.689,-24.3367,876.9529],[26.6852,-24.3381,877.2126],[26.6841,-24.342,877.9173],[26.6757,-24.344,877.5582],[26.6755,-24.3461,877.8489],[26.6767,-24.345,878.4243],[26.6776,-24.3463,878.3774],[26.6748,-24.3487,878.2159],[26.6757,-24.3512,878.2778],[26.6742,-24.3502,878.2657],[26.674,-24.3518,878.6589],[26.6724,-24.3512,878.4082],[26.671,-24.3546,878.7675],[26.6686,-24.3536,878.4694],[26.6702,-24.3559,878.7675],[26.6678,-24.3551,878.965],[26.6672,-24.3605,879.4636],[26.6641,-24.362,878.9846],[26.6657,-24.362,879.7947],[26.6681,-24.3669,880.311],[26.6701,-24.3675,879.9111],[26.6689,-24.3727,879.7959],[26.667,-24.3719,880.1897],[26.6652,-24.3737,880.4987],[26.6671,-24.3744,879.3962],[26.6647,-24.3775,880.735],[26.6657,-24.3787,880.6017],[26.6629,-24.3795,881.5827],[26.6637,-24.3812,881.7336],[26.6576,-24.3816,881.2858],[26.6587,-24.385,881.9432],[26.6551,-24.3859,882.2318],[26.6466,-24.3818,882.7948],[26.6441,-24.383,882.6844],[26.6444,-24.3845,882.6844],[26.6356,-24.3875,882.4466],[26.6373,-24.3902,883.2119],[26.6354,-24.3899,883.0143],[26.636,-24.392,883.3055],[26.6346,-24.392,883.3055],[26.6327,-24.3956,884.1487],[26.6256,-24.3937,884.2211],[26.619,-24.3995,884.7134],[26.6171,-24.3984,885.2107],[26.6139,-24.4025,884.6864],[26.6131,-24.4066,884.7859],[26.6085,-24.4071,885.7111],[26.6031,-24.4103,886.0468],[26.6001,-24.409,885.6287],[26.5975,-24.4102,887.1664],[26.5959,-24.4086,886.0175],[26.5946,-24.4102,886.1755],[26.5902,-24.4092,886.6195],[26.5875,-24.4107,886.7982],[26.5898,-24.4123,888.3365],[26.5882,-24.4127,886.8892],[26.5861,-24.4207,888.7189],[26.5853,-24.4223,888.2966],[26.5816,-24.4229,888.1265],[26.5818,-24.4263,888.2147],[26.5841,-24.4264,888.4356],[26.5814,-24.429,888.3829],[26.5789,-24.4286,888.5178],[26.5752,-24.431,888.8696],[26.5737,-24.4329,888.9449],[26.5762,-24.4332,888.755],[26.5746,-24.4346,889.6675],[26.5713,-24.4336,889.1569],[26.5656,-24.4361,888.5289],[26.5677,-24.4364,889.498],[26.5682,-24.438,889.7405],[26.566,-24.4392,889.616],[26.566,-24.4445,890.3144],[26.5624,-24.4478,889.8345],[26.5597,-24.4536,890.5374],[26.5527,-24.4518,890.4561],[26.5509,-24.4544,891.2975],[26.5502,-24.461,891.5731],[26.5467,-24.4654,892.7776],[26.5407,-24.4634,892.4863],[26.538,-24.4662,892.7545],[26.5386,-24.4697,893.3951],[26.536,-24.4727,893.2964],[26.5363,-24.4751,892.7881],[26.528199999999998,-24.4763,894.3013],[26.528199999999998,-24.4776,894.3013],[26.53,-24.4776,894.8906],[26.5292,-24.479,894.4403],[26.5266,-24.4785,894.6529],[26.5194,-24.4842,895.004],[26.5103,-24.488,895.4191],[26.5117,-24.4952,896.1986],[26.5096,-24.4946,896.5001],[26.511,-24.4995,897.5348],[26.5102,-24.5028,896.8434],[26.5065,-24.5049,899.0834],[26.506,-24.5069,899.7568],[26.5029,-24.5064,899.6641],[26.5015,-24.5084,899.4006],[26.5011,-24.51,899.0212],[26.5028,-24.5106,899.0832],[26.5011,-24.5138,900.5115],[26.5002,-24.5228,899.7529],[26.4925,-24.5344,901.4237],[26.4927,-24.5361,901.1507],[26.4897,-24.5386,899.4133],[26.4877,-24.5511,901.7959],[26.4812,-24.5571,902.5099],[26.482,-24.5669,902.6058],[26.4716,-24.5882,904.7097],[26.4616,-24.5963,905.0057],[26.4518,-24.6106,906.3752],[26.4474,-24.6131,906.498],[26.4415,-24.6119,907.2721],[26.4394,-24.6152,910.3019],[26.4331,-24.6185,907.6917],[26.4282,-24.6195,909.7352],[26.4263,-24.6178,906.4877],[26.4222,-24.6251,907.675],[26.4214,-24.634,908.1089],[26.4153,-24.6408,911.2783],[26.4101,-24.6438,916.7165],[26.4075,-24.6494,917.0706],[26.4276,-24.6582,917.9784],[26.427,-24.6652,917.3152],[26.4218,-24.6708,917.9166],[26.4228,-24.6817,918.3557],[26.4213,-24.6916,922.3243],[26.4272,-24.6967,923.5491],[26.4197,-24.716,925.8019],[26.4226,-24.7206,925.7121],[26.4182,-24.729,926.6656],[26.4282,-24.7538,928.7001],[26.4269,-24.7579,928.3528],[26.4296,-24.7654,929.0511],[26.426,-24.7712,929.3276],[26.4354,-24.7829,931.5158],[26.4446,-24.7908,930.4816],[26.4483,-24.7921,931.1399],[26.454,-24.7888,931.0762],[26.4595,-24.7905,932.3525],[26.4616,-24.7953,931.3709],[26.4613,-24.8001,934.3211],[26.4583,-24.8095,933.486],[26.5286,-24.8138,1121.6119],[26.5665,-24.8199,1106.429],[26.601,-24.8158,1045.8368],[26.622,-24.8099,1030.9932],[26.6993,-24.8673,1138.1487],[26.7051,-24.857,1103.9502],[26.7513,-24.883,1096.6473],[26.7795,-24.8377,1092.3114],[26.9433,-24.7814,1114.5471],[26.9426,-24.7763,1107.4757],[26.9807,-24.7758,1100.9968],[26.9759,-24.7207,1053.3055],[27.0263,-24.7186,1067.561],[27.0412,-24.887,1066.0476],[27.1012,-24.9,1023.1591],[27.1439,-24.9462,1012.5939],[27.1541,-24.979,1031.6758],[27.1834,-24.9485,1011.1043],[27.2261,-24.9639,1001.4678],[27.2091,-24.9956,1004.7948],[27.2035,-25.0332,1027.9099],[27.2317,-25.0361,1044.8972],[27.2236,-25.0674,1055.688],[27.2719,-25.0367,1042.8265],[27.3136,-25.0421,1085.832],[27.337,-25.0878,1122.7061],[27.3825,-25.08,1125.8624],[27.4246,-25.0689,1071.7811],[27.4313,-25.0821,1074.4253],[27.4818,-25.0671,1023.843],[27.4869,-25.0784,1126.234],[27.498,-25.0732,988.7766],[27.5212,-25.076,943.0264],[27.5212,-25.0797,942.6392],[27.5339,-25.0833,996.1863],[27.5323,-25.0944,956.373],[27.5428,-25.098,943.8389],[27.5436,-25.0959,945.9973],[27.5653,-25.0827,1036.8116],[27.5654,-25.0797,1044.4824],[27.5598,-25.0773,1232.5352],[27.5678,-25.0594,1201.4777],[27.594,-25.0294,1008.4968],[27.5975,-24.9849,1014.8673],[27.6286,-24.9737,1146.1681],[27.6847,-24.9858,1052.9425],[27.6873,-24.9944,1058.2402],[27.7388,-24.9831,1133.0902],[27.7591,-24.9689,1109.0708],[27.7889,-24.9665,1127.7942],[27.8217,-24.9746,1164.8651],[27.8331,-24.9735,1157.1812],[27.8867,-24.9883,1069.5817],[27.9129,-24.9911,1051.8848],[27.9465,-25.0012,1025.5266],[27.955,-24.9702,1036.8042],[27.9752,-24.965699999999998,1046.3279],[27.9836,-24.9578,1056.3074],[27.9976,-24.9735,1043.4056],[28.0178,-24.9741,1057.0403],[28.037,-24.9853,1084.2793],[28.0378,-24.9838,1082.0386],[28.0801,-24.9795,1092.467],[28.12,-24.9795,1103.6392],[28.1252,-25.0048,1120.7861],[28.1587,-25.0206,1107.0024],[28.2598,-25.0504,1061.6968],[28.2171,-25.113,1066.2085],[28.2171,-25.1229,1069.8569],[28.215,-25.1282,1064.6544],[28.1983,-25.1276,1048.9996],[28.1738,-25.12,1032.0435],[28.1751,-25.1136,1030.7778],[28.1539,-25.0868,1079.974],[28.1179,-25.0981,1082.3951],[28.0839,-25.1004,1083.5385],[28.0944,-25.1485,1027.0637],[28.129,-25.1457,1017.8536],[28.1357,-25.2056,1023.6177],[28.1695,-25.2094,1033.6831],[28.2112,-25.1981,1037.6553],[28.2463,-25.2129,1042.9185],[28.2598,-25.2387,1047.3221],[28.2982,-25.2932,1055.8541],[28.2982,-25.3104,1058.1809],[28.3792,-25.2921,1087.4193],[28.3826,-25.3211,1097.0343],[28.4337,-25.3224,1103.2545],[28.4393,-25.3102,1082.0006],[28.5036,-25.3088,1158.9054],[28.5012,-25.2654,1076.6293],[28.5133,-25.2561,1132.7595],[28.5643,-25.2521,1126.0602],[28.5637,-25.2494,1092.5542],[28.5948,-25.2494,1047.2666],[28.6029,-25.2542,1033.8601],[28.6047,-25.2535,1031.4563],[28.6044,-25.2521,1029.344],[28.6313,-25.2802,1056.0458],[28.6326,-25.28,1055.7605],[28.6593,-25.2348,1007.1438],[28.6643,-25.2518,1052.9321],[28.6712,-25.2477,1017.4661],[28.6691,-25.2414,1014.3054],[28.6755,-25.235,1005.8405],[28.6756,-25.227,1000.3626],[28.6799,-25.2202,995.5546],[28.6768,-25.2171,991.0802],[28.6786,-25.2108,987.8907],[28.6553,-25.2135,985.9887],[28.6381,-25.1866,976.2468],[28.6381,-25.1839,977.3893],[28.6159,-25.1516,1003.2106],[28.6516,-25.1429,996.2341],[28.6489,-25.1129,1000.2932],[28.635,-25.1183,1001.1304],[28.6361,-25.1281,994.7316],[28.5967,-25.1385,1004.2089],[28.5961,-25.1426,1006.1946],[28.5366,-25.1524,1045.7395],[28.5321,-25.1698,1025.3793],[28.4977,-25.1818,1046.4249],[28.4616,-25.2015,1075.606],[28.4514,-25.2033,1086.3804],[28.3869,-25.2134,1063.2268],[28.411,-25.2048,1075.2112],[28.3919,-25.1642,1110.7148],[28.3793,-25.1553,1089.7759],[28.4005,-25.1478,1095.3468],[28.443,-25.129,1070.1079],[28.4466,-25.1359,1069.5332],[28.4952,-25.1318,1051.2],[28.4737,-25.0893,1047.0042],[28.6069,-25.0704,1006.7924],[28.6095,-25.0599,1000.9346],[28.6343,-25.0582,991.0466],[28.6057,-25.0034,1021.084],[28.6338,-24.9844,1027.5366],[28.6588,-24.9722,1028.7234],[28.7138,-24.9536,1024.4514],[28.7594,-24.9114,1038.6354],[28.8374,-24.916,1018.3555],[28.8464,-24.9333,1020.0236],[28.9241,-24.9015,1020.8388],[28.937,-24.9228,1014.7595],[28.9418,-24.9336,1010.3162],[28.8916,-24.9555,1046.8612],[28.9094,-24.9955,993.0339],[28.9053,-24.996,992.6898],[28.9103,-25.0071,990.4467],[28.9349,-25.0,1009.9091],[28.9462,-25.017,1006.7723],[28.9717,-25.0702,962.8127],[28.9754,-25.0687,958.0379],[28.9764,-25.0708,958.0494],[29.0188,-25.0549,978.7997],[29.0707,-25.0655,948.611],[29.0857,-25.0888,886.5391],[29.0903,-25.0918,901.7196],[29.0849,-25.0977,903.6767],[29.0883,-25.1036,910.1466],[29.0912,-25.1002,912.1144],[29.0942,-25.1032,915.7372],[29.0979,-25.1003,914.616],[29.1016,-25.1027,917.8971],[29.1058,-25.1004,919.0217],[29.1284,-25.113,948.3602],[29.0869,-25.1365,962.6976],[29.0898,-25.1485,975.8448],[29.0425,-25.1405,961.8878],[29.0449,-25.2022,1041.6168],[29.0318,-25.2509,1164.5105],[29.0414,-25.261,1175.1208],[29.0349,-25.2646,1231.0018],[29.0384,-25.2765,1298.7957],[29.0503,-25.2802,1202.457],[29.0565,-25.2793,1162.6426],[29.0728,-25.2869,1030.5115],[29.0761,-25.2846,1027.4524],[29.0827,-25.2871,1023.6481],[29.0844,-25.2929,1052.1995],[29.0902,-25.2894,1030.1276],[29.0959,-25.3212,1158.5276],[29.1184,-25.3132,1072.1863],[29.167,-25.3034,1047.974],[29.1746,-25.3185,1068.8785],[29.1641,-25.3545,1168.265],[29.142,-25.3858,1409.7351],[29.1313,-25.3902,1408.6228],[29.1957,-25.3703,1391.7755],[29.2073,-25.4146,1425.1552],[29.2375,-25.4023,1348.2861],[29.243,-25.4036,1357.811],[29.2531,-25.3835,1316.7013],[29.2644,-25.3755,1288.5026],[29.3214,-25.3799,1015.9812],[29.3421,-25.3731,977.5097],[29.35,-25.4046,1011.3369],[29.399,-25.4148,1276.7278],[29.453,-25.4065,1295.6638],[29.5188,-25.4228,1235.939],[29.5226,-25.405,1279.4856],[29.587,-25.3952,1422.7622],[29.6128,-25.4006,1482.6124],[29.6739,-25.3722,1640.7322],[29.7276,-25.3842,1731.0808],[29.7702,-25.4015,1784.0336],[29.7935,-25.3621,1480.6885]]]]}}