{"type":"Feature","properties":{"featurecla":"River","scalerank":9,"rivernum":1042,"dissolve":"1042River","name":"Mogalakwena1","name_alt":null,"note":null,"min_zoom":7.1,"strokeweig":0.2,"name_en":"Mogalakwena","min_label":8.1},
"geometry":{"type": "LineString","coordinates": [[28.842480468750011,-24.43743255000588,1072.0697],[28.855566406250006,-24.426104425005889,1073.7372],[28.87841796875,-24.399932550005886,1072.8151],[28.8916015625,-24.39006926875588,1080.1418],[28.912207031250006,-24.37932708125588,1103.8488],[28.922119140625,-24.37224700313088,1129.868],[28.928955078125,-24.36370208125588,1088.5299],[28.93115234375,-24.354815362505889,1063.7296],[28.93017578125,-24.336455987505886,1070.825],[28.931640625,-24.32732512813088,1079.1338],[28.9375,-24.317901300005886,1074.0757],[28.945214843750023,-24.312334893755889,1067.5261],[28.95361328125,-24.307647393755886,1059.6096],[28.96142578125,-24.300811456255886,1064.9973],[28.9658203125,-24.29241301875588,1062.3893],[28.978515625,-24.23064544063088,1053.3562],[28.980371093750023,-24.205108331255886,1063.3735],[28.979589843750006,-24.189483331255886,1066.5356],[28.976660156250006,-24.17449309688088,1077.0234],[28.9703125,-24.16130950313088,1066.5649],[28.94287109375,-24.13225676875588,1059.4049],[28.913671875,-24.089190362505889,1031.9847],[28.82666015625,-24.029620050005889,1000.3289],[28.814843750000023,-24.017120050005886,996.312],[28.760351562500006,-23.925127862505889,986.8391],[28.741943359375,-23.90325286250588,973.5519],[28.722070312500023,-23.88738372188088,958.117],[28.649658203125,-23.866045831255889,935.6738],[28.625878906250023,-23.84685637813088,928.936],[28.632421875,-23.807647393755886,921.4794],[28.641699218750006,-23.789873956255889,921.8138],[28.643945312500023,-23.78093840938088,918.629],[28.643798828125,-23.76946380000588,921.6752],[28.63818359375,-23.75530364375588,909.5703],[28.616943359375,-23.733721612505889,910.4777],[28.609765625000023,-23.720245050005886,899.8096],[28.608642578125,-23.707842706255889,911.5871],[28.61083984375,-23.695147393755889,892.0153],[28.615820312500006,-23.683428643755889,903.7922],[28.62353515625,-23.673858331255886,890.9179],[28.640527343750023,-23.658526300005889,886.2587],[28.64501953125,-23.64934661250588,881.4218],[28.643798828125,-23.63665130000588,881.3351],[28.63125,-23.62102630000588,882.142],[28.61376953125,-23.610381768755886,874.7318],[28.603125,-23.59685637813088,895.414],[28.6109375,-23.572588800005889,870.3865],[28.61865234375,-23.563311456255889,882.8783],[28.626953125,-23.555498956255889,879.3704],[28.6337890625,-23.546709893755889,868.1575],[28.6376953125,-23.534991143755889,865.9587],[28.637109375000023,-23.524737237505889,861.4189],[28.6265625,-23.489288018755886,879.7199],[28.605712890625,-23.458330987505889,870.3981],[28.60302734375,-23.44670989375588,872.5962],[28.611523437500011,-23.42327239375588,853.0515],[28.651269531250023,-23.37493255000588,861.8276],[28.665283203125,-23.351104425005886,907.1529],[28.68017578125,-23.29436614375588,858.3849],[28.682714843750006,-23.26458098750588,843.908],[28.677636718750023,-23.22380950313088,818.0],[28.683984375000023,-23.19817473750588,829.5397],[28.684472656250023,-23.18499114375588,835.2874],[28.680908203125,-23.174346612505886,822.5645],[28.662207031250006,-23.14251067500588,810.0107],[28.657958984375,-23.131377862505886,814.8285],[28.656494140625,-23.12200286250588,809.7933],[28.659277343750006,-23.113799737505886,810.4899],[28.6787109375,-23.097198175005886,815.5317],[28.679589843750023,-23.086260675005889,811.5737],[28.67626953125,-23.07463958125588,801.4407],[28.674414062500006,-23.062334893755889,806.6178],[28.675878906250006,-23.03093840938088,797.3846],[28.674414062500006,-23.017608331255886,788.3114],[28.670166015625,-23.00188567500588,789.0193],[28.67138671875,-22.990264581255886,782.733],[28.685449218750023,-22.969268487505886,786.9322],[28.686425781250023,-22.958819268755889,775.6495],[28.680078125000023,-22.95501067500588,773.6552],[28.657958984375,-22.95525481563088,775.8969],[28.651269531250023,-22.949541925005889,792.2571],[28.65185546875,-22.940948175005886,793.8233],[28.658398437500011,-22.93670012813088,785.9209],[28.666748046875,-22.933135675005886,786.5035],[28.672265625000023,-22.92693450313088,772.0312],[28.672265625000023,-22.915557550005886,765.0038],[28.668701171875,-22.903838800005886,766.65],[28.667724609375,-22.89128997188088,763.4734],[28.675048828125,-22.87835051875588,763.7722],[28.681396484375,-22.875030206255886,762.7051],[28.740332031250006,-22.86174895625588,754.7214],[28.745019531250023,-22.85564544063088,771.9739],[28.740625,-22.84246184688088,767.9948],[28.74267578125,-22.81633880000588,756.0688],[28.748242187500011,-22.807940362505889,754.7315],[28.754785156250023,-22.808428643755889,746.0372],[28.761621093750023,-22.81023528438088,756.1274],[28.767333984375,-22.806182550005886,751.6194],[28.770410156250023,-22.79436614375588,751.2264],[28.768457031250023,-22.751006768755886,749.4875],[28.765380859375,-22.73919036250588,744.5656],[28.761328125,-22.72844817500588,735.0147],[28.75927734375,-22.717120050005889,733.4797],[28.762109375000023,-22.70305755000588,718.4062],[28.768164062500006,-22.693389581255886,737.2501],[28.774804687500023,-22.686358331255889,734.0226],[28.779296875,-22.67839934688088,717.321],[28.778417968750006,-22.66619231563088,701.1337],[28.78955078125,-22.630401300005886,690.4214],[28.879003906250006,-22.599444268755889,674.7705],[28.894140625,-22.557452081255889,671.3593],[28.894433593750023,-22.53045012813088,651.6764],[28.908398437500011,-22.484209893755889,651.7164],[28.91064453125,-22.458819268755889,629.844]]}}