{"type":"Feature","properties":{"ISO3166-1-Alpha-3":"ZAF","country":"South Africa","fill":"#00F","id":"1210","name":"Limpopo"},
"geometry":{"type": "Polygon","coordinates": [[[29.67961,-22.13834,473.7113],[29.66142,-22.12645,477.4853],[29.64106,-22.12924,484.3923],[29.60396,-22.14506,490.9931],[29.57016,-22.14195,490.9975],[29.55104,-22.14599,493.6063],[29.54252,-22.16252,494.429],[29.53182,-22.17244,495.5632],[29.50691,-22.17007,501.1426],[29.45689,-22.1588,520.6082],[29.43611,-22.16314,523.2617],[29.39953,-22.18216,517.5786],[29.37803,-22.19291,513.6383],[29.36325,-22.19229,508.9512],[29.35695,-22.19094,511.1403],[29.35007,-22.18671,513.8524],[29.33152,-22.1928,516.4937],[29.30289,-22.19022,519.0466],[29.24822,-22.17927,521.7537],[29.22207,-22.18216,523.8082],[29.2028,-22.19446,520.4704],[29.18662,-22.20769,528.4348],[29.16884,-22.21399,530.6064],[29.04782,-22.2203,537.0916],[29.03872,-22.22391,578.7708],[29.01785,-22.25037,540.4964],[29.01805,-22.25502,538.7371],[29.00276,-22.26339,543.0923],[28.98374,-22.282,548.427],[28.96023,-22.31021,592.5111],[28.96793,-22.38039,602.5676],[28.96338,-22.39217,612.5852],[28.95346,-22.40075,609.5725],[28.93041,-22.44085,633.3854],[28.91253,-22.45367,637.867],[28.86938,-22.44891,637.3278],[28.84659,-22.44995,641.053],[28.83677,-22.46318,643.3665],[28.83119,-22.4823,643.8595],[28.81682,-22.49294,644.6442],[28.79677,-22.49821,650.544],[28.77476,-22.50142,648.6198],[28.73135,-22.51392,659.3567],[28.659,-22.55196,661.1682],[28.62386,-22.56281,660.3811],[28.5972,-22.5627,665.9078],[28.57756,-22.56002,666.4072],[28.55984,-22.56301,675.8849],[28.5385,-22.58027,696.7842],[28.52248,-22.58482,692.2735],[28.45938,-22.56963,713.2767],[28.37685,-22.575,728.6571],[28.33856,-22.58462,729.1621],[28.30182,-22.60384,733.4553],[28.28683,-22.61583,731.9625],[28.25055,-22.65562,740.5667],[28.24068,-22.66089,741.2509],[28.21634,-22.66316,737.8163],[28.20549,-22.66595,742.4763],[28.19619,-22.67164,752.8543],[28.16467,-22.70864,749.6567],[28.15971,-22.71815,748.9313],[28.15774,-22.73107,754.1675],[28.15971,-22.74326,756.2437],[28.1627,-22.75101,759.951],[28.1625,-22.75897,757.7207],[28.15495,-22.77199,761.4387],[28.14586,-22.77975,760.3152],[28.13563,-22.78336,758.7847],[28.1256,-22.78553,759.118],[28.11744,-22.78946,758.8342],[28.1132,-22.79535,760.4368],[28.10772,-22.81065,765.3288],[28.10369,-22.81675,766.7499],[28.08881,-22.82264,766.1688],[28.06576,-22.82884,762.1283],[28.04716,-22.8369,768.1819],[28.0454,-22.84775,768.1583],[28.05398,-22.86915,770.4937],[28.04974,-22.89137,770.7374],[28.03744,-22.91142,770.2184],[28.02183,-22.92661,770.6698],[28.0083,-22.93477,772.3489],[27.98938,-22.94377,775.7502],[27.9684,-22.951,775.9932],[27.94918,-22.95389,792.8431],[27.9375,-22.96382,777.0524],[27.93791,-22.98666,777.5406],[27.94608,-23.02903,778.756],[27.93006,-23.05704,782.9603],[27.89554,-23.07947,783.4534],[27.85378,-23.09559,788.6057],[27.81575,-23.10469,784.2161],[27.82226,-23.12298,786.6188],[27.80645,-23.12835,789.0488],[27.78495,-23.12701,794.0585],[27.7742,-23.12515,793.7178],[27.77172,-23.13301,787.7157],[27.77461,-23.14076,789.3693],[27.77906,-23.14768,791.5868],[27.78102,-23.15254,792.9254],[27.78304,-23.15543,791.569],[27.78738,-23.15977,788.9518],[27.78929,-23.1638,791.3188],[27.78459,-23.16556,790.54],[27.7833,-23.16691,790.9275],[27.77575,-23.17249,792.5453],[27.7742,-23.173,792.382],[27.75942,-23.21145,793.0652],[27.75363,-23.22075,791.0349],[27.73916,-23.22757,793.1566],[27.72573,-23.22168,795.4731],[27.69844,-23.19347,794.5562],[27.65876,-23.22344,794.4008],[27.64713,-23.22757,794.7792],[27.63343,-23.22344,794.1558],[27.61917,-23.21703,794.6345],[27.60801,-23.21672,795.661],[27.59922,-23.24463,799.1974],[27.58041,-23.26385,801.3293],[27.57607,-23.27915,795.7221],[27.57525,-23.28483,795.3486],[27.57308,-23.29052,802.3783],[27.56961,-23.29486,802.3225],[27.56589,-23.29651,801.5857],[27.56331,-23.2992,802.1705],[27.56491,-23.30581,797.8545],[27.56775,-23.31377,803.0349],[27.56936,-23.32038,803.5874],[27.56367,-23.34281,805.2604],[27.54889,-23.3608,801.5465],[27.52884,-23.37309,806.5558],[27.50724,-23.37909,807.4011],[27.46569,-23.38043,807.8654],[27.45267,-23.38529,806.4226],[27.44316,-23.39511,807.1358],[27.435,-23.40658,811.216],[27.42518,-23.41268,811.9442],[27.41112,-23.40575,810.3423],[27.41846,-23.39128,813.5942],[27.4105,-23.38932,812.3604],[27.39583,-23.39407,814.5775],[27.38373,-23.39955,812.0171],[27.38084,-23.40534,813.3457],[27.37133,-23.41702,812.7251],[27.3612,-23.4225,814.1859],[27.34999,-23.39149,820.2368],[27.33557,-23.40245,813.983],[27.31201,-23.43707,814.8524],[27.29557,-23.45175,818.7603],[27.27811,-23.46363,819.0127],[27.23971,-23.48141,817.2589],[27.2025,-23.49205,819.4154],[27.1915,-23.50384,823.0338],[27.20566,-23.52306,822.2668],[27.19563,-23.52709,824.6746],[27.18664,-23.5273,825.2429],[27.17868,-23.52358,826.2773],[27.17145,-23.51562,833.4744],[27.16897,-23.52161,823.4748],[27.16153,-23.52988,822.9965],[27.15718,-23.5367,820.0714],[27.14912,-23.5275,822.4464],[27.13765,-23.52337,822.6044],[27.12742,-23.52502,826.1223],[27.12308,-23.53298,827.62],[27.12742,-23.54528,833.3951],[27.13569,-23.55189,828.7637],[27.14116,-23.5583,824.4788],[27.13672,-23.57019,826.2979],[27.12442,-23.56316,825.9126],[27.11336,-23.5643,828.4456],[27.10375,-23.57174,827.991],[27.09579,-23.58383,829.6418],[27.10251,-23.58383,827.3726],[27.08411,-23.59603,831.4586],[27.07833,-23.60202,829.297],[27.07523,-23.61122,833.2263],[27.0684,-23.60729,833.2061],[27.06153,-23.6044,849.204],[27.06313,-23.62424,832.3339],[27.06944,-23.64171,833.0026],[27.07006,-23.65607,833.2739],[27.05476,-23.66641,834.9564],[27.03761,-23.66569,833.0646],[27.02985,-23.65473,834.3893],[27.02427,-23.64254,836.9289],[27.01383,-23.6385,836.2092],[27.00417,-23.64584,836.8456],[26.98655,-23.68698,840.5779],[26.96717,-23.71871,840.7917],[26.96205,-23.73741,843.3513],[26.96454,-23.74714,841.2802],[26.9666,-23.75519,839.389],[26.93813,-23.80289,852.3152],[26.945,-23.82325,846.1571],[26.94118,-23.85022,846.7706],[26.8709,-24.11584,864.6215],[26.86893,-24.16038,870.3448],[26.84971,-24.24813,873.043],[26.83917,-24.2656,869.3679],[26.82325,-24.27883,867.8625],[26.80227,-24.28968,868.5934],[26.71401,-24.31593,875.9716],[26.69292,-24.32658,880.0767],[26.68409,-24.34146,877.9173],[26.62347,-24.39944,883.8796],[26.55836,-24.4382,889.0808],[26.53118,-24.45866,900.869],[26.50606,-24.48884,901.5885],[26.47681,-24.55995,901.4274],[26.46947,-24.57142,914.3382],[26.40436,-24.63281,925.3895],[26.404,-24.63276,925.3895],[26.404,-24.71456,936.4347],[26.41036,-24.74149,934.3079],[26.43862,-24.78593,934.768],[26.44488,-24.80882,963.83],[26.45542,-24.81234,934.7776],[26.62636,-24.82737,1040.47],[26.65039,-24.83321,1041.6919],[26.68192,-24.85089,1075.0636],[26.70781,-24.8622,1117.6077],[26.72739,-24.86654,1097.2048],[26.75282,-24.86944,1095.7686],[26.76801,-24.86618,1098.5629],[26.82899,-24.83528,1171.1697],[26.94433,-24.78955,1121.6514],[26.98665,-24.76159,1090.1423],[26.99735,-24.73668,1079.0662],[27.00748,-24.728,1074.4961],[27.02298,-24.72397,1072.875],[27.03554,-24.73063,1076.9962],[27.04298,-24.74924,1098.1609],[27.05543,-24.84975,1103.1412],[27.07962,-24.88758,1043.6199],[27.11471,-24.90732,1008.5447],[27.14742,-24.93832,1009.3492],[27.16189,-24.96876,1026.7938],[27.16979,-24.98137,1024.1118],[27.18251,-24.99093,1018.6714],[27.28943,-25.00669,1036.0538],[27.36653,-25.05904,1100.2933],[27.44259,-25.06209,1056.9176],[27.48786,-25.05573,996.4202],[27.49809,-25.06369,989.1727],[27.5045,-25.08963,1015.0756],[27.50652,-25.09459,993.6307],[27.50962,-25.09873,985.4678],[27.51396,-25.10172,975.3357],[27.5197,-25.10343,967.9131],[27.52621,-25.1042,1014.097],[27.53442,-25.10152,1046.5625],[27.54574,-25.09278,963.9503],[27.58129,-25.04044,1102.5521],[27.58687,-25.02028,992.386],[27.58765,-25.00659,988.5928],[27.58687,-25.00008,966.1107],[27.58687,-24.99899,965.4302],[27.58718,-24.99682,974.0522],[27.59091,-24.98979,990.2444],[27.60083,-24.98395,1023.4708],[27.62243,-24.97589,987.2336],[27.64382,-24.97517,1116.5325],[27.66759,-24.97078,1019.8327],[27.70837,-25.00736,1124.3147],[27.72061,-24.99878,1089.5126],[27.72526,-24.99615,1091.7198],[27.74004,-24.98969,1133.045],[27.7571,-24.98685,1118.5593],[27.90623,-25.00328,1051.9323],[27.91678,-25.00318,1037.7528],[27.92251,-25.00132,1033.3103],[27.9236,-25.00049,1033.324],[27.92391,-24.99987,1033.324],[27.92499,-24.99806,1033.7261],[27.92995,-24.99429,1036.4514],[27.94344,-24.98747,1030.3541],[27.96582,-24.98509,1029.8346],[28.01377,-24.99708,1066.3157],[28.06323,-25.00018,1112.5164],[28.09816,-25.00938,1117.8823],[28.17733,-25.04131,1087.1897],[28.2071,-25.05837,1044.4314],[28.22198,-25.07759,1050.5688],[28.21841,-25.10498,1062.646],[28.21159,-25.12446,1063.0681],[28.19888,-25.13361,1049.2961],[28.17733,-25.13449,1035.2219],[28.16317,-25.13035,1025.7678],[28.14519,-25.11966,1038.3052],[28.12441,-25.10978,1060.4531],[28.10979,-25.10808,1062.6216],[28.08731,-25.11568,1058.3528],[28.08049,-25.12958,1049.8425],[28.08405,-25.14911,1037.8933],[28.10638,-25.16301,1015.927],[28.11863,-25.17712,1013.6997],[28.12751,-25.20017,1016.3918],[28.13992,-25.21004,1026.7892],[28.16069,-25.21309,1033.7163],[28.19423,-25.20823,1039.9874],[28.21547,-25.21717,1045.9089],[28.23087,-25.2258,1047.2528],[28.2937,-25.31711,1064.2365],[28.36367,-25.31065,1094.4015],[28.37468,-25.32217,1096.4541],[28.43318,-25.32207,1103.2545],[28.48548,-25.29918,1128.8831],[28.50206,-25.27934,1078.621],[28.52708,-25.26972,1163.1635],[28.57906,-25.26662,1129.9026],[28.611,-25.27179,1045.1849],[28.64392,-25.26295,1077.3174],[28.65585,-25.25541,1059.0143],[28.66112,-25.25117,1033.4565],[28.66314,-25.24745,1023.3597],[28.66236,-25.24316,1015.691],[28.66066,-25.22735,1001.3823],[28.64175,-25.21681,992.1489],[28.62371,-25.19283,981.5389],[28.61534,-25.18435,982.6351],[28.60573,-25.1579,1010.5038],[28.51715,-25.18384,1043.7914],[28.5061,-25.18931,1038.6802],[28.48858,-25.20079,1043.5062],[28.46749,-25.21061,1063.7489],[28.43349,-25.21913,1077.4175],[28.39205,-25.22368,1065.0917],[28.3691,-25.21779,1059.9155],[28.35794,-25.19996,1061.7825],[28.35453,-25.18864,1067.5109],[28.35964,-25.17727,1074.4423],[28.37329,-25.1673,1082.3301],[28.40931,-25.15417,1102.391],[28.44775,-25.13495,1068.9807],[28.45881,-25.11733,1062.9885],[28.47772,-25.10787,1053.0336],[28.50206,-25.09971,1043.2147],[28.52832,-25.09433,1037.0261],[28.56893,-25.08188,1017.6642],[28.58697,-25.06601,1008.9467],[28.59332,-25.03563,1015.7319],[28.59301,-25.01909,1018.672],[28.59736,-25.00297,1019.5019],[28.68117,-24.96819,1024.4163],[28.71048,-24.95197,1025.5568],[28.73156,-24.94277,1032.5601],[28.75626,-24.93688,1029.4397],[28.77843,-24.93533,1023.3594],[28.83259,-24.94029,1013.7031],[28.91082,-24.93533,1034.6033],[28.9364,-24.94514,1015.3856],[28.93625,-24.88556,1015.0597],[28.98141,-24.8807,972.0538],[29.01294,-24.88551,958.6785],[29.02891,-24.90845,967.5897],[29.03697,-24.9129,959.9567],[29.07454,-24.97992,944.0655],[29.16047,-24.94292,914.798],[29.16978,-24.93315,904.9542],[29.18936,-24.88954,918.9034],[29.19339,-24.86747,929.4647],[29.20889,-24.85027,942.8397],[29.23494,-24.82934,927.5874],[29.31147,-24.8096,1034.1987],[29.35442,-24.78376,946.4886],[29.42738,-24.75771,790.7282],[29.42893,-24.78805,821.0],[29.43498,-24.81621,826.9965],[29.43482,-24.83027,824.6149],[29.43343,-24.83916,821.0],[29.42614,-24.84639,833.9068],[29.42211,-24.84975,827.6006],[29.41731,-24.85228,827.7174],[29.4125,-24.85445,821.0],[29.40723,-24.85523,821.4188],[29.40237,-24.85378,821.7411],[29.39493,-24.84748,821.0],[29.39136,-24.8453,821.0],[29.38702,-24.84618,826.3491],[29.3816,-24.85058,821.0],[29.37509,-24.85724,822.2101],[29.36485,-24.87042,823.9606],[29.36175,-24.87889,829.9257],[29.36129,-24.88597,828.3668],[29.3802,-24.92499,856.0312],[29.38253,-24.93212,860.4463],[29.38377,-24.94137,853.9432],[29.38392,-24.95796,881.1656],[29.38222,-24.9668,865.1171],[29.37943,-24.97315,856.7556],[29.37555,-24.97605,857.9318],[29.36981,-24.97868,848.8038],[29.36811,-24.97966,853.5396],[29.35571,-24.99072,853.9255],[29.35245,-24.99651,861.2526],[29.35255,-24.99832,864.1487],[29.35535,-25.00623,856.8808],[29.35788,-25.00948,858.6678],[29.3602,-25.0117,854.2191],[29.36454,-25.01217,867.559],[29.36904,-25.01031,869.7089],[29.38625,-24.99925,914.0611],[29.38873,-24.99723,909.1288],[29.39648,-24.99542,898.3153],[29.40506,-24.9963,930.2147],[29.45668,-25.04602,1155.0383],[29.46542,-25.06772,1195.3523],[29.48231,-25.08891,1150.5331],[29.491,-25.09645,1147.3643],[29.4989,-25.09785,1207.9298],[29.50898,-25.10322,1365.6541],[29.52453,-25.11593,1310.5031],[29.55787,-25.15123,1378.6904],[29.58474,-25.17474,1320.6884],[29.63171,-25.18601,1427.406],[29.69755,-25.19304,1328.0953],[29.78069,-25.17014,1667.5469],[29.79294,-25.14384,1574.4463],[29.81237,-25.13511,1140.5135],[29.8195,-25.1104,1147.2115],[29.79594,-25.08188,1200.9563],[29.78348,-25.07366,1376.314],[29.77527,-25.06131,1717.698],[29.78069,-25.04255,1697.5837],[29.81082,-25.02974,1253.6863],[29.82896,-25.00561,1415.6523],[29.82927,-24.99971,1449.2529],[29.93619,-24.91683,961.1578],[30.06838,-24.8252,1070.9624],[30.11726,-24.79885,766.3777],[30.1339,-24.76774,801.0199],[30.13669,-24.73508,810.6608],[30.11308,-24.694,1182.9675],[30.11587,-24.611,948.4739],[30.15499,-24.59504,907.8621],[30.17297,-24.58971,968.329],[30.19085,-24.59736,1062.0322],[30.21426,-24.61255,885.8501],[30.22604,-24.61354,856.0061],[30.23581,-24.60827,956.4478],[30.25431,-24.58455,1191.9558],[30.29183,-24.58331,850.3209],[30.33823,-24.57679,676.314],[30.37844,-24.56537,683.9745],[30.49636,-24.59111,1518.282],[30.54556,-24.61137,1136.8436],[30.58617,-24.59834,1142.9608],[30.60405,-24.58196,967.0597],[30.61475,-24.55674,1034.158],[30.62126,-24.53525,1237.6519],[30.64374,-24.52434,1176.8403],[30.65992,-24.53023,1127.6042],[30.72725,-24.51411,1094.8203],[30.73345,-24.4721,1406.5826],[30.73919,-24.45737,1461.7706],[30.75908,-24.42099,661.6687],[30.83619,-24.49142,560.1865],[30.86879,-24.5061,875.2211],[30.96729,-24.52703,639.8755],[30.98486,-24.55592,621.3872],[31.05281,-24.56708,635.1952],[31.08087,-24.62527,628.7913],[31.0986,-24.64227,600.8582],[31.11627,-24.65405,593.1493],[31.13503,-24.65653,549.2703],[31.15601,-24.65415,511.749],[31.16686,-24.65483,519.9908],[31.17616,-24.65849,507.829],[31.18159,-24.66904,489.741],[31.17477,-24.68438,516.2523],[31.15617,-24.70836,512.1798],[31.10371,-24.72288,542.7562],[31.08868,-24.73647,589.438],[31.0955,-24.75823,574.8613],[31.13317,-24.76991,554.3655],[31.15353,-24.78557,515.2209],[31.16454,-24.79962,538.6984],[31.17927,-24.84996,518.4149],[31.19823,-24.88892,497.5656],[31.21947,-24.90716,502.898],[31.21079,-24.92701,588.7026],[31.15803,-24.93724,569.6443],[31.12371,-24.9529,671.9893],[31.11224,-24.97698,589.0004],[31.11038,-25.02989,489.2502],[31.22195,-25.02126,418.9191],[31.25079,-25.01439,405.0032],[31.25342,-25.0101,404.377],[31.25487,-25.00566,406.8114],[31.2558,-25.00054,412.4064],[31.25683,-24.99868,413.9464],[31.25931,-24.99615,415.9917],[31.26556,-24.99062,418.3458],[31.27099,-24.98871,394.1816],[31.27673,-24.98793,397.1677],[31.29595,-24.98871,384.2993],[31.30339,-24.98638,383.5877],[31.30959,-24.98307,376.8868],[31.31564,-24.97904,379.9615],[31.32189,-24.97796,378.4782],[31.39016,-24.97713,340.5207],[31.42085,-24.98271,327.9201],[31.43114,-24.98654,312.7147],[31.46989,-24.936,372.1265],[31.46726,-24.91677,376.4798],[31.46633,-24.89063,367.5645],[31.45579,-24.87657,399.8624],[31.40287,-24.86494,443.8502],[31.38179,-24.85817,458.0844],[31.36732,-24.85688,443.6861],[31.35615,-24.84835,465.7388],[31.35398,-24.82706,457.7348],[31.3653,-24.77012,378.6877],[31.40132,-24.74795,394.5481],[31.44726,-24.73616,392.4933],[31.48932,-24.73069,383.368],[31.51707,-24.72056,396.1655],[31.52917,-24.69348,413.795],[31.53867,-24.67911,402.7299],[31.55077,-24.67188,390.307],[31.56844,-24.67234,385.3802],[31.58472,-24.6695,361.0522],[31.595,-24.66103,361.7065],[31.5995,-24.64971,374.3509],[31.5919,-24.63452,387.1657],[31.57433,-24.61214,374.8474],[31.46292,-24.54382,432.4477],[31.45486,-24.5278,461.5256],[31.45284,-24.51148,438.6425],[31.45424,-24.50393,430.1408],[31.45672,-24.49871,427.6071],[31.45082,-24.49484,431.0972],[31.45113,-24.48522,418.2761],[31.37527,-24.48352,428.1707],[31.4024,-24.4397,433.3313],[31.38504,-24.40859,467.1796],[31.45067,-24.25723,412.3051],[31.45532,-24.19708,371.9088],[31.47873,-24.15269,361.3229],[31.45238,-24.11703,308.8699],[31.39248,-24.10783,298.9125],[31.24846,-24.1007,304.1805],[31.27549,-24.07719,328.9476],[31.29099,-24.07403,283.9066],[31.32871,-24.0806,257.0329],[31.33553,-24.07931,258.2134],[31.34081,-24.07667,252.7128],[31.3498,-24.06835,306.2664],[31.35662,-24.06318,276.6176],[31.36918,-24.05553,307.8909],[31.37682,-24.05352,280.0209],[31.38427,-24.05429,255.3085],[31.39078,-24.05662,243.4698],[31.40101,-24.05812,283.4724],[31.40736,-24.05672,272.1024],[31.41264,-24.05414,284.3708],[31.4207,-24.04758,266.913],[31.43703,-24.02995,251.8662],[31.44555,-24.02267,244.2115],[31.4516,-24.02158,232.8383],[31.45718,-24.02256,258.7927],[31.46803,-24.02561,256.1921],[31.47377,-24.02639,260.5766],[31.50266,-24.03471,257.0241],[31.51692,-24.04251,247.3026],[31.52421,-24.04499,276.5404],[31.53692,-24.04623,257.4562],[31.54395,-24.04313,229.4477],[31.55914,-24.03393,221.2924],[31.56611,-24.0329,227.9292],[31.57139,-24.03486,215.0851],[31.57805,-24.04323,218.2868],[31.58208,-24.04727,217.9869],[31.58921,-24.05006,224.0636],[31.595,-24.04964,233.0381],[31.60027,-24.04747,245.9722],[31.60368,-24.04386,229.0558],[31.615,-24.02716,220.7628],[31.61934,-24.02282,219.0426],[31.62477,-24.01864,217.2222],[31.63345,-24.01373,223.103],[31.64043,-24.0128,215.829],[31.64699,-24.01311,211.0865],[31.65205,-24.01528,198.3835],[31.65614,-24.01848,211.9721],[31.65924,-24.02267,215.7301],[31.66094,-24.02825,233.441],[31.66203,-24.03429,217.548],[31.66621,-24.04081,241.9504],[31.67365,-24.04634,221.5621],[31.69288,-24.05057,204.3849],[31.70342,-24.05099,203.8804],[31.71231,-24.04995,220.2583],[31.71742,-24.04763,210.4021],[31.72176,-24.04484,218.2942],[31.72471,-24.04153,215.6806],[31.72611,-24.03817,210.2972],[31.73215,-24.00778,194.6343],[31.7337,-24.00365,195.6439],[31.73525,-24.00138,212.2823],[31.77995,-23.96531,157.7003],[31.78646,-23.96339,181.848],[31.79158,-23.9636,189.1333],[31.80166,-23.96836,178.8641],[31.80739,-23.97037,228.6068],[31.82,-23.97084,223.5913],[31.83535,-23.96996,223.6842],[31.84419,-23.9682,230.9516],[31.85256,-23.96484,214.4641],[31.85623,-23.96308,218.4569],[31.85649,-23.96296,218.4569],[31.85581,-23.94655,265.965],[31.85044,-23.93063,311.8025],[31.83866,-23.91782,292.2399],[31.77406,-23.8741,341.52],[31.7552,-23.85777,328.1855],[31.74119,-23.83679,333.3505],[31.70063,-23.74909,379.49],[31.66203,-23.62403,372.7464],[31.64229,-23.58786,349.2535],[31.54627,-23.49236,351.3529],[31.52762,-23.45681,344.7405],[31.52147,-23.41557,334.5838],[31.54245,-23.18727,249.2047],[31.53635,-23.15698,272.1611],[31.46762,-22.95896,346.7263],[31.42638,-22.8401,377.2348],[31.37491,-22.69159,505.928],[31.32334,-22.54286,421.5037],[31.2791,-22.41532,210.1511],[31.28892,-22.39734,202.5488],[31.26562,-22.36551,202.4588],[31.25564,-22.35796,208.2866],[31.24572,-22.35755,210.8482],[31.2296,-22.36396,212.202],[31.22154,-22.36489,211.5698],[31.21347,-22.36189,213.7794],[31.19787,-22.35259,208.5],[31.19068,-22.35062,212.0955],[31.18366,-22.34556,220.7915],[31.16335,-22.32262,220.1062],[31.1526,-22.31641,221.3168],[31.13772,-22.31848,221.7078],[31.10454,-22.33336,224.9306],[31.09705,-22.33492,225.7003],[31.08764,-22.33688,225.5045],[31.07033,-22.33367,233.4293],[31.03612,-22.31962,259.7531],[30.92719,-22.29574,283.4924],[30.86709,-22.28965,300.801],[30.83789,-22.28231,291.9155],[30.80528,-22.2945,337.2413],[30.69392,-22.30277,355.5804],[30.67428,-22.30856,325.4458],[30.64741,-22.32644,330.8325],[30.63242,-22.33068,358.0856],[30.62555,-22.32861,359.1196],[30.61031,-22.31869,364.1572],[30.60111,-22.31641,358.3882],[30.57217,-22.31662,357.5839],[30.50737,-22.30959,389.6491],[30.48845,-22.31021,382.901],[30.46923,-22.31507,389.4393],[30.43171,-22.33119,392.467],[30.4127,-22.33688,387.4668],[30.37208,-22.34349,409.2499],[30.33497,-22.34473,393.522],[30.30077,-22.33698,419.5892],[30.26935,-22.31641,434.7219],[30.25529,-22.30474,510.5809],[30.24041,-22.29616,430.2701],[30.2217,-22.29089,413.4543],[30.197,-22.28913,424.9987],[30.15266,-22.29481,438.4976],[30.13509,-22.29357,454.1253],[30.11111,-22.28231,444.1708],[30.08259,-22.26288,449.3653],[30.06791,-22.25709,424.3435],[30.03815,-22.25378,423.7841],[30.03587,-22.25058,451.1232],[30.03453,-22.24613,444.4296],[30.01551,-22.22701,417.3764],[30.00528,-22.22226,451.7047],[29.98378,-22.21771,447.3977],[29.97396,-22.21399,448.7988],[29.94668,-22.19828,451.5408],[29.93211,-22.19435,443.9225],[29.89604,-22.19136,451.5338],[29.87149,-22.17927,464.8098],[29.83733,-22.17244,465.4249],[29.77925,-22.13637,483.2637],[29.75889,-22.1309,480.7971],[29.69145,-22.1341,479.4494],[29.67961,-22.13834,473.7113]]]}}