{"type": "Feature","bbox": [30.3241,-30.4151,30.8284,-30.011],"geometry": {"type": "MultiPolygon","coordinates": [[[[30.652,-30.281,297.2631],[30.6423,-30.27,286.6227],[30.6437,-30.2667,275.832],[30.6565,-30.2728,241.5737],[30.6693,-30.2601,71.87],[30.671,-30.2614,97.1653],[30.6785,-30.2613,78.1811],[30.6796,-30.2675,73.6426],[30.6833,-30.2638,204.3737],[30.6851,-30.2506,267.6627],[30.6721,-30.2467,280.3663],[30.6669,-30.2356,321.4623],[30.6583,-30.2055,373.6426],[30.6671,-30.203,312.8087],[30.6902,-30.2113,179.5014],[30.692,-30.1986,246.6375],[30.703,-30.1878,249.8825],[30.6963,-30.1821,261.8886],[30.6945,-30.1671,20.057],[30.7025,-30.1703,23.7579],[30.7104,-30.17,18.7935],[30.7117,-30.1637,13.8588],[30.7151,-30.1585,9.6869],[30.7187,-30.1617,8.7336],[30.7183,-30.1665,11.7129],[30.7214,-30.1717,33.3892],[30.7285,-30.1729,25.4316],[30.7362,-30.1778,8.1127],[30.7432,-30.1735,9.9023],[30.7477,-30.1739,5.2998],[30.7534,-30.169,129.4008],[30.7499,-30.1593,215.0234],[30.7464,-30.1576,224.1952],[30.7433,-30.159,191.1161],[30.7256,-30.1466,245.2995],[30.7182,-30.1477,109.6423],[30.7184,-30.1439,148.1195],[30.7735,-30.1494,159.9484],[30.7881,-30.1188,74.9858],[30.7913,-30.1209,56.5648],[30.794,-30.1202,51.0946],[30.7951,-30.1231,73.0716],[30.7998,-30.1191,43.4994],[30.8019,-30.1203,47.4058],[30.8045,-30.1183,37.0803],[30.8134,-30.106,161.0074],[30.8147,-30.1011,97.328],[30.82,-30.0972,16.6078],[30.8202,-30.0926,6.9204],[30.8277,-30.0856,7.9618],[30.8284,-30.0807,26.671],[30.8093,-30.059,200.416],[30.7818,-30.0209,342.2652],[30.7776,-30.0216,164.8803],[30.7764,-30.017,237.1114],[30.7781,-30.0138,189.6013],[30.7759,-30.0135,192.4781],[30.7753,-30.0159,183.4395],[30.7711,-30.0153,183.5156],[30.7645,-30.0116,207.9738],[30.7535,-30.0169,226.0138],[30.7502,-30.0158,236.5791],[30.7484,-30.0118,274.9646],[30.7449,-30.0127,327.621],[30.7428,-30.011,370.4709],[30.7347,-30.0138,431.547],[30.7304,-30.0256,436.3346],[30.7231,-30.0355,292.4283],[30.7244,-30.0401,269.9555],[30.7267,-30.041,237.7783],[30.7305,-30.0465,237.8777],[30.7336,-30.0459,195.0189],[30.7343,-30.0495,166.331],[30.7293,-30.0498,204.0874],[30.7278,-30.046,215.7392],[30.7253,-30.048,244.3047],[30.7246,-30.0456,244.718],[30.7221,-30.045,267.0269],[30.7219,-30.0388,308.1139],[30.7167,-30.036,415.3739],[30.7122,-30.0375,390.0886],[30.7103,-30.0349,412.1093],[30.7076,-30.0362,426.4744],[30.695,-30.0315,524.7692],[30.6836,-30.0308,588.5545],[30.6827,-30.0262,548.1149],[30.6784,-30.0268,581.5519],[30.6775,-30.0243,599.0385],[30.675,-30.0243,585.4381],[30.6734,-30.0274,577.9137],[30.6717,-30.0271,577.9137],[30.6742,-30.0278,555.9207],[30.6713,-30.0529,503.5645],[30.667,-30.0534,475.8988],[30.667,-30.0584,440.3609],[30.6653,-30.0619,399.4203],[30.666,-30.0639,486.8578],[30.6706,-30.0669,449.3352],[30.6721,-30.0656,478.9423],[30.6754,-30.0675,458.98],[30.6726,-30.0726,431.9169],[30.6768,-30.0755,447.0472],[30.6773,-30.0861,139.8245],[30.6754,-30.0871,113.8838],[30.6759,-30.091,144.2899],[30.6705,-30.0936,117.2424],[30.6564,-30.0951,139.1204],[30.6556,-30.0933,131.7746],[30.6622,-30.0854,131.6145],[30.6578,-30.0797,143.8532],[30.6628,-30.0747,149.038],[30.6525,-30.0729,186.4877],[30.6486,-30.0747,233.8508],[30.6437,-30.0735,172.0118],[30.6424,-30.0701,172.4058],[30.6361,-30.0739,185.9939],[30.6374,-30.0876,255.3591],[30.6254,-30.0978,217.2187],[30.6185,-30.0971,174.7023],[30.6038,-30.106,139.2082],[30.6057,-30.1092,118.9334],[30.6016,-30.1113,133.8441],[30.5987,-30.117,104.6151],[30.6004,-30.12,97.7391],[30.5982,-30.1206,93.7791],[30.5988,-30.1228,91.4236],[30.5959,-30.124,79.6051],[30.595,-30.1199,86.0934],[30.5911,-30.1179,101.9534],[30.5889,-30.1185,82.113],[30.5875,-30.1246,120.3906],[30.5798,-30.1332,91.2097],[30.5792,-30.1413,144.2985],[30.5755,-30.1447,98.5819],[30.569,-30.1382,96.6992],[30.5611,-30.1346,97.6676],[30.5527,-30.134,101.617],[30.5348,-30.1222,111.9747],[30.534,-30.1181,154.4619],[30.5356,-30.1157,113.8317],[30.5411,-30.1174,115.3617],[30.5488,-30.1144,150.0881],[30.552,-30.1176,122.3674],[30.552,-30.1239,120.8512],[30.5581,-30.1236,121.7489],[30.5619,-30.1208,130.547],[30.557,-30.1076,128.7257],[30.5531,-30.1056,130.5242],[30.5448,-30.1057,131.2451],[30.542,-30.0979,145.2946],[30.5381,-30.094,150.5164],[30.5228,-30.0929,141.8167],[30.516,-30.0874,188.2705],[30.5124,-30.0874,144.2133],[30.5055,-30.0976,159.0837],[30.5087,-30.1078,150.6819],[30.5053,-30.1134,155.4865],[30.4991,-30.1124,158.5855],[30.4915,-30.1073,157.1198],[30.4916,-30.1023,158.2198],[30.4963,-30.0979,159.8397],[30.4834,-30.0881,167.1478],[30.4793,-30.0873,170.672],[30.476,-30.0894,218.7095],[30.4765,-30.0944,167.7982],[30.4824,-30.0987,214.0789],[30.4821,-30.1016,178.5844],[30.4784,-30.1058,173.8956],[30.4682,-30.1002,178.5523],[30.4606,-30.1014,185.5043],[30.4576,-30.0993,182.6196],[30.4561,-30.0895,207.4853],[30.4455,-30.0844,197.1478],[30.4167,-30.1429,613.1257],[30.4207,-30.1478,591.7736],[30.42,-30.1535,496.6698],[30.4246,-30.1574,478.0862],[30.4249,-30.1612,454.7368],[30.4266,-30.1617,448.737],[30.4275,-30.165,439.0013],[30.4301,-30.168,424.9358],[30.4372,-30.1691,443.8111],[30.4379,-30.1721,395.6321],[30.4416,-30.1729,408.4531],[30.4413,-30.1753,394.4588],[30.4398,-30.1752,381.408],[30.4412,-30.1778,386.6409],[30.4345,-30.1836,396.5186],[30.4332,-30.1831,396.5186],[30.4338,-30.1811,405.5373],[30.4314,-30.1797,397.0056],[30.4285,-30.1846,425.4529],[30.4297,-30.1869,418.2101],[30.4242,-30.1862,436.0562],[30.4137,-30.1888,515.9708],[30.4164,-30.1983,411.7574],[30.4038,-30.2115,433.1986],[30.4014,-30.2108,434.8475],[30.398,-30.2034,445.5681],[30.3968,-30.206,444.8661],[30.3918,-30.201,458.9646],[30.3896,-30.2002,458.7708],[30.3877,-30.2014,491.6608],[30.3773,-30.2223,703.2917],[30.3808,-30.2506,723.0038],[30.3658,-30.2483,676.7465],[30.3419,-30.3023,843.4014],[30.3241,-30.3279,627.9415],[30.3417,-30.3267,703.4877],[30.3464,-30.3219,641.8538],[30.3507,-30.3233,640.2903],[30.3494,-30.3261,598.3972],[30.3542,-30.3253,634.834],[30.3568,-30.3279,616.0789],[30.3538,-30.3329,631.4073],[30.3512,-30.3326,611.0244],[30.3519,-30.3364,588.2232],[30.3539,-30.3365,611.1701],[30.3573,-30.3428,665.9304],[30.3679,-30.343,656.6677],[30.3822,-30.3326,794.3658],[30.3907,-30.3366,744.8947],[30.4094,-30.3296,628.7465],[30.4017,-30.3168,758.1693],[30.4437,-30.323,593.4919],[30.4493,-30.3261,492.3975],[30.4558,-30.3256,460.9164],[30.4575,-30.3166,562.6447],[30.4582,-30.3262,499.2372],[30.4618,-30.3225,447.1457],[30.4837,-30.327,423.0755],[30.4901,-30.335,451.0286],[30.4998,-30.3584,504.8231],[30.5041,-30.3567,484.3386],[30.5035,-30.3627,432.7266],[30.5057,-30.3761,388.2651],[30.5272,-30.3859,387.4451],[30.5214,-30.4151,420.2806],[30.5645,-30.4004,99.1629],[30.5841,-30.3963,151.7773],[30.5835,-30.4035,80.0154],[30.5926,-30.4083,83.471],[30.5926,-30.4013,79.2591],[30.6048,-30.3969,73.1866],[30.6079,-30.4011,64.1822],[30.6078,-30.4045,63.9728],[30.6099,-30.4058,90.8335],[30.6139,-30.3914,144.9535],[30.6077,-30.3876,174.4422],[30.6195,-30.3644,178.5291],[30.6328,-30.3476,222.7456],[30.6482,-30.3358,78.0879],[30.6472,-30.3351,78.0879],[30.6485,-30.3332,76.4731],[30.6462,-30.3329,109.9962],[30.6484,-30.3328,72.5143],[30.6523,-30.3245,130.0855],[30.6535,-30.3249,86.9751],[30.6535,-30.3219,109.1238],[30.6496,-30.318,108.1394],[30.6536,-30.315,226.5457],[30.6553,-30.3159,175.1039],[30.6579,-30.3109,179.5087],[30.6522,-30.3103,215.6213],[30.6481,-30.296,177.35],[30.6576,-30.2958,165.2006],[30.6554,-30.2932,165.2896],[30.6567,-30.2866,288.6685],[30.652,-30.281,297.2631]]]]}
,"properties": {"GID_3": "ZAF.4.5.6_1","GID_0": "ZAF","country": "SouthAfrica","GID_1": "ZAF.4_1","province": "KwaZulu-Natal","NL_NAME_1": "NA","GID_2": "ZAF.4.5_1","county": "Ugu","NL_NAME_2": "NA","city": "Vulamehlo","VARNAME_3": "NA","NL_NAME_3": "NA","TYPE_3": "LocalMunicipality","ENGTYPE_3": "LocalMunicipality","CC_3": "KZN211","HASC_3": "NA","name": "Vulamehlo.city","area_km2": 961.3059,"hist_schema_id": "Elevation0-9000","hist_area_km2": {"0": 1.5407,"25": 4.4568,"50": 8.5096,"75": 18.2429,"100": 29.1995,"125": 41.0354,"150": 49.6831,"175": 52.796,"200": 50.9469,"225": 45.5587,"250": 40.939,"275": 40.7537,"300": 39.8703,"325": 41.9559,"350": 46.6118,"375": 50.0236,"400": 46.306,"425": 44.1988,"450": 38.6235,"475": 36.569,"500": 32.2785,"525": 29.9876,"550": 26.7257,"575": 21.9265,"600": 18.9206,"625": 16.6846,"650": 15.5119,"675": 15.2185,"700": 12.8176,"725": 14.739,"750": 12.3224,"775": 9.1364,"800": 4.6501,"825": 1.3918,"850": 0.6233,"875": 0.3117,"900": 0.2384}}}