{"type": "Feature","bbox": [28.0656,-26.676,28.8613,-25.9034],"geometry": {"type": "MultiPolygon","coordinates": [[[[28.2497,-26.6267,1477.9659],[28.2598,-26.6215,1479.8051],[28.2817,-26.676,1534.5981],[28.3373,-26.6615,1492.5408],[28.3514,-26.6641,1489.704],[28.3536,-26.6611,1493.5232],[28.3558,-26.6616,1491.8544],[28.3602,-26.6588,1493.7322],[28.3708,-26.6481,1498.1621],[28.3815,-26.6461,1501.8793],[28.3848,-26.6436,1502.5597],[28.383,-26.6411,1505.4094],[28.3838,-26.6399,1502.7905],[28.3936,-26.636,1507.5563],[28.4001,-26.655,1607.9921],[28.415,-26.6562,1672.1094],[28.422,-26.6547,1691.9683],[28.4438,-26.6544,1688.2029],[28.4431,-26.6392,1643.9014],[28.4903,-26.6353,1658.8091],[28.4798,-26.6175,1546.8822],[28.4831,-26.6187,1541.8068],[28.4873,-26.6086,1541.7234],[28.4909,-26.6106,1543.6752],[28.4984,-26.604,1549.676],[28.5076,-26.6038,1545.6561],[28.5063,-26.5965,1557.8435],[28.5089,-26.5938,1550.1155],[28.5054,-26.5897,1552.6865],[28.5278,-26.5906,1594.8501],[28.533,-26.5779,1673.4583],[28.5285,-26.5649,1675.6882],[28.526,-26.5625,1578.1682],[28.5242,-26.5285,1734.8585],[28.5277,-26.5022,1800.5898],[28.5332,-26.5009,1768.0679],[28.5375,-26.5033,1720.1139],[28.5418,-26.501,1751.9723],[28.5406,-26.5036,1696.5006],[28.5437,-26.507,1681.6989],[28.5738,-26.5161,1617.5084],[28.569,-26.525,1622.8994],[28.5772,-26.5268,1594.5825],[28.58,-26.518,1611.6442],[28.5867,-26.52,1602.8774],[28.5849,-26.5386,1614.3438],[28.6381,-26.5473,1649.1484],[28.6312,-26.5246,1650.8939],[28.6416,-26.5076,1596.9955],[28.6499,-26.5111,1597.1666],[28.6502,-26.5079,1598.7389],[28.6534,-26.5087,1597.5223],[28.6618,-26.5059,1600.6617],[28.6889,-26.5131,1631.9128],[28.7639,-26.518,1649.1124],[28.7659,-26.4715,1631.4041],[28.7803,-26.4505,1638.1836],[28.7865,-26.4492,1639.4449],[28.7838,-26.4381,1655.043],[28.7899,-26.4265,1663.9924],[28.8,-26.424,1651.8077],[28.7991,-26.4212,1660.4954],[28.8055,-26.4222,1648.4325],[28.8321,-26.4078,1681.5762],[28.8613,-26.3986,1685.3751],[28.8503,-26.367,1628.4857],[28.8384,-26.340699999999998,1599.59],[28.8178,-26.3457,1638.0272],[28.8051,-26.3066,1631.6313],[28.7789,-26.3169,1645.4865],[28.7536,-26.3207,1651.49],[28.7394,-26.3245,1643.5028],[28.7101,-26.3412,1640.1895],[28.6727,-26.3209,1655.701],[28.6728,-26.3117,1639.1514],[28.6269,-26.2924,1617.3829],[28.6223,-26.2484,1636.3892],[28.5305,-26.2253,1613.5417],[28.5343,-26.1722,1631.7723],[28.5271,-26.1787,1626.1859],[28.5213,-26.1445,1621.3582],[28.4905,-26.1264,1629.738],[28.497,-26.1039,1624.1477],[28.5052,-26.0992,1617.3489],[28.5012,-26.0896,1609.9274],[28.5158,-26.0812,1592.0378],[28.5031,-26.0638,1600.9934],[28.4687,-26.0781,1630.1613],[28.4405,-26.0477,1639.7932],[28.4422,-26.0422,1626.587],[28.4491,-26.0427,1628.2423],[28.4547,-26.0308,1630.6433],[28.4601,-26.0237,1645.3652],[28.4643,-26.0256,1642.4148],[28.4644,-26.0114,1666.2347],[28.4457,-26.0181,1642.3723],[28.4482,-25.9999,1664.7886],[28.4511,-25.9955,1666.5878],[28.4444,-25.9911,1660.8187],[28.4517,-25.9864,1659.306],[28.4627,-25.9744,1638.0576],[28.468,-25.9633,1632.2654],[28.457,-25.9567,1616.4415],[28.446,-25.9649,1613.4487],[28.4177,-25.9505,1552.5693],[28.4167,-25.9484,1549.1842],[28.4195,-25.9487,1550.3662],[28.4176,-25.9394,1578.1967],[28.4072,-25.9241,1573.6741],[28.3524,-25.9546,1582.7379],[28.3381,-25.95,1574.7042],[28.3195,-25.9137,1514.3958],[28.2694,-25.9158,1560.1165],[28.2712,-25.925,1542.3738],[28.2435,-25.9232,1475.7958],[28.2384,-25.9227,1464.8265],[28.185,-25.9034,1495.9458],[28.1665,-25.9793,1593.6903],[28.1945,-25.9849,1510.7942],[28.1975,-25.9746,1506.9884],[28.2053,-25.9769,1509.5249],[28.2115,-25.9789,1523.1354],[28.2145,-25.9945,1563.187],[28.1799,-26.0208,1574.9946],[28.1874,-26.0327,1586.475],[28.1894,-26.0321,1575.0784],[28.188,-26.0362,1574.161],[28.1769,-26.0357,1623.8307],[28.1781,-26.0284,1615.7485],[28.1737,-26.0281,1617.7111],[28.1722,-26.0286,1622.1981],[28.1752,-26.0356,1627.4253],[28.1654,-26.0351,1600.323],[28.1582,-26.0383,1559.5232],[28.1623,-26.0442,1597.8718],[28.1605,-26.0462,1592.4611],[28.1657,-26.056,1644.2007],[28.17,-26.0538,1663.2612],[28.1718,-26.0581,1639.9679],[28.1714,-26.0636,1617.7909],[28.178,-26.0634,1668.193],[28.1794,-26.0668,1662.4216],[28.1756,-26.0737,1640.3712],[28.182,-26.0743,1670.5908],[28.1843,-26.0786,1693.3126],[28.1809,-26.0845,1678.2867],[28.1848,-26.0893,1665.6138],[28.1769,-26.0984,1590.8696],[28.1805,-26.1194,1626.2614],[28.1757,-26.1202,1604.2003],[28.1688,-26.1056,1566.6772],[28.1661,-26.1072,1572.5762],[28.1639,-26.1221,1630.5652],[28.1408,-26.1259,1623.2557],[28.1384,-26.118,1624.7638],[28.1354,-26.1219,1611.1963],[28.1376,-26.1264,1625.8092],[28.136,-26.1264,1617.7576],[28.1338,-26.1327,1592.2395],[28.1321,-26.1436,1565.5684],[28.132,-26.147,1571.6311],[28.1342,-26.1495,1581.8499],[28.1245,-26.1491,1605.6516],[28.1177,-26.16,1630.842],[28.1142,-26.1619,1641.6792],[28.1185,-26.1669,1676.8563],[28.1127,-26.1678,1725.8965],[28.1276,-26.2272,1636.5804],[28.1242,-26.2316,1634.6611],[28.1247,-26.234,1624.4847],[28.1224,-26.2392,1615.2811],[28.1246,-26.2395,1627.3958],[28.1229,-26.2479,1595.8844],[28.0952,-26.2555,1710.7227],[28.0953,-26.2576,1702.687],[28.0772,-26.2599,1746.012],[28.071,-26.2639,1706.1566],[28.0714,-26.2673,1715.521],[28.0656,-26.2682,1740.4586],[28.0667,-26.2721,1762.7495],[28.0706,-26.2726,1793.2268],[28.0781,-26.3038,1614.3866],[28.0948,-26.3047,1587.6006],[28.0946,-26.3069,1585.2758],[28.0905,-26.3067,1580.8435],[28.0911,-26.3136,1579.6382],[28.0803,-26.3209,1554.563],[28.0814,-26.3343,1539.5314],[28.0665,-26.3371,1513.1436],[28.0671,-26.342,1513.6327],[28.0812,-26.3357,1538.0413],[28.0975,-26.3603,1552.5419],[28.0761,-26.4154,1492.6305],[28.0826,-26.4162,1486.7123],[28.0848,-26.4181,1488.1323],[28.0932,-26.4172,1480.1464],[28.1179,-26.4191,1511.5198],[28.1257,-26.4307,1509.7439],[28.1372,-26.4255,1524.7905],[28.1347,-26.4229,1528.0668],[28.1472,-26.4239,1518.3789],[28.1603,-26.438,1501.2179],[28.183,-26.4192,1524.1672],[28.1843,-26.4251,1500.3329],[28.1811,-26.4292,1500.6907],[28.1868,-26.4303,1504.1294],[28.196,-26.4292,1513.7043],[28.1781,-26.4438,1557.4674],[28.1877,-26.4531,1565.7352],[28.2087,-26.434,1534.0793],[28.2152,-26.4358,1543.1218],[28.2171,-26.4334,1539.4349],[28.2205,-26.4356,1537.5244],[28.1988,-26.4636,1606.147],[28.2177,-26.4713,1615.239],[28.2252,-26.4726,1612.9192],[28.2258,-26.4798,1641.3402],[28.2286,-26.4851,1681.5349],[28.2372,-26.494,1707.4755],[28.2438,-26.4956,1709.4276],[28.2491,-26.4921,1686.9056],[28.2714,-26.503,1702.6768],[28.2839,-26.4807,1759.9604],[28.2888,-26.4823,1814.0895],[28.2964,-26.4781,1825.894],[28.3159,-26.4899,1736.384],[28.3238,-26.483,1732.9185],[28.3386,-26.4967,1635.8485],[28.3211,-26.5025,1598.635],[28.3128,-26.4978,1648.0679],[28.3084,-26.4994,1693.2019],[28.3042,-26.5039,1676.22],[28.3073,-26.5082,1628.9324],[28.294,-26.5174,1634.6235],[28.2962,-26.5269,1609.5811],[28.2912,-26.5313,1609.3229],[28.2983,-26.5366,1583.234],[28.2836,-26.5436,1591.4254],[28.2841,-26.5456,1575.9326],[28.2738,-26.5487,1530.4392],[28.2719,-26.5508,1544.3398],[28.2667,-26.5487,1553.2886],[28.2672,-26.5452,1537.0906],[28.2602,-26.5456,1548.1357],[28.2595,-26.5481,1570.1464],[28.2223,-26.5462,1611.6672],[28.2156,-26.5523,1636.501],[28.2063,-26.5562,1634.936],[28.2041,-26.5702,1598.1062],[28.1795,-26.5794,1573.1299],[28.1987,-26.6097,1604.385],[28.2194,-26.6363,1498.2021],[28.218,-26.6391,1502.9729],[28.2249,-26.6499,1463.1094],[28.2268,-26.6489,1467.2516],[28.2273,-26.6444,1463.8584],[28.2304,-26.6442,1463.6686],[28.2297,-26.6381,1465.5979],[28.2347,-26.6359,1465.7964],[28.2355,-26.6307,1472.5433],[28.2448,-26.6293,1477.5248],[28.2497,-26.6267,1477.9659]]]]}
,"properties": {"GID_2": "ZAF.3.3_1","GID_0": "ZAF","country": "SouthAfrica","GID_1": "ZAF.3_1","province": "Gauteng","NL_NAME_1": "NA","county": "Ekurhuleni","VARNAME_2": "NA","NL_NAME_2": "NA","TYPE_2": "DistrictMunicipality","ENGTYPE_2": "DistrictMunicipality","CC_2": "EKU","HASC_2": "ZA.GT.EK","name": "Ekurhuleni.county","area_km2": 3465.515,"hist_schema_id": "Elevation0-9000","hist_area_km2": {"1450": 0.438,"1475": 29.035,"1500": 90.344,"1525": 209.956,"1550": 333.076,"1575": 537.394,"1600": 686.482,"1625": 782.297,"1650": 500.511,"1675": 187.455,"1700": 60.952,"1725": 24.058,"1750": 11.618,"1775": 7.514,"1800": 3.245,"1825": 0.987,"1850": 0.152}}}