{"type":"Feature","properties":{"GID_3":"ZAF.7.3.1_1","GID_0":"ZAF","country":"SouthAfrica","GID_1":"ZAF.7_1","province":"NorthWest","NL_NAME_1":"NA","GID_2":"ZAF.7.3_1","county":"DrRuthSegomotsiMompati","NL_NAME_2":"NA","city":"GreaterTaung","VARNAME_3":"NA","NL_NAME_3":"NA","TYPE_3":"LocalMunicipality","ENGTYPE_3":"LocalMunicipality","CC_3":"NW394","HASC_3":"NA","name":"Greater_Taung.city"},
"geometry":{"type": "MultiPolygon","coordinates": [[[[24.62,-27.952,1047.6089],[24.627,-27.9419,1048.1542],[24.6265,-27.938,1047.8188],[24.6288,-27.9353,1048.036],[24.6257,-27.9287,1048.134],[24.6222,-27.9269,1048.459],[24.6184,-27.9213,1048.7384],[24.6173,-27.9155,1048.7867],[24.6115,-27.91,1049.0739],[24.6069,-27.9085,1050.0951],[24.6071,-27.9012,1050.3547],[24.606,-27.901,1050.3547],[24.6071,-27.8984,1049.845],[24.6116,-27.8977,1051.1732],[24.6133,-27.9016,1051.6051],[24.6191,-27.9049,1051.2153],[24.6301,-27.9029,1051.0262],[24.6322,-27.8991,1052.3467],[24.6325,-27.8914,1051.8647],[24.6413,-27.8876,1051.8904],[24.6451,-27.8875,1052.5973],[24.6494,-27.8817,1052.6487],[24.6519,-27.8768,1052.6187],[24.6521,-27.8697,1052.619],[24.6563,-27.8634,1052.8651],[24.6564,-27.8554,1053.4969],[24.6583,-27.8527,1053.4473],[24.6651,-27.8531,1055.3634],[24.6715,-27.8499,1053.7865],[24.6784,-27.8505,1054.1941],[24.6813,-27.8491,1055.4058],[24.6889,-27.8504,1054.9147],[24.6904,-27.8525,1055.0895],[24.6912,-27.8504,1055.1901],[24.6968,-27.8474,1055.8602],[24.6949,-27.8426,1056.35],[24.6884,-27.8391,1056.9237],[24.6881,-27.8365,1056.6669],[24.6908,-27.8327,1056.6816],[24.6993,-27.8283,1056.9573],[24.6587,-27.7909,1136.1326],[24.6618,-27.7848,1100.7992],[24.6692,-27.7863,1089.2163],[24.6731,-27.7828,1086.5911],[24.6757,-27.7699,1085.9772],[24.6704,-27.7616,1092.502],[24.6805,-27.7393,1079.936],[24.6937,-27.7356,1073.4746],[24.6955,-27.7183,1067.6301],[24.6812,-27.7034,1067.3108],[24.6752,-27.6934,1069.1582],[24.6727,-27.6856,1068.3091],[24.6746,-27.6812,1068.312],[24.6834,-27.6804,1071.8313],[24.686,-27.6784,1069.77],[24.6845,-27.6741,1069.9497],[24.6787,-27.6691,1070.1927],[24.6782,-27.6669,1070.2557],[24.6918,-27.6541,1070.8467],[24.6923,-27.6452,1073.0134],[24.7621,-27.6332,1118.1812],[24.7568,-27.6096,1110.1084],[24.7843,-27.6046,1144.7451],[24.7843,-27.6093,1145.2452],[24.7825,-27.6109,1147.7594],[24.7807,-27.6184,1148.7374],[24.7822,-27.633,1148.8281],[24.7866,-27.6432,1150.6565],[24.7938,-27.646,1149.9393],[24.7977,-27.6562,1149.2422],[24.7952,-27.6633,1151.2975],[24.7953,-27.6734,1155.7271],[24.7938,-27.6767,1157.5474],[24.7949,-27.682,1156.896],[24.792,-27.6869,1156.2969],[24.797,-27.693,1154.0327],[24.7966,-27.6982,1152.1229],[24.8012,-27.7018,1168.2332],[24.8545,-27.6956,1277.2902],[24.8857,-27.6945,1267.4513],[24.9732,-27.6826,1295.6744],[24.9997,-27.6808,1285.129],[25.0348,-27.6931,1266.3204],[25.0479,-27.6997,1262.4651],[25.0878,-27.6575,1316.3252],[25.0146,-27.5555,1318.1149],[25.0128,-27.5444,1328.6385],[25.0064,-27.5242,1340.8342],[24.9823,-27.523,1337.1243],[24.9737,-27.5174,1325.9686],[24.977,-27.4645,1238.2021],[24.9739,-27.4597,1219.6735],[24.9691,-27.4616,1212.3994],[24.9662,-27.4666,1216.1162],[24.9629,-27.4669,1209.5037],[24.9574,-27.4566,1207.7283],[24.9541,-27.4545,1240.2111],[24.919,-27.4592,1258.5881],[24.8909,-27.4489,1256.9707],[24.9117,-27.4241,1306.5038],[24.8922,-27.3972,1302.2968],[24.8478,-27.3988,1257.4086],[24.8186,-27.4119,1276.9995],[24.7959,-27.4176,1236.925],[24.7907,-27.4082,1218.6558],[24.7824,-27.4069,1191.1777],[24.7797,-27.4013,1180.696],[24.7812,-27.3938,1187.1941],[24.779,-27.3877,1171.9896],[24.7824,-27.3845,1168.0737],[24.79,-27.3837,1179.7754],[24.7915,-27.3816,1177.4086],[24.7856,-27.3804,1178.3887],[24.7849,-27.373,1192.722],[24.7801,-27.3654,1183.4653],[24.7794,-27.3363,1171.3322],[24.7772,-27.3332,1162.8224],[24.7715,-27.3365,1156.6307],[24.7605,-27.3186,1136.3036],[24.7463,-27.3109,1208.6866],[24.7159,-27.2691,1130.1108],[24.7177,-27.2684,1125.498],[24.7085,-27.2477,1117.6855],[24.7047,-27.2394,1116.7917],[24.703,-27.2403,1117.4556],[24.7004,-27.2345,1119.713],[24.6409,-27.2517,1248.6458],[24.6429,-27.2555,1241.6687],[24.5861,-27.2921,1289.5417],[24.6175,-27.3452,1223.3271],[24.5627,-27.3596,1307.5938],[24.5675,-27.3671,1309.1187],[24.5074,-27.3946,1339.5911],[24.5084,-27.3965,1339.7307],[24.4572,-27.4244,1351.7031],[24.4252,-27.3707,1368.2015],[24.3802,-27.2725,1377.6636],[24.3524,-27.2388,1384.8573],[24.4154,-27.2116,1357.3569],[24.4054,-27.1861,1354.9711],[24.4019,-27.1774,1352.8594],[24.3607,-27.1327,1360.0978],[24.3202,-27.0827,1363.6329],[24.2806,-27.0982,1388.5745],[24.2239,-27.1253,1421.5308],[24.1958,-27.0726,1449.7103],[24.1314,-27.0119,1369.4614],[24.0009,-27.0698,1355.0909],[23.976,-27.0793,1342.4666],[23.9736,-27.0964,1291.2927],[23.9156,-27.2141,1384.5598],[23.9101,-27.2251,1388.8292],[23.8983,-27.2355,1392.5142],[23.8965,-27.2527,1395.3749],[23.9412,-27.2764,1412.3156],[23.9502,-27.2828,1414.6863],[23.9529,-27.2815,1415.2765],[24.0149,-27.3237,1441.8986],[24.0639,-27.3532,1456.2434],[24.0724,-27.3556,1456.4553],[24.0863,-27.3535,1455.2946],[24.0575,-27.4294,1466.799],[24.0522,-27.4627,1465.8923],[24.0553,-27.5079,1472.2528],[24.0492,-27.5586,1488.5265],[24.0506,-27.6027,1451.9398],[24.1186,-27.6217,1424.7668],[24.1051,-27.6515,1435.1294],[24.0933,-27.7049,1424.0906],[24.111,-27.739,1415.229],[24.4053,-27.6812,1354.2231],[24.4468,-27.7029,1348.1558],[24.4088,-27.7611,1346.9451],[24.4526,-27.7825,1321.1603],[24.4274,-27.8405,1314.9419],[24.4099,-27.8428,1327.3474],[24.3605,-27.9107,1309.7704],[24.3926,-27.9415,1255.5208],[24.41,-27.9233,1252.5677],[24.4673,-27.9806,1186.4658],[24.4682,-27.9967,1154.4386],[24.4587,-28.0128,1156.0262],[24.4445,-28.0319,1151.928],[24.4655,-28.0358,1117.3207],[24.5346,-28.0921,1041.0],[24.5526,-28.0784,1041.0],[24.5599,-28.0747,1041.0],[24.5637,-28.07,1041.0],[24.5632,-28.0569,1041.0],[24.5577,-28.0445,1041.0],[24.5595,-28.0388,1041.0],[24.5664,-28.0348,1041.0],[24.5788,-28.0326,1042.2131],[24.5887,-28.0279,1041.3081],[24.5919,-28.0313,1043.6035],[24.5941,-28.0287,1043.4589],[24.6031,-28.0292,1043.6332],[24.608,-28.0262,1043.6171],[24.6089,-28.0273,1044.1279],[24.6144,-28.0224,1045.8778],[24.6141,-28.0204,1044.0107],[24.6086,-28.015,1045.6544],[24.6082,-28.0117,1044.6771],[24.617,-28.008,1044.657],[24.6166,-28.0065,1044.5652],[24.6209,-28.0012,1044.6804],[24.6232,-28.0017,1044.9105],[24.6248,-27.9992,1044.788],[24.6283,-27.9996,1046.1196],[24.6273,-27.9971,1045.1547],[24.6294,-27.9943,1045.2911],[24.6273,-27.9909,1045.4734],[24.6249,-27.9906,1045.7539],[24.6209,-27.9788,1046.431],[24.6231,-27.9765,1046.1239],[24.6208,-27.9749,1046.4202],[24.6227,-27.974,1045.9038],[24.6219,-27.972,1047.8403],[24.6256,-27.9672,1046.7621],[24.6265,-27.963,1046.8243],[24.6223,-27.9613,1046.8553],[24.62,-27.952,1047.6089]]]]}}