{"type":"Feature","properties":{"GID_3":"ZAF.9.4.2_1","GID_0":"ZAF","country":"SouthAfrica","GID_1":"ZAF.9_1","province":"WesternCape","NL_NAME_1":"NA","GID_2":"ZAF.9.4_1","county":"Eden","NL_NAME_2":"NA","city":"George","VARNAME_3":"NA","NL_NAME_3":"NA","TYPE_3":"LocalMunicipality","ENGTYPE_3":"LocalMunicipality","CC_3":"WC044","HASC_3":"NA","name":"George.city"},
"geometry":{"type": "MultiPolygon","coordinates": [[[[22.4715,-34.0496,2.522],[22.4851,-34.0526,0.0],[22.4879,-34.0471,29.4673],[22.4982,-34.0429,9.5813],[22.501,-34.0376,0.0],[22.5038,-34.0363,0.0],[22.5088,-34.0368,0.0],[22.5135,-34.0282,0.0],[22.5174,-34.0285,0.0],[22.521,-34.0257,1.8436],[22.5254,-34.0251,0.0],[22.5285,-34.0221,0.0],[22.5424,-34.0179,3.9778],[22.5443,-34.0137,0.0],[22.5582,-34.0021,0.0],[22.5565,-33.9979,7.9667],[22.5524,-33.9946,46.7989],[22.5613,-33.999,12.7265],[22.564,-33.9963,0.0],[22.5796,-33.9957,0.7418],[22.5818,-33.9929,14.5115],[22.5929,-33.9935,0.0],[22.5904,-33.9946,11.3153],[22.5849,-33.9935,4.5535],[22.5824,-33.9949,3.0507],[22.586,-33.9968,0.0],[22.6632,-34.0074,15.5085],[22.7229,-34.0215,14.353],[22.737,-34.0268,0.0],[22.7389,-34.017,196.6329],[22.7176,-33.9986,2.5453],[22.7134,-34.0001,23.3499],[22.7044,-33.9969,4.7431],[22.7054,-33.9916,1.8751],[22.7089,-33.9876,21.8395],[22.7105,-33.9878,16.9298],[22.7086,-33.9773,58.9638],[22.7098,-33.9741,166.0432],[22.72,-33.9742,85.2263],[22.7269,-33.9248,294.2373],[22.7791,-33.9275,145.9978],[22.774,-33.92,190.2096],[22.7763,-33.9086,292.4396],[22.7785,-33.906,252.7562],[22.7728,-33.9052,242.5853],[22.7716,-33.9034,290.4404],[22.7759,-33.9,238.7316],[22.7744,-33.8978,279.8233],[22.778,-33.8939,390.3582],[22.8006,-33.8729,914.6771],[22.8003,-33.8412,1366.6499],[22.8515,-33.8299,1351.604],[22.8766,-33.816,1254.2848],[22.911,-33.8176,1014.9931],[22.9172,-33.8152,973.5786],[22.9742,-33.8144,1353.2323],[23.0355,-33.794,597.3144],[23.03,-33.8068,876.0491],[23.0765,-33.8086,1009.1293],[23.1837,-33.8622,465.7693],[23.229,-33.8783,196.0489],[23.2794,-33.8771,302.1777],[23.2888,-33.8658,550.5453],[23.2839,-33.8438,401.5732],[23.3344,-33.8566,661.5981],[23.3255,-33.7991,1415.8616],[23.3946,-33.7931,1522.8248],[23.4301,-33.7618,918.2767],[23.4399,-33.7174,674.1986],[23.4754,-33.7177,825.5453],[23.5413,-33.6995,934.3683],[23.5417,-33.683,917.9988],[23.5555,-33.673,866.9359],[23.5565,-33.6515,1490.1682],[23.5859,-33.6727,808.3015],[23.6288,-33.6693,1379.7428],[23.6704,-33.6726,1423.2118],[23.675,-33.6259,1639.1666],[23.6199,-33.5915,1605.3247],[23.6168,-33.5696,1267.3081],[23.5962,-33.5725,1219.0853],[23.6001,-33.5275,1082.5597],[23.6061,-33.5033,1130.0388],[23.604,-33.4964,1089.1108],[23.5786,-33.4857,1006.7021],[23.579,-33.4847,1017.985],[23.5142,-33.4627,1305.5309],[23.4956,-33.4434,1543.9846],[23.4676,-33.4481,1666.9607],[23.4233,-33.442,1531.4709],[23.3934,-33.4457,1446.6697],[23.3738,-33.4454,1298.709],[23.3549,-33.4412,1164.3185],[23.3641,-33.4618,946.7415],[23.318,-33.4065,797.1608],[23.2971,-33.3886,1412.838],[23.1954,-33.3862,1343.2812],[23.1348,-33.3876,1261.8893],[23.1129,-33.4008,712.7439],[23.0664,-33.4002,1342.2808],[22.9348,-33.4291,1329.7561],[22.8302,-33.4191,1582.573],[22.7744,-33.4197,1726.3988],[22.7544,-33.4439,931.8726],[22.7285,-33.4542,872.0123],[22.7599,-33.5307,811.0658],[22.7161,-33.5317,532.0945],[22.7232,-33.5734,684.291],[22.7301,-33.583,748.4614],[22.7557,-33.6407,1601.4081],[22.7087,-33.6438,1362.0797],[22.6893,-33.6471,1307.7228],[22.6748,-33.6441,1299.7452],[22.6593,-33.6438,1456.312],[22.6263,-33.6224,1315.4033],[22.5887,-33.6367,1069.8411],[22.5252,-33.6402,656.9126],[22.5083,-33.645,661.0095],[22.5004,-33.6492,646.8689],[22.5029,-33.6393,670.892],[22.5014,-33.6389,674.5037],[22.4556,-33.647,735.7192],[22.4308,-33.6657,483.9657],[22.3718,-33.6594,593.0205],[22.3659,-33.6849,502.5224],[22.3453,-33.7253,523.0235],[22.2942,-33.7109,555.3572],[22.2849,-33.7053,536.0311],[22.2942,-33.7303,571.4669],[22.2959,-33.7403,458.9587],[22.2934,-33.745,454.5569],[22.2871,-33.7446,507.3155],[22.2886,-33.7533,508.0913],[22.3182,-33.7351,524.6752],[22.3193,-33.7319,550.4744],[22.3262,-33.7341,529.1546],[22.3212,-33.741,501.1608],[22.3688,-33.7928,620.2585],[22.3325,-33.8185,584.4286],[22.3401,-33.8229,664.4673],[22.3207,-33.8275,941.7959],[22.2891,-33.8579,980.7308],[22.2754,-33.8514,792.4545],[22.1935,-33.8514,652.9555],[22.2337,-33.8882,1424.9673],[22.2335,-33.903,1365.2158],[22.2679,-33.925,371.8689],[22.2682,-33.9404,300.4412],[22.2604,-33.9549,247.5632],[22.2603,-33.9605,236.9795],[22.2637,-33.9811,203.9243],[22.2698,-33.984,195.3441],[22.2723,-33.9881,187.0479],[22.2763,-33.9908,185.1224],[22.2786,-33.9904,184.1777],[22.2709,-34.0052,200.5779],[22.2799,-34.0215,186.0105],[22.2651,-34.0339,188.3552],[22.2628,-34.0376,182.4633],[22.2627,-34.0436,102.998],[22.2658,-34.0484,35.9975],[22.2803,-34.0449,65.5752],[22.2923,-34.047,74.1963],[22.2936,-34.0451,108.4759],[22.3066,-34.0457,149.0035],[22.3062,-34.048,38.0308],[22.3076,-34.0481,28.458],[22.3086,-34.0434,150.4016],[22.3114,-34.0432,164.6792],[22.3097,-34.0397,177.0384],[22.3144,-34.0401,193.7321],[22.313,-34.0432,164.6792],[22.3154,-34.0435,135.7754],[22.3164,-34.0417,176.2772],[22.3196,-34.0428,167.6746],[22.3172,-34.0493,22.0418],[22.3225,-34.0514,8.8646],[22.3538,-34.0539,14.0491],[22.3531,-34.0456,0.0],[22.3512,-34.0414,107.0171],[22.3538,-34.0456,0.0],[22.3554,-34.0551,0.0],[22.3638,-34.0593,0.5616],[22.376,-34.0596,0.0],[22.379,-34.0615,0.0],[22.3854,-34.0615,0.0],[22.3868,-34.0582,15.2093],[22.3899,-34.0563,0.0],[22.3968,-34.0585,0.0],[22.3976,-34.0571,0.0],[22.404,-34.056,20.7547],[22.4085,-34.0588,0.0],[22.4199,-34.059,0.0],[22.424,-34.0612,2.6323],[22.4279,-34.0574,25.5355],[22.4315,-34.0604,0.0],[22.4365,-34.0571,0.0],[22.441,-34.0607,0.0],[22.4454,-34.0576,13.4321],[22.4524,-34.0574,0.0],[22.4607,-34.0513,0.0],[22.465699999999998,-34.0499,0.0],[22.4713,-34.051,2.522],[22.4715,-34.0496,2.522]]]]}}