{"type":"Feature","properties":{"GID_3":"ZAF.5.2.3_1","GID_0":"ZAF","country":"SouthAfrica","GID_1":"ZAF.5_1","province":"Limpopo","NL_NAME_1":"NA","GID_2":"ZAF.5.2_1","county":"Mopani","NL_NAME_2":"NA","city":"GreaterLetaba","VARNAME_3":"NA","NL_NAME_3":"NA","TYPE_3":"LocalMunicipality","ENGTYPE_3":"LocalMunicipality","CC_3":"LIM332","HASC_3":"NA","name":"Greater_Letaba.city"},
"geometry":{"type": "MultiPolygon","coordinates": [[[[30.2338,-23.7014,904.1195],[30.2516,-23.6794,932.144],[30.2598,-23.6715,956.0942],[30.2661,-23.6696,926.2996],[30.267,-23.6708,908.7457],[30.2735,-23.67,836.507],[30.2796,-23.6669,948.7859],[30.2778,-23.666,965.7098],[30.2907,-23.6572,1045.9534],[30.2876,-23.6465,837.2935],[30.3061,-23.6316,753.0276],[30.3215,-23.6366,980.4822],[30.3421,-23.6359,1015.8685],[30.3677,-23.6241,917.7979],[30.3687,-23.6203,901.9708],[30.3673,-23.6163,891.8099],[30.3703,-23.61,776.3267],[30.3703,-23.6061,712.8405],[30.3751,-23.6038,702.7312],[30.3772,-23.6007,703.1896],[30.3828,-23.6002,709.5388],[30.388,-23.5976,691.3933],[30.3746,-23.5874,628.3413],[30.3723,-23.5812,619.135],[30.3723,-23.5759,607.3669],[30.3692,-23.5723,593.5853],[30.3725,-23.5668,589.2667],[30.3965,-23.5517,576.2453],[30.4179,-23.5214,549.618],[30.4748,-23.5691,657.5328],[30.513,-23.5644,522.6665],[30.5628,-23.5525,556.9182],[30.6019,-23.5621,563.6781],[30.6249,-23.5967,476.8957],[30.6889,-23.4554,534.033],[30.6174,-23.389,532.2468],[30.5794,-23.4389,476.8772],[30.5418,-23.4335,484.8082],[30.4965,-23.4572,503.4673],[30.47,-23.474,530.0154],[30.4514,-23.4436,560.2091],[30.48,-23.4285,528.3311],[30.5382,-23.4017,514.3088],[30.4826,-23.3419,541.785],[30.4508,-23.371,568.1022],[30.4058,-23.3679,794.3264],[30.3374,-23.424,781.5488],[30.294,-23.3857,584.9066],[30.2731,-23.3517,703.9236],[30.2686,-23.3244,611.8478],[30.2343,-23.3085,833.3973],[30.1516,-23.3138,692.1337],[30.1468,-23.3414,749.9447],[30.1188,-23.3424,918.2009],[30.0909,-23.3473,955.9208],[30.0716,-23.3637,1022.6867],[30.0472,-23.3698,1139.4689],[30.0636,-23.3368,774.0884],[30.0377,-23.3387,932.0184],[30.0355,-23.375,1053.9895],[30.0433,-23.3825,1149.1655],[30.0392,-23.396,1178.2747],[30.0433,-23.4256,1150.7485],[30.0308,-23.4363,1186.8136],[30.0194,-23.4313,1184.8456],[30.006,-23.4478,1204.3955],[29.9973,-23.4699,1213.4219],[30.018,-23.4634,1123.7238],[30.027,-23.4899,1196.0734],[30.0131,-23.5016,1177.1469],[30.0473,-23.5352,886.3907],[30.0427,-23.541,978.4543],[30.0364,-23.573,745.6678],[30.0148,-23.5864,783.2616],[29.9991,-23.5918,823.8446],[29.9698,-23.6105,971.287],[29.949,-23.6277,1069.7524],[29.9479,-23.64,1077.9926],[29.9611,-23.6601,910.1756],[29.9813,-23.6525,1133.576],[30.0254,-23.6247,1061.6763],[30.0491,-23.6461,733.4457],[30.0461,-23.653,737.9489],[30.0425,-23.6556,737.6115],[30.0404,-23.6614,746.964],[30.0366,-23.6606,743.6158],[30.0354,-23.6639,750.3723],[30.0286,-23.6672,753.9169],[30.0499,-23.7062,1464.9272],[30.0633,-23.6869,1211.949],[30.0732,-23.6979,1361.2634],[30.0818,-23.6914,1365.0554],[30.092,-23.7055,1115.173],[30.098,-23.7237,870.9798],[30.1012,-23.7255,857.3985],[30.1044,-23.7253,879.066],[30.1106,-23.7334,807.7067],[30.1131,-23.7308,835.5632],[30.1249,-23.7358,879.7915],[30.1259,-23.7319,884.791],[30.1338,-23.7257,943.4485],[30.1423,-23.7429,749.3663],[30.1594,-23.7358,869.421],[30.1546,-23.7608,804.7431],[30.1709,-23.7527,834.2347],[30.1804,-23.7543,744.795],[30.1845,-23.743,816.2392],[30.2013,-23.7537,829.7631],[30.2277,-23.7235,974.2075],[30.2321,-23.7144,964.8033],[30.2338,-23.7014,904.1195]]]]}}