{"type":"Feature","properties":{"GID_3":"ZAF.4.5.2_1","GID_0":"ZAF","country":"SouthAfrica","GID_1":"ZAF.4_1","province":"KwaZulu-Natal","NL_NAME_1":"NA","GID_2":"ZAF.4.5_1","county":"Ugu","NL_NAME_2":"NA","city":"HibiscusCoast","VARNAME_3":"NA","NL_NAME_3":"NA","TYPE_3":"LocalMunicipality","ENGTYPE_3":"LocalMunicipality","CC_3":"KZN216","HASC_3":"NA","name":"Hibiscus_Coast.city"},
"geometry":{"type": "MultiPolygon","coordinates": [[[[30.284,-30.9715,0.0],[30.2865,-30.9718,0.0],[30.2976,-30.9632,0.0],[30.3021,-30.9551,0.0],[30.3015,-30.9487,0.0],[30.3046,-30.9424,7.8126],[30.309,-30.9385,0.0],[30.3085,-30.936,0.0],[30.3118,-30.9332,0.0],[30.314,-30.9335,0.0],[30.3182,-30.9254,1.614],[30.3293,-30.9185,0.0],[30.3296,-30.9154,15.3413],[30.3335,-30.9151,0.0],[30.3354,-30.9104,0.0],[30.3299,-30.9088,14.215],[30.3357,-30.9088,0.0],[30.3363,-30.9071,0.0],[30.3412,-30.9049,0.0],[30.3462,-30.8999,0.3637],[30.3479,-30.8937,2.3403],[30.359,-30.8815,0.0],[30.3601,-30.8771,0.0],[30.3643,-30.8762,0.0],[30.371,-30.871,0.3783],[30.3724,-30.8679,0.8662],[30.3721,-30.8604,4.2489],[30.3751,-30.8596,0.0],[30.3779,-30.8565,0.0],[30.3824,-30.8557,2.1523],[30.391,-30.8479,1.7602],[30.3965,-30.8379,0.0],[30.3962,-30.8363,0.0],[30.3935,-30.8354,25.9396],[30.3987,-30.8337,0.7759],[30.4043,-30.8279,0.0],[30.4057,-30.8221,5.0932],[30.4043,-30.819,2.146],[30.4101,-30.8151,5.3581],[30.4121,-30.8118,0.0],[30.4129,-30.8046,0.0],[30.4163,-30.8032,0.0],[30.4179,-30.7979,11.8124],[30.4215,-30.7954,0.0],[30.4246,-30.7899,0.0],[30.4229,-30.7865,0.0],[30.4318,-30.781,0.0],[30.4368,-30.7715,8.0493],[30.4438,-30.7671,0.3834],[30.4476,-30.7562,1.4319],[30.4593,-30.7435,0.8465],[30.4596,-30.7412,1.2244],[30.4579,-30.7399,1.2244],[30.4607,-30.7337,3.9359],[30.4643,-30.7301,0.0],[30.4676,-30.7296,0.0],[30.4674,-30.7274,5.0627],[30.4804,-30.7154,0.0],[30.4826,-30.7082,0.0],[30.4912,-30.7013,0.0],[30.4996,-30.6868,0.0],[30.5096,-30.6785,0.0],[30.511,-30.6718,1.4271],[30.5174,-30.6626,0.0],[30.5185,-30.6576,4.0227],[30.5254,-30.6521,9.2969],[30.5318,-30.644,1.799],[30.5354,-30.6426,0.1654],[30.5376,-30.6346,1.7781],[30.5451,-30.6274,3.187],[30.5474,-30.6282,0.0],[30.5449,-30.6232,0.0],[30.5476,-30.6126,4.7144],[30.559,-30.6024,1.7087],[30.5637,-30.5954,2.1226],[30.5679,-30.5929,6.2237],[30.5829,-30.5629,8.0248],[30.5846,-30.5567,2.2929],[30.5803,-30.559,7.6986],[30.5777,-30.5587,8.3788],[30.5763,-30.556,6.9497],[30.5778,-30.5562,24.4572],[30.5777,-30.5544,36.7844],[30.5751,-30.5522,8.2585],[30.5747,-30.5483,9.2677],[30.5714,-30.5499,21.7358],[30.5719,-30.5473,19.426],[30.5688,-30.5467,22.7592],[30.5661,-30.5495,16.526],[30.5635,-30.5497,40.3802],[30.5653,-30.5475,22.0447],[30.5628,-30.544,29.1583],[30.5617,-30.5467,40.619],[30.5593,-30.5455,32.4385],[30.5562,-30.5465,58.9807],[30.5548,-30.5442,55.0975],[30.5524,-30.5444,40.5833],[30.5528,-30.5428,59.5211],[30.5501,-30.5412,55.8311],[30.5495,-30.5388,55.5896],[30.5457,-30.5402,57.9034],[30.5429,-30.5379,69.1109],[30.5421,-30.5404,80.7236],[30.5361,-30.5374,92.1541],[30.5357,-30.5406,78.541],[30.5311,-30.5418,110.6071],[30.5297,-30.5408,85.0583],[30.5297,-30.5456,112.7076],[30.5075,-30.5395,163.2017],[30.5123,-30.5746,152.9066],[30.5088,-30.5918,11.2935],[30.5015,-30.5893,18.659],[30.4948,-30.5928,18.4042],[30.4909,-30.5867,24.3623],[30.4864,-30.5849,19.8168],[30.4818,-30.5932,61.6723],[30.4753,-30.5938,32.9363],[30.472,-30.5913,52.7243],[30.4723,-30.5845,61.8176],[30.4711,-30.583,43.5043],[30.4548,-30.5858,44.3263],[30.4505,-30.5794,68.378],[30.4414,-30.5818,67.0126],[30.4364,-30.5766,57.3124],[30.4315,-30.575,58.5333],[30.4273,-30.5779,58.7815],[30.4284,-30.607,222.1279],[30.4127,-30.6089,304.9959],[30.3987,-30.629,315.9467],[30.3805,-30.6247,350.504],[30.3615,-30.6164,430.5838],[30.3688,-30.606,423.956],[30.3478,-30.5787,530.6318],[30.3429,-30.5859,401.0381],[30.3561,-30.6017,451.5152],[30.3535,-30.6075,480.9303],[30.3548,-30.6162,441.1033],[30.3541,-30.626,425.075],[30.3588,-30.6375,333.6531],[30.3446,-30.6453,32.6423],[30.3538,-30.6494,67.0938],[30.3622,-30.6639,26.5375],[30.3671,-30.6648,48.0302],[30.3694,-30.6617,98.2805],[30.3698,-30.6574,13.7249],[30.374,-30.6616,18.4107],[30.3774,-30.6709,17.2877],[30.3864,-30.6841,34.249],[30.3842,-30.691,40.9648],[30.388,-30.6976,30.8076],[30.3887,-30.7039,12.314],[30.397,-30.7074,3.7152],[30.3928,-30.7118,178.9324],[30.3991,-30.7217,209.8992],[30.3985,-30.726,187.0176],[30.3373,-30.6981,328.1995],[30.3311,-30.6856,360.2943],[30.2971,-30.6978,459.4463],[30.2909,-30.6962,431.3275],[30.2808,-30.7024,521.2413],[30.2748,-30.7027,464.874],[30.2765,-30.7082,442.251],[30.2831,-30.7081,507.8765],[30.276,-30.7248,495.2556],[30.2872,-30.7346,481.1393],[30.2861,-30.7355,470.702],[30.2877,-30.737,480.305],[30.2891,-30.7492,441.8718],[30.2907,-30.75,440.2073],[30.2912,-30.7532,416.5318],[30.2822,-30.7624,468.9044],[30.2881,-30.783,461.0631],[30.2909,-30.7844,448.14],[30.2783,-30.7947,448.4988],[30.2495,-30.8103,540.8653],[30.2435,-30.8174,499.6145],[30.2487,-30.8202,541.0311],[30.2384,-30.8274,445.4068],[30.2387,-30.8304,497.8629],[30.2356,-30.8311,502.2248],[30.2353,-30.8296,502.1614],[30.2038,-30.8517,394.6366],[30.1819,-30.7749,618.0913],[30.1782,-30.7836,622.5491],[30.1772,-30.7803,560.2216],[30.1652,-30.7951,541.1857],[30.1627,-30.802,477.8615],[30.1587,-30.8058,429.4401],[30.1554,-30.806,508.6043],[30.144,-30.8209,549.8032],[30.146,-30.838,498.8529],[30.1506,-30.8577,513.1151],[30.1525,-30.8528,497.5703],[30.1666,-30.8625,493.4467],[30.1809,-30.8671,499.0593],[30.1781,-30.8945,461.7531],[30.158,-30.9066,472.014],[30.1452,-30.8985,497.8299],[30.1415,-30.9031,489.3962],[30.1236,-30.9037,234.8481],[30.1268,-30.9054,265.742],[30.1265,-30.9067,281.1645],[30.12,-30.9099,283.9487],[30.1323,-30.9091,242.317],[30.1362,-30.9115,242.1663],[30.1395,-30.9181,225.6682],[30.1464,-30.9224,206.3],[30.1428,-30.927,230.1705],[30.1464,-30.9311,204.7761],[30.1465,-30.9339,216.8449],[30.1447,-30.9374,202.2515],[30.1413,-30.9375,219.8121],[30.1378,-30.9406,223.0762],[30.1411,-30.951,222.9137],[30.1392,-30.9544,196.6184],[30.1347,-30.9562,178.3704],[30.1345,-30.9638,197.8833],[30.1411,-30.9664,169.0566],[30.1477,-30.9713,178.4969],[30.1551,-30.9729,172.4473],[30.1564,-30.9759,178.4279],[30.1521,-30.9853,145.6934],[30.1413,-30.9873,131.2943],[30.1409,-30.9967,126.1665],[30.1452,-30.9984,134.4149],[30.1469,-31.0026,130.0358],[30.1446,-31.0054,107.8589],[30.1362,-31.0074,141.8786],[30.1354,-31.009,115.3645],[30.14,-31.0141,150.8615],[30.1396,-31.021,115.6781],[30.1408,-31.0229,97.203],[30.1431,-31.0226,80.2499],[30.1493,-31.0156,110.6127],[30.1556,-31.0224,60.6789],[30.1632,-31.0251,65.281],[30.17,-31.0254,61.6687],[30.1677,-31.0383,150.0662],[30.1635,-31.0449,33.6752],[30.1631,-31.0484,37.9626],[30.1703,-31.0604,6.3134],[30.1763,-31.0657,5.064],[30.188,-31.0688,1.5993],[30.1954,-31.0796,0.0],[30.2129,-31.0726,0.0],[30.214,-31.0701,0.0],[30.2204,-31.0662,0.0],[30.2237,-31.0613,0.0],[30.2282,-31.0582,0.0],[30.231,-31.0479,0.0],[30.2279,-31.0432,0.0],[30.2362,-31.0365,0.0],[30.2349,-31.0343,9.8766],[30.2368,-31.0321,2.5555],[30.2407,-31.0296,1.9181],[30.2426,-31.031,0.4695],[30.2443,-31.0299,0.0],[30.246,-31.0218,0.0],[30.2551,-31.0187,0.0],[30.2554,-31.016,6.3],[30.2585,-31.014,0.1266],[30.2574,-31.0104,3.1693],[30.2674,-31.0026,1.5895],[30.269,-30.9963,0.0],[30.278199999999998,-30.9888,0.0],[30.2776,-30.9835,5.3513],[30.2826,-30.976,6.7971],[30.2818,-30.971,0.6823],[30.279,-30.969,6.9263],[30.284,-30.9715,0.0]]]]}}