{"type":"Feature","properties":{"GID_2":"ZAF.4.10_1","GID_0":"ZAF","country":"SouthAfrica","GID_1":"ZAF.4_1","province":"KwaZulu-Natal","NL_NAME_1":"NA","county":"Uthungulu","VARNAME_2":"NA","NL_NAME_2":"NA","TYPE_2":"DistrictMunicipality","ENGTYPE_2":"DistrictMunicipality","CC_2":"DC28","HASC_2":"ZA.NL.UT","name":"Uthungulu.county"},
"geometry":{"type": "MultiPolygon","coordinates": [[[[31.3174,-29.1504,39.5],[31.3173,-29.1442,61.3801],[31.3228,-29.1427,56.0909],[31.3256,-29.1383,58.1011],[31.3183,-29.1306,59.5695],[31.3183,-29.1284,62.519],[31.3207,-29.1272,65.9073],[31.3278,-29.1318,88.227],[31.3323,-29.1311,89.0756],[31.3339,-29.1274,78.4546],[31.3266,-29.1244,80.2493],[31.3257,-29.1206,94.4769],[31.333,-29.1211,86.4165],[31.3377,-29.1169,95.2406],[31.3358,-29.1147,98.2709],[31.3241,-29.1121,105.5658],[31.3245,-29.109,108.8006],[31.3315,-29.1103,121.3785],[31.3341,-29.1089,124.765],[31.3285,-29.1056,123.4139],[31.3276,-29.103,146.858],[31.3325,-29.1024,160.6534],[31.3324,-29.0994,132.01],[31.3447,-29.1019,148.6264],[31.3469,-29.1006,144.9802],[31.3408,-29.096,157.5871],[31.3419,-29.0938,153.4264],[31.3471,-29.0936,162.8551],[31.3401,-29.0892,181.923],[31.3403,-29.0868,174.596],[31.3459,-29.088,185.1708],[31.3559,-29.0871,185.6997],[31.3588,-29.091,202.603],[31.3615,-29.092,214.5817],[31.365,-29.0871,255.629],[31.3702,-29.0841,284.1353],[31.3729,-29.079,335.6016],[31.3769,-29.0794,386.3837],[31.3832,-29.0727,403.0837],[31.3845,-29.069,421.0183],[31.387,-29.0677,430.5808],[31.3856,-29.0581,293.5278],[31.3788,-29.0628,260.6388],[31.3756,-29.0625,252.9433],[31.3722,-29.0594,259.2653],[31.3633,-29.0599,218.2072],[31.3719,-29.055,241.0632],[31.3744,-29.0508,241.8647],[31.3748,-29.0428,296.8026],[31.3758,-29.0386,287.7063],[31.378,-29.0383,291.7318],[31.3792,-29.0357,331.2303],[31.3783,-29.0328,340.2068],[31.3804,-29.0247,302.1572],[31.3777,-29.0151,272.8557],[31.3788,-29.0061,257.2528],[31.3809,-29.0063,255.3383],[31.3821,-29.0028,253.6396],[31.388,-29.0019,247.6314],[31.3879,-28.9969,236.1992],[31.3927,-28.9963,228.2732],[31.3938,-28.9977,228.2732],[31.3949,-28.9961,237.3186],[31.3996,-28.9954,230.7446],[31.4023,-28.9991,223.9661],[31.4054,-28.9973,228.0144],[31.4062,-29.0018,228.0298],[31.4107,-28.997,206.1694],[31.4142,-28.9981,202.8],[31.4145,-28.9959,194.5811],[31.4127,-28.9937,198.5529],[31.4138,-28.9926,214.7546],[31.4198,-28.9943,211.6698],[31.4237,-28.9993,172.0634],[31.4275,-28.9943,174.8961],[31.4319,-28.9962,165.6111],[31.437,-28.9919,188.0714],[31.4424,-28.9968,147.9563],[31.4457,-28.99,138.2289],[31.4566,-28.989,138.5116],[31.4577,-28.9869,130.224],[31.4559,-28.9827,127.4161],[31.458,-28.9819,140.4232],[31.4606,-28.9874,125.3468],[31.459,-28.9917,127.8641],[31.4617,-28.9977,149.3253],[31.4617,-29.0015,146.2639],[31.4602,-29.0042,126.3621],[31.4501,-29.0042,133.207],[31.4479,-29.0096,105.0248],[31.4496,-29.0141,110.1164],[31.4541,-29.0168,146.4904],[31.458,-29.0098,89.2082],[31.4674,-29.0093,77.1334],[31.4676,-29.004,135.4898],[31.4699,-29.0043,99.6715],[31.4717,-29.0082,69.5675],[31.4683,-29.0158,58.9725],[31.4721,-29.025,134.2637],[31.4755,-29.0259,51.0356],[31.4834,-29.0243,53.9098],[31.4997,-29.0278,52.237],[31.5008,-29.0366,42.1956],[31.5121,-29.0347,38.4715],[31.5099,-29.0433,35.5838],[31.5106,-29.0458,35.2099],[31.5128,-29.0471,37.8063],[31.519,-29.046,35.6104],[31.5138,-29.0417,33.5181],[31.5145,-29.0383,36.0594],[31.5178,-29.0368,31.7434],[31.5243,-29.038,29.6955],[31.5258,-29.0408,36.3316],[31.5222,-29.0483,37.6489],[31.5266,-29.0513,24.7396],[31.5296,-29.0567,24.8306],[31.5418,-29.0575,27.3457],[31.5423,-29.056,27.1484],[31.538,-29.0527,27.3756],[31.5386,-29.0505,22.7314],[31.5433,-29.0523,27.644],[31.5493,-29.0596,34.3512],[31.5592,-29.0588,24.9605],[31.5632,-29.0617,21.071],[31.5777,-29.0536,80.7947],[31.6754,-29.0549,0.0],[31.7113,-29.0224,0.0],[31.734,-28.9937,4.0808],[31.7635,-28.9654,4.0519],[31.7796,-28.9579,11.0556],[31.8132,-28.9457,1.8669],[31.8054,-28.9451,0.0],[31.7949,-28.9493,0.0],[31.7901,-28.9487,7.0561],[31.7938,-28.9487,0.0],[31.8021,-28.9449,0.0],[31.8149,-28.9429,10.8277],[31.824,-28.9443,3.6442],[31.8418,-28.9432,0.0],[31.8793,-28.9282,0.0],[31.9212,-28.9176,3.1223],[31.9365,-28.9101,0.0],[31.9407,-28.9065,0.0],[31.9632,-28.9004,0.0],[31.991,-28.8882,0.0],[32.0004,-28.8857,0.0],[32.0101,-28.8804,0.0],[32.0365,-28.8601,0.0],[32.0399,-28.856,18.1101],[32.0424,-28.8554,0.0],[32.0457,-28.8499,2.7291],[32.0412,-28.8465,13.0199],[32.0415,-28.8449,3.3318],[32.0393,-28.8429,0.0],[32.0282,-28.8476,0.0],[32.0115,-28.8399,1.1678],[32.0071,-28.836,2.2629],[32.0032,-28.8274,0.8404],[32.0029,-28.8249,5.8975],[32.0076,-28.8243,0.0],[32.0074,-28.8199,0.0],[32.0157,-28.8229,5.9373],[32.0201,-28.8265,0.0],[32.0235,-28.8257,6.979],[32.0224,-28.8276,0.0],[32.0238,-28.8299,3.2456],[32.0276,-28.8312,6.1646],[32.0288,-28.8246,2.9988],[32.0254,-28.8176,1.9843],[32.026,-28.8149,5.2484],[32.0304,-28.8237,0.1305],[32.0301,-28.831,2.197],[32.0365,-28.8318,0.8235],[32.0376,-28.8354,0.0],[32.0415,-28.8354,1.136],[32.046,-28.8399,0.0],[32.0479,-28.8385,1.2953],[32.0493,-28.841,0.0],[32.0468,-28.8421,0.3166],[32.0521,-28.8449,1.3409],[32.0643,-28.8318,5.1327],[32.0851,-28.8149,11.3986],[32.094,-28.816,0.0],[32.0982,-28.8149,0.0],[32.0913,-28.8146,0.0],[32.0807,-28.8113,4.1124],[32.0726,-28.8062,0.0],[32.0643,-28.8049,2.1662],[32.0535,-28.8087,0.0],[32.0451,-28.8243,0.9516],[32.0401,-28.8257,0.4506],[32.0432,-28.8282,1.7355],[32.0415,-28.829,1.3475],[32.0363,-28.826,0.0],[32.0379,-28.8176,0.4645],[32.0299,-28.814,0.0],[32.0318,-28.8124,1.1833],[32.0324,-28.8146,4.3485],[32.0351,-28.8154,0.0],[32.034,-28.8115,0.0],[32.0299,-28.8099,2.5716],[32.0254,-28.8032,3.8208],[32.0299,-28.7985,2.0904],[32.036,-28.799,0.0],[32.0376,-28.8021,0.0],[32.0396,-28.8029,0.0],[32.0399,-28.8018,0.0],[32.0351,-28.7979,0.0],[32.0318,-28.7979,4.9968],[32.0324,-28.7965,0.0],[32.0282,-28.7943,0.0],[32.0282,-28.7924,0.0],[32.0313,-28.7921,0.0],[32.0354,-28.7949,0.0],[32.0374,-28.7924,4.4126],[32.0493,-28.7921,4.7691],[32.0504,-28.7951,0.0],[32.0504,-28.7924,0.0],[32.0554,-28.7868,1.6585],[32.0582,-28.7893,1.178],[32.0568,-28.7926,1.4628],[32.0579,-28.7951,0.0],[32.0649,-28.7985,0.0],[32.0679,-28.7982,0.0],[32.069,-28.7949,0.3555],[32.0785,-28.7974,0.0],[32.0812,-28.7946,0.0],[32.0818,-28.7982,4.3115],[32.0771,-28.7993,0.0],[32.0807,-28.8021,1.3042],[32.0835,-28.801,0.879],[32.0824,-28.7935,1.9165],[32.0901,-28.7935,4.2741],[32.0943,-28.7987,4.2066],[32.0915,-28.8029,0.0],[32.0929,-28.8068,0.0],[32.0926,-28.8049,1.0054],[32.0954,-28.8037,0.7862],[32.0982,-28.7993,6.4142],[32.1218,-28.7843,1.2323],[32.1496,-28.7557,2.6973],[32.1935,-28.7204,0.0],[32.2149,-28.6957,60.4778],[32.2268,-28.6843,17.3366],[32.2482,-28.6671,5.945],[32.2721,-28.6535,0.0],[32.2974,-28.6349,0.0],[32.3049,-28.6226,48.0928],[32.3132,-28.6132,17.876],[32.3363,-28.5985,0.0],[32.3613,-28.5765,0.0],[32.3815,-28.5524,11.3264],[32.399,-28.5265,0.6963],[32.4007,-28.5196,8.0781],[32.4121,-28.4949,-1.1129],[32.4154,-28.4765,-0.2403],[32.3932,-28.4727,1.9621],[32.3884,-28.4803,1.9634],[32.3802,-28.4848,1.6274],[32.3656,-28.4852,2.7784],[32.3372,-28.4939,3.2653],[32.3245,-28.5093,4.1483],[32.3164,-28.5126,3.5297],[32.3155,-28.5181,4.2815],[32.3115,-28.5202,6.0647],[32.3043,-28.5181,6.5636],[32.2952,-28.5107,8.705],[32.288,-28.5099,6.9171],[32.2744,-28.5024,5.9005],[32.2637,-28.4942,6.8023],[32.2613,-28.4883,7.3458],[32.257,-28.489,7.4784],[32.2523,-28.4927,8.2869],[32.2457,-28.4918,8.5146],[32.2413,-28.4936,10.0191],[32.2297,-28.4941,10.4103],[32.234,-28.4723,14.3178],[32.2313,-28.4719,18.759],[32.2349,-28.4548,16.5664],[32.2122,-28.459,17.4918],[32.1757,-28.4507,17.1667],[32.1596,-28.4453,17.8782],[32.1504,-28.4506,16.6625],[32.1444,-28.4585,15.7693],[32.1381,-28.4597,17.5971],[32.1358,-28.4574,15.0426],[32.133,-28.4482,23.0191],[32.1245,-28.4417,16.7566],[32.1111,-28.4362,17.9834],[32.0899,-28.448,30.0698],[32.0781,-28.4487,21.2254],[32.0702,-28.456,18.997],[32.0597,-28.4573,26.4047],[32.0561,-28.455,33.4539],[32.0545,-28.4484,24.635],[32.0611,-28.4392,26.9067],[32.0587,-28.4265,29.4259],[32.0676,-28.419,27.1117],[32.0669,-28.4144,27.5438],[32.0641,-28.4136,23.8863],[32.0558,-28.4179,27.3593],[32.0521,-28.4175,23.5],[32.0461,-28.4051,27.5644],[32.0346,-28.3972,27.6923],[32.0313,-28.3993,27.8812],[32.0248,-28.41,30.4469],[32.0204,-28.411,31.8696],[32.0137,-28.4082,30.5155],[32.0047,-28.3961,32.5612],[31.9936,-28.391,33.3036],[31.9901,-28.3876,33.0],[31.9896,-28.3845,33.5],[31.9954,-28.3808,37.9807],[32.0038,-28.3796,37.3277],[32.0113,-28.3802,35.4204],[32.0225,-28.3856,37.1831],[32.025,-28.383,41.9306],[32.0237,-28.3788,37.0],[32.0135,-28.3618,38.875],[31.9941,-28.3609,40.5],[31.9814,-28.3504,57.7695],[31.9805,-28.3621,69.5591],[31.9625,-28.4062,185.831],[31.8109,-28.4317,287.4116],[31.7411,-28.4335,180.1778],[31.7478,-28.4129,131.6068],[31.7402,-28.4114,131.1139],[31.7269,-28.4034,131.1149],[31.7143,-28.39,155.704],[31.7113,-28.3832,139.9118],[31.7049,-28.3803,134.8533],[31.7096,-28.3734,137.3731],[31.7154,-28.3744,139.8736],[31.7203,-28.3731,168.3316],[31.7208,-28.3708,138.5834],[31.7193,-28.3692,147.662],[31.7073,-28.3693,151.6057],[31.6926,-28.3764,180.4672],[31.6833,-28.3776,162.5708],[31.6832,-28.3828,152.8719],[31.6931,-28.391,204.6031],[31.6917,-28.3948,163.1724],[31.681,-28.3932,159.5822],[31.6777,-28.3955,170.9413],[31.6756,-28.3998,179.1318],[31.6682,-28.4022,163.1927],[31.6597,-28.3943,166.6365],[31.6558,-28.3879,193.2037],[31.6495,-28.3858,175.3062],[31.643,-28.3891,170.5271],[31.6379,-28.3941,215.0714],[31.6414,-28.4013,207.0177],[31.6404,-28.4044,182.6644],[31.628,-28.4078,180.4958],[31.618,-28.4041,184.679],[31.6097,-28.3988,194.3343],[31.6119,-28.3848,221.6651],[31.6101,-28.3806,199.8595],[31.6108,-28.3774,198.8868],[31.6074,-28.3747,197.6889],[31.6016,-28.3728,241.8223],[31.5981,-28.3738,202.2671],[31.5991,-28.3887,207.1198],[31.5958,-28.392,227.3362],[31.5837,-28.3766,210.4099],[31.5749,-28.3744,256.0332],[31.5685,-28.3756,239.2783],[31.566,-28.3774,249.1701],[31.5638,-28.3863,245.6434],[31.5598,-28.3902,258.1519],[31.5579,-28.3899,228.3456],[31.5556,-28.3855,230.4868],[31.5514,-28.3829,263.9565],[31.5424,-28.3833,228.4991],[31.5349,-28.3877,234.4412],[31.5346,-28.3917,235.4633],[31.5414,-28.401,237.3315],[31.5515,-28.4062,271.0729],[31.553,-28.4092,278.993],[31.552,-28.4113,259.6021],[31.541,-28.416,259.784],[31.531,-28.4338,250.721],[31.5259,-28.4359,253.071],[31.5187,-28.4349,268.9174],[31.5158,-28.4298,257.5676],[31.5173,-28.4229,263.6352],[31.5133,-28.4217,259.9928],[31.5077,-28.4232,270.1113],[31.4937,-28.4338,266.5234],[31.4954,-28.4427,270.5744],[31.501,-28.4557,329.5281],[31.5044,-28.472,388.1083],[31.4761,-28.4695,322.4234],[31.4455,-28.4772,417.8754],[31.4109,-28.4586,835.0156],[31.386,-28.4263,650.4516],[31.3585,-28.3939,621.4446],[31.3494,-28.3892,622.9727],[31.3437,-28.4008,662.531],[31.3332,-28.4082,737.7136],[31.3289,-28.4159,767.6116],[31.329,-28.4241,794.366],[31.3319,-28.4314,826.1871],[31.3279,-28.4406,806.0388],[31.3295,-28.4492,863.27],[31.3089,-28.4699,1009.4518],[31.3013,-28.4601,803.7051],[31.2755,-28.4832,972.9845],[31.2491,-28.4622,840.8436],[31.2227,-28.4791,1074.6815],[31.2198,-28.477,1005.5582],[31.1895,-28.4994,1117.5101],[31.2074,-28.5137,1178.6176],[31.2039,-28.5159,1195.9232],[31.1991,-28.513,1182.1144],[31.1904,-28.511,1188.6005],[31.1876,-28.5129,1220.3857],[31.1859,-28.5216,1173.5323],[31.1873,-28.5273,1139.0308],[31.1843,-28.5369,1065.3254],[31.1721,-28.5428,1035.8818],[31.1696,-28.5478,987.0319],[31.1612,-28.5526,907.8389],[31.1586,-28.5518,873.9351],[31.1603,-28.5505,876.3794],[31.1585,-28.5481,870.9022],[31.162,-28.5442,873.0026],[31.1536,-28.5419,882.0941],[31.1525,-28.5398,876.1187],[31.1504,-28.5408,885.319],[31.1519,-28.5426,882.4647],[31.15,-28.5437,878.5168],[31.1408,-28.5439,883.9105],[31.137,-28.5413,886.7798],[31.1355,-28.5426,885.6662],[31.1339,-28.541,904.7267],[31.1301,-28.5418,919.5096],[31.1298,-28.5382,891.0709],[31.1223,-28.538,898.8913],[31.1223,-28.5361,895.3759],[31.1182,-28.5353,910.7711],[31.1117,-28.5308,907.6094],[31.1073,-28.5314,925.3507],[31.1064,-28.5281,916.3981],[31.1036,-28.5279,931.7841],[31.1027,-28.5246,921.7477],[31.105,-28.5226,910.7466],[31.1068,-28.5241,911.0576],[31.1166,-28.5189,925.0712],[31.1181,-28.5119,938.5884],[31.1216,-28.5108,940.1783],[31.1208,-28.5087,946.615],[31.1125,-28.5097,937.1998],[31.101,-28.5026,946.5475],[31.0924,-28.5028,969.3454],[31.0888,-28.5045,953.0187],[31.086,-28.5001,969.8596],[31.0823,-28.5049,958.3625],[31.0741,-28.5051,965.554],[31.073,-28.5031,962.6728],[31.0754,-28.5018,964.0849],[31.0737,-28.4987,968.1688],[31.0816,-28.4994,975.313],[31.0811,-28.4962,971.42],[31.0781,-28.4922,986.3408],[31.0742,-28.493,975.0446],[31.0672,-28.4914,977.3315],[31.0629,-28.4879,981.642],[31.0644,-28.4844,1000.6584],[31.069,-28.4829,992.7291],[31.0694,-28.4814,992.7291],[31.0674,-28.479,991.7161],[31.0651,-28.4789,988.3807],[31.0641,-28.4721,996.111],[31.0611,-28.4714,994.5037],[31.054,-28.4615,1006.3337],[31.0499,-28.4611,1011.755],[31.0433,-28.4569,1027.2369],[31.0399,-28.4579,1018.5554],[31.036,-28.4547,1020.8233],[31.03,-28.4535,1031.9241],[31.0264,-28.4511,1084.6589],[31.024,-28.4521,1038.0936],[31.0233,-28.4431,1062.4062],[31.0278,-28.4391,1057.8411],[31.0261,-28.4356,1105.3801],[31.0244,-28.4361,1069.0979],[31.0205,-28.4335,1100.7977],[31.0218,-28.4316,1114.0325],[31.0193,-28.4304,1110.6729],[31.0181,-28.4258,1119.1857],[31.0106,-28.4221,1126.626],[31.0075,-28.4233,1135.1077],[30.9973,-28.4225,1150.1886],[30.9912,-28.4153,1178.9854],[30.9902,-28.4,1329.3291],[30.9967,-28.3928,1598.731],[30.8327,-28.4637,1599.8662],[30.804,-28.5178,1551.7015],[30.7848,-28.5201,1510.8032],[30.7714,-28.5175,1499.9617],[30.7691,-28.5335,1107.5259],[30.7633,-28.5389,1005.0564],[30.7573,-28.5418,967.355],[30.7731,-28.5481,997.0645],[30.7848,-28.5575,1079.1492],[30.7946,-28.5609,1138.2234],[30.8055,-28.5712,1376.1635],[30.8025,-28.572,1337.5322],[30.8214,-28.5816,1309.4614],[30.8383,-28.5749,1501.5439],[30.7885,-28.6289,1641.129],[30.7814,-28.6269,1617.8203],[30.7533,-28.6288,1695.447],[30.7339,-28.642,1718.021],[30.7378,-28.6589,1725.5922],[30.7324,-28.6652,1598.3883],[30.7155,-28.6559,1050.8281],[30.7053,-28.6527,833.4064],[30.6903,-28.645,683.4792],[30.6799,-28.6414,617.6345],[30.6704,-28.6424,562.6748],[30.6715,-28.6503,629.0638],[30.6787,-28.6585,537.9486],[30.6844,-28.6614,543.4456],[30.6803,-28.6713,522.3403],[30.6684,-28.6855,507.4913],[30.6517,-28.6891,501.0087],[30.6353,-28.6989,495.3902],[30.6249,-28.699,481.4778],[30.6208,-28.7041,481.0849],[30.6207,-28.7103,469.0294],[30.6337,-28.7122,463.8299],[30.6375,-28.716,465.0182],[30.6432,-28.7169,459.633],[30.6497,-28.7203,461.8363],[30.6539,-28.7303,447.75],[30.6538,-28.7406,453.7933],[30.6661,-28.7471,440.5],[30.6727,-28.7446,451.5496],[30.6783,-28.7392,444.4058],[30.6878,-28.7334,435.2426],[30.6922,-28.7325,434.0],[30.7148,-28.7385,432.6785],[30.7188,-28.7502,432.8838],[30.7292,-28.7567,426.3734],[30.7297,-28.7609,433.4491],[30.7261,-28.7655,421.3119],[30.7206,-28.7686,421.3138],[30.7001,-28.7707,434.2318],[30.6966,-28.7753,411.9009],[30.6964,-28.7792,411.6368],[30.6995,-28.7834,430.2382],[30.7074,-28.7855,407.25],[30.7282,-28.7953,411.228],[30.7389,-28.8041,397.25],[30.7463,-28.8026,394.3335],[30.7481,-28.7983,393.1572],[30.7397,-28.7772,385.374],[30.7416,-28.7709,426.6414],[30.7457,-28.7658,394.3373],[30.7597,-28.7616,387.717],[30.7615,-28.7576,443.5647],[30.7668,-28.7538,382.6541],[30.7678,-28.7492,375.0],[30.7642,-28.7424,378.377],[30.7537,-28.7319,371.0],[30.7546,-28.7242,368.5],[30.7636,-28.7218,366.375],[30.7723,-28.7234,364.25],[30.7836,-28.7326,360.5],[30.7946,-28.7296,359.8536],[30.8106,-28.7355,361.4581],[30.8227,-28.7341,388.6365],[30.8232,-28.7427,352.48],[30.8166,-28.7574,349.1588],[30.8137,-28.7611,360.5526],[30.8027,-28.7666,340.3766],[30.7985,-28.7711,337.7783],[30.7988,-28.7729,336.5436],[30.804,-28.7764,346.5109],[30.8173,-28.7772,331.2461],[30.8335,-28.7717,330.3399],[30.8479,-28.7736,311.4536],[30.8612,-28.7813,307.9683],[30.8654,-28.78,316.3937],[30.8794,-28.7622,299.9377],[30.8865,-28.7612,322.3965],[30.8904,-28.7636,289.2069],[30.9072,-28.7841,284.5842],[30.9087,-28.7953,280.3635],[30.9135,-28.8031,278.1489],[30.9139,-28.8128,274.3613],[30.9044,-28.8254,275.1205],[30.8996,-28.8363,273.2141],[30.9004,-28.8411,270.8217],[30.9074,-28.8457,269.3924],[30.9232,-28.8479,264.7934],[30.9343,-28.8464,267.1534],[30.9401,-28.843,263.2468],[30.9414,-28.8363,261.8858],[30.9304,-28.8267,255.9113],[30.9268,-28.82,257.6869],[30.9261,-28.8151,251.0597],[30.9387,-28.7984,243.8167],[30.9515,-28.7885,240.6248],[30.9556,-28.7886,239.9407],[30.9635,-28.7968,243.2847],[30.9769,-28.7986,233.0],[30.9813,-28.8007,239.2219],[30.9866,-28.8045,246.889],[30.9869,-28.8119,231.9538],[30.9807,-28.8197,243.6468],[30.968,-28.8272,240.5057],[30.9668,-28.8299,228.5],[30.9679,-28.8339,227.625],[30.9728,-28.8382,228.0909],[30.9757,-28.8445,226.2445],[30.9857,-28.8563,224.7007],[30.9901,-28.8574,224.8452],[31.0077,-28.8539,211.6705],[31.0279,-28.8621,202.2246],[31.0338,-28.8687,203.1577],[31.0378,-28.8758,198.1541],[31.0378,-28.8817,197.0],[31.028199999999998,-28.8906,197.4318],[31.0267,-28.8952,195.5],[31.0268,-28.8976,195.25],[31.035,-28.9076,196.2944],[31.0366,-28.9133,188.2298],[31.0319,-28.934,175.556],[31.0492,-28.9491,168.375],[31.065,-28.9502,166.0],[31.0731,-28.9587,168.9117],[31.0762,-28.9645,164.0079],[31.0743,-28.9794,163.1435],[31.0762,-28.9897,163.7902],[31.0827,-28.9932,166.9186],[31.0907,-28.995,166.8898],[31.0984,-28.9896,176.5939],[31.099,-28.9839,155.0],[31.0974,-28.98,155.0],[31.0937,-28.977,154.758],[31.0883,-28.9755,156.8878],[31.0809,-28.9635,147.4504],[31.08,-28.9599,146.375],[31.0836,-28.9565,146.2972],[31.0925,-28.9554,143.0],[31.1055,-28.9599,141.9205],[31.1251,-28.959,134.072],[31.127,-28.9613,133.226],[31.129,-28.9704,127.5],[31.1271,-28.9768,125.5],[31.1201,-28.9877,123.6784],[31.1174,-29.0004,117.75],[31.1189,-29.004,117.2876],[31.1229,-29.0071,134.1623],[31.1341,-29.0319,105.0],[31.1429,-29.0369,108.1857],[31.1483,-29.0434,103.4612],[31.154,-29.0468,107.574],[31.1616,-29.0478,101.503],[31.168,-29.0457,96.0],[31.1743,-29.0458,97.4268],[31.181,-29.0503,93.0],[31.1813,-29.0592,92.3698],[31.177,-29.0632,91.0138],[31.1751,-29.0696,90.6361],[31.1757,-29.0737,88.7881],[31.1914,-29.0829,90.6668],[31.198,-29.0843,88.2701],[31.2073,-29.0891,79.0],[31.2098,-29.1011,77.6478],[31.2134,-29.1053,74.125],[31.2184,-29.1078,74.4794],[31.234,-29.1098,72.9659],[31.2383,-29.1155,73.0506],[31.2448,-29.1196,67.0323],[31.2498,-29.1259,68.0762],[31.2472,-29.132,63.3057],[31.2472,-29.1433,65.1844],[31.2488,-29.1468,68.7989],[31.2574,-29.1468,62.5888],[31.2686,-29.1407,60.076],[31.2737,-29.1243,58.7055],[31.2794,-29.1171,62.8039],[31.2873,-29.1138,53.7923],[31.2913,-29.1161,64.1691],[31.2984,-29.1419,59.5795],[31.2939,-29.1506,46.8298],[31.2849,-29.1582,59.8103],[31.2853,-29.1645,45.5273],[31.2948,-29.1656,42.699],[31.3008,-29.1727,43.4887],[31.3074,-29.1745,44.0487],[31.3081,-29.1691,60.5096],[31.3046,-29.1577,75.3699],[31.3102,-29.153,50.9332],[31.3174,-29.1504,39.5]]],
[[[32.0393,-28.8393,0.0],[32.0399,-28.8382,0.0],[32.0385,-28.8379,0.0],[32.0385,-28.8399,0.0],[32.0404,-28.8401,0.0],[32.0393,-28.8393,0.0]]],
[[[32.0843,-28.7957,0.0],[32.086,-28.7954,0.4594],[32.0868,-28.7949,0.4594],[32.084,-28.7943,0.942],[32.0843,-28.7957,0.0]]]]}}