{"type":"Feature","properties":{"GID_3":"ZAF.7.2.2_1","GID_0":"ZAF","country":"SouthAfrica","GID_1":"ZAF.7_1","province":"NorthWest","NL_NAME_1":"NA","GID_2":"ZAF.7.2_1","county":"DrKennethKaunda","NL_NAME_2":"NA","city":"MaquassiHills","VARNAME_3":"NA","NL_NAME_3":"NA","TYPE_3":"LocalMunicipality","ENGTYPE_3":"LocalMunicipality","CC_3":"NW404","HASC_3":"NA","name":"Maquassi_Hills.city"},
"geometry":{"type": "MultiPolygon","coordinates": [[[[26.0842,-27.5956,1226.5],[26.0882,-27.5939,1226.5],[26.1061,-27.5956,1227.0],[26.1133,-27.5933,1227.0],[26.1245,-27.5806,1228.583],[26.1221,-27.5724,1235.1646],[26.1238,-27.5669,1227.7124],[26.134,-27.5585,1227.0],[26.1403,-27.5576,1228.4506],[26.1451,-27.5626,1231.0427],[26.1536,-27.564,1228.4504],[26.1631,-27.5517,1228.6227],[26.168,-27.538,1230.1487],[26.1701,-27.5361,1228.6056],[26.1861,-27.5315,1231.3556],[26.2018,-27.5168,1230.8456],[26.2222,-27.5145,1230.8239],[26.2288,-27.5123,1228.0],[26.2312,-27.4954,1232.421],[26.2208,-27.4833,1229.1272],[26.22,-27.4739,1231.6978],[26.2339,-27.4542,1228.0],[26.2416,-27.432,1228.2986],[26.245,-27.4299,1229.9636],[26.2529,-27.4295,1230.0808],[26.2635,-27.4169,1228.6993],[26.2677,-27.4163,1232.3167],[26.2761,-27.4211,1229.5785],[26.2862,-27.4222,1229.72],[26.2929,-27.416,1231.4103],[26.3088,-27.4178,1234.543],[26.3136,-27.4224,1230.3219],[26.3168,-27.4314,1232.578],[26.3211,-27.4334,1233.4055],[26.3241,-27.4329,1230.9971],[26.3266,-27.4292,1229.5],[26.3279,-27.42,1234.8212],[26.3272,-27.4058,1230.0],[26.3354,-27.3984,1232.8676],[26.3396,-27.3894,1238.7032],[26.3467,-27.3853,1233.9377],[26.3616,-27.3893,1237.8157],[26.3724,-27.3838,1243.5021],[26.3802,-27.3884,1240.3531],[26.388,-27.3895,1245.1881],[26.3943,-27.394,1239.6667],[26.4165,-27.4027,1240.8762],[26.4231,-27.4069,1237.0],[26.435,-27.3988,1238.8982],[26.4452,-27.3881,1240.9333],[26.4529,-27.3856,1240.3621],[26.4589,-27.3866,1240.8647],[26.4721,-27.392,1237.5],[26.4976,-27.3957,1237.75],[26.5058,-27.3984,1244.6287],[26.5095,-27.3971,1243.1794],[26.5138,-27.3903,1238.0],[26.5135,-27.3853,1238.8154],[26.4995,-27.3797,1238.0],[26.4845,-27.3798,1239.0897],[26.4763,-27.3718,1240.0974],[26.4682,-27.3692,1240.2866],[26.4592,-27.3635,1240.6973],[26.4461,-27.3485,1253.3635],[26.4472,-27.344,1242.3799],[26.4555,-27.3374,1244.644],[26.4582,-27.3262,1240.0872],[26.4738,-27.3123,1243.782],[26.4755,-27.3083,1239.5],[26.4814,-27.3067,1242.7383],[26.4848,-27.3091,1244.1195],[26.4849,-27.3135,1241.2705],[26.4791,-27.3189,1242.9653],[26.4808,-27.3232,1243.1609],[26.4849,-27.3239,1240.0],[26.4934,-27.3191,1240.0],[26.4939,-27.3083,1240.0],[26.4882,-27.2955,1244.7378],[26.4888,-27.2836,1240.5],[26.4931,-27.2789,1242.7689],[26.4972,-27.2711,1243.6987],[26.4968,-27.265,1244.1326],[26.4934,-27.2568,1245.4393],[26.4888,-27.2506,1246.5269],[26.4768,-27.2446,1249.9841],[26.4614,-27.2276,1248.1814],[26.4426,-27.2163,1252.2288],[26.4358,-27.2051,1253.9011],[26.4347,-27.1949,1254.2247],[26.4326,-27.1896,1252.7148],[26.4272,-27.1852,1251.0],[26.4199,-27.1714,1260.718],[26.3906,-27.1809,1292.8124],[26.3848,-27.1692,1305.8145],[26.3768,-27.1728,1310.5109],[26.3725,-27.1643,1305.8744],[26.3805,-27.1601,1300.9419],[26.3646,-27.1268,1318.6063],[26.3216,-27.0708,1376.2549],[26.3011,-27.0305,1370.0497],[26.2703,-27.0409,1364.1237],[26.2389,-26.9825,1471.1277],[26.2295,-26.9696,1495.5927],[26.1979,-26.9648,1511.7106],[26.1714,-26.9799,1522.3567],[26.1738,-26.9834,1521.0366],[26.1476,-26.9979,1507.2889],[26.1396,-26.9774,1511.4314],[26.1604,-26.9528,1536.5062],[26.1906,-26.9083,1552.1956],[26.1294,-26.8691,1499.9596],[26.1187,-26.8886,1489.9578],[26.1119,-26.8862,1495.9697],[26.0919,-26.8857,1519.4731],[26.0768,-26.8623,1537.8958],[26.0683,-26.8647,1537.6125],[26.0561,-26.8343,1523.1816],[26.0488,-26.8395,1534.4419],[26.0482,-26.8456,1527.1516],[26.042,-26.845,1511.9148],[26.0362,-26.8615,1524.2717],[26.0291,-26.8588,1525.9329],[26.0287,-26.8615,1527.7935],[26.0239,-26.8595,1528.7474],[26.0189,-26.8667,1532.7925],[26.0109,-26.8625,1532.9792],[26.0125,-26.8604,1534.2856],[26.0042,-26.8552,1528.7693],[25.9863,-26.8753,1507.014],[25.9137,-26.9068,1492.8152],[25.891,-26.8752,1478.7676],[25.8938,-26.8984,1487.8234],[25.8333,-26.9362,1463.095],[25.8097,-26.9012,1452.5828],[25.7625,-26.9151,1427.8297],[25.6919,-26.9416,1415.7793],[25.6778,-26.9677,1407.5344],[25.6656,-26.9669,1404.3365],[25.6656,-26.9627,1405.1208],[25.646,-26.9614,1404.6168],[25.6371,-26.9712,1400.355],[25.6446,-26.9845,1396.009],[25.6322,-26.9886,1394.1038],[25.6571,-27.0335,1371.2422],[25.6831,-27.0735,1401.9958],[25.6871,-27.098,1413.8502],[25.6616,-27.1095,1410.4669],[25.6163,-27.1429,1388.6436],[25.6101,-27.1763,1369.0264],[25.6286,-27.176,1387.0618],[25.6341,-27.1863,1385.5193],[25.6479,-27.1808,1387.4384],[25.6437,-27.1719,1388.4319],[25.6803,-27.1622,1378.4006],[25.7016,-27.2232,1344.4998],[25.7723,-27.2093,1351.1322],[25.7776,-27.2549,1340.4438],[25.806,-27.2906,1338.6379],[25.8248,-27.363,1306.4181],[25.761,-27.3675,1308.7729],[25.7596,-27.3633,1309.9617],[25.7023,-27.375,1310.993],[25.7214,-27.3793,1307.9298],[25.7681,-27.3941,1299.0891],[25.797,-27.3906,1298.5382],[25.805,-27.4464,1284.0566],[25.7387,-27.4692,1274.5348],[25.7383,-27.4842,1270.6912],[25.743,-27.4861,1269.1433],[25.7537,-27.5345,1256.9673],[25.8348,-27.5118,1258.8647],[25.8302,-27.5662,1226.5],[25.833,-27.5676,1226.5],[25.835,-27.5785,1226.5],[25.8462,-27.5923,1226.5],[25.8467,-27.5953,1226.5],[25.8437,-27.6005,1226.5],[25.8435,-27.6043,1226.5],[25.8526,-27.621,1226.5],[25.8724,-27.628,1226.5],[25.8911,-27.6261,1226.5],[25.8983,-27.6225,1227.4731],[25.8951,-27.6147,1226.5],[25.8957,-27.61,1226.5],[25.9097,-27.6104,1226.5],[25.9157,-27.6057,1226.5],[25.9243,-27.6035,1226.5],[25.932,-27.6064,1226.5],[25.9403,-27.6149,1226.5],[25.9473,-27.6329,1226.5],[25.9681,-27.625,1226.5],[25.9815,-27.6269,1226.5],[25.9806,-27.6371,1226.5],[25.9827,-27.6391,1226.5],[25.9921,-27.6412,1226.5],[26.0008,-27.6476,1226.5],[26.0049,-27.6522,1226.5],[26.008,-27.6604,1226.5],[26.0077,-27.6773,1226.5],[26.0107,-27.6898,1226.5],[26.003,-27.7023,1227.1848],[26.0032,-27.708,1226.5],[26.013,-27.7226,1227.3879],[26.0204,-27.7279,1226.9031],[26.025,-27.7339,1227.0804],[26.0329,-27.7367,1226.5],[26.0367,-27.7357,1226.5],[26.0477,-27.7255,1226.5],[26.0665,-27.7183,1230.5322],[26.0922,-27.6966,1226.5],[26.0945,-27.6917,1226.5],[26.0948,-27.6846,1232.0497],[26.0928,-27.6824,1226.5],[26.0678,-27.6808,1226.5],[26.0547,-27.6692,1228.3696],[26.0637,-27.6602,1226.5],[26.0799,-27.6534,1227.9036],[26.0862,-27.648,1228.2754],[26.0858,-27.6428,1226.5],[26.0749,-27.6205,1226.5],[26.0842,-27.5956,1226.5]]]]}}