{"type":"Feature","properties":{"GID_1":"ZAF.1_1","GID_0":"ZAF","country":"SouthAfrica","province":"EasternCape","VARNAME_1":"Oos-Kaap","NL_NAME_1":"NA","TYPE_1":"Provinsie","ENGTYPE_1":"Province","CC_1":"EC","HASC_1":"ZA.EC","ISO_1":"ZA-EC","name":"Eastern_Cape.province"},
"geometry":{"type": "MultiPolygon","coordinates": [[[[24.9037,-34.086,0.0],[24.8965,-34.0857,0.0],[24.8962,-34.0846,0.0],[24.901,-34.0826,0.9551],[24.911,-34.0865,0.0],[24.9207,-34.0807,0.0],[24.9221,-34.0776,1.2216],[24.9218,-34.0687,0.6294],[24.9263,-34.0621,1.7979],[24.924,-34.056,3.0182],[24.9254,-34.051,3.6851],[24.9285,-34.0474,1.8203],[24.9301,-34.0401,8.2953],[24.9321,-34.0396,0.0],[24.9315,-34.0349,0.0],[24.9346,-34.0337,0.0],[24.9321,-34.0265,0.0],[24.929,-34.0235,2.3358],[24.9287,-34.0163,0.0],[24.9312,-34.0121,0.0],[24.9429,-34.0015,0.6823],[24.969,-33.9879,0.9048],[24.9979,-33.9779,1.5598],[25.0315,-33.9704,0.1735],[25.0896,-33.964,1.6205],[25.1563,-33.9635,0.0],[25.1951,-33.9668,0.0],[25.2429,-33.9749,0.0],[25.2787,-33.984,2.182],[25.3001,-33.9924,0.0],[25.3049,-33.9926,2.4534],[25.309,-33.9957,0.0],[25.3224,-33.9996,2.2109],[25.3257,-34.0026,11.168],[25.331,-34.0037,3.7461],[25.3571,-34.0165,0.0],[25.3621,-34.0185,0.0],[25.3676,-34.0174,10.7555],[25.3765,-34.0218,0.0],[25.3807,-34.0218,0.8064],[25.3865,-34.026,1.2509],[25.394,-34.0282,8.5381],[25.3951,-34.0307,1.3334],[25.4063,-34.0335,0.6374],[25.4188,-34.0326,15.301],[25.4376,-34.0343,10.5485],[25.4596,-34.0288,4.8063],[25.4676,-34.0288,4.1801],[25.4754,-34.0301,2.5934],[25.4793,-34.0326,0.0],[25.4851,-34.0324,14.8325],[25.4988,-34.0357,0.0],[25.504,-34.0351,0.0],[25.5112,-34.0374,4.6613],[25.521,-34.0368,0.0],[25.536,-34.0421,0.6456],[25.5604,-34.0438,6.4695],[25.5782,-34.0493,1.3086],[25.5924,-34.049,0.0],[25.5946,-34.0474,6.2186],[25.6115,-34.0451,0.5882],[25.6246,-34.0471,1.9812],[25.6326,-34.0465,0.0],[25.6407,-34.0396,0.0],[25.6454,-34.0393,0.0],[25.6457,-34.036,0.0],[25.6493,-34.0337,0.0],[25.6493,-34.0304,0.0],[25.6554,-34.0268,0.0],[25.6643,-34.0257,4.1417],[25.679,-34.0271,1.8807],[25.6893,-34.031,0.4652],[25.6968,-34.0315,0.0],[25.6971,-34.0343,0.0],[25.7007,-34.0332,0.0],[25.7026,-34.0357,0.0],[25.706,-34.0332,0.0],[25.706,-34.029,0.0],[25.694,-34.0301,0.0],[25.6996,-34.0285,2.0711],[25.701,-34.0243,0.0],[25.696,-34.0201,1.9874],[25.6874,-33.9996,0.0],[25.6843,-33.9987,0.0],[25.6815,-33.9943,1.2873],[25.6735,-33.9874,0.0],[25.6721,-33.9837,0.2488],[25.661,-33.9813,5.4208],[25.6476,-33.9749,4.0907],[25.6435,-33.9654,1.0351],[25.6457,-33.9618,0.2648],[25.6437,-33.9618,0.5015],[25.6376,-33.9674,0.0],[25.6343,-33.9649,0.0],[25.6324,-33.9651,0.0],[25.6321,-33.964,1.6294],[25.6371,-33.9632,0.0],[25.6371,-33.9618,0.7357],[25.6307,-33.9618,1.7375],[25.6301,-33.9599,1.272],[25.6401,-33.959,1.496],[25.6393,-33.9551,1.4068],[25.6251,-33.956,0.0],[25.6162,-33.9518,1.1345],[25.6129,-33.9476,1.9419],[25.6115,-33.9296,5.0366],[25.6135,-33.9188,4.1727],[25.6232,-33.8946,0.0],[25.6229,-33.8907,0.0],[25.6265,-33.8799,0.0],[25.6326,-33.8688,0.0],[25.6318,-33.8651,0.0],[25.6365,-33.8604,0.0],[25.6518,-33.8363,0.0],[25.6674,-33.819,0.0],[25.6801,-33.8079,15.0552],[25.6963,-33.7982,0.0],[25.6982,-33.794,1.5616],[25.709,-33.7871,1.7717],[25.7549,-33.7646,0.0],[25.7779,-33.7476,10.2068],[25.8082,-33.7354,0.0],[25.8487,-33.7221,0.0],[25.9096,-33.7126,0.8284],[25.9957,-33.706,6.1239],[26.0582,-33.7054,1.1167],[26.1043,-33.7096,0.0],[26.1471,-33.716,8.4742],[26.2232,-33.7368,1.4575],[26.2632,-33.7504,9.4197],[26.2862,-33.7615,0.0],[26.2979,-33.764,8.2436],[26.3251,-33.7676,8.137],[26.3524,-33.7612,11.56],[26.3807,-33.7593,5.3982],[26.419,-33.7632,-0.2505],[26.4488,-33.7715,0.0],[26.4568,-33.7713,0.0],[26.4665,-33.7732,0.0],[26.4837,-33.7654,0.9142],[26.4962,-33.7649,0.0],[26.5026,-33.7615,0.0],[26.5237,-33.7551,0.0],[26.5462,-33.7513,0.0],[26.5471,-33.7493,7.3287],[26.5585,-33.7468,0.0],[26.5646,-33.7424,2.5447],[26.5737,-33.7388,0.0],[26.579,-33.7326,0.0],[26.586,-33.731,0.0],[26.5954,-33.7246,0.0],[26.6079,-33.7224,0.0],[26.6099,-33.7199,0.0],[26.6243,-33.7193,0.0],[26.6293,-33.7163,0.0],[26.6321,-33.7101,0.0],[26.6396,-33.7088,0.0],[26.644,-33.7024,1.0284],[26.6476,-33.7001,0.2785],[26.6554,-33.6971,0.0],[26.6696,-33.6954,0.0],[26.6712,-33.6932,2.0773],[26.6746,-33.6926,1.6848],[26.681,-33.6846,0.0],[26.6949,-33.6807,1.8176],[26.7065,-33.6701,-0.1682],[26.7262,-33.6637,1.5116],[26.7346,-33.656,4.9815],[26.7404,-33.6529,8.3217],[26.7571,-33.6485,0.0],[26.7624,-33.6485,0.0],[26.7649,-33.646,8.457],[26.7813,-33.644,1.6722],[26.7932,-33.6407,3.753],[26.7932,-33.6396,3.753],[26.804,-33.639,0.0],[26.809,-33.6351,5.0605],[26.8113,-33.6365,0.0],[26.8143,-33.6346,0.4264],[26.8304,-33.6312,3.7849],[26.8418,-33.6312,2.2207],[26.8485,-33.6296,0.0],[26.854,-33.6304,0.0],[26.8671,-33.6279,0.0],[26.8699,-33.6249,0.0],[26.8743,-33.6249,0.0],[26.8787,-33.6221,0.0],[26.8821,-33.6168,0.0],[26.8918,-33.6146,0.0],[26.8932,-33.609,1.4836],[26.9035,-33.6046,0.0],[26.9037,-33.5996,0.0],[26.9163,-33.5946,0.741],[26.9199,-33.5946,0.0],[26.9271,-33.5857,4.9164],[26.9326,-33.5843,0.7683],[26.9357,-33.5815,0.2112],[26.9418,-33.581,0.0],[26.9449,-33.579,3.8621],[26.9468,-33.5799,0.0],[26.9518,-33.5765,1.6583],[26.9557,-33.5771,0.0],[26.9579,-33.5751,0.0],[26.9726,-33.5715,1.6273],[26.9918,-33.5701,1.172],[27.0065,-33.5713,0.0],[27.0132,-33.5632,0.0],[27.0413,-33.5537,1.9303],[27.0429,-33.546,20.656],[27.0513,-33.5387,2.277],[27.0696,-33.5324,1.5459],[27.0876,-33.5293,0.0],[27.0915,-33.5268,1.417],[27.1124,-33.524,3.0686],[27.1254,-33.5076,0.5603],[27.1332,-33.5026,0.0],[27.1324,-33.4999,0.0],[27.1346,-33.496,0.0],[27.1288,-33.4935,1.0988],[27.126,-33.4896,0.4661],[27.1087,-33.4813,1.0698],[27.1157,-33.4835,3.7186],[27.141,-33.4957,0.0],[27.1432,-33.4943,0.0],[27.1407,-33.4912,0.0],[27.1432,-33.4876,0.0],[27.1668,-33.4718,2.7494],[27.1865,-33.4651,0.0],[27.2143,-33.4607,3.7793],[27.226,-33.4496,0.0],[27.2271,-33.4449,0.0],[27.2324,-33.4376,3.9728],[27.2376,-33.4362,0.0],[27.2412,-33.4332,0.0],[27.2412,-33.4313,0.3002],[27.2676,-33.4204,0.0],[27.3057,-33.394,0.0],[27.3176,-33.389,-0.1502],[27.3263,-33.3829,1.4596],[27.3368,-33.3799,0.0],[27.3551,-33.3635,0.6852],[27.3615,-33.3607,2.5029],[27.3657,-33.3607,1.8982],[27.4007,-33.3435,0.0],[27.4115,-33.3399,0.8004],[27.416,-33.3354,0.4044],[27.4226,-33.3326,0.0193],[27.4293,-33.3221,0.0],[27.436,-33.3174,0.6401],[27.4476,-33.3115,0.0],[27.4613,-33.3076,0.0],[27.4804,-33.2965,0.0397],[27.4804,-33.2896,1.9791],[27.4865,-33.2812,0.0],[27.4799,-33.2804,0.0],[27.4707,-33.2854,0.1332],[27.466,-33.2851,0.0645],[27.4596,-33.2829,0.1363],[27.4565,-33.2801,0.0],[27.4579,-33.2754,0.4849],[27.4593,-33.2818,0.0],[27.4676,-33.2846,0.0645],[27.471,-33.284,0.1837],[27.4751,-33.2804,0.0],[27.4754,-33.2782,0.0374],[27.4735,-33.2774,0.0],[27.4746,-33.2743,-0.0162],[27.4801,-33.2715,0.0],[27.481,-33.2721,0.0],[27.4782,-33.2732,0.1847],[27.4754,-33.2774,0.0],[27.4763,-33.2782,0.599],[27.476,-33.2801,0.0],[27.4824,-33.279,0.0],[27.4832,-33.276,5.092],[27.4893,-33.2799,0.0],[27.4949,-33.2799,0.0],[27.5085,-33.2732,0.1956],[27.5201,-33.2646,0.0],[27.5238,-33.2585,-0.0465],[27.529,-33.2546,0.0],[27.5549,-33.2449,0.0],[27.5807,-33.2307,0.0],[27.5832,-33.2268,0.0],[27.5782,-33.2243,14.4884],[27.5776,-33.2201,2.7873],[27.5804,-33.2193,0.0],[27.579,-33.2207,12.8481],[27.5796,-33.2226,13.5795],[27.5826,-33.2246,0.0],[27.5987,-33.2224,0.0],[27.6107,-33.2157,0.4742],[27.6151,-33.2071,0.0],[27.6335,-33.2026,0.0],[27.634,-33.196,8.7056],[27.636,-33.1932,5.7071],[27.6424,-33.1918,0.0],[27.6435,-33.1893,6.2012],[27.6543,-33.1818,1.4311],[27.6635,-33.171,10.0146],[27.6682,-33.1693,3.6665],[27.6699,-33.1715,0.0],[27.6768,-33.1685,0.0],[27.6785,-33.1674,0.0],[27.6771,-33.1646,1.0463],[27.6799,-33.1601,0.0],[27.6826,-33.1607,0.0],[27.6854,-33.1576,15.4492],[27.6921,-33.1585,0.0],[27.7004,-33.1532,0.0],[27.7043,-33.1476,0.0],[27.704,-33.146,0.0],[27.701,-33.1451,0.0],[27.7218,-33.1307,0.0],[27.7301,-33.1188,0.0],[27.7432,-33.1151,0.0],[27.7476,-33.1113,0.0],[27.7618,-33.1046,3.945],[27.776,-33.1015,0.0],[27.7785,-33.1037,0.0],[27.7824,-33.104,0.0],[27.8043,-33.0887,10.3903],[27.8182,-33.086,0.0],[27.8224,-33.0874,0.0],[27.8265,-33.084,0.0],[27.8265,-33.0774,2.749],[27.8363,-33.0724,0.0],[27.8382,-33.0699,0.0],[27.8412,-33.0704,0.0],[27.8613,-33.0621,0.0],[27.8643,-33.0599,0.0],[27.8646,-33.0576,0.0],[27.8701,-33.0568,0.0],[27.8796,-33.0496,0.0],[27.894,-33.044,8.5364],[27.9001,-33.0446,0.0],[27.9074,-33.0404,0.0],[27.9126,-33.0335,0.0],[27.919,-33.0293,0.0],[27.9115,-33.0293,2.7468],[27.9082,-33.0262,1.7479],[27.8974,-33.0237,1.4223],[27.8746,-33.0274,10.1481],[27.8699,-33.0268,3.5],[27.8937,-33.0224,28.5571],[27.9037,-33.0235,1.0],[27.9085,-33.026,1.7479],[27.9174,-33.0276,0.0],[27.9157,-33.024,3.6676],[27.9212,-33.019,0.0],[27.9218,-33.0143,0.618],[27.9268,-33.0065,1.2609],[27.9332,-33.0062,0.0],[27.9332,-33.0043,26.3936],[27.9371,-33.0029,11.6111],[27.9449,-33.0024,2.3774],[27.9471,-32.9985,35.0178],[27.9529,-32.9974,3.0671],[27.9488,-32.9929,4.4353],[27.949,-32.989,7.8364],[27.951,-32.9871,0.3977],[27.949,-32.984,1.8255],[27.944,-32.9829,0.4358],[27.941,-32.9854,10.1574],[27.9374,-32.9851,10.3237],[27.9326,-32.9826,5.7071],[27.9299,-32.9771,1.7817],[27.9326,-32.9787,0.5104],[27.9338,-32.9821,1.6787],[27.9379,-32.9843,2.5977],[27.9479,-32.981,29.9946],[27.9515,-32.9854,0.0],[27.9543,-32.9849,0.0],[27.9649,-32.9749,0.0],[27.9585,-32.9685,3.8588],[27.9624,-32.9637,2.6747],[27.9629,-32.966,0.2547],[27.9599,-32.9671,5.6845],[27.9596,-32.9687,7.6756],[27.9651,-32.9732,0.0],[27.9787,-32.971,8.6816],[27.9951,-32.9601,1.8694],[28.0026,-32.9579,1.8097],[28.0032,-32.9562,6.9095],[28.0121,-32.9551,0.0],[28.0174,-32.951,6.8793],[28.0221,-32.9501,0.0],[28.0285,-32.9435,0.5152],[28.0357,-32.9435,0.0],[28.036,-32.9407,0.0],[28.0326,-32.9388,7.9337],[28.0315,-32.9335,8.7426],[28.0274,-32.9326,0.0],[28.0226,-32.936,2.2018],[28.0249,-32.9315,17.9655],[28.0299,-32.9307,26.5516],[28.0371,-32.934,0.0],[28.0382,-32.9307,0.0],[28.0443,-32.9293,0.0],[28.0571,-32.9196,0.0],[28.0637,-32.9188,0.0],[28.0718,-32.9137,6.3137],[28.079,-32.9143,0.0],[28.0818,-32.9129,0.0],[28.079,-32.9082,0.0],[28.069,-32.9057,2.0363],[28.0776,-32.9062,3.4641],[28.0879,-32.8971,0.0],[28.0904,-32.8971,0.0],[28.0924,-32.8899,3.5806],[28.089,-32.8882,6.4418],[28.0935,-32.889,4.8749],[28.0946,-32.8935,0.0],[28.0971,-32.8954,0.0],[28.0971,-32.8896,0.0],[28.1001,-32.8885,0.0],[28.0982,-32.8862,3.2691],[28.1015,-32.8854,0.1582],[28.1021,-32.8796,0.0],[28.1082,-32.8749,0.0],[28.1087,-32.8679,0.0],[28.1076,-32.8668,7.2949],[28.1099,-32.8657,0.0],[28.1096,-32.8629,14.4472],[28.1126,-32.8599,0.0],[28.1165,-32.8596,0.0],[28.1179,-32.8565,0.0],[28.1196,-32.8435,3.6053],[28.1182,-32.8401,0.0],[28.1162,-32.8399,3.1792],[28.116,-32.8349,0.0],[28.1085,-32.8354,8.7432],[28.114,-32.8315,0.0],[28.1162,-32.8318,0.0],[28.1268,-32.8185,0.0],[28.1357,-32.8112,3.3019],[28.1338,-32.8071,0.0],[28.1315,-32.8079,0.0],[28.1313,-32.8065,0.0],[28.1193,-32.8018,0.2391],[28.1385,-32.8076,6.8871],[28.1429,-32.8063,0.0],[28.1499,-32.8004,0.0],[28.1462,-32.7968,22.2753],[28.1468,-32.7882,9.3779],[28.1479,-32.7949,0.125],[28.1496,-32.7971,2.7539],[28.1529,-32.7971,3.8531],[28.1801,-32.7857,1.3627],[28.1799,-32.7832,0.4316],[28.1843,-32.7846,0.0],[28.1915,-32.7824,25.582],[28.2074,-32.7812,2.4454],[28.209,-32.7796,0.0],[28.2282,-32.7751,0.0],[28.2351,-32.7718,0.0],[28.2354,-32.7693,35.1166],[28.2385,-32.7715,0.0],[28.2443,-32.7654,1.1368],[28.254,-32.764,0.0],[28.2546,-32.7626,0.0],[28.2524,-32.761,2.2506],[28.2551,-32.7596,0.0],[28.2668,-32.7604,0.0],[28.2771,-32.7537,0.0],[28.2849,-32.7449,0.0],[28.2871,-32.7393,9.8808],[28.2982,-32.7371,0.0],[28.2985,-32.7337,3.8653],[28.3076,-32.7265,0.0],[28.3082,-32.7243,0.0],[28.3099,-32.7271,0.0],[28.3121,-32.7274,0.0],[28.3137,-32.7251,0.0],[28.316,-32.7257,0.0],[28.3218,-32.7232,0.0],[28.3254,-32.7179,35.2364],[28.3299,-32.7193,7.2359],[28.3326,-32.7154,0.0],[28.3371,-32.7157,2.3917],[28.3399,-32.711,19.1251],[28.3451,-32.7065,1.0194],[28.341,-32.7004,0.5],[28.3446,-32.7026,31.7052],[28.3457,-32.7082,0.0],[28.3485,-32.709,1.5454],[28.3585,-32.7085,2.0622],[28.3646,-32.7101,0.0],[28.3738,-32.7051,0.0],[28.3743,-32.6899,2.853],[28.3771,-32.6879,12.3437],[28.3796,-32.6885,0.0],[28.379,-32.6854,7.176],[28.3849,-32.6804,10.3612],[28.3768,-32.6735,0.0],[28.3604,-32.6671,15.5568],[28.3532,-32.6418,0.0],[28.3529,-32.6307,20.2585],[28.3543,-32.631,20.2585],[28.3543,-32.6421,0.0],[28.3585,-32.6518,0.0],[28.3615,-32.666,2.4948],[28.3635,-32.6679,2.2632],[28.3754,-32.671,0.6849],[28.3821,-32.6749,0.0],[28.3857,-32.6751,0.0],[28.3882,-32.6726,9.1196],[28.3937,-32.6732,0.89],[28.399,-32.6676,4.8253],[28.4001,-32.6624,0.125],[28.3976,-32.6615,5.6125],[28.3982,-32.6601,0.5],[28.4015,-32.6629,0.125],[28.4007,-32.6657,1.562],[28.4093,-32.6643,0.0],[28.4096,-32.6613,2.3962],[28.4185,-32.6568,0.0],[28.4171,-32.654,1.9787],[28.4212,-32.649,0.0],[28.4229,-32.6499,0.0],[28.4257,-32.6465,0.9881],[28.4282,-32.646,0.0],[28.4293,-32.6374,0.0],[28.4307,-32.6371,0.0],[28.4285,-32.6326,22.477],[28.431,-32.629,16.7011],[28.4337,-32.631,3.2318],[28.4376,-32.6279,14.1873],[28.4438,-32.6285,0.0],[28.4449,-32.6257,26.3229],[28.4488,-32.6263,0.0],[28.4546,-32.6224,10.8974],[28.4632,-32.6215,0.0],[28.4649,-32.6235,0.0],[28.465699999999998,-32.6215,0.6925],[28.4693,-32.6204,0.0],[28.4743,-32.6207,0.0],[28.4763,-32.6165,0.0],[28.4782,-32.6171,0.0],[28.4824,-32.614,0.0],[28.4837,-32.6099,0.0],[28.4904,-32.6085,2.1701],[28.4862,-32.5988,1.788],[28.4924,-32.6085,0.0],[28.4976,-32.6065,0.0],[28.4985,-32.6049,6.6536],[28.5026,-32.6043,14.4227],[28.5051,-32.6068,0.0],[28.5101,-32.6049,0.0],[28.5193,-32.5982,0.0],[28.5257,-32.5907,0.0],[28.5274,-32.5846,0.0],[28.524,-32.5849,7.6682],[28.5212,-32.5824,0.563],[28.524,-32.5807,0.6381],[28.5249,-32.5824,0.0],[28.5265,-32.5821,0.0],[28.5371,-32.5749,1.0382],[28.554,-32.5724,0.0],[28.5537,-32.5701,0.0],[28.5518,-32.5693,11.8638],[28.5524,-32.5662,0.0],[28.5543,-32.5651,0.0],[28.5537,-32.5621,1.5854],[28.556,-32.5615,0.0],[28.5529,-32.5563,0.0],[28.5546,-32.5515,0.0],[28.5601,-32.5474,16.2365],[28.5713,-32.5432,0.0],[28.5765,-32.5374,3.6755],[28.5785,-32.5307,1.2075],[28.5824,-32.5257,0.0],[28.5812,-32.5221,0.5],[28.5713,-32.5224,2.5],[28.5713,-32.521,28.0526],[28.5899,-32.5201,0.0],[28.581,-32.5124,7.7006],[28.590699999999998,-32.5182,0.0],[28.5985,-32.5179,2.4146],[28.6035,-32.5146,0.0983],[28.6049,-32.5118,0.0],[28.6026,-32.5107,5.0681],[28.6024,-32.5076,5.946],[28.6043,-32.5065,0.0],[28.6032,-32.5013,27.7538],[28.6113,-32.4976,2.669],[28.6126,-32.4951,0.0],[28.6104,-32.491,0.75],[28.6074,-32.4915,10.2956],[28.6099,-32.4896,0.75],[28.6126,-32.4904,7.9384],[28.6132,-32.4929,7.2004],[28.6149,-32.4935,0.0],[28.6296,-32.4893,2.9294],[28.6321,-32.486,14.1874],[28.6357,-32.4874,0.0],[28.6368,-32.4835,1.7311],[28.6446,-32.4801,12.4942],[28.6463,-32.4832,0.0],[28.651,-32.484,0.0],[28.654,-32.4771,7.4548],[28.6585,-32.4796,0.0],[28.6563,-32.4762,7.7561],[28.6576,-32.4735,0.0],[28.6535,-32.4674,3.5496],[28.654,-32.4649,9.1356],[28.6554,-32.4646,0.0],[28.6574,-32.4588,0.0],[28.6654,-32.4535,0.0],[28.6701,-32.4529,0.0],[28.671,-32.4465,8.371],[28.6663,-32.4429,3.8028],[28.6449,-32.4385,5.0457],[28.6665,-32.4412,32.7075],[28.6749,-32.4463,0.1104],[28.676,-32.4493,0.0],[28.6813,-32.446,0.0],[28.6807,-32.4443,5.9307],[28.6863,-32.4415,0.0],[28.6868,-32.436,3.781],[28.6946,-32.4324,0.0],[28.6893,-32.4282,14.3126],[28.6965,-32.4307,0.0],[28.6982,-32.4285,1.3586],[28.6999,-32.4287,0.0],[28.7007,-32.4257,3.9028],[28.7049,-32.4271,0.0],[28.7076,-32.4204,3.7167],[28.7101,-32.4207,0.0],[28.7099,-32.4185,0.0],[28.7024,-32.4154,1.9493],[28.7062,-32.4154,2.5792],[28.7088,-32.4174,0.0],[28.7265,-32.4051,0.0],[28.7251,-32.4035,1.2285],[28.7215,-32.4032,37.0396],[28.7213,-32.3993,1.2472],[28.7229,-32.4018,0.0],[28.7276,-32.4021,0.0],[28.7449,-32.3968,0.0],[28.7474,-32.3932,0.0],[28.7474,-32.3885,1.8023],[28.7518,-32.3829,7.8235],[28.7526,-32.3776,0.0],[28.7515,-32.3754,11.3217],[28.7574,-32.3704,0.0],[28.7568,-32.369,1.4812],[28.7585,-32.3699,0.0],[28.761,-32.3676,10.6962],[28.7615,-32.3649,9.8981],[28.7651,-32.3654,0.0],[28.7718,-32.3632,0.0],[28.7729,-32.359,0.0],[28.7776,-32.3543,0.0],[28.7776,-32.3488,6.8204],[28.7882,-32.3401,0.9767],[28.7885,-32.3385,0.0],[28.784,-32.3401,19.2367],[28.7868,-32.3382,0.4984],[28.786,-32.3354,17.1697],[28.7896,-32.3304,17.0105],[28.7876,-32.3274,1.2842],[28.7904,-32.3288,19.0669],[28.7887,-32.334,5.5236],[28.7901,-32.3396,0.0],[28.7968,-32.3407,1.3913],[28.8046,-32.336,2.1778],[28.8046,-32.3346,2.1778],[28.8115,-32.3329,0.2012],[28.8165,-32.3296,0.0],[28.8176,-32.3232,0.4161],[28.816,-32.3213,0.0],[28.8229,-32.3196,0.0],[28.8257,-32.3171,0.0],[28.8285,-32.3118,0.0],[28.8318,-32.3093,0.0],[28.8299,-32.3057,16.2259],[28.8357,-32.3046,0.0],[28.8374,-32.3029,9.5596],[28.8368,-32.3001,1.6046],[28.851,-32.3012,3.4474],[28.856,-32.2985,4.8091],[28.8587,-32.2918,27.8042],[28.8621,-32.2918,0.0],[28.8632,-32.2887,1.9419],[28.8693,-32.2898,0.0],[28.8696,-32.2863,0.0],[28.879,-32.279,1.7416],[28.8726,-32.2704,0.9912],[28.8754,-32.2707,36.0083],[28.8801,-32.2785,2.5355],[28.8826,-32.2782,0.0],[28.8838,-32.2812,0.0],[28.8854,-32.2812,0.0],[28.8821,-32.2715,7.7165],[28.8946,-32.2599,0.0],[28.899,-32.2513,1.2597],[28.8949,-32.2432,0.4188],[28.8857,-32.2363,0.8652],[28.8804,-32.2293,4.6747],[28.903199999999998,-32.2476,4.7014],[28.9093,-32.2465,0.0],[28.9132,-32.2449,0.0],[28.914,-32.2426,7.6268],[28.9201,-32.2412,22.5097],[28.9235,-32.2432,0.0],[28.9226,-32.2385,0.3143],[28.9204,-32.2357,25.4739],[28.9271,-32.231,3.5813],[28.9274,-32.2282,5.8181],[28.9246,-32.226,2.5652],[28.929,-32.2268,0.0],[28.9351,-32.2235,0.0],[28.9379,-32.2238,0.0],[28.9387,-32.2204,3.826],[28.9415,-32.2212,0.0],[28.9443,-32.2187,0.0],[28.9435,-32.2143,9.8111],[28.9465,-32.2151,0.0],[28.9479,-32.214,0.0],[28.9468,-32.2115,0.0],[28.9504,-32.2113,0.0],[28.9501,-32.2085,0.0],[28.9468,-32.2046,3.2448],[28.9549,-32.1945,2.5751],[28.9504,-32.1912,9.3248],[28.9535,-32.1907,12.01],[28.9565,-32.194,8.7651],[28.9562,-32.1971,0.0],[28.9604,-32.1954,0.0],[28.9624,-32.1901,0.9056],[28.964,-32.1901,0.0],[28.9621,-32.1868,3.6585],[28.9682,-32.1849,0.0],[28.9724,-32.1813,0.0],[28.976,-32.181,1.5691],[28.9765,-32.1787,0.0],[28.974,-32.1763,14.3529],[28.9815,-32.1757,0.0],[28.9824,-32.1721,0.0],[28.9857,-32.1726,0.0],[28.9988,-32.1607,0.0],[28.999,-32.1593,0.0],[28.9968,-32.1585,0.0],[28.9924,-32.1615,6.98],[28.9929,-32.159,0.0],[28.9899,-32.1571,7.0906],[28.9846,-32.1382,3.9087],[28.9879,-32.1435,0.0],[28.991,-32.1551,2.1393],[28.9924,-32.1568,0.0],[28.996,-32.1571,5.1329],[28.9993,-32.1521,0.0],[29.0082,-32.1474,0.0],[29.0113,-32.1415,0.0],[29.011,-32.1393,0.0],[29.0088,-32.1393,0.0],[29.0101,-32.1343,6.5974],[29.0149,-32.1287,14.4525],[29.0165,-32.129,0.0],[29.0243,-32.1215,0.0],[29.031,-32.1196,0.0],[29.0335,-32.116,6.4545],[29.039,-32.1154,0.0],[29.0499,-32.1037,39.0909],[29.0535,-32.1029,22.7815],[29.0571,-32.1043,0.0],[29.0613,-32.1029,0.0],[29.064,-32.0999,0.0],[29.0618,-32.0988,5.645],[29.0632,-32.0968,2.254],[29.0679,-32.0985,0.0],[29.071,-32.094,0.0],[29.0688,-32.089,0.0],[29.0749,-32.0838,0.0],[29.0765,-32.0785,2.1786],[29.0793,-32.0807,10.4186],[29.0896,-32.0804,0.0],[29.0874,-32.066,0.0],[29.0915,-32.064,0.0],[29.0949,-32.0574,50.3313],[29.1007,-32.054,0.0],[29.1021,-32.0471,2.897],[29.1068,-32.046,0.0],[29.1071,-32.0435,0.0],[29.1143,-32.0382,0.0],[29.1124,-32.036,0.0],[29.1151,-32.0324,1.1103],[29.1174,-32.0321,0.0],[29.1162,-32.0312,0.0],[29.1171,-32.0293,10.7968],[29.124,-32.0296,0.0],[29.1251,-32.0268,0.0],[29.1229,-32.0243,0.0],[29.1299,-32.0204,3.8113],[29.1301,-32.0143,26.9672],[29.1332,-32.0132,0.0],[29.131,-32.0085,0.0],[29.1329,-32.0051,0.0],[29.1371,-32.0029,0.0],[29.1376,-31.9957,12.4582],[29.1418,-31.9929,43.1992],[29.1488,-31.9912,2.1195],[29.1496,-31.9887,0.0],[29.1546,-31.9876,0.0],[29.1518,-31.9835,0.0],[29.1526,-31.9813,2.4988],[29.1626,-31.9782,0.0],[29.1651,-31.9724,48.9772],[29.1688,-31.9721,1.4237],[29.1707,-31.9701,0.0],[29.1699,-31.965699999999998,5.4307],[29.186,-31.9549,0.0],[29.1854,-31.9526,0.0],[29.1813,-31.9532,15.5344],[29.1804,-31.9518,3.5452],[29.1829,-31.9463,1.6463],[29.1801,-31.9424,0.6316],[29.1835,-31.9449,2.114],[29.1846,-31.949,2.4929],[29.196,-31.9465,2.8075],[29.2024,-31.9485,0.0],[29.2038,-31.9465,0.0],[29.209,-31.9465,0.0],[29.209,-31.9443,9.2423],[29.2174,-31.9426,0.8447],[29.2201,-31.9396,0.0],[29.219,-31.9363,0.0],[29.215699999999998,-31.9374,13.3974],[29.2149,-31.9324,0.0],[29.2049,-31.9274,4.6961],[29.2113,-31.9262,19.1642],[29.2149,-31.9301,0.6727],[29.2188,-31.931,2.3405],[29.2235,-31.929,0.0],[29.2285,-31.9246,0.0],[29.2288,-31.9196,0.0],[29.2332,-31.9157,3.0681],[29.2354,-31.9157,0.0],[29.2354,-31.9118,0.0],[29.2399,-31.9085,0.0],[29.2399,-31.9068,0.0],[29.2443,-31.9051,0.0],[29.2457,-31.9007,1.464],[29.2479,-31.901,0.0],[29.2476,-31.8979,0.0],[29.2443,-31.8954,0.0],[29.2454,-31.894,3.3051],[29.2479,-31.8949,0.0],[29.2493,-31.8929,0.0],[29.2457,-31.8896,0.0],[29.2479,-31.8885,3.3963],[29.2488,-31.8901,0.0],[29.2521,-31.8879,18.1076],[29.261,-31.8862,1.4401],[29.264,-31.8826,0.0425],[29.2635,-31.8699,0.0],[29.2665,-31.8679,0.0],[29.2654,-31.8632,4.5175],[29.2699,-31.8593,5.3887],[29.2726,-31.8529,2.1952],[29.2709,-31.851,0.8526],[29.2651,-31.8501,5.4559],[29.2732,-31.8504,1.7906],[29.2718,-31.8582,1.4224],[29.2724,-31.8599,0.0],[29.2751,-31.8596,0.0],[29.286,-31.8482,0.0],[29.2874,-31.8443,7.0577],[29.2943,-31.8399,0.0],[29.2965,-31.8338,5.6412],[29.3046,-31.8296,0.0],[29.3051,-31.8274,2.9791],[29.3029,-31.8265,0.771],[29.3068,-31.8268,0.0],[29.3099,-31.8251,0.0],[29.314,-31.819,0.0],[29.3176,-31.8168,0.0],[29.3165,-31.8146,0.0],[29.3243,-31.8096,0.0],[29.324,-31.8082,0.0],[29.3204,-31.8085,7.606],[29.3176,-31.8057,0.6442],[29.3093,-31.8026,1.2128],[29.3121,-31.8018,0.0],[29.3226,-31.8071,0.0],[29.3326,-31.8079,2.1214],[29.334,-31.8068,2.1214],[29.3382,-31.8085,0.0],[29.3515,-31.8032,0.0],[29.3526,-31.7999,1.9387],[29.3476,-31.7951,9.5155],[29.3476,-31.7935,2.1207],[29.3532,-31.7926,0.0],[29.3557,-31.7887,7.4772],[29.3563,-31.7813,18.7106],[29.3585,-31.7774,22.3581],[29.3549,-31.7738,0.0],[29.3582,-31.7646,12.8062],[29.3574,-31.761,4.3424],[29.3593,-31.759,0.0],[29.3646,-31.7579,0.9815],[29.3724,-31.7499,0.0],[29.3813,-31.7485,0.0],[29.3865,-31.7457,0.0],[29.3882,-31.7415,0.0],[29.3946,-31.7371,11.5321],[29.4029,-31.7351,0.0],[29.4024,-31.7321,0.0],[29.4068,-31.7268,0.0],[29.404,-31.7243,13.4812],[29.4054,-31.7229,0.0],[29.4029,-31.7213,2.5711],[29.4035,-31.7187,6.8133],[29.4115,-31.714,0.0],[29.4126,-31.7076,0.0],[29.4171,-31.7054,0.0],[29.4182,-31.6996,1.5562],[29.4215,-31.6976,0.0],[29.4215,-31.6957,0.0],[29.4254,-31.6951,0.0],[29.4243,-31.6924,0.0],[29.421,-31.6921,4.0175],[29.4168,-31.6949,13.0925],[29.4154,-31.6926,0.0],[29.4093,-31.6938,0.6246],[29.4104,-31.6921,0.5522],[29.4188,-31.6918,0.0],[29.4204,-31.6893,3.9861],[29.4229,-31.691,2.3231],[29.4293,-31.6868,0.0],[29.4371,-31.6846,1.7604],[29.4413,-31.6857,0.0],[29.4438,-31.6818,2.3006],[29.4515,-31.6785,0.0],[29.4532,-31.6762,9.5758],[29.4521,-31.6729,0.7432],[29.4546,-31.6685,1.0573],[29.4538,-31.6646,2.0862],[29.4562,-31.669,4.7571],[29.4532,-31.6721,0.7432],[29.4538,-31.6743,2.4055],[29.4732,-31.6779,20.2046],[29.4768,-31.6751,0.9959],[29.4937,-31.6715,0.0],[29.4921,-31.6685,2.0925],[29.4971,-31.6649,0.0],[29.5021,-31.6646,0.0],[29.5021,-31.659,7.8307],[29.5046,-31.6599,0.0],[29.5065,-31.6554,17.2796],[29.5112,-31.6568,0.0],[29.5163,-31.6549,0.0],[29.519,-31.6518,0.0],[29.5185,-31.6496,0.0],[29.5201,-31.6474,2.0145],[29.521,-31.6499,0.0],[29.5254,-31.6493,2.5244],[29.5279,-31.6507,0.0],[29.5293,-31.6488,3.6327],[29.5371,-31.6479,0.0],[29.5413,-31.6435,2.1761],[29.5449,-31.6432,0.0],[29.5479,-31.6385,10.179],[29.5521,-31.6382,0.0],[29.5549,-31.6357,0.0],[29.551,-31.6315,0.0],[29.5476,-31.6307,9.603],[29.5474,-31.6212,0.461],[29.5293,-31.5979,1.0],[29.5362,-31.6026,100.4088],[29.541,-31.6121,0.5],[29.5501,-31.6201,0.1236],[29.5524,-31.624,0.4273],[29.5699,-31.6162,1.5364],[29.5807,-31.6087,2.3507],[29.5904,-31.609,0.0],[29.5951,-31.6046,9.5864],[29.5999,-31.6029,0.0],[29.6046,-31.5974,1.7299],[29.6065,-31.5976,0.1164],[29.6099,-31.5951,0.0],[29.6096,-31.594,0.0],[29.6043,-31.5946,20.1415],[29.6038,-31.5921,10.4431],[29.6063,-31.594,0.0],[29.609,-31.5888,7.9707],[29.616,-31.5874,0.0],[29.6168,-31.5846,0.0],[29.6246,-31.5835,0.0],[29.6279,-31.581,14.2452],[29.6288,-31.574,3.567],[29.6338,-31.5726,0.0],[29.6343,-31.5682,0.935],[29.6374,-31.5649,0.0],[29.6371,-31.5629,0.0],[29.6349,-31.5649,1.2992],[29.6315,-31.5643,4.2998],[29.6335,-31.5626,0.0],[29.6315,-31.561,1.9358],[29.634,-31.5613,0.0],[29.6351,-31.5629,5.439],[29.646,-31.556,8.3459],[29.6493,-31.5574,0.0],[29.6501,-31.556,6.4258],[29.6571,-31.5554,0.0],[29.6585,-31.5521,0.0],[29.6624,-31.5501,0.0],[29.661,-31.5485,6.731],[29.6624,-31.5474,6.0742],[29.6665,-31.5479,0.0],[29.6668,-31.5451,0.0],[29.6688,-31.5462,0.0],[29.6685,-31.5443,10.5347],[29.6718,-31.5449,0.0],[29.6782,-31.5351,0.0],[29.6815,-31.536,0.0],[29.6829,-31.5349,0.0],[29.6857,-31.5312,0.0],[29.6887,-31.5218,0.0],[29.6846,-31.5196,17.9268],[29.6893,-31.5199,0.0],[29.6896,-31.5232,0.0],[29.6921,-31.524,0.0],[29.6982,-31.5185,5.0145],[29.6976,-31.5126,11.825],[29.7007,-31.5126,0.0],[29.7032,-31.509,0.4149],[29.7068,-31.5074,0.0],[29.7076,-31.5037,5.3199],[29.7113,-31.5043,0.0],[29.714,-31.5024,0.0],[29.7129,-31.4993,3.171],[29.7162,-31.4979,3.3258],[29.716,-31.4935,8.791],[29.7201,-31.4932,0.0],[29.7235,-31.489,0.0],[29.7201,-31.4837,2.5881],[29.7218,-31.4799,0.0],[29.7237,-31.4807,0.0],[29.7246,-31.4787,11.3587],[29.7315,-31.4785,0.0],[29.7346,-31.4735,3.4916],[29.736,-31.4685,0.0],[29.7337,-31.465699999999998,4.6893],[29.7343,-31.4618,1.1944],[29.7354,-31.4621,1.1944],[29.7349,-31.465699999999998,4.6893],[29.7446,-31.4635,0.0],[29.7549,-31.456,0.0],[29.7551,-31.4515,0.0],[29.7574,-31.4496,0.0],[29.7643,-31.4479,0.0],[29.7687,-31.4446,0.0],[29.7763,-31.4457,5.5066],[29.7801,-31.4418,0.0],[29.7871,-31.4393,22.1089],[29.8057,-31.436,54.8339],[29.8096,-31.4368,0.0],[29.8154,-31.4351,10.7832],[29.8312,-31.4349,0.0],[29.8546,-31.4237,0.4529],[29.8607,-31.4171,1.4579],[29.8638,-31.4165,0.0],[29.8696,-31.4096,0.0],[29.8738,-31.4074,0.4534],[29.8796,-31.3974,3.5151],[29.8835,-31.3993,0.0],[29.906,-31.386,0.0],[29.9054,-31.376,3.5514],[29.9171,-31.3732,0.0],[29.9254,-31.3626,1.5988],[29.9343,-31.3596,0.0],[29.9399,-31.3515,0.0],[29.9468,-31.349,0.0],[29.9529,-31.3426,6.4066],[29.9615,-31.3376,1.6683],[29.965699999999998,-31.3282,0.0],[29.9665,-31.3224,0.0],[29.9618,-31.3176,15.0327],[29.966,-31.3193,3.5999],[29.971,-31.3182,0.0],[29.9729,-31.3199,0.0],[29.9821,-31.3168,0.0],[29.999,-31.3065,0.0],[29.999,-31.3046,0.0],[30.0043,-31.299,8.2233],[30.0099,-31.2962,0.0],[30.0138,-31.2901,0.9748],[30.0135,-31.2882,0.5023],[30.0107,-31.2871,2.2235],[30.0163,-31.2849,0.0],[30.0254,-31.2751,15.123],[30.0332,-31.2707,4.3334],[30.0382,-31.2657,0.1708],[30.0399,-31.2626,2.9664],[30.0388,-31.2612,8.3826],[30.0446,-31.2582,0.0],[30.0449,-31.2526,0.7957],[30.0471,-31.2493,0.0],[30.039,-31.2424,0.0],[30.0446,-31.2465,0.0],[30.049,-31.2468,0.0],[30.0515,-31.2454,0.0],[30.0515,-31.2435,0.0],[30.0549,-31.2437,0.0],[30.0663,-31.2362,7.2911],[30.0696,-31.2307,0.0],[30.0688,-31.2213,0.0],[30.0624,-31.2196,5.8136],[30.0676,-31.2188,2.3147],[30.0696,-31.2204,0.0],[30.0849,-31.209,10.0112],[30.0951,-31.1985,3.5134],[30.0943,-31.1957,20.1177],[30.0965,-31.1918,1.9274],[30.1029,-31.1874,12.4347],[30.1032,-31.1863,12.4347],[30.0999,-31.1849,0.0],[30.1057,-31.1857,5.6873],[30.1099,-31.1835,2.5601],[30.124,-31.1715,0.0],[30.126,-31.1676,5.274],[30.1251,-31.161,3.9837],[30.1332,-31.1518,0.0],[30.1249,-31.1499,12.4724],[30.1238,-31.1479,4.1642],[30.1329,-31.149,8.8297],[30.1332,-31.151,2.2303],[30.1346,-31.151,2.2303],[30.1524,-31.1401,0.0],[30.1549,-31.1354,12.255],[30.1571,-31.1346,1.9309],[30.1574,-31.1293,0.0],[30.1596,-31.126,0.0],[30.1579,-31.1243,8.0636],[30.1621,-31.1215,0.0],[30.1615,-31.1212,0.3467],[30.1596,-31.1215,5.486],[30.1579,-31.1196,1.5478],[30.1607,-31.121,1.3874],[30.169,-31.1179,16.1493],[30.1754,-31.111,0.0],[30.1693,-31.1074,11.4612],[30.169,-31.0999,3.1718],[30.1643,-31.0993,4.4525],[30.1693,-31.0985,1.7789],[30.1701,-31.1046,0.5175],[30.1724,-31.1071,1.4842],[30.176,-31.1043,16.248],[30.1793,-31.104,6.3331],[30.1832,-31.0987,0.0],[30.1832,-31.0901,1.3719],[30.1915,-31.086,9.9982],[30.1932,-31.0826,0.0],[30.1917,-31.0732,18.4778],[30.1883,-31.0691,44.638],[30.1759,-31.0655,5.064],[30.1698,-31.0598,6.3134],[30.1633,-31.0498,72.6901],[30.1632,-31.0456,39.8607],[30.1675,-31.0389,26.6831],[30.17,-31.0254,61.6687],[30.1632,-31.0251,65.281],[30.1556,-31.0224,60.6789],[30.1493,-31.0156,110.6127],[30.1431,-31.0226,80.2499],[30.1408,-31.0229,97.203],[30.1396,-31.021,115.6781],[30.14,-31.0141,150.8615],[30.1354,-31.009,115.3645],[30.1362,-31.0074,141.8786],[30.1446,-31.0054,107.8589],[30.1469,-31.0026,130.0358],[30.1452,-30.9984,134.4149],[30.1409,-30.9967,126.1665],[30.1413,-30.9873,131.2943],[30.1521,-30.9853,145.6934],[30.1564,-30.9759,178.4279],[30.1551,-30.9729,172.4473],[30.1477,-30.9713,178.4969],[30.1411,-30.9664,169.0566],[30.1345,-30.9638,197.8833],[30.1347,-30.9562,178.3704],[30.1392,-30.9544,196.6184],[30.1411,-30.951,222.9137],[30.1378,-30.9406,223.0762],[30.1413,-30.9375,219.8121],[30.1447,-30.9374,202.2515],[30.1465,-30.9339,216.8449],[30.1464,-30.9311,204.7761],[30.1428,-30.927,230.1705],[30.1464,-30.9224,206.3],[30.1395,-30.9181,225.6682],[30.1362,-30.9115,242.1663],[30.1323,-30.9091,242.317],[30.1201,-30.9101,283.9487],[30.1269,-30.9058,265.742],[30.1136,-30.9005,239.1411],[30.1211,-30.891,240.9261],[30.1195,-30.888,263.7611],[30.115,-30.8877,244.3681],[30.1092,-30.8845,279.6425],[30.0984,-30.8848,272.8595],[30.0913,-30.883,256.2934],[30.0821,-30.8851,269.5532],[30.0757,-30.8822,258.6393],[30.0745,-30.8784,255.1252],[30.0703,-30.8747,263.0811],[30.0704,-30.8713,260.6935],[30.0739,-30.8708,271.6329],[30.0881,-30.8744,288.3678],[30.0932,-30.878,298.9961],[30.0926,-30.8687,287.9868],[30.0951,-30.8649,272.47],[30.0944,-30.8621,279.6625],[30.0874,-30.8641,289.8701],[30.0828,-30.8637,283.8459],[30.0818,-30.8659,274.1422],[30.0732,-30.8658,273.9957],[30.0742,-30.8564,276.3211],[30.0702,-30.8516,281.8382],[30.0668,-30.8517,283.6823],[30.0622,-30.8481,280.6863],[30.0579,-30.8485,282.3198],[30.0532,-30.8468,283.4535],[30.046,-30.848,320.6824],[30.039,-30.8446,298.2417],[30.0364,-30.8466,313.6195],[30.0255,-30.8488,348.7787],[30.025,-30.8566,301.0813],[30.0221,-30.8568,324.0093],[30.0194,-30.853,302.7396],[30.0224,-30.8475,303.477],[30.0218,-30.8392,310.409],[30.0162,-30.8396,314.9733],[30.0098,-30.8433,359.3953],[30.007,-30.8422,336.2603],[30.0119,-30.8321,333.2878],[30.0112,-30.8284,351.4843],[30.0077,-30.8258,349.7592],[30.0037,-30.8261,344.5233],[30.0015,-30.8279,336.359],[30.0003,-30.8375,348.1429],[29.9937,-30.836,353.767],[29.9898,-30.838,384.9409],[29.9833,-30.835,338.2158],[29.9799,-30.8374,338.4258],[29.9748,-30.8381,351.3763],[29.9615,-30.83,366.7034],[29.9581,-30.824,343.3485],[29.9591,-30.8215,344.0163],[29.9639,-30.8248,366.327],[29.9678,-30.8251,372.568],[29.9704,-30.819,353.0681],[29.9665,-30.8171,351.5258],[29.9673,-30.8108,382.5127],[29.974,-30.8066,374.8333],[29.9724,-30.8022,373.3564],[29.9685,-30.8037,361.9737],[29.9685,-30.8064,361.5237],[29.9658,-30.8082,380.2965],[29.945,-30.8099,385.4972],[29.9328,-30.8081,423.3663],[29.9319,-30.8051,381.4932],[29.9331,-30.801,385.7319],[29.9406,-30.7921,401.1044],[29.9481,-30.7902,389.2821],[29.9536,-30.7906,388.5841],[29.9556,-30.789,493.4682],[29.9502,-30.7811,393.66],[29.9513,-30.7744,392.4521],[29.9489,-30.7705,421.9175],[29.9332,-30.7683,406.0622],[29.922,-30.7689,426.1576],[29.9216,-30.7708,407.6556],[29.9266,-30.775,424.2531],[29.9295,-30.7807,443.4401],[29.9293,-30.792,494.926],[29.9275,-30.794,422.3588],[29.9252,-30.7936,430.3604],[29.9219,-30.7896,424.3316],[29.9085,-30.7983,467.899],[29.9067,-30.7967,435.515],[29.9062,-30.7921,464.5773],[29.9097,-30.7846,445.3856],[29.9095,-30.7813,461.2543],[29.916,-30.7745,447.9673],[29.9133,-30.7701,457.9698],[29.9112,-30.7701,456.1517],[29.9047,-30.7752,476.4165],[29.8969,-30.7743,485.2969],[29.8869,-30.7847,499.9804],[29.8857,-30.7834,476.9548],[29.886,-30.7726,493.4638],[29.8884,-30.7704,498.5456],[29.8952,-30.7696,547.0374],[29.8965,-30.7675,511.0345],[29.8925,-30.7588,517.7227],[29.8863,-30.7591,532.2895],[29.882,-30.7621,521.4374],[29.8766,-30.7582,525.0531],[29.8732,-30.7586,540.9959],[29.8716,-30.7548,530.5762],[29.8638,-30.7575,546.3262],[29.8594,-30.7565,545.5387],[29.8524,-30.7617,589.213],[29.8496,-30.7608,553.4933],[29.8477,-30.758,604.2822],[29.8515,-30.7524,584.2406],[29.8518,-30.7488,565.5241],[29.8477,-30.7365,584.9762],[29.8448,-30.7368,582.3148],[29.8421,-30.7439,596.5561],[29.8334,-30.7426,601.9329],[29.8298,-30.7439,604.1234],[29.8296,-30.7408,608.5992],[29.8337,-30.7381,613.7903],[29.831,-30.7349,619.785],[29.8246,-30.7346,633.9705],[29.8242,-30.7283,628.3715],[29.8275,-30.7231,631.3827],[29.8251,-30.7206,649.4024],[29.8187,-30.7236,633.8336],[29.8142,-30.7315,689.7443],[29.8089,-30.7304,633.4412],[29.8068,-30.7281,633.8458],[29.8043,-30.7224,645.3987],[29.8041,-30.7149,652.9857],[29.8067,-30.7143,642.3207],[29.8146,-30.7067,702.0699],[29.8154,-30.704,654.6068],[29.8152,-30.7012,686.4265],[29.8108,-30.6985,653.4218],[29.8044,-30.7007,680.2412],[29.8058,-30.7035,652.6276],[29.8003,-30.7089,654.1971],[29.7963,-30.7044,662.8273],[29.7857,-30.6988,675.8953],[29.7856,-30.6962,680.4866],[29.7805,-30.6954,680.1213],[29.7777,-30.6974,690.6755],[29.779,-30.7012,676.6105],[29.7861,-30.7101,705.5025],[29.7722,-30.7054,695.7764],[29.7719,-30.7121,695.9227],[29.7685,-30.7128,689.6836],[29.7716,-30.7162,692.2914],[29.7707,-30.7185,746.0157],[29.7591,-30.7192,706.45],[29.7566,-30.7178,702.6763],[29.7553,-30.7106,725.8109],[29.7525,-30.707,719.3224],[29.7494,-30.7126,743.4031],[29.7507,-30.7164,726.9865],[29.7497,-30.7195,735.3202],[29.7407,-30.7234,759.5794],[29.7389,-30.7215,744.0225],[29.741,-30.72,741.9097],[29.7407,-30.7187,746.1918],[29.7389,-30.7176,755.5935],[29.7344,-30.7196,794.7413],[29.7296,-30.7159,750.7941],[29.735,-30.7091,758.1056],[29.7336,-30.7074,786.6799],[29.7208,-30.7084,782.8552],[29.7153,-30.7043,788.6776],[29.7079,-30.7048,781.998],[29.7048,-30.703,784.0203],[29.7008,-30.7053,787.5081],[29.6965,-30.6967,797.2305],[29.6943,-30.6958,800.1991],[29.6936,-30.6875,851.6232],[29.6917,-30.6862,840.1818],[29.6874,-30.6883,859.8699],[29.6835,-30.6854,843.8051],[29.6831,-30.6835,836.9796],[29.6865,-30.6819,857.4432],[29.6868,-30.6795,842.6391],[29.6763,-30.6737,868.9133],[29.6766,-30.6715,882.4323],[29.6737,-30.6692,896.9237],[29.6714,-30.67,884.2315],[29.6719,-30.6714,896.678],[29.6671,-30.6763,921.7865],[29.6572,-30.6806,945.7415],[29.6515,-30.6858,920.7637],[29.6487,-30.6838,937.67],[29.6371,-30.6838,979.6123],[29.6365,-30.6859,979.8842],[29.6349,-30.684,1001.5188],[29.6202,-30.6885,1002.7912],[29.617,-30.6889,1010.4944],[29.6143,-30.6867,1022.8585],[29.5995,-30.6895,1087.1892],[29.5958,-30.6859,1121.7174],[29.5942,-30.6674,1319.3872],[29.5876,-30.659,1488.2903],[29.5803,-30.654,1620.572],[29.5713,-30.6577,2109.5569],[29.5722,-30.6551,2087.1128],[29.5243,-30.6412,1682.5266],[29.5124,-30.6182,1670.9657],[29.4686,-30.6242,1655.5488],[29.443,-30.639,1861.2871],[29.4013,-30.6394,1503.8805],[29.3855,-30.6501,1371.6166],[29.3728,-30.649,1326.8586],[29.3456,-30.6717,1666.5428],[29.3225,-30.6445,1558.4526],[29.3198,-30.645,1656.2654],[29.3035,-30.6394,1838.5016],[29.2773,-30.6373,1588.269],[29.2613,-30.6212,1586.881],[29.2284,-30.6197,1430.7747],[29.2202,-30.6208,1207.1187],[29.218,-30.6185,1209.8645],[29.2111,-30.6215,1252.021],[29.2046,-30.6202,1217.1775],[29.1952,-30.6245,1237.1898],[29.1955,-30.6283,1229.0785],[29.1987,-30.632,1234.5431],[29.1979,-30.6344,1240.2324],[29.1919,-30.6348,1241.3179],[29.1829,-30.6413,1268.671],[29.1809,-30.6396,1269.5114],[29.1778,-30.6287,1258.4963],[29.1808,-30.6236,1265.2052],[29.1854,-30.6213,1278.9644],[29.1853,-30.6185,1264.1868],[29.1807,-30.6189,1267.8625],[29.173,-30.6243,1274.569],[29.168,-30.6176,1283.6912],[29.1681,-30.6131,1283.4346],[29.1353,-30.6051,1810.5496],[29.146,-30.5952,1657.0587],[29.1238,-30.5871,1722.8872],[29.1153,-30.5796,1636.6368],[29.1515,-30.5604,1382.545],[29.162,-30.5601,1357.4402],[29.163,-30.5582,1356.954],[29.1738,-30.5518,1370.4161],[29.1651,-30.538,1357.2616],[29.1631,-30.5396,1358.6716],[29.1663,-30.5414,1357.3541],[29.1653,-30.5436,1358.6299],[29.1611,-30.5418,1358.5083],[29.1599,-30.5447,1359.4393],[29.1578,-30.5451,1358.5614],[29.1579,-30.5476,1359.2698],[29.1614,-30.547,1361.7117],[29.1577,-30.5538,1384.9908],[29.1556,-30.5554,1367.2391],[29.1528,-30.5546,1380.2563],[29.1518,-30.5486,1361.8313],[29.1531,-30.547,1369.2104],[29.1476,-30.5412,1363.0115],[29.1455,-30.5327,1365.4373],[29.1466,-30.5316,1365.4373],[29.1448,-30.531,1389.9825],[29.1402,-30.5338,1369.1597],[29.1504,-30.5104,1516.375],[29.1773,-30.5157,1503.1471],[29.1878,-30.4842,1631.4711],[29.1984,-30.4623,1667.6935],[29.1968,-30.4344,1633.3152],[29.2185,-30.4212,1758.9662],[29.2273,-30.4263,1885.9938],[29.2276,-30.4103,1858.7583],[29.2382,-30.4049,1762.0242],[29.2824,-30.3957,2140.5684],[29.2771,-30.3762,1932.3643],[29.305,-30.3799,2182.478],[29.2988,-30.3532,2153.2332],[29.2919,-30.3456,2090.5117],[29.2987,-30.3343,1951.1742],[29.3019,-30.3201,1973.8564],[29.2622,-30.2784,1483.1565],[29.2368,-30.2669,1449.7925],[29.2315,-30.2691,1449.6864],[29.2547,-30.3048,1535.5654],[29.2334,-30.3063,1492.5768],[29.2275,-30.2974,1469.1974],[29.1881,-30.2887,1463.2203],[29.1726,-30.2834,1450.4233],[29.1757,-30.2828,1449.6528],[29.1742,-30.2808,1445.7787],[29.1674,-30.2816,1452.2291],[29.1558,-30.2775,1442.6825],[29.1579,-30.277,1443.347],[29.1568,-30.2754,1442.1572],[29.1579,-30.2744,1443.4015],[29.1612,-30.2759,1442.5809],[29.1632,-30.2738,1442.5629],[29.1618,-30.2723,1443.4867],[29.1593,-30.2743,1443.406],[29.161,-30.2707,1443.9863],[29.156,-30.2685,1444.5989],[29.1621,-30.2663,1444.0344],[29.1627,-30.2636,1444.9409],[29.1556,-30.2619,1446.522],[29.1565,-30.2648,1446.0701],[29.1518,-30.2647,1445.6989],[29.1538,-30.2611,1448.7786],[29.1518,-30.2567,1455.3699],[29.1411,-30.2617,1459.1625],[29.1373,-30.2624,1449.5983],[29.136,-30.2612,1449.5963],[29.1355,-30.2562,1450.2296],[29.1319,-30.2516,1451.248],[29.133,-30.2497,1460.4423],[29.1289,-30.2478,1451.7045],[29.1292,-30.2396,1456.7284],[29.126,-30.2387,1458.6477],[29.1297,-30.2337,1464.6937],[29.1302,-30.2266,1472.7852],[29.1282,-30.2242,1466.2351],[29.1224,-30.222,1472.3344],[29.1241,-30.2179,1495.2593],[29.1318,-30.2166,1489.6212],[29.1323,-30.2149,1473.5073],[29.1271,-30.2112,1494.3726],[29.1215,-30.2099,1497.2407],[29.1216,-30.2073,1477.6594],[29.1197,-30.2059,1485.2803],[29.1124,-30.2096,1494.0125],[29.1108,-30.1969,1483.1665],[29.1141,-30.1939,1487.5012],[29.1208,-30.1943,1482.5281],[29.1221,-30.192,1485.0286],[29.1174,-30.1898,1484.6753],[29.1132,-30.1904,1490.6257],[29.1099,-30.1838,1492.2903],[29.1038,-30.1807,1490.7211],[29.1026,-30.1771,1490.1259],[29.1041,-30.1753,1490.6927],[29.1068,-30.1762,1489.6211],[29.1067,-30.1721,1490.7451],[29.1103,-30.1683,1497.6345],[29.1131,-30.1682,1515.6385],[29.1139,-30.1621,1505.3044],[29.1171,-30.1633,1507.1558],[29.1204,-30.1604,1503.3271],[29.1134,-30.1576,1503.4462],[29.1104,-30.1538,1506.454],[29.1139,-30.1518,1510.5063],[29.118,-30.1528,1509.0598],[29.1206,-30.1512,1509.8577],[29.1215,-30.1435,1530.0737],[29.1163,-30.1421,1532.7415],[29.1188,-30.1385,1537.1504],[29.1163,-30.1364,1535.813],[29.1154,-30.1328,1549.9668],[29.1177,-30.1259,1543.4724],[29.1158,-30.1248,1553.156],[29.1194,-30.1222,1547.4102],[29.1153,-30.1144,1578.7788],[29.12,-30.1106,1568.9655],[29.1186,-30.1094,1596.5684],[29.1148,-30.1106,1577.332],[29.1152,-30.1078,1586.6068],[29.1123,-30.1056,1585.6138],[29.1145,-30.1023,1596.5507],[29.1174,-30.1054,1586.3416],[29.1196,-30.1054,1582.6489],[29.1187,-30.1029,1583.5952],[29.1212,-30.0988,1581.7664],[29.1172,-30.1002,1587.5657],[29.1137,-30.0963,1588.4943],[29.1119,-30.0972,1628.3739],[29.1073,-30.0785,2005.7651],[29.0901,-30.0567,2153.7537],[29.0678,-30.044,2273.6904],[29.045,-30.013,2351.8459],[29.0147,-30.0018,2444.009],[29.0105,-30.0047,2371.2744],[29.0042,-30.005,2392.7764],[28.9973,-30.0117,2398.3933],[28.9908,-30.0202,2287.6257],[28.9901,-30.0274,2378.3906],[28.9856,-30.0312,2377.9895],[28.9779,-30.0298,2404.5735],[28.976,-30.0323,2401.1343],[28.9692,-30.0341,2373.1763],[28.9648,-30.0331,2319.2546],[28.9578,-30.0391,2371.5332],[28.9543,-30.0392,2333.3403],[28.9522,-30.0367,2319.8103],[28.941,-30.0364,2381.4551],[28.9363,-30.0492,2243.1572],[28.9239,-30.0539,2386.7808],[28.9217,-30.0531,2369.769],[28.9189,-30.0581,2260.6265],[28.9106,-30.0592,2235.2644],[28.9031,-30.0659,2267.5754],[28.8969,-30.0647,2376.3889],[28.8934,-30.0688,2380.2429],[28.8789,-30.0698,2435.1306],[28.8749,-30.0737,2268.8501],[28.8706,-30.0745,2290.5518],[28.8693,-30.0779,2261.7402],[28.8575,-30.0776,2504.3],[28.8574,-30.0833,2492.4307],[28.8594,-30.0873,2399.2109],[28.8553,-30.0901,2423.4536],[28.8389,-30.0921,2497.1438],[28.8313,-30.0976,2276.5569],[28.8262,-30.0956,2244.9492],[28.8195,-30.0976,2278.3003],[28.8076,-30.0973,2438.1968],[28.8024,-30.1006,2442.2224],[28.795,-30.1008,2427.124],[28.7957,-30.1035,2412.1387],[28.7912,-30.1094,2389.4136],[28.7688,-30.1076,2374.3848],[28.7618,-30.1055,2357.3159],[28.7498,-30.1065,2205.8564],[28.7417,-30.1122,2260.9412],[28.7418,-30.1143,2274.675],[28.7397,-30.1158,2298.0254],[28.7361,-30.1123,2317.3987],[28.7289,-30.113,2285.125],[28.7242,-30.1155,2252.5964],[28.7207,-30.1152,2245.7402],[28.7188,-30.1177,2223.1982],[28.709,-30.1196,2262.1021],[28.7016,-30.1265,2180.4517],[28.6903,-30.1241,2007.0854],[28.688,-30.1288,1967.2114],[28.6851,-30.1287,1976.3188],[28.6782,-30.1339,2000.3521],[28.6716,-30.1361,2081.5625],[28.6676,-30.1407,2095.6128],[28.6579,-30.1373,1950.4663],[28.6536,-30.1376,2036.7302],[28.6502,-30.1337,2064.4705],[28.6431,-30.134,2114.8613],[28.6384,-30.1315,2249.0513],[28.6269,-30.1317,2262.6133],[28.6186,-30.1355,2134.614],[28.6103,-30.1325,2131.9136],[28.5974,-30.1307,2182.5796],[28.590699999999998,-30.1269,2388.3125],[28.5846,-30.1276,2353.8899],[28.5799,-30.1259,2374.4517],[28.5751,-30.1274,2344.0391],[28.5665,-30.1226,2537.896],[28.5642,-30.1239,2521.2163],[28.5537,-30.124,2556.8306],[28.5506,-30.1206,2556.4895],[28.5469,-30.1231,2335.084],[28.5349,-30.1257,2433.0403],[28.5314,-30.1329,2404.7319],[28.5167,-30.1388,2517.554],[28.5122,-30.1431,2264.3276],[28.5065,-30.1449,2244.5476],[28.4998,-30.151,2366.9707],[28.4813,-30.1488,2571.5601],[28.4736,-30.1528,2496.9424],[28.4725,-30.1556,2524.396],[28.4607,-30.1545,2497.291],[28.4569,-30.1575,2415.7244],[28.4515,-30.1578,2295.5979],[28.4325,-30.1537,2310.7874],[28.4198,-30.1487,2486.5364],[28.3998,-30.1437,2771.8677],[28.3971,-30.1452,2657.0977],[28.3958,-30.1514,2745.4941],[28.3927,-30.1556,2746.1477],[28.3923,-30.159,2680.5442],[28.3904,-30.1594,2650.8645],[28.3902,-30.1628,2597.2502],[28.3841,-30.1651,2573.7659],[28.3829,-30.1688,2678.978],[28.3709,-30.1697,2768.8696],[28.3651,-30.1686,2798.8232],[28.3596,-30.1784,2646.8245],[28.3555,-30.1906,2592.7939],[28.3563,-30.1925,2538.3206],[28.352,-30.1967,2449.261],[28.3489,-30.2076,2430.7515],[28.3451,-30.2128,2493.0964],[28.3454,-30.2153,2502.9307],[28.3477,-30.2169,2514.4375],[28.3451,-30.2188,2481.5566],[28.3434,-30.2236,2471.1965],[28.3478,-30.2289,2523.7168],[28.3458,-30.2321,2531.4526],[28.3403,-30.2346,2434.4021],[28.3331,-30.2339,2625.1362],[28.3304,-30.2297,2679.1892],[28.3288,-30.2339,2530.3213],[28.3252,-30.2372,2455.7493],[28.3212,-30.2381,2529.4646],[28.3188,-30.2406,2561.5334],[28.3135,-30.2407,2551.1174],[28.3107,-30.2508,2501.4194],[28.3032,-30.2562,2416.2009],[28.2971,-30.2552,2377.7329],[28.288,-30.2576,2446.8027],[28.2827,-30.2556,2555.7415],[28.274,-30.2562,2473.6699],[28.2691,-30.253,2555.167],[28.264,-30.2521,2617.7998],[28.2597,-30.2565,2571.3608],[28.2496,-30.2583,2581.2781],[28.2446,-30.2575,2680.8977],[28.2364,-30.2599,2641.4949],[28.2359,-30.266,2577.1133],[28.229,-30.2712,2737.2996],[28.2231,-30.2734,2781.5801],[28.2231,-30.2754,2784.7627],[28.2146,-30.2864,2755.4924],[28.2069,-30.291,2784.0134],[28.2123,-30.2971,2722.1355],[28.2154,-30.3068,2777.8394],[28.2205,-30.309,2766.5601],[28.2283,-30.3085,2735.2253],[28.233,-30.315,2617.7256],[28.2425,-30.3179,2651.5251],[28.2479,-30.3233,2670.8384],[28.2565,-30.3244,2633.8662],[28.2528,-30.3278,2626.0364],[28.2568,-30.3298,2657.9312],[28.2516,-30.3336,2605.5757],[28.2529,-30.3421,2710.5664],[28.256,-30.3461,2826.6177],[28.2627,-30.347,2770.7244],[28.2698,-30.3534,2693.2786],[28.271,-30.3564,2700.2729],[28.2678,-30.3604,2676.4124],[28.2708,-30.3708,2597.6367],[28.267,-30.3771,2825.7915],[28.2672,-30.3841,2709.0208],[28.2636,-30.3868,2691.9673],[28.2586,-30.4023,2716.9834],[28.2529,-30.4052,2698.0725],[28.2577,-30.4174,2733.9043],[28.257,-30.4186,2710.4146],[28.2497,-30.4195,2642.3486],[28.2462,-30.4153,2625.5693],[28.2393,-30.4131,2652.479],[28.2373,-30.4182,2684.5857],[28.2322,-30.4207,2627.3987],[28.2283,-30.4305,2703.3474],[28.2154,-30.4306,2654.543],[28.2063,-30.4372,2682.9229],[28.1977,-30.433,2778.8079],[28.1861,-30.4352,2818.4929],[28.1796,-30.4389,2757.6152],[28.1767,-30.4456,2759.7461],[28.1725,-30.4506,2775.084],[28.1655,-30.4548,2809.2312],[28.1637,-30.4612,2835.9758],[28.1563,-30.4655,2999.1587],[28.1549,-30.4712,2978.3145],[28.1644,-30.4759,2930.7827],[28.1655,-30.4818,2835.0559],[28.1779,-30.4884,2924.1721],[28.1797,-30.4913,2806.0227],[28.1808,-30.5012,2818.0229],[28.1753,-30.5032,2651.5217],[28.1723,-30.5088,2698.6948],[28.1772,-30.5218,2595.5239],[28.1771,-30.5252,2618.0146],[28.1765,-30.527,2565.999],[28.1684,-30.528,2597.0132],[28.1637,-30.5351,2674.2974],[28.163,-30.5389,2681.9097],[28.157,-30.544,2748.1982],[28.1585,-30.5496,2658.676],[28.1635,-30.5567,2640.1777],[28.1608,-30.5586,2665.1941],[28.1626,-30.5628,2663.4839],[28.1593,-30.5683,2667.3928],[28.1604,-30.5725,2609.6057],[28.1536,-30.5758,2544.7168],[28.1512,-30.584,2582.8411],[28.145,-30.5859,2623.8367],[28.1373,-30.5924,2571.5144],[28.1295,-30.5918,2672.0269],[28.1227,-30.5959,2719.2148],[28.1216,-30.5989,2806.8198],[28.1131,-30.5999,2794.1726],[28.1106,-30.6087,2889.8323],[28.1128,-30.6119,2905.5774],[28.1122,-30.6147,2823.7905],[28.1188,-30.6227,2764.7676],[28.117,-30.6265,2793.772],[28.1177,-30.6333,2763.3704],[28.1163,-30.6348,2747.9304],[28.1175,-30.6402,2695.0945],[28.1214,-30.6434,2707.918],[28.1236,-30.6493,2663.5088],[28.1238,-30.6592,2668.5437],[28.1232,-30.6634,2706.3149],[28.1177,-30.6687,2797.1201],[28.1136,-30.6756,2827.9875],[28.0846,-30.654,2796.7988],[28.0524,-30.6581,2726.5295],[28.0037,-30.659,2677.6868],[27.9916,-30.6509,2800.7786],[27.9775,-30.655,2657.3567],[27.9405,-30.6441,2961.5002],[27.9405,-30.6397,2940.4314],[27.9335,-30.6332,2919.7893],[27.933,-30.6275,2883.3254],[27.9266,-30.6231,2927.4067],[27.9202,-30.622,2909.6978],[27.9224,-30.6092,2781.3215],[27.9184,-30.6026,2745.6416],[27.9155,-30.6013,2747.0608],[27.9069,-30.6043,2659.3208],[27.903199999999998,-30.6029,2634.2041],[27.8985,-30.6072,2513.6479],[27.8896,-30.6052,2229.7007],[27.8812,-30.6137,2054.728],[27.8607,-30.6142,1964.953],[27.8553,-30.6158,1947.3197],[27.8304,-30.6137,1854.6057],[27.8142,-30.6163,1833.6509],[27.8058,-30.6155,1781.4387],[27.7955,-30.6191,1734.4468],[27.7922,-30.6176,1740.4557],[27.787,-30.6189,1717.3396],[27.7855,-30.6173,1708.4119],[27.7736,-30.6143,1689.9338],[27.7699,-30.6111,1715.0461],[27.7685,-30.612,1688.4521],[27.7645,-30.6105,1663.0491],[27.7589,-30.6068,1634.9514],[27.7482,-30.6062,1643.3739],[27.7419,-30.6039,1589.9758],[27.735,-30.590699999999998,1566.3118],[27.7302,-30.5896,1572.0173],[27.7207,-30.5791,1545.0637],[27.7164,-30.5686,1541.4188],[27.7021,-30.5645,1522.7202],[27.7005,-30.5612,1524.5885],[27.6943,-30.5587,1516.304],[27.6939,-30.5554,1515.0542],[27.6973,-30.553,1512.5137],[27.6953,-30.5501,1512.8997],[27.6916,-30.5486,1548.6555],[27.6934,-30.5448,1522.1437],[27.6904,-30.5408,1528.0149],[27.6868,-30.54,1512.1533],[27.6796,-30.5345,1529.8672],[27.6726,-30.5354,1491.0404],[27.6651,-30.5254,1479.0022],[27.6576,-30.5225,1480.0424],[27.6573,-30.5193,1514.5826],[27.6531,-30.5174,1480.8716],[27.6459,-30.5197,1480.0889],[27.6453,-30.517,1473.2703],[27.6392,-30.5157,1494.1235],[27.6369,-30.5131,1472.2766],[27.6246,-30.507,1462.1891],[27.6209,-30.5021,1453.1327],[27.6219,-30.4993,1463.684],[27.6199,-30.4937,1454.3103],[27.6147,-30.4967,1472.9071],[27.6097,-30.4956,1451.9637],[27.6071,-30.4919,1440.8274],[27.6119,-30.4911,1450.4802],[27.6151,-30.4882,1462.3668],[27.6141,-30.4844,1505.6069],[27.615,-30.4777,1438.7854],[27.6089,-30.4709,1431.6533],[27.6038,-30.4585,1456.3217],[27.5976,-30.4573,1423.6801],[27.6043,-30.4499,1439.9185],[27.6037,-30.448,1442.4419],[27.6012,-30.4466,1421.5364],[27.5932,-30.4503,1419.1362],[27.5874,-30.4499,1422.1127],[27.5851,-30.4485,1419.9059],[27.5724,-30.4481,1416.0414],[27.5673,-30.4448,1421.0485],[27.5644,-30.4345,1420.406],[27.5715,-30.4302,1410.7522],[27.5714,-30.4286,1409.1515],[27.5601,-30.4155,1406.9893],[27.5531,-30.4012,1414.8989],[27.5388,-30.3931,1398.373],[27.5334,-30.3841,1396.6338],[27.5204,-30.3833,1392.5],[27.512,-30.3871,1392.0],[27.5069,-30.3876,1393.0428],[27.5007,-30.3781,1395.2249],[27.5021,-30.3718,1393.2253],[27.4945,-30.3745,1393.7922],[27.4894,-30.3734,1397.1339],[27.49,-30.366,1399.1073],[27.4883,-30.3629,1392.6631],[27.4812,-30.3604,1401.2832],[27.4743,-30.355,1393.1538],[27.4769,-30.3488,1395.6709],[27.4745,-30.333,1418.7957],[27.4755,-30.3221,1391.5298],[27.4651,-30.3143,1394.0366],[27.4587,-30.3132,1395.5903],[27.4502,-30.3147,1390.2349],[27.4382,-30.3232,1396.5283],[27.4203,-30.3241,1399.5128],[27.4127,-30.3308,1387.2617],[27.393,-30.3398,1392.4441],[27.3827,-30.3367,1400.4678],[27.3808,-30.3292,1384.4827],[27.3782,-30.3268,1385.0956],[27.3627,-30.3237,1381.0],[27.3489,-30.3308,1381.9226],[27.3489,-30.3324,1379.0],[27.3534,-30.3359,1378.0],[27.3583,-30.3358,1380.0575],[27.3664,-30.3387,1377.6638],[27.367,-30.3452,1417.2329],[27.3629,-30.3552,1383.5936],[27.3683,-30.3709,1375.5],[27.3721,-30.3745,1378.1232],[27.3787,-30.3745,1375.0],[27.3799,-30.3619,1382.8982],[27.3834,-30.3583,1378.8518],[27.3914,-30.3575,1380.9332],[27.3967,-30.3611,1396.0485],[27.3959,-30.3703,1383.4436],[27.4029,-30.3804,1385.7799],[27.4018,-30.385,1409.4336],[27.4038,-30.3916,1374.9421],[27.3991,-30.3951,1378.9192],[27.3832,-30.4013,1383.009],[27.3809,-30.4064,1374.5969],[27.3769,-30.4088,1381.0544],[27.3734,-30.4053,1376.5439],[27.366,-30.403,1388.1628],[27.3522,-30.4011,1372.55],[27.3446,-30.3973,1377.9177],[27.3389,-30.3983,1369.6497],[27.3391,-30.4035,1372.7058],[27.3346,-30.4121,1384.7025],[27.3319,-30.4157,1390.1002],[27.3236,-30.4177,1420.7589],[27.3242,-30.4232,1378.9935],[27.3338,-30.4294,1390.1173],[27.340699999999998,-30.431,1384.3667],[27.3615,-30.4253,1366.9875],[27.3684,-30.4334,1365.7657],[27.3687,-30.437,1359.0],[27.3556,-30.4431,1370.0778],[27.3479,-30.4492,1380.3021],[27.3396,-30.4506,1369.4969],[27.3235,-30.4468,1381.8285],[27.3111,-30.4411,1375.9722],[27.3049,-30.4413,1375.7324],[27.3006,-30.4437,1363.6531],[27.2935,-30.4552,1360.4697],[27.2959,-30.4616,1382.3746],[27.299,-30.4639,1363.1968],[27.3148,-30.469,1357.1781],[27.3211,-30.4756,1366.0071],[27.3261,-30.4783,1363.6296],[27.3284,-30.4834,1350.5217],[27.3243,-30.4877,1352.4912],[27.3064,-30.4906,1361.2651],[27.2984,-30.4946,1356.3622],[27.3012,-30.5016,1381.9399],[27.3007,-30.5088,1351.8584],[27.2975,-30.5122,1352.641],[27.2902,-30.5103,1348.6819],[27.2833,-30.5031,1353.6425],[27.2747,-30.5023,1349.4894],[27.2665,-30.5063,1350.4675],[27.2621,-30.5037,1357.72],[27.2511,-30.5025,1346.1621],[27.2482,-30.4953,1341.5],[27.2481,-30.4868,1349.1985],[27.2456,-30.4818,1347.5828],[27.2395,-30.4806,1344.0166],[27.2332,-30.4848,1347.4995],[27.2336,-30.4933,1342.6813],[27.2295,-30.4992,1342.2537],[27.2297,-30.5096,1358.6482],[27.2215,-30.5104,1339.7583],[27.2197,-30.5086,1338.5],[27.2183,-30.5054,1367.5381],[27.219,-30.4923,1369.3077],[27.2153,-30.4876,1343.6753],[27.2128,-30.487,1338.0],[27.2099,-30.489,1363.7621],[27.2095,-30.4935,1337.5],[27.2057,-30.5006,1342.9148],[27.206,-30.5074,1340.933],[27.1864,-30.5246,1354.1848],[27.1763,-30.52,1335.2168],[27.1697,-30.5123,1340.0223],[27.1611,-30.5142,1338.1021],[27.1395,-30.5097,1339.0719],[27.1305,-30.5102,1352.0099],[27.1282,-30.5118,1354.4253],[27.1272,-30.5153,1329.0106],[27.1349,-30.5238,1345.5565],[27.138,-30.5322,1356.1948],[27.1327,-30.538,1374.5017],[27.1213,-30.5409,1357.4536],[27.1135,-30.5534,1327.4409],[27.1061,-30.5583,1343.0062],[27.0963,-30.5536,1328.0645],[27.0913,-30.5477,1349.2969],[27.0871,-30.5393,1381.0293],[27.089,-30.5305,1325.4667],[27.0853,-30.528,1335.2734],[27.065,-30.5297,1351.6858],[27.0427,-30.537,1324.5311],[27.0349,-30.5374,1327.9856],[27.0274,-30.5343,1328.2997],[27.0226,-30.5375,1318.0],[27.0129,-30.5363,1329.8176],[27.0057,-30.5373,1321.99],[27.0024,-30.5398,1317.5],[26.9981,-30.5487,1358.2925],[27.0004,-30.5534,1317.5],[27.0054,-30.5579,1327.2695],[27.0178,-30.5613,1315.7932],[27.0265,-30.5786,1311.0],[27.0392,-30.5791,1325.5033],[27.0415,-30.5815,1338.5303],[27.0426,-30.5876,1326.7373],[27.0337,-30.6007,1328.1915],[27.0279,-30.6046,1387.0732],[27.0138,-30.6064,1348.3195],[27.0103,-30.6041,1313.594],[27.0056,-30.5957,1313.3096],[27.0005,-30.5946,1319.8932],[26.9794,-30.5979,1346.0923],[26.9479,-30.6076,1306.0],[26.9398,-30.6174,1305.5],[26.933,-30.619,1308.8916],[26.9293,-30.6245,1318.7273],[26.9301,-30.6276,1310.4047],[26.9493,-30.6529,1328.3921],[26.9488,-30.6586,1307.5752],[26.9346,-30.6651,1308.1891],[26.9181,-30.6651,1303.8582],[26.903,-30.6689,1302.3389],[26.8962,-30.6671,1302.678],[26.8862,-30.6595,1312.3276],[26.8787,-30.6596,1302.5035],[26.8758,-30.6649,1302.744],[26.8773,-30.6737,1314.5021],[26.8761,-30.6781,1301.3376],[26.8727,-30.6813,1309.0645],[26.8636,-30.6841,1300.4574],[26.8543,-30.6848,1305.616],[26.8443,-30.6826,1302.751],[26.8388,-30.6694,1301.2291],[26.8283,-30.6596,1298.4178],[26.8141,-30.6427,1297.8734],[26.8053,-30.6394,1301.7092],[26.7761,-30.6484,1296.0474],[26.7687,-30.6555,1295.4838],[26.762,-30.658,1301.5779],[26.7519,-30.6661,1296.7202],[26.7366,-30.6646,1297.5293],[26.7257,-30.6664,1296.0437],[26.7091,-30.684,1290.5],[26.7031,-30.6869,1294.7739],[26.6932,-30.6879,1293.6521],[26.6857,-30.686,1289.5],[26.6807,-30.6784,1289.0],[26.6773,-30.6682,1288.5],[26.6753,-30.6675,1297.4681],[26.6698,-30.6706,1288.0],[26.6608,-30.6853,1287.5],[26.6535,-30.6901,1291.6736],[26.6396,-30.6936,1290.2512],[26.6294,-30.6939,1286.0],[26.6253,-30.6912,1288.9866],[26.6249,-30.6832,1285.5],[26.6278,-30.6782,1286.5648],[26.6365,-30.6728,1286.7883],[26.629,-30.6617,1286.3103],[26.6077,-30.664,1283.6316],[26.5909,-30.6626,1287.5002],[26.5755,-30.6667,1284.9445],[26.5579,-30.6641,1281.9305],[26.5512,-30.6618,1285.2954],[26.5217,-30.6402,1279.5],[26.5105,-30.636,1279.0],[26.5042,-30.6318,1282.6294],[26.4834,-30.6296,1281.6807],[26.4809,-30.6271,1279.6045],[26.4807,-30.6213,1278.0],[26.4857,-30.6131,1278.0],[26.49,-30.6,1280.4987],[26.4894,-30.5938,1278.0433],[26.4873,-30.5916,1277.0],[26.4789,-30.5893,1277.5012],[26.4606,-30.5783,1273.0],[26.4491,-30.5693,1275.5994],[26.4293,-30.5655,1269.5],[26.4179,-30.5664,1270.8203],[26.4016,-30.5716,1269.0],[26.3956,-30.5778,1270.1667],[26.3897,-30.5815,1272.0786],[26.3719,-30.5818,1268.0],[26.3616,-30.5928,1267.0],[26.356,-30.595,1267.0],[26.344,-30.5937,1266.5],[26.3164,-30.5825,1269.0974],[26.3092,-30.584,1266.395],[26.291,-30.5918,1264.5],[26.2802,-30.5896,1269.7307],[26.2768,-30.5855,1264.0],[26.2804,-30.5814,1269.022],[26.2805,-30.5781,1275.6416],[26.2696,-30.5715,1269.2023],[26.2653,-30.5663,1263.0],[26.2651,-30.5494,1265.1307],[26.2631,-30.543,1262.5],[26.2563,-30.5394,1264.0347],[26.2298,-30.5354,1262.3972],[26.2186,-30.5317,1263.1196],[26.206,-30.5336,1261.5],[26.1973,-30.5316,1261.5],[26.1938,-30.528,1261.5],[26.1962,-30.513,1263.02],[26.1941,-30.5038,1265.1501],[26.1794,-30.4912,1260.5],[26.1626,-30.4835,1260.0],[26.1518,-30.4835,1260.0],[26.1455,-30.4853,1260.8506],[26.1357,-30.4924,1263.1683],[26.1301,-30.5001,1262.1628],[26.1301,-30.5049,1261.528],[26.1319,-30.5074,1262.8372],[26.1367,-30.5098,1261.4854],[26.1435,-30.5104,1261.298],[26.1487,-30.5175,1262.4294],[26.1493,-30.5359,1262.0608],[26.1421,-30.5402,1260.4395],[26.1341,-30.5406,1259.0],[26.1182,-30.5354,1261.2172],[26.1084,-30.5214,1258.5],[26.0974,-30.5165,1258.9163],[26.0696,-30.5235,1258.0],[26.052,-30.5227,1258.0],[26.0295,-30.5321,1258.9365],[25.9991,-30.5369,1258.0],[25.977,-30.5382,1258.0],[25.9552,-30.5471,1258.0],[25.9438,-30.5569,1258.0],[25.9406,-30.5649,1258.0],[25.9413,-30.5796,1258.0],[25.9377,-30.5836,1258.0],[25.931,-30.585,1258.0],[25.923,-30.5813,1258.0],[25.9227,-30.579,1258.0],[25.9268,-30.5713,1258.0],[25.9238,-30.5644,1258.0],[25.903199999999998,-30.5432,1258.0],[25.8952,-30.5406,1258.0],[25.8856,-30.5438,1258.0],[25.8792,-30.549,1258.0],[25.8726,-30.5581,1258.0],[25.8718,-30.5622,1258.0],[25.8748,-30.5728,1258.0],[25.892,-30.5968,1258.0],[25.8932,-30.6045,1258.0],[25.891,-30.6103,1258.0],[25.8873,-30.6122,1258.0],[25.8724,-30.6107,1258.0],[25.8606,-30.6129,1258.0],[25.8562,-30.6175,1258.0],[25.8512,-30.6293,1258.0],[25.8467,-30.6336,1258.0],[25.8338,-30.6324,1258.0],[25.819,-30.635,1258.0],[25.8003,-30.6347,1258.0],[25.793,-30.6371,1258.0],[25.7831,-30.6452,1258.0],[25.7808,-30.649,1258.0],[25.7791,-30.6566,1258.0],[25.7789,-30.6759,1258.0],[25.7769,-30.6816,1258.0],[25.7715,-30.686,1258.0],[25.7642,-30.6885,1258.0],[25.7568,-30.6875,1258.0],[25.7498,-30.6825,1258.0],[25.7166,-30.6825,1258.0],[25.7006,-30.6796,1258.0],[25.6932,-30.6761,1258.0],[25.6797,-30.6662,1258.0],[25.6801,-30.6598,1258.0],[25.6854,-30.6506,1258.0],[25.6853,-30.6471,1258.0],[25.6755,-30.6401,1258.0],[25.6716,-30.6409,1258.0],[25.654,-30.6524,1258.0],[25.6417,-30.6577,1258.0],[25.6298,-30.6593,1258.0],[25.6137,-30.656,1258.0],[25.6101,-30.653,1258.0],[25.6094,-30.6498,1258.0],[25.6229,-30.6324,1258.0],[25.6248,-30.6243,1258.0],[25.617,-30.6189,1258.0],[25.609,-30.6072,1258.0],[25.6031,-30.5944,1258.0],[25.5967,-30.5904,1258.0],[25.5901,-30.5911,1258.0],[25.5738,-30.6095,1258.0],[25.5623,-30.6163,1258.0],[25.5343,-30.6131,1258.0],[25.5256,-30.6139,1258.0],[25.5169,-30.617,1258.0],[25.5037,-30.625,1200.8928],[25.4878,-30.6292,1196.4496],[25.4746,-30.635,1214.2603],[25.4682,-30.6326,1193.457],[25.4671,-30.6243,1193.4626],[25.4625,-30.6281,1267.5371],[25.4565,-30.637,1234.1599],[25.4585,-30.6574,1337.2618],[25.4604,-30.6608,1330.8794],[25.4713,-30.6667,1373.6936],[25.4697,-30.6688,1371.2648],[25.4719,-30.6729,1346.7124],[25.4633,-30.6777,1294.4294],[25.4602,-30.6833,1317.7456],[25.4638,-30.6894,1323.0811],[25.4665,-30.7098,1361.4369],[25.4625,-30.7155,1418.9847],[25.4624,-30.7221,1350.4558],[25.4739,-30.7231,1431.483],[25.4764,-30.7282,1403.8873],[25.4772,-30.7385,1409.2241],[25.4739,-30.7437,1383.6884],[25.4799,-30.7598,1372.3005],[25.4802,-30.7789,1564.3147],[25.4864,-30.7845,1576.1497],[25.505,-30.7836,1341.8887],[25.5084,-30.7888,1355.2605],[25.5249,-30.7964,1341.1456],[25.5479,-30.7898,1315.4014],[25.5493,-30.791,1314.1473],[25.5216,-30.8332,1646.0088],[25.4852,-30.8498,1579.6438],[25.4713,-30.8698,1565.897],[25.5006,-30.888,1554.3239],[25.5084,-30.8982,1492.8271],[25.5165,-30.9026,1452.4563],[25.5178,-30.9015,1469.8131],[25.514,-30.9215,1508.8706],[25.5104,-30.9284,1503.6636],[25.5046,-30.933,1450.573],[25.5083,-30.9422,1418.8153],[25.5064,-30.9503,1425.7302],[25.511,-30.9557,1421.6273],[25.4931,-30.9677,1474.0555],[25.475,-30.9839,1471.2437],[25.4758,-30.9912,1478.9155],[25.4848,-31.0063,1475.2864],[25.5016,-31.0074,1491.2051],[25.4867,-31.0369,1537.8043],[25.4638,-31.0547,1610.9819],[25.4532,-31.0542,1554.201],[25.4388,-31.0615,1686.9421],[25.4543,-31.0793,1752.4609],[25.4464,-31.1002,1582.3335],[25.4156,-31.1344,1625.426],[25.3982,-31.1307,1699.9844],[25.3846,-31.151,1557.4521],[25.3778,-31.1989,1505.3514],[25.3825,-31.2045,1495.1744],[25.3862,-31.2178,1522.6426],[25.3688,-31.226,1504.6309],[25.3544,-31.236,1544.4504],[25.2906,-31.2135,1546.5774],[25.2849,-31.2234,1629.7771],[25.2682,-31.2208,1578.8851],[25.2693,-31.2144,1540.5261],[25.225,-31.1952,1531.1958],[25.2238,-31.1923,1644.1108],[25.2197,-31.1904,1678.2124],[25.211,-31.1921,1688.2432],[25.2043,-31.2017,1655.5734],[25.2096,-31.2048,1677.9592],[25.2048,-31.2151,1655.8621],[25.1984,-31.2155,1665.2009],[25.1924,-31.2134,1614.1019],[25.1791,-31.2222,1700.5833],[25.1771,-31.2346,1665.8903],[25.1705,-31.2392,1677.9944],[25.1552,-31.2311,1644.1982],[25.1527,-31.2431,1649.1681],[25.1307,-31.2394,1710.7781],[25.1152,-31.2463,1806.2477],[25.1008,-31.2595,1678.3296],[25.0844,-31.2623,1641.4702],[25.0735,-31.2533,1606.781],[25.0585,-31.2694,1760.9512],[25.0445,-31.2661,1750.8337],[25.0056,-31.2631,1633.8551],[24.9605,-31.2855,1505.4429],[24.9487,-31.2983,1617.0392],[24.942,-31.3151,1630.5909],[24.9336,-31.3204,1547.2137],[24.9234,-31.3135,1650.4396],[24.9002,-31.3167,1824.2861],[24.8988,-31.3137,1679.495],[24.853,-31.3282,1772.8783],[24.8613,-31.3563,1849.0549],[24.8629,-31.3736,1930.9722],[24.8602,-31.374,1903.4856],[24.8461,-31.3656,1859.677],[24.8255,-31.3565,1763.6152],[24.7887,-31.3895,1779.4895],[24.7243,-31.3999,1566.4132],[24.7106,-31.4095,1697.8529],[24.7048,-31.4006,1725.3347],[24.665,-31.3837,1456.7511],[24.5961,-31.3992,1438.4399],[24.5672,-31.4186,1470.384],[24.5676,-31.4272,1493.8247],[24.5588,-31.4818,1555.3594],[24.5413,-31.4868,1564.6115],[24.5194,-31.4979,1531.7209],[24.533,-31.5098,1542.0477],[24.5245,-31.5454,1678.4871],[24.5039,-31.5684,1738.8201],[24.523,-31.6037,1840.7146],[24.5173,-31.6446,2013.1226],[24.5141,-31.705,2035.5847],[24.5063,-31.7068,2038.8083],[24.4699,-31.7065,2075.168],[24.4412,-31.7126,2028.0349],[24.4126,-31.6885,2007.6428],[24.4233,-31.7116,1953.0288],[24.340699999999998,-31.7138,1966.6567],[24.3247,-31.7241,1887.2975],[24.3224,-31.7418,1935.5333],[24.3153,-31.7501,2029.6655],[24.3016,-31.7583,1945.5553],[24.285,-31.7652,1965.8099],[24.2688,-31.7559,1800.5361],[24.2682,-31.7667,1623.9646],[24.2484,-31.7604,1587.1815],[24.2402,-31.752,1628.8665],[24.226,-31.7474,1804.9862],[24.1616,-31.7402,1968.1346],[24.1474,-31.7673,1743.4369],[24.1543,-31.7983,1845.7866],[24.1837,-31.8133,1628.2136],[24.1798,-31.8194,1662.3403],[24.1598,-31.8231,1607.1871],[24.1548,-31.8225,1629.573],[24.1533,-31.8549,1536.1584],[24.1236,-31.8472,1586.072],[24.1083,-31.8861,1729.2566],[24.1047,-31.8868,1793.1796],[24.1054,-31.9069,1639.2148],[24.1387,-31.9054,1528.6201],[24.1468,-31.9027,1522.4807],[24.1466,-31.8969,1548.1248],[24.1642,-31.9024,1479.5962],[24.1972,-31.9235,1468.3541],[24.1912,-31.9268,1494.8497],[24.188,-31.9336,1461.6674],[24.1998,-31.9426,1483.0154],[24.2054,-31.9417,1492.7097],[24.2224,-31.9556,1488.5005],[24.183,-31.9959,1644.1321],[24.1937,-32.0048,1753.3087],[24.1878,-32.0082,1706.1804],[24.1894,-32.0122,1720.1436],[24.1749,-32.0126,1714.5076],[24.1745,-32.0199,1762.978],[24.1409,-32.0117,1659.3748],[24.1286,-32.0412,1736.4739],[24.1411,-32.0514,1738.3478],[24.1348,-32.0602,1802.1836],[24.1233,-32.0559,1782.775],[24.1119,-32.0616,1737.8376],[24.1126,-32.07,1821.6897],[24.1044,-32.0676,1880.4391],[24.1028,-32.0699,1864.4041],[24.0979,-32.0852,1845.2865],[24.0979,-32.1108,2053.5171],[24.1097,-32.0843,1508.8844],[24.1354,-32.0979,1334.8937],[24.1355,-32.1231,1814.9357],[24.1304,-32.132,1703.1636],[24.1176,-32.1352,1678.366],[24.1022,-32.1488,1838.8894],[24.1129,-32.1509,1523.5972],[24.1001,-32.164,1488.4185],[24.038,-32.1581,2032.7769],[24.0441,-32.1819,1601.3894],[24.0305,-32.1935,1908.0254],[23.9858,-32.1978,1726.5029],[23.9845,-32.1964,1726.5029],[23.9847,-32.1984,1663.1334],[23.9611,-32.2065,1444.609],[23.953,-32.2165,1220.7563],[23.9354,-32.2319,1487.0837],[23.921,-32.2334,1610.6055],[23.8923,-32.255,1591.9761],[23.8645,-32.249,1774.4081],[23.8511,-32.2425,1593.5292],[23.7978,-32.1941,1607.899],[23.7662,-32.1787,1379.7062],[23.7471,-32.2007,1271.1455],[23.7261,-32.2085,1112.3767],[23.7082,-32.2192,1157.6567],[23.6924,-32.2335,1146.474],[23.6705,-32.2377,1014.3979],[23.6489,-32.298,985.5958],[23.6569,-32.3039,980.0035],[23.6784,-32.3291,932.4925],[23.6651,-32.3442,918.7472],[23.5918,-32.3408,906.5576],[23.5236,-32.3288,890.5175],[23.449,-32.3233,1027.1962],[23.4247,-32.3562,1144.7106],[23.4098,-32.3892,1144.3912],[23.3493,-32.3644,1250.9423],[23.333,-32.3511,1227.8136],[23.3073,-32.3959,930.8704],[23.2872,-32.4042,920.8407],[23.2721,-32.4007,918.8413],[23.2216,-32.425,889.6756],[23.2475,-32.4653,898.2769],[23.2445,-32.5132,906.355],[23.2882,-32.5512,896.0569],[23.3073,-32.6116,910.5219],[23.3013,-32.6518,885.3963],[23.2696,-32.6715,880.832],[23.3329,-32.7036,853.9132],[23.3535,-32.7294,831.3633],[23.3516,-32.7638,806.8699],[23.3977,-32.7635,830.0782],[23.3786,-32.825,824.6968],[23.3052,-32.8095,793.2446],[23.2504,-32.7886,810.2542],[23.2011,-32.7854,800.0457],[23.1875,-32.7674,813.3972],[23.1493,-32.7667,800.1511],[23.0893,-32.7992,775.0548],[23.1164,-32.858,769.9338],[23.098,-32.8737,784.8064],[23.0074,-32.8728,822.5931],[23.0037,-32.8983,839.9606],[22.9487,-32.95,900.505],[22.9692,-32.9934,931.4141],[22.9352,-33.013,964.5876],[22.9341,-33.0217,963.0685],[22.9578,-33.0451,951.9357],[22.9553,-33.0731,905.4634],[22.8923,-33.1416,814.6013],[22.8772,-33.1869,795.798],[22.8402,-33.2202,784.0733],[22.7903,-33.3073,1240.9688],[22.7739,-33.309,1282.9666],[22.7734,-33.3263,927.4442],[22.7393,-33.324,969.896],[22.7375,-33.379,1139.3157],[22.7357,-33.3948,1250.6603],[22.7845,-33.4155,1518.6439],[22.7744,-33.4197,1726.3988],[22.8302,-33.4191,1582.573],[22.9348,-33.4291,1329.7561],[23.0664,-33.4002,1342.2808],[23.1129,-33.4008,712.7439],[23.1348,-33.3876,1261.8893],[23.1954,-33.3862,1343.2812],[23.2971,-33.3886,1412.838],[23.318,-33.4065,797.1608],[23.3641,-33.4618,946.7415],[23.3549,-33.4412,1164.3185],[23.3738,-33.4454,1298.709],[23.3934,-33.4457,1446.6697],[23.4233,-33.442,1531.4709],[23.4676,-33.4481,1666.9607],[23.4956,-33.4434,1543.9846],[23.5142,-33.4627,1305.5309],[23.579,-33.4847,1017.985],[23.5786,-33.4857,1006.7021],[23.604,-33.4964,1089.1108],[23.6061,-33.5033,1130.0388],[23.6001,-33.5275,1082.5597],[23.5962,-33.5725,1219.0853],[23.6168,-33.5696,1267.3081],[23.6199,-33.5915,1605.3247],[23.675,-33.6259,1639.1666],[23.6704,-33.6726,1423.2118],[23.6288,-33.6693,1379.7428],[23.5859,-33.6727,808.3015],[23.5565,-33.6515,1490.1682],[23.5555,-33.673,866.9359],[23.5417,-33.683,917.9988],[23.5413,-33.6995,934.3683],[23.4754,-33.7177,825.5453],[23.4399,-33.7174,674.1986],[23.4301,-33.7618,918.2767],[23.395,-33.7926,1531.998],[23.417,-33.7947,1483.1555],[23.4277,-33.7991,1433.801],[23.4542,-33.8032,1441.7334],[23.4681,-33.8075,1305.2169],[23.4891,-33.8075,1397.4746],[23.488,-33.7915,1146.9363],[23.5179,-33.7856,990.0314],[23.5188,-33.7821,891.1888],[23.5574,-33.7934,882.9922],[23.554,-33.7964,953.5518],[23.562,-33.8289,1192.7241],[23.6081,-33.8329,1245.543],[23.6203,-33.8432,1361.8075],[23.7033,-33.8641,1559.9653],[23.7006,-33.8674,1336.0996],[23.6943,-33.868,963.8948],[23.6881,-33.8789,593.9024],[23.683,-33.884,485.6746],[23.671,-33.8835,446.726],[23.6692,-33.8854,459.0551],[23.6666,-33.8847,420.1198],[23.658,-33.8877,393.7539],[23.6559,-33.8868,395.5769],[23.6516,-33.8927,371.5045],[23.6474,-33.8928,390.3791],[23.6488,-33.8945,394.456],[23.6476,-33.8967,365.1198],[23.6497,-33.8989,335.5349],[23.6569,-33.9022,317.4205],[23.655,-33.9037,290.7705],[23.6577,-33.9049,283.0818],[23.6568,-33.9069,285.8661],[23.6523,-33.9096,326.3776],[23.6399,-33.9097,275.2938],[23.6374,-33.913,261.991],[23.6428,-33.9198,276.7454],[23.6432,-33.9223,258.4451],[23.64,-33.9242,262.2729],[23.6439,-33.9275,198.4251],[23.6447,-33.9307,209.6139],[23.6432,-33.9319,164.1065],[23.6399,-33.931,218.707],[23.6406,-33.9332,253.899],[23.637,-33.9347,116.6763],[23.6385,-33.9372,128.582],[23.6351,-33.94,120.3266],[23.636,-33.9433,123.0615],[23.6346,-33.952,89.6564],[23.6377,-33.9552,74.1066],[23.6409,-33.9548,72.6825],[23.6459,-33.9624,39.9032],[23.6444,-33.9638,88.8365],[23.6474,-33.9727,49.2274],[23.6454,-33.9758,46.8546],[23.6475,-33.9772,26.694],[23.6469,-33.981,3.945],[23.666,-33.9826,33.2161],[23.6754,-33.986,2.2199],[23.6904,-33.9865,0.0],[23.6993,-33.9896,0.0],[23.7026,-33.989,61.8733],[23.7054,-33.9921,0.0],[23.7204,-33.9926,31.4977],[23.7301,-33.996,7.6431],[23.7357,-33.9951,0.8263],[23.7371,-33.9974,33.8947],[23.7415,-33.9985,0.0],[23.7574,-33.9999,3.5932],[23.7621,-34.0043,5.4022],[23.7654,-34.0046,0.0],[23.7671,-34.0029,10.2602],[23.7707,-34.0065,0.0],[23.7768,-34.0082,0.0],[23.7857,-34.0068,1.7738],[23.7976,-34.0115,0.0],[23.8043,-34.009,10.1695],[23.8118,-34.0121,0.0],[23.8218,-34.0126,25.1163],[23.8246,-34.0163,0.0],[23.8404,-34.0168,3.5573],[23.8479,-34.0199,0.0],[23.8621,-34.0215,0.0],[23.8785,-34.0207,22.939],[23.8913,-34.0249,0.0],[23.8974,-34.0237,3.306],[23.9024,-34.0207,10.1369],[23.9121,-34.0237,7.208],[23.9488,-34.0282,0.0],[23.9646,-34.0329,2.4523],[23.9668,-34.0321,6.7162],[23.9762,-34.0346,0.0],[23.9837,-34.0346,0.0],[23.9943,-34.0379,15.6815],[24.0093,-34.0379,6.1818],[24.0171,-34.0401,0.0],[24.0268,-34.039,13.6622],[24.071,-34.0474,3.673],[24.0785,-34.0446,0.0],[24.081,-34.0485,0.0],[24.0976,-34.0488,10.031],[24.1063,-34.0521,0.0],[24.1132,-34.0521,1.2316],[24.1201,-34.056,5.4637],[24.1285,-34.0537,0.5237],[24.1296,-34.051,26.0217],[24.134,-34.0537,0.0],[24.1493,-34.0532,0.0],[24.1729,-34.0585,0.0],[24.1824,-34.0585,0.0],[24.1885,-34.0607,5.4436],[24.1951,-34.0599,6.0614],[24.2049,-34.0676,1.0607],[24.2151,-34.0718,0.0],[24.2243,-34.0732,0.0],[24.2313,-34.0765,2.8775],[24.2321,-34.0785,0.0],[24.2443,-34.0793,4.3618],[24.2465,-34.0821,0.0],[24.2538,-34.0843,0.0],[24.2604,-34.0843,11.2705],[24.2676,-34.0876,1.2344],[24.2729,-34.0874,1.245],[24.2754,-34.0904,0.0],[24.2926,-34.0932,0.0],[24.2965,-34.0949,0.0],[24.2993,-34.0985,0.0],[24.3113,-34.1021,0.0],[24.3274,-34.1035,0.0],[24.3382,-34.1021,15.7201],[24.3451,-34.104,0.0],[24.3526,-34.1029,48.4343],[24.3587,-34.1046,0.0],[24.3813,-34.1037,6.5322],[24.3824,-34.1057,0.0],[24.3865,-34.1063,1.4408],[24.3879,-34.1085,0.0],[24.4004,-34.1154,6.001],[24.3999,-34.1171,0.3157],[24.4018,-34.1185,0.0],[24.4104,-34.1193,9.1495],[24.4274,-34.1276,4.3014],[24.439,-34.1362,20.6279],[24.4404,-34.1379,9.354],[24.4399,-34.1418,0.0],[24.4593,-34.1512,1.925],[24.464,-34.1562,0.0],[24.474,-34.1626,-0.01],[24.5004,-34.1693,0.0],[24.5032,-34.1715,0.0],[24.5146,-34.1735,0.0],[24.5207,-34.1707,0.054],[24.534,-34.1757,0.0],[24.5515,-34.176,-0.1707],[24.5843,-34.1874,0.0],[24.5974,-34.1888,0.0],[24.6082,-34.1918,0.0],[24.6076,-34.1832,0.0],[24.6149,-34.1757,1.1691],[24.6218,-34.1732,0.897],[24.6421,-34.1715,1.9662],[24.6621,-34.176,10.3931],[24.6957,-34.1918,0.0],[24.715699999999998,-34.1949,0.0],[24.7174,-34.1904,2.1096],[24.7232,-34.1876,3.4201],[24.7343,-34.1862,11.2207],[24.7385,-34.1893,0.0],[24.7693,-34.1999,0.0],[24.7768,-34.199,0.2913],[24.7793,-34.2015,0.0],[24.7857,-34.2015,0.0],[24.7918,-34.1982,0.0],[24.7949,-34.1982,0.0],[24.799,-34.2012,0.0],[24.8035,-34.2015,0.0],[24.8088,-34.2057,0.0],[24.8257,-34.211,6.6813],[24.8324,-34.2174,0.0],[24.8332,-34.2146,0.0],[24.839,-34.2154,0.0],[24.8385,-34.2118,0.0],[24.8401,-34.211,0.0],[24.834,-34.2057,0.0],[24.834,-34.2032,0.0],[24.8415,-34.1957,6.104],[24.8493,-34.1929,7.2162],[24.861,-34.1949,0.0],[24.8638,-34.1968,0.0],[24.8696,-34.1954,0.0],[24.8593,-34.1888,0.0],[24.854,-34.1832,0.5255],[24.8426,-34.1774,0.0],[24.8326,-34.1685,13.9983],[24.8337,-34.1613,8.2618],[24.8399,-34.151,0.8979],[24.8404,-34.1468,0.0],[24.8382,-34.1449,0.0],[24.8393,-34.1418,0.0],[24.8412,-34.1424,0.0],[24.8499,-34.1387,1.3057],[24.8643,-34.1235,5.7455],[24.8779,-34.1154,0.0],[24.8793,-34.1132,0.0],[24.8857,-34.1107,0.0],[24.8988,-34.0946,1.3823],[24.9068,-34.0885,0.0],[24.9037,-34.086,0.0]]],
[[[25.6446,-33.9549,0.0],[25.6435,-33.9535,0.0],[25.6451,-33.9571,0.0],[25.6454,-33.9562,0.0],[25.6446,-33.9549,0.0]]],
[[[26.2882,-33.839,1.5805],[26.2851,-33.8374,0.0],[26.2821,-33.8385,0.0],[26.2857,-33.844,0.0],[26.2901,-33.8435,0.0],[26.2904,-33.8407,0.0443],[26.2882,-33.839,1.5805]]],
[[[26.2626,-33.839,0.0],[26.2649,-33.8382,0.0],[26.2604,-33.8379,0.0],[26.2607,-33.839,0.0],[26.2626,-33.839,0.0]]],
[[[26.2821,-33.8326,0.0],[26.276,-33.8318,0.0],[26.2738,-33.8351,0.0],[26.2768,-33.8357,0.2518],[26.2793,-33.8335,0.0861],[26.2854,-33.834,0.1142],[26.2821,-33.8326,0.0]]],
[[[25.7046,-33.8063,0.0],[25.7054,-33.8051,0.1775],[25.704,-33.8037,0.0],[25.7038,-33.8063,0.0],[25.7046,-33.8063,0.0]]],
[[[25.7712,-33.7985,16.42],[25.7674,-33.7968,1.8289],[25.7668,-33.8001,1.054],[25.7726,-33.8021,0.0],[25.7732,-33.7996,0.0],[25.7712,-33.7985,16.42]]],
[[[29.969,-31.3276,0.1592],[29.9687,-31.3251,0.0],[29.9674,-31.3249,0.0],[29.9668,-31.3293,0.0],[29.9682,-31.3296,0.0],[29.969,-31.3276,0.1592]]],
[[[30.1943,-31.0784,6.4258],[30.1943,-31.0785,6.4258],[30.1944,-31.0785,6.4258],[30.1943,-31.0784,6.4258],[30.1943,-31.0784,6.4258]]]]}}