{"type":"Feature","properties":{"ISO3166-1-Alpha-3":"ZAF","country":"South Africa","fill":"#F00","id":"1926","name":"Eastern Cape"},
"geometry":{"type": "MultiPolygon","coordinates": [[[[29.70127,-30.07816,1022.9302],[29.65409,-30.06664,1084.7195],[29.57848,-30.03217,1283.1987],[29.55445,-30.02556,1405.2125],[29.53864,-30.02401,1510.7993],[29.49952,-29.99646,1468.2555],[29.49053,-30.00204,1550.5964],[29.47146,-30.02354,1617.5759],[29.47642,-30.03956,1611.3665],[29.48619,-30.05217,1434.8907],[29.48309,-30.07021,1909.5685],[29.44493,-30.11254,1839.0789],[29.44189,-30.14197,1785.6863],[29.44366,-30.17795,1829.2349],[29.48355,-30.20751,1783.5537],[29.50293,-30.22777,1786.8727],[29.51709,-30.25583,1630.6317],[29.51833,-30.27763,1621.728],[29.54391,-30.35153,1466.8049],[29.58598,-30.39427,1506.5245],[29.63171,-30.50263,1445.0845],[29.68153,-30.514,1389.2534],[29.70499,-30.51416,1374.2522],[29.74922,-30.50062,1002.3277],[29.77914,-30.4969,1015.772],[29.81377,-30.5031,863.9293],[29.84059,-30.51648,860.2825],[29.87009,-30.53607,1022.096],[29.89102,-30.54403,868.4783],[29.91929,-30.54826,858.4728],[29.95355,-30.56692,918.6614],[29.96719,-30.56961,851.6448],[29.97701,-30.56775,841.3314],[29.99407,-30.55726,829.6106],[30.0029,-30.54671,840.5798],[30.0122,-30.53059,702.807],[30.0167,-30.5031,465.8357],[30.02187,-30.48708,650.1455],[30.02435,-30.47488,718.6566],[30.03954,-30.4724,602.9889],[30.04311,-30.46388,413.2401],[30.0428,-30.45861,478.1764],[30.04171,-30.45091,479.5374],[30.03892,-30.44052,430.4737],[30.03892,-30.43354,554.7485],[30.04109,-30.42894,634.9207],[30.04574,-30.42812,517.3571],[30.05597,-30.43091,525.9766],[30.0614,-30.43127,667.6815],[30.06698,-30.43013,624.3604],[30.0707,-30.42693,561.709],[30.07365,-30.42279,651.9562],[30.07603,-30.41814,694.1593],[30.07913,-30.41406,709.5469],[30.08264,-30.41086,629.8087],[30.0875,-30.41003,663.516],[30.0923,-30.41127,629.0802],[30.10129,-30.4167,490.5655],[30.1061,-30.41783,522.4011],[30.11029,-30.41639,578.2532],[30.11122,-30.41205,689.9568],[30.11044,-30.40667,691.0566],[30.10641,-30.39603,649.7561],[30.10176,-30.3892,633.2048],[30.09432,-30.38156,602.874],[30.07789,-30.36921,584.8677],[30.06807,-30.36399,571.3285],[30.0597,-30.36073,660.2373],[30.05427,-30.35696,649.3457],[30.04977,-30.35143,606.1428],[30.04652,-30.34001,590.799],[30.0476,-30.33334,618.8494],[30.05024,-30.32802,584.1879],[30.0538,-30.3242,653.7573],[30.0569,-30.32001,730.4886],[30.05799,-30.31598,606.2166],[30.05644,-30.31184,659.5573],[30.04853,-30.30983,655.4817],[30.04125,-30.30905,915.843],[30.03396,-30.30998,854.3358],[30.02915,-30.31272,955.8607],[30.0228,-30.32032,872.4913],[30.01872,-30.32228,752.4641],[30.01438,-30.32109,733.7723],[30.00507,-30.31608,821.8802],[30.00058,-30.31257,851.5829],[29.99717,-30.30823,733.5099],[29.99608,-30.30053,730.754],[29.9967,-30.2952,750.9474],[29.99391,-30.28854,868.8444],[29.98864,-30.28229,747.0443],[29.97639,-30.2734,766.5341],[29.96843,-30.27081,793.3275],[29.96099,-30.26988,786.6418],[29.95588,-30.26983,784.4849],[29.95309,-30.26942,742.0029],[29.94859,-30.26647,725.6873],[29.92115,-30.24322,749.2308],[29.91976,-30.24156,763.8433],[29.91805,-30.23846,781.0398],[29.92022,-30.23273,763.774],[29.92379,-30.2287,801.7749],[29.92952,-30.22642,734.4365],[29.93557,-30.22591,783.4655],[29.94022,-30.22668,798.1143],[29.94254,-30.2273,782.5224],[29.94518,-30.22839,744.6559],[29.94844,-30.22921,739.1189],[29.95278,-30.22921,756.6571],[29.95386,-30.22596,749.8649],[29.94983,-30.21945,744.5107],[29.92813,-30.2009,762.0715],[29.92038,-30.19252,754.3374],[29.90575,-30.16948,780.5101],[29.89598,-30.16214,965.3728],[29.87924,-30.15609,948.742],[29.87599,-30.15444,925.3367],[29.86777,-30.14917,886.0015],[29.86296,-30.14364,873.2563],[29.85826,-30.13604,877.8372],[29.8457,-30.09796,950.6812],[29.83919,-30.08762,990.5683],[29.8226,-30.07599,955.2797],[29.79015,-30.08664,1090.4136],[29.77496,-30.08679,1083.1185],[29.70127,-30.07816,1022.9302]]],
[[[29.11391,-30.12111,1650.5018],[29.11779,-30.11682,1565.1018],[29.12089,-30.11113,1571.5682],[29.12228,-30.10209,1614.5247],[29.12275,-30.09465,1639.0889],[29.12042,-30.08623,1744.92],[29.11562,-30.07811,1783.2231],[29.07361,-30.04519,2182.5046],[29.02255,-29.98959,2361.4766],[29.01579,-29.97859,2261.7886],[28.9763,-29.99992,2227.6338],[28.86003,-30.06638,2158.376],[28.79564,-30.08943,2132.2576],[28.72949,-30.10183,2090.1445],[28.63968,-30.13149,2181.2161],[28.60588,-30.13129,2137.7476],[28.55731,-30.11496,2292.0889],[28.54056,-30.1133,2172.002],[28.52434,-30.11671,2328.3792],[28.48093,-30.13935,2171.7551],[28.45623,-30.147,2150.0735],[28.40796,-30.1409,2599.2559],[28.38388,-30.14421,2560.8088],[28.36409,-30.15929,2735.042],[28.3556,-30.17324,2611.2808],[28.33866,-30.20105,2382.4456],[28.323,-30.21469,2392.5776],[28.3137,-30.22079,2283.4082],[28.3013,-30.2365,2398.1882],[28.29438,-30.24249,2332.6812],[28.28471,-30.24621,2368.634],[28.25531,-30.24994,2484.8315],[28.23702,-30.25634,2624.6294],[28.21603,-30.2674,2555.8091],[28.20063,-30.28249,2535.1816],[28.19846,-30.3011,2655.2781],[28.20942,-30.31463,2539.6533],[28.2241,-30.32053,2545.9414],[28.23577,-30.32941,2467.4307],[28.23846,-30.35225,2630.5691],[28.23143,-30.37386,2507.7043],[28.2182,-30.38739,2627.217],[28.13325,-30.44538,2842.4241],[28.12539,-30.45726,2790.9346],[28.12756,-30.46512,2655.7461],[28.13924,-30.48269,2598.5735],[28.14245,-30.49261,2431.9956],[28.14121,-30.50077,2360.4971],[28.12426,-30.54728,2472.2544],[28.12085,-30.55338,2554.8425],[28.11284,-30.56247,2628.7634],[28.10488,-30.56837,2889.6116],[28.09635,-30.5724,2824.4392],[28.08803,-30.57756,2754.1353],[28.08157,-30.58687,2574.917],[28.07584,-30.60702,2439.3721],[28.07651,-30.62325,2625.0891],[28.07899,-30.63927,2594.4385],[28.07878,-30.6588,2723.6885],[28.0547,-30.6497,2658.3499],[27.93657,-30.64082,2869.9336],[27.91559,-30.63492,2758.8423],[27.89564,-30.62624,2548.355],[27.88613,-30.61973,2491.2898],[27.87828,-30.61291,2063.7224],[27.8698,-30.60712,2436.9375],[27.85823,-30.60371,2326.3584],[27.84955,-30.60495,2261.8206],[27.83042,-30.61312,1854.6057],[27.8204,-30.61456,1873.9438],[27.77844,-30.60971,1814.5193],[27.74361,-30.6003,1678.3477],[27.71353,-30.58377,1669.2675],[27.65953,-30.53054,1528.5065],[27.5986,-30.49033,1515.4976],[27.5923,-30.48186,1690.4196],[27.59065,-30.47287,1834.5635],[27.59013,-30.46388,1544.7848],[27.58682,-30.45499,1483.7021],[27.56274,-30.42553,1413.6428],[27.53659,-30.40321,1450.3303],[27.53336,-30.39342,1435.9739],[27.52967,-30.38223,1409.6887],[27.49318,-30.36765,1441.855],[27.47747,-30.35629,1391.8097],[27.46673,-30.34109,1503.1453],[27.45939,-30.3166,1446.4543],[27.4521,-30.31009,1438.2825],[27.43603,-30.30988,1455.5542],[27.41484,-30.31753,1417.2456],[27.40781,-30.31856,1492.6382],[27.39763,-30.31722,1401.5562],[27.37771,-30.31232,1486.5189],[27.3766,-30.31319,1472.1069],[27.36916,-30.3135,1464.0504],[27.36219,-30.31489,1439.9517],[27.34932,-30.32001,1422.0143],[27.36188,-30.34166,1420.5134],[27.3704,-30.36099,1443.4478],[27.38058,-30.35494,1441.1079],[27.38999,-30.35417,1510.1066],[27.3981,-30.35851,1447.5408],[27.40456,-30.36781,1423.1918],[27.38942,-30.38636,1528.298],[27.36849,-30.3876,1490.5154],[27.3458,-30.38502,1425.5011],[27.32539,-30.39199,1418.176],[27.32338,-30.4091,1473.6909],[27.34327,-30.42155,1455.1517],[27.3566,-30.43215,1454.2983],[27.335,-30.44352,1531.7314],[27.3272,-30.4415,1492.3513],[27.30245,-30.43075,1493.7015],[27.2947,-30.42987,1471.9672],[27.28648,-30.4398,1506.9529],[27.28989,-30.44858,1460.5881],[27.29986,-30.45478,1444.2395],[27.31175,-30.45721,1476.3391],[27.31681,-30.46191,1425.8505],[27.31139,-30.47245,1420.3428],[27.2978,-30.48822,1416.7681],[27.28927,-30.49178,1492.6088],[27.27661,-30.49271,1560.2802],[27.2531,-30.49132,1370.921],[27.25289,-30.48946,1372.3739],[27.24912,-30.48506,1352.9717],[27.244,-30.48031,1342.4821],[27.23945,-30.47767,1439.6669],[27.23439,-30.47767,1420.1864],[27.23113,-30.48336,1365.4639],[27.22643,-30.48512,1378.7908],[27.20917,-30.48537,1367.9978],[27.20106,-30.48987,1427.0426],[27.18793,-30.50186,1573.1018],[27.14695,-30.49876,1502.1259],[27.13192,-30.50165,1358.3394],[27.13176,-30.50863,1335.551],[27.13667,-30.51741,1481.4155],[27.13641,-30.52547,1331.7482],[27.11693,-30.5386,1406.3987],[27.09869,-30.5371,1460.2059],[27.07962,-30.52982,1403.1116],[27.05791,-30.52547,1433.2443],[27.01042,-30.53292,1385.5768],[26.99869,-30.53834,1356.9917],[27.00608,-30.55012,1430.5746],[27.02717,-30.56707,1471.4564],[27.03352,-30.5863,1466.0555],[27.02474,-30.59079,1452.7468],[26.98619,-30.58754,1556.213],[26.96557,-30.59364,1413.845],[26.94743,-30.6064,1306.0],[26.93834,-30.62345,1359.0443],[26.94526,-30.64278,1370.3762],[26.9343,-30.65188,1403.4586],[26.9218,-30.65534,1382.7816],[26.89374,-30.65518,1400.0757],[26.87772,-30.65859,1308.0205],[26.86433,-30.67348,1333.6978],[26.85214,-30.67689,1325.2596],[26.83493,-30.67048,1320.9381],[26.82258,-30.65684,1359.1014],[26.80713,-30.64469,1321.2378],[26.78077,-30.64278,1313.7926],[26.77276,-30.64666,1309.8806],[26.75184,-30.6603,1310.1565],[26.74259,-30.66324,1298.2471],[26.73499,-30.66278,1302.1035],[26.73111,-30.662,1316.7396],[26.72708,-30.66185,1308.0997],[26.71933,-30.66324,1324.8885],[26.71261,-30.66645,1358.1216],[26.70269,-30.67513,1346.9199],[26.69478,-30.67689,1341.3479],[26.68336,-30.67503,1303.0111],[26.67732,-30.67131,1296.7092],[26.67065,-30.66852,1308.9781],[26.65722,-30.66945,1315.5369],[26.63644,-30.67864,1315.3291],[26.62792,-30.67978,1292.1562],[26.63613,-30.66945,1291.6138],[26.63613,-30.66324,1340.9418],[26.61773,-30.65627,1290.8092],[26.59588,-30.6541,1313.0034],[26.55076,-30.65518,1302.2372],[26.53459,-30.6511,1283.9664],[26.49159,-30.63027,1282.3782],[26.47971,-30.62164,1286.5537],[26.47692,-30.61451,1300.8007],[26.47227,-30.58754,1287.0887],[26.45738,-30.57064,1313.0143],[26.44829,-30.56284,1308.193],[26.44157,-30.55958,1330.8461],[26.31145,-30.58154,1269.4368],[26.28018,-30.57917,1272.4353],[26.26623,-30.5633,1281.3656],[26.25993,-30.54299,1290.1172],[26.24432,-30.53555,1268.3962],[26.22432,-30.5325,1267.3191],[26.20474,-30.52547,1293.4457],[26.19337,-30.51338,1265.0641],[26.185,-30.50015,1267.1248],[26.17187,-30.48946,1263.334],[26.14639,-30.48512,1260.8506],[26.13937,-30.49375,1269.2056],[26.14076,-30.51142,1261.3229],[26.13549,-30.5261,1301.3884],[26.10857,-30.52547,1261.0762],[26.07286,-30.51416,1270.8716],[26.05989,-30.51385,1261.7213],[26.00289,-30.52842,1258.0],[25.98594,-30.53498,1258.0],[25.97199,-30.54532,1258.2864],[25.96113,-30.55369,1258.0],[25.95602,-30.55757,1258.0],[25.93819,-30.5663,1270.2289],[25.90729,-30.54465,1258.0],[25.90062,-30.54268,1258.0],[25.89225,-30.5417,1258.0],[25.87938,-30.54821,1258.0],[25.87452,-30.55209,1258.0],[25.87127,-30.55658,1258.0],[25.87003,-30.56175,1258.0],[25.87049,-30.56728,1258.0],[25.87359,-30.57829,1258.0],[25.87442,-30.58433,1258.0],[25.86274,-30.59824,1281.61],[25.83964,-30.61741,1263.5817],[25.77618,-30.65813,1258.0],[25.74544,-30.67301,1258.0],[25.72544,-30.68056,1258.0],[25.69702,-30.67725,1258.0],[25.68508,-30.67358,1258.0],[25.6657,-30.66257,1259.0762],[25.65996,-30.66092,1258.0],[25.63449,-30.65653,1258.0],[25.62922,-30.6542,1258.0],[25.62519,-30.65084,1258.0],[25.62255,-30.64624,1258.0],[25.62084,-30.64077,1258.0],[25.61728,-30.61632,1258.0],[25.61526,-30.61095,1258.0],[25.61123,-30.6063,1258.0],[25.5794,-30.60252,1258.0],[25.5224,-30.60862,1258.0],[25.50586,-30.608,1258.0],[25.46747,-30.61312,1226.1974],[25.48302,-30.7558,1348.5569],[25.50106,-30.77492,1326.9348],[25.52199,-30.80189,1350.843],[25.51563,-30.82416,1419.9387],[25.4916,-30.85011,1574.9868],[25.48819,-30.86985,1557.1233],[25.49873,-30.89506,1534.4904],[25.50664,-30.93444,1438.7499],[25.49966,-30.95878,1449.8451],[25.47233,-30.99573,1461.5969],[25.47729,-31.02963,1489.5254],[25.46582,-31.05159,1595.2839],[25.45062,-31.07097,1720.3538],[25.44551,-31.09516,1622.959],[25.42298,-31.12533,1585.0001],[25.38716,-31.16068,1560.162],[25.37926,-31.2107,1490.8701],[25.35006,-31.22771,1497.0138],[25.21508,-31.20156,1578.9928],[25.06331,-31.2644,1759.9971],[24.98326,-31.27897,1518.4152],[24.96802,-31.28388,1494.3455],[24.91215,-31.32016,1656.295],[24.87169,-31.33561,1863.1133],[24.84777,-31.36031,1832.4249],[24.80896,-31.3692,1679.2286],[24.76524,-31.38909,1604.1215],[24.69589,-31.39793,1552.493],[24.55869,-31.4018,1437.9764],[24.55791,-31.42299,1450.4681],[24.54396,-31.47301,1480.3423],[24.52437,-31.49756,1525.7401],[24.51259,-31.55296,1584.2281],[24.49957,-31.70483,1982.4745],[24.33462,-31.7193,1866.6689],[24.24165,-31.74917,1628.9653],[24.1816,-31.74886,1694.4897],[24.15432,-31.75801,1757.3231],[24.14703,-31.78989,1779.3743],[24.15773,-31.81697,1695.3264],[24.14812,-31.82348,1673.3103],[24.14207,-31.84467,1562.8064],[24.12977,-31.85754,1559.188],[24.1259,-31.88829,1586.783],[24.1523,-31.90089,1510.6259],[24.17401,-31.92668,1485.505],[24.1816,-31.95164,1534.9175],[24.15618,-31.98301,1577.4357],[24.14083,-31.99572,1615.725],[24.12233,-32.00311,1622.8495],[24.11365,-32.01675,1589.4258],[24.11474,-32.029,1693.8395],[24.1107,-32.04807,1669.8706],[24.09799,-32.06073,1682.8035],[24.09815,-32.08409,1803.0249],[24.10032,-32.09938,1914.1461],[24.09009,-32.12481,2077.2073],[24.05081,-32.14346,1906.5503],[24.0288,-32.17457,2107.1465],[23.8854,-32.22801,1636.8788],[23.84473,-32.22206,1613.8356],[23.75708,-32.19592,1173.1084],[23.72168,-32.20852,1102.8193],[23.67373,-32.23932,1007.538],[23.63606,-32.30692,958.2776],[23.60159,-32.32474,917.3894],[23.44702,-32.3402,921.3785],[23.39845,-32.36087,1102.1896],[23.32538,-32.35456,998.2739],[23.28796,-32.39182,923.613],[23.24254,-32.42453,893.7599],[23.23737,-32.46226,900.8636],[23.23706,-32.5053,903.1038],[23.26207,-32.5421,893.7697],[23.27618,-32.58638,887.6563],[23.28223,-32.62028,900.037],[23.278199999999998,-32.66751,869.005],[23.311889999999998,-32.70116,851.7666],[23.32894,-32.73459,821.7114],[23.37039,-32.76823,812.4283],[23.32693,-32.80771,781.9669],[23.26192,-32.80322,789.2123],[23.19505,-32.80802,781.467],[23.14446,-32.82719,770.6416],[23.1243,-32.83262,765.1934],[23.1148,-32.8335,766.1942],[23.10224,-32.82161,770.8067],[23.09464,-32.81118,773.9166],[23.08736,-32.79665,775.6265],[23.0841,-32.79268,776.9404],[23.08022,-32.78895,778.2253],[23.07619,-32.7857,779.4365],[23.07201,-32.78162,779.9606],[23.06901,-32.78027,780.6243],[23.06798,-32.78642,779.9495],[23.07325,-32.81061,780.942],[23.07418,-32.84585,785.8527],[23.05924,-32.86755,797.83],[23.0225,-32.87804,818.5093],[23.00075,-32.88921,832.1046],[22.95326,-32.94373,891.9268],[22.94752,-32.97447,925.828],[22.9162,-33.01406,963.567],[22.93124,-33.05555,929.0002],[22.91574,-33.0956,875.0598],[22.74521,-33.32789,920.1084],[22.73663,-33.36303,921.9332],[22.74955,-33.40158,1422.036],[22.9053,-33.40494,1006.018],[23.02948,-33.39,908.1083],[23.26161,-33.39889,852.6858],[23.43741,-33.43264,1291.8995],[23.51172,-33.46064,1401.1584],[23.5634,-33.49599,998.3845],[23.58283,-33.56405,1176.2998],[23.63249,-33.61981,1522.2688],[23.61818,-33.64404,890.8071],[23.43726,-33.712,747.4033],[23.41586,-33.73241,758.7022],[23.40387,-33.74724,815.4685],[23.36651,-33.78073,1055.7292],[23.4571,-33.78801,1043.8835],[23.48227,-33.78021,793.0583],[23.50692,-33.78378,895.5212],[23.54418,-33.79633,1120.9709],[23.5634,-33.82171,942.7941],[23.68675,-33.87204,860.2349],[23.63993,-33.93493,157.3672],[23.639,-33.94888,208.5735],[23.63993,-33.98046,73.5564],[23.63993,-33.98054,73.5564],[23.813,-34.01442,0.0],[23.91961,-34.02353,25.7439],[23.96266,-34.03688,0.0],[23.98422,-34.04111,0.0],[24.1631,-34.05478,42.9748],[24.22788,-34.07789,0.0],[24.24171,-34.08611,0.0],[24.25913,-34.09417,0.0],[24.38087,-34.10638,0.0],[24.40016,-34.11256,103.9009],[24.43523,-34.13893,0.0],[24.47853,-34.15781,56.2717],[24.56495,-34.17693,18.0203],[24.58399,-34.17832,21.1219],[24.64723,-34.16823,6.7771],[24.67026,-34.17083,60.1085],[24.72535,-34.18328,21.6049],[24.79371,-34.18475,68.7759],[24.81471,-34.19069,50.4029],[24.82732,-34.20566,20.7468],[24.83416,-34.20566,0.0],[24.84083,-34.19801,0.0],[24.85792,-34.18694,5.0736],[24.86134,-34.17832,0.0],[24.85711,-34.17116,0.0],[24.84767,-34.16627,0.0],[24.83823,-34.15976,0.0],[24.83416,-34.14764,2.7172],[24.84108,-34.1325,19.38],[24.88868,-34.09637,3.1794],[24.89926,-34.08961,10.2409],[24.91635,-34.07236,5.1398],[24.92742,-34.05234,0.0],[24.91334,-34.01133,64.7265],[24.92905,-33.99586,2.2143],[24.95289,-33.98512,20.7295],[25.01149,-33.97096,1.2112],[25.10108,-33.96054,16.917],[25.19264,-33.96217,15.5355],[25.27752,-33.98113,40.076],[25.31381,-33.99334,47.4998],[25.34799,-34.01442,0.0],[25.38356,-34.01963,24.6524],[25.41049,-34.03297,0.0],[25.43539,-34.03289,24.1938],[25.4852,-34.02752,33.7059],[25.51393,-34.03151,31.8788],[25.56691,-34.04551,0.0],[25.59816,-34.04852,0.0],[25.6242,-34.04306,21.588],[25.6443,-34.03248,16.3075],[25.66603,-34.02654,0.0],[25.69752,-34.03493,0.0],[25.70102,-34.03167,0.0],[25.70289,-34.0285,0.0],[25.70436,-34.02068,0.0],[25.69565,-34.01181,0.0],[25.67701,-33.9865,0.0],[25.6482,-33.96868,0.0],[25.6434,-33.96258,0.5015],[25.63893,-33.95379,0.0],[25.6194,-33.9459,0.0],[25.61492,-33.93499,0.0],[25.61752,-33.91139,0.0],[25.63404,-33.85516,12.2616],[25.65309,-33.82269,29.6418],[25.67905,-33.79518,29.3186],[25.71111,-33.77418,64.7379],[25.78541,-33.74358,0.6062],[25.86744,-33.72186,0.0],[25.95525,-33.71087,0.0],[26.09254,-33.71705,0.0],[26.2256,-33.73943,0.0],[26.26319,-33.75799,0.0],[26.28663,-33.76637,0.0],[26.30421,-33.76377,15.0362],[26.32342,-33.75644,52.5903],[26.34986,-33.75555,45.5556],[26.43483,-33.76605,8.3265],[26.47608,-33.76426,36.8797],[26.51515,-33.7553,25.9849],[26.61085,-33.71494,7.495],[26.63258,-33.71217,0.0],[26.63893,-33.70778,13.136],[26.64552,-33.68914,33.7752],[26.65333,-33.68483,33.9429],[26.66538,-33.68369,50.0721],[26.76124,-33.64902,0.0],[26.79461,-33.63226,81.5753],[26.84278,-33.62737,23.3523],[26.86305,-33.62274,31.4857],[26.91912,-33.58148,55.1526],[26.94125,-33.57562,70.7177],[26.96534,-33.57431,1.7179],[26.98463,-33.57025,2.2332],[27.0713,-33.53086,25.0026],[27.09181,-33.52776,1.417],[27.10092,-33.52532,2.5965],[27.1089,-33.51914,29.1293],[27.11443,-33.51116,15.5304],[27.11638,-33.50359,18.07],[27.1198,-33.49676,46.0296],[27.12745,-33.48984,0.0],[27.14308,-33.47942,23.0812],[27.21876,-33.44866,17.2136],[27.22828,-33.4389,15.8547],[27.33481,-33.37705,3.7969],[27.33888,-33.36639,54.409],[27.3423,-33.36338,54.7206],[27.34425,-33.36443,54.7206],[27.3475,-33.36712,8.4507],[27.35174,-33.36956,0.0],[27.3558,-33.36956,0.0],[27.38022,-33.35735,0.0],[27.43458,-33.32073,0.0],[27.45851,-33.29892,76.336],[27.46567,-33.27337,0.7604],[27.47633,-33.27809,0.599],[27.48471,-33.27899,0.0],[27.49236,-33.27703,36.0871],[27.50001,-33.27337,27.7],[27.52329,-33.2444,51.4659],[27.52784,-33.24293,37.8402],[27.53924,-33.23455,41.5297],[27.60987,-33.21185,12.085],[27.64324,-33.18865,6.2012],[27.73268,-33.10882,2.8976],[27.74985,-33.09979,48.136],[27.79933,-33.08424,7.2653],[27.8187,-33.08164,7.7862],[27.82984,-33.07724,0.0],[27.84929,-33.05853,41.8388],[27.89715,-33.03997,44.3984],[27.90113,-33.03493,42.5139],[27.90211,-33.02947,31.3602],[27.90235,-33.02435,1.0],[27.90398,-33.02068,47.9852],[27.91765,-33.01385,38.6972],[27.93067,-32.99765,67.018],[27.93963,-32.98984,26.3754],[27.9699,-32.98056,0.0],[28.07228,-32.9083,39.6973],[28.094,-32.88747,13.3264],[28.10328,-32.86614,49.6467],[28.11085,-32.83652,27.5966],[28.13014,-32.80885,41.0611],[28.15553,-32.78851,52.7587],[28.21079,-32.77467,104.2331],[28.24057,-32.76092,58.5367],[28.28761,-32.73211,55.0113],[28.33692,-32.70941,47.3738],[28.36012,-32.69394,40.6277],[28.36329,-32.67816,81.3783],[28.37941,-32.67099,1.2402],[28.41196,-32.64764,45.4416],[28.43751,-32.636,0.0],[28.54859,-32.56243,43.528],[28.55502,-32.55047,5.8079],[28.56267,-32.532,77.2365],[28.58033,-32.51116,6.0478],[28.6172,-32.4782,43.0011],[28.62623,-32.47234,78.2552],[28.64275,-32.46551,66.7316],[28.65122,-32.45908,7.176],[28.67408,-32.4306,74.8614],[28.80836,-32.32488,65.7493],[28.81715,-32.31512,46.4432],[28.87037,-32.28704,0.0],[28.97332,-32.16668,7.3075],[29.09636,-32.05364,57.3517],[29.12379,-32.01702,67.3082],[29.1338,-31.99847,119.4515],[29.13795,-31.98203,57.6384],[29.14763,-31.96982,40.6544],[29.21363,-31.94378,3.5717],[29.21551,-31.94012,40.4472],[29.21876,-31.92791,29.3153],[29.22047,-31.924,44.9101],[29.2234,-31.92197,37.9294],[29.23414,-31.9166,0.0],[29.25196,-31.88909,0.0],[29.25457,-31.87957,41.0306],[29.26124,-31.86354,102.2038],[29.2767,-31.84466,69.3776],[29.30926,-31.81406,73.2392],[29.34205,-31.79355,10.9986],[29.35288,-31.78037,73.0289],[29.35694,-31.75579,15.6002],[29.36248,-31.74977,0.5117],[29.39186,-31.73553,171.6417],[29.41163,-31.69801,45.048],[29.41066,-31.69378,2.1373],[29.40691,-31.68939,4.2249],[29.40553,-31.68418,14.1058],[29.41163,-31.6775,74.5169],[29.41619,-31.67653,72.8591],[29.42726,-31.67799,27.0734],[29.43214,-31.6775,137.7624],[29.44272,-31.67474,71.6231],[29.45216,-31.674,0.6685],[29.46079,-31.6723,66.4199],[29.48666,-31.65643,159.4582],[29.52605,-31.64398,11.9784],[29.542,-31.63592,70.8151],[29.57407,-31.6054,130.028],[29.59205,-31.59303,49.3572],[29.61443,-31.58815,0.0],[29.61988,-31.58603,0.0],[29.6277,-31.58025,14.2452],[29.63461,-31.57244,0.0],[29.64137,-31.55332,89.0269],[29.6504,-31.54778,136.4049],[29.67237,-31.53973,60.5975],[29.73373,-31.47487,0.0],[29.74204,-31.45745,29.7869],[29.76173,-31.44394,38.9028],[29.78452,-31.43475,123.4924],[29.8462,-31.41961,30.0275],[29.86411,-31.41155,15.5474],[30.00994,-31.29225,10.4124],[30.06275,-31.2387,0.3696],[30.09506,-31.17864,47.7904],[30.12338,-31.16155,6.7655],[30.19597,-31.07789,25.8814],[30.19599,-31.07787,25.8814],[30.1925,-31.07299,30.9051],[30.17964,-31.06591,7.6115],[30.17623,-31.06353,18.4447],[30.17281,-31.05903,100.3072],[30.17157,-31.055,147.5909],[30.16987,-31.0394,268.5207],[30.16847,-31.03351,66.688],[30.16646,-31.02901,165.4911],[30.16367,-31.02622,50.4325],[30.15747,-31.02265,113.9885],[30.14568,-31.01816,88.5198],[30.14103,-31.01557,211.8172],[30.137,-31.01046,100.7273],[30.13463,-31.00348,306.1885],[30.13452,-30.98369,383.9522],[30.13297,-30.97594,402.2093],[30.12672,-30.96772,420.4028],[30.1247,-30.95589,420.3541],[30.12439,-30.94824,397.5738],[30.12548,-30.94111,381.0338],[30.12579,-30.93444,379.2308],[30.12455,-30.9271,376.4153],[30.12021,-30.9178,348.8005],[30.10936,-30.90535,299.7648],[30.08533,-30.89041,286.8177],[30.07334,-30.88855,343.8552],[30.06884,-30.88158,395.1768],[30.06714,-30.87579,391.7842],[30.06667,-30.86964,535.6428],[30.06543,-30.86411,363.1502],[30.06357,-30.85899,292.763],[30.06078,-30.8545,297.5672],[30.05675,-30.85088,300.9589],[30.05086,-30.84861,287.4734],[30.02652,-30.84783,354.9373],[30.0198,-30.84535,337.3906],[30.01344,-30.84179,327.5836],[30.00647,-30.83502,382.1543],[30.00151,-30.83202,351.1818],[29.99686,-30.83264,405.0753],[29.99236,-30.8345,404.3975],[29.98647,-30.83543,375.6871],[29.98027,-30.83455,396.6131],[29.97422,-30.83176,477.8449],[29.96967,-30.82551,366.0013],[29.96709,-30.81951,374.2823],[29.96347,-30.81347,450.734],[29.95867,-30.80794,371.9624],[29.94859,-30.80329,589.9906],[29.94534,-30.79585,550.0362],[29.9441,-30.79001,405.0964],[29.94456,-30.78396,629.7966],[29.9427,-30.77957,564.6266],[29.93851,-30.77693,518.3974],[29.93092,-30.77833,530.6149],[29.92472,-30.78024,472.6985],[29.91929,-30.78303,561.3726],[29.91087,-30.78303,514.0497],[29.90017,-30.78019,597.4814],[29.88126,-30.77073,658.2512],[29.85785,-30.75373,648.4593],[29.82245,-30.7344,630.0664],[29.80834,-30.72407,654.1678],[29.80586,-30.71849,654.8942],[29.8009,-30.71291,747.1362],[29.79387,-30.70882,668.421],[29.77496,-30.70851,686.9],[29.76674,-30.7113,691.6942],[29.76116,-30.715699999999998,713.1451],[29.75853,-30.7188,706.45],[29.75465,-30.71957,733.7938],[29.74002,-30.71161,829.348],[29.72576,-30.70794,778.4504],[29.70235,-30.69818,846.9108],[29.68773,-30.69523,896.3776],[29.67672,-30.68965,1101.8521],[29.66804,-30.68676,1151.7094],[29.6606,-30.68531,985.6272],[29.62722,-30.69275,1082.8865],[29.62008,-30.69311,1050.2715],[29.61156,-30.69167,1077.4716],[29.60241,-30.68826,1078.5547],[29.57869,-30.67332,1411.0332],[29.54639,-30.66324,1524.499],[29.47611,-30.6202,1579.4651],[29.47053,-30.61823,1590.9521],[29.46418,-30.61741,1568.1482],[29.45808,-30.61777,1522.3309],[29.45265,-30.61958,1399.0449],[29.44769,-30.62201,1413.8018],[29.42909,-30.63307,1877.0188],[29.42366,-30.63524,1749.0092],[29.41762,-30.63673,1832.6008],[29.41033,-30.63725,1756.8883],[29.36547,-30.63673,1142.066],[29.35958,-30.63834,1170.8486],[29.35504,-30.64108,1171.0465],[29.34821,-30.64945,1107.1991],[29.34418,-30.65286,1217.4985],[29.33938,-30.65529,1447.2181],[29.33333,-30.65637,1585.6536],[29.32651,-30.65622,1489.3923],[29.32015,-30.65529,1482.55],[29.29592,-30.64702,1676.155],[29.26073,-30.62867,1423.3071],[29.10368,-30.59209,1235.218],[29.0936,-30.58821,1219.5546],[29.0857,-30.58309,1239.8606],[29.08477,-30.57286,1276.9374],[29.08539,-30.55741,1328.5568],[29.08446,-30.55007,1366.5933],[29.08213,-30.54113,1555.309],[29.07702,-30.53462,1732.9722],[29.07123,-30.5308,1828.7783],[29.00622,-30.50248,1550.7197],[29.00141,-30.50155,1536.1775],[28.998,-30.50165,1560.531],[28.9932,-30.50289,1567.8771],[28.98886,-30.50558,1624.9117],[28.98514,-30.5093,1657.9921],[28.9825,-30.51421,1704.4573],[28.98172,-30.52082,1728.1812],[28.98079,-30.55198,1467.9351],[28.97971,-30.55772,1533.9277],[28.978,-30.56346,1643.9163],[28.97552,-30.56862,1591.5664],[28.97227,-30.57286,1613.5254],[28.96762,-30.5756,1650.925],[28.96136,-30.57612,1722.9288],[28.86566,-30.55927,1667.0977],[28.86039,-30.55658,1703.4763],[28.85605,-30.55317,1728.4824],[28.84582,-30.5417,1723.3342],[28.8222,-30.50785,1931.8906],[28.81755,-30.50511,2012.0901],[28.81119,-30.50434,2051.2866],[28.79646,-30.50413,2047.0839],[28.78918,-30.50325,2103.8457],[28.78308,-30.5017,2145.2983],[28.77796,-30.49876,2000.4476],[28.77362,-30.49437,2160.5532],[28.76928,-30.48816,2131.3069],[28.76169,-30.47292,2106.093],[28.76014,-30.46811,2021.8674],[28.76076,-30.45881,1832.2582],[28.77161,-30.42321,1937.1573],[28.773,-30.41179,2081.9712],[28.77238,-30.40388,2117.4163],[28.75518,-30.37799,1852.7762],[28.75285,-30.37293,1900.0076],[28.75378,-30.36424,1842.5701],[28.75812,-30.35231,1808.7604],[28.78479,-30.29898,1471.2947],[28.78773,-30.29603,1456.6807],[28.79228,-30.29665,1437.8533],[28.85977,-30.32233,1507.9413],[28.8655,-30.32342,1532.5216],[28.87434,-30.31768,1632.8231],[28.88442,-30.30611,1780.6428],[28.9038,-30.27841,1973.2576],[28.91439,-30.26957,1706.9565],[28.92292,-30.26632,1644.1143],[28.93408,-30.27076,1565.1953],[28.94059,-30.26937,1573.3324],[28.94865,-30.26379,1701.7817],[28.95981,-30.24684,1666.5476],[28.96684,-30.23872,1608.9331],[28.97289,-30.23314,1591.2407],[28.98808,-30.22622,1551.3494],[28.99289,-30.22348,1514.6339],[28.99661,-30.22084,1506.285],[28.99862,-30.21697,1527.0415],[28.99847,-30.21371,1501.6426],[28.99568,-30.20777,1498.2289],[28.98932,-30.19836,1522.8049],[28.98762,-30.19418,1545.9197],[28.98793,-30.18984,1564.6956],[28.99304,-30.18596,1621.8871],[28.998,-30.18369,1631.1248],[29.01149,-30.17929,1587.6697],[29.02115,-30.17433,1626.6511],[29.03449,-30.16514,1787.4277],[29.03914,-30.16291,1694.5383],[29.04518,-30.16245,1687.4183],[29.06456,-30.16601,1693.783],[29.0705,-30.1656,1663.3568],[29.07593,-30.1626,1648.4109],[29.08926,-30.14142,1701.6378],[29.09283,-30.13738,1677.5298],[29.11391,-30.12111,1650.5018]]]]}}