{"type": "Feature","bbox": [25.3604,-32.376,26.7004,-31.3267],"geometry": {"type": "MultiPolygon","coordinates": [[[[26.5636,-32.0889,1389.8877],[26.5543,-32.0779,1456.5261],[26.5418,-32.0509,1692.2688],[26.5652,-32.0477,1619.3472],[26.5652,-32.0272,1371.8651],[26.5716,-32.0192,1437.24],[26.5699,-32.0145,1400.5225],[26.5621,-32.0089,1368.0768],[26.5992,-32.0047,1546.7979],[26.6115,-32.0005,1407.5637],[26.6344,-32.0087,1218.9988],[26.6367,-32.0064,1129.1506],[26.639,-32.0119,1123.8494],[26.6437,-32.0175,1122.8307],[26.6418,-32.0204,1123.4174],[26.6373,-32.0206,1118.5243],[26.6379,-32.0241,1115.7103],[26.6363,-32.0241,1118.0322],[26.636,-32.027,1118.0118],[26.6398,-32.0316,1117.1599],[26.6437,-32.0321,1114.0349],[26.6447,-32.0346,1115.0092],[26.6487,-32.0331,1108.9524],[26.6581,-32.0343,1110.6758],[26.6592,-32.0254,1099.8481],[26.6649,-32.0237,1098.845],[26.6651,-32.0172,1108.8867],[26.662,-32.0056,1263.8086],[26.6531,-31.9444,1423.7961],[26.7004,-31.9493,1346.1757],[26.6991,-31.9423,1182.8657],[26.6716,-31.9252,1128.1991],[26.6696,-31.9209,1115.6366],[26.6644,-31.9229,1117.2601],[26.659,-31.9168,1119.6804],[26.6504,-31.9174,1119.5828],[26.6583,-31.8939,1227.0052],[26.6709,-31.866,1526.3252],[26.6626,-31.8536,1586.1008],[26.6563,-31.8475,1582.7041],[26.6644,-31.8416,1600.3694],[26.6734,-31.8204,1581.632],[26.6662,-31.8249,1494.8064],[26.6553,-31.8213,1371.8102],[26.6043,-31.8133,1173.103],[26.6062,-31.8189,1172.9193],[26.6038,-31.8264,1168.2875],[26.602,-31.8274,1165.8618],[26.596,-31.8268,1165.8438],[26.5946,-31.8289,1164.3873],[26.5909,-31.8283,1166.2498],[26.5906,-31.8264,1161.592],[26.5839,-31.8269,1158.8041],[26.5812,-31.8319,1157.8966],[26.5818,-31.8353,1154.6244],[26.5797,-31.8367,1162.142],[26.5621,-31.8309,1321.6292],[26.5412,-31.836,1426.2118],[26.5383,-31.8374,1309.0781],[26.5279,-31.8497,1193.7767],[26.5082,-31.8395,1202.1182],[26.4864,-31.8173,1250.3872],[26.4714,-31.8267,1272.2415],[26.4658,-31.812,1264.9109],[26.4364,-31.8006,1290.4614],[26.3995,-31.8132,1461.2898],[26.3962,-31.798,1459.7756],[26.3799,-31.7752,1694.0271],[26.3628,-31.7698,1637.8655],[26.3557,-31.7704,1559.0632],[26.3454,-31.7679,1616.4763],[26.3412,-31.7716,1527.103],[26.3322,-31.771,1741.4305],[26.332,-31.7525,1608.1924],[26.322,-31.7302,1407.2598],[26.323,-31.7215,1423.0101],[26.3298,-31.7099,1424.0455],[26.3222,-31.688,1399.5002],[26.332,-31.6898,1340.0552],[26.3327,-31.6885,1333.7605],[26.3235,-31.6795,1420.5841],[26.3203,-31.6796,1418.04],[26.3192,-31.6617,1399.7385],[26.3053,-31.6587,1701.7267],[26.3013,-31.6084,2067.2773],[26.2609,-31.6136,1869.8411],[26.2294,-31.5876,1925.119],[26.2049,-31.5836,2154.0312],[26.176,-31.5826,2030.7311],[26.1766,-31.5888,2071.8271],[26.1586,-31.5943,2004.7925],[26.1467,-31.5911,2085.3923],[26.126,-31.5947,2043.4899],[26.1229,-31.5978,2037.3267],[26.1204,-31.5959,2049.6313],[26.12,-31.6011,2055.5063],[26.1096,-31.5939,2037.6144],[26.0893,-31.6052,1722.5918],[26.0826,-31.5984,1746.2898],[26.0746,-31.5737,1542.9004],[26.0751,-31.5525,1741.802],[26.0728,-31.5354,1615.2104],[26.0894,-31.5246,1737.0598],[26.0874,-31.5241,1746.0443],[26.086,-31.5208,1801.2223],[26.0879,-31.5155,1831.429],[26.105,-31.5047,1820.4288],[26.1041,-31.4831,1767.0762],[26.1277,-31.471,1762.2126],[26.1332,-31.4555,1760.2678],[26.1184,-31.4299,1695.2762],[26.1151,-31.4141,1744.6821],[26.1318,-31.4192,1982.0687],[26.0454,-31.3353,1960.8271],[26.0142,-31.3267,1913.4855],[25.9992,-31.3349,1964.1454],[26.0055,-31.3819,1727.7699],[26.0015,-31.4104,1778.7834],[25.9877,-31.4237,1896.9248],[25.9914,-31.4354,1719.0931],[25.966,-31.4768,1366.6722],[25.9231,-31.4675,1423.8187],[25.9205,-31.4722,1369.4777],[25.887,-31.4637,1466.0486],[25.8742,-31.458,1452.1385],[25.8566,-31.4537,1288.6172],[25.8426,-31.4606,1292.9271],[25.823,-31.4659,1253.749],[25.8152,-31.4627,1248.2305],[25.8124,-31.4671,1245.7861],[25.8139,-31.4622,1248.2305],[25.7693,-31.4441,1240.4214],[25.7687,-31.4462,1238.2704],[25.7332,-31.4551,1212.6793],[25.7234,-31.4731,1206.1416],[25.7061,-31.4751,1199.8622],[25.6917,-31.4581,1193.129],[25.6657,-31.461,1183.5336],[25.6513,-31.4488,1183.7761],[25.6512,-31.4539,1182.3845],[25.6485,-31.4584,1178.6304],[25.6494,-31.4625,1177.8903],[25.6471,-31.4644,1176.2664],[25.6483,-31.4649,1175.5032],[25.6327,-31.4741,1170.2502],[25.6323,-31.4778,1170.9137],[25.6347,-31.48,1168.2219],[25.617,-31.4739,1169.9421],[25.5785,-31.4912,1214.5806],[25.5866,-31.5114,1148.551],[25.5797,-31.5141,1147.0618],[25.5756,-31.5129,1146.543],[25.5714,-31.5169,1142.4489],[25.5669,-31.5185,1140.1909],[25.5641,-31.5268,1136.8788],[25.6155,-31.5434,1185.8323],[25.6338,-31.5639,1247.785],[25.6423,-31.5765,1286.2458],[25.6288,-31.5797,1261.6387],[25.6169,-31.5801,1458.2511],[25.6174,-31.5773,1412.1637],[25.548,-31.5543,1128.4219],[25.5345,-31.5345,1143.2257],[25.5058,-31.5489,1145.4917],[25.5074,-31.576,1124.3064],[25.5161,-31.5884,1108.0092],[25.5268,-31.6129,1168.0748],[25.5283,-31.6138,1169.5918],[25.5027,-31.6399,1110.761],[25.4966,-31.643,1103.7444],[25.4795,-31.669,1093.2623],[25.4545,-31.6846,1108.5073],[25.4149,-31.6742,1117.4867],[25.3995,-31.6767,1470.6489],[25.392,-31.6907,1370.0955],[25.3719,-31.7011,1391.8533],[25.3604,-31.7145,1124.2506],[25.381,-31.7271,1091.9994],[25.4046,-31.7309,1120.8206],[25.4272,-31.7411,1082.9486],[25.4416,-31.7582,1069.9806],[25.4779,-31.7393,1060.0023],[25.4895,-31.7539,1059.9454],[25.5086,-31.7612,1143.6309],[25.5274,-31.7617,1260.9044],[25.5414,-31.7674,1164.4211],[25.5492,-31.7609,1148.0485],[25.561,-31.7642,1128.3898],[25.5637,-31.8029,1214.3586],[25.5915,-31.8123,1173.2897],[25.5905,-31.8201,1181.5269],[25.607,-31.8192,1201.4469],[25.6159,-31.8331,1240.2759],[25.6166,-31.8392,1231.9796],[25.6341,-31.8396,1256.7627],[25.6416,-31.874,1318.0631],[25.6406,-31.9027,1182.4227],[25.6448,-31.9039,1189.2493],[25.664,-31.9031,1244.6443],[25.6739,-31.8991,1262.8409],[25.6993,-31.8829,1304.5587],[25.7,-31.8753,1351.5137],[25.7069,-31.8623,1499.7283],[25.7228,-31.8549,1479.4994],[25.7339,-31.8578,1527.1998],[25.7232,-31.8636,1430.2366],[25.7375,-31.8832,1373.8494],[25.7653,-31.8788,1354.9207],[25.7622,-31.8979,1306.1692],[25.8301,-31.921,1291.2834],[25.845,-31.9102,1317.2191],[25.8502,-31.9089,1318.8535],[25.9055,-31.945,1496.1031],[25.9484,-31.9811,1455.0266],[25.9994,-32.005,1149.7697],[26.0341,-32.0016,1212.609],[26.0026,-32.0317,1041.1948],[26.0029,-32.034,1040.3247],[26.0004,-32.0379,1038.6049],[26.0108,-32.042,1033.8462],[26.0132,-32.0403,1031.4327],[26.0216,-32.0444,1028.4546],[26.0193,-32.0528,1027.0775],[26.0199,-32.0543,1025.2852],[26.0239,-32.0552,1021.7626],[25.9997,-32.0706,1065.9896],[26.0096,-32.0764,1040.7443],[26.0124,-32.0724,1074.4763],[26.0218,-32.0766,1040.1362],[26.032,-32.0733,1015.0],[26.0349,-32.077,1015.0],[26.0641,-32.0801,1185.0813],[26.0553,-32.0996,1272.6774],[26.0735,-32.1034,1091.9421],[26.076,-32.1126,1055.5032],[26.101,-32.1134,1224.2158],[26.1392,-32.1191,1494.3953],[26.1416,-32.1395,1452.8466],[26.1409,-32.1468,1388.6393],[26.2069,-32.1645,1754.9557],[26.2008,-32.1803,1816.1786],[26.1929,-32.2169,1746.8444],[26.1991,-32.2689,1849.9707],[26.1893,-32.2897,1800.8945],[26.2025,-32.3313,1920.6229],[26.1865,-32.3688,1756.7753],[26.2351,-32.354,1878.0752],[26.3096,-32.376,1874.809],[26.3467,-32.3679,1701.344],[26.3709,-32.357,1828.1263],[26.4045,-32.3639,2270.3306],[26.4253,-32.3541,2045.0414],[26.4582,-32.3608,1819.2814],[26.4741,-32.3571,1801.0981],[26.498,-32.3595,1807.9539],[26.5078,-32.3455,1801.3074],[26.5348,-32.3304,1749.0286],[26.5359,-32.3206,1732.4216],[26.5336,-32.32,1726.2969],[26.5316,-32.3214,1732.8385],[26.5303,-32.3154,1725.1895],[26.5275,-32.315,1715.691],[26.5299,-32.3115,1714.0725],[26.5275,-32.3083,1711.9288],[26.5278,-32.3023,1713.2988],[26.5249,-32.2965,1716.2771],[26.5256,-32.2936,1710.5],[26.5317,-32.2936,1710.5],[26.5351,-32.2975,1710.5],[26.5397,-32.2988,1712.2102],[26.5424,-32.3035,1704.601],[26.5451,-32.304,1693.1522],[26.5468,-32.302,1691.5186],[26.5431,-32.298,1714.7141],[26.5459,-32.2948,1683.1937],[26.5421,-32.2935,1678.6438],[26.5455,-32.2915,1669.9089],[26.5437,-32.2885,1639.3228],[26.5403,-32.2897,1676.8096],[26.5394,-32.2874,1633.4573],[26.5404,-32.2853,1621.4027],[26.5454,-32.2841,1612.3232],[26.5437,-32.2798,1691.6577],[26.5444,-32.2771,1606.9536],[26.5478,-32.2762,1607.1271],[26.5497,-32.2735,1572.9763],[26.5463,-32.2727,1562.5219],[26.546,-32.2671,1560.3647],[26.5391,-32.2626,1553.416],[26.5357,-32.2633,1550.8436],[26.5332,-32.261,1546.7129],[26.5324,-32.2585,1539.6805],[26.5346,-32.2547,1527.8719],[26.5284,-32.2539,1509.7638],[26.5287,-32.2509,1535.8459],[26.5262,-32.2494,1522.531],[26.5269,-32.2469,1527.1615],[26.5248,-32.2453,1539.0004],[26.525,-32.2432,1517.1091],[26.5216,-32.241,1501.0895],[26.5219,-32.2378,1492.5243],[26.5248,-32.2368,1485.1776],[26.5293,-32.2402,1490.6307],[26.5381,-32.2402,1489.9283],[26.5608,-32.2314,1713.2739],[26.5669,-32.1993,1579.373],[26.5884,-32.1869,1443.1409],[26.5975,-32.1791,1573.9667],[26.5552,-32.1551,1582.0725],[26.541,-32.1579,1456.7393],[26.5364,-32.1468,1431.0212],[26.5425,-32.1352,1421.2804],[26.5577,-32.122,1429.0482],[26.5621,-32.116,1459.7544],[26.5709,-32.118,1458.8235],[26.5636,-32.0889,1389.8877]]]]}
,"properties": {"GID_3": "ZAF.1.5.8_1","GID_0": "ZAF","country": "SouthAfrica","GID_1": "ZAF.1_1","province": "EasternCape","NL_NAME_1": "NA","GID_2": "ZAF.1.5_1","county": "ChrisHani","NL_NAME_2": "NA","city": "Tsolwana","VARNAME_3": "NA","NL_NAME_3": "NA","TYPE_3": "LocalMunicipality","ENGTYPE_3": "LocalMunicipality","CC_3": "EC132","HASC_3": "NA","name": "Tsolwana.city","area_km2": 6090.112,"hist_schema_id": "Elevation0-9000","hist_area_km2": {"1025": 12.65,"1050": 36.72,"1075": 75.623,"1100": 72.593,"1125": 130.417,"1150": 276.569,"1175": 345.514,"1200": 428.964,"1225": 452.848,"1250": 392.885,"1275": 427.006,"1300": 411.457,"1325": 376.195,"1350": 355.594,"1375": 275.006,"1400": 236.511,"1425": 201.36,"1450": 171.174,"1475": 153.314,"1500": 128.877,"1525": 108.373,"1550": 101.508,"1575": 99.987,"1600": 92.063,"1625": 84.848,"1650": 81.489,"1675": 74.287,"1700": 70.699,"1725": 70.18,"1750": 70.025,"1775": 62.071,"1800": 48.856,"1825": 38.75,"1850": 29.252,"1875": 22.888,"1900": 19.323,"1925": 14.2,"1950": 10.269,"1975": 6.697,"2000": 4.822,"2025": 3.938,"2050": 3.543,"2075": 3.364,"2100": 2.862,"2125": 1.187,"2150": 0.557,"2175": 0.431,"2200": 0.466,"2225": 0.322,"2250": 0.304,"2275": 0.269,"2300": 0.537,"2325": 0.394,"2350": 0.072}}}