{"type":"Feature","properties":{"GID_3":"ZAF.9.2.2_1","GID_0":"ZAF","country":"SouthAfrica","GID_1":"ZAF.9_1","province":"WesternCape","NL_NAME_1":"NA","GID_2":"ZAF.9.2_1","county":"CentralKaroo","NL_NAME_2":"NA","city":"Laingsburg","VARNAME_3":"NA","NL_NAME_3":"NA","TYPE_3":"LocalMunicipality","ENGTYPE_3":"LocalMunicipality","CC_3":"WC051","HASC_3":"NA","name":"Laingsburg.city"},
"geometry":{"type": "MultiPolygon","coordinates": [[[[20.963,-33.4241,528.5381],[20.9726,-33.4225,997.1027],[21.0097,-33.4393,1113.9602],[21.0493,-33.4339,1384.8379],[21.1138,-33.4307,1684.2698],[21.1657,-33.415,1834.4545],[21.2064,-33.4217,2059.4609],[21.3677,-33.3982,2272.2886],[21.4331,-33.3942,1967.1173],[21.4885,-33.4094,1727.166],[21.5047,-33.4107,1883.8728],[21.5218,-33.4144,1800.6069],[21.5534,-33.4105,1832.2877],[21.6119,-33.3968,989.0545],[21.6325,-33.3769,317.4639],[21.6971,-33.3565,453.853],[21.6356,-33.3586,565.8774],[21.6115,-33.3347,1162.3618],[21.551,-33.3408,1077.3629],[21.629,-33.3054,493.2911],[21.6344,-33.3056,376.0],[21.6364,-33.3037,376.0],[21.6371,-33.3004,376.0],[21.6334,-33.2957,376.0],[21.6324,-33.28,376.0],[21.6335,-33.2735,376.0],[21.6366,-33.2697,387.0179],[21.6318,-33.2694,481.0415],[21.624,-33.2464,412.6717],[21.6367,-33.2459,382.9734],[21.6386,-33.2353,385.7245],[21.6429,-33.2249,388.7436],[21.6373,-33.2139,396.2105],[21.6135,-33.216,496.7262],[21.6222,-33.1925,411.3419],[21.6278,-33.1916,398.4105],[21.6257,-33.1792,405.1735],[21.6207,-33.1795,407.5164],[21.6167,-33.1774,407.4741],[21.6289,-33.1627,439.4925],[21.6373,-33.1413,480.899],[21.607,-33.1413,419.8786],[21.6044,-33.1401,422.9818],[21.5778,-33.1154,435.8748],[21.5782,-33.1059,438.70119999999997],[21.5853,-33.0967,442.0266],[21.5814,-33.0865,443.42],[21.5761,-33.0852,445.374],[21.5668,-33.0884,450.3056],[21.5573,-33.0861,450.2839],[21.5441,-33.0755,461.5074],[21.5472,-33.0622,458.7282],[21.5458,-33.0562,462.6173],[21.5248,-33.0474,468.0769],[21.5072,-33.0443,474.0999],[21.5012,-33.0389,475.9818],[21.4984,-33.0289,482.1439],[21.4867,-33.0201,484.5803],[21.4846,-33.014,486.9876],[21.4585,-33.0113,560.8508],[21.4429,-33.0005,602.6686],[21.4259,-32.9702,618.1527],[21.3959,-32.9379,653.4708],[21.4574,-32.9275,608.8801],[21.4713,-32.9136,595.2414],[21.4815,-32.9113,571.6132],[21.4785,-32.9023,546.4773],[21.4713,-32.8968,543.9053],[21.4695,-32.8915,543.7894],[21.4642,-32.8881,550.7527],[21.4607,-32.8829,596.2013],[21.4593,-32.883,602.4556],[21.43,-32.849,699.1775],[21.4281,-32.817,647.4116],[21.4456,-32.792,654.7099],[21.428,-32.7756,705.8151],[21.4321,-32.7567,719.4414],[21.4249,-32.7059,730.5195],[21.4266,-32.6671,713.046],[21.3522,-32.6577,725.2625],[21.3504,-32.6521,731.3914],[21.3467,-32.6479,744.9569],[21.3441,-32.6471,735.734],[21.3417,-32.6419,738.925],[21.3372,-32.6394,742.6715],[21.3327,-32.6264,753.5035],[21.3244,-32.6181,768.6583],[21.325,-32.6142,767.7426],[21.3206,-32.6092,775.5511],[21.315,-32.6061,782.3825],[21.3131,-32.6016,784.963],[21.3091,-32.5984,793.5929],[21.3036,-32.5972,796.4877],[21.2956,-32.591,805.3039],[21.2948,-32.5851,810.46],[21.3001,-32.5792,821.6261],[21.3005,-32.575,824.8425],[21.296,-32.566,839.8554],[21.2919,-32.5643,846.3513],[21.2896,-32.5578,854.8435],[21.2638,-32.5477,891.4246],[21.2505,-32.5479,902.8186],[21.2482,-32.5444,914.1711],[21.2433,-32.5426,918.5623],[21.2421,-32.5398,921.8033],[21.2367,-32.537,930.0214],[21.2345,-32.5294,948.7413],[21.2317,-32.5291,955.1068],[21.2286,-32.523,962.4764],[21.2035,-32.5167,999.5699],[21.2012,-32.5142,1012.0569],[21.192,-32.5139,1045.3762],[21.1877,-32.5098,1043.183],[21.1883,-32.5031,1187.0238],[21.1821,-32.5087,1222.6161],[21.1401,-32.5898,1692.823],[21.157,-32.6289,1082.6528],[21.0945,-32.653,1672.8942],[21.0603,-32.6555,1650.5007],[21.0373,-32.6491,1670.2384],[20.9628,-32.6393,1613.8965],[20.8441,-32.6624,1677.349],[20.8228,-32.6945,1374.1479],[20.7898,-32.7112,1265.2651],[20.7922,-32.735,1191.3918],[20.8303,-32.7846,1328.0375],[20.8324,-32.8174,1180.1996],[20.7986,-32.8947,925.8068],[20.7442,-32.9129,922.0602],[20.7312,-32.945,964.4393],[20.6503,-32.9323,1028.5359],[20.6496,-32.9337,1038.7651],[20.6219,-32.9431,1115.2439],[20.5901,-32.943,1137.896],[20.5921,-32.9265,1067.3016],[20.5612,-32.881,1108.804],[20.4993,-32.9416,1397.4866],[20.4386,-32.9401,1381.5736],[20.4347,-32.9719,1202.9741],[20.4278,-32.9794,1250.4662],[20.395,-32.9932,1293.7788],[20.3838,-33.0363,1144.1929],[20.3343,-33.0358,1113.275],[20.3025,-33.068,1163.3503],[20.2791,-33.0639,1101.5129],[20.3185,-33.1209,789.13],[20.3064,-33.1593,794.671],[20.2512,-33.1499,799.5189],[20.2022,-33.1701,1128.6118],[20.2183,-33.1739,810.7312],[20.258,-33.1884,871.8318],[20.2487,-33.2148,1018.5193],[20.244,-33.2365,1214.5594],[20.2471,-33.2458,1219.3015],[20.2356,-33.2624,984.6449],[20.2512,-33.2915,951.6249],[20.2035,-33.3027,955.2378],[20.2395,-33.3099,1115.7236],[20.2092,-33.3798,1374.3438],[20.2487,-33.3776,993.9721],[20.368,-33.3663,1308.6605],[20.3663,-33.3816,1160.389],[20.3537,-33.3941,849.9796],[20.3456,-33.3943,830.6028],[20.3489,-33.4049,892.8615],[20.3356,-33.4256,1225.3418],[20.3898,-33.424,1345.678],[20.4081,-33.4343,1150.6863],[20.4167,-33.4355,1072.8296],[20.4275,-33.4489,1084.3073],[20.4198,-33.453,1091.0204],[20.3861,-33.4592,1118.2964],[20.3362,-33.4878,688.3732],[20.395,-33.4808,756.1645],[20.498,-33.4639,877.4975],[20.5017,-33.4985,797.4135],[20.4756,-33.5134,747.9644],[20.4782,-33.5278,693.7495],[20.7236,-33.4972,1331.5739],[20.762,-33.4908,1175.8048],[20.9218,-33.4306,1148.499],[20.963,-33.4241,528.5381]]]]}}