{"type": "Feature","bbox": [28.3639,-24.9812,29.4005,-24.0253],"geometry": {"type": "MultiPolygon","coordinates": [[[[29.2629,-24.3982,1024.274],[29.2536,-24.3754,1065.3237],[29.2595,-24.3372,1073.7548],[29.2304,-24.3377,1105.8707],[29.1705,-24.3587,1100.5198],[29.1122,-24.3741,1074.6885],[29.0508,-24.3711,1075.5243],[29.0029,-24.359,1101.9866],[28.9785,-24.3711,1084.9658],[28.9501,-24.3818,1059.8973],[28.9132,-24.4148,1061.7429],[28.8638,-24.3972,1080.9493],[28.8782,-24.3862,1081.439],[28.8531,-24.3632,1123.4319],[28.8486,-24.3342,1541.0771],[28.8013,-24.3316,1435.9293],[28.8216,-24.2939,1294.7954],[28.8509,-24.2568,1215.5403],[28.8119,-24.2547,1159.874],[28.8128,-24.257,1155.9149],[28.8094,-24.2581,1144.6196],[28.8046,-24.2543,1143.0339],[28.7744,-24.2526,1192.0532],[28.7672,-24.2269,1151.0182],[28.7537,-24.2334,1173.3561],[28.7278,-24.2086,1137.0563],[28.7401,-24.2065,1131.0503],[28.7431,-24.2032,1128.1432],[28.7535,-24.1826,1235.2006],[28.6653,-24.2,1737.7073],[28.6699,-24.1746,1602.637],[28.6658,-24.1458,1678.2834],[28.6929,-24.1165,1255.8229],[28.643,-24.0882,1329.1821],[28.627,-24.0761,1311.2123],[28.6187,-24.0577,1210.9048],[28.6008,-24.0253,1259.0721],[28.5788,-24.0569,1295.377],[28.5563,-24.0645,1387.572],[28.5254,-24.0537,1363.7524],[28.5069,-24.0614,1423.083],[28.5259,-24.0755,1425.7832],[28.4712,-24.0758,1213.4291],[28.4749,-24.0785,1230.0399],[28.4761,-24.0843,1220.4541],[28.4705,-24.0866,1222.7106],[28.4699,-24.0884,1262.2604],[28.4746,-24.0905,1246.9106],[28.4764,-24.0937,1234.9664],[28.4651,-24.1028,1238.2632],[28.4626,-24.1156,1269.9523],[28.4648,-24.1166,1269.6761],[28.4681,-24.115,1261.5078],[28.4701,-24.1162,1290.7327],[28.4725,-24.1265,1269.7349],[28.4816,-24.1369,1283.1537],[28.4801,-24.1399,1290.8655],[28.4681,-24.1428,1301.2185],[28.4693,-24.1471,1303.3844],[28.4748,-24.1479,1322.5123],[28.4739,-24.156,1309.075],[28.478,-24.1609,1314.0991],[28.4687,-24.166,1338.989],[28.4053,-24.1705,1551.2982],[28.4079,-24.2059,1509.0422],[28.4053,-24.2174,1415.542],[28.4038,-24.2377,1602.9722],[28.3967,-24.2679,1689.8741],[28.3701,-24.265,1607.6504],[28.3668,-24.2949,1534.0469],[28.3757,-24.2965,1594.0725],[28.3759,-24.3008,1561.0092],[28.373,-24.3033,1547.4707],[28.3783,-24.3055,1528.7186],[28.3765,-24.3088,1522.2074],[28.365,-24.3116,1492.0909],[28.3639,-24.3221,1562.636],[28.3691,-24.3208,1556.5917],[28.3794,-24.347,1548.7571],[28.3864,-24.3848,1581.6296],[28.42,-24.387,1768.0959],[28.4656,-24.4228,1332.0667],[28.4544,-24.4368,1382.6116],[28.4548,-24.4463,1414.5961],[28.4481,-24.4682,1648.5009],[28.4755,-24.4619,1686.0419],[28.5074,-24.4699,1542.0873],[28.5117,-24.4853,1584.7749],[28.5106,-24.4937,1461.4993],[28.5149,-24.503,1422.0197],[28.5198,-24.5332,1433.964],[28.4951,-24.5557,1497.3337],[28.5197,-24.569,1443.3152],[28.5124,-24.5905,1475.3743],[28.566,-24.5713,1414.962],[28.6022,-24.6131,1210.4165],[28.5993,-24.6244,1192.4963],[28.5887,-24.6138,1262.1067],[28.5792,-24.6293,1262.9374],[28.5945,-24.6806,1106.4077],[28.6284,-24.6822,1098.9392],[28.6357,-24.7152,1147.7339],[28.6186,-24.739,1166.7183],[28.5649,-24.7457,1180.2003],[28.5275,-24.7625,1241.4192],[28.567,-24.7968,1125.1912],[28.5769,-24.842,1110.033],[28.584,-24.8566,1097.3722],[28.6148,-24.8398,1102.4309],[28.6202,-24.8522,1095.2498],[28.6576,-24.8377,1089.6765],[28.7138,-24.9536,1024.4514],[28.7594,-24.9114,1038.6354],[28.8374,-24.916,1018.3555],[28.8464,-24.9333,1020.0236],[28.9241,-24.9015,1020.8388],[28.9142,-24.8891,1013.1633],[28.9384,-24.8732,994.96],[28.9618,-24.9139,987.1351],[28.9894,-24.903199999999998,968.5723],[28.9937,-24.912,967.8374],[29.0559,-24.9123,953.6993],[29.0718,-24.9406,992.7421],[29.0829,-24.9812,935.328],[29.1586,-24.9527,912.8586],[29.1737,-24.9493,896.5772],[29.1831,-24.9399,890.8103],[29.1789,-24.9141,896.7073],[29.1758,-24.9054,902.1364],[29.2039,-24.8957,929.6324],[29.2163,-24.8522,949.8863],[29.2298,-24.8127,937.7599],[29.2644,-24.8122,990.6979],[29.2756,-24.7914,999.101],[29.2707,-24.7785,975.3054],[29.272,-24.7426,934.8972],[29.2474,-24.7136,889.2766],[29.3043,-24.6916,868.41],[29.3699,-24.6634,858.6968],[29.3941,-24.6584,874.8472],[29.3749,-24.6174,845.4281],[29.4005,-24.6085,835.0063],[29.3872,-24.5743,863.4949],[29.3575,-24.5881,845.9878],[29.3345,-24.5557,882.0342],[29.2922,-24.4497,925.371],[29.271,-24.4181,964.7674],[29.2629,-24.3982,1024.274]]]]}
,"properties": {"GID_3": "ZAF.5.5.5_1","GID_0": "ZAF","country": "SouthAfrica","GID_1": "ZAF.5_1","province": "Limpopo","NL_NAME_1": "NA","GID_2": "ZAF.5.5_1","county": "Waterberg","NL_NAME_2": "NA","city": "Mookgopong","VARNAME_3": "NA","NL_NAME_3": "NA","TYPE_3": "LocalMunicipality","ENGTYPE_3": "LocalMunicipality","CC_3": "LIM364","HASC_3": "NA","name": "Mookgopong.city","area_km2": 5702.28,"hist_schema_id": "Elevation0-9000","hist_area_km2": {"825": 3.489,"850": 38.878,"875": 89.036,"900": 192.02,"925": 471.976,"950": 452.71,"975": 351.836,"1000": 435.182,"1025": 438.546,"1050": 355.455,"1075": 570.217,"1100": 353.58,"1125": 218.796,"1150": 91.177,"1175": 88.455,"1200": 88.677,"1225": 92.124,"1250": 99.758,"1275": 122.439,"1300": 116.74,"1325": 93.501,"1350": 92.651,"1375": 100.989,"1400": 92.829,"1425": 83.696,"1450": 70.505,"1475": 64.436,"1500": 58.762,"1525": 56.967,"1550": 54.683,"1575": 54.638,"1600": 49.223,"1625": 44.156,"1650": 39.148,"1675": 32.478,"1700": 26.179,"1725": 11.786,"1750": 3.362,"1775": 1.179}}}