{"type": "Feature","bbox": [23.3622,-28.5879,23.8914,-27.8793],"geometry": {"type": "MultiPolygon","coordinates": [[[[23.8411,-28.2754,1402.2163],[23.8484,-28.2594,1404.0697],[23.8607,-28.1998,1412.3069],[23.8914,-28.1259,1416.5907],[23.8582,-28.1116,1431.4641],[23.8237,-28.0991,1444.0886],[23.7907,-28.0828,1466.9297],[23.8346,-28.0151,1461.1012],[23.6372,-27.9095,1554.9977],[23.6287,-27.9217,1566.6005],[23.6047,-27.9076,1607.6346],[23.597,-27.9112,1603.0292],[23.5905,-27.8899,1616.0569],[23.5978,-27.8883,1591.7197],[23.5809,-27.8793,1636.7371],[23.5555,-27.8975,1842.5104],[23.4439,-27.9552,1492.0299],[23.4165,-27.9158,1425.9573],[23.3622,-27.9421,1391.6731],[23.4412,-28.086,1632.6409],[23.4755,-28.0976,1582.8544],[23.5236,-28.0953,1742.3445],[23.4872,-28.1602,1499.7919],[23.4731,-28.1768,1567.4469],[23.4421,-28.203,1694.115],[23.3988,-28.2824,1634.8314],[23.4201,-28.295,1679.1812],[23.3887,-28.3716,1591.0707],[23.4583,-28.4062,1593.0754],[23.5035,-28.4152,1438.0654],[23.5682,-28.4499,1436.363],[23.5431,-28.5173,1431.9766],[23.6303,-28.5544,1410.4382],[23.6535,-28.5664,1407.6417],[23.7074,-28.5879,1391.1289],[23.7547,-28.5288,1388.3813],[23.7924,-28.4911,1382.4778],[23.7673,-28.4715,1390.7781],[23.8281,-28.391,1383.7135],[23.8285,-28.3863,1385.2036],[23.8423,-28.3487,1397.0865],[23.8144,-28.3338,1397.7601],[23.8411,-28.2754,1402.2163]]]]}
,"properties": {"GID_3": "ZAF.8.5.4_1","GID_0": "ZAF","country": "SouthAfrica","GID_1": "ZAF.8_1","province": "NorthernCape","NL_NAME_1": "NA","GID_2": "ZAF.8.5_1","county": "Siyanda","NL_NAME_2": "NA","city": "Kgatelopele","VARNAME_3": "NA","NL_NAME_3": "NA","TYPE_3": "LocalMunicipality","ENGTYPE_3": "LocalMunicipality","CC_3": "NC086","HASC_3": "NA","name": "Kgatelopele.city","area_km2": 2482.15,"hist_schema_id": "Elevation0-9000","hist_area_km2": {"1300": 0.037,"1350": 0.037,"1375": 9.247,"1400": 304.811,"1425": 435.95,"1450": 610.332,"1475": 226.517,"1500": 207.686,"1525": 175.783,"1550": 125.363,"1575": 79.608,"1600": 64.842,"1625": 60.345,"1650": 53.58,"1675": 46.179,"1700": 35.016,"1725": 22.608,"1750": 14.435,"1775": 7.285,"1800": 2.191,"1825": 0.244,"1850": 0.037}}}