{"type":"Feature","properties":{"GID_3":"ZAF.2.4.4_1","GID_0":"ZAF","country":"SouthAfrica","GID_1":"ZAF.2_1","province":"FreeState","NL_NAME_1":"NA","GID_2":"ZAF.2.4_1","county":"ThaboMofutsanyane","NL_NAME_2":"NA","city":"Nketoana","VARNAME_3":"NA","NL_NAME_3":"NA","TYPE_3":"LocalMunicipality","ENGTYPE_3":"LocalMunicipality","CC_3":"FS193","HASC_3":"NA","name":"Nketoana.city"},
"geometry":{"type": "MultiPolygon","coordinates": [[[[27.6998,-28.0225,1592.4746],[27.7035,-28.0404,1591.1035],[27.7372,-28.0292,1603.4255],[27.7421,-28.0409,1618.3119],[27.7599,-28.0619,1617.0486],[27.8181,-28.0637,1606.863],[27.8074,-28.0679,1603.0026],[27.7997,-28.0811,1576.824],[27.7976,-28.094,1581.1298],[27.7858,-28.0937,1593.2838],[27.7662,-28.0988,1586.5626],[27.771,-28.125,1528.5624],[27.7596,-28.1276,1519.8279],[27.7592,-28.1298,1515.5596],[27.7621,-28.1509,1472.7272],[27.7724,-28.151,1477.4248],[27.7738,-28.1489,1474.0952],[27.7743,-28.1524,1476.8575],[27.8006,-28.1568,1510.5916],[27.7965,-28.1992,1517.7097],[27.809,-28.2036,1521.0596],[27.8044,-28.2142,1535.4031],[27.7902,-28.2159,1518.882],[27.7811,-28.2232,1491.0891],[27.7833,-28.226,1492.4053],[27.7834,-28.2303,1493.0046],[27.7861,-28.2305,1493.3781],[27.7846,-28.2402,1502.7618],[27.7876,-28.2415,1498.2745],[27.7871,-28.2475,1500.249],[27.8376,-28.2294,1564.9598],[27.8868,-28.2434,1549.2302],[27.8958,-28.2286,1547.6857],[27.9475,-28.2297,1689.1831],[27.963,-28.2243,1595.0895],[27.9652,-28.2344,1595.3618],[27.9927,-28.232,1702.1367],[28.0279,-28.2421,1697.8802],[28.0264,-28.2247,1712.8121],[28.0391,-28.2138,1764.2155],[28.0356,-28.1818,1701.9614],[28.028,-28.1768,1684.2206],[28.1136,-28.1301,1577.2069],[28.1319,-28.14,1620.241],[28.1441,-28.1306,1638.2849],[28.1445,-28.1202,1617.6301],[28.1816,-28.1082,1695.9327],[28.2218,-28.1285,1680.0269],[28.2383,-28.1148,1638.359],[28.2653,-28.1181,1659.2906],[28.266,-28.1235,1654.8999],[28.2776,-28.1192,1644.5994],[28.2882,-28.0925,1621.9907],[28.2929,-28.0896,1600.6062],[28.2951,-28.0903,1599.9575],[28.2973,-28.0887,1599.4816],[28.3002,-28.0898,1599.2289],[28.3026,-28.0853,1598.4346],[28.3029,-28.08,1598.2241],[28.2999,-28.0793,1598.927],[28.3122,-28.0602,1597.8499],[28.3204,-28.0597,1644.0149],[28.3377,-28.1019,1626.5214],[28.3725,-28.0641,1658.8428],[28.4152,-28.048,1687.3773],[28.4475,-27.9906,1617.1602],[28.4529,-27.9917,1616.3768],[28.4529,-27.9954,1616.7384],[28.4543,-27.9953,1616.3616],[28.4544,-27.9977,1616.8809],[28.4566,-27.9994,1624.7915],[28.4567,-28.0076,1617.8749],[28.4603,-28.0078,1619.0715],[28.4605,-28.0147,1619.8341],[28.4672,-28.0149,1621.6061],[28.4674,-28.0221,1620.8949],[28.4689,-28.0255,1621.6116],[28.4718,-28.0255,1621.2748],[28.4728,-28.0222,1626.1378],[28.4769,-28.024,1622.259],[28.4785,-28.0184,1622.7252],[28.4819,-28.0201,1622.89],[28.4839,-28.0189,1623.0342],[28.4851,-28.0244,1624.3424],[28.4828,-28.0265,1624.0518],[28.4831,-28.0317,1625.8179],[28.4817,-28.0328,1630.1458],[28.4834,-28.0358,1625.1433],[28.4882,-28.0357,1632.1948],[28.4902,-28.0372,1629.4845],[28.5115,-28.0414,1693.387],[28.5261,-28.0388,1718.5405],[28.5353,-28.0556,1663.5463],[28.5669,-28.0178,1745.9375],[28.6352,-28.0306,1751.0515],[28.7084,-28.0203,1698.8679],[28.7074,-28.0252,1708.3818],[28.7282,-28.0229,1683.1503],[28.7404,-27.9643,1718.7847],[28.7414,-27.9509,1648.6996],[28.7214,-27.9182,1682.21],[28.7463,-27.8978,1689.35],[28.7679,-27.8887,1603.6893],[28.7877,-27.8988,1600.7805],[28.796,-27.8879,1570.8593],[28.7766,-27.8777,1566.7002],[28.7829,-27.8726,1569.8492],[28.7847,-27.868,1566.9467],[28.7839,-27.8573,1565.9089],[28.782,-27.8538,1565.8242],[28.7842,-27.8454,1569.9865],[28.7729,-27.8466,1564.9615],[28.7683,-27.8402,1565.4109],[28.7709,-27.8347,1567.5546],[28.7751,-27.833,1565.3346],[28.7787,-27.8338,1571.2263],[28.7879,-27.8402,1564.9916],[28.7924,-27.8387,1565.049],[28.8042,-27.8285,1564.0713],[28.8074,-27.8211,1565.369],[28.8077,-27.815,1564.7721],[28.8058,-27.8129,1564.6224],[28.7956,-27.813,1562.55],[28.7852,-27.8229,1563.4686],[28.7835,-27.8219,1562.2681],[28.7832,-27.8142,1561.9458],[28.781,-27.8108,1565.0114],[28.7723,-27.8131,1561.5142],[28.7673,-27.8122,1557.1943],[28.766,-27.809,1570.6544],[28.7693,-27.7957,1554.3026],[28.756,-27.7921,1553.0974],[28.7523,-27.7848,1553.234],[28.7562,-27.7815,1551.9041],[28.7666,-27.7795,1552.3979],[28.7661,-27.7743,1555.2733],[28.7676,-27.7711,1557.5774],[28.7768,-27.775,1553.3202],[28.7807,-27.7738,1570.1022],[28.7812,-27.772,1562.7362],[28.7785,-27.7676,1562.6238],[28.7788,-27.7623,1551.1782],[28.7768,-27.7603,1551.4624],[28.7748,-27.7594,1557.3827],[28.7709,-27.7615,1557.9723],[28.7678,-27.7604,1548.2979],[28.7611,-27.7542,1566.0121],[28.7639,-27.7453,1548.5212],[28.7679,-27.743,1546.8931],[28.7653,-27.7375,1560.9611],[28.761,-27.7356,1558.6594],[28.7494,-27.7398,1548.5646],[28.7466,-27.738,1546.2489],[28.7443,-27.7277,1545.7491],[28.7491,-27.7227,1544.1023],[28.754,-27.7106,1561.4917],[28.7435,-27.7135,1547.4443],[28.7408,-27.7126,1543.9209],[28.7388,-27.7092,1542.3909],[28.754,-27.7014,1544.9399],[28.764,-27.7043,1543.207],[28.7709,-27.6982,1542.449],[28.778,-27.7004,1542.3964],[28.7825,-27.6953,1539.8423],[28.7827,-27.6899,1549.4668],[28.7811,-27.6871,1541.4448],[28.7726,-27.6828,1553.4329],[28.7722,-27.678,1537.5092],[28.7686,-27.6743,1552.4495],[28.7589,-27.672,1536.2217],[28.759,-27.6695,1543.7834],[28.7563,-27.6656,1533.3018],[28.7576,-27.6591,1533.843],[28.7489,-27.653,1541.8447],[28.7506,-27.6452,1529.0107],[28.7394,-27.641,1539.9559],[28.7324,-27.6415,1534.6676],[28.7327,-27.6385,1531.8051],[28.7384,-27.6342,1536.0942],[28.7346,-27.6258,1530.6035],[28.7358,-27.6208,1558.9624],[28.7305,-27.6206,1528.1555],[28.7229,-27.6248,1546.8419],[28.7162,-27.6215,1528.2714],[28.717,-27.6178,1534.8041],[28.7279,-27.6139,1529.1714],[28.732,-27.6083,1520.9194],[28.7467,-27.6046,1531.0188],[28.7432,-27.5991,1519.0413],[28.675,-27.5905,1658.3384],[28.6756,-27.5809,1704.4988],[28.6255,-27.6114,1664.9958],[28.6197,-27.606,1671.7798],[28.6172,-27.6075,1672.4658],[28.6028,-27.6025,1665.1074],[28.6201,-27.5896,1676.2419],[28.5975,-27.5624,1619.8737],[28.5915,-27.5721,1600.6691],[28.5775,-27.5645,1647.0282],[28.567,-27.5375,1565.9541],[28.5558,-27.5434,1555.6169],[28.5497,-27.5551,1564.8479],[28.5517,-27.5795,1629.7185],[28.5266,-27.5854,1637.9316],[28.5245,-27.5826,1633.1576],[28.5112,-27.5969,1617.109],[28.4857,-27.5716,1553.9183],[28.4671,-27.5627,1520.8989],[28.4669,-27.5599,1520.4708],[28.47,-27.5576,1522.5793],[28.4677,-27.541,1538.3374],[28.4748,-27.5328,1515.4709],[28.4474,-27.5132,1593.5009],[28.427,-27.5064,1648.8755],[28.4126,-27.5104,1675.9292],[28.3996,-27.5234,1728.6995],[28.3899,-27.5248,1715.4656],[28.3901,-27.5227,1702.7279],[28.3851,-27.521,1694.0286],[28.383,-27.518,1701.0652],[28.3746,-27.5153,1706.0898],[28.3643,-27.5294,1631.9757],[28.3512,-27.5295,1687.9478],[28.3469,-27.5364,1716.7507],[28.3073,-27.5541,1698.9307],[28.294,-27.5426,1759.8599],[28.2942,-27.5492,1759.5607],[28.2847,-27.5562,1761.9696],[28.2842,-27.5669,1733.4644],[28.2581,-27.5723,1732.2217],[28.2563,-27.5413,1699.3593],[28.2511,-27.5086,1660.7645],[28.2509,-27.4978,1647.0226],[28.2282,-27.4901,1611.0349],[28.2274,-27.4978,1619.2224],[28.2225,-27.4974,1617.5425],[28.2162,-27.4903,1642.5049],[28.2102,-27.4982,1633.0916],[28.1946,-27.4954,1655.3704],[28.1887,-27.4818,1722.7905],[28.1657,-27.4995,1714.3984],[28.155,-27.4989,1740.3022],[28.1378,-27.5208,1731.2893],[28.1305,-27.5191,1714.1755],[28.1317,-27.5204,1720.7593],[28.1048,-27.5333,1711.0083],[28.0614,-27.5752,1698.0948],[28.0569,-27.5642,1694.7141],[28.0078,-27.5638,1671.1333],[28.0143,-27.5825,1620.1042],[28.0058,-27.5812,1630.4091],[27.9994,-27.5932,1597.9817],[27.9869,-27.6042,1585.2278],[27.9856,-27.6097,1579.2417],[27.9825,-27.6121,1577.0813],[27.9912,-27.622,1569.4829],[27.9886,-27.6322,1592.5267],[27.949,-27.6378,1569.1931],[27.9481,-27.6355,1566.9476],[27.9198,-27.6426,1575.9937],[27.8819,-27.6385,1570.424],[27.8828,-27.6569,1557.7874],[27.8623,-27.6633,1607.8374],[27.8503,-27.67,1618.2277],[27.8426,-27.6693,1618.3615],[27.8381,-27.6726,1609.1454],[27.8415,-27.7205,1581.28],[27.8628,-27.7895,1579.6667],[27.8641,-27.8531,1543.441],[27.867,-27.8904,1530.5221],[27.8726,-27.9338,1540.6344],[27.823,-27.9337,1513.6851],[27.8108,-27.9503,1482.3223],[27.8041,-27.9442,1482.542],[27.8,-27.9443,1478.3442],[27.8009,-27.9403,1478.2675],[27.7979,-27.9381,1476.9135],[27.7985,-27.9347,1476.1208],[27.7938,-27.9343,1474.3016],[27.7931,-27.9319,1474.5283],[27.7883,-27.9308,1478.2559],[27.7904,-27.9292,1472.5946],[27.7884,-27.928,1479.0258],[27.7894,-27.9269,1472.4084],[27.7878,-27.9245,1480.3831],[27.7917,-27.9189,1474.0037],[27.7874,-27.9159,1468.0413],[27.7862,-27.9132,1467.3138],[27.7775,-27.9102,1463.3997],[27.7729,-27.9107,1462.8635],[27.7661,-27.9149,1463.8469],[27.765,-27.9113,1457.0925],[27.7635,-27.9107,1455.7841],[27.765,-27.909,1456.9202],[27.7585,-27.9048,1453.1864],[27.7528,-27.9127,1460.8105],[27.7541,-27.9183,1469.1505],[27.7377,-27.9282,1492.5198],[27.7273,-27.9591,1563.6521],[27.7181,-27.9562,1557.7866],[27.7047,-27.9836,1599.6591],[27.7193,-27.9829,1573.2289],[27.7187,-27.9848,1597.9752],[27.6954,-28.0026,1591.3445],[27.6998,-28.0225,1592.4746]]]]}}