{"type": "Feature","bbox": [16.9912,-30.095,18.8085,-28.6856],"geometry": {"type": "MultiPolygon","coordinates": [[[[17.8752,-30.083,886.6256],[17.8793,-30.095,801.9005],[17.8878,-30.0387,652.0458],[17.9591,-30.0287,856.8696],[17.9734,-30.0538,1197.9001],[18.0,-30.0659,793.3735],[18.0107,-30.0582,746.7495],[18.0462,-30.0478,938.0692],[18.1272,-30.0165,686.6609],[18.2078,-29.9991,748.608],[18.2181,-29.9109,820.1152],[18.3333,-29.8956,916.4977],[18.3671,-29.9348,928.3878],[18.3891,-29.9292,993.6875],[18.4937,-29.9181,998.9727],[18.5619,-29.893,1014.8695],[18.6055,-29.8604,1002.4476],[18.7256,-29.8641,964.3347],[18.8085,-29.8317,978.9275],[18.7992,-29.7605,988.7875],[18.7611,-29.6756,1040.0458],[18.7273,-29.6733,1036.192],[18.7702,-29.5939,991.2802],[18.7824,-29.5378,973.0365],[18.7766,-29.4836,937.4453],[18.737,-29.4923,924.3289],[18.7487,-29.4181,870.6478],[18.708,-29.4084,887.3013],[18.651,-29.4217,894.5154],[18.6323,-29.3541,826.4614],[18.643,-29.218,746.1637],[18.5955,-29.1385,910.9495],[18.5981,-29.0844,906.6147],[18.6195,-29.0181,986.0257],[18.6063,-28.964,691.4254],[18.5429,-28.9622,621.0062],[18.5229,-28.9083,306.7873],[18.5121,-28.8895,232.3616],[18.5056,-28.8906,218.0828],[18.4907,-28.8873,217.3405],[18.4832,-28.8836,219.1232],[18.471,-28.8833,214.2052],[18.462,-28.8857,213.8171],[18.4484,-28.894,221.0296],[18.4208,-28.9009,213.0511],[18.4055,-28.8965,208.3769],[18.3946,-28.8972,214.9715],[18.367,-28.8934,203.8325],[18.3621,-28.8913,200.5],[18.3559,-28.8841,210.3713],[18.3503,-28.8807,213.6065],[18.3367,-28.8839,202.7942],[18.33,-28.8823,209.3468],[18.3008,-28.8846,200.9054],[18.2635,-28.8794,211.6626],[18.2596,-28.8816,200.3469],[18.2569,-28.8908,196.9065],[18.2532,-28.8959,206.5826],[18.2476,-28.8975,201.9778],[18.226,-28.8939,205.5169],[18.2192,-28.8943,214.1511],[18.2007,-28.9107,202.6387],[18.1928,-28.9158,200.478],[18.188,-28.9161,202.2497],[18.1806,-28.9113,195.5247],[18.1746,-28.9035,197.2452],[18.1621,-28.8974,202.8679],[18.1467,-28.8925,209.8923],[18.1341,-28.8956,205.6278],[18.1278,-28.8951,200.7753],[18.1114,-28.8862,211.4694],[18.1007,-28.8773,201.2904],[18.0831,-28.8706,201.9167],[18.0778,-28.8702,199.9716],[18.0588,-28.8769,196.5055],[18.0532,-28.8768,194.916],[18.0461,-28.8743,199.709],[18.0345,-28.8617,188.5],[18.0264,-28.8464,187.5],[18.0147,-28.8391,191.8067],[18.0117,-28.8345,190.4971],[18.0124,-28.828,186.408],[18.0032,-28.8188,199.9118],[17.9996,-28.8175,190.3085],[17.9935,-28.8095,191.3872],[17.988,-28.8063,188.6629],[17.9848,-28.8075,185.4863],[17.9821,-28.8065,182.9968],[17.9745,-28.7939,187.9331],[17.9628,-28.785,186.4708],[17.9566,-28.7846,185.4465],[17.9448,-28.7892,188.0168],[17.9353,-28.7875,188.5451],[17.9324,-28.7849,189.6521],[17.932,-28.7807,181.5615],[17.9262,-28.7695,190.6587],[17.9199,-28.7648,187.9865],[17.9125,-28.765,182.1249],[17.9072,-28.7724,178.7783],[17.8984,-28.7681,179.3798],[17.8803,-28.7639,199.3607],[17.8287,-28.761,175.4246],[17.8208,-28.7553,182.7913],[17.8058,-28.7545,236.3571],[17.7814,-28.7579,176.1399],[17.7708,-28.7542,176.596],[17.7588,-28.7444,173.5069],[17.7495,-28.7399,166.3433],[17.7426,-28.7423,193.2433],[17.7359,-28.7566,163.5],[17.7314,-28.76,164.6159],[17.7235,-28.7604,163.0],[17.7145,-28.7482,169.8944],[17.7107,-28.7456,167.2204],[17.7043,-28.7447,163.4023],[17.6975,-28.7466,164.6088],[17.6926,-28.7503,169.2833],[17.6853,-28.7613,163.9557],[17.6791,-28.7665,161.6003],[17.6661,-28.7721,162.2537],[17.6474,-28.7738,169.1628],[17.625,-28.7632,157.8259],[17.6218,-28.7629,160.9732],[17.6227,-28.7646,156.4128],[17.6196,-28.7646,154.9989],[17.6161,-28.7607,162.0797],[17.6088,-28.7463,156.5076],[17.6126,-28.7285,157.3791],[17.6123,-28.7236,158.7397],[17.6094,-28.7199,159.5839],[17.61,-28.7129,160.8501],[17.5993,-28.6952,163.9143],[17.5919,-28.6897,153.9062],[17.5801,-28.689,151.0337],[17.5684,-28.6856,155.8165],[17.5605,-28.6867,149.6789],[17.5537,-28.6901,153.919],[17.5536,-28.6948,157.9391],[17.5515,-28.6969,151.3274],[17.542,-28.7011,152.3109],[17.5238,-28.6994,153.4152],[17.4967,-28.6932,150.0326],[17.4913,-28.6933,148.6404],[17.4825,-28.6963,154.4052],[17.4739,-28.7046,146.4805],[17.4716,-28.7052,156.6187],[17.4624,-28.7022,155.4442],[17.4539,-28.708,145.2948],[17.4412,-28.7129,178.9804],[17.431,-28.7213,144.2464],[17.4233,-28.7232,142.3471],[17.4187,-28.722,144.7081],[17.349,-28.7945,817.8187],[17.4622,-28.8545,725.4526],[17.4573,-28.9291,957.7294],[17.4605,-29.0277,899.0801],[17.5406,-29.3376,559.0688],[17.5581,-29.3837,350.0943],[17.5653,-29.3979,595.626],[17.5379,-29.414,584.0182],[17.5208,-29.4374,702.7251],[17.4681,-29.42,611.4615],[17.4093,-29.4207,429.8575],[17.3698,-29.4178,273.4915],[17.3264,-29.4043,240.4507],[17.3407,-29.3589,211.4443],[17.3575,-29.3279,324.0212],[17.2999,-29.3045,471.047],[17.2382,-29.2407,218.4674],[17.2051,-29.2566,202.1271],[17.2084,-29.2579,204.1622],[17.2043,-29.2638,211.3446],[17.1967,-29.2685,197.1893],[17.1927,-29.2663,193.3791],[17.1673,-29.2728,186.2272],[17.1748,-29.3027,215.2997],[17.1326,-29.3088,177.8642],[17.133,-29.3253,186.6555],[17.0916,-29.3338,260.1548],[17.104,-29.3753,344.9745],[17.0868,-29.4437,179.8895],[17.068,-29.4551,119.5495],[17.0373,-29.5007,30.3418],[16.9918,-29.5151,0.0],[16.9912,-29.5187,0.0],[16.9949,-29.5199,0.0],[16.9974,-29.5246,0.0],[16.996,-29.5293,1.2386],[16.9971,-29.5399,0.0],[17.0026,-29.5474,5.7014],[17.0043,-29.5579,2.7719],[17.0026,-29.5596,0.0],[17.004,-29.561,0.0],[17.0035,-29.5646,2.5431],[16.9968,-29.5682,0.0],[16.9974,-29.5729,0.0],[17.0068,-29.5832,0.9314],[17.0068,-29.5851,0.0],[17.0126,-29.5888,4.8163],[17.0132,-29.5924,0.0],[17.0168,-29.5954,0.0],[17.0179,-29.599,0.0],[17.0299,-29.6099,1.5681],[17.0343,-29.6174,0.5982],[17.0338,-29.624,0.0],[17.0315,-29.6262,0.112],[17.0338,-29.6379,0.7426],[17.0362,-29.6426,0.5527],[17.0346,-29.6493,0.0],[17.0371,-29.651,3.7847],[17.0412,-29.6588,0.3277],[17.044,-29.669,1.2273],[17.0429,-29.6735,0.0],[17.0513,-29.679,0.0],[17.0554,-29.689,0.0],[17.0551,-29.6954,0.0],[17.0565,-29.6976,1.3072],[17.0543,-29.7007,0.0],[17.0524,-29.7093,0.0],[17.0551,-29.7104,0.0],[17.0568,-29.7093,3.7875],[17.059,-29.7135,0.0607],[17.0571,-29.7204,0.0],[17.0601,-29.7246,1.9568],[17.0576,-29.7324,0.0],[17.059,-29.7332,1.4787],[17.054,-29.7365,0.0],[17.0576,-29.7404,0.0],[17.0568,-29.7435,0.0],[17.0601,-29.7485,0.9933],[17.0582,-29.7551,0.3399],[17.0629,-29.7668,0.0],[17.0693,-29.7724,0.6322],[17.0674,-29.7743,0.0],[17.0679,-29.7774,0.0],[17.0726,-29.784,3.3908],[17.0726,-29.7882,0.0],[17.0763,-29.7918,3.7025],[17.0732,-29.7987,0.0],[17.0796,-29.8046,0.0],[17.0801,-29.8115,0.0],[17.0743,-29.8118,0.6372],[17.074,-29.8146,0.0],[17.0771,-29.8171,0.3531],[17.0763,-29.8201,0.1363],[17.079,-29.8235,0.1929],[17.0796,-29.8276,0.0],[17.0815,-29.8288,1.86],[17.0824,-29.8335,0.0],[17.0863,-29.8354,0.0404],[17.0863,-29.8399,0.0],[17.0885,-29.8401,0.0],[17.0888,-29.8515,0.0],[17.0926,-29.8546,0.0],[17.0929,-29.8571,0.0],[17.099,-29.8596,8.3121],[17.1007,-29.8676,0.207],[17.1049,-29.8688,0.0],[17.1026,-29.8743,0.0],[17.1035,-29.8804,0.826],[17.1004,-29.886,0.0],[17.1038,-29.886,2.7372],[17.1063,-29.8879,3.041],[17.1063,-29.8901,0.0],[17.1038,-29.8915,0.0],[17.111,-29.8985,0.0],[17.1099,-29.9021,0.7634],[17.1115,-29.9051,2.8295],[17.1121,-29.9151,0.0],[17.1168,-29.9157,4.4548],[17.116,-29.9218,2.8117],[17.119,-29.9276,0.3359],[17.1188,-29.9337,0.402],[17.1262,-29.9371,6.1453],[17.1279,-29.9401,5.8955],[17.1265,-29.9426,0.1768],[17.1288,-29.9457,0.0],[17.1324,-29.9449,0.0],[17.1374,-29.9499,0.0],[17.1374,-29.9538,0.0],[17.1418,-29.9557,0.1295],[17.141,-29.959,0.0],[17.1429,-29.9599,4.1927],[17.144,-29.9635,0.0],[17.1465,-29.964,4.3063],[17.1468,-29.969,0.1303],[17.1501,-29.9707,1.443],[17.1496,-29.9721,0.0],[17.1557,-29.9776,2.7673],[17.1554,-29.9807,0.15],[17.1582,-29.9829,0.3051],[17.1593,-29.9876,0.0506],[17.1576,-29.9885,0.0],[17.1588,-29.9899,2.0399],[17.1568,-29.9951,0.4179],[17.1624,-30.0026,5.6426],[17.1612,-30.0088,5.0496],[17.159,-30.0099,0.0],[17.159,-30.0118,0.0],[17.1621,-30.0132,0.0387],[17.1638,-30.0163,0.5358],[17.1621,-30.0207,0.6872],[17.1646,-30.0207,1.2869],[17.1635,-30.0232,0.0],[17.1665,-30.026,0.0],[17.1651,-30.0285,1.0375],[17.166,-30.034,0.0],[17.171,-30.0376,11.7934],[17.1734,-30.0465,0.0],[17.1771,-30.0465,7.7889],[17.1779,-30.0479,7.7889],[17.1779,-30.0565,0.1462],[17.1799,-30.059,4.528],[17.179,-30.0615,0.0],[17.1826,-30.0604,11.8922],[17.2128,-30.0276,140.3523],[17.2472,-30.0032,159.2433],[17.2856,-30.0632,208.543],[17.3122,-30.0928,150.2797],[17.3961,-30.0189,211.2224],[17.4391,-30.0331,200.3321],[17.5192,-29.9499,387.8873],[17.5616,-30.0471,180.7874],[17.6039,-30.0125,369.4781],[17.7034,-30.0149,649.5897],[17.7325,-30.0207,680.7456],[17.7791,-30.0543,806.6831],[17.8636,-30.0667,770.7351],[17.871,-30.0705,852.9962],[17.8752,-30.083,886.6256]]],
[[[16.9957,-29.5229,0.0],[16.9951,-29.5224,0.0],[16.9932,-29.5226,0.0],[16.9943,-29.524,0.0],[16.9957,-29.5229,0.0]]]]}
,"properties": {"GID_3": "ZAF.8.3.5_1","GID_0": "ZAF","country": "SouthAfrica","GID_1": "ZAF.8_1","province": "NorthernCape","NL_NAME_1": "NA","GID_2": "ZAF.8.3_1","county": "Namakwa","NL_NAME_2": "NA","city": "NamaKhoi","VARNAME_3": "NA","NL_NAME_3": "NA","TYPE_3": "LocalMunicipality","ENGTYPE_3": "LocalMunicipality","CC_3": "NC062","HASC_3": "NA","name": "Nama_Khoi.city","area_km2": 18016.75,"hist_schema_id": "Elevation0-9000","hist_area_km2": {"0": 57.58,"25": 97.57,"50": 68.6,"75": 71.95,"100": 106.46,"125": 232.08,"150": 367.04,"175": 525.1,"200": 604.86,"225": 516.23,"250": 379.9,"275": 226.1,"300": 158.94,"325": 136.19,"350": 131.99,"375": 132.26,"400": 150.05,"425": 169.47,"450": 212.24,"475": 281.46,"500": 311.13,"525": 342.15,"550": 373.74,"575": 403.15,"600": 447.09,"625": 488.33,"650": 529.89,"675": 547.78,"700": 551.71,"725": 579.67,"750": 602.11,"775": 595.93,"800": 553.12,"825": 545.33,"850": 547.49,"875": 550.87,"900": 599.49,"925": 632.98,"950": 675.48,"975": 742.14,"1000": 739.2,"1025": 721.91,"1050": 615.33,"1075": 357.63,"1100": 128.12,"1125": 78.53,"1150": 50.95,"1175": 34.69,"1200": 20.96,"1225": 11.58,"1250": 7.04,"1275": 3.54,"1300": 1.33,"1325": 0.29}}}