{"type": "Feature","bbox": [29.0576,-31.2983,29.5623,-30.6939],"geometry": {"type": "MultiPolygon","coordinates": [[[[29.4312,-30.9751,594.2183],[29.4367,-30.9677,645.2263],[29.4468,-30.9633,588.3414],[29.4526,-30.9664,610.1486],[29.4592,-30.959,602.7915],[29.4596,-30.9539,638.7576],[29.4624,-30.9527,704.0802],[29.4635,-30.9493,790.1674],[29.4546,-30.9306,947.8237],[29.4586,-30.9219,1039.634],[29.4639,-30.916,1109.5942],[29.4716,-30.9134,1055.6429],[29.4781,-30.9194,951.4096],[29.4825,-30.9149,1052.5718],[29.4854,-30.9183,1066.4647],[29.4831,-30.9267,1011.1809],[29.4901,-30.9294,996.4938],[29.4906,-30.9233,934.6154],[29.4952,-30.9206,905.8156],[29.5002,-30.9262,826.8196],[29.5033,-30.9264,804.6375],[29.5052,-30.9293,804.5181],[29.5102,-30.9314,835.7784],[29.5114,-30.9299,820.2721],[29.507,-30.9159,897.5031],[29.509,-30.915,819.2482],[29.5176,-30.9165,846.5891],[29.5183,-30.9188,848.7272],[29.5129,-30.9219,855.1522],[29.5191,-30.9261,833.7192],[29.5217,-30.9254,844.0135],[29.5285,-30.9179,846.7414],[29.5257,-30.9097,855.8395],[29.5289,-30.9093,865.8111],[29.5335,-30.912,884.527],[29.5424,-30.91,877.2993],[29.5418,-30.9056,864.0119],[29.5359,-30.9054,865.1818],[29.539,-30.8978,869.0653],[29.537,-30.8962,878.2398],[29.5373,-30.8925,910.175],[29.55,-30.8875,882.7449],[29.5493,-30.8843,880.9487],[29.5533,-30.8799,887.8661],[29.5577,-30.8821,888.7313],[29.5599,-30.8862,897.0164],[29.5623,-30.883,920.3515],[29.5607,-30.8772,1051.5947],[29.5619,-30.8748,1090.8567],[29.5609,-30.8687,1026.6528],[29.5572,-30.8579,1257.2998],[29.5602,-30.8547,1193.3804],[29.552,-30.8561,1086.629],[29.5488,-30.8539,1042.5979],[29.5508,-30.8498,1073.1504],[29.5591,-30.8475,1136.7841],[29.5564,-30.8436,1237.0054],[29.5499,-30.8451,1218.4858],[29.5459,-30.841,1101.4885],[29.5422,-30.8267,1210.9196],[29.5404,-30.8246,1151.627],[29.5487,-30.8237,1144.3206],[29.5532,-30.8254,1139.9376],[29.556,-30.8292,1123.814],[29.5591,-30.8286,1102.3186],[29.5595,-30.8252,1110.9799],[29.5543,-30.8207,1081.4885],[29.5465,-30.8182,1076.1998],[29.5374,-30.8209,1045.7272],[29.5309,-30.8129,1231.1046],[29.5412,-30.8065,1266.5168],[29.5466,-30.7968,1272.5535],[29.5555,-30.7897,1343.2618],[29.556,-30.7429,1418.9751],[29.5424,-30.7328,1442.8433],[29.5412,-30.729,1472.8223],[29.544,-30.7254,1446.6309],[29.5451,-30.7197,1431.0922],[29.5415,-30.7151,1444.0122],[29.5405,-30.7106,1429.9553],[29.5359,-30.7049,1381.3752],[29.5285,-30.7016,1413.7062],[29.5239,-30.7013,1464.6765],[29.5166,-30.6939,1467.1707],[29.5019,-30.6963,1535.0137],[29.497,-30.6999,1512.6692],[29.4836,-30.7008,1463.1957],[29.47,-30.7226,1501.0374],[29.4636,-30.7254,1505.7109],[29.4655,-30.7293,1501.4362],[29.4608,-30.7355,1479.4553],[29.4555,-30.7345,1519.4321],[29.454,-30.7314,1528.3932],[29.4523,-30.7335,1536.9055],[29.4516,-30.7376,1553.5938],[29.4569,-30.7414,1551.0419],[29.4501,-30.7504,1493.3674],[29.4525,-30.7508,1494.4761],[29.4528,-30.7531,1473.9948],[29.4594,-30.7538,1462.6157],[29.465,-30.759,1425.8245],[29.4603,-30.7629,1391.7889],[29.4599,-30.7676,1398.8843],[29.4539,-30.7698,1497.542],[29.461,-30.7765,1426.4263],[29.4593,-30.7791,1406.7117],[29.461,-30.7818,1385.757],[29.4607,-30.7851,1342.2676],[29.4569,-30.7885,1400.8173],[29.4509,-30.7909,1415.543],[29.4485,-30.7971,1423.5042],[29.4305,-30.812,1303.4238],[29.4314,-30.8144,1338.0793],[29.4272,-30.8118,1258.7809],[29.4223,-30.8117,1332.8711],[29.4226,-30.8188,1380.1879],[29.4195,-30.8217,1487.6893],[29.4076,-30.8258,1543.3672],[29.4082,-30.8354,1596.9084],[29.4051,-30.8408,1643.4578],[29.3925,-30.8368,1655.4761],[29.3585,-30.8392,1372.2671],[29.3479,-30.8427,1248.5229],[29.3244,-30.8603,898.6518],[29.3055,-30.8556,1076.4619],[29.2863,-30.8618,1070.7651],[29.2739,-30.8604,1189.5654],[29.2691,-30.8574,1229.5093],[29.2669,-30.8515,1215.1635],[29.2677,-30.8566,1220.0438],[29.2709,-30.8693,1214.7574],[29.266,-30.8705,1241.8044],[29.2642,-30.8729,1249.7383],[29.265,-30.8756,1264.8048],[29.2589,-30.8785,1224.1342],[29.2542,-30.8688,1250.6783],[29.2485,-30.8682,1185.4598],[29.2434,-30.8707,1129.4633],[29.2387,-30.8706,1108.1838],[29.2345,-30.8741,1056.5652],[29.2311,-30.8704,1064.9957],[29.2191,-30.8708,1030.5865],[29.2165,-30.8724,1038.853],[29.2068,-30.8693,1072.6824],[29.2014,-30.8633,1109.6493],[29.2074,-30.8589,1261.6316],[29.206,-30.8564,1274.2898],[29.2076,-30.8518,1245.2632],[29.2057,-30.8504,1273.6304],[29.2035,-30.8515,1260.9254],[29.1965,-30.8504,1163.5615],[29.1983,-30.8455,1195.0652],[29.1943,-30.8458,1156.2682],[29.195,-30.8421,1140.9403],[29.1656,-30.8192,1265.6337],[29.1572,-30.8306,1253.147],[29.1472,-30.8309,1239.5557],[29.1361,-30.8291,1221.7706],[29.1311,-30.8313,1208.2595],[29.1243,-30.8408,1171.8074],[29.1246,-30.8464,1134.6934],[29.1218,-30.8487,1170.6448],[29.0931,-30.8485,1071.0391],[29.0887,-30.8419,1009.3074],[29.0818,-30.8374,932.5173],[29.0753,-30.8397,900.2094],[29.0726,-30.8488,846.6732],[29.0694,-30.8507,826.6418],[29.0683,-30.8551,845.866],[29.0718,-30.862,820.7474],[29.0776,-30.8643,833.0095],[29.0812,-30.8678,814.816],[29.087,-30.8637,815.2138],[29.0885,-30.8662,811.8719],[29.096,-30.8679,825.541],[29.0976,-30.8713,846.742],[29.0905,-30.8787,804.819],[29.0936,-30.8879,797.3593],[29.0931,-30.8946,822.9497],[29.0651,-30.8821,786.1086],[29.0669,-30.8787,787.4247],[29.0707,-30.8771,782.8773],[29.0709,-30.875,792.1846],[29.0634,-30.8741,784.6686],[29.0579,-30.8776,788.2111],[29.058,-30.8828,792.4293],[29.0659,-30.8898,772.2173],[29.0615,-30.8941,768.9609],[29.0576,-30.902,765.2318],[29.0577,-30.9056,770.9642],[29.0668,-30.9099,801.8658],[29.0728,-30.9051,759.6902],[29.0786,-30.9039,764.0531],[29.0823,-30.9093,752.5606],[29.0827,-30.9164,743.5599],[29.0802,-30.9246,750.9119],[29.0728,-30.9347,743.356],[29.0648,-30.9408,731.6431],[29.0713,-30.9532,735.9364],[29.0703,-30.9624,722.0667],[29.0715,-30.9654,719.8887],[29.0749,-30.9669,730.6594],[29.0833,-30.963,769.8652],[29.0843,-30.9594,713.2946],[29.0821,-30.9551,708.7301],[29.0836,-30.953,714.5095],[29.0877,-30.9522,735.2102],[29.0861,-30.9491,711.6454],[29.0881,-30.9442,707.9586],[29.0949,-30.9427,716.9899],[29.1004,-30.9434,709.2972],[29.109,-30.941,699.0347],[29.1144,-30.9375,701.0341],[29.1259,-30.938,695.3026],[29.1284,-30.9436,720.571],[29.1283,-30.9516,703.9643],[29.1306,-30.9535,689.4796],[29.1343,-30.9543,689.7148],[29.1506,-30.9518,685.8585],[29.1535,-30.9527,709.6985],[29.1545,-30.9565,680.0709],[29.1527,-30.9626,678.2695],[29.1449,-30.9716,677.1794],[29.147,-30.9747,718.5513],[29.1462,-30.9766,658.0969],[29.1366,-30.9725,675.4796],[29.1305,-30.9751,667.7772],[29.1091,-30.9776,645.6282],[29.1039,-30.979,642.8923],[29.102,-30.9812,641.5852],[29.1018,-30.9835,639.0546],[29.104,-30.9847,638.589],[29.1235,-30.9865,632.4075],[29.1376,-30.9902,633.8723],[29.1427,-30.9953,626.5465],[29.1431,-30.9999,652.446],[29.1395,-31.0067,645.1002],[29.1301,-31.0104,631.8909],[29.1229,-31.0158,615.5269],[29.1255,-31.02,628.4893],[29.1203,-31.0242,717.4922],[29.1202,-31.0279,764.6415],[29.1177,-31.0297,811.5986],[29.1155,-31.028199999999998,822.4033],[29.109,-31.0355,927.7095],[29.1032,-31.0293,785.5977],[29.0974,-31.0337,813.1053],[29.0843,-31.0373,874.6969],[29.0789,-31.0403,899.0871],[29.076,-31.0404,911.6824],[29.0698,-31.0348,1006.4675],[29.0623,-31.0396,1057.8352],[29.0617,-31.0431,1049.0067],[29.0695,-31.053,1057.8459],[29.0877,-31.0655,1125.8521],[29.095,-31.0674,1120.7729],[29.1034,-31.0802,1063.3464],[29.1121,-31.0831,1036.9716],[29.1216,-31.0829,1045.4885],[29.1329,-31.092,1117.9696],[29.1307,-31.0972,1093.8241],[29.1349,-31.1088,1099.7634],[29.1353,-31.1203,1121.5537],[29.1424,-31.139,1130.4524],[29.1359,-31.1461,1137.7461],[29.1343,-31.1508,1102.5594],[29.1353,-31.1528,1098.8032],[29.1488,-31.1551,1094.2035],[29.1612,-31.1611,1119.0292],[29.1641,-31.1653,1126.2603],[29.1673,-31.165,1101.0852],[29.1694,-31.1676,1085.3275],[29.1882,-31.1686,1091.8047],[29.1999,-31.1659,1104.6844],[29.2009,-31.1693,1025.2136],[29.2074,-31.1722,1046.8577],[29.2065,-31.1769,1014.803],[29.2076,-31.18,1019.5458],[29.2039,-31.1842,997.0502],[29.1964,-31.1896,963.0189],[29.1933,-31.1863,872.5729],[29.1883,-31.1904,829.6836],[29.1894,-31.1934,903.4858],[29.1866,-31.2005,889.804],[29.1876,-31.2034,876.9664],[29.1938,-31.1986,912.9838],[29.1996,-31.1891,976.9856],[29.2044,-31.1886,941.3254],[29.1984,-31.2024,782.1465],[29.1951,-31.2054,749.4684],[29.1956,-31.2106,716.462],[29.1932,-31.2145,692.7064],[29.1938,-31.2164,679.1269],[29.1847,-31.211,814.8475],[29.1835,-31.2082,845.2289],[29.1797,-31.2078,778.3123],[29.1772,-31.2166,708.6826],[29.1785,-31.2195,678.8417],[29.175,-31.2263,296.8736],[29.1764,-31.2273,305.602],[29.169,-31.2282,261.1996],[29.1728,-31.2347,231.5896],[29.1699,-31.2588,207.2489],[29.1811,-31.2591,212.8566],[29.1901,-31.2639,205.4853],[29.1915,-31.2688,210.5769],[29.1906,-31.2753,182.069],[29.1985,-31.2819,180.2237],[29.2005,-31.2891,188.7284],[29.2043,-31.2957,192.1163],[29.2264,-31.2983,171.4863],[29.2325,-31.2922,182.9854],[29.2352,-31.2864,188.3642],[29.2318,-31.282,184.8162],[29.2251,-31.2852,179.0166],[29.222,-31.2808,179.3589],[29.2361,-31.2653,198.3806],[29.2389,-31.2498,195.4941],[29.2511,-31.2343,210.7867],[29.2514,-31.2213,229.301],[29.248,-31.2164,214.254],[29.2434,-31.2134,244.6902],[29.2418,-31.2095,217.0947],[29.2425,-31.2014,218.5075],[29.2458,-31.195,234.6798],[29.2496,-31.1928,258.8262],[29.2537,-31.194,230.7432],[29.2593,-31.2072,245.0404],[29.2661,-31.2166,257.5808],[29.2746,-31.2179,250.7934],[29.281,-31.2171,247.8081],[29.2833,-31.215699999999998,244.5052],[29.2836,-31.2114,245.3141],[29.2796,-31.2051,249.3666],[29.2794,-31.2003,269.2343],[29.2832,-31.1871,258.9531],[29.2873,-31.1826,256.9085],[29.2948,-31.1868,277.5795],[29.3006,-31.1856,266.8134],[29.3139,-31.1775,309.5568],[29.316,-31.1673,283.8304],[29.3222,-31.1598,289.3679],[29.3301,-31.1585,293.139],[29.3349,-31.1606,310.9898],[29.3382,-31.1662,302.7968],[29.3413,-31.1673,303.5173],[29.3449,-31.1653,315.9142],[29.355,-31.1541,305.5422],[29.3708,-31.1491,310.7374],[29.3742,-31.1466,313.46],[29.3748,-31.1425,315.9869],[29.3727,-31.1407,317.6238],[29.365,-31.137,326.1151],[29.3528,-31.1342,336.4198],[29.3513,-31.1311,339.2616],[29.3533,-31.1259,337.6259],[29.3654,-31.1241,349.6718],[29.3701,-31.1282,368.7637],[29.3778,-31.1199,352.3265],[29.3851,-31.1194,353.9557],[29.3851,-31.1174,357.2117],[29.3798,-31.1141,356.9359],[29.3796,-31.1105,360.5702],[29.3828,-31.1088,365.1535],[29.3903,-31.1115,402.3607],[29.3944,-31.1107,385.3457],[29.3989,-31.1052,370.9861],[29.4014,-31.0971,388.473],[29.4089,-31.0904,378.6591],[29.4158,-31.0922,380.59],[29.4155,-31.0944,381.5542],[29.4107,-31.0985,387.8946],[29.4126,-31.1009,389.7482],[29.4171,-31.1003,396.7538],[29.4204,-31.0957,484.7665],[29.4222,-31.0955,407.3064],[29.4248,-31.0975,415.9654],[29.429,-31.1061,404.9803],[29.4331,-31.1065,411.8715],[29.4367,-31.1037,409.0077],[29.4374,-31.1007,447.5482],[29.4333,-31.089,413.2878],[29.4339,-31.0862,421.5096],[29.4377,-31.0826,479.8543],[29.4365,-31.0791,427.5117],[29.4198,-31.0761,448.9563],[29.4102,-31.0763,440.6963],[29.4085,-31.0775,440.6963],[29.4073,-31.0848,460.8196],[29.4018,-31.0858,468.7169],[29.3997,-31.0827,453.0538],[29.4031,-31.0772,450.9904],[29.4095,-31.0742,453.3754],[29.4142,-31.0682,454.1298],[29.4279,-31.0593,473.4914],[29.433,-31.0506,522.5959],[29.4258,-31.0456,490.0723],[29.4236,-31.0414,490.8594],[29.4272,-31.0195,515.1554],[29.4248,-31.0179,560.9513],[29.4195,-31.0206,515.149],[29.4155,-31.0205,520.3444],[29.4134,-31.0126,557.913],[29.4055,-31.0043,538.5098],[29.4064,-31.0024,541.8613],[29.4156,-30.9984,566.0625],[29.4141,-30.9891,596.6436],[29.4328,-30.9825,568.9965],[29.4312,-30.9751,594.2183]]]]}
,"properties": {"GID_3": "ZAF.1.1.3_1","GID_0": "ZAF","country": "SouthAfrica","GID_1": "ZAF.1_1","province": "EasternCape","NL_NAME_1": "NA","GID_2": "ZAF.1.1_1","county": "AlfredNzo","NL_NAME_2": "NA","city": "Ntabankulu","VARNAME_3": "NA","NL_NAME_3": "NA","TYPE_3": "LocalMunicipality","ENGTYPE_3": "LocalMunicipality","CC_3": "EC444","HASC_3": "NA","name": "Ntabankulu.city","area_km2": 1386.729,"hist_schema_id": "Elevation0-9000","hist_area_km2": {"175": 1.16,"200": 1.758,"225": 2.411,"250": 2.429,"275": 3.318,"300": 4.261,"325": 5.803,"350": 6.13,"375": 6.585,"400": 7.692,"425": 7.693,"450": 9.236,"475": 10.272,"500": 11.998,"525": 12.071,"550": 13.234,"575": 14.723,"600": 16.614,"625": 18.285,"650": 21.628,"675": 21.884,"700": 26.772,"725": 30.389,"750": 33.881,"775": 38.499,"800": 45.041,"825": 49.495,"850": 51.145,"875": 53.532,"900": 57.628,"925": 63.434,"950": 64.456,"975": 62.296,"1000": 63.104,"1025": 59.545,"1050": 57.53,"1075": 52.26,"1100": 46.375,"1125": 42.784,"1150": 35.515,"1175": 33.624,"1200": 34.335,"1225": 27.243,"1250": 21.278,"1275": 15.492,"1300": 13.837,"1325": 13.655,"1350": 13.675,"1375": 12.547,"1400": 12.366,"1425": 11.729,"1450": 10.928,"1475": 10.071,"1500": 8.485,"1525": 4.915,"1550": 3.604,"1575": 3.367,"1600": 1.602,"1625": 0.783,"1650": 0.255,"1675": 0.073}}}