{"type":"Feature","properties":{"GID_3":"ZAF.2.1.4_1","GID_0":"ZAF","country":"SouthAfrica","GID_1":"ZAF.2_1","province":"FreeState","NL_NAME_1":"NA","GID_2":"ZAF.2.1_1","county":"FezileDabi","NL_NAME_2":"NA","city":"Ngwathe","VARNAME_3":"NA","NL_NAME_3":"NA","TYPE_3":"LocalMunicipality","ENGTYPE_3":"LocalMunicipality","CC_3":"FS203","HASC_3":"NA","name":"Ngwathe.city"},
"geometry":{"type": "MultiPolygon","coordinates": [[[[27.824,-27.7874,1562.1189],[27.8628,-27.7895,1579.6667],[27.8415,-27.7205,1581.28],[27.8381,-27.6726,1609.1454],[27.8426,-27.6693,1618.3615],[27.8503,-27.67,1618.2277],[27.8623,-27.6633,1607.8374],[27.8828,-27.6569,1557.7874],[27.8819,-27.6385,1570.424],[27.9198,-27.6426,1575.9937],[27.9481,-27.6355,1566.9476],[27.949,-27.6378,1569.1931],[27.9886,-27.6322,1592.5267],[27.9912,-27.622,1569.4829],[27.9825,-27.6121,1577.0813],[27.9856,-27.6097,1579.2417],[27.9869,-27.6042,1585.2278],[27.9994,-27.5932,1597.9817],[28.0058,-27.5812,1630.4091],[28.0143,-27.5825,1620.1042],[28.0078,-27.5638,1671.1333],[28.0569,-27.5642,1694.7141],[28.0614,-27.5752,1698.0948],[28.1048,-27.5333,1711.0083],[28.1317,-27.5204,1720.7593],[28.1305,-27.5191,1714.1755],[28.1378,-27.5208,1731.2893],[28.155,-27.4989,1740.3022],[28.1657,-27.4995,1714.3984],[28.1887,-27.4818,1722.7905],[28.1946,-27.4954,1655.3704],[28.2102,-27.4982,1633.0916],[28.2162,-27.4903,1642.5049],[28.2225,-27.4974,1617.5425],[28.2274,-27.4978,1619.2224],[28.2282,-27.4901,1611.0349],[28.2509,-27.4978,1647.0226],[28.2507,-27.4791,1627.7845],[28.2579,-27.4571,1612.696],[28.2668,-27.4182,1620.0909],[28.2834,-27.4151,1573.2139],[28.2809,-27.4106,1571.9883],[28.2808,-27.4058,1570.5801],[28.285,-27.403,1569.9406],[28.2852,-27.4006,1569.0646],[28.2837,-27.3999,1569.2959],[28.2846,-27.3982,1568.704],[28.2826,-27.3969,1572.5679],[28.2797,-27.3896,1573.3772],[28.2832,-27.3804,1562.8757],[28.2812,-27.3793,1562.182],[28.2827,-27.379,1563.3656],[28.2819,-27.3777,1562.6342],[28.2836,-27.3714,1562.2263],[28.2796,-27.3692,1560.8992],[28.2807,-27.3639,1559.7563],[28.2836,-27.3628,1562.0605],[28.2833,-27.3595,1566.7083],[28.2869,-27.3589,1557.4608],[28.288,-27.3572,1561.386],[28.2892,-27.3587,1557.5662],[28.2899,-27.3561,1556.4009],[28.2635,-27.3468,1585.0308],[28.2591,-27.3279,1587.6189],[28.2274,-27.2876,1551.9529],[28.2518,-27.2694,1560.3391],[28.264,-27.2562,1544.553],[28.2526,-27.246,1548.8684],[28.2871,-27.2041,1525.8079],[28.2624,-27.1947,1496.0687],[28.2647,-27.1916,1495.2699],[28.2638,-27.1896,1494.7317],[28.2661,-27.1914,1495.2699],[28.268,-27.1904,1493.6659],[28.2642,-27.1862,1494.978],[28.2591,-27.1842,1502.7339],[28.2399,-27.1843,1519.6166],[28.2389,-27.1854,1520.9021],[28.1939,-27.1652,1566.2949],[28.1842,-27.1635,1553.0253],[28.162,-27.1441,1519.6584],[28.1268,-27.1379,1539.8623],[28.1191,-27.1144,1570.2451],[28.1043,-27.086,1555.761],[28.0776,-27.0973,1505.2964],[28.0777,-27.095,1504.6136],[28.0753,-27.0932,1504.6519],[28.0774,-27.0912,1503.7938],[28.0756,-27.0888,1502.6162],[28.0769,-27.0861,1502.1553],[28.0714,-27.0804,1500.6234],[28.0732,-27.0785,1499.8774],[28.0736,-27.0732,1499.2219],[28.0709,-27.0705,1500.8766],[28.0726,-27.0679,1499.2349],[28.0697,-27.0684,1497.9409],[28.0694,-27.0644,1497.7371],[28.0676,-27.0639,1495.3875],[28.0668,-27.0605,1495.0637],[28.064,-27.0619,1494.3955],[28.0625,-27.058,1493.8844],[28.0634,-27.0556,1492.8978],[28.0621,-27.054,1493.1587],[28.0638,-27.0541,1492.1068],[28.0647,-27.0502,1491.3119],[28.067,-27.049,1490.5674],[28.0659,-27.0476,1490.4209],[28.067,-27.0462,1490.7855],[28.0638,-27.0459,1490.3401],[28.0633,-27.0423,1489.5677],[28.0608,-27.0435,1489.7781],[28.0632,-27.0408,1488.2922],[28.0618,-27.04,1487.7571],[28.0616,-27.0361,1487.7581],[28.0591,-27.0339,1487.2355],[28.0597,-27.0319,1486.037],[28.0564,-27.0324,1486.1455],[28.0514,-27.0246,1484.4878],[28.0533,-27.0229,1483.8529],[28.0518,-27.0214,1483.347],[28.0522,-27.0179,1487.6956],[28.0512,-27.0194,1482.5006],[28.0478,-27.0191,1481.873],[28.0492,-27.017,1481.5707],[28.0478,-27.017,1481.1962],[28.0466,-27.0127,1484.6272],[28.0297,-27.0244,1487.5764],[28.0244,-27.0383,1490.9973],[27.9956,-27.0439,1492.092],[27.9737,-27.0424,1499.5432],[27.9554,-27.009,1475.9055],[27.9401,-27.0031,1476.2627],[27.9286,-26.966,1479.1218],[27.8734,-26.9384,1469.5768],[27.8689,-26.9814,1485.7571],[27.8353,-27.0075,1491.2762],[27.8027,-26.9972,1486.2682],[27.7826,-26.9597,1494.9114],[27.7727,-26.9249,1485.3356],[27.7504,-26.9033,1504.4188],[27.7405,-26.8823,1483.8309],[27.7105,-26.8423,1487.4613],[27.6805,-26.829,1485.9983],[27.6941,-26.8089,1476.379],[27.7021,-26.767,1424.6549],[27.7161,-26.7638,1421.1854],[27.7163,-26.7617,1417.5],[27.7017,-26.764,1419.2528],[27.6878,-26.7619,1416.8364],[27.676,-26.7714,1419.4515],[27.6667,-26.7735,1413.308],[27.6431,-26.7685,1411.0],[27.6388,-26.7711,1413.2529],[27.6328,-26.7721,1414.4119],[27.6297,-26.7697,1424.9219],[27.6284,-26.766,1410.0],[27.6358,-26.7515,1409.0],[27.6323,-26.7455,1408.5],[27.6346,-26.7388,1409.6945],[27.6341,-26.7348,1410.7336],[27.6295,-26.7323,1409.3237],[27.6105,-26.7326,1412.4296],[27.6067,-26.7413,1411.4843],[27.6013,-26.7408,1406.9452],[27.5942,-26.737,1404.5],[27.5795,-26.7449,1410.9003],[27.57,-26.7471,1403.0],[27.5699,-26.7546,1402.5],[27.5825,-26.7684,1401.5],[27.5818,-26.7737,1402.3539],[27.5756,-26.7787,1401.7404],[27.569,-26.7811,1405.8359],[27.5552,-26.7733,1405.2574],[27.5498,-26.7752,1414.6506],[27.5378,-26.7851,1398.0],[27.5296,-26.7848,1399.2841],[27.5195,-26.7819,1400.7413],[27.5094,-26.7858,1403.4814],[27.5056,-26.792,1398.6752],[27.5059,-26.7948,1401.7098],[27.5153,-26.804,1394.5],[27.5182,-26.8102,1399.8181],[27.5108,-26.8255,1396.3798],[27.5117,-26.8365,1392.9558],[27.4997,-26.845,1394.73],[27.491,-26.8466,1393.5273],[27.4875,-26.8494,1391.1746],[27.4809,-26.8634,1388.5],[27.476,-26.8835,1386.145],[27.4713,-26.8868,1382.7712],[27.4552,-26.8906,1377.9594],[27.4442,-26.9004,1365.4091],[27.44,-26.8995,1370.2308],[27.4238,-26.9192,1370.6564],[27.4143,-26.9257,1370.8699],[27.4075,-26.9258,1356.2368],[27.4003,-26.9222,1352.4678],[27.3983,-26.916,1353.0449],[27.3913,-26.9138,1349.5957],[27.3895,-26.9064,1343.3634],[27.3515,-26.9423,1414.287],[27.3421,-26.9718,1398.1782],[27.3408,-27.0193,1440.6055],[27.3585,-27.0541,1432.2666],[27.3456,-27.0611,1437.1239],[27.3499,-27.0751,1422.4286],[27.3668,-27.0762,1418.7471],[27.372,-27.0898,1408.4493],[27.3873,-27.0996,1400.7578],[27.3838,-27.1087,1399.1592],[27.3936,-27.1096,1395.0613],[27.3899,-27.1114,1393.8893],[27.3845,-27.1315,1388.1984],[27.393,-27.137,1386.1714],[27.3741,-27.1498,1380.3925],[27.4295,-27.1689,1378.7811],[27.4266,-27.1873,1380.1979],[27.3876,-27.195,1377.3823],[27.3937,-27.2383,1356.0702],[27.3787,-27.2913,1397.9199],[27.3109,-27.2843,1372.285],[27.3091,-27.2865,1373.2458],[27.2702,-27.2851,1360.795],[27.2145,-27.2786,1351.6608],[27.184,-27.2671,1333.5748],[27.1814,-27.2676,1332.8397],[27.1753,-27.264,1332.3339],[27.1747,-27.2694,1333.1506],[27.1768,-27.2726,1332.9302],[27.1889,-27.2815,1334.0449],[27.1873,-27.2872,1335.7523],[27.1472,-27.297,1386.0536],[27.1703,-27.3168,1364.1786],[27.1717,-27.340699999999998,1357.191],[27.1291,-27.3426,1388.2877],[27.1434,-27.3637,1381.561],[27.1634,-27.3666,1392.0618],[27.1625,-27.3708,1391.2206],[27.1718,-27.3722,1395.5719],[27.1718,-27.3976,1406.6439],[27.1937,-27.4013,1409.5205],[27.1951,-27.4044,1407.8518],[27.1861,-27.4201,1489.6163],[27.2321,-27.4746,1433.6382],[27.2575,-27.4721,1436.0786],[27.2978,-27.4642,1409.7871],[27.29,-27.5092,1431.8248],[27.3034,-27.5088,1437.9291],[27.3111,-27.4882,1436.835],[27.3349,-27.4846,1423.7045],[27.3648,-27.4946,1388.597],[27.3706,-27.4863,1391.2715],[27.3842,-27.5066,1411.7799],[27.3939,-27.4974,1417.9928],[27.3788,-27.4794,1396.3993],[27.397,-27.4587,1396.9355],[27.4233,-27.4696,1416.0155],[27.4434,-27.4829,1415.1798],[27.4341,-27.4924,1436.3049],[27.4437,-27.5122,1459.3866],[27.4532,-27.5212,1450.736],[27.4496,-27.5364,1445.5514],[27.436,-27.5705,1425.0139],[27.4677,-27.6059,1462.09],[27.465,-27.6075,1465.2379],[27.4686,-27.6194,1478.4347],[27.434,-27.6157,1457.2181],[27.432,-27.6277,1466.3118],[27.4267,-27.631,1472.7412],[27.4786,-27.6312,1498.5789],[27.5473,-27.6148,1499.7817],[27.5752,-27.6206,1519.3488],[27.5768,-27.6185,1516.5087],[27.6214,-27.6568,1502.4669],[27.6251,-27.6577,1505.0188],[27.6394,-27.6816,1515.0277],[27.5857,-27.7135,1482.744],[27.5668,-27.738,1482.0117],[27.5904,-27.7536,1434.3953],[27.5823,-27.7781,1398.0918],[27.5841,-27.7773,1403.4252],[27.5918,-27.7816,1401.2246],[27.5942,-27.7811,1401.4707],[27.5949,-27.7777,1403.9102],[27.602,-27.7793,1406.9642],[27.6066,-27.7867,1407.0303],[27.6072,-27.7946,1403.0983],[27.6093,-27.7958,1403.1327],[27.6166,-27.7956,1409.1246],[27.6212,-27.8017,1409.6498],[27.6287,-27.8031,1407.7811],[27.6298,-27.8009,1411.0541],[27.6325,-27.8022,1420.1992],[27.6361,-27.8076,1411.7385],[27.6345,-27.811,1413.8948],[27.6379,-27.8156,1410.0769],[27.6421,-27.8196,1411.8282],[27.6456,-27.8193,1415.9392],[27.649,-27.8238,1419.403],[27.6476,-27.8264,1412.8816],[27.6445,-27.8269,1413.7522],[27.6477,-27.8308,1412.9966],[27.6806,-27.8014,1457.8645],[27.7142,-27.8077,1501.1658],[27.7418,-27.8064,1529.0652],[27.8028,-27.7862,1555.6669],[27.824,-27.7874,1562.1189]]]]}}