{"type":"Feature","properties":{"GID_3":"ZAF.4.1.3_1","GID_0":"ZAF","country":"SouthAfrica","GID_1":"ZAF.4_1","province":"KwaZulu-Natal","NL_NAME_1":"NA","GID_2":"ZAF.4.1_1","county":"Amajuba","NL_NAME_2":"NA","city":"Newcastle","VARNAME_3":"NA","NL_NAME_3":"NA","TYPE_3":"LocalMunicipality","ENGTYPE_3":"LocalMunicipality","CC_3":"KZN252","HASC_3":"NA","name":"Newcastle.city"},
"geometry":{"type": "MultiPolygon","coordinates": [[[[30.0024,-27.8787,1221.5762],[30.0196,-27.8962,1285.0696],[30.0618,-27.8885,1368.7561],[30.084,-27.8794,1270.1251],[30.0768,-27.8717,1265.4536],[30.0745,-27.8742,1282.7054],[30.0567,-27.8226,1321.4365],[30.1018,-27.8212,1224.6292],[30.1018,-27.8176,1240.3588],[30.1196,-27.8206,1214.0789],[30.1086,-27.7973,1231.7277],[30.1501,-27.798,1219.7612],[30.1621,-27.8054,1195.1902],[30.1708,-27.7894,1201.8748],[30.2086,-27.7884,1163.3977],[30.2099,-27.7857,1165.9369],[30.2061,-27.7796,1163.3925],[30.2003,-27.7776,1166.6205],[30.189,-27.779,1162.996],[30.1877,-27.7727,1162.8391],[30.2023,-27.769,1164.1328],[30.2055,-27.7659,1163.8804],[30.2106,-27.7567,1164.0767],[30.213,-27.7478,1169.5618],[30.2079,-27.7451,1166.1019],[30.2033,-27.7393,1162.9623],[30.2064,-27.7343,1165.0133],[30.2106,-27.7323,1163.696],[30.2027,-27.7212,1166.9314],[30.1991,-27.7233,1164.9233],[30.1947,-27.7295,1165.8542],[30.1898,-27.7313,1172.6763],[30.185,-27.7297,1167.6548],[30.1824,-27.7276,1168.6541],[30.182,-27.7235,1168.7966],[30.1882,-27.7204,1169.2208],[30.184,-27.7154,1166.8231],[30.1796,-27.7165,1165.6641],[30.1748,-27.7212,1165.9913],[30.173,-27.7206,1169.3701],[30.1723,-27.718,1166.3308],[30.1684,-27.717,1167.2961],[30.1674,-27.7232,1167.0873],[30.1615,-27.7181,1167.4352],[30.1463,-27.7121,1167.9884],[30.1405,-27.7232,1169.6675],[30.133,-27.719,1168.4664],[30.129,-27.7149,1167.8153],[30.1213,-27.7149,1171.2278],[30.1163,-27.7078,1173.2993],[30.1083,-27.7177,1168.9082],[30.1024,-27.7169,1169.7006],[30.0963,-27.7193,1170.1763],[30.0931,-27.7188,1172.4062],[30.0897,-27.7217,1170.1327],[30.0881,-27.7257,1171.0854],[30.0844,-27.7262,1170.9326],[30.0758,-27.7186,1171.5807],[30.0782,-27.7163,1174.0698],[30.0763,-27.7136,1173.4275],[30.079,-27.7123,1171.491],[30.0806,-27.7084,1171.4467],[30.0739,-27.7129,1172.6594],[30.0701,-27.7134,1172.3893],[30.0685,-27.7123,1173.77],[30.0688,-27.7102,1177.3921],[30.0651,-27.7077,1173.3193],[30.0676,-27.7078,1172.3645],[30.0685,-27.706,1174.238],[30.0726,-27.7072,1173.3367],[30.072,-27.7051,1173.4469],[30.0665,-27.7026,1178.519],[30.0612,-27.7066,1175.1997],[30.0578,-27.7004,1175.8063],[30.0502,-27.6986,1176.8405],[30.0491,-27.6936,1175.1658],[30.0464,-27.6912,1175.9102],[30.0476,-27.6881,1175.5222],[30.044,-27.6864,1175.6565],[30.0408,-27.6783,1176.2213],[30.0388,-27.6779,1175.8735],[30.0358,-27.6855,1176.6221],[30.0285,-27.6889,1177.5176],[30.0259,-27.6825,1182.2786],[30.0208,-27.6768,1177.8479],[30.0145,-27.678,1180.6514],[30.0135,-27.6753,1177.7129],[30.0101,-27.6809,1178.4407],[30.0041,-27.6814,1183.0067],[30.0042,-27.6736,1178.743],[29.9949,-27.6712,1179.2749],[29.998,-27.6683,1179.4209],[29.9971,-27.667,1179.9357],[29.9925,-27.6678,1179.8651],[29.9908,-27.6658,1182.6278],[29.9872,-27.6671,1181.2239],[29.9865,-27.6631,1180.8906],[29.9897,-27.6595,1181.7462],[29.9867,-27.6584,1181.9812],[29.9884,-27.6564,1181.6923],[29.9858,-27.6529,1181.8408],[29.9871,-27.6498,1182.25],[29.9844,-27.6478,1183.7067],[29.9858,-27.6442,1182.5565],[29.9816,-27.6357,1185.9058],[29.9762,-27.6345,1185.6621],[29.9761,-27.632,1183.8577],[29.9746,-27.6312,1184.0621],[29.9757,-27.6292,1185.933],[29.9737,-27.6272,1186.6436],[29.9713,-27.6279,1184.4893],[29.9692,-27.6259,1188.5408],[29.9622,-27.6242,1192.6851],[29.9628,-27.6198,1195.2343],[29.956,-27.6164,1196.3358],[29.9544,-27.6109,1197.4006],[29.9513,-27.6079,1202.0386],[29.9433,-27.6045,1211.3621],[29.9433,-27.6015,1214.1376],[29.9396,-27.6002,1215.8552],[29.9396,-27.598,1217.7909],[29.931,-27.5977,1221.1113],[29.9292,-27.593,1218.4095],[29.9326,-27.591,1220.5101],[29.9379,-27.591,1225.0276],[29.9384,-27.5882,1225.5554],[29.9365,-27.5861,1227.7047],[29.9315,-27.5895,1220.1146],[29.9253,-27.5884,1222.5386],[29.9292,-27.5836,1221.8687],[29.9336,-27.5852,1223.6157],[29.9311,-27.5804,1235.4536],[29.9239,-27.5837,1223.3235],[29.9232,-27.5807,1222.8245],[29.9271,-27.5789,1224.189],[29.9202,-27.5798,1225.4329],[29.9225,-27.5693,1228.448],[29.9307,-27.5653,1227.1775],[29.9224,-27.5624,1237.6012],[29.9215,-27.5606,1236.5977],[29.924,-27.549,1238.426],[29.9226,-27.5446,1246.7897],[29.9254,-27.5391,1266.7068],[29.9129,-27.5385,1260.2235],[29.9074,-27.5359,1260.7047],[29.908,-27.5301,1291.6252],[29.912,-27.5301,1290.2839],[29.9127,-27.528199999999998,1279.6995],[29.9113,-27.523,1298.2103],[29.9075,-27.5223,1289.5288],[29.9045,-27.5189,1294.8535],[29.9061,-27.5139,1306.371],[29.9039,-27.5081,1342.358],[29.9086,-27.5075,1325.5612],[29.9063,-27.5034,1339.9629],[29.9121,-27.5005,1359.0194],[29.9083,-27.4982,1359.2179],[29.9113,-27.4942,1397.1498],[29.9103,-27.4902,1450.4685],[29.9142,-27.4903,1382.2034],[29.9152,-27.4834,1392.3943],[29.9139,-27.4769,1391.4912],[29.91,-27.4746,1487.637],[29.9135,-27.4707,1411.3818],[29.9142,-27.4633,1406.0706],[29.9126,-27.4603,1409.1782],[29.9154,-27.4538,1406.063],[29.9115,-27.4508,1427.9038],[29.906,-27.4497,1427.4604],[29.908,-27.4405,1416.1057],[29.9017,-27.4411,1426.7715],[29.9007,-27.4392,1426.0198],[29.902,-27.436,1508.3679],[29.9099,-27.4335,1426.2085],[29.9071,-27.4277,1439.3367],[29.9104,-27.4252,1490.5623],[29.9102,-27.4193,1490.3369],[29.9151,-27.4168,1473.8455],[29.9158,-27.4129,1481.1295],[29.9137,-27.4119,1471.2239],[29.9091,-27.4128,1465.8177],[29.9064,-27.4081,1496.415],[29.9029,-27.408,1510.2495],[29.9032,-27.4057,1515.9506],[29.9055,-27.4041,1543.6238],[29.902,-27.4014,1573.2483],[29.9011,-27.3985,1558.4426],[29.9028,-27.3964,1587.2239],[29.9002,-27.3934,1555.6594],[29.9018,-27.3909,1561.895],[29.8979,-27.3907,1583.7404],[29.902,-27.3866,1565.828],[29.8978,-27.3849,1574.0438],[29.8902,-27.3855,1591.8918],[29.8864,-27.3818,1620.1168],[29.8851,-27.3766,1636.2544],[29.8662,-27.3841,1671.7012],[29.8463,-27.3787,1710.9818],[29.8402,-27.379,1732.2274],[29.8349,-27.3903,1937.1532],[29.836,-27.3969,1931.2266],[29.8337,-27.4038,1921.9108],[29.8249,-27.407,1937.9827],[29.8217,-27.4115,1934.2252],[29.8227,-27.4273,1941.5106],[29.8145,-27.4306,1951.3782],[29.8137,-27.4339,1939.3494],[29.8113,-27.4356,1951.2017],[29.8114,-27.4461,2012.9131],[29.8058,-27.4504,1980.0869],[29.7991,-27.4512,2011.0334],[29.7962,-27.4577,2123.592],[29.7909,-27.4592,2115.9631],[29.7734,-27.4538,2133.4548],[29.7594,-27.4444,2234.1001],[29.7587,-27.4426,2234.5369],[29.7352,-27.4508,1935.8824],[29.7169,-27.4649,1761.4138],[29.7084,-27.4618,1769.176],[29.7032,-27.4718,1803.2454],[29.7143,-27.4804,1735.5831],[29.7319,-27.4879,1761.0631],[29.725,-27.4894,1755.3046],[29.7216,-27.4883,1749.7168],[29.7105,-27.4987,1750.0839],[29.7109,-27.5101,1788.1204],[29.7092,-27.5136,1795.2712],[29.7124,-27.5184,1799.2764],[29.7246,-27.5243,1797.0879],[29.736,-27.5196,1788.827],[29.7434,-27.5231,1767.3923],[29.7449,-27.5255,1749.312],[29.7584,-27.5271,1826.584],[29.7585,-27.5295,1818.1093],[29.7655,-27.5367,1776.3193],[29.766,-27.5413,1796.6873],[29.7711,-27.5464,1780.9634],[29.7721,-27.5534,1794.196],[29.7804,-27.5595,1785.6912],[29.7838,-27.5735,1913.8501],[29.7808,-27.5791,1829.5331],[29.7796,-27.5873,1785.8942],[29.7851,-27.5967,1794.1641],[29.7808,-27.5994,1794.7067],[29.774,-27.5951,1798.5278],[29.7707,-27.5956,1786.0729],[29.7589,-27.6015,1762.4343],[29.757,-27.604,1760.5814],[29.7522,-27.6051,1751.6013],[29.7489,-27.6137,1784.2474],[29.7402,-27.6056,1793.4341],[29.7348,-27.6071,1793.2538],[29.7315,-27.613,1794.0913],[29.7312,-27.6177,1785.114],[29.7281,-27.6167,1782.3032],[29.7229,-27.6188,1783.2512],[29.7196,-27.6257,1826.7643],[29.7206,-27.6268,1813.3589],[29.7183,-27.6295,1817.2533],[29.7148,-27.6319,1811.5726],[29.7121,-27.6306,1806.5881],[29.6979,-27.6408,1801.2607],[29.6844,-27.6377,1793.5863],[29.678,-27.6389,1806.0697],[29.6712,-27.6505,1864.1021],[29.6743,-27.66,1893.848],[29.6698,-27.6672,1960.2964],[29.6701,-27.6701,2048.5771],[29.6779,-27.6771,1996.5061],[29.6838,-27.6796,1975.1951],[29.6854,-27.6814,2003.2552],[29.6854,-27.6862,2057.5708],[29.6939,-27.6953,2037.4254],[29.6997,-27.698,2018.6537],[29.709,-27.6985,2041.1757],[29.7086,-27.7165,1975.8969],[29.7123,-27.7209,1973.4812],[29.71,-27.7222,1974.509],[29.7086,-27.7262,1960.8964],[29.7103,-27.7302,1960.1392],[29.7091,-27.7389,2011.1946],[29.7047,-27.7469,2137.5095],[29.7083,-27.7572,2006.7349],[29.703,-27.7614,1967.4312],[29.7035,-27.7667,1964.7792],[29.7108,-27.7717,1969.1902],[29.7078,-27.7752,1968.8547],[29.709,-27.7799,1962.5364],[29.7127,-27.7805,1960.8396],[29.7175,-27.7875,1958.9016],[29.7115,-27.7927,1973.9113],[29.7108,-27.7956,1982.6978],[29.724,-27.7968,1963.8574],[29.7283,-27.801,1979.4069],[29.7313,-27.8081,1930.657],[29.7293,-27.812,1892.1252],[29.7229,-27.8128,1897.3728],[29.7217,-27.8118,1897.3728],[29.716,-27.8147,1911.5416],[29.7134,-27.8181,1882.3865],[29.7095,-27.8157,1895.4788],[29.7038,-27.8189,1851.4441],[29.7022,-27.8222,1871.965],[29.697,-27.8245,1850.2349],[29.6963,-27.8291,1935.1589],[29.6938,-27.8323,1977.3085],[29.6931,-27.8393,2000.8611],[29.6969,-27.8437,1977.4945],[29.7028,-27.8566,1946.9016],[29.699,-27.8598,1973.3784],[29.6871,-27.8585,1924.936],[29.6896,-27.8644,1893.4521],[29.685,-27.8675,1850.3888],[29.6872,-27.878,1917.0144],[29.6859,-27.8831,1958.1313],[29.683,-27.8836,1966.2935],[29.6827,-27.888,1938.6471],[29.6869,-27.8907,1937.4037],[29.6903,-27.8957,1933.1227],[29.682,-27.9068,1959.4634],[29.678,-27.9088,1962.7522],[29.6717,-27.917,1972.0055],[29.6641,-27.9213,1972.1099],[29.6567,-27.9189,2003.9594],[29.6538,-27.9233,2008.5175],[29.6578,-27.9245,2000.7402],[29.6632,-27.93,1980.4248],[29.6576,-27.9374,1990.0684],[29.6646,-27.9418,1981.1649],[29.6732,-27.9432,1983.335],[29.6798,-27.9574,1987.1995],[29.6768,-27.9595,1985.8452],[29.6866,-27.967,1887.5942],[29.6958,-27.9711,1897.8506],[29.7067,-27.9702,1715.9248],[29.7169,-27.9897,1519.6951],[29.7204,-28.0097,1499.929],[29.7439,-27.9964,1293.4724],[29.7522,-27.9626,1574.0983],[29.7402,-27.96,1542.6743],[29.7502,-27.9456,1542.6943],[29.7603,-27.9601,1453.2988],[29.7605,-27.9835,1285.7634],[29.8324,-27.9921,1308.384],[29.8407,-27.9893,1297.6575],[29.8435,-28.0072,1247.127],[29.845,-28.008,1249.6738],[29.8431,-28.0102,1243.0],[29.8469,-28.0129,1254.36],[29.8466,-28.0156,1243.915],[29.8493,-28.0165,1243.0],[29.8575,-28.0066,1243.0],[29.8626,-28.0061,1244.8035],[29.8626,-28.0113,1243.0],[29.8684,-28.009,1243.0],[29.8712,-28.0038,1243.3115],[29.8671,-27.9986,1246.7197],[29.8759,-28.0014,1243.0],[29.88,-27.9999,1243.0],[29.8808,-27.9973,1245.0865],[29.8867,-28.0048,1243.0],[29.8912,-27.9943,1243.6714],[29.8906,-27.9929,1248.7559],[29.896,-27.9914,1243.9912],[29.9023,-27.996,1243.0],[29.9045,-27.9956,1243.0],[29.9071,-27.9927,1243.0],[29.9067,-27.9896,1243.0],[29.9143,-27.9886,1243.0],[29.917,-27.9832,1243.0],[29.9302,-27.9702,1243.0],[29.9318,-27.9669,1243.0],[29.9416,-27.9672,1243.0],[29.9425,-27.9641,1243.0],[29.9393,-27.9642,1243.0],[29.936,-27.959,1243.0],[29.9363,-27.9548,1243.0],[29.9436,-27.9501,1243.0],[29.9465,-27.9538,1243.0],[29.9517,-27.9523,1233.3997],[29.9525,-27.95,1226.874],[29.9507,-27.9439,1228.0894],[29.9429,-27.9378,1218.3865],[29.9545,-27.933,1215.2148],[29.9565,-27.9287,1199.4034],[29.9607,-27.9296,1204.3639],[29.9612,-27.9327,1239.5647],[29.9885,-27.9387,1239.0642],[30.0058,-27.9154,1234.0393],[30.001,-27.8993,1244.9019],[29.9897,-27.8931,1214.631],[30.0024,-27.8787,1221.5762]]]]}}