{"type":"Feature","properties":{"GID_3":"ZAF.4.11.2_1","GID_0":"ZAF","country":"SouthAfrica","GID_1":"ZAF.4_1","province":"KwaZulu-Natal","NL_NAME_1":"NA","GID_2":"ZAF.4.11_1","county":"Zululand","NL_NAME_2":"NA","city":"eDumbe","VARNAME_3":"NA","NL_NAME_3":"NA","TYPE_3":"LocalMunicipality","ENGTYPE_3":"LocalMunicipality","CC_3":"KZN261","HASC_3":"NA","name":"e_Dumbe.city"},
"geometry":{"type": "MultiPolygon","coordinates": [[[[30.6675,-27.645,1288.8805],[30.6642,-27.6791,1328.3887],[30.7335,-27.6848,1292.2939],[30.7356,-27.6741,1348.9823],[30.7321,-27.6654,1367.6348],[30.7726,-27.6619,1374.7496],[30.7985,-27.6633,1489.3273],[30.8141,-27.6581,1533.1156],[30.8108,-27.6525,1564.577],[30.8118,-27.6481,1523.2192],[30.82,-27.6562,1270.4132],[30.8361,-27.6508,1149.7727],[30.885,-27.6436,1056.4878],[30.9239,-27.6314,1057.4056],[30.9185,-27.6677,1022.8565],[30.9478,-27.6602,1057.6521],[30.9629,-27.6293,1070.4301],[30.9582,-27.6188,933.0272],[31.0484,-27.6222,1045.2517],[31.0398,-27.5914,906.0751],[31.0429,-27.5549,851.2883],[31.0324,-27.5204,744.0],[31.0343,-27.514,744.0],[31.0373,-27.5124,744.0],[31.0389,-27.516,744.0],[31.0442,-27.5195,744.0],[31.0457,-27.5174,744.0],[31.0528,-27.5165,744.0],[31.0562,-27.5224,720.8229],[31.0645,-27.5285,689.5944],[31.071,-27.5367,705.2951],[31.0713,-27.5394,687.8418],[31.0734,-27.5399,710.7477],[31.076,-27.5357,673.3337],[31.0762,-27.5272,668.0607],[31.0702,-27.5228,662.6403],[31.0755,-27.5109,659.9207],[31.0794,-27.5088,714.8854],[31.083,-27.5128,654.5703],[31.0843,-27.5188,653.5715],[31.0891,-27.5192,645.4941],[31.0896,-27.5173,646.0185],[31.0963,-27.5124,686.9669],[31.097,-27.5061,639.2809],[31.0994,-27.5022,647.6013],[31.1137,-27.4944,621.9043],[31.1144,-27.4864,621.7861],[31.1179,-27.4856,618.2975],[31.1278,-27.4911,601.4003],[31.1286,-27.4881,612.4254],[31.1407,-27.4815,603.9147],[31.1425,-27.4782,586.2275],[31.1399,-27.4706,575.9551],[31.143,-27.4681,606.7368],[31.1426,-27.4645,568.9135],[31.1399,-27.4604,566.1781],[31.1424,-27.4557,565.6752],[31.1446,-27.4551,562.4048],[31.1553,-27.4608,600.6163],[31.1546,-27.4628,551.0624],[31.1591,-27.4668,562.281],[31.165,-27.4601,541.5118],[31.1685,-27.4591,534.2198],[31.1704,-27.4567,530.0807],[31.1589,-27.4547,526.2189],[31.1549,-27.456,541.6386],[31.1548,-27.451,618.777],[31.1582,-27.4485,517.8047],[31.1709,-27.4469,519.3785],[31.1757,-27.4425,521.5338],[31.1799,-27.4445,507.5229],[31.188,-27.4444,512.2038],[31.1871,-27.4503,491.5716],[31.1926,-27.4594,513.4055],[31.2025,-27.4492,480.1293],[31.2051,-27.4438,476.4821],[31.2088,-27.4424,489.8702],[31.2085,-27.4398,481.8366],[31.2072,-27.4378,489.2192],[31.1958,-27.4327,504.2697],[31.1893,-27.432,514.5099],[31.1848,-27.4294,575.4532],[31.1807,-27.4314,559.9034],[31.1766,-27.424,542.6924],[31.1741,-27.4228,572.8411],[31.1718,-27.4243,513.8036],[31.1689,-27.4201,519.6105],[31.1661,-27.4209,517.9587],[31.1675,-27.4253,523.2158],[31.165,-27.4268,529.9829],[31.1614,-27.4183,527.4307],[31.1591,-27.4164,525.4514],[31.1501,-27.4246,549.0765],[31.1434,-27.428,604.2736],[31.141,-27.4273,539.5817],[31.1392,-27.4211,608.7254],[31.1341,-27.4234,549.2432],[31.1332,-27.417,585.8453],[31.1307,-27.4143,644.1484],[31.1235,-27.4199,580.6526],[31.1164,-27.4198,565.3109],[31.1153,-27.4167,555.9109],[31.1164,-27.4123,558.5056],[31.1212,-27.4095,561.9207],[31.1331,-27.4074,565.8973],[31.1357,-27.4041,566.1168],[31.1272,-27.4005,572.676],[31.1109,-27.399,579.4271],[31.1078,-27.3966,644.7416],[31.1075,-27.3898,608.9728],[31.1409,-27.3627,1071.3105],[31.101,-27.3358,642.7002],[31.1016,-27.3332,645.1224],[31.0988,-27.3298,646.4281],[31.084,-27.3356,671.3943],[31.0788,-27.3431,675.3405],[31.0652,-27.3383,673.4253],[31.0508,-27.3432,710.0943],[31.0484,-27.3451,683.5205],[31.0462,-27.3519,690.6534],[31.044,-27.3533,710.5215],[31.038,-27.3515,703.01],[31.0348,-27.3458,747.1113],[31.0309,-27.3463,742.0727],[31.0243,-27.3519,756.7456],[31.0205,-27.3606,753.8578],[31.0139,-27.355,783.2142],[31.0106,-27.3491,772.2509],[31.0084,-27.3488,771.8429],[31.0055,-27.3511,776.442],[31.0026,-27.3588,798.007],[30.9847,-27.3575,805.1502],[30.9815,-27.3592,802.7426],[30.9774,-27.358,802.8799],[30.97,-27.3633,807.8326],[30.9631,-27.3658,814.7347],[30.9599,-27.3641,820.6808],[30.9581,-27.3606,841.8725],[30.9554,-27.3597,831.5794],[30.948,-27.3661,848.0316],[30.9427,-27.3682,868.2864],[30.9406,-27.3662,873.2787],[30.9411,-27.3596,889.4366],[30.9382,-27.3568,898.4681],[30.9393,-27.3466,928.6],[30.9315,-27.3405,944.4356],[30.9233,-27.3305,946.3716],[30.9245,-27.3255,947.9985],[30.921,-27.3185,991.3271],[30.9244,-27.3116,966.0917],[30.9237,-27.3057,969.1285],[30.9157,-27.3054,970.8549],[30.9115,-27.3081,977.3893],[30.9084,-27.3053,969.6956],[30.8971,-27.3094,972.0343],[30.8934,-27.3089,972.6306],[30.8867,-27.3108,972.0137],[30.8839,-27.3088,977.3168],[30.8822,-27.3123,972.8119],[30.8762,-27.3142,973.6404],[30.8659,-27.3127,978.3575],[30.8637,-27.3195,976.2524],[30.8648,-27.3318,980.1606],[30.8618,-27.334,976.515],[30.8613,-27.3391,977.2339],[30.8559,-27.337,981.7503],[30.8576,-27.3433,997.642],[30.8543,-27.3444,983.3409],[30.8499,-27.3433,989.189],[30.8449,-27.3461,988.4114],[30.8437,-27.3527,988.3555],[30.8414,-27.3529,991.6047],[30.8378,-27.35,987.956],[30.8302,-27.35,989.82],[30.8225,-27.3542,991.589],[30.8233,-27.3458,990.3113],[30.8286,-27.3447,993.9338],[30.8282,-27.3433,989.9199],[30.8213,-27.3395,997.4047],[30.8205,-27.3361,1000.2722],[30.8161,-27.3401,1005.0428],[30.8083,-27.3389,996.109],[30.8114,-27.3324,1000.634],[30.8048,-27.3345,1002.595],[30.8022,-27.3321,1001.6202],[30.8088,-27.3283,1003.3862],[30.8041,-27.3243,998.9461],[30.7971,-27.3266,1024.637],[30.7969,-27.3224,1013.1401],[30.791,-27.3185,1024.0742],[30.7889,-27.3128,1031.7117],[30.7786,-27.3144,1051.1442],[30.7804,-27.3169,1047.4509],[30.7855,-27.3192,1043.3809],[30.7844,-27.3243,1043.4139],[30.7742,-27.3243,1059.7023],[30.771,-27.3264,1067.5217],[30.769,-27.319,1065.0896],[30.7662,-27.3193,1066.9277],[30.7628,-27.3145,1066.5085],[30.76,-27.3136,1080.0374],[30.7629,-27.3076,1076.78],[30.7583,-27.3044,1090.469],[30.7556,-27.3046,1073.9155],[30.751,-27.2988,1072.7236],[30.7433,-27.3061,1074.677],[30.7419,-27.3032,1072.6096],[30.7439,-27.3006,1086.4462],[30.7412,-27.298,1079.5787],[30.7405,-27.2946,1081.6259],[30.7344,-27.2952,1086.16],[30.7287,-27.2995,1086.6107],[30.7251,-27.2956,1089.1377],[30.7261,-27.2936,1084.6559],[30.7249,-27.2896,1086.5524],[30.7209,-27.2911,1086.3411],[30.7179,-27.2872,1089.505],[30.7186,-27.284,1087.0348],[30.7131,-27.2861,1087.5688],[30.7068,-27.2833,1087.1074],[30.6606,-27.2879,1334.7247],[30.5871,-27.3231,1626.6222],[30.5577,-27.3276,1721.1089],[30.5511,-27.3255,1705.1016],[30.5462,-27.3258,1691.0135],[30.5408,-27.3216,1650.5461],[30.5257,-27.3151,1762.8434],[30.4974,-27.3124,1683.9519],[30.475,-27.3195,1807.9928],[30.4663,-27.3243,1689.1992],[30.4659,-27.3263,1724.588],[30.4623,-27.3252,1847.55],[30.4587,-27.3267,1857.1582],[30.4548,-27.3251,1909.4203],[30.45,-27.326,1849.6023],[30.4483,-27.3277,1874.9679],[30.4447,-27.3575,1262.7731],[30.4494,-27.3589,1255.5925],[30.4541,-27.3538,1239.3962],[30.4549,-27.3503,1241.6628],[30.4577,-27.3513,1235.1129],[30.4651,-27.3493,1226.4373],[30.4634,-27.3467,1231.4893],[30.4679,-27.3467,1220.7725],[30.472,-27.3429,1247.678],[30.4811,-27.3433,1210.324],[30.4863,-27.357,1394.9608],[30.4778,-27.3721,1456.8849],[30.5004,-27.3906,1262.0095],[30.4821,-27.4131,1439.066],[30.4829,-27.4156,1447.0365],[30.4936,-27.4121,1412.3031],[30.5162,-27.4284,1445.314],[30.5096,-27.4566,1409.4529],[30.5206,-27.4693,1428.4512],[30.543,-27.482,1752.2385],[30.5868,-27.4998,1761.3635],[30.5925,-27.5325,1604.6614],[30.6134,-27.5525,1510.798],[30.6152,-27.5608,1350.9303],[30.6418,-27.6015,1503.0867],[30.6247,-27.6284,1491.9033],[30.615,-27.636,1528.3076],[30.6675,-27.645,1288.8805]]]]}}