{"type": "Feature","bbox": [28.0969,-24.6406,30.3662,-22.4474],"geometry": {"type": "MultiPolygon","coordinates": [[[[29.4162,-24.6039,820.8976],[29.434,-24.5987,821.5264],[29.4498,-24.6304,810.3922],[29.4708,-24.6406,780.4987],[29.4725,-24.6325,782.9882],[29.4681,-24.6241,778.0056],[29.469,-24.6216,778.518],[29.4764,-24.6163,780.5125],[29.4798,-24.6103,779.9315],[29.4803,-24.6059,778.7097],[29.4914,-24.6036,778.1168],[29.4964,-24.5913,777.2581],[29.5179,-24.5759,775.1386],[29.5239,-24.5743,775.9415],[29.526,-24.5688,775.8572],[29.5323,-24.5617,773.5468],[29.5389,-24.5602,774.0151],[29.544,-24.5539,773.3605],[29.5502,-24.5521,773.9984],[29.5526,-24.5441,773.6933],[29.5495,-24.536,771.8708],[29.545,-24.5309,770.9078],[29.5455,-24.5284,770.0841],[29.5573,-24.5233,770.7831],[29.5625,-24.5246,770.7679],[29.5649,-24.5232,770.1991],[29.5685,-24.5161,769.6678],[29.5628,-24.5041,768.8019],[29.5715,-24.4967,768.0624],[29.5774,-24.4942,767.0253],[29.5815,-24.4887,766.1481],[29.5849,-24.4871,766.7418],[29.5886,-24.4774,764.2338],[29.5975,-24.4681,763.7273],[29.6084,-24.4614,764.1747],[29.6133,-24.4595,763.6501],[29.6166,-24.4601,762.2589],[29.6204,-24.465699999999998,761.7847],[29.6205,-24.4742,761.6616],[29.622,-24.4763,766.0923],[29.6344,-24.4764,759.97],[29.6394,-24.4745,760.3091],[29.6432,-24.4767,757.6566],[29.6478,-24.4824,758.5224],[29.6515,-24.4794,757.1843],[29.6565,-24.4705,757.5759],[29.6636,-24.4665,756.6249],[29.6676,-24.4623,758.496],[29.6752,-24.4627,755.4064],[29.6826,-24.4672,754.255],[29.6895,-24.4692,755.1893],[29.6952,-24.4678,753.8887],[29.7057,-24.4618,753.4362],[29.719,-24.4593,750.9247],[29.7216,-24.4562,750.7893],[29.7212,-24.4495,752.4993],[29.7296,-24.4445,750.4462],[29.7269,-24.4398,751.3221],[29.7259,-24.43,748.8141],[29.7287,-24.4257,749.3153],[29.7354,-24.427,746.6531],[29.7379,-24.4233,749.1526],[29.737,-24.4159,745.0936],[29.7409,-24.4018,745.0114],[29.7373,-24.392,743.777],[29.7375,-24.3857,746.7022],[29.7679,-24.3532,742.7828],[29.7642,-24.3493,743.5366],[29.7542,-24.3495,739.2113],[29.7517,-24.348,743.9398],[29.7513,-24.3402,739.8621],[29.7449,-24.33,737.3094],[29.7457,-24.3279,742.4962],[29.7556,-24.3268,735.2524],[29.7586,-24.3246,736.1114],[29.7561,-24.3145,735.3748],[29.7567,-24.31,733.3513],[29.7537,-24.3011,735.0222],[29.755,-24.295,733.2162],[29.76,-24.2904,735.0533],[29.7596,-24.2836,732.4963],[29.7609,-24.2799,729.0242],[29.7683,-24.2731,728.1388],[29.7798,-24.2715,731.2462],[29.7906,-24.2674,727.7967],[29.8,-24.2683,727.8253],[29.8054,-24.2613,729.683],[29.806,-24.2532,729.0334],[29.8152,-24.2483,722.9038],[29.8206,-24.2533,722.3933],[29.8479,-24.2542,720.1885],[29.8746,-24.2476,717.4147],[29.8762,-24.233,717.5601],[29.8732,-24.2251,716.8112],[29.8752,-24.2221,723.9264],[29.8811,-24.2221,713.1808],[29.8856,-24.225,716.859],[29.8973,-24.2215,713.5625],[29.9059,-24.2236,715.0616],[29.938,-24.2251,705.8955],[29.9423,-24.2236,702.584],[29.9479,-24.2188,703.3961],[29.9533,-24.2175,701.7454],[29.9608,-24.2191,702.6257],[29.9744,-24.2255,696.712],[29.9776,-24.2239,697.782],[29.9793,-24.2123,700.8593],[29.9823,-24.2091,700.403],[29.9913,-24.2075,703.0967],[29.9966,-24.2105,693.9656],[30.0102,-24.2042,695.0596],[30.0238,-24.2046,725.0703],[30.0309,-24.2068,699.7906],[30.0389,-24.2061,681.7464],[30.0475,-24.2115,693.7394],[30.0491,-24.2176,676.2634],[30.0529,-24.2235,675.482],[30.0707,-24.2389,669.2267],[30.0785,-24.2371,670.7605],[30.0854,-24.2409,668.792],[30.0958,-24.2394,718.4995],[30.1043,-24.2447,703.379],[30.1405,-24.2479,669.0361],[30.147,-24.2558,669.7522],[30.144,-24.2648,666.3588],[30.1479,-24.2726,686.3718],[30.1483,-24.2774,663.838],[30.1434,-24.2873,652.5284],[30.1483,-24.2933,653.6347],[30.1527,-24.2939,648.8126],[30.1634,-24.2996,664.3771],[30.1721,-24.2999,646.9521],[30.1799,-24.3047,649.3297],[30.183,-24.2999,644.9413],[30.2003,-24.288,640.0687],[30.21,-24.2885,641.3912],[30.2224,-24.2844,644.2012],[30.2387,-24.2835,636.2605],[30.2417,-24.2867,636.9532],[30.2408,-24.2908,642.1504],[30.2477,-24.298,640.7456],[30.2525,-24.2996,658.1071],[30.2558,-24.3051,655.0439],[30.2662,-24.3095,631.7613],[30.2743,-24.3205,635.9424],[30.2776,-24.318,625.421],[30.2914,-24.3173,635.6222],[30.325,-24.3107,1257.9539],[30.3662,-24.2831,1826.887],[30.3605,-24.2681,1813.2191],[30.3474,-24.2225,1746.8226],[30.3372,-24.234,1829.7839],[30.2753,-24.213,1342.9941],[30.3095,-24.1897,1612.1459],[30.3516,-24.1724,741.5631],[30.3547,-24.1764,770.6448],[30.3619,-24.1731,713.0847],[30.3594,-24.1692,708.9412],[30.3616,-24.1683,706.7278],[30.3215,-24.1297,834.4518],[30.2949,-24.0959,869.124],[30.2383,-24.1393,1618.9955],[30.2156,-24.0857,1769.3079],[30.0746,-24.012,2021.6544],[30.0431,-23.9725,1886.8566],[30.0143,-23.9834,1783.2335],[29.9975,-24.0007,1187.0935],[29.9909,-23.9944,1314.9893],[29.9685,-23.993,1790.4146],[29.9545,-23.9818,1979.0686],[29.9393,-23.9813,1637.55],[29.901,-23.9636,1625.0291],[29.8982,-23.9582,1709.8972],[29.8948,-23.9438,1611.6234],[29.8781,-23.9464,1637.1332],[29.8638,-23.9514,1592.4604],[29.8544,-23.9219,1272.9827],[29.8703,-23.9176,1299.7039],[29.8757,-23.9178,1304.2238],[29.8851,-23.9139,1321.2109],[29.8896,-23.9081,1332.9744],[29.8899,-23.9049,1342.208],[29.897,-23.8973,1373.3254],[29.8952,-23.8884,1404.1154],[29.8962,-23.8849,1452.5894],[29.8933,-23.8739,1524.53],[29.8979,-23.8626,1581.7463],[29.8865,-23.8551,1858.9222],[29.8968,-23.8277,1596.5684],[29.8791,-23.8228,1499.8062],[29.907,-23.8134,1410.5647],[29.9282,-23.7977,1529.1921],[29.9145,-23.773,1255.1644],[29.9181,-23.7602,1430.55],[29.8884,-23.7416,1354.892],[29.8897,-23.7301,1318.2072],[29.8946,-23.7127,1261.4048],[29.8879,-23.6794,1294.3762],[29.8979,-23.6701,1287.4603],[29.9321,-23.6629,1198.9761],[29.9611,-23.6601,910.1756],[29.9479,-23.64,1077.9926],[29.949,-23.6277,1069.7524],[29.9698,-23.6105,971.287],[29.9991,-23.5918,823.8446],[30.0148,-23.5864,783.2616],[30.0364,-23.573,745.6678],[30.0427,-23.541,978.4543],[30.0473,-23.5352,886.3907],[30.0131,-23.5016,1177.1469],[30.027,-23.4899,1196.0734],[30.018,-23.4634,1123.7238],[29.9973,-23.4699,1213.4219],[30.006,-23.4478,1204.3955],[30.0194,-23.4313,1184.8456],[30.0308,-23.4363,1186.8136],[30.0433,-23.4256,1150.7485],[30.0392,-23.396,1178.2747],[30.0433,-23.3825,1149.1655],[30.0355,-23.375,1053.9895],[30.0377,-23.3387,932.0184],[29.9972,-23.3375,1077.5326],[29.9898,-23.3582,1046.8185],[29.9893,-23.3777,1050.821],[29.9838,-23.3831,1071.5913],[29.976,-23.381,1029.6051],[29.9742,-23.3826,1026.1842],[29.9716,-23.3818,1043.8867],[29.9708,-23.3798,1041.0569],[29.9652,-23.3782,1053.9761],[29.958,-23.3856,1079.4449],[29.9481,-23.3857,1102.5984],[29.9349,-23.3715,1114.1097],[29.9304,-23.379,1122.3723],[29.9311,-23.3967,1166.4564],[29.9281,-23.4022,1162.6655],[29.9155,-23.4055,1135.6949],[29.9028,-23.4017,1104.7925],[29.9,-23.4023,1100.1663],[29.8963,-23.4079,1120.147],[29.8942,-23.4189,1165.6064],[29.8784,-23.4061,1151.0345],[29.8668,-23.4374,1164.801],[29.8408,-23.4301,1124.0735],[29.8096,-23.4266,1118.9573],[29.7654,-23.4293,1135.4513],[29.7419,-23.4352,1086.4373],[29.7401,-23.4058,1065.3732],[29.7117,-23.4215,1050.3247],[29.6788,-23.416,1048.2046],[29.6379,-23.401,1006.9821],[29.6265,-23.4253,984.3235],[29.6178,-23.4265,982.6931],[29.6146,-23.4249,978.5618],[29.6116,-23.4205,979.6767],[29.6092,-23.4088,971.4427],[29.6109,-23.403199999999998,968.0269],[29.6176,-23.3948,963.6429],[29.6185,-23.3891,964.0449],[29.6103,-23.384,957.9906],[29.6004,-23.372,956.8225],[29.612,-23.3442,950.0909],[29.6118,-23.3363,939.2589],[29.6228,-23.327,936.051],[29.6215,-23.3246,935.9596],[29.617,-23.3224,927.4963],[29.5983,-23.298,919.4491],[29.5914,-23.2928,917.2322],[29.5927,-23.2837,913.3307],[29.5909,-23.2763,914.6512],[29.5918,-23.2683,909.7938],[29.5604,-23.2705,960.5507],[29.5341,-23.2754,959.9897],[29.4836,-23.2761,971.2817],[29.4277,-23.28,942.9685],[29.4405,-23.2463,929.594],[29.358,-23.2388,965.524],[29.3155,-23.2515,990.4565],[29.2678,-23.2386,1013.4893],[29.2932,-23.204,978.5289],[29.2629,-23.1979,959.6777],[29.2729,-23.1698,942.511],[29.2664,-23.1694,938.066],[29.2517,-23.1071,905.7183],[29.2824,-23.1148,918.6333],[29.2727,-23.0881,906.6927],[29.3102,-23.0738,895.17],[29.3067,-23.0543,890.5024],[29.2981,-23.0369,886.4469],[29.2845,-23.0023,845.7114],[29.2938,-22.9731,817.9908],[29.2575,-22.9925,827.2266],[29.2554,-22.9624,809.3246],[29.2463,-22.9384,804.3715],[29.2189,-22.9551,809.3435],[29.1833,-22.9735,822.5523],[29.1741,-22.946,822.6208],[29.167,-22.9178,821.7565],[29.1752,-22.8991,819.1108],[29.1934,-22.8696,801.0516],[29.2091,-22.8385,801.8754],[29.2126,-22.8237,788.3812],[29.2229,-22.8074,776.1377],[29.2449,-22.7353,810.496],[29.2047,-22.7126,838.8604],[29.2402,-22.6858,817.1893],[29.2094,-22.6628,837.3427],[29.1999,-22.6225,795.3517],[29.1756,-22.5768,782.9109],[29.1659,-22.5531,784.1652],[29.1073,-22.5392,786.4272],[29.0617,-22.5484,774.1943],[29.0388,-22.5573,773.7874],[29.0139,-22.5706,758.6202],[28.9791,-22.5811,876.4666],[28.9611,-22.561,749.0272],[28.9329,-22.5211,693.916],[28.902,-22.512,642.932],[28.9058,-22.5083,640.8016],[28.9048,-22.4976,640.9585],[28.906,-22.4922,639.8528],[28.9174,-22.4905,637.6303],[28.9196,-22.468,631.1257],[28.9232,-22.4606,626.3404],[28.9233,-22.457,623.4471],[28.9168,-22.4614,626.6652],[28.9118,-22.4614,623.9514],[28.8988,-22.4528,624.3602],[28.8867,-22.4505,629.4376],[28.8809,-22.4478,626.4132],[28.8743,-22.4474,629.3367],[28.8561,-22.4512,634.6597],[28.8314,-22.4626,639.33],[28.8288,-22.4701,639.2851],[28.8338,-22.4809,638.4913],[28.8311,-22.4883,640.4287],[28.7901,-22.4964,648.9669],[28.7762,-22.5007,642.8049],[28.7381,-22.5043,647.3514],[28.7223,-22.5119,646.3727],[28.7077,-22.516,647.7985],[28.7012,-22.5206,648.4559],[28.7005,-22.5264,655.7288],[28.6878,-22.5335,652.9443],[28.6781,-22.5319,652.0377],[28.6698,-22.5347,658.3367],[28.6642,-22.5391,654.8553],[28.658,-22.5483,655.4637],[28.6413,-22.558,659.8198],[28.6174,-22.5625,665.8928],[28.5755,-22.5598,668.0177],[28.5641,-22.561,673.8962],[28.5419,-22.5786,695.7985],[28.5328,-22.5816,698.3379],[28.5235,-22.5874,701.1437],[28.5089,-22.5891,701.8873],[28.4966,-22.5785,704.1462],[28.4791,-22.5709,708.2614],[28.4578,-22.5726,711.8189],[28.45,-22.5694,713.1362],[28.4429,-22.569,712.5376],[28.4231,-22.5731,714.6932],[28.4061,-22.5696,724.0781],[28.3928,-22.5704,719.3248],[28.3833,-22.5693,722.8948],[28.3665,-22.573,720.9966],[28.3536,-22.5717,721.4548],[28.3446,-22.5726,724.6924],[28.3408,-22.5756,729.1752],[28.3348,-22.5885,726.436],[28.3257,-22.5971,725.4791],[28.3062,-22.609,729.249],[28.2988,-22.6087,728.0289],[28.2912,-22.6123,730.3918],[28.2777,-22.6155,727.1558],[28.2739,-22.6213,731.2367],[28.271,-22.6325,735.0637],[28.2672,-22.6388,736.3146],[28.2571,-22.6439,738.2097],[28.2463,-22.6566,740.3416],[28.2366,-22.657,736.6298],[28.2261,-22.6604,737.5107],[28.2192,-22.6646,742.6437],[28.2097,-22.6645,744.3079],[28.1979,-22.6777,747.0455],[28.1826,-22.6886,752.0312],[28.1783,-22.6955,753.2142],[28.164,-22.7116,753.99],[28.1583,-22.7222,752.3333],[28.1637,-22.7403,751.4597],[28.1642,-22.748,751.9728],[28.1624,-22.7559,759.1444],[28.1564,-22.7609,759.5089],[28.151,-22.7696,757.8011],[28.1451,-22.7748,755.6107],[28.1214,-22.7845,760.5729],[28.1101,-22.8005,758.2593],[28.0969,-22.8111,759.782],[28.1352,-22.8324,781.689],[28.1135,-22.845,785.1386],[28.1534,-22.8692,803.573],[28.1313,-22.8788,805.6862],[28.1692,-22.9059,829.8595],[28.1476,-22.916,830.9271],[28.1827,-22.9492,847.8586],[28.2001,-22.9314,843.8506],[28.2346,-22.967,867.0445],[28.2452,-22.998,900.4785],[28.2211,-23.0014,895.068],[28.2243,-23.0493,902.4067],[28.2518,-23.1087,937.5494],[28.2576,-23.1042,932.369],[28.2912,-23.091,950.9404],[28.3371,-23.1228,981.9988],[28.3533,-23.1842,951.9682],[28.3201,-23.204,949.1305],[28.3315,-23.2329,947.1779],[28.3555,-23.2834,984.3539],[28.351,-23.304,1018.9709],[28.377,-23.2999,1082.3442],[28.387,-23.3163,1077.2084],[28.4133,-23.3517,1028.9916],[28.4511,-23.3253,992.2599],[28.474,-23.3122,996.0139],[28.4975,-23.3449,988.9816],[28.5396,-23.351,932.9211],[28.5658,-23.3769,934.2854],[28.593,-23.3785,966.8361],[28.5959,-23.4047,896.8735],[28.6403,-23.394,880.6947],[28.6597,-23.3857,838.0095],[28.6576,-23.3792,837.5714],[28.6581,-23.3734,837.505],[28.6698,-23.3643,834.5449],[28.6772,-23.3612,833.8569],[28.6778,-23.3584,836.7665],[28.6755,-23.353,831.4219],[28.6822,-23.3456,832.1949],[28.6851,-23.3361,829.6146],[28.7358,-23.3309,981.7885],[28.7605,-23.364,952.9459],[28.7772,-23.3793,940.2253],[28.7956,-23.4161,941.4141],[28.8274,-23.4538,981.3135],[28.8655,-23.4864,976.5878],[28.8961,-23.5216,993.8143],[28.9101,-23.5445,1002.466],[28.9693,-23.5979,1055.575],[28.9314,-23.5983,1026.2332],[28.9202,-23.6166,1029.7917],[28.8755,-23.6466,1010.0118],[28.8788,-23.6972,1029.4457],[28.8578,-23.7572,1061.0442],[28.8843,-23.7847,1075.08],[28.8482,-23.7901,1077.7385],[28.8549,-23.8068,1077.066],[28.8494,-23.8299,1095.262],[28.8432,-23.834,1084.3834],[28.8775,-23.8645,1129.7507],[28.9054,-23.8586,1151.1777],[28.9214,-23.8112,1124.8339],[28.966,-23.8268,1169.4128],[28.9984,-23.8412,1226.5833],[28.9821,-23.8778,1195.2937],[29.0055,-23.8982,1222.9905],[29.0449,-23.9056,1322.046],[29.0739,-23.9431,1366.7997],[29.0934,-23.9846,1491.5266],[29.1485,-24.0091,1410.0127],[29.1838,-24.0091,1539.585],[29.1994,-24.0137,1483.1874],[29.1537,-24.0568,1515.5327],[29.1527,-24.0648,1503.6577],[29.1621,-24.0793,1469.994],[29.1853,-24.0704,1547.7635],[29.188,-24.0929,1687.0315],[29.2105,-24.0984,1728.5872],[29.23,-24.1091,1590.511],[29.2342,-24.1454,1890.0363],[29.2285,-24.1441,1891.49],[29.1917,-24.1703,1753.4066],[29.1903,-24.2026,1741.3909],[29.1953,-24.2311,1757.0905],[29.189,-24.2569,1774.343],[29.1688,-24.2702,1652.636],[29.148,-24.2238,1703.2048],[29.0995,-24.2321,1752.5713],[29.0727,-24.2064,1251.8978],[29.032,-24.2478,1166.3069],[29.0441,-24.298,1334.7159],[29.0632,-24.2998,1545.2533],[29.0508,-24.3711,1075.5243],[29.1122,-24.3741,1074.6885],[29.1705,-24.3587,1100.5198],[29.2304,-24.3377,1105.8707],[29.2595,-24.3372,1073.7548],[29.2536,-24.3754,1065.3237],[29.271,-24.4181,964.7674],[29.2922,-24.4497,925.371],[29.3345,-24.5557,882.0342],[29.3575,-24.5881,845.9878],[29.3872,-24.5743,863.4949],[29.4005,-24.6085,835.0063],[29.4162,-24.6039,820.8976]]]]}
,"properties": {"GID_2": "ZAF.5.1_1","GID_0": "ZAF","country": "SouthAfrica","GID_1": "ZAF.5_1","province": "Limpopo","NL_NAME_1": "NA","county": "Capricorn","VARNAME_2": "NA","NL_NAME_2": "NA","TYPE_2": "DistrictMunicipality","ENGTYPE_2": "DistrictMunicipality","CC_2": "DC35","HASC_2": "ZA.NP.CP","name": "Capricorn.county","area_km2": 21755.56,"hist_schema_id": "Elevation0-9000","hist_area_km2": {"625": 5.9,"650": 65.27,"675": 128.63,"700": 222.09,"725": 365.04,"750": 533.42,"775": 862.9,"800": 1167.62,"825": 1168.98,"850": 1097.16,"875": 891.04,"900": 872.18,"925": 943.79,"950": 952.88,"975": 769.29,"1000": 688.92,"1025": 726.81,"1050": 766.44,"1075": 743.84,"1100": 731.7,"1125": 723.46,"1150": 735.93,"1175": 699.77,"1200": 639.58,"1225": 618.62,"1250": 582.81,"1275": 544.67,"1300": 512.69,"1325": 495.29,"1350": 446.93,"1375": 383.69,"1400": 334.39,"1425": 260.35,"1450": 202.02,"1475": 152.2,"1500": 118.53,"1525": 90.93,"1550": 73.15,"1575": 61.71,"1600": 53.91,"1625": 49.61,"1650": 45.5,"1675": 42.33,"1700": 35.9,"1725": 31.35,"1750": 26.54,"1775": 22.07,"1800": 18.35,"1825": 13.19,"1850": 10.05,"1875": 7.57,"1900": 5.98,"1925": 4.14,"1950": 3.72,"1975": 2.46,"2000": 1.18,"2025": 0.52,"2050": 0.21,"2075": 0.21}}}