{"type":"Feature","properties":{"GID_3":"ZAF.5.1.1_1","GID_0":"ZAF","country":"SouthAfrica","GID_1":"ZAF.5_1","province":"Limpopo","NL_NAME_1":"NA","GID_2":"ZAF.5.1_1","county":"Capricorn","NL_NAME_2":"NA","city":"Aganang","VARNAME_3":"NA","NL_NAME_3":"NA","TYPE_3":"LocalMunicipality","ENGTYPE_3":"LocalMunicipality","CC_3":"LIM352","HASC_3":"NA","name":"Aganang.city"},
"geometry":{"type": "MultiPolygon","coordinates": [[[[29.18,-23.8745,1357.4548],[29.1533,-23.867,1428.8903],[29.1497,-23.8482,1358.7871],[29.1718,-23.8144,1354.2654],[29.1726,-23.8272,1362.9009],[29.1874,-23.8159,1341.897],[29.1975,-23.7966,1293.7468],[29.1824,-23.7907,1355.2572],[29.1877,-23.7549,1368.7544],[29.193,-23.733,1346.0308],[29.2229,-23.6535,1233.0446],[29.2528,-23.6415,1209.2904],[29.2666,-23.6427,1177.8636],[29.2763,-23.6223,1157.1434],[29.3186,-23.622,1151.9877],[29.3436,-23.6125,1144.6099],[29.3363,-23.5946,1148.8334],[29.3365,-23.577,1138.8207],[29.3637,-23.5665,1110.3544],[29.351,-23.5406,1095.7671],[29.348,-23.5272,1087.0194],[29.3068,-23.5425,1113.7509],[29.2771,-23.4838,1125.182],[29.2249,-23.4994,1153.3933],[29.2129,-23.4942,1173.9709],[29.2191,-23.4582,1184.8235],[29.2307,-23.4257,1090.4432],[29.1958,-23.4081,1101.6963],[29.1759,-23.4489,1119.9453],[29.1628,-23.4454,1109.2982],[29.1485,-23.444,1113.1487],[29.1034,-23.4292,1082.4038],[29.0663,-23.4228,1093.8743],[29.0769,-23.3886,1055.4711],[29.0263,-23.3766,1048.3398],[29.0107,-23.3706,1045.0717],[28.9956,-23.4174,1038.1113],[28.9607,-23.4107,1032.1664],[28.9486,-23.4523,1029.8112],[28.9571,-23.4916,1052.6465],[28.92,-23.4946,1030.8005],[28.9102,-23.5446,1002.5524],[28.9693,-23.5979,1055.575],[28.9314,-23.5983,1026.2332],[28.9202,-23.6166,1029.7917],[28.8755,-23.6466,1010.0118],[28.8788,-23.6972,1029.4457],[28.8578,-23.7572,1061.0442],[28.8843,-23.7847,1075.08],[28.8482,-23.7901,1077.7385],[28.8549,-23.8068,1077.066],[28.8494,-23.8299,1095.262],[28.8432,-23.834,1084.3834],[28.8775,-23.8645,1129.7507],[28.9054,-23.8586,1151.1777],[28.9214,-23.8112,1124.8339],[28.966,-23.8268,1169.4128],[28.9984,-23.8412,1226.5833],[28.9821,-23.8778,1195.2937],[29.0055,-23.8982,1222.9905],[29.0449,-23.9056,1322.046],[29.0739,-23.9431,1366.7997],[29.0934,-23.9846,1491.5266],[29.12,-23.9965,1396.0745],[29.1363,-23.9924,1355.4614],[29.1818,-23.9769,1442.717],[29.1797,-23.9441,1544.8684],[29.2138,-23.8844,1409.2108],[29.18,-23.8745,1357.4548]]]]}}