{"type":"Feature","properties":{"GID_2":"ZAF.9.3_1","GID_0":"ZAF","country":"SouthAfrica","GID_1":"ZAF.9_1","province":"WesternCape","NL_NAME_1":"NA","county":"CityofCapeTown","VARNAME_2":"NA","NL_NAME_2":"NA","TYPE_2":"DistrictMunicipality","ENGTYPE_2":"DistrictMunicipality","CC_2":"CPT","HASC_2":"ZA.WC.CT","name":"Cityof_Cape_Town.county"},
"geometry":{"type": "MultiPolygon","coordinates": [[[[18.434,-34.1415,4.9195],[18.4321,-34.141,5.2407],[18.4321,-34.1387,5.9767],[18.4385,-34.134,0.0],[18.4385,-34.1324,3.7398],[18.4487,-34.1326,0.0],[18.4504,-34.1274,0.3321],[18.4665,-34.114,8.4429],[18.4701,-34.1082,0.846],[18.4743,-34.1063,1.2076],[18.4946,-34.0988,4.9196],[18.5024,-34.0976,1.9615],[18.5032,-34.096,3.6719],[18.5179,-34.0946,0.0],[18.5482,-34.0882,2.9186],[18.5543,-34.0904,0.0],[18.5601,-34.0854,5.0464],[18.5987,-34.0771,5.1831],[18.6046,-34.0774,1.8327],[18.606,-34.076,7.1135],[18.6157,-34.0746,2.8229],[18.6188,-34.0749,2.9859],[18.6196,-34.0765,0.0],[18.624,-34.074,10.4404],[18.6393,-34.0729,15.6936],[18.6674,-34.074,0.0],[18.6693,-34.0726,12.0612],[18.6729,-34.0743,5.3792],[18.6776,-34.0735,8.0162],[18.6863,-34.0751,0.1982],[18.6876,-34.0724,6.0912],[18.7024,-34.0718,2.2664],[18.7388,-34.0751,2.3057],[18.7646,-34.0796,0.7879],[18.7665,-34.0812,1.3131],[18.7685,-34.0804,0.7423],[18.7682,-34.0818,1.5927],[18.7846,-34.086,4.9619],[18.8132,-34.1007,1.8489],[18.8215,-34.1093,6.0018],[18.8232,-34.1162,0.0],[18.8307,-34.1204,2.263],[18.8312,-34.1246,0.0],[18.8396,-34.1312,0.9307],[18.841,-34.1349,0.0],[18.8446,-34.1374,5.752],[18.8446,-34.1399,0.1919],[18.8546,-34.1482,3.1362],[18.8551,-34.1518,0.0],[18.8651,-34.154,4.6016],[18.8679,-34.1576,0.4316],[18.8674,-34.161,0.0],[18.8632,-34.1629,0.0],[18.8579,-34.1629,0.0],[18.8585,-34.166,1.785],[18.8371,-34.1721,2.6345],[18.8288,-34.1768,1.8016],[18.8221,-34.1818,1.7129],[18.8176,-34.1893,7.4485],[18.8182,-34.1946,0.0],[18.8315,-34.2085,46.5402],[18.8307,-34.2104,0.0],[18.8324,-34.2115,0.0],[18.8321,-34.2149,7.6426],[18.8296,-34.2174,3.8983],[18.8368,-34.2249,0.0],[18.8435,-34.2285,0.0],[18.8526,-34.2382,14.1538],[18.8532,-34.2421,10.0014],[18.8512,-34.2443,0.0],[18.8521,-34.2463,0.1167],[18.8546,-34.2468,20.7039],[18.8529,-34.2496,0.113],[18.8554,-34.251,7.5092],[18.8554,-34.2543,4.5686],[18.8518,-34.2604,0.0],[18.851,-34.2657,0.6435],[18.8451,-34.2693,0.6571],[18.8502,-34.2703,160.9803],[18.8654,-34.2641,410.8173],[18.8677,-34.2574,239.4602],[18.8802,-34.2482,278.8257],[18.8753,-34.2294,786.5774],[18.8929,-34.2343,1125.5244],[18.9004,-34.2275,1129.0562],[18.8986,-34.2208,1156.9736],[18.8994,-34.2169,1039.5848],[18.9084,-34.217,944.967],[18.9139,-34.2109,977.5055],[18.9202,-34.2122,929.7449],[18.9282,-34.2067,843.4943],[18.9307,-34.2035,800.5987],[18.9291,-34.2015,786.3734],[18.931,-34.1959,802.5123],[18.9344,-34.1967,752.2886],[18.9419,-34.1889,698.4071],[18.9544,-34.1838,553.8052],[18.9543,-34.1736,472.9188],[18.9625,-34.1777,460.2313],[18.9803,-34.155,477.3551],[18.9638,-34.1529,432.662],[18.9652,-34.14,434.9986],[18.9439,-34.1382,513.938],[18.9668,-34.1024,1111.6432],[19.0047,-34.0748,1214.0305],[18.9846,-34.0359,1557.2942],[18.9695,-34.0199,827.3297],[18.9437,-34.0037,931.2189],[18.9316,-34.0026,933.3917],[18.9274,-33.9999,1042.3452],[18.9216,-34.0033,909.7285],[18.9179,-34.0088,814.0811],[18.918,-34.0119,803.1827],[18.9227,-34.0128,557.1351],[18.9226,-34.014,551.4474],[18.8972,-34.0264,643.6307],[18.8926,-34.0255,776.9616],[18.8881,-34.0304,593.4931],[18.8852,-34.0303,742.3355],[18.8852,-34.0341,713.368],[18.8792,-34.0321,1035.3662],[18.8783,-34.034,868.3564],[18.8722,-34.034,845.3674],[18.8692,-34.0305,596.1615],[18.8663,-34.0321,572.8386],[18.8553,-34.0309,404.7874],[18.8592,-34.0336,502.699],[18.862,-34.0337,603.6172],[18.8625,-34.0352,709.5222],[18.8604,-34.0364,787.3584],[18.8619,-34.0383,718.8925],[18.8418,-34.0471,264.754],[18.8358,-34.0466,255.3565],[18.833,-34.0429,208.1301],[18.8246,-34.0428,155.07],[18.819,-34.0397,124.3131],[18.8052,-34.0512,85.0163],[18.8152,-34.0512,136.5724],[18.8145,-34.0568,122.9092],[18.813,-34.0563,122.9092],[18.8138,-34.0584,109.527],[18.8092,-34.0634,44.3749],[18.806,-34.054,77.0858],[18.7897,-34.0537,27.081],[18.7827,-34.0495,30.8675],[18.7663,-34.0437,30.2022],[18.7677,-34.0404,61.2463],[18.7637,-34.0387,41.8214],[18.759,-34.0333,28.9622],[18.7548,-34.0346,20.1598],[18.7508,-34.028,12.2259],[18.7444,-34.0248,12.8997],[18.7421,-34.0213,13.4274],[18.7448,-34.0193,26.269],[18.7419,-34.0135,27.5477],[18.7474,-34.0104,35.3579],[18.7459,-34.0064,37.469],[18.7518,-34.0053,34.9786],[18.7377,-33.9893,67.3068],[18.7454,-33.9874,99.7986],[18.7407,-33.9841,89.626],[18.7292,-33.9675,124.7033],[18.7335,-33.9659,153.7073],[18.7308,-33.9628,175.9997],[18.7379,-33.9422,290.214],[18.7369,-33.9406,271.8886],[18.7398,-33.9384,253.4917],[18.7398,-33.936,289.7869],[18.7423,-33.9365,245.7506],[18.744,-33.9322,348.8386],[18.7396,-33.9328,311.2729],[18.7274,-33.9247,279.1747],[18.7248,-33.9258,270.6795],[18.7108,-33.9212,108.0268],[18.7083,-33.9227,110.6746],[18.7153,-33.9036,80.4714],[18.7172,-33.9056,74.411],[18.7193,-33.9035,73.289],[18.7166,-33.902,81.8035],[18.7173,-33.8985,89.6994],[18.7356,-33.891,81.2719],[18.7371,-33.8935,88.6704],[18.7459,-33.8873,95.5602],[18.7514,-33.8935,145.9865],[18.7529,-33.8845,95.6168],[18.7457,-33.874,110.0261],[18.7458,-33.8603,130.6882],[18.7531,-33.85,150.916],[18.7529,-33.8344,128.3919],[18.7684,-33.8327,139.7709],[18.7678,-33.8262,137.1439],[18.7898,-33.8201,143.1526],[18.7903,-33.818,134.8131],[18.788,-33.8166,128.1953],[18.7848,-33.8036,135.6936],[18.7962,-33.7982,165.0141],[18.8098,-33.7813,157.1661],[18.7877,-33.7667,142.7139],[18.811,-33.7588,132.5305],[18.8095,-33.7408,162.997],[18.833,-33.7382,153.2872],[18.8182,-33.7223,122.0996],[18.8211,-33.7166,103.2151],[18.822,-33.7083,92.8433],[18.8132,-33.7065,90.5082],[18.8134,-33.7131,105.761],[18.8102,-33.7137,113.9518],[18.8092,-33.709,92.2158],[18.8062,-33.7102,104.4603],[18.8025,-33.7051,87.4927],[18.7985,-33.7078,86.5832],[18.7946,-33.7068,86.3133],[18.7961,-33.6953,103.1302],[18.7937,-33.6794,128.8755],[18.8022,-33.6737,138.7646],[18.8219,-33.6418,189.3756],[18.7875,-33.6376,179.7742],[18.7782,-33.6491,141.6607],[18.7632,-33.6489,133.675],[18.7598,-33.6656,121.9403],[18.7542,-33.6649,119.7155],[18.752,-33.6768,101.7092],[18.7367,-33.687,104.1979],[18.7304,-33.6856,97.2453],[18.7119,-33.6759,97.5745],[18.7069,-33.6813,97.7801],[18.6927,-33.6813,62.5179],[18.6897,-33.6652,82.4659],[18.6709,-33.6474,86.544],[18.6692,-33.6489,85.8871],[18.6554,-33.6341,89.5756],[18.645,-33.6357,86.3364],[18.627,-33.6246,47.0387],[18.6221,-33.6146,69.8812],[18.618,-33.5844,71.3954],[18.6059,-33.5855,76.9432],[18.5744,-33.5735,178.7717],[18.5686,-33.5621,326.8247],[18.58,-33.5577,162.3927],[18.5764,-33.5315,121.4494],[18.564,-33.5235,134.947],[18.5365,-33.5271,227.6523],[18.5242,-33.5252,255.7729],[18.5231,-33.5188,354.7366],[18.5245,-33.5036,420.9313],[18.514,-33.4962,538.1907],[18.5094,-33.4896,415.3577],[18.4958,-33.4811,352.232],[18.4555,-33.4713,176.7685],[18.4399,-33.4979,119.7265],[18.4262,-33.5112,154.3054],[18.4025,-33.5143,158.7608],[18.3888,-33.5089,149.4181],[18.3837,-33.5117,151.4722],[18.3692,-33.5253,110.4647],[18.3594,-33.5422,93.7334],[18.3604,-33.5489,89.2397],[18.3413,-33.5586,48.1099],[18.343,-33.5706,8.5024],[18.3414,-33.5711,17.6519],[18.3471,-33.5724,4.3964],[18.3576,-33.581,3.3323],[18.3613,-33.5885,0.0],[18.359,-33.5921,0.0],[18.3613,-33.5932,0.1319],[18.3557,-33.599,0.0],[18.3574,-33.6007,0.0],[18.3679,-33.5999,0.0],[18.374,-33.6082,4.6573],[18.3701,-33.6118,0.0],[18.3732,-33.614,2.693],[18.3757,-33.6201,0.0],[18.3835,-33.6207,0.0],[18.3835,-33.6237,0.0],[18.3888,-33.6215,0.0],[18.3946,-33.6237,0.0],[18.4032,-33.6329,0.0],[18.4074,-33.6426,0.0],[18.4171,-33.6529,11.0463],[18.4268,-33.6707,3.1656],[18.4282,-33.6746,1.2297],[18.4229,-33.6765,0.0],[18.4285,-33.6757,1.2297],[18.4296,-33.6785,0.0],[18.4204,-33.6776,0.0],[18.4299,-33.6793,0.0],[18.4376,-33.6929,0.7704],[18.444,-33.7129,2.6704],[18.4429,-33.7168,2.1913],[18.444,-33.7199,1.7537],[18.4393,-33.7285,2.3587],[18.4374,-33.7287,0.6545],[18.4382,-33.7262,0.0],[18.4371,-33.7276,0.0],[18.4346,-33.7274,0.0],[18.4354,-33.7293,0.1313],[18.4335,-33.729,0.0],[18.4335,-33.7324,0.4616],[18.4313,-33.7329,0.0],[18.4313,-33.7346,0.0],[18.436,-33.7404,0.0],[18.4382,-33.7399,0.0],[18.4399,-33.7435,0.0],[18.4407,-33.7568,3.5102],[18.4474,-33.7776,0.0],[18.4588,-33.7979,4.6427],[18.456,-33.8007,0.0],[18.4621,-33.8068,0.0],[18.4654,-33.8071,1.1484],[18.469,-33.8107,5.2862],[18.4779,-33.8246,7.5503],[18.4854,-33.8415,3.3005],[18.489,-33.8574,1.6032],[18.489,-33.8699,0.0],[18.484,-33.8885,0.7721],[18.4857,-33.889,0.7721],[18.4901,-33.8826,1.1341],[18.4915,-33.8829,1.1341],[18.4915,-33.8854,1.3115],[18.4821,-33.8918,2.5593],[18.4724,-33.9074,0.7452],[18.4654,-33.9121,1.2642],[18.4538,-33.9118,1.9302],[18.4454,-33.9054,0.3816],[18.4446,-33.9076,1.9953],[18.4538,-33.9157,0.0],[18.4496,-33.9174,0.0],[18.4354,-33.9082,0.0],[18.4349,-33.9101,0.0],[18.4457,-33.9157,0.1853],[18.4446,-33.9165,2.2238],[18.4407,-33.914,0.0],[18.4432,-33.9179,0.0],[18.4385,-33.916,0.0],[18.441,-33.919,1.0345],[18.4399,-33.9201,3.1756],[18.4268,-33.9099,1.6468],[18.4299,-33.9062,8.417],[18.4335,-33.9074,0.2475],[18.4326,-33.9046,0.0],[18.4279,-33.9029,0.5062],[18.429,-33.8987,0.0],[18.4199,-33.9021,5.2292],[18.4107,-33.8976,0.0],[18.401,-33.9001,2.5096],[18.3976,-33.8993,0.0],[18.3963,-33.906,0.0],[18.3904,-33.9082,0.5853],[18.3846,-33.914,0.0],[18.3838,-33.9174,0.0],[18.3762,-33.921,0.0],[18.3754,-33.9251,0.0],[18.3771,-33.9254,1.6071],[18.3771,-33.9271,6.5741],[18.3743,-33.9276,0.0],[18.3737,-33.9324,0.0],[18.3768,-33.9351,0.0],[18.3754,-33.9393,0.0],[18.371,-33.9407,0.8174],[18.3688,-33.9393,0.0],[18.3707,-33.9451,0.2641],[18.3779,-33.9474,0.0],[18.3768,-33.9526,1.3477],[18.3732,-33.9521,0.1265],[18.3743,-33.9576,0.0],[18.3768,-33.9576,16.64],[18.3768,-33.959,16.5611],[18.3715,-33.9593,0.2264],[18.3712,-33.9637,1.5175],[18.3729,-33.9646,25.0899],[18.3712,-33.9646,0.3208],[18.3724,-33.9665,1.8053],[18.3701,-33.9693,0.0],[18.3707,-33.9729,21.2476],[18.3646,-33.9787,13.5741],[18.3629,-33.9785,1.5218],[18.3635,-33.9804,17.1127],[18.3596,-33.9807,0.0],[18.3532,-33.9868,23.9398],[18.3487,-33.9857,0.0],[18.3465,-33.9868,0.0],[18.3465,-33.9888,2.2348],[18.3443,-33.9896,20.4291],[18.3429,-33.9926,0.0],[18.3437,-33.9971,0.0],[18.3412,-33.9993,0.0],[18.3421,-34.0035,4.7115],[18.3388,-34.0046,1.648],[18.3404,-34.0082,2.5578],[18.3385,-34.0099,38.3311],[18.3346,-34.0096,0.0937],[18.334,-34.0165,3.7924],[18.3307,-34.0196,0.0],[18.3307,-34.0238,0.7515],[18.3221,-34.0271,11.1966],[18.3104,-34.0276,0.8301],[18.3157,-34.0296,0.0],[18.316,-34.0315,5.6478],[18.3129,-34.0365,56.5282],[18.3065,-34.0374,0.0],[18.3065,-34.0401,0.0],[18.3107,-34.0443,3.5917],[18.3207,-34.0468,1.8515],[18.3243,-34.0543,0.0],[18.3285,-34.056,32.7544],[18.3282,-34.0585,0.2128],[18.3401,-34.0624,1.2731],[18.3482,-34.0579,0.0],[18.3496,-34.0526,0.0],[18.3465,-34.0535,1.2006],[18.3454,-34.0513,1.2539],[18.3482,-34.0507,0.0],[18.3476,-34.0485,2.1688],[18.349,-34.0468,2.412],[18.3565,-34.0451,2.8037],[18.3601,-34.0474,1.8416],[18.3626,-34.0521,57.3474],[18.3635,-34.0585,1.0615],[18.3679,-34.0632,0.0],[18.3632,-34.0732,55.683],[18.354,-34.0762,0.0],[18.3538,-34.0879,5.8401],[18.3496,-34.0913,0.0],[18.3521,-34.0943,138.6134],[18.3524,-34.0974,6.3371],[18.3557,-34.0985,0.0],[18.3574,-34.104,3.45],[18.3571,-34.1096,2.1628],[18.3554,-34.1132,1.4699],[18.3532,-34.1143,0.0],[18.3543,-34.1185,3.8592],[18.351,-34.1263,1.5296],[18.3468,-34.1304,2.4487],[18.3418,-34.1274,1.3544],[18.3376,-34.1282,3.6608],[18.3321,-34.1365,7.1542],[18.3229,-34.1379,0.0],[18.3229,-34.1429,0.0772],[18.3188,-34.1449,3.1347],[18.3182,-34.1476,2.8306],[18.3235,-34.1562,4.4101],[18.3277,-34.1579,15.6955],[18.3285,-34.1618,0.615],[18.3324,-34.1657,2.5191],[18.3326,-34.1688,0.097],[18.3368,-34.1724,3.0416],[18.3354,-34.174,0.0],[18.3385,-34.1771,0.5418],[18.334,-34.1746,0.0],[18.3357,-34.1774,-0.1866],[18.3435,-34.1818,0.0],[18.3443,-34.1776,2.2958],[18.3487,-34.1757,7.9804],[18.3512,-34.1765,0.0],[18.3643,-34.1868,0.587],[18.3646,-34.189,1.8617],[18.3707,-34.1951,16.854],[18.3699,-34.1971,0.0],[18.3729,-34.2004,6.0569],[18.3729,-34.2026,3.76],[18.3687,-34.2032,0.2212],[18.3701,-34.2107,0.0],[18.3721,-34.2121,4.6458],[18.3735,-34.2207,0.0],[18.3793,-34.2285,9.862],[18.379,-34.2354,7.8268],[18.3768,-34.2418,0.5588],[18.3815,-34.249,6.7243],[18.3801,-34.2496,1.7641],[18.3807,-34.2521,1.6566],[18.3779,-34.251,0.0],[18.3776,-34.2521,0.0],[18.3826,-34.2562,0.7893],[18.3807,-34.2582,0.8363],[18.3804,-34.2624,1.379],[18.3846,-34.266,2.7258],[18.3807,-34.2713,2.1201],[18.3899,-34.2779,5.8045],[18.3915,-34.2835,1.3403],[18.3979,-34.2893,5.5427],[18.4007,-34.2965,0.0],[18.4046,-34.3007,1.3049],[18.4057,-34.3065,11.4757],[18.4004,-34.3076,4.1473],[18.4004,-34.3088,0.1623],[18.4151,-34.3171,1.7898],[18.4176,-34.3224,1.1566],[18.4201,-34.3226,5.0561],[18.4221,-34.3265,3.0364],[18.4279,-34.3307,0.8843],[18.4312,-34.331,3.3646],[18.4435,-34.3371,0.6847],[18.4487,-34.336,12.3874],[18.4543,-34.3371,3.8786],[18.4582,-34.3404,5.4533],[18.4593,-34.344,5.5347],[18.4721,-34.354,1.548],[18.4746,-34.3585,0.0],[18.4804,-34.3576,0.0],[18.4796,-34.3557,0.0],[18.4821,-34.3546,0.0],[18.4979,-34.3585,0.0],[18.499,-34.3574,0.0],[18.4971,-34.3549,7.0075],[18.491,-34.3512,10.4983],[18.4882,-34.3476,0.0],[18.4826,-34.3476,13.3659],[18.4724,-34.3393,0.0],[18.4701,-34.3329,0.0],[18.4679,-34.3321,0.0],[18.4679,-34.3265,0.0],[18.4604,-34.3199,8.7396],[18.461,-34.3171,4.0932],[18.4657,-34.3162,0.3156],[18.4651,-34.314,0.809],[18.4615,-34.3132,7.4083],[18.461,-34.3107,11.0076],[18.4676,-34.2985,0.0],[18.4668,-34.2926,80.0594],[18.4754,-34.2799,22.2554],[18.4751,-34.2757,19.3941],[18.4688,-34.2713,19.068],[18.4671,-34.2674,95.8886],[18.4701,-34.2618,0.0],[18.4785,-34.2554,0.0145],[18.4757,-34.2435,0.0],[18.4762,-34.2412,0.2864],[18.4785,-34.2412,0.0],[18.4787,-34.239,0.0],[18.4762,-34.2376,0.0],[18.4768,-34.2354,0.0],[18.4749,-34.2343,20.6821],[18.476,-34.2301,0.0],[18.4724,-34.2301,19.6424],[18.4715,-34.2274,0.0],[18.4676,-34.2249,3.4704],[18.4629,-34.2082,1.2903],[18.4579,-34.2054,0.8441],[18.4568,-34.199,0.8946],[18.4529,-34.1979,0.733],[18.4512,-34.1949,0.0],[18.4465,-34.1937,8.6766],[18.4429,-34.1882,0.0],[18.4379,-34.1849,0.0],[18.4368,-34.1862,0.0],[18.4399,-34.1888,0.3378],[18.4418,-34.1885,0.0],[18.4407,-34.1907,0.0],[18.4385,-34.1888,0.3378],[18.4354,-34.1901,0.3705],[18.4363,-34.1868,0.0],[18.4343,-34.1862,0.0],[18.4338,-34.1896,0.0],[18.4307,-34.1918,2.2888],[18.4274,-34.1899,9.9966],[18.4254,-34.1862,2.3588],[18.4265,-34.1771,1.0344],[18.4338,-34.166,0.0],[18.4312,-34.1593,2.9775],[18.4368,-34.1582,0.0],[18.4374,-34.1546,2.0063],[18.441,-34.1499,0.0],[18.4387,-34.144,0.0],[18.434,-34.1415,4.9195]]],
[[[18.584,-34.136,0.0],[18.5818,-34.1354,0.0],[18.5829,-34.141,0.0],[18.5849,-34.1399,0.0],[18.5838,-34.1376,0.9377],[18.5857,-34.1376,0.0],[18.584,-34.136,0.0]]],
[[[18.4404,-33.904,0.0],[18.4387,-33.9026,0.0],[18.4387,-33.9057,0.0],[18.4421,-33.9049,0.0],[18.444,-33.9063,0.0],[18.4449,-33.9051,0.3816],[18.4429,-33.904,0.0],[18.4404,-33.904,0.0]]],
[[[18.3701,-33.7899,3.8915],[18.3643,-33.7887,0.0],[18.3618,-33.7899,0.0],[18.354,-33.8012,0.0],[18.359,-33.8049,1.0407],[18.361,-33.8162,0.0],[18.3693,-33.8215,0.0],[18.374,-33.8215,0.0],[18.3751,-33.8196,0.0],[18.3829,-33.8179,0.0],[18.3838,-33.8138,0.0],[18.3832,-33.8104,0.0],[18.3768,-33.8015,0.0],[18.3793,-33.7985,0.0],[18.379,-33.7965,0.0],[18.374,-33.7957,0.845],[18.3751,-33.7929,0.0],[18.3701,-33.7899,3.8915]]],
[[[18.4546,-33.7962,0.0],[18.4529,-33.7957,0.0],[18.4551,-33.7985,0.0],[18.456,-33.7974,0.1048],[18.4546,-33.7962,0.0]]],
[[[18.4013,-33.6454,0.0],[18.4007,-33.6437,0.0],[18.399,-33.6437,0.0],[18.3999,-33.6471,0.0],[18.4013,-33.6454,0.0]]]]}}