{"type": "Feature","bbox": [26.4584,-26.6125,27.3617,-26.0316],"geometry": {"type": "MultiPolygon","coordinates": [[[[26.6859,-26.5924,1473.8536],[26.6753,-26.6001,1444.7493],[26.7048,-26.6125,1493.3612],[26.7504,-26.6064,1472.4653],[26.783,-26.6111,1494.3157],[26.7867,-26.5936,1471.4491],[26.7822,-26.5875,1460.9534],[26.7807,-26.5827,1468.8818],[26.7881,-26.587,1472.0292],[26.7896,-26.5793,1488.0809],[26.8559,-26.571,1428.1545],[26.8559,-26.5631,1435.3423],[26.8772,-26.5609,1432.708],[26.9455,-26.5636,1475.9274],[26.974,-26.5359,1475.5208],[27.0646,-26.5418,1417.8875],[27.0686,-26.5186,1437.0474],[27.1563,-26.5243,1471.6904],[27.1786,-26.521,1456.947],[27.1882,-26.5258,1469.6418],[27.1828,-26.5203,1464.2904],[27.2125,-26.5148,1593.3629],[27.2314,-26.5055,1609.9104],[27.2238,-26.4518,1546.4259],[27.2248,-26.444,1527.1558],[27.188,-26.3779,1460.8429],[27.2348,-26.3383,1488.1581],[27.2748,-26.3143,1517.2743],[27.2993,-26.3045,1496.0912],[27.3301,-26.2818,1524.8071],[27.3084,-26.2252,1532.6445],[27.2914,-26.1446,1560.4008],[27.3583,-26.1546,1575.0657],[27.3617,-26.1157,1599.6279],[27.3262,-26.1007,1628.1106],[27.2924,-26.0954,1642.0421],[27.2699,-26.0949,1636.5658],[27.2411,-26.092,1615.3574],[27.2107,-26.0826,1537.354],[27.1698,-26.0802,1495.4869],[27.1709,-26.0949,1491.5681],[27.158,-26.0977,1510.7141],[27.142,-26.1007,1549.7271],[27.0927,-26.0961,1587.0629],[27.0884,-26.114,1604.8774],[27.0867,-26.1429,1532.1362],[27.0597,-26.1406,1544.7758],[27.0809,-26.0981,1599.4181],[27.0715,-26.0996,1600.2129],[27.0445,-26.1317,1551.8322],[27.0538,-26.1007,1605.5795],[27.0263,-26.0879,1616.3396],[27.0265,-26.0866,1616.3396],[26.9748,-26.0651,1571.7507],[26.9784,-26.0551,1561.885],[26.9321,-26.0316,1585.8927],[26.9174,-26.0711,1553.7726],[26.8667,-26.0613,1570.2101],[26.8654,-26.0688,1563.5107],[26.8562,-26.0676,1565.1943],[26.855,-26.059,1569.1865],[26.8479,-26.0597,1563.4404],[26.8071,-26.084,1545.6846],[26.7331,-26.1016,1510.983],[26.7092,-26.0476,1594.611],[26.6177,-26.0649,1513.355],[26.6296,-26.1361,1523.2568],[26.5458,-26.1727,1514.0139],[26.5861,-26.2452,1516.6807],[26.5714,-26.252,1515.1316],[26.5347,-26.2642,1504.1074],[26.5587,-26.3098,1496.6331],[26.553,-26.314,1481.5225],[26.555,-26.3259,1465.9213],[26.5807,-26.3359,1455.3364],[26.5783,-26.3377,1447.7546],[26.5716,-26.3344,1457.3281],[26.5228,-26.3551,1451.3857],[26.5183,-26.3675,1434.0725],[26.4837,-26.3864,1407.4432],[26.5007,-26.4166,1391.7523],[26.4584,-26.4351,1440.8948],[26.4786,-26.4791,1402.0413],[26.4599,-26.4835,1437.7686],[26.46,-26.4946,1417.4474],[26.4646,-26.4945,1414.099],[26.5304,-26.5181,1382.9536],[26.5648,-26.5018,1366.6328],[26.6312,-26.516,1345.8615],[26.6567,-26.5362,1383.0673],[26.6947,-26.5587,1443.4691],[26.6956,-26.5858,1475.9553],[26.6859,-26.5924,1473.8536]]]]}
,"properties": {"GID_3": "ZAF.7.2.4_1","GID_0": "ZAF","country": "SouthAfrica","GID_1": "ZAF.7_1","province": "NorthWest","NL_NAME_1": "NA","GID_2": "ZAF.7.2_1","county": "DrKennethKaunda","NL_NAME_2": "NA","city": "Ventersdorp","VARNAME_3": "NA","NL_NAME_3": "NA","TYPE_3": "LocalMunicipality","ENGTYPE_3": "LocalMunicipality","CC_3": "NW401","HASC_3": "NA","name": "Ventersdorp.city","area_km2": 3770.53,"hist_schema_id": "Elevation0-9000","hist_area_km2": {"1350": 22.601,"1375": 133.545,"1400": 237.09,"1425": 302.174,"1450": 373.586,"1475": 463.208,"1500": 845.326,"1525": 891.679,"1550": 334.514,"1575": 98.806,"1600": 50.982,"1625": 16.468,"1650": 0.552}}}