{"type": "Feature","bbox": [28.2069,-30.6952,29.305,-30.0018],"geometry": {"type": "MultiPolygon","coordinates": [[[[28.8093,-30.629,1155.4152],[28.8133,-30.6345,1151.8888],[28.8078,-30.6342,1149.9385],[28.8086,-30.6317,1150.468],[28.8074,-30.6312,1173.9609],[28.7995,-30.6336,1148.4155],[28.8084,-30.6389,1171.0862],[28.8108,-30.6426,1142.9382],[28.8157,-30.6445,1207.7698],[28.8208,-30.6497,1158.7999],[28.824,-30.6494,1184.5957],[28.8262,-30.6442,1136.2212],[28.8293,-30.6429,1191.0416],[28.8384,-30.645,1128.5519],[28.8438,-30.6521,1131.1827],[28.8499,-30.6496,1141.0811],[28.8515,-30.6553,1129.8882],[28.8449,-30.658,1131.7524],[28.8412,-30.6619,1150.8416],[28.835,-30.6633,1122.8153],[28.8303,-30.6687,1114.6217],[28.831,-30.6713,1132.2515],[28.8335,-30.6728,1115.5487],[28.8394,-30.6703,1111.625],[28.8436,-30.6728,1119.6862],[28.8509,-30.6729,1118.9719],[28.8555,-30.6794,1106.8972],[28.8521,-30.6879,1098.4025],[28.8526,-30.69,1107.1338],[28.8596,-30.6858,1107.5442],[28.8682,-30.6878,1100.7639],[28.8719,-30.687,1106.0499],[28.8719,-30.6838,1114.4816],[28.8667,-30.6757,1132.9799],[28.8754,-30.6729,1125.783],[28.8805,-30.6772,1099.3059],[28.8881,-30.6737,1091.3376],[28.8888,-30.6747,1095.5061],[28.886,-30.6777,1095.897],[28.8803,-30.6797,1087.8013],[28.8799,-30.6816,1083.1674],[28.8861,-30.6874,1084.6956],[28.8901,-30.6824,1084.0864],[28.8968,-30.6808,1071.1339],[28.8993,-30.6911,1056.4041],[28.9034,-30.6952,1042.2305],[28.9247,-30.6873,1472.1323],[28.9335,-30.6654,1536.5476],[28.9401,-30.6604,1625.5496],[28.946,-30.6496,1560.8601],[28.9527,-30.6246,1448.7487],[28.9522,-30.611,1402.6418],[28.957,-30.6037,1474.6835],[28.9561,-30.5725,1822.939],[28.9842,-30.5722,1654.9105],[29.026,-30.5969,1673.5255],[29.046,-30.6023,1560.5737],[29.0741,-30.6013,1313.5747],[29.078,-30.5997,1341.2365],[29.0777,-30.6095,1254.3765],[29.0843,-30.6123,1237.1245],[29.1353,-30.6051,1810.5496],[29.146,-30.5952,1657.0587],[29.1238,-30.5871,1722.8872],[29.1153,-30.5796,1636.6368],[29.1515,-30.5604,1382.545],[29.162,-30.5601,1357.4402],[29.163,-30.5582,1356.954],[29.1737,-30.5521,1370.4161],[29.1651,-30.538,1357.2616],[29.1631,-30.5396,1358.6716],[29.1663,-30.5414,1357.3541],[29.1653,-30.5436,1358.6299],[29.1611,-30.5418,1358.5083],[29.1599,-30.5447,1359.4393],[29.1578,-30.5451,1358.5614],[29.1579,-30.5476,1359.2698],[29.1614,-30.547,1361.7117],[29.1577,-30.5538,1384.9908],[29.1556,-30.5554,1367.2391],[29.1528,-30.5546,1380.2563],[29.1518,-30.5486,1361.8313],[29.1531,-30.547,1369.2104],[29.1476,-30.5412,1363.0115],[29.1455,-30.5327,1365.4373],[29.1466,-30.5316,1365.4373],[29.1448,-30.531,1389.9825],[29.1402,-30.5338,1369.1597],[29.1504,-30.5104,1516.375],[29.1773,-30.5157,1503.1471],[29.1878,-30.4842,1631.4711],[29.1984,-30.4623,1667.6935],[29.1968,-30.4344,1633.3152],[29.2185,-30.4212,1758.9662],[29.2273,-30.4263,1885.9938],[29.2276,-30.4103,1858.7583],[29.2382,-30.4049,1762.0242],[29.2824,-30.3957,2140.5684],[29.2771,-30.3762,1932.3643],[29.305,-30.3799,2182.478],[29.2988,-30.3532,2153.2332],[29.2919,-30.3456,2090.5117],[29.2987,-30.3343,1951.1742],[29.3019,-30.3201,1973.8564],[29.2622,-30.2784,1483.1565],[29.2368,-30.2669,1449.7925],[29.2315,-30.2691,1449.6864],[29.2547,-30.3048,1535.5654],[29.2334,-30.3063,1492.5768],[29.2275,-30.2974,1469.1974],[29.1881,-30.2887,1463.2203],[29.1726,-30.2834,1450.4233],[29.1757,-30.2828,1449.6528],[29.1742,-30.2808,1445.7787],[29.1674,-30.2816,1452.2291],[29.1558,-30.2775,1442.6825],[29.1579,-30.277,1443.347],[29.1568,-30.2754,1442.1572],[29.1579,-30.2744,1443.4015],[29.1612,-30.2759,1442.5809],[29.1632,-30.2738,1442.5629],[29.1618,-30.2723,1443.4867],[29.1593,-30.2743,1443.406],[29.161,-30.2707,1443.9863],[29.156,-30.2685,1444.5989],[29.1621,-30.2663,1444.0344],[29.1627,-30.2636,1444.9409],[29.1556,-30.2619,1446.522],[29.1565,-30.2648,1446.0701],[29.1518,-30.2647,1445.6989],[29.1538,-30.2611,1448.7786],[29.1518,-30.2567,1455.3699],[29.1411,-30.2617,1459.1625],[29.1373,-30.2624,1449.5983],[29.136,-30.2612,1449.5963],[29.1355,-30.2562,1450.2296],[29.1319,-30.2516,1451.248],[29.133,-30.2497,1460.4423],[29.1289,-30.2478,1451.7045],[29.1292,-30.2396,1456.7284],[29.126,-30.2387,1458.6477],[29.1297,-30.2337,1464.6937],[29.1302,-30.2266,1472.7852],[29.1282,-30.2242,1466.2351],[29.1224,-30.222,1472.3344],[29.1241,-30.2179,1495.2593],[29.1318,-30.2166,1489.6212],[29.1323,-30.2149,1473.5073],[29.1271,-30.2112,1494.3726],[29.1215,-30.2099,1497.2407],[29.1216,-30.2073,1477.6594],[29.1197,-30.2059,1485.2803],[29.1124,-30.2096,1494.0125],[29.1108,-30.1969,1483.1665],[29.1141,-30.1939,1487.5012],[29.1208,-30.1943,1482.5281],[29.1221,-30.192,1485.0286],[29.1174,-30.1898,1484.6753],[29.1132,-30.1904,1490.6257],[29.1099,-30.1838,1492.2903],[29.1038,-30.1807,1490.7211],[29.1026,-30.1771,1490.1259],[29.1041,-30.1753,1490.6927],[29.1068,-30.1762,1489.6211],[29.1067,-30.1721,1490.7451],[29.1103,-30.1683,1497.6345],[29.1131,-30.1682,1515.6385],[29.1139,-30.1621,1505.3044],[29.1171,-30.1633,1507.1558],[29.1204,-30.1604,1503.3271],[29.1134,-30.1576,1503.4462],[29.1104,-30.1538,1506.454],[29.1139,-30.1518,1510.5063],[29.118,-30.1528,1509.0598],[29.1206,-30.1512,1509.8577],[29.1215,-30.1435,1530.0737],[29.1163,-30.1421,1532.7415],[29.1188,-30.1385,1537.1504],[29.1163,-30.1364,1535.813],[29.1154,-30.1328,1549.9668],[29.1177,-30.1259,1543.4724],[29.1158,-30.1248,1553.156],[29.1194,-30.1222,1547.4102],[29.1153,-30.1144,1578.7788],[29.12,-30.1106,1568.9655],[29.1186,-30.1094,1596.5684],[29.1148,-30.1106,1577.332],[29.1152,-30.1078,1586.6068],[29.1123,-30.1056,1585.6138],[29.1145,-30.1023,1596.5507],[29.1174,-30.1054,1586.3416],[29.1196,-30.1054,1582.6489],[29.1187,-30.1029,1583.5952],[29.1212,-30.0988,1581.7664],[29.1172,-30.1002,1587.5657],[29.1137,-30.0963,1588.4943],[29.1119,-30.0972,1628.3739],[29.1073,-30.0785,2005.7651],[29.0901,-30.0567,2153.7537],[29.0678,-30.044,2273.6904],[29.045,-30.013,2351.8459],[29.0148,-30.0018,2444.009],[29.0105,-30.0047,2371.2744],[29.0047,-30.0048,2392.7764],[28.9908,-30.0202,2287.6257],[28.9901,-30.0274,2378.3906],[28.987,-30.0305,2375.3579],[28.9844,-30.0315,2389.9385],[28.9779,-30.0298,2404.5735],[28.976,-30.0323,2401.1343],[28.9692,-30.0341,2373.1763],[28.9648,-30.0331,2319.2546],[28.9578,-30.0391,2371.5332],[28.9543,-30.0392,2333.3403],[28.9522,-30.0367,2319.8103],[28.941,-30.0364,2381.4551],[28.9363,-30.0492,2243.1572],[28.9239,-30.0539,2386.7808],[28.9217,-30.0531,2369.769],[28.9189,-30.0581,2260.6265],[28.9106,-30.0592,2235.2644],[28.9031,-30.0659,2267.5754],[28.8969,-30.0647,2376.3889],[28.8934,-30.0688,2380.2429],[28.8789,-30.0698,2435.1306],[28.8749,-30.0737,2268.8501],[28.8706,-30.0745,2290.5518],[28.8693,-30.0779,2261.7402],[28.8575,-30.0776,2504.3],[28.8574,-30.0833,2492.4307],[28.8594,-30.0873,2399.2109],[28.8553,-30.0901,2423.4536],[28.8389,-30.0921,2497.1438],[28.8313,-30.0976,2276.5569],[28.8262,-30.0956,2244.9492],[28.8195,-30.0976,2278.3003],[28.8076,-30.0973,2438.1968],[28.8024,-30.1006,2442.2224],[28.795,-30.1008,2427.124],[28.7957,-30.1035,2412.1387],[28.7912,-30.1094,2389.4136],[28.7688,-30.1076,2374.3848],[28.7618,-30.1055,2357.3159],[28.7498,-30.1065,2205.8564],[28.7417,-30.1122,2260.9412],[28.7418,-30.1143,2274.675],[28.7397,-30.1158,2298.0254],[28.7361,-30.1123,2317.3987],[28.7289,-30.113,2285.125],[28.7242,-30.1155,2252.5964],[28.7207,-30.1152,2245.7402],[28.7188,-30.1177,2223.1982],[28.709,-30.1196,2262.1021],[28.7016,-30.1265,2180.4517],[28.6903,-30.1241,2007.0854],[28.688,-30.1288,1967.2114],[28.6851,-30.1287,1976.3188],[28.6782,-30.1339,2000.3521],[28.6716,-30.1361,2081.5625],[28.6676,-30.1407,2095.6128],[28.6579,-30.1373,1950.4663],[28.6536,-30.1376,2036.7302],[28.6502,-30.1337,2064.4705],[28.6431,-30.134,2114.8613],[28.6384,-30.1315,2249.0513],[28.6269,-30.1317,2262.6133],[28.6186,-30.1355,2134.614],[28.6103,-30.1325,2131.9136],[28.5974,-30.1307,2182.5796],[28.590699999999998,-30.1269,2388.3125],[28.5846,-30.1276,2353.8899],[28.5799,-30.1259,2374.4517],[28.5751,-30.1274,2344.0391],[28.5665,-30.1226,2537.896],[28.5642,-30.1239,2521.2163],[28.5537,-30.124,2556.8306],[28.5506,-30.1206,2556.4895],[28.5469,-30.1231,2335.084],[28.5349,-30.1257,2433.0403],[28.5314,-30.1329,2404.7319],[28.5167,-30.1388,2517.554],[28.5122,-30.1431,2264.3276],[28.5065,-30.1449,2244.5476],[28.4998,-30.151,2366.9707],[28.4813,-30.1488,2571.5601],[28.4736,-30.1528,2496.9424],[28.4725,-30.1556,2524.396],[28.4607,-30.1545,2497.291],[28.4569,-30.1575,2415.7244],[28.4515,-30.1578,2295.5979],[28.4325,-30.1537,2310.7874],[28.4198,-30.1487,2486.5364],[28.3998,-30.1437,2771.8677],[28.3971,-30.1452,2657.0977],[28.3958,-30.1514,2745.4941],[28.3927,-30.1556,2746.1477],[28.3923,-30.159,2680.5442],[28.3904,-30.1594,2650.8645],[28.3902,-30.1628,2597.2502],[28.3841,-30.1651,2573.7659],[28.3829,-30.1688,2678.978],[28.3709,-30.1697,2768.8696],[28.3651,-30.1686,2798.8232],[28.3596,-30.1784,2646.8245],[28.3555,-30.1906,2592.7939],[28.3563,-30.1925,2538.3206],[28.352,-30.1967,2449.261],[28.3489,-30.2076,2430.7515],[28.3451,-30.2128,2493.0964],[28.3454,-30.2153,2502.9307],[28.3477,-30.2169,2514.4375],[28.3451,-30.2188,2481.5566],[28.3434,-30.2236,2471.1965],[28.3478,-30.2289,2523.7168],[28.3458,-30.2321,2531.4526],[28.3403,-30.2346,2434.4021],[28.3331,-30.2339,2625.1362],[28.3304,-30.2297,2679.1892],[28.3288,-30.2339,2530.3213],[28.3252,-30.2372,2455.7493],[28.3212,-30.2381,2529.4646],[28.3188,-30.2406,2561.5334],[28.3135,-30.2407,2551.1174],[28.3107,-30.2508,2501.4194],[28.3032,-30.2562,2416.2009],[28.2971,-30.2552,2377.7329],[28.288,-30.2576,2446.8027],[28.2827,-30.2556,2555.7415],[28.274,-30.2562,2473.6699],[28.2691,-30.253,2555.167],[28.264,-30.2521,2617.7998],[28.2597,-30.2565,2571.3608],[28.2496,-30.2583,2581.2781],[28.2446,-30.2575,2680.8977],[28.2364,-30.2599,2641.4949],[28.2359,-30.266,2577.1133],[28.229,-30.2712,2737.2996],[28.2231,-30.2734,2781.5801],[28.2231,-30.2754,2784.7627],[28.2146,-30.2864,2755.4924],[28.2069,-30.2907,2784.0134],[28.2123,-30.2971,2722.1355],[28.2154,-30.3068,2777.8394],[28.2205,-30.309,2766.5601],[28.2283,-30.3085,2735.2253],[28.233,-30.315,2617.7256],[28.2425,-30.3179,2651.5251],[28.2479,-30.3233,2670.8384],[28.2565,-30.3244,2633.8662],[28.2528,-30.3276,2626.0364],[28.2568,-30.3298,2657.9312],[28.2516,-30.3336,2605.5757],[28.2521,-30.3395,2554.4248],[28.256,-30.3461,2826.6177],[28.2627,-30.347,2770.7244],[28.2698,-30.3534,2693.2786],[28.271,-30.3564,2700.2729],[28.2678,-30.3604,2676.4124],[28.2709,-30.3699,2597.6367],[28.2688,-30.3737,2771.8787],[28.2754,-30.373,2487.7056],[28.2894,-30.3748,2079.3521],[28.2938,-30.3726,2010.7881],[28.2988,-30.3735,1933.1428],[28.3039,-30.3772,1880.4651],[28.329,-30.3859,1759.853],[28.3348,-30.3929,1711.7084],[28.3434,-30.3965,1626.6415],[28.3725,-30.4043,1546.1765],[28.3764,-30.4012,1551.2354],[28.377,-30.4035,1543.2427],[28.3815,-30.4027,1558.3998],[28.3856,-30.406,1524.3446],[28.3905,-30.4016,1517.2861],[28.3922,-30.403199999999998,1519.5306],[28.3943,-30.4025,1561.0072],[28.3947,-30.4051,1516.3062],[28.3974,-30.4048,1511.8088],[28.3986,-30.4072,1510.8752],[28.4023,-30.4076,1553.5459],[28.404,-30.4126,1503.1257],[28.4097,-30.4126,1499.6608],[28.4153,-30.4188,1490.1351],[28.418,-30.4177,1490.4462],[28.4215,-30.4212,1497.687],[28.4247,-30.4209,1484.0277],[28.4297,-30.4177,1492.5042],[28.4349,-30.4204,1487.6433],[28.4368,-30.4192,1480.7172],[28.4438,-30.423,1474.0608],[28.4462,-30.4275,1474.059],[28.4494,-30.4275,1480.647],[28.4581,-30.4232,1542.2549],[28.4808,-30.4223,1726.0448],[28.4944,-30.4324,1756.2189],[28.5003,-30.4346,1745.0381],[28.508,-30.4467,1662.2982],[28.5106,-30.4524,1506.1044],[28.5108,-30.4601,1433.2218],[28.5062,-30.4694,1423.9584],[28.5143,-30.4678,1409.0522],[28.5184,-30.4697,1408.2776],[28.5221,-30.4672,1401.7712],[28.5272,-30.4665,1397.2301],[28.5282,-30.4702,1402.3818],[28.5331,-30.4701,1398.9342],[28.5362,-30.4673,1403.9708],[28.5376,-30.4567,1483.3929],[28.5402,-30.4515,1559.3635],[28.5451,-30.4483,1620.2151],[28.5709,-30.4397,1608.5536],[28.5751,-30.4369,1565.7388],[28.5843,-30.4447,1485.153],[28.5877,-30.454,1450.9611],[28.601,-30.4574,1386.0056],[28.607,-30.464,1362.6467],[28.607,-30.4661,1356.0942],[28.6106,-30.4662,1357.0664],[28.6139,-30.4619,1357.902],[28.6171,-30.4664,1360.2196],[28.616,-30.4722,1362.0273],[28.6243,-30.4709,1364.6246],[28.6275,-30.4726,1357.4434],[28.6285,-30.4775,1354.9626],[28.6204,-30.4832,1348.644],[28.62,-30.4859,1351.5332],[28.6084,-30.4902,1388.9412],[28.6109,-30.4862,1385.5078],[28.6196,-30.4832,1354.5463],[28.6234,-30.4798,1351.2189],[28.6243,-30.4764,1365.1926],[28.6231,-30.4754,1386.2349],[28.6085,-30.4774,1460.1877],[28.6007,-30.4817,1454.6589],[28.5922,-30.4839,1442.9623],[28.588,-30.4873,1422.2544],[28.5893,-30.4902,1433.5977],[28.5964,-30.4928,1425.3682],[28.5828,-30.4924,1431.4468],[28.5698,-30.4963,1432.2002],[28.5694,-30.5012,1448.5619],[28.5648,-30.5104,1438.3213],[28.5759,-30.5159,1476.6495],[28.5733,-30.5224,1563.9279],[28.5641,-30.5205,1469.4852],[28.5607,-30.5184,1481.2637],[28.5494,-30.541,1742.8945],[28.5441,-30.541,1632.3933],[28.547,-30.5487,1603.4194],[28.5414,-30.5511,1504.8048],[28.5358,-30.5515,1494.9022],[28.5249,-30.5482,1451.1505],[28.5137,-30.5651,1496.0928],[28.5136,-30.5672,1501.6658],[28.519,-30.5724,1547.6403],[28.5268,-30.5756,1520.7704],[28.5285,-30.5812,1527.2643],[28.5349,-30.5843,1541.2494],[28.5375,-30.589,1559.7003],[28.5406,-30.589,1557.5784],[28.5425,-30.5948,1541.7773],[28.5425,-30.6021,1605.2305],[28.5452,-30.6037,1595.5845],[28.5523,-30.6188,1583.7573],[28.5607,-30.6214,1552.0387],[28.5605,-30.6241,1556.6748],[28.5558,-30.629,1678.5284],[28.5602,-30.6413,1657.6394],[28.5561,-30.6452,1665.4939],[28.556,-30.652,1582.715],[28.5591,-30.655,1431.3542],[28.5604,-30.6553,1431.3542],[28.5655,-30.6497,1442.574],[28.5728,-30.6465,1510.9229],[28.5759,-30.6468,1519.9863],[28.5797,-30.6498,1650.559],[28.5843,-30.6601,1857.5049],[28.5935,-30.6592,1878.7238],[28.5952,-30.6606,1920.2458],[28.5947,-30.6628,1950.1211],[28.5987,-30.663,1893.4312],[28.6382,-30.6547,1866.9406],[28.6483,-30.6505,1879.4894],[28.6578,-30.6503,1857.3501],[28.6676,-30.6539,1845.4224],[28.6719,-30.6513,1849.7114],[28.6716,-30.6291,1748.5476],[28.6769,-30.6258,1707.6873],[28.6711,-30.6249,1724.8353],[28.6693,-30.6227,1788.6302],[28.6884,-30.608,1906.9126],[28.6892,-30.602,1931.2371],[28.6935,-30.5993,1849.3046],[28.6954,-30.5956,1611.7672],[28.6992,-30.5826,1280.9611],[28.7034,-30.5818,1266.9823],[28.7149,-30.5852,1266.8192],[28.7187,-30.5822,1259.813],[28.7182,-30.5778,1269.2131],[28.7195,-30.5765,1252.8511],[28.7266,-30.5764,1249.446],[28.7314,-30.5857,1237.9696],[28.7394,-30.5865,1234.6902],[28.7409,-30.5888,1237.9918],[28.744,-30.5861,1245.2823],[28.7468,-30.5877,1234.2219],[28.7462,-30.5922,1241.7517],[28.741,-30.5923,1235.0063],[28.7407,-30.5947,1239.6273],[28.7465,-30.5977,1225.6946],[28.749,-30.5966,1227.806],[28.7529,-30.6027,1226.4419],[28.7608,-30.5993,1221.0393],[28.7605,-30.5935,1215.7385],[28.7621,-30.5908,1226.0693],[28.7593,-30.5879,1217.7448],[28.7604,-30.5856,1215.293],[28.7707,-30.5864,1245.8605],[28.7764,-30.5818,1206.7633],[28.7788,-30.5822,1222.1025],[28.7802,-30.5845,1201.1399],[28.7767,-30.5913,1197.911],[28.7765,-30.595,1240.6344],[28.7832,-30.6027,1219.1602],[28.7806,-30.6054,1180.8213],[28.7807,-30.6106,1188.9471],[28.7862,-30.6151,1174.1409],[28.7822,-30.6194,1173.3013],[28.7872,-30.6209,1165.6373],[28.7919,-30.6174,1173.021],[28.7986,-30.6156,1165.0334],[28.803,-30.6195,1156.3313],[28.8093,-30.629,1155.4152]]]]}
,"properties": {"GID_3": "ZAF.1.1.1_1","GID_0": "ZAF","country": "SouthAfrica","GID_1": "ZAF.1_1","province": "EasternCape","NL_NAME_1": "NA","GID_2": "ZAF.1.1_1","county": "AlfredNzo","NL_NAME_2": "NA","city": "Matatiele","VARNAME_3": "NA","NL_NAME_3": "NA","TYPE_3": "LocalMunicipality","ENGTYPE_3": "LocalMunicipality","CC_3": "EC441","HASC_3": "NA","name": "Matatiele.city","area_km2": 4356.464,"hist_schema_id": "Elevation0-9000","hist_area_km2": {"1050": 0.073,"1075": 0.365,"1100": 1.86,"1125": 2.936,"1150": 4.322,"1175": 5.691,"1200": 8.391,"1225": 12.479,"1250": 15.218,"1275": 16.278,"1300": 21.793,"1325": 25.356,"1350": 32.662,"1375": 37.817,"1400": 70.73,"1425": 230.321,"1450": 397.69,"1475": 362.458,"1500": 312.696,"1525": 278.52,"1550": 239.822,"1575": 210.451,"1600": 192.316,"1625": 186.068,"1650": 178.853,"1675": 155.116,"1700": 143.344,"1725": 123.849,"1750": 106.769,"1775": 99.645,"1800": 90.114,"1825": 79.648,"1850": 72.773,"1875": 63.727,"1900": 60.477,"1925": 57.042,"1950": 53.068,"1975": 48.775,"2000": 42.309,"2025": 39.491,"2050": 33.831,"2075": 30.938,"2100": 27.947,"2125": 26.333,"2150": 22.158,"2175": 17.034,"2200": 12.168,"2225": 11.234,"2250": 9.237,"2275": 8.083,"2300": 7.039,"2325": 6.984,"2350": 5.957,"2375": 5.114,"2400": 4.287,"2425": 3.865,"2450": 3.26,"2475": 3.919,"2500": 5.439,"2525": 4.285,"2550": 3.754,"2575": 3.937,"2600": 3.625,"2625": 4.376,"2650": 2.929,"2675": 2.454,"2700": 1.959,"2725": 1.154,"2750": 1.025,"2775": 0.623,"2800": 0.147,"2825": 0.037}}}