{"type": "Feature","bbox": [22.9592,-31.4786,24.8473,-29.902],"geometry": {"type": "MultiPolygon","coordinates": [[[[23.9317,-30.278199999999998,1222.4995],[23.9237,-30.2752,1230.321],[23.905,-30.2807,1224.1542],[23.9563,-30.2366,1231.9896],[23.8421,-30.1951,1144.1619],[23.8206,-30.1412,1168.3134],[23.7899,-30.1403,1197.0625],[23.7763,-30.103,1100.3939],[23.714,-30.1202,1145.1525],[23.6861,-30.0901,1095.8511],[23.6628,-30.108,1115.7695],[23.6425,-30.1444,1123.1958],[23.6054,-30.1122,1105.6553],[23.5569,-30.1021,1055.6738],[23.5363,-30.1088,1131.5862],[23.5333,-30.0882,1051.4351],[23.5233,-30.0799,1050.2673],[23.5228,-30.0771,1049.345],[23.5133,-30.0737,1048.1603],[23.5114,-30.0709,1047.4827],[23.506,-30.069,1046.6216],[23.505,-30.0653,1046.5464],[23.4978,-30.0586,1044.6635],[23.4804,-30.0573,1043.079],[23.4742,-30.054,1041.8582],[23.473,-30.0741,1050.4817],[23.45,-30.1195,1115.5309],[23.4337,-30.0616,1034.5397],[23.3774,-30.0607,1025.6248],[23.371,-30.0737,1028.7179],[23.3529,-30.0661,1024.9296],[23.3258,-30.0289,1068.8868],[23.2961,-29.994,1027.6621],[23.2598,-30.017,1004.7021],[23.2917,-29.9685,1036.4822],[23.2395,-29.902,1019.6284],[23.1836,-29.9382,990.6937],[23.186,-29.9431,990.1147],[23.1852,-29.9481,987.7323],[23.1883,-29.9512,990.6235],[23.1889,-29.9544,988.4568],[23.1818,-29.9698,991.8342],[23.1831,-29.9786,995.4045],[23.191,-29.9886,993.6881],[23.1893,-29.9917,996.4001],[23.1933,-29.9976,997.5079],[23.2022,-29.9988,1000.5763],[23.2044,-30.0065,1000.053],[23.2002,-30.0193,998.9592],[23.2038,-30.0227,1000.4958],[23.2031,-30.0291,1002.2913],[23.2061,-30.0333,1002.9048],[23.2069,-30.0379,1002.3474],[23.2018,-30.0468,1006.0818],[23.1947,-30.0541,1003.1385],[23.1899,-30.0665,1005.8199],[23.1893,-30.0772,1006.3241],[23.1807,-30.0908,1008.2247],[23.182,-30.095,1008.7133],[23.1592,-30.1011,1052.3315],[23.1141,-30.1321,1036.6097],[23.1132,-30.1565,1032.6987],[22.982,-30.2381,1097.3041],[22.9592,-30.2732,1103.5896],[22.9746,-30.3345,1103.7844],[22.998,-30.3773,1067.6821],[23.0668,-30.3916,1107.8208],[23.1332,-30.3815,1091.7173],[23.1787,-30.3843,1134.4198],[23.2303,-30.3987,1093.0864],[23.2236,-30.4425,1161.1501],[23.2243,-30.4883,1142.3999],[23.2425,-30.5413,1109.8944],[23.1702,-30.5543,1090.032],[23.1623,-30.5889,1142.809],[23.0943,-30.5674,1127.0997],[23.0839,-30.6189,1180.7379],[23.1148,-30.625,1153.6855],[23.1029,-30.6526,1152.9539],[23.0852,-30.6501,1184.1558],[23.0922,-30.6797,1134.5857],[23.0677,-30.6866,1149.4073],[23.0645,-30.6512,1207.1989],[23.0133,-30.6588,1176.9061],[23.0555,-30.7285,1137.4121],[23.0674,-30.7993,1203.1211],[23.0983,-30.7902,1186.7032],[23.1013,-30.8134,1502.5164],[23.1094,-30.8282,1469.2913],[23.1463,-30.8483,1291.2435],[23.1573,-30.8553,1323.3738],[23.1648,-30.8626,1524.7419],[23.175,-30.893,1367.8059],[23.198,-30.9247,1229.9614],[23.2253,-30.9537,1151.0439],[23.3255,-30.954,1325.5132],[23.4017,-31.0341,1203.9243],[23.4618,-30.9909,1260.6455],[23.5135,-30.9506,1212.3232],[23.556,-31.0084,1281.6171],[23.5888,-31.0035,1266.479],[23.5977,-30.9418,1291.6111],[23.6509,-30.9038,1546.8303],[23.6579,-30.8972,1526.5172],[23.6791,-30.9169,1421.1885],[23.7032,-30.9442,1415.0149],[23.7115,-30.9656,1494.0442],[23.7614,-30.9058,1372.1631],[23.7937,-30.9107,1334.9187],[23.8111,-30.9104,1456.5085],[23.813,-30.8966,1400.0696],[23.8206,-30.8868,1630.0826],[23.8604,-30.8649,1298.2225],[23.9386,-30.8906,1373.0526],[23.9696,-30.8771,1353.9138],[23.9676,-30.8975,1301.8782],[23.9827,-30.9091,1289.994],[23.9885,-30.9047,1301.9196],[23.988,-30.9115,1298.5457],[23.9502,-30.9722,1341.4971],[23.9156,-30.99,1371.5117],[24.0217,-30.9674,1334.8187],[24.0532,-30.9772,1411.1548],[24.1161,-31.0224,1378.8137],[24.1354,-31.0427,1413.0049],[24.1231,-31.1051,1430.205],[24.1433,-31.1304,1450.9285],[24.1706,-31.1535,1475.6865],[24.1603,-31.1726,1558.0383],[24.1523,-31.1803,1590.7548],[24.2349,-31.218,1479.5974],[24.2329,-31.2533,1459.3644],[24.2372,-31.2737,1463.8176],[24.2713,-31.2756,1450.5477],[24.2656,-31.324,1467.2549],[24.2929,-31.3127,1456.4395],[24.3226,-31.3177,1437.6641],[24.3281,-31.3327,1452.0227],[24.3225,-31.3526,1455.9189],[24.3214,-31.3636,1452.5909],[24.3408,-31.3726,1466.033],[24.3875,-31.3868,1463.3798],[24.4011,-31.418,1750.6399],[24.408,-31.4261,1798.9823],[24.3949,-31.4436,1793.3804],[24.4009,-31.4436,1876.3734],[24.4457,-31.4786,1476.9567],[24.4864,-31.4775,1515.7446],[24.4788,-31.4317,1453.1655],[24.5672,-31.4186,1470.384],[24.5694,-31.4057,1443.6024],[24.5217,-31.3752,1431.2937],[24.5293,-31.3648,1442.2091],[24.564,-31.3774,1445.8594],[24.6125,-31.3553,1444.5627],[24.5941,-31.3417,1418.8466],[24.6026,-31.3326,1430.4072],[24.6405,-31.3099,1414.395],[24.642,-31.2948,1408.3351],[24.6615,-31.2878,1423.0342],[24.6444,-31.2477,1407.4434],[24.6791,-31.258,1422.9298],[24.7085,-31.2052,1421.661],[24.7264,-31.1869,1513.9127],[24.727,-31.174,1475.5396],[24.7257,-31.1681,1484.3662],[24.7173,-31.1603,1477.8943],[24.7176,-31.1567,1522.5988],[24.7085,-31.1424,1435.1085],[24.676,-31.1495,1454.1302],[24.6832,-31.1357,1422.5972],[24.729,-31.1307,1445.0865],[24.7515,-31.1403,1455.0728],[24.7509,-31.096,1463.7998],[24.7899,-31.0693,1391.3313],[24.7821,-31.0537,1387.4417],[24.8222,-31.0381,1400.9044],[24.8214,-31.0215,1391.5179],[24.8473,-30.9919,1521.5095],[24.8322,-30.9871,1521.5326],[24.8026,-30.9724,1469.5322],[24.7578,-30.8706,1341.3499],[24.7557,-30.8603,1329.2395],[24.7511,-30.8498,1305.1843],[24.7452,-30.8456,1304.1151],[24.7393,-30.8552,1303.5419],[24.7038,-30.8285,1315.0703],[24.6804,-30.8516,1309.4677],[24.6717,-30.8517,1310.2666],[24.6647,-30.8479,1310.8884],[24.6591,-30.8497,1312.2657],[24.6292,-30.8364,1322.7272],[24.622,-30.8271,1334.8792],[24.6359,-30.8194,1341.8505],[24.6493,-30.7889,1372.7351],[24.6673,-30.767,1380.6541],[24.6506,-30.7656,1397.119],[24.6463,-30.7531,1407.8995],[24.6356,-30.7444,1397.4913],[24.6184,-30.7521,1428.6906],[24.6115,-30.76,1405.1331],[24.6094,-30.7504,1405.7327],[24.5867,-30.7026,1435.9651],[24.5697,-30.7021,1424.8972],[24.5626,-30.7283,1424.4199],[24.5527,-30.7361,1401.3682],[24.5535,-30.7217,1406.054],[24.5401,-30.7305,1411.9541],[24.5119,-30.7115,1413.1797],[24.4696,-30.6724,1452.0675],[24.4524,-30.6584,1463.5046],[24.4146,-30.6613,1473.9795],[24.3781,-30.6206,1452.0392],[24.2997,-30.5995,1524.8969],[24.2743,-30.5839,1499.3593],[24.2773,-30.5642,1558.0825],[24.2916,-30.5467,1554.5575],[24.2526,-30.5122,1601.522],[24.2819,-30.4679,1512.5884],[24.2778,-30.4497,1473.1357],[24.2314,-30.4302,1445.0396],[24.2031,-30.4107,1372.7777],[24.1775,-30.4038,1346.1725],[24.1083,-30.3731,1314.9423],[24.1229,-30.3573,1308.5461],[24.1193,-30.3467,1297.6102],[24.0767,-30.331,1281.1694],[24.0476,-30.3335,1274.528],[24.0189,-30.34,1244.54],[23.9317,-30.278199999999998,1222.4995]]]]}
,"properties": {"GID_3": "ZAF.8.4.1_1","GID_0": "ZAF","country": "SouthAfrica","GID_1": "ZAF.8_1","province": "NorthernCape","NL_NAME_1": "NA","GID_2": "ZAF.8.4_1","county": "PixleykaSeme","NL_NAME_2": "NA","city": "Emthanjeni","VARNAME_3": "NA","NL_NAME_3": "NA","TYPE_3": "LocalMunicipality","ENGTYPE_3": "LocalMunicipality","CC_3": "NC073","HASC_3": "NA","name": "Emthanjeni.city","area_km2": 13485.33,"hist_schema_id": "Elevation0-9000","hist_area_km2": {"975": 0.11,"1000": 99.46,"1025": 328.11,"1050": 519.17,"1075": 720.93,"1100": 996.2,"1125": 1198.02,"1150": 796.47,"1175": 698.88,"1200": 619.86,"1225": 602.26,"1250": 564.73,"1275": 664.96,"1300": 652.69,"1325": 735.97,"1350": 789.89,"1375": 818.24,"1400": 938.27,"1425": 775.11,"1450": 514.89,"1475": 176.31,"1500": 101.87,"1525": 65.11,"1550": 40.32,"1575": 25.6,"1600": 16.67,"1625": 12.28,"1650": 5.29,"1675": 3.07,"1700": 2.28,"1725": 0.54,"1750": 0.27,"1775": 0.36,"1800": 0.87}}}