{"type": "Feature","bbox": [29.979,-25.4925,31.0316,-24.4602],"geometry": {"type": "MultiPolygon","coordinates": [[[[30.645,-25.3021,1395.0083],[30.6534,-25.3116,1514.7817],[30.6716,-25.3269,1331.8347],[30.6986,-25.3574,1194.478],[30.6952,-25.3614,1144.5487],[30.6972,-25.367,1108.4344],[30.6989,-25.365,1155.2095],[30.7034,-25.3667,1121.1322],[30.7032,-25.3615,1223.5765],[30.7129,-25.3638,1192.9775],[30.7386,-25.3754,1169.8696],[30.7457,-25.3767,1227.4987],[30.7907,-25.3533,1359.1417],[30.8774,-25.4137,923.6489],[30.8973,-25.3972,799.0185],[30.8818,-25.3837,891.5662],[30.9348,-25.3645,845.6039],[30.9457,-25.3577,747.9092],[30.9009,-25.321,1143.775],[30.9782,-25.2902,997.4944],[30.9541,-25.2558,1022.7414],[30.9302,-25.2181,1191.5442],[30.9172,-25.2083,1195.282],[30.9383,-25.1674,1326.073],[30.9411,-25.1289,1204.8176],[30.9506,-25.1331,1136.7747],[30.9679,-25.1217,827.9113],[30.9664,-25.1135,782.8164],[30.9715,-25.1048,774.3652],[30.9731,-25.0898,750.9969],[30.9748,-25.0887,765.9333],[30.9766,-25.0777,747.2151],[30.9781,-25.0751,753.1464],[30.9824,-25.074,739.0],[30.9791,-25.071,726.6553],[30.9816,-25.0649,716.4791],[30.9813,-25.0611,716.1428],[30.9899,-25.063,690.6262],[30.9918,-25.0592,677.3245],[31.0002,-25.0555,650.1531],[31.0072,-25.0467,589.8499],[31.0212,-25.0422,551.3914],[31.022,-25.0392,540.0751],[31.0189,-25.0353,534.0544],[31.0252,-25.0301,515.3677],[31.0187,-25.0306,521.1083],[31.0157,-25.0292,537.0416],[31.024,-24.9952,883.0748],[31.0316,-24.9969,904.5974],[31.0268,-24.9141,855.4371],[31.0174,-24.8744,920.9877],[31.0054,-24.837,965.0015],[30.9743,-24.8204,979.4191],[30.9194,-24.8052,1673.8798],[30.9093,-24.7848,1767.2407],[30.9027,-24.7467,1436.2975],[30.8988,-24.7404,1656.1581],[30.907,-24.7229,1381.364],[30.8899,-24.7087,1349.1172],[30.9132,-24.6728,1698.7386],[30.9091,-24.6444,1601.1315],[30.8989,-24.6303,1761.9041],[30.8587,-24.6143,1556.8336],[30.795,-24.5775,1315.9564],[30.8717,-24.5385,1814.5959],[30.7993,-24.4989,1492.2078],[30.759,-24.4602,1776.6821],[30.7302,-24.4985,1357.801],[30.7323,-24.5481,892.2186],[30.7303,-24.6087,1291.3612],[30.7015,-24.5864,1501.1938],[30.6792,-24.6237,1378.0264],[30.7097,-24.6674,1567.5801],[30.7201,-24.7052,1532.6078],[30.6855,-24.7324,1808.7985],[30.6786,-24.7358,1758.0704],[30.6366,-24.7341,1366.4037],[30.6337,-24.7585,1373.2845],[30.6642,-24.7746,1593.1965],[30.6562,-24.8117,1636.6355],[30.6349,-24.8528,1589.667],[30.6187,-24.8442,1417.776],[30.6084,-24.8724,1723.8284],[30.58,-24.8874,1236.4258],[30.5812,-24.9169,1720.1592],[30.5629,-24.8965,1487.5796],[30.4963,-24.9147,1519.0037],[30.4942,-24.9533,1515.2627],[30.4515,-24.912,1425.9489],[30.438,-24.8643,1379.3173],[30.4251,-24.8549,1281.8212],[30.3897,-24.8495,878.6819],[30.3908,-24.8521,882.0217],[30.3897,-24.8603,927.925],[30.3916,-24.8623,892.7285],[30.396,-24.861,947.9929],[30.3986,-24.8683,921.0901],[30.3965,-24.8712,909.4311],[30.3542,-24.8493,1352.9545],[30.3529,-24.8834,1649.874],[30.3109,-24.8729,947.2689],[30.3086,-24.8754,955.334],[30.31,-24.8806,954.822],[30.3124,-24.8825,960.2652],[30.3117,-24.8838,960.1416],[30.3088,-24.8827,972.3098],[30.308,-24.885,966.892],[30.3063,-24.8843,985.9506],[30.3068,-24.8815,994.5568],[30.2973,-24.8677,1426.7808],[30.192,-24.8555,1599.1931],[30.1785,-24.9221,1350.5686],[30.1717,-24.9698,1305.5529],[30.1721,-24.9892,1381.6886],[30.1795,-24.9896,1377.8092],[30.1792,-24.9991,1474.1637],[30.1972,-25.0309,1817.0413],[30.1987,-25.0364,1838.2549],[30.1593,-25.028,1415.2583],[30.1485,-25.0324,1301.1158],[30.1486,-25.09,1666.2716],[30.1444,-25.0912,1560.8577],[30.1444,-25.1238,1549.7026],[30.1211,-25.1209,1170.5193],[30.0909,-25.1255,2030.3224],[30.0902,-25.1081,2091.6641],[30.0299,-25.0641,1887.5096],[30.0298,-25.0846,1952.0972],[29.979,-25.0921,1698.2791],[30.0054,-25.1444,1894.5951],[30.0098,-25.2313,1867.6292],[30.0129,-25.231,1845.4772],[30.0007,-25.2795,1806.0634],[30.0062,-25.3403,1842.3058],[29.9906,-25.3382,1808.3212],[29.9935,-25.3547,1886.4075],[30.0255,-25.3677,2115.2188],[30.0834,-25.2941,2080.9065],[30.1031,-25.2747,2242.7493],[30.1066,-25.2654,2150.5022],[30.1117,-25.265,2088.1758],[30.1218,-25.2426,2197.6323],[30.1152,-25.2417,2199.7571],[30.1258,-25.2123,1972.3696],[30.1418,-25.2364,2268.6992],[30.1432,-25.2458,2232.6562],[30.1761,-25.2668,2167.488],[30.1803,-25.2745,2058.5049],[30.1869,-25.2731,1942.4492],[30.1908,-25.2758,1917.8792],[30.1901,-25.2938,2001.6437],[30.1944,-25.3021,2091.1602],[30.1968,-25.2946,2064.5874],[30.2034,-25.3085,2010.5638],[30.1881,-25.3203,2004.804],[30.2056,-25.3568,1897.9438],[30.2235,-25.366,1772.1118],[30.2273,-25.3495,1875.6826],[30.2517,-25.3573,1821.0426],[30.2392,-25.4108,1911.4874],[30.2433,-25.4096,1914.2423],[30.2295,-25.4324,1809.634],[30.2626,-25.473,1795.7954],[30.2789,-25.4529,1832.153],[30.3014,-25.445,1346.2212],[30.351,-25.4925,1601.0515],[30.3875,-25.4483,1570.8198],[30.3887,-25.4493,1581.9314],[30.4178,-25.4235,1595.2509],[30.4014,-25.3808,1141.3455],[30.4243,-25.3525,1578.5415],[30.4492,-25.345,1545.9799],[30.485,-25.3489,1071.1455],[30.532,-25.3496,1517.5627],[30.5483,-25.3131,1728.4653],[30.5889,-25.3218,1387.865],[30.6299,-25.285,1446.3132],[30.645,-25.3021,1395.0083]]]]}
,"properties": {"GID_3": "ZAF.6.1.4_1","GID_0": "ZAF","country": "SouthAfrica","GID_1": "ZAF.6_1","province": "Mpumalanga","NL_NAME_1": "NA","GID_2": "ZAF.6.1_1","county": "Ehlanzeni","NL_NAME_2": "NA","city": "ThabaChweu","VARNAME_3": "NA","NL_NAME_3": "NA","TYPE_3": "LocalMunicipality","ENGTYPE_3": "LocalMunicipality","CC_3": "MP321","HASC_3": "NA","name": "Thaba_Chweu.city","area_km2": 5731.632,"hist_schema_id": "Elevation0-9000","hist_area_km2": {"525": 0.672,"550": 1.306,"575": 2.461,"600": 4.024,"625": 4.984,"650": 5.118,"675": 10.089,"700": 9.081,"725": 10.213,"750": 11.155,"775": 15.957,"800": 22.638,"825": 35.807,"850": 50.537,"875": 60.161,"900": 65.754,"925": 69.815,"950": 68.104,"975": 67.274,"1000": 68.026,"1025": 64.691,"1050": 71.636,"1075": 72.29,"1100": 75.153,"1125": 79.724,"1150": 91.634,"1175": 112.18,"1200": 122.72,"1225": 137.443,"1250": 150.853,"1275": 160.602,"1300": 167.884,"1325": 175.391,"1350": 180.686,"1375": 198.003,"1400": 195.521,"1425": 195.371,"1450": 189.066,"1475": 185.074,"1500": 176.239,"1525": 177.185,"1550": 158.195,"1575": 142.468,"1600": 131.301,"1625": 122.878,"1650": 113.883,"1675": 113.966,"1700": 104.26,"1725": 104.184,"1750": 118.063,"1775": 126.854,"1800": 121.547,"1825": 110.18,"1850": 103.02,"1875": 97.923,"1900": 91.362,"1925": 79.558,"1950": 66.901,"1975": 54.283,"2000": 46.49,"2025": 41.138,"2050": 31.084,"2075": 23.583,"2100": 20.167,"2125": 16.695,"2150": 10.938,"2175": 5.833,"2200": 3.78,"2225": 2.878,"2250": 2.283,"2275": 1.899,"2300": 1.304,"2325": 0.211}}}