{"type":"Feature","properties":{"GID_3":"ZAF.7.2.1_1","GID_0":"ZAF","country":"SouthAfrica","GID_1":"ZAF.7_1","province":"NorthWest","NL_NAME_1":"NA","GID_2":"ZAF.7.2_1","county":"DrKennethKaunda","NL_NAME_2":"NA","city":"CityofMatlosana","VARNAME_3":"NA","NL_NAME_3":"NA","TYPE_3":"LocalMunicipality","ENGTYPE_3":"LocalMunicipality","CC_3":"NW403","HASC_3":"NA","name":"Cityof_Matlosana.city"},
"geometry":{"type": "MultiPolygon","coordinates": [[[[26.7124,-26.9761,1284.8809],[26.7176,-26.973,1285.4755],[26.7405,-26.9651,1286.3475],[26.7496,-26.9651,1287.3854],[26.7552,-26.9619,1287.1761],[26.7615,-26.9525,1288.8711],[26.7667,-26.9481,1287.688],[26.7896,-26.9429,1282.5],[26.805,-26.932,1285.7845],[26.8098,-26.9317,1284.4988],[26.8113,-26.9332,1290.2274],[26.8095,-26.9487,1287.1213],[26.8157,-26.9532,1287.5959],[26.8306,-26.9493,1285.3162],[26.8424,-26.9421,1286.1807],[26.8485,-26.9402,1283.7668],[26.858,-26.922,1289.3274],[26.8612,-26.9196,1291.515],[26.8664,-26.9191,1283.0],[26.8829,-26.8784,1322.7881],[26.898,-26.8289,1359.1362],[26.8577,-26.817,1338.4924],[26.857,-26.8151,1340.7383],[26.8502,-26.8165,1348.9902],[26.8158,-26.8126,1330.7939],[26.8165,-26.8051,1333.1272],[26.7652,-26.8211,1360.5754],[26.7647,-26.7646,1401.3191],[26.7942,-26.7672,1364.2861],[26.8062,-26.7539,1350.5525],[26.7889,-26.7452,1366.3344],[26.812,-26.6891,1429.061],[26.7803,-26.6897,1383.9568],[26.7772,-26.6658,1413.453],[26.7735,-26.6546,1443.4768],[26.776,-26.6511,1440.3374],[26.7794,-26.6385,1485.4076],[26.7858,-26.632,1508.996],[26.783,-26.6111,1494.3157],[26.7504,-26.6064,1472.4653],[26.7048,-26.6125,1493.3612],[26.6753,-26.6001,1444.7493],[26.6956,-26.5858,1475.9553],[26.6947,-26.5587,1443.4691],[26.6567,-26.5362,1383.0673],[26.6312,-26.516,1345.8615],[26.5648,-26.5018,1366.6328],[26.5304,-26.5181,1382.9536],[26.4646,-26.4945,1414.099],[26.46,-26.4946,1417.4474],[26.4599,-26.4835,1437.7686],[26.4056,-26.4964,1491.1316],[26.3847,-26.4999,1515.1304],[26.3294,-26.5462,1543.6411],[26.3337,-26.5552,1539.5437],[26.2481,-26.5873,1563.1693],[26.2758,-26.6446,1572.3857],[26.251,-26.6457,1558.8712],[26.2674,-26.6812,1599.7303],[26.2635,-26.6835,1600.7708],[26.2724,-26.6914,1630.5267],[26.2603,-26.6993,1608.5615],[26.261,-26.7004,1605.6494],[26.2497,-26.7001,1606.9568],[26.2364,-26.7061,1592.9817],[26.2331,-26.701,1588.4556],[26.1854,-26.7106,1559.6987],[26.189,-26.7338,1559.7346],[26.1595,-26.7461,1549.3304],[26.1619,-26.7521,1548.4868],[26.1563,-26.7437,1549.5502],[26.1458,-26.7481,1546.6409],[26.1472,-26.7518,1545.5848],[26.143,-26.7534,1544.9677],[26.1458,-26.7642,1541.6876],[26.1151,-26.771,1534.3754],[26.1022,-26.8197,1539.5061],[26.0768,-26.8623,1537.8958],[26.0919,-26.8857,1519.4731],[26.1119,-26.8862,1495.9697],[26.1187,-26.8886,1489.9578],[26.1294,-26.8691,1499.9596],[26.1906,-26.9083,1552.1956],[26.1604,-26.9528,1536.5062],[26.1396,-26.9774,1511.4314],[26.1476,-26.9979,1507.2889],[26.1738,-26.9834,1521.0366],[26.1714,-26.9799,1522.3567],[26.1979,-26.9648,1511.7106],[26.2295,-26.9696,1495.5927],[26.2389,-26.9825,1471.1277],[26.2703,-27.0409,1364.1237],[26.3011,-27.0305,1370.0497],[26.3216,-27.0708,1376.2549],[26.3646,-27.1268,1318.6063],[26.3805,-27.1601,1300.9419],[26.3725,-27.1643,1305.8744],[26.3768,-27.1728,1310.5109],[26.3848,-27.1692,1305.8145],[26.3906,-27.1809,1292.8124],[26.4199,-27.1714,1260.718],[26.4253,-27.154,1255.0],[26.4286,-27.1503,1259.3015],[26.4407,-27.15,1257.2891],[26.4592,-27.158,1260.3958],[26.4731,-27.1542,1261.8438],[26.4763,-27.1485,1259.4568],[26.4781,-27.1373,1259.4264],[26.4836,-27.131,1260.8325],[26.4874,-27.13,1261.4946],[26.4984,-27.1329,1264.1023],[26.507,-27.1272,1262.5],[26.5142,-27.1189,1264.0],[26.5221,-27.1037,1264.0],[26.5242,-27.0959,1265.9371],[26.5287,-27.091,1268.8367],[26.5385,-27.0903,1270.2322],[26.549,-27.0986,1269.2277],[26.5684,-27.1026,1268.0],[26.5835,-27.108,1272.8777],[26.5869,-27.1034,1274.2526],[26.5881,-27.0954,1271.0319],[26.5938,-27.0793,1270.5],[26.5923,-27.0706,1270.5],[26.5897,-27.0667,1271.0],[26.5833,-27.0631,1272.7889],[26.5809,-27.0583,1275.6858],[26.5814,-27.0544,1273.0144],[26.5926,-27.0378,1277.2964],[26.6135,-27.0271,1279.4294],[26.6187,-27.0038,1274.0],[26.6215,-27.0027,1276.2886],[26.6361,-27.0034,1277.733],[26.646,-27.0004,1276.2084],[26.6589,-26.9938,1277.0],[26.6688,-26.9946,1284.6466],[26.6728,-26.9964,1287.209],[26.6763,-27.0008,1282.7048],[26.6765,-27.0102,1280.0],[26.6789,-27.0146,1281.8761],[26.6842,-27.0176,1284.3589],[26.6887,-27.018,1285.3481],[26.6966,-27.0139,1282.5117],[26.7006,-27.0086,1289.9839],[26.7051,-26.991,1282.0],[26.7124,-26.9761,1284.8809]]]]}}