{"type": "Feature","bbox": [28.3793,-25.3283,29.1284,-24.9015],"geometry": {"type": "MultiPolygon","coordinates": [[[[29.0434,-25.1643,993.5162],[29.0425,-25.1405,961.8878],[29.0898,-25.1485,975.8448],[29.0869,-25.1365,962.6976],[29.1284,-25.113,948.3602],[29.1058,-25.1004,919.0217],[29.1016,-25.1027,917.8971],[29.0979,-25.1003,914.616],[29.0942,-25.1032,915.7372],[29.0912,-25.1002,912.1144],[29.0883,-25.1036,910.1466],[29.0849,-25.0977,903.6767],[29.0903,-25.0918,901.7196],[29.0857,-25.0888,886.5391],[29.0707,-25.0655,948.611],[29.0188,-25.0549,978.7997],[28.9764,-25.0708,958.0494],[28.9754,-25.0687,958.0379],[28.9717,-25.0702,962.8127],[28.9462,-25.017,1006.7723],[28.9349,-25.0,1009.9091],[28.9103,-25.0071,990.4467],[28.9053,-24.996,992.6898],[28.9094,-24.9955,993.0339],[28.8916,-24.9555,1046.8612],[28.9418,-24.9336,1010.3162],[28.937,-24.9228,1014.7595],[28.9241,-24.9015,1020.8388],[28.8464,-24.9333,1020.0236],[28.8374,-24.916,1018.3555],[28.7594,-24.9114,1038.6354],[28.7138,-24.9536,1024.4514],[28.6588,-24.9722,1028.7234],[28.6338,-24.9844,1027.5366],[28.6057,-25.0034,1021.084],[28.6191,-25.0308,1005.6243],[28.6343,-25.0582,991.0466],[28.6095,-25.0599,1000.9346],[28.6069,-25.0704,1006.7924],[28.4737,-25.0893,1047.0042],[28.4952,-25.1318,1051.2],[28.4466,-25.1359,1069.5332],[28.443,-25.129,1070.1079],[28.4005,-25.1478,1095.3468],[28.3793,-25.1553,1089.7759],[28.3919,-25.1642,1110.7148],[28.411,-25.2048,1075.2112],[28.3869,-25.2134,1063.2268],[28.4616,-25.2015,1075.606],[28.4977,-25.1818,1046.4249],[28.5321,-25.1698,1025.3793],[28.5366,-25.1524,1045.7395],[28.5961,-25.1426,1006.1946],[28.5967,-25.1385,1004.2089],[28.6361,-25.1281,994.7316],[28.635,-25.1183,1001.1304],[28.6489,-25.1129,1000.2932],[28.6516,-25.1429,996.2341],[28.6683,-25.1385,979.7917],[28.7101,-25.1161,975.3374],[28.7446,-25.1096,971.5077],[28.7592,-25.1497,949.1703],[28.7574,-25.1499,949.1472],[28.7765,-25.1837,979.2057],[28.7754,-25.1838,979.2057],[28.7846,-25.2287,1246.6497],[28.7791,-25.2308,1295.5961],[28.7638,-25.2211,1261.1262],[28.7324,-25.2692,1238.4305],[28.7396,-25.2885,1228.6077],[28.791,-25.3283,1319.2656],[28.8647,-25.2739,1251.8514],[28.8992,-25.235,1266.1206],[28.9584,-25.2362,1205.4399],[29.0315,-25.2507,1148.2264],[29.0449,-25.2022,1041.6168],[29.0434,-25.1643,993.5162]]]]}
,"properties": {"GID_3": "ZAF.6.3.1_1","GID_0": "ZAF","country": "SouthAfrica","GID_1": "ZAF.6_1","province": "Mpumalanga","NL_NAME_1": "NA","GID_2": "ZAF.6.3_1","county": "Nkangala","NL_NAME_2": "NA","city": "DrJSMoroka","VARNAME_3": "NA","NL_NAME_3": "NA","TYPE_3": "LocalMunicipality","ENGTYPE_3": "LocalMunicipality","CC_3": "MP316","HASC_3": "NA","name": "Dr_J_S_Moroka.city","area_km2": 1418.703,"hist_schema_id": "Elevation0-9000","hist_area_km2": {"875": 0.326,"900": 16.838,"925": 56.155,"950": 250.652,"975": 270.49,"1000": 238.5,"1025": 267.417,"1050": 88.283,"1075": 62.237,"1100": 47.228,"1125": 25.466,"1150": 25.158,"1175": 19.443,"1200": 16.031,"1225": 14.708,"1250": 9.492,"1275": 4.794,"1300": 2.493,"1325": 1.131,"1350": 0.882,"1375": 0.479,"1400": 0.441,"1425": 0.058}}}