{"type":"Feature","properties":{"GID_3":"ZAF.5.2.2_1","GID_0":"ZAF","country":"SouthAfrica","GID_1":"ZAF.5_1","province":"Limpopo","NL_NAME_1":"NA","GID_2":"ZAF.5.2_1","county":"Mopani","NL_NAME_2":"NA","city":"GreaterGiyani","VARNAME_3":"NA","NL_NAME_3":"NA","TYPE_3":"LocalMunicipality","ENGTYPE_3":"LocalMunicipality","CC_3":"LIM331","HASC_3":"NA","name":"Greater_Giyani.city"},
"geometry":{"type": "MultiPolygon","coordinates": [[[[30.7733,-23.6957,362.1409],[30.7764,-23.6936,364.0843],[30.7841,-23.6949,362.9817],[30.7881,-23.692,362.9116],[30.81,-23.6924,354.9033],[30.8189,-23.6842,356.4659],[30.8313,-23.6859,357.6312],[30.8432,-23.6907,356.1061],[30.8681,-23.6875,344.5923],[30.8759,-23.6785,348.9865],[30.8889,-23.6727,348.8703],[30.8929,-23.6734,345.0447],[30.8926,-23.6775,347.3615],[30.9005,-23.6768,344.3489],[30.9064,-23.682,345.0184],[30.9149,-23.6758,344.8912],[30.9185,-23.6758,343.7706],[30.9322,-23.6837,338.527],[30.9417,-23.6775,341.8322],[30.9542,-23.6836,335.2319],[30.9631,-23.684,334.3308],[30.9657,-23.683,336.4623],[30.9673,-23.6792,334.7028],[30.9661,-23.668,334.1906],[30.9714,-23.6649,331.519],[30.9792,-23.6687,329.2471],[30.9922,-23.6713,332.6868],[31.0008,-23.6758,325.9233],[31.0084,-23.6762,325.0201],[31.0256,-23.6666,323.691],[31.0388,-23.6688,324.6406],[31.0445,-23.6666,328.1799],[31.0495,-23.6598,318.0385],[31.0495,-23.6563,320.9806],[31.0453,-23.6474,317.5861],[31.0465,-23.6434,318.3457],[31.0485,-23.6423,317.3559],[31.0581,-23.6463,325.2536],[31.0783,-23.646,317.2032],[31.0845,-23.6525,309.8791],[31.0893,-23.6683,313.1713],[31.0932,-23.6704,304.4729],[31.0995,-23.6776,303.5783],[31.1073,-23.6759,300.8452],[31.114,-23.6684,300.4139],[31.1154,-23.6538,306.0199],[31.1296,-23.6523,296.4583],[31.1446,-23.6484,294.6163],[31.1229,-23.6269,298.698],[31.1126,-23.6096,301.2508],[31.101,-23.597,311.385],[31.1001,-23.5902,306.3225],[31.1033,-23.5877,311.6248],[31.1186,-23.5842,308.7441],[31.123,-23.5805,313.7886],[31.1253,-23.5714,310.7318],[31.1235,-23.5673,312.0902],[31.1254,-23.5676,317.6988],[31.1292,-23.5637,317.0214],[31.1265,-23.5542,322.8182],[31.1209,-23.5451,326.3745],[31.125,-23.5431,326.8104],[31.1304,-23.5449,330.583],[31.1309,-23.542,332.1158],[31.1285,-23.5389,339.0332],[31.1302,-23.5361,337.831],[31.135,-23.5318,331.848],[31.1405,-23.5329,333.6163],[31.1434,-23.5319,336.5144],[31.1453,-23.5258,336.7318],[31.1491,-23.524,338.6877],[31.1461,-23.5186,343.5341],[31.1502,-23.5137,342.1053],[31.1528,-23.5071,342.4202],[31.1504,-23.5044,344.36],[31.1514,-23.5008,345.8501],[31.147,-23.4942,351.2733],[31.1453,-23.4875,348.3469],[31.1473,-23.4832,349.9377],[31.1511,-23.481,352.076],[31.15,-23.4757,354.196],[31.1517,-23.4672,357.5139],[31.1501,-23.4612,359.5333],[31.1517,-23.4562,361.2063],[31.1567,-23.4513,364.1414],[31.1537,-23.4448,364.8499],[31.157,-23.4401,368.9552],[31.1556,-23.435,369.0132],[31.1581,-23.4325,370.7025],[31.1603,-23.4225,372.6864],[31.1578,-23.4155,375.781],[31.1593,-23.4106,377.3313],[31.1575,-23.4026,381.1066],[31.1536,-23.3997,382.8344],[31.1524,-23.3886,386.8149],[31.1543,-23.3853,388.4214],[31.1589,-23.3861,391.3664],[31.1657,-23.3799,395.5881],[31.1665,-23.3718,396.5715],[31.1703,-23.3643,400.9194],[31.1735,-23.3502,407.8062],[31.2169,-23.3484,435.0195],[31.2171,-23.337,430.1129],[31.2339,-23.3378,417.5218],[31.2383,-23.34,413.4187],[31.2448,-23.3486,407.5481],[31.2509,-23.3537,404.0297],[31.2559,-23.3554,401.2907],[31.2607,-23.3541,398.431],[31.2651,-23.3552,396.223],[31.278199999999998,-23.3667,389.9805],[31.2827,-23.368,387.7285],[31.2861,-23.367,386.1826],[31.2908,-23.3703,384.6932],[31.2943,-23.3784,378.6912],[31.2997,-23.3826,377.1273],[31.3019,-23.3781,385.1682],[31.311,-23.3696,389.9741],[31.3199,-23.3673,382.233],[31.3191,-23.3481,391.724],[31.3232,-23.3375,401.0741],[31.3234,-23.3316,403.8125],[31.318,-23.301,396.7848],[31.3275,-23.3014,387.6135],[31.3532,-23.2966,367.6636],[31.3636,-23.2912,358.9922],[31.3727,-23.2803,350.7346],[31.38,-23.2764,344.8714],[31.3883,-23.2826,340.72],[31.3928,-23.2836,337.153],[31.4096,-23.281,331.0194],[31.418,-23.2776,325.6052],[31.425,-23.2796,321.778],[31.4282,-23.2784,319.8857],[31.431,-23.2746,317.6141],[31.4364,-23.2732,315.1592],[31.4412,-23.2666,310.8254],[31.4402,-23.2641,308.084],[31.4421,-23.2604,307.2548],[31.4558,-23.263,304.0229],[31.4585,-23.2576,299.3956],[31.4683,-23.2524,293.2587],[31.4762,-23.2536,288.9068],[31.4814,-23.2517,285.477],[31.491,-23.2515,282.126],[31.4974,-23.24,274.0207],[31.5052,-23.2333,271.2488],[31.5074,-23.2244,264.811],[31.5156,-23.2208,263.3705],[31.5162,-23.2186,260.5575],[31.5198,-23.2158,256.5054],[31.524,-23.2152,256.3688],[31.528,-23.2189,251.621],[31.5338,-23.2204,250.634],[31.5391,-23.219,245.7679],[31.5549,-23.2224,236.2074],[31.5612,-23.2269,240.9507],[31.5614,-23.2243,252.4544],[31.5565,-23.2222,236.2074],[31.5423,-23.2108,243.4107],[31.5415,-23.1992,242.8116],[31.5372,-23.1901,242.8542],[31.5201,-23.1815,246.3198],[31.5092,-23.1705,252.4299],[31.5042,-23.1683,251.7996],[31.5008,-23.1591,251.2568],[31.4785,-23.1545,255.1097],[31.4766,-23.1534,253.8924],[31.4767,-23.1493,256.5593],[31.4744,-23.1448,254.8902],[31.4688,-23.1428,259.8094],[31.4618,-23.1436,258.5477],[31.4583,-23.1418,258.1189],[31.4524,-23.1323,260.5491],[31.4571,-23.1159,260.3],[31.4563,-23.1127,267.0765],[31.4463,-23.1082,263.7833],[31.4311,-23.1058,267.3063],[31.4261,-23.0984,270.8785],[31.4182,-23.093,274.5439],[31.4119,-23.0911,270.442],[31.4042,-23.097,273.8265],[31.3851,-23.0959,274.0376],[31.3837,-23.106,280.265],[31.3767,-23.1073,276.7773],[31.3746,-23.1182,283.4971],[31.378,-23.1204,285.158],[31.3793,-23.1236,281.9302],[31.3756,-23.1374,287.7166],[31.3663,-23.1416,285.9597],[31.3558,-23.1423,287.925],[31.3473,-23.1537,291.0772],[31.3469,-23.1605,290.864],[31.3427,-23.1642,293.6851],[31.3364,-23.1674,294.5096],[31.3325,-23.1673,293.7075],[31.3262,-23.1744,295.5385],[31.3163,-23.1724,299.7003],[31.3118,-23.1695,306.3214],[31.3029,-23.1738,312.0082],[31.2968,-23.1723,316.0889],[31.2946,-23.1796,313.8359],[31.2804,-23.1861,319.2274],[31.2607,-23.188,319.3134],[31.2575,-23.1944,321.9628],[31.2597,-23.1994,322.8225],[31.2574,-23.2037,322.8228],[31.2459,-23.2069,325.9008],[31.2356,-23.2066,329.5913],[31.2245,-23.2176,331.6391],[31.2205,-23.215699999999998,334.7813],[31.2158,-23.22,335.4556],[31.2114,-23.2206,336.7553],[31.2057,-23.2187,337.4499],[31.1979,-23.209,339.645],[31.1879,-23.2079,341.9252],[31.1776,-23.2039,345.4736],[31.1638,-23.2073,346.0012],[31.1626,-23.203,346.7289],[31.1675,-23.1947,351.4791],[31.1669,-23.1932,350.1623],[31.1628,-23.1898,353.1957],[31.1567,-23.1881,352.8869],[31.1512,-23.1893,352.0048],[31.1478,-23.1924,352.7918],[31.1458,-23.1883,354.2456],[31.1491,-23.1832,362.322],[31.1462,-23.1824,356.8995],[31.1451,-23.1784,356.276],[31.1372,-23.1825,358.7509],[31.1323,-23.182,358.4666],[31.129,-23.1796,361.3473],[31.1308,-23.1754,366.3319],[31.1262,-23.1705,362.845],[31.1207,-23.1734,365.4858],[31.1151,-23.18,364.6305],[31.1099,-23.1823,368.6077],[31.1079,-23.1895,367.3115],[31.104,-23.1922,370.4693],[31.103,-23.196,371.3223],[31.096,-23.1963,372.3557],[31.0939,-23.1982,370.463],[31.0948,-23.2046,372.6634],[31.0907,-23.211,372.4944],[31.088,-23.2125,372.5487],[31.0859,-23.2098,375.0282],[31.0814,-23.209,375.0608],[31.0754,-23.1992,376.7795],[31.0626,-23.1912,380.2439],[31.0622,-23.1871,380.8324],[31.0573,-23.1836,380.8973],[31.0545,-23.1761,391.6609],[31.0519,-23.1748,383.7063],[31.047,-23.1778,386.9792],[31.0424,-23.1769,387.6521],[31.0368,-23.1809,388.0471],[31.0405,-23.1926,393.066],[31.0362,-23.1969,394.6467],[31.0248,-23.1922,397.7332],[31.0206,-23.1841,398.3171],[31.0234,-23.1811,399.3901],[31.0242,-23.1775,405.5316],[31.0206,-23.1731,399.8371],[31.0149,-23.1722,401.4472],[31.006,-23.1748,402.5312],[30.9984,-23.1734,404.4883],[30.992,-23.1754,403.159],[30.9848,-23.17,405.9053],[30.9804,-23.1689,407.1898],[30.9687,-23.1737,409.1662],[30.9669,-23.1741,408.5145],[30.9649,-23.1721,409.2542],[30.9612,-23.174,413.1749],[30.962,-23.1701,412.8447],[30.9587,-23.1661,414.8857],[30.9564,-23.1643,416.6284],[30.9498,-23.1645,418.0883],[30.9474,-23.1661,417.6533],[30.9477,-23.1756,422.9543],[30.9446,-23.1794,423.4156],[30.9296,-23.1394,433.6992],[30.9208,-23.141,435.0869],[30.9135,-23.1472,436.1848],[30.9061,-23.1431,439.6022],[30.9043,-23.1387,442.6587],[30.8988,-23.1373,440.5099],[30.8963,-23.1386,442.8752],[30.8969,-23.1423,444.4953],[30.893,-23.1461,445.5663],[30.8902,-23.1479,445.1437],[30.8843,-23.1481,445.7693],[30.8809,-23.1508,446.6522],[30.8791,-23.1488,446.9686],[30.8795,-23.1434,446.6986],[30.8755,-23.126,454.5083],[30.8736,-23.1242,452.894],[30.8656,-23.127,450.2454],[30.8629,-23.1265,450.1192],[30.8608,-23.1284,452.5449],[30.8569,-23.1225,458.8491],[30.8511,-23.1209,454.623],[30.8482,-23.124,455.4919],[30.8436,-23.1246,455.9038],[30.8326,-23.1173,459.4028],[30.8367,-23.1113,460.6688],[30.8399,-23.1119,460.0297],[30.8422,-23.1091,460.2411],[30.832,-23.1016,467.8116],[30.8317,-23.0938,464.8583],[30.8197,-23.0958,465.3106],[30.8169,-23.095,467.5855],[30.8129,-23.101,469.3797],[30.809,-23.1014,468.7817],[30.8057,-23.1048,471.7714],[30.7966,-23.0988,473.3928],[30.7942,-23.0911,475.8855],[30.7892,-23.0894,474.6521],[30.7877,-23.0869,477.1989],[30.7837,-23.0887,476.8668],[30.7769,-23.0861,479.3325],[30.7763,-23.0889,477.9068],[30.7691,-23.090699999999998,480.7853],[30.7682,-23.0933,480.1953],[30.7639,-23.0953,482.7333],[30.7614,-23.0912,483.3649],[30.7625,-23.0863,490.9503],[30.7555,-23.0871,485.4324],[30.7384,-23.0823,488.9693],[30.7342,-23.0747,490.382],[30.7281,-23.0722,491.3054],[30.6522,-23.1574,616.4208],[30.6275,-23.1817,481.8675],[30.6213,-23.1732,482.9842],[30.6164,-23.174,486.8734],[30.6119,-23.1726,492.9809],[30.6113,-23.1742,487.8949],[30.6052,-23.175,491.0985],[30.6043,-23.1816,500.739],[30.6021,-23.1832,496.2762],[30.598,-23.1826,497.2754],[30.5946,-23.1849,499.0059],[30.5901,-23.1838,501.9163],[30.5899,-23.178,512.0098],[30.5783,-23.1807,510.7872],[30.5738,-23.1772,515.7109],[30.5652,-23.18,524.3715],[30.5658,-23.1784,522.7515],[30.5627,-23.1757,529.5149],[30.5221,-23.2187,516.0247],[30.5328,-23.2752,478.2774],[30.5162,-23.2686,480.9384],[30.5094,-23.2578,487.7189],[30.5,-23.2532,481.877],[30.4876,-23.2442,485.6417],[30.4737,-23.2405,486.3305],[30.4648,-23.2403,487.6911],[30.4529,-23.2495,489.9397],[30.4489,-23.2485,492.1022],[30.4393,-23.2548,505.0877],[30.4281,-23.2558,502.6896],[30.4255,-23.2705,498.3763],[30.4229,-23.2717,501.7615],[30.4186,-23.2707,502.8013],[30.4035,-23.2342,519.6071],[30.3685,-23.2477,534.1963],[30.335,-23.2494,547.7112],[30.3488,-23.2819,581.0072],[30.3599,-23.3004,556.6733],[30.3692,-23.3102,519.5],[30.3641,-23.3172,519.5],[30.3571,-23.3236,527.3264],[30.3567,-23.3387,524.8605],[30.3454,-23.3452,526.0177],[30.3419,-23.3554,528.6791],[30.3354,-23.364,531.3736],[30.3336,-23.3731,536.0855],[30.3286,-23.3776,544.4407],[30.294,-23.3857,584.9066],[30.3374,-23.424,781.5488],[30.4058,-23.3679,794.3264],[30.4508,-23.371,568.1022],[30.4826,-23.3419,541.785],[30.5382,-23.4017,514.3088],[30.48,-23.4285,528.3311],[30.4514,-23.4436,560.2091],[30.47,-23.474,530.0154],[30.4965,-23.4572,503.4673],[30.5418,-23.4335,484.8082],[30.5794,-23.4389,476.8772],[30.6174,-23.389,532.2468],[30.6889,-23.4554,534.033],[30.6249,-23.5967,476.8957],[30.715699999999998,-23.6481,398.1104],[30.7289,-23.6407,393.5569],[30.7335,-23.641,395.0052],[30.743,-23.6603,390.1446],[30.7505,-23.6691,383.6974],[30.7522,-23.6796,380.3819],[30.7597,-23.6973,370.4439],[30.7632,-23.7004,367.125],[30.7661,-23.7007,367.2091],[30.7733,-23.6957,362.1409]]]]}}