{"type":"Feature","properties":{"GID_3":"ZAF.9.6.1_1","GID_0":"ZAF","country":"SouthAfrica","GID_1":"ZAF.9_1","province":"WesternCape","NL_NAME_1":"NA","GID_2":"ZAF.9.6_1","county":"WestCoast","NL_NAME_2":"NA","city":"Bergrivier","VARNAME_3":"NA","NL_NAME_3":"NA","TYPE_3":"LocalMunicipality","ENGTYPE_3":"LocalMunicipality","CC_3":"WC013","HASC_3":"NA","name":"Bergrivier.city"},
"geometry":{"type": "MultiPolygon","coordinates": [[[[18.9118,-33.1613,41.8441],[18.9104,-33.1645,38.4255],[18.9145,-33.1659,44.8563],[18.9182,-33.1706,39.4809],[18.9217,-33.1802,41.3778],[18.9214,-33.1862,40.8729],[18.9274,-33.1902,43.5574],[18.9368,-33.1934,43.4073],[18.9405,-33.1967,54.5351],[18.9432,-33.1937,52.3232],[18.9565,-33.1881,57.5641],[18.9572,-33.1756,58.9247],[18.956,-33.1674,55.2354],[18.9801,-33.1521,68.2215],[19.0001,-33.1455,78.4957],[19.0198,-33.1417,92.8366],[19.0509,-33.142,115.5626],[19.0561,-33.1401,124.8848],[19.0896,-33.1141,291.5274],[19.1462,-33.1061,2011.4294],[19.173,-33.0919,1839.0408],[19.1774,-33.06,1372.9094],[19.1655,-33.0354,1710.5743],[19.1537,-32.984,1377.6083],[19.1861,-32.8682,1673.899],[19.1844,-32.8271,1740.8535],[19.1505,-32.8721,1391.5837],[19.1206,-32.8779,804.0938],[19.1084,-32.8758,573.2942],[19.0986,-32.8791,245.1289],[19.0818,-32.8667,244.9439],[19.0828,-32.8562,232.6886],[19.0686,-32.8553,308.726],[19.0563,-32.8593,407.0787],[19.0557,-32.8563,392.7579],[19.0643,-32.8345,235.0229],[19.0448,-32.8431,759.5209],[19.0357,-32.8489,387.2964],[19.0341,-32.8256,382.5781],[19.0411,-32.8242,627.5562],[19.0347,-32.7858,797.4148],[19.0239,-32.7973,360.7527],[19.0206,-32.7786,333.4595],[19.0329,-32.7783,723.4232],[19.0314,-32.7725,680.7948],[19.0191,-32.77,347.9803],[19.0072,-32.7162,681.3364],[18.973,-32.6705,512.0742],[18.9655,-32.6539,650.3034],[18.9607,-32.633,612.754],[18.9631,-32.6173,423.3426],[18.9499,-32.5991,769.8902],[18.931,-32.6068,542.8608],[18.9058,-32.5749,649.4066],[18.8862,-32.5556,559.6909],[18.8655,-32.5424,512.3856],[18.8673,-32.5392,738.6929],[18.8489,-32.5218,583.1761],[18.8277,-32.5113,855.1131],[18.7866,-32.5204,452.7155],[18.7847,-32.5226,514.3137],[18.7831,-32.5297,532.91],[18.7914,-32.5594,582.249],[18.8039,-32.572,205.1664],[18.7684,-32.5653,318.4624],[18.7249,-32.5665,109.2566],[18.7079,-32.5576,126.8089],[18.7063,-32.5367,239.9277],[18.6852,-32.5191,403.0125],[18.6622,-32.491,465.0157],[18.6727,-32.4699,212.8397],[18.6576,-32.4613,287.7497],[18.6427,-32.456,298.9288],[18.6067,-32.4643,348.4039],[18.5913,-32.4648,228.0972],[18.5752,-32.48,251.0395],[18.571,-32.4769,328.7092],[18.5719,-32.4541,170.7598],[18.558,-32.4524,46.0577],[18.541,-32.4441,221.5831],[18.5198,-32.4496,4.5235],[18.5116,-32.4443,2.9271],[18.5009,-32.434,7.8306],[18.4928,-32.4383,170.543],[18.4696,-32.4658,236.1011],[18.4585,-32.4764,102.9132],[18.4062,-32.4341,96.1581],[18.3988,-32.4255,116.8329],[18.3349,-32.4428,0.0],[18.3332,-32.4879,0.0],[18.3246,-32.534,0.0],[18.3124,-32.5701,5.3651],[18.2843,-32.6263,5.2829],[18.2574,-32.6657,4.5295],[18.2421,-32.6835,2.7138],[18.2246,-32.6979,0.5239],[18.2007,-32.7135,0.3188],[18.1885,-32.7293,0.6294],[18.1812,-32.7354,1.761],[18.1699,-32.7513,4.7322],[18.1599,-32.7599,4.9117],[18.1449,-32.7693,0.4525],[18.1488,-32.7718,0.3515],[18.1429,-32.7732,0.4163],[18.1368,-32.7782,1.0075],[18.1332,-32.7782,2.4251],[18.1335,-32.7765,1.2596],[18.1446,-32.7715,0.0],[18.144,-32.7693,0.0],[18.1343,-32.7754,1.0473],[18.1248,-32.7778,0.0],[18.1157,-32.8062,8.4764],[18.101,-32.8252,15.9973],[18.1245,-32.8105,8.5472],[18.1551,-32.8133,8.2604],[18.1482,-32.8345,11.0373],[18.1449,-32.8371,13.275],[18.1717,-32.8511,12.8962],[18.1964,-32.8559,11.9911],[18.1817,-32.8655,18.3065],[18.1709,-32.8641,20.6291],[18.1642,-32.8883,33.4439],[18.2053,-32.8918,24.3321],[18.2003,-32.9022,24.2899],[18.2217,-32.9004,24.2986],[18.2328,-32.8968,22.9367],[18.2416,-32.9137,24.3255],[18.2404,-32.9323,35.4278],[18.2719,-32.9533,54.1862],[18.2926,-32.962,62.3525],[18.3401,-32.9465,12.1165],[18.3411,-32.9426,1.5182],[18.3622,-32.9442,1.4831],[18.368,-32.9375,10.2243],[18.3692,-32.9379,8.3661],[18.3682,-32.9408,1.3544],[18.37,-32.9456,2.3526],[18.3684,-32.957,7.7435],[18.3732,-32.9586,1.9101],[18.3771,-32.9569,3.2769],[18.3802,-32.9585,2.5669],[18.3998,-32.9575,1.9149],[18.3998,-32.9536,2.7625],[18.4034,-32.9445,14.1505],[18.4056,-32.9432,3.5528],[18.4113,-32.9438,3.7387],[18.4125,-32.9519,9.5927],[18.4151,-32.9535,6.345],[18.4165,-32.9491,2.9269],[18.4238,-32.9446,3.171],[18.4444,-32.9461,5.6762],[18.4437,-32.9399,4.8046],[18.4454,-32.938,4.3659],[18.4553,-32.9394,4.2361],[18.4538,-32.9517,5.3128],[18.456,-32.9545,4.578],[18.4705,-32.9446,5.6025],[18.4795,-32.9507,4.3175],[18.4902,-32.9537,4.9011],[18.4975,-32.9457,13.564],[18.5076,-32.9486,5.0192],[18.5144,-32.9427,8.6574],[18.5265,-32.9438,6.1318],[18.5324,-32.9399,5.2421],[18.541,-32.9415,7.1868],[18.5474,-32.9402,8.3999],[18.5534,-32.9317,6.0377],[18.553,-32.9263,8.3109],[18.5482,-32.921,8.4327],[18.5504,-32.917,8.7499],[18.5603,-32.9171,12.6316],[18.5651,-32.9117,10.4266],[18.5729,-32.9133,10.4926],[18.5739,-32.9112,7.6826],[18.5721,-32.9065,38.3635],[18.5728,-32.9031,10.1717],[18.5884,-32.9002,9.4889],[18.5964,-32.9011,8.8956],[18.6079,-32.9198,10.2215],[18.6108,-32.9192,11.1437],[18.614,-32.9138,12.9826],[18.6211,-32.9184,16.0631],[18.6251,-32.9186,11.327],[18.6365,-32.9129,25.9783],[18.6472,-32.9156,12.0875],[18.6547,-32.9152,13.4499],[18.6585,-32.9193,16.2345],[18.665,-32.9194,17.7844],[18.6701,-32.9218,14.7491],[18.6775,-32.9207,34.0885],[18.6759,-32.9293,16.6144],[18.6809,-32.9358,12.518],[18.6808,-32.9418,18.4279],[18.6823,-32.9438,14.7311],[18.689,-32.9387,13.7405],[18.6939,-32.9452,14.2614],[18.7045,-32.9458,17.914],[18.7128,-32.951,13.8805],[18.7169,-32.9493,21.4336],[18.7264,-32.9504,17.7949],[18.7338,-32.9561,22.0561],[18.74,-32.9663,17.0771],[18.748,-32.9729,27.9543],[18.7548,-32.9727,34.4148],[18.758,-32.9801,20.2837],[18.7626,-32.9836,21.6129],[18.7717,-32.9862,18.5238],[18.7735,-32.9922,32.4489],[18.7826,-32.9999,41.3823],[18.783,-33.007,18.4369],[18.7847,-33.0088,22.7904],[18.7854,-33.0162,20.7644],[18.7874,-33.0185,22.9385],[18.7894,-33.0281,26.9691],[18.7944,-33.0291,24.8578],[18.8014,-33.0238,28.3817],[18.8071,-33.0299,31.5709],[18.8163,-33.0313,25.8468],[18.8162,-33.0336,26.1134],[18.8111,-33.0373,24.5],[18.8107,-33.0458,25.8431],[18.8057,-33.0505,28.1344],[18.8103,-33.0527,26.7286],[18.8164,-33.0519,24.5],[18.8195,-33.0552,36.4788],[18.8228,-33.0657,26.6263],[18.8214,-33.0718,25.4034],[18.8297,-33.0682,26.5687],[18.8315,-33.0696,28.1261],[18.8294,-33.0808,30.6578],[18.8306,-33.0837,27.7975],[18.8358,-33.0868,38.4421],[18.8344,-33.0957,35.8168],[18.8415,-33.0985,30.2753],[18.8414,-33.1011,33.624],[18.8437,-33.1045,30.8204],[18.8412,-33.1081,29.8957],[18.8447,-33.1173,36.8551],[18.8504,-33.1197,42.9568],[18.8556,-33.1191,31.3039],[18.8559,-33.1215,33.5158],[18.8524,-33.1252,35.7528],[18.8541,-33.1294,40.317],[18.8631,-33.1303,37.7277],[18.8633,-33.132,35.2799],[18.8603,-33.1351,33.7807],[18.8647,-33.1408,40.7906],[18.8636,-33.1443,35.7524],[18.8654,-33.1474,35.8561],[18.8708,-33.1494,36.7743],[18.8782,-33.147,36.6053],[18.8827,-33.1509,36.5515],[18.8835,-33.1563,34.9746],[18.8866,-33.1591,36.2368],[18.8975,-33.1599,43.8759],[18.9109,-33.1577,49.6583],[18.9123,-33.1591,49.2623],[18.9118,-33.1613,41.8441]]]]}}