{"type":"Feature","properties":{"GID_3":"ZAF.9.5.2_1","GID_0":"ZAF","country":"SouthAfrica","GID_1":"ZAF.9_1","province":"WesternCape","NL_NAME_1":"NA","GID_2":"ZAF.9.5_1","county":"Overberg","NL_NAME_2":"NA","city":"Overstrand","VARNAME_3":"NA","NL_NAME_3":"NA","TYPE_3":"LocalMunicipality","ENGTYPE_3":"LocalMunicipality","CC_3":"WC032","HASC_3":"NA","name":"Overstrand.city"},
"geometry":{"type": "MultiPolygon","coordinates": [[[[19.6646,-34.7879,0.0],[19.6682,-34.7879,0.0],[19.6682,-34.7865,0.0],[19.6629,-34.7865,0.0],[19.6646,-34.7879,0.0]]],
[[[19.4174,-34.6881,0.0],[19.4126,-34.6885,0.0],[19.4112,-34.6896,0.0],[19.4179,-34.6901,0.0],[19.4174,-34.6881,0.0]]],
[[[19.421,-34.6799,0.0],[19.4138,-34.6826,0.0],[19.4115,-34.6857,0.0],[19.4146,-34.6865,0.0],[19.4204,-34.6821,0.0],[19.4221,-34.6826,0.0],[19.4229,-34.6804,0.0],[19.421,-34.6799,0.0]]],
[[[19.4218,-34.6126,0.6309],[19.4338,-34.6235,2.6466],[19.439,-34.6315,0.0],[19.4407,-34.6399,6.3792],[19.446,-34.6482,0.0],[19.4454,-34.6512,0.0],[19.4485,-34.6529,0.1553],[19.4485,-34.6551,0.0],[19.4676,-34.661,3.3421],[19.4724,-34.6607,3.3648],[19.4735,-34.6624,0.8141],[19.4707,-34.6635,0.0],[19.4726,-34.6651,0.0],[19.4737,-34.664,0.0],[19.4762,-34.6654,0.0],[19.4782,-34.6635,0.0],[19.4876,-34.6635,0.0],[19.4888,-34.6668,0.0],[19.4912,-34.6685,0.0],[19.4957,-34.6671,0.0],[19.4979,-34.6688,0.0],[19.4932,-34.6701,0.0],[19.4949,-34.6726,0.0],[19.4976,-34.671,0.0],[19.5096,-34.6732,0.0],[19.5171,-34.6704,1.4825],[19.526,-34.6738,2.2196],[19.5318,-34.6807,1.9216],[19.5318,-34.6837,0.0],[19.5301,-34.6851,0.0],[19.531,-34.689,0.0],[19.5415,-34.6924,1.1635],[19.541,-34.6943,0.0],[19.5449,-34.6985,0.0],[19.5418,-34.701,0.0],[19.5443,-34.7032,0.0],[19.5518,-34.7035,0.5832],[19.5479,-34.706,0.0],[19.549,-34.7132,0.0],[19.559,-34.7115,0.0],[19.5635,-34.7135,0.0],[19.5662,-34.7157,1.0018],[19.5654,-34.7179,0.0],[19.5674,-34.7207,0.0],[19.5749,-34.721,4.7571],[19.569,-34.724,0.0],[19.5746,-34.7282,0.0],[19.5865,-34.7287,0.0],[19.5888,-34.7251,0.0],[19.5926,-34.7274,0.0],[19.5957,-34.7318,0.0],[19.5979,-34.7313,0.0],[19.601,-34.736,0.0],[19.5976,-34.7376,0.0],[19.6013,-34.7387,5.1718],[19.5982,-34.7393,0.0],[19.5965,-34.744,0.0],[19.6007,-34.7471,0.0],[19.5999,-34.7499,0.0],[19.6051,-34.7501,0.0],[19.6085,-34.7535,1.3759],[19.6082,-34.7571,0.0],[19.6096,-34.7588,0.0],[19.6157,-34.7588,0.0],[19.624,-34.7537,0.0],[19.6326,-34.7549,7.769],[19.6407,-34.7685,0.0],[19.6421,-34.7754,0.0],[19.6399,-34.7782,0.0],[19.6357,-34.7785,0.0],[19.6321,-34.7821,0.0],[19.6285,-34.7829,0.0],[19.6321,-34.786,0.0],[19.6329,-34.784,0.0],[19.6371,-34.7821,0.0868],[19.6404,-34.7829,0.3637],[19.6451,-34.781,3.2498],[19.6549,-34.786,0.0],[19.6563,-34.7837,1.038],[19.6579,-34.7843,0.1603],[19.6571,-34.7863,0.0],[19.6521,-34.7882,0.0],[19.6349,-34.7876,0.0],[19.6387,-34.7915,0.0],[19.6449,-34.7887,0.0],[19.6535,-34.7915,0.0],[19.6585,-34.7899,0.0],[19.659,-34.7854,0.0],[19.6699,-34.7854,0.0],[19.6712,-34.7837,0.0],[19.6776,-34.7826,0.0],[19.6763,-34.7801,3.0173],[19.6737,-34.7799,12.6298],[19.6726,-34.7768,7.5279],[19.6779,-34.7729,3.3442],[19.6818,-34.7721,0.0],[19.6821,-34.7701,2.3322],[19.6849,-34.7693,2.1494],[19.6838,-34.7671,3.014],[19.6879,-34.766,0.0],[19.6876,-34.7646,0.0],[19.6904,-34.7626,4.8694],[19.7129,-34.7632,0.0],[19.7252,-34.766,6.466],[19.7334,-34.7455,13.2418],[19.74,-34.7124,81.8302],[19.7386,-34.7129,87.1014],[19.7146,-34.6878,83.1939],[19.7202,-34.6442,255.1478],[19.7102,-34.6303,176.9775],[19.7197,-34.5998,207.0648],[19.7095,-34.5963,246.5924],[19.7043,-34.5828,119.5818],[19.6936,-34.5756,119.6483],[19.6882,-34.5622,87.0839],[19.6922,-34.5479,103.9003],[19.7027,-34.5381,104.2144],[19.6867,-34.5164,477.4477],[19.7134,-34.4686,487.5086],[19.6987,-34.4663,352.0785],[19.6947,-34.46,261.0819],[19.7027,-34.4436,373.9518],[19.6959,-34.4322,695.3043],[19.6747,-34.4308,591.9586],[19.6637,-34.4167,624.0588],[19.6269,-34.4169,605.6946],[19.616,-34.4243,340.2664],[19.5831,-34.4297,355.448],[19.5829,-34.4255,285.4716],[19.6032,-34.406,57.7365],[19.5822,-34.4041,86.4433],[19.5904,-34.3905,386.1174],[19.5489,-34.3958,472.4232],[19.556,-34.3897,460.8252],[19.5245,-34.3903,551.6929],[19.4951,-34.3998,710.5761],[19.4462,-34.3909,739.2009],[19.4022,-34.3765,891.7228],[19.3922,-34.38,900.7281],[19.3516,-34.3876,853.9147],[19.3006,-34.3753,801.6146],[19.2934,-34.3671,572.7706],[19.3052,-34.356,498.0471],[19.2974,-34.3457,348.159],[19.3068,-34.3402,373.1695],[19.3038,-34.3288,522.9053],[19.2579,-34.3163,448.17],[19.2569,-34.3179,457.4416],[19.211,-34.3267,357.73],[19.2087,-34.2944,144.1131],[19.2045,-34.2978,160.1371],[19.1735,-34.2693,49.3167],[19.1641,-34.2677,85.7016],[19.1572,-34.2638,126.8866],[19.172,-34.2544,149.9731],[19.1825,-34.265,67.1495],[19.1859,-34.2569,58.1269],[19.1645,-34.2489,238.4238],[19.1608,-34.2429,324.5452],[19.1801,-34.2314,200.0514],[19.1851,-34.233,157.6592],[19.185,-34.2207,248.5798],[19.149,-34.2172,468.3547],[19.1521,-34.2067,287.0166],[19.1549,-34.2039,300.177],[19.1536,-34.2025,326.2761],[19.1027,-34.1858,274.1849],[19.1015,-34.1889,274.7452],[19.1042,-34.1954,237.6621],[19.1027,-34.1958,230.1639],[19.1,-34.189,264.7994],[19.1011,-34.1853,274.1849],[19.0871,-34.1803,300.2693],[19.0846,-34.1857,311.1861],[19.0898,-34.199,277.3716],[19.1072,-34.2062,270.6078],[19.0997,-34.2236,354.3724],[19.1224,-34.2312,339.3082],[19.1304,-34.2365,313.0511],[19.1301,-34.2431,337.3138],[19.0391,-34.2742,293.9463],[19.0218,-34.2713,105.9045],[19.0118,-34.2742,102.3227],[18.9599,-34.2482,245.8676],[18.9477,-34.2449,264.9672],[18.946,-34.2277,353.148],[18.956,-34.2105,327.6117],[18.9386,-34.2074,789.0952],[18.9305,-34.2037,800.5987],[18.9202,-34.2122,929.7449],[18.9139,-34.2109,977.5055],[18.9084,-34.217,944.967],[18.8994,-34.2169,1039.5848],[18.8986,-34.2208,1156.9736],[18.9004,-34.2275,1129.0562],[18.8929,-34.2343,1125.5244],[18.8753,-34.2294,786.5774],[18.8802,-34.2482,278.8257],[18.8677,-34.2574,239.4602],[18.8654,-34.2641,410.8173],[18.8502,-34.2703,160.9803],[18.8454,-34.2694,0.6571],[18.8304,-34.2757,3.1484],[18.8268,-34.2824,14.763],[18.8246,-34.2832,0.0],[18.8243,-34.2871,0.0],[18.821,-34.2915,0.152],[18.8204,-34.2949,0.0],[18.8226,-34.2996,3.2865],[18.821,-34.3004,8.9286],[18.8193,-34.2979,0.0],[18.8168,-34.299,4.4203],[18.8151,-34.2962,0.0],[18.8126,-34.2965,0.0],[18.8121,-34.304,0.0],[18.8149,-34.3074,0.0],[18.8101,-34.3096,0.0],[18.8129,-34.3124,0.0],[18.8182,-34.3115,0.0],[18.8154,-34.3187,0.0],[18.8179,-34.324,1.4449],[18.821,-34.3262,0.3811],[18.8196,-34.3312,1.5279],[18.8243,-34.3368,0.0],[18.8304,-34.3393,4.7369],[18.8304,-34.3426,1.5863],[18.8274,-34.3457,4.4334],[18.8224,-34.3457,0.0],[18.8193,-34.3479,0.5025],[18.8118,-34.3474,0.0],[18.8093,-34.3493,1.3089],[18.816,-34.3554,0.0],[18.816,-34.3574,0.0],[18.8179,-34.3574,4.1578],[18.8157,-34.3585,0.0],[18.8151,-34.3657,0.1707],[18.8174,-34.3668,3.6342],[18.8193,-34.3737,0.5073],[18.8254,-34.3737,8.3751],[18.8268,-34.3774,0.2884],[18.8288,-34.3776,4.2995],[18.8282,-34.3818,6.0287],[18.8249,-34.3807,0.0],[18.8218,-34.3812,0.0],[18.8215,-34.3826,0.5368],[18.8274,-34.384,6.6854],[18.8263,-34.3876,2.7405],[18.8288,-34.3896,0.0],[18.831,-34.3868,0.1261],[18.8363,-34.3876,0.2095],[18.8343,-34.3862,1.5127],[18.8346,-34.3846,1.5127],[18.8321,-34.3838,1.6749],[18.8312,-34.3807,3.5049],[18.8351,-34.3785,1.7117],[18.8376,-34.3796,0.0],[18.8388,-34.3776,2.4119],[18.8454,-34.3787,0.8168],[18.8463,-34.381,0.221],[18.8524,-34.3843,0.0],[18.8551,-34.3838,0.0],[18.8518,-34.3868,0.0],[18.8543,-34.391,-0.0365],[18.8621,-34.3893,-0.2722],[18.864,-34.391,0.0],[18.8635,-34.3854,0.0],[18.856,-34.3804,3.0912],[18.8565,-34.3774,0.0],[18.8596,-34.3771,0.0],[18.8626,-34.3713,0.0],[18.8724,-34.3688,1.376],[18.8762,-34.3696,0.0],[18.8818,-34.3749,0.0],[18.8868,-34.3754,0.0],[18.8862,-34.3732,0.0],[18.8899,-34.374,1.7948],[18.8907,-34.3757,0.0],[18.8968,-34.3754,0.0],[18.8951,-34.3724,1.5346],[18.8974,-34.3701,0.0],[18.8957,-34.3679,3.3216],[18.8996,-34.3704,0.0],[18.9054,-34.3682,0.0],[18.9057,-34.3668,0.0],[18.9018,-34.3635,0.5476],[18.9057,-34.3587,0.0],[18.911,-34.3574,7.1843],[18.9338,-34.359,0.0],[18.9349,-34.3565,0.0],[18.944,-34.3604,0.0],[18.9487,-34.359,7.6885],[18.9513,-34.3618,0.0],[18.9674,-34.364,0.0],[18.971,-34.3601,0.0],[18.9762,-34.3607,0.0],[18.9779,-34.3585,0.0],[18.9793,-34.359,0.0],[18.9799,-34.3543,0.2327],[18.9826,-34.3549,0.0],[18.9843,-34.3518,0.0],[18.9871,-34.3507,0.0],[18.9871,-34.349,1.4614],[18.9932,-34.3485,0.0],[18.9951,-34.3462,0.0],[18.9904,-34.3401,1.7393],[18.9904,-34.3371,3.8712],[18.9954,-34.3413,3.9361],[18.9954,-34.3432,0.0],[19.0029,-34.3465,0.0],[19.0163,-34.3482,0.0],[19.0251,-34.3457,2.7823],[19.0332,-34.3457,0.0964],[19.0354,-34.3488,0.0],[19.0376,-34.3476,0.0],[19.0365,-34.3457,0.0],[19.0379,-34.3451,0.0],[19.0376,-34.3413,0.0],[19.0443,-34.3413,0.0],[19.0807,-34.3568,2.7966],[19.0965,-34.3668,0.0],[19.099,-34.3613,0.0],[19.0954,-34.3557,0.1213],[19.0904,-34.3526,0.9407],[19.0912,-34.3501,0.2795],[19.0932,-34.3488,1.7303],[19.0985,-34.3493,1.0167],[19.1015,-34.3401,0.7466],[19.1046,-34.3363,0.9986],[19.1176,-34.3349,0.0],[19.1151,-34.3301,10.765],[19.1179,-34.326,1.2767],[19.1257,-34.3224,4.5737],[19.1304,-34.3232,0.0],[19.1346,-34.3201,0.0],[19.1385,-34.3207,0.0],[19.1382,-34.3157,0.0],[19.1396,-34.3151,0.0],[19.1426,-34.3215,8.4895],[19.1388,-34.3249,1.4532],[19.1371,-34.3296,5.926],[19.1282,-34.3304,0.0],[19.1276,-34.3335,0.0],[19.131,-34.3399,0.0],[19.1307,-34.3424,0.7078],[19.1235,-34.3488,0.0],[19.1304,-34.3535,0.0],[19.126,-34.356,0.0],[19.1182,-34.3537,0.0],[19.116,-34.3585,4.9304],[19.1118,-34.3599,0.0],[19.1126,-34.3643,0.0],[19.1029,-34.3646,0.0],[19.0993,-34.3685,0.0],[19.119,-34.3865,0.0],[19.1262,-34.3976,7.8427],[19.1257,-34.3993,13.3448],[19.1168,-34.4038,0.0],[19.1149,-34.4071,0.0],[19.1204,-34.4121,0.0],[19.1179,-34.4162,0.0],[19.1182,-34.4193,0.0],[19.1226,-34.4185,0.0],[19.1257,-34.4218,0.0],[19.1318,-34.4188,0.0],[19.1332,-34.4201,0.0],[19.1343,-34.4193,1.0391],[19.1385,-34.4246,0.0],[19.1479,-34.4246,0.0],[19.1518,-34.4226,1.6033],[19.1554,-34.4246,0.0],[19.161,-34.4193,2.9872],[19.1657,-34.4204,0.0],[19.1707,-34.4176,0.0],[19.1712,-34.4193,0.0],[19.1682,-34.421,0.0],[19.1699,-34.4232,0.0],[19.1804,-34.4201,0.0],[19.1824,-34.424,0.0],[19.1854,-34.4238,0.0],[19.1887,-34.4287,0.0],[19.1915,-34.4285,0.0],[19.1938,-34.4313,0.0],[19.204,-34.4287,8.4657],[19.2013,-34.434,0.0],[19.2018,-34.4357,0.0],[19.2057,-34.436,0.1653],[19.2076,-34.4382,0.0],[19.2201,-34.4393,0.0],[19.2271,-34.4351,0.0],[19.2285,-34.4304,5.3089],[19.2318,-34.4293,0.0],[19.2337,-34.4265,0.0],[19.2357,-34.4274,0.0],[19.2357,-34.4246,0.0],[19.2388,-34.4221,8.7973],[19.2415,-34.4251,0.0],[19.2437,-34.4246,0.0],[19.2454,-34.4185,5.026],[19.249,-34.4179,3.2038],[19.2526,-34.414,2.2362],[19.2551,-34.4151,0.0],[19.2665,-34.4101,0.0],[19.2707,-34.4107,0.0],[19.2735,-34.4093,1.4648],[19.2821,-34.4137,0.0],[19.2987,-34.4168,0.0],[19.3051,-34.4154,0.0],[19.3088,-34.4118,9.2518],[19.3132,-34.411,0.0],[19.3151,-34.4087,0.2494],[19.3182,-34.4101,0.0],[19.3204,-34.4085,0.0],[19.3257,-34.4096,0.0],[19.3312,-34.4082,0.0],[19.3399,-34.411,3.0085],[19.3465,-34.409,2.6595],[19.3626,-34.4107,0.0],[19.3813,-34.4096,0.0],[19.3868,-34.4146,0.0],[19.381,-34.4143,0.0],[19.3788,-34.4176,0.0],[19.3732,-34.4162,0.0],[19.3676,-34.4168,0.0],[19.3665,-34.4182,0.0],[19.361,-34.4171,0.0],[19.3596,-34.4207,0.0],[19.361,-34.4218,1.9921],[19.3546,-34.424,0.0],[19.3507,-34.4285,4.0017],[19.3426,-34.424,0.0],[19.3329,-34.4251,1.4944],[19.3296,-34.4218,0.0],[19.324,-34.4196,3.2448],[19.3229,-34.414,0.0],[19.3182,-34.4143,0.0],[19.3151,-34.4171,0.0],[19.3118,-34.416,0.0],[19.3088,-34.4174,0.0],[19.3082,-34.4232,1.4373],[19.3049,-34.4238,2.1002],[19.3332,-34.4501,1.9449],[19.3326,-34.4526,0.0],[19.336,-34.4543,4.3805],[19.3487,-34.4704,7.6098],[19.3515,-34.4762,0.0],[19.354,-34.4774,4.4585],[19.3618,-34.4932,1.1978],[19.364,-34.4949,4.3931],[19.3651,-34.501,2.0895],[19.3718,-34.5157,3.6361],[19.3713,-34.5193,3.1241],[19.3735,-34.5199,8.1532],[19.3729,-34.5235,2.889],[19.3749,-34.5271,4.7755],[19.3735,-34.5285,0.0],[19.3757,-34.5304,1.5992],[19.3746,-34.5337,0.0],[19.3785,-34.544,0.0],[19.3707,-34.5476,0.0],[19.3624,-34.556,4.3027],[19.3538,-34.5576,0.0],[19.3515,-34.5593,0.0],[19.3515,-34.5618,0.0],[19.349,-34.5612,0.0],[19.3512,-34.564,0.0],[19.3512,-34.5676,0.0],[19.3404,-34.5779,0.0],[19.3446,-34.5857,3.6522],[19.3379,-34.5854,0.0],[19.3374,-34.589,0.0],[19.3324,-34.5946,0.0],[19.331,-34.6021,0.0],[19.3288,-34.6032,0.0],[19.3288,-34.6085,1.3082],[19.324,-34.611,0.0],[19.3118,-34.611,0.0],[19.3037,-34.6138,0.0],[19.301,-34.6165,1.6476],[19.3018,-34.6196,2.4317],[19.2987,-34.6224,0.0],[19.2987,-34.6243,0.0],[19.2949,-34.6232,0.0],[19.2929,-34.626,0.0],[19.2899,-34.626,0.0],[19.2896,-34.6307,0.0],[19.2918,-34.6338,0.0],[19.2954,-34.6335,0.0],[19.2971,-34.6349,0.0],[19.299,-34.6332,0.0],[19.3057,-34.6335,0.0],[19.3099,-34.629,0.2844],[19.3137,-34.6285,0.0],[19.3149,-34.6249,9.7931],[19.3176,-34.6229,8.5601],[19.3221,-34.6265,0.0],[19.3326,-34.6246,0.0],[19.3382,-34.6274,0.0],[19.3476,-34.6265,0.0],[19.3529,-34.624,0.0],[19.3551,-34.6185,0.0],[19.359,-34.6201,0.0],[19.3568,-34.616,0.8201],[19.3671,-34.6171,0.0],[19.371,-34.614,0.0],[19.3732,-34.6165,0.0],[19.3765,-34.6171,0.0],[19.381,-34.614,0.3467],[19.3829,-34.6151,0.0],[19.3824,-34.6168,0.0],[19.3857,-34.6171,0.0],[19.3893,-34.6157,0.0],[19.3885,-34.6137,0.0],[19.3904,-34.6124,0.0],[19.3946,-34.614,0.0],[19.3951,-34.6121,0.0],[19.3926,-34.6113,0.0],[19.3937,-34.6093,3.0558],[19.4093,-34.6049,0.1314],[19.4118,-34.6054,0.5682],[19.4179,-34.601,1.6986],[19.4238,-34.6007,0.0],[19.4282,-34.5985,0.0336],[19.4257,-34.6001,0.0],[19.4285,-34.601,0.116],[19.4243,-34.6012,0.0],[19.4199,-34.6043,0.1074],[19.4154,-34.6037,0.6183],[19.4112,-34.6063,0.5467],[19.4218,-34.6126,0.6309]]]]}}