{"type":"Feature","properties":{"GID_3":"ZAF.6.2.1_1","GID_0":"ZAF","country":"SouthAfrica","GID_1":"ZAF.6_1","province":"Mpumalanga","NL_NAME_1":"NA","GID_2":"ZAF.6.2_1","county":"GertSibande","NL_NAME_2":"NA","city":"AlbertLuthuli","VARNAME_3":"NA","NL_NAME_3":"NA","TYPE_3":"LocalMunicipality","ENGTYPE_3":"LocalMunicipality","CC_3":"MP301","HASC_3":"NA","name":"Albert_Luthuli.city"},
"geometry":{"type": "MultiPolygon","coordinates": [[[[30.7617,-26.4003,1477.7385],[30.7682,-26.413,1568.1666],[30.719,-26.4144,1562.5806],[30.7033,-26.4433,1548.6255],[30.6987,-26.4446,1560.873],[30.7144,-26.4854,1475.5796],[30.8003,-26.5041,1501.9446],[30.8051,-26.4667,1528.0162],[30.831,-26.4112,1511.4534],[30.8576,-26.3838,1370.7834],[30.8919,-26.3208,1616.8959],[30.9614,-26.2617,1612.0822],[31.071,-26.0673,1520.1746],[31.0896,-26.0262,1304.5626],[31.1127,-25.9826,1489.2003],[31.1266,-25.9212,1831.856],[31.0557,-25.9239,1508.1665],[31.0439,-25.9126,1665.3081],[31.0426,-25.8841,1827.3658],[31.0395,-25.8663,1842.5977],[30.9681,-25.9348,1567.7089],[30.9243,-25.9312,1730.6943],[30.8803,-25.9251,1763.3558],[30.8499,-25.9263,1732.9044],[30.8126,-25.9154,1566.4417],[30.821,-25.9093,1578.2726],[30.823,-25.8765,1473.2545],[30.8143,-25.8685,1458.9668],[30.7968,-25.8633,1470.3274],[30.7736,-25.8619,1599.3787],[30.7668,-25.8553,1617.7322],[30.7707,-25.85,1568.3896],[30.7611,-25.8313,1638.2833],[30.7522,-25.8226,1637.8723],[30.7495,-25.8039,1629.0823],[30.7519,-25.8015,1660.9033],[30.7523,-25.7983,1605.4087],[30.7394,-25.7886,1604.9219],[30.7301,-25.7725,1652.6277],[30.7251,-25.7592,1680.6595],[30.7327,-25.7414,1840.2207],[30.6466,-25.7124,1601.09],[30.6387,-25.7118,1654.2645],[30.6385,-25.724,1633.2115],[30.6185,-25.7238,1796.248],[30.6112,-25.719,1836.0378],[30.5796,-25.7535,1794.3004],[30.6061,-25.7897,1579.0928],[30.5586,-25.7683,1722.1193],[30.5193,-25.7285,1908.3265],[30.5087,-25.7369,1861.4061],[30.4864,-25.7622,1811.8783],[30.5149,-25.7879,1601.7771],[30.484,-25.8186,1510.5793],[30.4788,-25.7938,1508.3628],[30.4568,-25.8036,1257.7854],[30.4591,-25.8095,1243.7417],[30.4641,-25.8139,1245.405],[30.4489,-25.8306,1193.7944],[30.4554,-25.8383,1191.7435],[30.4306,-25.8555,1750.1611],[30.4191,-25.8776,1573.332],[30.3811,-25.8869,1825.0986],[30.3311,-25.8805,1781.5488],[30.299,-25.9264,1762.2285],[30.2789,-25.9072,1470.6595],[30.254,-25.8933,1701.6787],[30.2434,-25.8721,1603.8053],[30.2704,-25.8254,1754.0717],[30.2138,-25.804,1648.4408],[30.2008,-25.8364,1569.0424],[30.1517,-25.8193,1579.9883],[30.1497,-25.8297,1576.73],[30.0915,-25.8462,1776.5476],[30.0867,-25.8603,1765.5421],[30.0364,-25.8769,1749.0562],[29.9899,-25.8837,1714.4629],[29.9977,-25.9187,1672.3463],[29.9589,-25.9129,1670.0546],[29.9438,-25.9057,1686.3019],[29.899,-25.8693,1731.5613],[29.8618,-25.8624,1765.073],[29.8482,-25.876,1755.2825],[29.8393,-25.9062,1722.1539],[29.8306,-25.9219,1727.7521],[29.8568,-25.9345,1721.1038],[29.877,-25.9652,1711.6941],[29.8566,-25.979,1702.1741],[29.8569,-26.0032,1679.7509],[29.8658,-26.0139,1655.8203],[29.8305,-26.0735,1668.1737],[29.8274,-26.071,1663.3552],[29.8111,-26.1053,1675.7556],[29.8006,-26.1635,1740.7913],[29.8047,-26.1895,1714.1829],[29.836,-26.2458,1744.9469],[29.8447,-26.2216,1731.5785],[29.8991,-26.2169,1700.6763],[29.9006,-26.221,1693.0181],[29.9411,-26.2166,1669.2567],[29.9691,-26.2434,1700.1133],[29.9981,-26.2179,1710.0948],[30.0489,-26.1924,1680.5648],[30.0619,-26.2096,1700.506],[30.1523,-26.2149,1744.7899],[30.1563,-26.2581,1759.2263],[30.1772,-26.2497,1775.6631],[30.2082,-26.2015,1734.6147],[30.2095,-26.2201,1736.0391],[30.2286,-26.218,1731.7728],[30.3218,-26.1837,1747.0347],[30.3435,-26.2214,1702.5935],[30.36,-26.2062,1690.094],[30.35,-26.1879,1697.917],[30.358,-26.1707,1753.4733],[30.3908,-26.1783,1798.4056],[30.4939,-26.233,1785.0728],[30.5541,-26.2178,1733.795],[30.5543,-26.2188,1736.7936],[30.5651,-26.2154,1734.5691],[30.574,-26.215,1723.0603],[30.5755,-26.2142,1718.0402],[30.5744,-26.2127,1697.0657],[30.5928,-26.208,1769.7924],[30.6242,-26.2588,1531.6837],[30.6267,-26.2661,1475.0264],[30.6242,-26.2638,1474.5662],[30.621,-26.2646,1477.1926],[30.6107,-26.3169,1639.5361],[30.6886,-26.3061,1667.6721],[30.7277,-26.3122,1604.1484],[30.7555,-26.3328,1574.6562],[30.7328,-26.3664,1605.7461],[30.7487,-26.3745,1560.6736],[30.7617,-26.4003,1477.7385]]]]}}