{"type":"Feature","properties":{"GID_3":"ZAF.1.6.3_1","GID_0":"ZAF","country":"SouthAfrica","GID_1":"ZAF.1_1","province":"EasternCape","NL_NAME_1":"NA","GID_2":"ZAF.1.6_1","county":"JoeGqabi","NL_NAME_2":"NA","city":"Maletswai","VARNAME_3":"NA","NL_NAME_3":"NA","TYPE_3":"LocalMunicipality","ENGTYPE_3":"LocalMunicipality","CC_3":"EC143","HASC_3":"NA","name":"Maletswai.city"},
"geometry":{"type": "MultiPolygon","coordinates": [[[[27.0113,-31.3562,1701.2814],[27.0171,-31.361,1713.9127],[27.0475,-31.3445,1670.9277],[27.0676,-31.3614,1921.0433],[27.0635,-31.3726,1761.7506],[27.0673,-31.3739,1767.002],[27.0866,-31.3975,1756.8044],[27.0996,-31.3939,1682.1552],[27.1168,-31.421,1703.2513],[27.1308,-31.4266,1707.1213],[27.1752,-31.3678,1676.6631],[27.276,-31.3398,2007.8324],[27.2968,-31.34,1851.9801],[27.2966,-31.2916,2014.1864],[27.2726,-31.2644,1639.973],[27.2556,-31.2665,1722.2412],[27.2422,-31.2599,2033.6589],[27.1953,-31.2834,1630.0],[27.1651,-31.2598,1820.7489],[27.1646,-31.2422,1618.5747],[27.1674,-31.218,1782.522],[27.1735,-31.2166,1701.3145],[27.1649,-31.1827,1616.274],[27.1705,-31.1763,1598.281],[27.1676,-31.1686,1553.4841],[27.1695,-31.1669,1559.5693],[27.1688,-31.1602,1597.5605],[27.1745,-31.1499,1621.9834],[27.1843,-31.1542,1795.6182],[27.2178,-31.146,1916.2458],[27.2016,-31.0994,1650.0204],[27.1895,-31.1032,1621.8674],[27.1725,-31.0826,1806.3768],[27.1642,-31.0878,1788.6971],[27.1298,-31.0621,1764.3547],[27.1587,-31.052,1923.8004],[27.1412,-31.0019,1761.179],[27.1469,-30.9946,1704.0056],[27.1538,-30.9898,1711.839],[27.1683,-30.9851,1686.9292],[27.1735,-30.9753,1663.8505],[27.1748,-30.9509,1384.4075],[27.1711,-30.9478,1410.1074],[27.1689,-30.9564,1380.5231],[27.1646,-30.9589,1377.6316],[27.1617,-30.9566,1373.406],[27.161,-30.9483,1377.1133],[27.1582,-30.9477,1372.1293],[27.1518,-30.9519,1372.2095],[27.1484,-30.951,1373.8054],[27.1469,-30.9477,1364.3907],[27.1477,-30.9382,1363.3376],[27.1395,-30.9284,1376.645],[27.1432,-30.9236,1364.3816],[27.1489,-30.921,1391.5912],[27.1504,-30.9176,1360.2994],[27.1311,-30.9052,1355.5413],[27.1489,-30.8521,1780.4705],[27.1708,-30.8344,1588.9712],[27.1798,-30.8026,1912.9025],[27.1187,-30.7832,1457.438],[27.14,-30.7491,1577.474],[27.1376,-30.7359,1532.4395],[27.1157,-30.7308,1477.6406],[27.1164,-30.7086,1635.3555],[27.1096,-30.702,1559.5693],[27.1079,-30.6928,1578.0371],[27.1047,-30.6879,1530.814],[27.1295,-30.6658,1512.9546],[27.1273,-30.6607,1475.4413],[27.1104,-30.6624,1466.1152],[27.1112,-30.6598,1460.5015],[27.1085,-30.6565,1456.7992],[27.1134,-30.6517,1457.5774],[27.115,-30.6454,1446.0359],[27.1076,-30.6318,1436.4519],[27.0968,-30.6332,1432.1699],[27.0963,-30.6305,1430.8756],[27.0918,-30.6298,1427.9561],[27.089,-30.6328,1426.9939],[27.0852,-30.631,1427.2124],[27.0799,-30.6315,1420.951],[27.0728,-30.625,1419.8873],[27.0727,-30.6224,1425.8341],[27.0679,-30.6225,1420.4556],[27.0694,-30.6179,1437.9034],[27.0598,-30.6145,1444.8267],[27.0536,-30.6211,1402.2517],[27.051,-30.6217,1402.4641],[27.0476,-30.6199,1394.1157],[27.0441,-30.6136,1419.0591],[27.0393,-30.6094,1389.9797],[27.0356,-30.6087,1374.2158],[27.0425,-30.6044,1340.2954],[27.0404,-30.6008,1351.5887],[27.0355,-30.6019,1347.0107],[27.0343,-30.5999,1328.1915],[27.0279,-30.6046,1387.0732],[27.0138,-30.6064,1348.3195],[27.0103,-30.6041,1313.594],[27.0052,-30.5955,1313.3096],[26.9982,-30.5948,1322.0354],[26.9818,-30.5973,1326.2432],[26.9498,-30.6068,1318.8608],[26.9389,-30.6181,1311.6624],[26.9314,-30.6204,1307.5367],[26.9293,-30.6241,1318.7273],[26.9301,-30.6276,1310.4047],[26.95,-30.655,1310.2897],[26.9493,-30.6581,1339.5432],[26.9466,-30.6602,1308.0027],[26.9358,-30.6648,1314.2825],[26.9286,-30.666,1309.4615],[26.9181,-30.6651,1303.8582],[26.9023,-30.6689,1302.3389],[26.8962,-30.6671,1302.678],[26.8871,-30.6598,1302.8279],[26.88,-30.6593,1304.8839],[26.8767,-30.6615,1315.7134],[26.8757,-30.6667,1300.0],[26.8772,-30.6752,1309.7573],[26.8735,-30.6808,1299.5],[26.8636,-30.6841,1300.4574],[26.8477,-30.6839,1300.8595],[26.8436,-30.6818,1299.5442],[26.8388,-30.6694,1301.2291],[26.8283,-30.6596,1298.4178],[26.8202,-30.6489,1297.6274],[26.8134,-30.6421,1299.2549],[26.8047,-30.6394,1300.5602],[26.7751,-30.649,1296.0474],[26.7687,-30.6555,1295.4838],[26.762,-30.658,1301.5779],[26.7519,-30.6661,1296.7202],[26.7366,-30.6646,1297.5293],[26.7257,-30.6664,1296.0437],[26.7091,-30.684,1290.5],[26.7031,-30.6869,1294.7739],[26.6932,-30.6879,1293.6521],[26.6857,-30.686,1289.5],[26.6807,-30.6784,1289.0],[26.6773,-30.6682,1288.5],[26.6753,-30.6675,1297.4681],[26.6698,-30.6706,1288.0],[26.6598,-30.6861,1287.5],[26.6507,-30.6915,1292.719],[26.6331,-30.6941,1286.0],[26.6267,-30.6929,1289.3325],[26.6251,-30.69,1288.9866],[26.6248,-30.6836,1285.5],[26.6265,-30.6794,1286.5648],[26.6365,-30.6732,1290.1406],[26.629,-30.6617,1286.3103],[26.6077,-30.664,1283.6316],[26.5909,-30.6626,1287.5002],[26.5787,-30.6664,1285.3208],[26.5689,-30.6661,1287.2605],[26.5512,-30.6618,1285.2954],[26.5217,-30.6402,1279.5],[26.5105,-30.636,1279.0],[26.5042,-30.6318,1282.6294],[26.4905,-30.6298,1282.3782],[26.4852,-30.6304,1278.5],[26.487,-30.6337,1283.8416],[26.4861,-30.6352,1283.006],[26.4738,-30.6348,1284.0481],[26.4648,-30.6512,1285.0471],[26.4732,-30.6602,1289.4487],[26.4738,-30.6676,1287.8358],[26.4578,-30.6691,1288.8446],[26.4499,-30.6743,1290.4666],[26.4494,-30.6761,1288.6639],[26.4419,-30.677,1291.2418],[26.4387,-30.6788,1293.9601],[26.4357,-30.6833,1302.129],[26.4352,-30.6896,1299.8318],[26.4393,-30.6938,1307.8181],[26.4415,-30.6991,1296.9572],[26.4511,-30.7023,1297.5371],[26.4529,-30.7051,1301.066],[26.4516,-30.707,1321.0985],[26.448,-30.7078,1306.1702],[26.4338,-30.7053,1304.9033],[26.4308,-30.7068,1307.2302],[26.4308,-30.7083,1303.0579],[26.4328,-30.7099,1305.2555],[26.4405,-30.7109,1306.2803],[26.4425,-30.7176,1307.1776],[26.4521,-30.7274,1308.2662],[26.4395,-30.748,1314.7759],[26.4328,-30.7497,1313.4462],[26.4316,-30.7565,1311.5159],[26.4329,-30.7611,1314.8478],[26.4213,-30.7767,1316.6909],[26.4615,-30.7838,1340.8284],[26.4685,-30.8021,1349.6614],[26.5025,-30.7993,1420.3379],[26.5658,-30.7971,1886.833],[26.5888,-30.8157,1725.0227],[26.5581,-30.8268,1482.1078],[26.5627,-30.832,1511.9249],[26.5655,-30.8769,1466.286],[26.5973,-30.8847,1607.1711],[26.604,-30.9173,1475.873],[26.6088,-30.9126,1494.4917],[26.6136,-30.9182,1478.4387],[26.6049,-30.9229,1464.0303],[26.6064,-30.9387,1463.6831],[26.6189,-30.9454,1475.104],[26.6465,-30.9331,1692.684],[26.6567,-30.9389,1638.4839],[26.655,-30.9529,1994.7042],[26.6369,-30.9784,1617.0808],[26.6446,-30.9928,1662.9491],[26.6522,-30.9983,1876.6995],[26.6631,-31.0196,1791.3798],[26.708,-31.028,1732.8223],[26.715699999999998,-31.046,1812.8046],[26.6861,-31.0634,1955.692],[26.685,-31.0764,1997.0106],[26.6883,-31.0903,1906.353],[26.7187,-31.0888,1874.6583],[26.7402,-31.0793,1844.3289],[26.7642,-31.0823,1842.261],[26.775,-31.1032,1837.7703],[26.7666,-31.117,1902.8337],[26.7397,-31.1143,1832.7302],[26.7334,-31.1704,1935.4263],[26.6892,-31.1917,1982.9863],[26.6894,-31.1971,1953.8047],[26.7039,-31.2122,1847.7595],[26.709,-31.2519,1872.0848],[26.7087,-31.2771,1758.5188],[26.6982,-31.2919,1776.24],[26.6667,-31.3214,1745.8591],[26.6664,-31.3398,1803.8456],[26.6714,-31.3534,1762.8657],[26.6637,-31.3726,1959.4032],[26.6127,-31.372,1766.6466],[26.6296,-31.4056,2039.4148],[26.6333,-31.4552,1834.499],[26.6798,-31.4386,1909.7767],[26.6991,-31.4517,1998.9982],[26.7302,-31.4463,1906.6758],[26.7432,-31.4173,1982.2925],[26.7807,-31.4245,2017.8978],[26.8052,-31.4331,2006.6368],[26.8469,-31.4359,1994.7673],[26.8558,-31.4121,1979.8574],[26.8845,-31.3981,2037.4534],[26.8823,-31.378,2027.255],[26.9346,-31.344,1818.8865],[26.9613,-31.3611,1740.6572],[26.9778,-31.3408,1597.1586],[27.0113,-31.3562,1701.2814]]]]}}