{"type":"Feature","properties":{"GID_3":"ZAF.5.1.2_1","GID_0":"ZAF","country":"SouthAfrica","GID_1":"ZAF.5_1","province":"Limpopo","NL_NAME_1":"NA","GID_2":"ZAF.5.1_1","county":"Capricorn","NL_NAME_2":"NA","city":"Blouberg","VARNAME_3":"NA","NL_NAME_3":"NA","TYPE_3":"LocalMunicipality","ENGTYPE_3":"LocalMunicipality","CC_3":"LIM351","HASC_3":"NA","name":"Blouberg.city"},
"geometry":{"type": "MultiPolygon","coordinates": [[[[28.9916,-23.4166,1038.3538],[28.9956,-23.4174,1038.1113],[29.0107,-23.3706,1045.0717],[29.0263,-23.3766,1048.3398],[29.0565,-23.3314,999.4264],[29.0821,-23.3,983.3073],[29.1222,-23.3069,982.7772],[29.1572,-23.3188,1010.9447],[29.1631,-23.2769,985.7973],[29.2009,-23.2906,1024.9569],[29.2203,-23.259,1002.8408],[29.2355,-23.2631,1014.2749],[29.2408,-23.2526,998.4182],[29.2344,-23.2508,1001.8693],[29.2372,-23.2453,991.494],[29.2511,-23.2487,1002.496],[29.2552,-23.2345,996.4398],[29.2678,-23.2386,1013.4893],[29.2932,-23.204,978.5289],[29.2629,-23.1979,959.6777],[29.2729,-23.1698,942.511],[29.2664,-23.1694,938.066],[29.2517,-23.1071,905.7183],[29.2824,-23.1148,918.6333],[29.2727,-23.0881,906.6927],[29.3102,-23.0738,895.17],[29.3067,-23.0543,890.5024],[29.2981,-23.0369,886.4469],[29.2845,-23.0023,845.7114],[29.2938,-22.9731,817.9908],[29.2575,-22.9925,827.2266],[29.2554,-22.9624,809.3246],[29.2463,-22.9384,804.3715],[29.2189,-22.9551,809.3435],[29.1833,-22.9735,822.5523],[29.1741,-22.946,822.6208],[29.167,-22.9178,821.7565],[29.1752,-22.8991,819.1108],[29.1934,-22.8696,801.0516],[29.2091,-22.8385,801.8754],[29.2126,-22.8237,788.3812],[29.2229,-22.8074,776.1377],[29.2449,-22.7353,810.496],[29.2047,-22.7126,838.8604],[29.2402,-22.6858,817.1893],[29.2094,-22.6628,837.3427],[29.1999,-22.6225,795.3517],[29.1756,-22.5768,782.9109],[29.1659,-22.5531,784.1652],[29.1073,-22.5392,786.4272],[29.0617,-22.5484,774.1943],[29.0388,-22.5573,773.7874],[29.0139,-22.5706,758.6202],[28.9791,-22.5811,876.4666],[28.9611,-22.561,749.0272],[28.9329,-22.5211,693.916],[28.902,-22.512,642.932],[28.9058,-22.5083,640.8016],[28.9048,-22.4976,640.9585],[28.906,-22.4922,639.8528],[28.9174,-22.4905,637.6303],[28.9196,-22.468,631.1257],[28.9232,-22.4606,626.3404],[28.9233,-22.457,623.4471],[28.9168,-22.4614,626.6652],[28.9118,-22.4614,623.9514],[28.8988,-22.4528,624.3602],[28.8867,-22.4505,629.4376],[28.8809,-22.4478,626.4132],[28.8689,-22.4477,631.1488],[28.855,-22.4516,631.9163],[28.8306,-22.4634,636.6251],[28.8288,-22.4701,639.2851],[28.8338,-22.4809,638.4913],[28.8311,-22.4883,640.4287],[28.7901,-22.4964,648.9669],[28.7762,-22.5007,642.8049],[28.7381,-22.5043,647.3514],[28.7223,-22.5119,646.3727],[28.7077,-22.516,647.7985],[28.7012,-22.5206,648.4559],[28.7005,-22.5264,655.7288],[28.6878,-22.5335,652.9443],[28.6781,-22.5319,652.0377],[28.6698,-22.5347,658.3367],[28.6642,-22.5391,654.8553],[28.658,-22.5483,655.4637],[28.6413,-22.558,659.8198],[28.6174,-22.5625,665.8928],[28.5755,-22.5598,668.0177],[28.5641,-22.561,673.8962],[28.5419,-22.5786,695.7985],[28.5328,-22.5816,698.3379],[28.5235,-22.5874,701.1437],[28.5089,-22.5891,701.8873],[28.4966,-22.5785,704.1462],[28.4791,-22.5709,708.2614],[28.4578,-22.5726,711.8189],[28.45,-22.5694,713.1362],[28.4429,-22.569,712.5376],[28.4231,-22.5731,714.6932],[28.4061,-22.5696,724.0781],[28.3928,-22.5704,719.3248],[28.3833,-22.5693,722.8948],[28.3665,-22.573,720.9966],[28.3461,-22.572,724.6924],[28.3408,-22.5756,729.1752],[28.3327,-22.591,723.1489],[28.3113,-22.6063,726.7164],[28.3057,-22.6092,729.249],[28.2988,-22.6087,728.0289],[28.2912,-22.6123,730.3918],[28.2777,-22.6155,727.1558],[28.2739,-22.6213,731.2367],[28.271,-22.6325,735.0637],[28.2672,-22.6388,736.3146],[28.2571,-22.6439,738.2097],[28.2463,-22.6566,740.3416],[28.2366,-22.657,736.6298],[28.2261,-22.6604,737.5107],[28.2192,-22.6646,742.6437],[28.2097,-22.6645,744.3079],[28.1979,-22.6777,747.0455],[28.1826,-22.6886,752.0312],[28.1783,-22.6955,753.2142],[28.164,-22.7116,753.99],[28.1583,-22.7222,752.3333],[28.1637,-22.7403,751.4597],[28.1642,-22.748,751.9728],[28.1624,-22.7559,759.1444],[28.1564,-22.7609,759.5089],[28.151,-22.7696,757.8011],[28.1451,-22.7748,755.6107],[28.1214,-22.7845,760.5729],[28.1101,-22.8005,758.2593],[28.0969,-22.8111,759.782],[28.1352,-22.8324,781.689],[28.1135,-22.845,785.1386],[28.1534,-22.8692,803.573],[28.1313,-22.8788,805.6862],[28.1692,-22.9059,829.8595],[28.1476,-22.916,830.9271],[28.1827,-22.9492,847.8586],[28.2001,-22.9314,843.8506],[28.2346,-22.967,867.0445],[28.2452,-22.998,900.4785],[28.2211,-23.0014,895.068],[28.2243,-23.0493,902.4067],[28.2518,-23.1087,937.5494],[28.2576,-23.1042,932.369],[28.2912,-23.091,950.9404],[28.3371,-23.1228,981.9988],[28.3533,-23.1842,951.9682],[28.3201,-23.204,949.1305],[28.3315,-23.2329,947.1779],[28.3555,-23.2834,984.3539],[28.351,-23.304,1018.9709],[28.377,-23.2999,1082.3442],[28.387,-23.3163,1077.2084],[28.4133,-23.3517,1028.9916],[28.4511,-23.3253,992.2599],[28.474,-23.3122,996.0139],[28.4975,-23.3449,988.9816],[28.5396,-23.351,932.9211],[28.5658,-23.3769,934.2854],[28.593,-23.3785,966.8361],[28.5959,-23.4047,896.8735],[28.6403,-23.394,880.6947],[28.6597,-23.3857,838.0095],[28.6576,-23.3792,837.5714],[28.6581,-23.3734,837.505],[28.6698,-23.3643,834.5449],[28.6772,-23.3612,833.8569],[28.6778,-23.3584,836.7665],[28.6755,-23.353,831.4219],[28.6822,-23.3456,832.1949],[28.6851,-23.3361,829.6146],[28.7358,-23.3309,981.7885],[28.7605,-23.364,952.9459],[28.7772,-23.3793,940.2253],[28.7956,-23.4161,941.4141],[28.8274,-23.4538,981.3135],[28.8655,-23.4864,976.5878],[28.8961,-23.5216,993.8143],[28.9102,-23.5446,1002.5524],[28.92,-23.4946,1030.8005],[28.9571,-23.4916,1052.6465],[28.9486,-23.4523,1029.8112],[28.9607,-23.4107,1032.1664],[28.9916,-23.4166,1038.3538]]]]}}