{"type": "Feature","bbox": [21.7216,-30.2381,23.3499,-28.9461],"geometry": {"type": "MultiPolygon","coordinates": [[[[23.2285,-29.9091,1003.8976],[23.2396,-29.9018,1019.6284],[23.29,-29.9005,1024.7065],[23.3453,-29.8964,1075.0554],[23.3249,-29.8434,1047.4722],[23.3399,-29.8188,1032.0022],[23.2938,-29.809,1023.4501],[23.2829,-29.7907,1022.5275],[23.3419,-29.731,1060.7131],[23.2908,-29.7008,1036.9514],[23.2999,-29.6513,1045.8927],[23.2558,-29.6253,1068.5022],[23.2331,-29.6387,1038.4427],[23.2315,-29.6042,1046.5686],[23.2322,-29.5714,1061.0382],[23.2131,-29.4373,1059.8286],[23.2725,-29.3989,1046.8416],[23.2712,-29.3783,1026.3928],[23.2453,-29.3962,1034.085],[23.1936,-29.3362,952.3403],[23.2007,-29.314,945.8783],[23.2052,-29.307,945.1104],[23.2201,-29.3,943.0],[23.2341,-29.296,943.0],[23.2711,-29.2756,945.8393],[23.2821,-29.2736,950.5988],[23.3041,-29.2731,949.9424],[23.3331,-29.2746,949.9351],[23.343,-29.2681,945.5],[23.348,-29.2561,946.0],[23.3465,-29.2331,952.4274],[23.3499,-29.2186,952.2712],[23.3322,-29.209,1015.0151],[23.3207,-29.1511,1089.6058],[23.2234,-29.1299,1106.0583],[23.1649,-29.1404,1132.385],[23.1359,-29.1851,1113.702],[23.1113,-29.2182,1195.8862],[23.0722,-29.1807,1339.46],[23.0259,-29.1681,1214.2152],[22.9864,-29.176,1338.4319],[22.9068,-29.158,1203.0662],[22.9076,-29.1294,1189.7219],[22.831,-29.1299,1241.8962],[22.8375,-29.1673,1300.1312],[22.8381,-29.2048,1185.4344],[22.8527,-29.2736,1271.1501],[22.8063,-29.2706,1202.8721],[22.7265,-29.2827,1292.1772],[22.7003,-29.2732,1347.366],[22.68,-29.2585,1152.8575],[22.6783,-29.1995,1276.2502],[22.6513,-29.1964,1352.8583],[22.6373,-29.1589,1188.1158],[22.6355,-29.1382,1264.1852],[22.5971,-29.1364,1150.5051],[22.511,-29.1404,1085.1982],[22.4912,-29.1366,1106.7957],[22.4428,-29.1344,1046.3969],[22.4156,-29.1908,1065.105],[22.3934,-29.2023,1077.1857],[22.3555,-29.2319,993.7566],[22.3509,-29.2632,986.2095],[22.3384,-29.3148,895.1058],[22.3318,-29.3178,893.0771],[22.3162,-29.329,893.0644],[22.3015,-29.3318,889.0],[22.2898,-29.3361,889.062],[22.2817,-29.3328,889.8507],[22.2699,-29.3197,899.5948],[22.2683,-29.315,889.1573],[22.2701,-29.3053,889.5922],[22.2707,-29.2779,888.6059],[22.2691,-29.2633,888.4161],[22.27,-29.2583,887.0],[22.276,-29.2474,890.3251],[22.278199999999998,-29.2331,887.0],[22.2759,-29.223,888.197],[22.256,-29.1909,890.5673],[22.253,-29.1809,886.9878],[22.2518,-29.1586,886.0],[22.2605,-29.1505,886.0],[22.2632,-29.1437,888.3268],[22.2595,-29.1268,889.1056],[22.2563,-29.1243,887.3144],[22.2442,-29.1234,885.0],[22.2337,-29.1182,886.5298],[22.2276,-29.113,890.0531],[22.2179,-29.0988,887.8514],[22.2047,-29.1091,910.7401],[22.1812,-29.0624,1110.8577],[22.117,-29.0121,1138.8669],[22.0863,-28.9506,904.3707],[21.991,-28.9461,895.7418],[21.9586,-29.0157,1219.6947],[21.8945,-29.0594,1221.2933],[21.840699999999998,-29.0998,1157.5193],[21.899,-29.1649,1108.1067],[21.9793,-29.2778,1188.4093],[21.911,-29.3538,1076.3772],[21.8457,-29.3959,1080.4647],[21.8998,-29.4491,1069.3584],[21.7849,-29.5566,1052.4442],[21.83,-29.6232,1079.3396],[21.7789,-29.666,1053.6532],[21.7216,-29.7748,1011.9358],[21.8114,-29.842,993.6964],[21.9266,-29.8796,1018.5604],[22.0103,-29.9024,1053.0336],[21.9944,-29.9538,1025.4653],[22.0346,-30.0576,1041.2814],[22.109,-30.1014,1015.1392],[22.1355,-30.1131,1024.9438],[22.209,-30.1249,1029.853],[22.1819,-30.1757,988.1763],[22.2044,-30.2177,1050.5496],[22.2559,-30.1738,1040.2581],[22.2896,-30.1726,1001.4914],[22.2996,-30.1964,1066.5635],[22.4663,-30.1904,1108.0698],[22.5235,-30.1584,1129.6289],[22.6081,-30.1993,1149.0764],[22.6739,-30.1886,1113.1792],[22.6478,-30.1302,1126.8931],[22.7483,-30.0793,1164.983],[22.8108,-30.0839,1120.0231],[22.8648,-30.1122,1087.7375],[22.867,-30.1703,1093.2531],[22.9376,-30.1236,1063.1464],[22.9988,-30.1139,1086.3484],[22.9838,-30.1255,1085.9385],[22.9949,-30.1361,1081.2303],[22.9863,-30.1436,1092.7141],[22.9555,-30.1546,1085.3445],[22.9549,-30.2222,1068.7456],[22.982,-30.2381,1097.3041],[23.1132,-30.1565,1032.6987],[23.1141,-30.1321,1036.6097],[23.1592,-30.1011,1052.3315],[23.182,-30.095,1008.7133],[23.1807,-30.0908,1008.2247],[23.1893,-30.0772,1006.3241],[23.1899,-30.0665,1005.8199],[23.1947,-30.0541,1003.1385],[23.2018,-30.0468,1006.0818],[23.2069,-30.0379,1002.3474],[23.2061,-30.0333,1002.9048],[23.2031,-30.0291,1002.2913],[23.2038,-30.0227,1000.4958],[23.2002,-30.0193,998.9592],[23.2044,-30.0065,1000.053],[23.2022,-29.9988,1000.5763],[23.1933,-29.9976,997.5079],[23.1893,-29.9917,996.4001],[23.191,-29.9886,993.6881],[23.1831,-29.9786,995.4045],[23.1818,-29.9698,991.8342],[23.1889,-29.9544,988.4568],[23.1883,-29.9512,990.6235],[23.1852,-29.9481,987.7323],[23.186,-29.9431,990.1147],[23.1836,-29.9382,990.6937],[23.2285,-29.9091,1003.8976]]]]}
,"properties": {"GID_3": "ZAF.8.4.5_1","GID_0": "ZAF","country": "SouthAfrica","GID_1": "ZAF.8_1","province": "NorthernCape","NL_NAME_1": "NA","GID_2": "ZAF.8.4_1","county": "PixleykaSeme","NL_NAME_2": "NA","city": "Siyathemba","VARNAME_3": "NA","NL_NAME_3": "NA","TYPE_3": "LocalMunicipality","ENGTYPE_3": "LocalMunicipality","CC_3": "NC077","HASC_3": "NA","name": "Siyathemba.city","area_km2": 14742.19,"hist_schema_id": "Elevation0-9000","hist_area_km2": {"875": 3.74,"900": 142.39,"925": 479.03,"950": 792.24,"975": 1093.23,"1000": 1751.26,"1025": 1998.82,"1050": 1846.65,"1075": 2072.68,"1100": 1744.59,"1125": 1035.04,"1150": 648.1,"1175": 344.72,"1200": 273.37,"1225": 192.12,"1250": 140.93,"1275": 94.78,"1300": 52.8,"1325": 29.15,"1350": 5.25,"1375": 1.02,"1400": 0.31}}}