{"type": "Feature","bbox": [17.1796,-31.1765,19.0913,-29.8317],"geometry": {"type": "MultiPolygon","coordinates": [[[[18.0512,-30.0459,976.5919],[18.0107,-30.0582,746.7495],[18.0,-30.0659,793.3735],[17.9734,-30.0538,1197.9001],[17.9591,-30.0287,856.8696],[17.8878,-30.0387,652.0458],[17.8793,-30.095,801.9005],[17.871,-30.0705,852.9962],[17.8636,-30.0667,770.7351],[17.7791,-30.0543,806.6831],[17.7325,-30.0207,680.7456],[17.7034,-30.0149,649.5897],[17.6039,-30.0125,369.4781],[17.5616,-30.0471,180.7874],[17.5192,-29.9499,387.8873],[17.4391,-30.0331,200.3321],[17.3961,-30.0189,211.2224],[17.3122,-30.0928,150.2797],[17.2856,-30.0632,208.543],[17.2472,-30.0032,159.2433],[17.2128,-30.0276,140.3523],[17.1812,-30.0614,3.3059],[17.1796,-30.0682,3.7382],[17.1821,-30.0751,1.7458],[17.1807,-30.0779,0.1372],[17.1849,-30.0846,0.3393],[17.184,-30.0865,0.0],[17.1857,-30.0871,11.7991],[17.1821,-30.0915,0.0],[17.1829,-30.0946,0.0],[17.186,-30.0968,10.3229],[17.1843,-30.0996,0.0],[17.1849,-30.1024,0.0],[17.1901,-30.1015,0.9643],[17.1893,-30.1049,0.0],[17.1924,-30.106,0.5955],[17.1926,-30.1096,3.0376],[17.1893,-30.1113,0.0601],[17.1893,-30.1132,0.0],[17.1935,-30.1204,1.3958],[17.1921,-30.1246,0.0],[17.196,-30.1293,8.6633],[17.1938,-30.1368,0.0],[17.1951,-30.1376,0.0],[17.1987,-30.1357,0.6979],[17.2029,-30.1451,0.0],[17.211,-30.1551,0.0],[17.2168,-30.1574,1.8133],[17.2218,-30.1624,2.0531],[17.2226,-30.1887,0.6024],[17.2246,-30.1924,0.0],[17.2282,-30.1907,2.3472],[17.2304,-30.1987,0.0],[17.2321,-30.2001,0.7946],[17.2307,-30.2129,8.2067],[17.2326,-30.2143,8.7007],[17.2324,-30.2168,0.0],[17.2363,-30.2182,0.0],[17.2346,-30.226,0.0],[17.2382,-30.2262,2.6501],[17.2401,-30.2321,0.4388],[17.2443,-30.2368,0.1034],[17.2435,-30.2388,0.2435],[17.2454,-30.2426,0.2788],[17.256,-30.2512,0.0],[17.2612,-30.2601,0.0],[17.2612,-30.2632,1.1546],[17.2571,-30.2626,0.0],[17.2565,-30.2665,0.0],[17.2576,-30.2707,0.7268],[17.2593,-30.271,0.7268],[17.259,-30.2732,0.0],[17.2632,-30.2746,0.0],[17.2629,-30.2771,0.0],[17.2654,-30.2801,0.0],[17.2654,-30.2857,0.0],[17.2682,-30.2874,1.8746],[17.2701,-30.2913,3.978],[17.2676,-30.2976,1.7938],[17.2712,-30.2979,5.1553],[17.271,-30.3029,0.0],[17.2724,-30.304,0.7973],[17.2685,-30.3079,-0.02],[17.2696,-30.3126,0.0],[17.274,-30.3132,5.2818],[17.2751,-30.3151,1.8699],[17.2726,-30.3176,0.1376],[17.2712,-30.3171,0.0],[17.2715,-30.321,0.0],[17.2699,-30.3229,0.0835],[17.2746,-30.326,7.867],[17.2726,-30.3285,0.0],[17.2718,-30.3349,0.0],[17.2757,-30.3379,0.6185],[17.2779,-30.3421,3.3076],[17.2779,-30.346,1.6241],[17.2829,-30.3474,6.7524],[17.2862,-30.3521,5.5917],[17.2871,-30.3563,1.2679],[17.2857,-30.3587,0.0],[17.2888,-30.3599,0.0],[17.2893,-30.3621,0.0],[17.2946,-30.3665,4.4889],[17.2951,-30.3696,0.0],[17.2999,-30.3707,0.3316],[17.3079,-30.3776,1.6912],[17.3062,-30.3821,0.0],[17.3079,-30.3868,0.0],[17.3074,-30.3921,0.0],[17.311,-30.3937,4.5398],[17.3188,-30.4051,0.0],[17.3218,-30.406,0.6883],[17.3207,-30.4082,0.0],[17.3271,-30.4165,0.0],[17.3304,-30.426,0.7116],[17.3349,-30.4307,0.0],[17.3349,-30.4335,0.0],[17.3412,-30.4385,0.0],[17.3424,-30.449,0.0],[17.3449,-30.4532,0.0],[17.3504,-30.4529,13.1446],[17.3535,-30.4546,17.9168],[17.3535,-30.456,17.9168],[17.3482,-30.4588,0.195],[17.3485,-30.4621,0.0559],[17.3526,-30.4665,0.0],[17.3563,-30.4665,2.023],[17.3574,-30.4685,0.0],[17.3593,-30.4729,0.0],[17.3557,-30.4754,0.0],[17.359,-30.479,0.5797],[17.3571,-30.4796,0.0],[17.3576,-30.4818,0.0],[17.3604,-30.4821,0.8669],[17.3599,-30.484,0.0],[17.3632,-30.4843,2.7158],[17.3651,-30.4868,0.1251],[17.3618,-30.4899,0.0],[17.3676,-30.4932,0.0],[17.3701,-30.4999,0.0],[17.374,-30.5004,3.2204],[17.3796,-30.5082,0.3433],[17.3876,-30.5151,6.1925],[17.3896,-30.5193,4.4509],[17.3929,-30.521,3.7319],[17.3946,-30.5276,0.0],[17.399,-30.5271,4.2475],[17.4001,-30.531,2.95],[17.3988,-30.5338,0.0],[17.4051,-30.5374,0.0],[17.403199999999998,-30.5418,0.0],[17.4132,-30.5554,0.0],[17.4107,-30.5626,0.1439],[17.4196,-30.5699,0.0],[17.4354,-30.5879,2.5025],[17.439,-30.5899,4.7068],[17.4396,-30.5935,0.0],[17.4429,-30.5976,8.6093],[17.4401,-30.6029,0.0],[17.4399,-30.6099,0.4384],[17.4351,-30.6132,1.1204],[17.4351,-30.6165,4.7892],[17.4332,-30.6174,0.404],[17.4332,-30.619,3.5629],[17.439,-30.6262,1.7755],[17.4426,-30.626,13.1365],[17.446,-30.6285,0.1373],[17.4471,-30.6326,0.1856],[17.4493,-30.6338,13.683],[17.4493,-30.6376,7.2154],[17.4507,-30.6379,20.2622],[17.4501,-30.641,0.6395],[17.4621,-30.6513,0.0],[17.4632,-30.6629,1.4256],[17.4674,-30.6663,2.3267],[17.471,-30.6735,0.0],[17.4699,-30.6829,0.7453],[17.4774,-30.6868,0.0],[17.4849,-30.6976,0.0],[17.4915,-30.6996,0.0],[17.4937,-30.7018,0.0],[17.5012,-30.7099,0.0],[17.5021,-30.7126,0.0],[17.5168,-30.7257,9.1533],[17.519,-30.7313,0.4634],[17.5235,-30.7365,1.0462],[17.5282,-30.7476,0.0],[17.5307,-30.7618,0.0788],[17.5332,-30.766,3.7086],[17.5332,-30.7754,2.2956],[17.5357,-30.7826,0.0],[17.5454,-30.794,16.7747],[17.5532,-30.8065,0.0],[17.5549,-30.811,10.1328],[17.5546,-30.8171,5.8104],[17.5568,-30.8188,5.0935],[17.5574,-30.8226,0.1077],[17.5635,-30.8279,0.0],[17.5657,-30.834,0.0],[17.569,-30.8349,3.1566],[17.569,-30.841,0.0],[17.5729,-30.8457,3.6853],[17.5771,-30.8463,1.4469],[17.5804,-30.8388,19.9207],[17.5779,-30.8474,1.4469],[17.574,-30.8518,0.0],[17.5746,-30.8585,4.4878],[17.5835,-30.8729,5.4164],[17.5849,-30.8782,0.9886],[17.5876,-30.8801,0.0],[17.5868,-30.8826,0.782],[17.5901,-30.8854,2.7827],[17.5912,-30.8896,0.0],[17.5957,-30.8921,3.4215],[17.5946,-30.9013,0.0],[17.5987,-30.901,5.2705],[17.5996,-30.9063,0.1833],[17.6032,-30.9076,12.319],[17.6032,-30.9165,0.0],[17.6099,-30.9174,6.2546],[17.6185,-30.9249,1.3885],[17.624,-30.9312,7.1233],[17.6249,-30.9343,0.0],[17.6299,-30.9363,4.2434],[17.6299,-30.9399,2.018],[17.6313,-30.9401,2.018],[17.6313,-30.9426,0.1638],[17.634,-30.9463,1.3366],[17.6351,-30.9457,4.5216],[17.6368,-30.9493,2.9491],[17.6407,-30.9499,1.1483],[17.6443,-30.9551,2.8844],[17.6465,-30.9557,6.2584],[17.6462,-30.9587,2.7713],[17.6493,-30.9615,0.0642],[17.6515,-30.9615,1.1871],[17.656,-30.9674,0.8448],[17.6554,-30.9693,-0.0135],[17.6576,-30.9704,0.5053],[17.6585,-30.9754,0.0],[17.6621,-30.9774,2.1914],[17.6624,-30.9821,0.0],[17.6663,-30.9829,5.2869],[17.674,-30.994,0.0],[17.6796,-30.9985,9.3101],[17.6765,-30.999,0.0],[17.6818,-31.0024,3.2235],[17.6807,-31.004,0.0],[17.6815,-31.009,0.5851],[17.6868,-31.0151,0.8442],[17.6882,-31.0193,5.33],[17.6854,-31.0221,2.2216],[17.6857,-31.026,1.9073],[17.6918,-31.0299,1.4953],[17.6924,-31.0382,0.0],[17.6982,-31.0443,0.0],[17.6985,-31.0471,0.0],[17.7007,-31.049,0.0],[17.7007,-31.0535,0.0],[17.7051,-31.0557,2.7982],[17.7051,-31.061,0.5642],[17.7029,-31.0632,0.0],[17.7024,-31.0671,0.0],[17.7093,-31.071,0.0],[17.7129,-31.0779,4.4735],[17.7213,-31.0857,4.7392],[17.7221,-31.096,0.0],[17.7285,-31.0985,0.0],[17.7362,-31.1082,0.0],[17.7385,-31.1135,0.0],[17.7371,-31.1146,0.164],[17.7357,-31.1235,0.0],[17.7382,-31.1265,0.0],[17.7451,-31.1276,1.0499],[17.7457,-31.1301,0.2743],[17.7429,-31.1357,1.0061],[17.7465,-31.1371,0.0],[17.7507,-31.146,0.0],[17.7529,-31.146,0.0],[17.7585,-31.1519,0.4403],[17.8344,-31.1765,127.4984],[17.8113,-31.0925,169.5232],[17.8352,-31.0726,167.4146],[17.8786,-31.0405,257.6384],[17.8886,-31.0403,265.8306],[17.8945,-31.0304,341.8424],[17.9264,-31.0114,315.0108],[17.9094,-30.9875,299.5175],[17.8779,-30.9487,227.647],[17.8803,-30.9239,177.7977],[17.914,-30.9247,272.3227],[17.9344,-30.9174,280.1071],[17.9721,-30.9139,289.3591],[17.9934,-30.9187,274.7234],[17.9948,-30.8192,249.267],[18.0065,-30.7912,233.9363],[18.0579,-30.7769,301.2719],[18.0809,-30.7848,279.929],[18.0892,-30.7879,403.0229],[18.1396,-30.828,432.3609],[18.1692,-30.8486,359.5026],[18.1904,-30.8347,335.7129],[18.2058,-30.8313,255.4861],[18.1952,-30.816,302.9574],[18.2135,-30.8104,307.3453],[18.2293,-30.8191,415.3612],[18.2518,-30.8275,438.6539],[18.2642,-30.8183,453.622],[18.3139,-30.7422,373.9448],[18.371,-30.6596,931.6094],[18.3711,-30.5921,863.6906],[18.4138,-30.5273,1034.5768],[18.3806,-30.4596,651.0316],[18.4441,-30.5113,756.8641],[18.5222,-30.6065,887.8821],[18.4836,-30.5219,1065.4471],[18.5021,-30.4444,1093.9052],[18.5701,-30.4303,1041.8691],[18.6551,-30.5567,953.6646],[18.7587,-30.5679,886.8998],[18.7959,-30.6249,936.5203],[18.7945,-30.6676,934.502],[18.863,-30.7171,671.0181],[18.9515,-30.7444,1082.4213],[18.9988,-30.5413,795.0581],[19.006,-30.4968,856.0791],[19.0831,-30.3424,909.9977],[19.0913,-30.3097,909.32],[19.0106,-30.1646,895.3861],[19.0119,-30.0741,914.4],[18.9083,-30.0639,935.4395],[18.8592,-29.9466,939.6606],[18.8639,-29.9452,936.9587],[18.8634,-29.9286,925.1563],[18.8604,-29.9307,927.3289],[18.8671,-29.8458,927.6492],[18.8085,-29.8317,978.9275],[18.7256,-29.8641,964.3347],[18.6055,-29.8604,1002.4476],[18.5619,-29.893,1014.8695],[18.4937,-29.9181,998.9727],[18.3891,-29.9292,993.6875],[18.3671,-29.9348,928.3878],[18.3333,-29.8956,916.4977],[18.2181,-29.9109,820.1152],[18.2078,-29.9991,748.608],[18.1272,-30.0165,686.6609],[18.0512,-30.0459,976.5919]]]]}
,"properties": {"GID_3": "ZAF.8.3.2_1","GID_0": "ZAF","country": "SouthAfrica","GID_1": "ZAF.8_1","province": "NorthernCape","NL_NAME_1": "NA","GID_2": "ZAF.8.3_1","county": "Namakwa","NL_NAME_2": "NA","city": "Kamiesberg","VARNAME_3": "NA","NL_NAME_3": "NA","TYPE_3": "LocalMunicipality","ENGTYPE_3": "LocalMunicipality","CC_3": "NC064","HASC_3": "NA","name": "Kamiesberg.city","area_km2": 14229.86,"hist_schema_id": "Elevation0-9000","hist_area_km2": {"0": 41.02,"25": 224.8,"50": 278.77,"75": 278.75,"100": 375.68,"125": 522.37,"150": 689.82,"175": 693.38,"200": 554.82,"225": 364.91,"250": 292.35,"275": 250.37,"300": 209.22,"325": 190.69,"350": 196.28,"375": 183.26,"400": 164.63,"425": 152.43,"450": 137.5,"475": 133.7,"500": 129.35,"525": 118.91,"550": 109.55,"575": 107.9,"600": 109.95,"625": 110.85,"650": 124.36,"675": 143.55,"700": 155.03,"725": 170.01,"750": 220.45,"775": 242.6,"800": 207.12,"825": 221.83,"850": 224.03,"875": 287.95,"900": 510.87,"925": 861.2,"950": 860.81,"975": 751.1,"1000": 759.96,"1025": 424.29,"1050": 300.97,"1075": 241.77,"1100": 226.65,"1125": 165.68,"1150": 133.2,"1175": 106.04,"1200": 76.89,"1225": 54.45,"1250": 35.45,"1275": 24.98,"1300": 17.11,"1325": 13.03,"1350": 12.61,"1375": 11.64,"1400": 8.34,"1425": 5.16,"1450": 3.15,"1475": 1.87,"1500": 1.63,"1525": 1.32,"1550": 0.73,"1575": 0.4,"1600": 0.26}}}