{"type": "Feature","bbox": [19.102,-33.9999,20.4275,-33.1701],"geometry": {"type": "MultiPolygon","coordinates": [[[[19.5658,-33.8492,330.1031],[19.5676,-33.8493,314.0975],[19.5665,-33.8579,354.7466],[19.5642,-33.8605,393.7838],[19.566,-33.8637,367.9325],[19.5979,-33.8782,434.6471],[19.5945,-33.8542,843.5135],[19.6285,-33.8348,330.2843],[19.6527,-33.8346,819.1961],[19.6522,-33.8136,320.5728],[19.683,-33.7995,170.7241],[19.6757,-33.7916,172.6787],[19.6743,-33.7871,170.7961],[19.6704,-33.782,171.4653],[19.6596,-33.7751,171.9077],[19.6828,-33.7488,373.3321],[19.6898,-33.7524,357.7383],[19.7023,-33.7463,296.4192],[19.6912,-33.7394,313.6581],[19.7021,-33.7184,341.8669],[19.69,-33.7043,374.4205],[19.695,-33.6797,454.7721],[19.706,-33.6756,655.9389],[19.7148,-33.6752,663.423],[19.7176,-33.6602,800.0498],[19.7411,-33.6496,1571.3815],[19.6996,-33.6379,1279.7817],[19.6669,-33.6157,1317.6766],[19.651,-33.6096,1607.8503],[19.6452,-33.6046,1559.6929],[19.6504,-33.5935,1587.1107],[19.6244,-33.5679,1820.7528],[19.6026,-33.5619,2038.7327],[19.6376,-33.5365,1702.9117],[19.6907,-33.5277,1438.0126],[19.7363,-33.5373,1429.9233],[19.7477,-33.5303,1360.2606],[19.7502,-33.5344,1340.9131],[19.7552,-33.5367,1308.6877],[19.775,-33.5333,1428.1296],[19.7985,-33.5379,1171.1526],[19.8388,-33.5659,1077.5098],[19.8652,-33.57,1104.6791],[19.8701,-33.5421,1120.7354],[19.9171,-33.5193,1086.8149],[19.9257,-33.5333,1120.5863],[19.9587,-33.5176,1085.5511],[19.9714,-33.5243,1019.3929],[19.9833,-33.5333,963.9494],[19.993,-33.5569,1039.8217],[20.0207,-33.5525,1022.2835],[20.0484,-33.5502,944.5118],[20.0569,-33.5463,921.9212],[20.062,-33.5419,903.8298],[20.0779,-33.553,906.6712],[20.1056,-33.55,919.2954],[20.1255,-33.5562,843.0836],[20.1516,-33.5404,830.2545],[20.1612,-33.5364,813.6523],[20.1731,-33.5262,808.8682],[20.2149,-33.5413,1132.1321],[20.2415,-33.538,849.8987],[20.2678,-33.5129,847.2977],[20.3157,-33.502,702.5685],[20.3361,-33.4878,688.3732],[20.3861,-33.4592,1118.2964],[20.4198,-33.453,1091.0204],[20.4275,-33.4489,1084.3073],[20.4167,-33.4355,1072.8296],[20.4081,-33.4343,1150.6863],[20.3898,-33.424,1345.678],[20.3356,-33.4256,1225.3418],[20.3489,-33.4049,892.8615],[20.3456,-33.3943,830.6028],[20.3537,-33.3941,849.9796],[20.3663,-33.3816,1160.389],[20.368,-33.3663,1308.6605],[20.2487,-33.3776,993.9721],[20.2092,-33.3798,1374.3438],[20.2395,-33.3099,1115.7236],[20.2035,-33.3027,955.2378],[20.2512,-33.2915,951.6249],[20.2356,-33.2624,984.6449],[20.2471,-33.2458,1219.3015],[20.244,-33.2365,1214.5594],[20.2487,-33.2148,1018.5193],[20.258,-33.1884,871.8318],[20.2183,-33.1739,810.7312],[20.2022,-33.1701,1128.6118],[20.1461,-33.1735,1168.6431],[20.1202,-33.1916,1309.484],[20.087,-33.1933,1333.5037],[20.0138,-33.2388,1206.2191],[19.9976,-33.2591,1161.9441],[19.9891,-33.2872,812.0392],[19.972,-33.3168,1169.6531],[19.9554,-33.3177,1089.5033],[19.9344,-33.348,820.3155],[19.9085,-33.3627,1008.9793],[19.8753,-33.3714,1237.5769],[19.8306,-33.3794,960.7816],[19.8298,-33.381,941.0895],[19.8199,-33.3769,1071.9468],[19.7884,-33.3768,1286.7246],[19.7545,-33.3726,1001.1921],[19.6687,-33.3819,2140.7007],[19.5807,-33.3645,932.0],[19.5671,-33.382,1345.6301],[19.5497,-33.3953,1396.0446],[19.5379,-33.4264,1694.8191],[19.5209,-33.4374,1649.6107],[19.4732,-33.4617,1959.7034],[19.4053,-33.4805,2034.895],[19.3954,-33.5574,1738.9814],[19.3672,-33.5678,1454.373],[19.3776,-33.5905,524.3557],[19.3786,-33.6191,255.7593],[19.3623,-33.624,218.6331],[19.3516,-33.6063,255.5862],[19.3489,-33.6044,264.4619],[19.3481,-33.6008,273.4349],[19.328,-33.599,267.4484],[19.3286,-33.6008,264.859],[19.3238,-33.5994,264.0289],[19.3227,-33.6035,254.0858],[19.3215,-33.6031,254.0858],[19.3231,-33.5993,262.6483],[19.3167,-33.5975,259.3128],[19.3113,-33.6071,241.1492],[19.2867,-33.6067,216.6934],[19.28,-33.6139,208.1167],[19.2766,-33.6102,208.7041],[19.2885,-33.5979,227.4753],[19.2786,-33.5872,222.4492],[19.2774,-33.59,218.0343],[19.2521,-33.5797,214.611],[19.2395,-33.5588,224.3229],[19.2218,-33.5624,221.7567],[19.2147,-33.5593,222.2645],[19.1987,-33.5572,434.3349],[19.1854,-33.562,917.3035],[19.1694,-33.5975,1297.2808],[19.1402,-33.5647,465.7964],[19.107,-33.5411,921.0623],[19.1045,-33.5586,968.8853],[19.1065,-33.5901,1107.363],[19.102,-33.6068,866.7014],[19.1268,-33.6391,1571.7528],[19.1475,-33.6561,1670.4495],[19.1488,-33.7022,1706.3224],[19.184,-33.7154,655.2073],[19.1861,-33.7237,457.1533],[19.1881,-33.7539,1942.3708],[19.214,-33.8571,1215.481],[19.2438,-33.8974,1224.8989],[19.2652,-33.9003,1019.858],[19.2584,-33.8831,1223.4397],[19.278199999999998,-33.8795,1148.564],[19.2974,-33.8897,1188.9109],[19.3106,-33.9137,960.1859],[19.3128,-33.935,959.4313],[19.3189,-33.9472,523.0638],[19.3251,-33.9521,406.7631],[19.3359,-33.9582,523.1911],[19.3486,-33.9552,694.382],[19.3618,-33.9715,1228.811],[19.4005,-33.9855,1387.6731],[19.4558,-33.9999,1597.9146],[19.5069,-33.9717,1601.4921],[19.5454,-33.9156,552.5467],[19.5369,-33.8862,537.7444],[19.5323,-33.8784,570.164],[19.5626,-33.8664,355.0114],[19.5618,-33.8595,414.0848],[19.5658,-33.8492,330.1031]]]]}
,"properties": {"GID_3": "ZAF.9.1.1_1","GID_0": "ZAF","country": "SouthAfrica","GID_1": "ZAF.9_1","province": "WesternCape","NL_NAME_1": "NA","GID_2": "ZAF.9.1_1","county": "CapeWinelands","NL_NAME_2": "NA","city": "BreedeValley","VARNAME_3": "NA","NL_NAME_3": "NA","TYPE_3": "LocalMunicipality","ENGTYPE_3": "LocalMunicipality","CC_3": "WC025","HASC_3": "NA","name": "Breede_Valley.city","area_km2": 3833.749,"hist_schema_id": "Elevation0-9000","hist_area_km2": {"175": 21.009,"200": 230.957,"225": 177.868,"250": 133.285,"275": 106.015,"300": 94.635,"325": 85.99,"350": 79.756,"375": 76.294,"400": 70.431,"425": 63.649,"450": 56.563,"475": 54.448,"500": 52.635,"525": 45.364,"550": 44.382,"575": 41.311,"600": 37.041,"625": 35.51,"650": 32.403,"675": 34.598,"700": 41.447,"725": 55.0,"750": 88.88,"775": 139.058,"800": 157.245,"825": 164.906,"850": 166.318,"875": 148.707,"900": 127.192,"925": 116.057,"950": 110.824,"975": 95.983,"1000": 81.777,"1025": 74.327,"1050": 67.194,"1075": 58.117,"1100": 52.309,"1125": 56.372,"1150": 54.212,"1175": 53.91,"1200": 39.291,"1225": 28.448,"1250": 25.249,"1275": 22.243,"1300": 19.553,"1325": 17.395,"1350": 16.951,"1375": 21.02,"1400": 20.012,"1425": 16.936,"1450": 12.535,"1475": 11.3,"1500": 10.151,"1525": 9.217,"1550": 8.386,"1575": 8.512,"1600": 7.188,"1625": 7.382,"1650": 6.551,"1675": 5.934,"1700": 4.663,"1725": 4.593,"1750": 4.77,"1775": 3.235,"1800": 3.218,"1825": 2.334,"1850": 2.423,"1875": 1.556,"1900": 1.68,"1925": 1.504,"1950": 1.114,"1975": 0.814,"2000": 0.584,"2025": 0.425,"2050": 0.478,"2075": 0.443,"2100": 0.266,"2125": 0.372,"2150": 0.336,"2175": 0.354,"2200": 0.177,"2225": 0.177}}}