{"type":"Feature","properties":{"GID_3":"ZAF.9.5.4_1","GID_0":"ZAF","country":"SouthAfrica","GID_1":"ZAF.9_1","province":"WesternCape","NL_NAME_1":"NA","GID_2":"ZAF.9.5_1","county":"Overberg","NL_NAME_2":"NA","city":"Theewaterskloof","VARNAME_3":"NA","NL_NAME_3":"NA","TYPE_3":"LocalMunicipality","ENGTYPE_3":"LocalMunicipality","CC_3":"WC031","HASC_3":"NA","name":"Theewaterskloof.city"},
"geometry":{"type": "MultiPolygon","coordinates": [[[[19.6351,-34.3563,70.7574],[19.6512,-34.3592,150.7931],[19.6648,-34.3196,201.8458],[19.6691,-34.3211,229.5641],[19.6772,-34.3375,152.937],[19.6728,-34.339,148.0462],[19.673,-34.3403,162.3497],[19.6676,-34.3401,167.6222],[19.6645,-34.3439,137.2474],[19.6684,-34.3572,128.9257],[19.675,-34.3604,157.1241],[19.6807,-34.3533,173.079],[19.6918,-34.3489,200.6941],[19.7052,-34.3501,224.3219],[19.7342,-34.3166,269.3136],[19.7409,-34.3126,311.8549],[19.7606,-34.3306,270.362],[19.7746,-34.3328,330.08],[19.7944,-34.3207,301.0899],[19.7977,-34.2846,297.6607],[19.8052,-34.2786,261.6024],[19.8454,-34.2804,264.7054],[19.8501,-34.2596,216.4126],[19.8468,-34.262,216.7231],[19.8375,-34.2603,219.3339],[19.8458,-34.2615,217.1762],[19.8502,-34.2588,210.8795],[19.8561,-34.2336,223.7795],[19.889,-34.2156,278.6871],[19.8899,-34.207,288.9641],[19.9009,-34.2147,294.6286],[19.9059,-34.1936,210.5684],[19.8914,-34.1925,243.0484],[19.8932,-34.1748,176.8014],[19.9281,-34.1716,172.8491],[19.9313,-34.1625,154.1409],[19.9347,-34.1713,142.7884],[19.9325,-34.181,156.3785],[19.9374,-34.1819,169.2028],[19.9383,-34.1728,145.8097],[19.965699999999998,-34.1763,223.0219],[19.9798,-34.1663,159.2082],[19.9848,-34.1574,159.3304],[19.9879,-34.147,166.2261],[19.9862,-34.1404,123.8908],[19.9811,-34.1326,127.861],[19.9953,-34.1312,127.4729],[20.0029,-34.1284,125.2948],[19.9896,-34.1153,212.0035],[19.9924,-34.1051,290.8757],[20.0075,-34.0939,403.3992],[19.9893,-34.0855,591.9734],[19.9865,-34.0782,890.0726],[19.9062,-34.0762,1209.2573],[19.8855,-34.0662,1491.8494],[19.8536,-34.0633,1606.8037],[19.8103,-34.0554,1454.9669],[19.7552,-34.0544,1250.03],[19.735,-34.0412,1339.2986],[19.7148,-34.049,1471.1045],[19.7001,-34.0464,1230.863],[19.6807,-34.0091,1343.7932],[19.6412,-34.0017,1136.377],[19.6084,-34.0074,1336.7816],[19.5898,-34.0124,1428.0596],[19.5662,-34.002,966.4669],[19.5333,-33.9695,1333.2612],[19.5069,-33.9717,1601.4921],[19.4558,-33.9999,1597.9146],[19.4267,-33.9932,1570.1066],[19.3618,-33.9715,1228.811],[19.3486,-33.9552,694.382],[19.3359,-33.9582,523.1911],[19.3251,-33.9521,406.7631],[19.3189,-33.9472,523.0638],[19.3128,-33.935,959.4313],[19.3106,-33.9137,960.1859],[19.2974,-33.8897,1188.9109],[19.278199999999998,-33.8795,1148.564],[19.2584,-33.8831,1223.4397],[19.2652,-33.9003,1019.858],[19.2438,-33.8974,1224.8989],[19.2066,-33.9504,1233.8022],[19.191,-33.9472,958.8356],[19.1646,-33.9714,318.3528],[19.1455,-33.956,987.9157],[19.1261,-33.9617,1176.8738],[19.0424,-34.0083,1492.0325],[19.0264,-34.0206,1486.0686],[18.9846,-34.0359,1557.2942],[19.0047,-34.0748,1214.0305],[18.9668,-34.1024,1111.6432],[18.9439,-34.1382,513.938],[18.9652,-34.14,434.9986],[18.9638,-34.1529,432.662],[18.9803,-34.155,477.3551],[18.9625,-34.1777,460.2313],[18.9543,-34.1736,472.9188],[18.9544,-34.1838,553.8052],[18.9419,-34.1889,698.4071],[18.9344,-34.1967,752.2886],[18.931,-34.1959,802.5123],[18.9298,-34.1976,800.8185],[18.9291,-34.2015,786.3734],[18.9305,-34.2037,800.5987],[18.9386,-34.2074,789.0952],[18.956,-34.2105,327.6117],[18.946,-34.2277,353.148],[18.9477,-34.2449,264.9672],[18.9599,-34.2482,245.8676],[19.0118,-34.2742,102.3227],[19.0218,-34.2713,105.9045],[19.0391,-34.2742,293.9463],[19.1301,-34.2431,337.3138],[19.1304,-34.2365,313.0511],[19.1224,-34.2312,339.3082],[19.0997,-34.2236,354.3724],[19.1072,-34.2062,270.6078],[19.0898,-34.199,277.3716],[19.0846,-34.1857,311.1861],[19.0871,-34.1803,300.2693],[19.1011,-34.1853,274.1849],[19.1,-34.189,264.7994],[19.1027,-34.1958,230.1639],[19.1042,-34.1954,237.6621],[19.1015,-34.1889,274.7452],[19.1027,-34.1858,274.1849],[19.1536,-34.2025,326.2761],[19.1549,-34.2039,300.177],[19.1521,-34.2067,287.0166],[19.149,-34.2172,468.3547],[19.185,-34.2207,248.5798],[19.1851,-34.233,157.6592],[19.1801,-34.2314,200.0514],[19.1608,-34.2429,324.5452],[19.1645,-34.2489,238.4238],[19.1859,-34.2569,58.1269],[19.1825,-34.265,67.1495],[19.172,-34.2544,149.9731],[19.1572,-34.2638,126.8866],[19.1641,-34.2677,85.7016],[19.1735,-34.2693,49.3167],[19.2045,-34.2978,160.1371],[19.2087,-34.2944,144.1131],[19.211,-34.3267,357.73],[19.2569,-34.3179,457.4416],[19.2579,-34.3163,448.17],[19.3038,-34.3288,522.9053],[19.3068,-34.3402,373.1695],[19.2974,-34.3457,348.159],[19.3052,-34.356,498.0471],[19.2934,-34.3671,572.7706],[19.3006,-34.3753,801.6146],[19.3516,-34.3876,853.9147],[19.3922,-34.38,900.7281],[19.4022,-34.3765,891.7228],[19.4462,-34.3909,739.2009],[19.4951,-34.3998,710.5761],[19.5245,-34.3903,551.6929],[19.556,-34.3897,460.8252],[19.5489,-34.3958,472.4232],[19.5904,-34.3905,386.1174],[19.5822,-34.4041,86.4433],[19.6032,-34.406,57.7365],[19.5829,-34.4255,285.4716],[19.5831,-34.4297,355.448],[19.616,-34.4243,340.2664],[19.6269,-34.4169,605.6946],[19.6246,-34.4032,142.7186],[19.6172,-34.3994,107.9062],[19.6287,-34.3802,84.2903],[19.6377,-34.3785,64.1562],[19.6402,-34.3761,62.9782],[19.6393,-34.3742,97.7318],[19.6407,-34.3721,72.5274],[19.6373,-34.3644,67.615],[19.6344,-34.3632,65.9557],[19.6304,-34.3651,65.4219],[19.6237,-34.3799,110.4209],[19.6154,-34.3811,202.4982],[19.6173,-34.3533,147.5333],[19.6351,-34.3563,70.7574]]]]}}