{"type":"Feature","properties":{"GID_3":"ZAF.4.10.3_1","GID_0":"ZAF","country":"SouthAfrica","GID_1":"ZAF.4_1","province":"KwaZulu-Natal","NL_NAME_1":"NA","GID_2":"ZAF.4.10_1","county":"Uthungulu","NL_NAME_2":"NA","city":"Nkandla","VARNAME_3":"NA","NL_NAME_3":"NA","TYPE_3":"LocalMunicipality","ENGTYPE_3":"LocalMunicipality","CC_3":"KZN286","HASC_3":"NA","name":"Nkandla.city"},
"geometry":{"type": "MultiPolygon","coordinates": [[[[31.0268,-28.8973,195.25],[31.0298,-28.9015,196.022],[31.033,-28.8978,224.0905],[31.039,-28.8944,263.4582],[31.0409,-28.8952,276.6405],[31.0485,-28.8905,291.9899],[31.0516,-28.8914,321.9522],[31.0601,-28.8888,371.3562],[31.0648,-28.8809,393.9521],[31.078,-28.8758,391.3388],[31.0831,-28.8708,404.7364],[31.0853,-28.8673,407.5266],[31.0848,-28.862,415.9841],[31.0874,-28.86,423.5096],[31.0882,-28.8554,429.5779],[31.0943,-28.8467,428.8235],[31.0969,-28.8454,437.7453],[31.1013,-28.8476,440.6798],[31.1078,-28.8472,423.1219],[31.112,-28.8436,415.8135],[31.1156,-28.8339,435.3494],[31.1227,-28.8279,467.4005],[31.1296,-28.8301,454.6547],[31.1339,-28.8348,474.8636],[31.1385,-28.8367,483.2454],[31.1489,-28.8368,481.2627],[31.1645,-28.8309,593.6827],[31.1701,-28.8174,741.6656],[31.1844,-28.8063,708.3302],[31.1801,-28.8032,733.8056],[31.1771,-28.7961,782.2293],[31.1815,-28.7863,916.3615],[31.1768,-28.7802,1048.7596],[31.1791,-28.7801,1035.5171],[31.1802,-28.7762,982.5537],[31.1845,-28.7713,900.2211],[31.1843,-28.7622,844.2339],[31.1874,-28.7607,842.178],[31.1978,-28.7617,805.3588],[31.2021,-28.7607,786.459],[31.2055,-28.7574,783.1751],[31.2105,-28.7583,774.4967],[31.2086,-28.7668,795.9672],[31.2092,-28.774,834.9258],[31.2204,-28.7716,826.5802],[31.2236,-28.7732,794.6054],[31.2227,-28.7764,749.4145],[31.2248,-28.7811,700.3779],[31.2165,-28.7878,714.8127],[31.2206,-28.7893,719.0817],[31.226,-28.7988,678.9765],[31.2386,-28.8094,587.1354],[31.2372,-28.8093,575.369],[31.2397,-28.8133,468.7324],[31.2381,-28.8139,472.196],[31.2447,-28.8151,468.0889],[31.2471,-28.814,471.3482],[31.2506,-28.8149,463.4159],[31.2517,-28.8092,491.8634],[31.2614,-28.8025,444.326],[31.2617,-28.804,441.6318],[31.2656,-28.8045,456.5724],[31.2676,-28.808,442.0934],[31.2731,-28.8028,425.5005],[31.2769,-28.8058,404.4477],[31.2794,-28.8052,407.7991],[31.2808,-28.807,412.2716],[31.2802,-28.81,405.4752],[31.2851,-28.8089,402.6819],[31.2834,-28.8109,392.5125],[31.2849,-28.8127,394.2826],[31.2874,-28.8111,399.5572],[31.2875,-28.8091,385.6917],[31.2997,-28.8057,378.3748],[31.3004,-28.8099,366.8708],[31.3068,-28.8117,345.8793],[31.3095,-28.8151,351.0056],[31.3116,-28.8148,338.3286],[31.3133,-28.813,330.529],[31.3104,-28.8114,334.6514],[31.3116,-28.8087,336.4124],[31.3194,-28.8069,312.6742],[31.3224,-28.8089,329.8985],[31.3247,-28.8069,330.2721],[31.3193,-28.8042,307.0229],[31.319,-28.8009,295.6031],[31.3244,-28.7949,300.7023],[31.3238,-28.7902,281.8918],[31.3293,-28.7901,273.2214],[31.33,-28.7804,284.9852],[31.3351,-28.7808,256.22],[31.3382,-28.7789,253.2828],[31.3355,-28.7728,245.6046],[31.3395,-28.7702,248.7979],[31.3462,-28.7746,234.3588],[31.3488,-28.768,265.1772],[31.3467,-28.7617,242.3443],[31.3437,-28.761,265.4453],[31.338,-28.7641,248.6745],[31.3356,-28.7625,256.3436],[31.3343,-28.7585,257.9436],[31.3356,-28.7516,256.7016],[31.3343,-28.7502,291.1215],[31.3217,-28.7525,262.8922],[31.3171,-28.7514,301.2823],[31.3237,-28.7449,272.3243],[31.3287,-28.7464,316.544],[31.3311,-28.7455,274.7657],[31.3379,-28.7396,294.2424],[31.3417,-28.7321,305.6311],[31.3358,-28.7313,324.5607],[31.3364,-28.7285,344.1726],[31.3309,-28.7142,335.4543],[31.3274,-28.7146,319.0525],[31.3283,-28.7202,355.6407],[31.3193,-28.7199,325.0445],[31.3145,-28.7232,372.784],[31.3059,-28.7169,358.5917],[31.2917,-28.7186,359.6244],[31.285,-28.7107,393.0169],[31.2795,-28.7169,357.6852],[31.2755,-28.7182,364.1877],[31.2731,-28.7131,355.7654],[31.2799,-28.7025,376.2814],[31.278,-28.6986,365.2935],[31.2623,-28.7041,383.597],[31.2531,-28.6996,401.0942],[31.2524,-28.6897,434.5192],[31.2618,-28.6847,433.4583],[31.2729,-28.6897,484.2426],[31.2746,-28.6855,445.4101],[31.2701,-28.6834,490.9941],[31.2677,-28.68,457.967],[31.2625,-28.678,461.943],[31.2643,-28.6749,465.8149],[31.2647,-28.6671,512.8523],[31.2598,-28.6677,489.6058],[31.257,-28.6623,497.8943],[31.2515,-28.6608,500.4086],[31.255,-28.6497,503.6826],[31.2499,-28.6503,532.3066],[31.2486,-28.6447,502.2288],[31.2419,-28.6459,510.4473],[31.24,-28.643,515.5161],[31.2442,-28.6402,558.858],[31.2435,-28.6392,517.1299],[31.2376,-28.6367,519.6379],[31.2335,-28.6381,525.8873],[31.2345,-28.6455,536.819],[31.2266,-28.6512,543.605],[31.2232,-28.6476,600.9991],[31.2201,-28.6514,579.9045],[31.2165,-28.6506,563.055],[31.2145,-28.6485,602.8641],[31.2162,-28.6448,561.7628],[31.2118,-28.6432,568.9237],[31.2096,-28.6433,577.9066],[31.2079,-28.6472,581.256],[31.1988,-28.6492,584.392],[31.1927,-28.6467,597.2969],[31.1973,-28.6367,608.2736],[31.1966,-28.6263,649.9033],[31.1922,-28.6246,654.3605],[31.1933,-28.6189,675.2477],[31.1914,-28.6171,673.1973],[31.1816,-28.6206,710.0685],[31.1766,-28.6168,718.4316],[31.1722,-28.6106,750.9213],[31.1741,-28.6039,829.0215],[31.1699,-28.5982,808.3619],[31.1706,-28.596,809.3298],[31.1676,-28.5884,832.9199],[31.1709,-28.5889,814.0166],[31.1713,-28.5871,815.0096],[31.1616,-28.5822,835.0379],[31.1642,-28.5776,845.1538],[31.1626,-28.5744,854.1888],[31.1646,-28.5678,861.1675],[31.1634,-28.5643,886.7755],[31.1648,-28.5576,868.0831],[31.1639,-28.5557,884.7519],[31.1592,-28.5556,877.3337],[31.1593,-28.554,865.8489],[31.157,-28.5532,892.9637],[31.1603,-28.5505,876.3794],[31.1585,-28.548,870.9022],[31.162,-28.5442,873.0026],[31.1536,-28.5419,882.0941],[31.1522,-28.5397,876.1187],[31.1503,-28.541,885.319],[31.1519,-28.5426,882.4647],[31.15,-28.5437,878.5168],[31.1408,-28.5439,883.9105],[31.137,-28.5413,886.7798],[31.1355,-28.5426,885.6662],[31.1339,-28.541,904.7267],[31.1301,-28.5418,919.5096],[31.1297,-28.5382,891.0709],[31.1223,-28.538,898.8913],[31.1224,-28.5362,897.928],[31.1182,-28.5353,910.7711],[31.1119,-28.5309,907.6094],[31.1073,-28.5314,925.3507],[31.1064,-28.5281,916.3981],[31.1036,-28.5279,931.7841],[31.1028,-28.5243,931.1613],[31.1053,-28.5225,910.7466],[31.1068,-28.5241,911.0576],[31.1165,-28.5191,925.0712],[31.1181,-28.5119,938.5884],[31.1216,-28.5108,940.1783],[31.1208,-28.5087,946.615],[31.1125,-28.5097,937.1998],[31.101,-28.5026,946.5475],[31.0924,-28.5028,969.3454],[31.0888,-28.5045,953.0187],[31.086,-28.5001,969.8596],[31.0823,-28.5049,958.3625],[31.0741,-28.5051,965.554],[31.073,-28.5031,962.6728],[31.0754,-28.5018,964.0849],[31.0737,-28.4987,968.1688],[31.0816,-28.4994,975.313],[31.0811,-28.4962,971.42],[31.0781,-28.4922,986.3408],[31.0742,-28.493,975.0446],[31.0672,-28.4914,977.3315],[31.0629,-28.4879,981.642],[31.0644,-28.4844,1000.6584],[31.069,-28.4829,992.7291],[31.0694,-28.4814,992.7291],[31.0674,-28.479,991.7161],[31.0651,-28.4789,988.3807],[31.0641,-28.4721,996.111],[31.0611,-28.4714,994.5037],[31.054,-28.4615,1006.3337],[31.0499,-28.4611,1011.755],[31.0433,-28.4569,1027.2369],[31.0399,-28.4579,1018.5554],[31.036,-28.4547,1020.8233],[31.03,-28.4535,1031.9241],[31.0264,-28.4511,1084.6589],[31.024,-28.4521,1038.0936],[31.0233,-28.4431,1062.4062],[31.0278,-28.4391,1057.8411],[31.0261,-28.4356,1105.3801],[31.0244,-28.4361,1069.0979],[31.0205,-28.4335,1100.7977],[31.0218,-28.4316,1114.0325],[31.0193,-28.4304,1110.6729],[31.0181,-28.4258,1119.1857],[31.0106,-28.4221,1126.626],[31.0075,-28.4233,1135.1077],[30.9973,-28.4225,1150.1886],[30.9912,-28.4153,1178.9854],[30.9902,-28.4,1329.3291],[30.9967,-28.3928,1598.731],[30.8327,-28.4637,1599.8662],[30.804,-28.5178,1551.7015],[30.7848,-28.5201,1510.8032],[30.7714,-28.5175,1499.9617],[30.7691,-28.5335,1107.5259],[30.7633,-28.5389,1005.0564],[30.7573,-28.5418,967.355],[30.7731,-28.5481,997.0645],[30.7848,-28.5575,1079.1492],[30.7946,-28.5609,1138.2234],[30.8055,-28.5712,1376.1635],[30.8025,-28.572,1337.5322],[30.8214,-28.5816,1309.4614],[30.8383,-28.5749,1501.5439],[30.7885,-28.6289,1641.129],[30.7814,-28.6269,1617.8203],[30.7533,-28.6288,1695.447],[30.7339,-28.642,1718.021],[30.7378,-28.6589,1725.5922],[30.7324,-28.6652,1598.3883],[30.7155,-28.6559,1050.8281],[30.7053,-28.6527,833.4064],[30.6903,-28.645,683.4792],[30.6799,-28.6414,617.6345],[30.6704,-28.6424,562.6748],[30.6715,-28.6503,629.0638],[30.6787,-28.6585,537.9486],[30.6844,-28.6614,543.4456],[30.6803,-28.6713,522.3403],[30.6684,-28.6855,507.4913],[30.6517,-28.6891,501.0087],[30.6353,-28.6989,495.3902],[30.6249,-28.699,481.4778],[30.6208,-28.7041,481.0849],[30.6205,-28.7092,492.6641],[30.6229,-28.7113,516.0302],[30.6337,-28.7122,463.8299],[30.6375,-28.716,465.0182],[30.6432,-28.7169,459.633],[30.6497,-28.7203,461.8363],[30.6539,-28.7303,447.75],[30.6538,-28.7406,453.7933],[30.6653,-28.7469,445.8321],[30.6714,-28.7453,441.0628],[30.6786,-28.739,444.4058],[30.6878,-28.7334,435.2426],[30.6922,-28.7325,434.0],[30.7148,-28.7385,432.6785],[30.7188,-28.7502,432.8838],[30.7292,-28.7567,426.3734],[30.7297,-28.7609,433.4491],[30.7261,-28.7655,421.3119],[30.7206,-28.7686,421.3138],[30.7001,-28.7707,434.2318],[30.6966,-28.7753,411.9009],[30.6964,-28.7792,411.6368],[30.6995,-28.7834,430.2382],[30.7074,-28.7855,407.25],[30.7282,-28.7953,411.228],[30.7389,-28.8041,397.25],[30.7463,-28.8026,394.3335],[30.7481,-28.7983,393.1572],[30.7397,-28.7772,385.374],[30.7416,-28.7709,426.6414],[30.7457,-28.7658,394.3373],[30.7597,-28.7616,387.717],[30.7615,-28.7576,443.5647],[30.7657,-28.7553,378.4528],[30.767,-28.7528,375.5],[30.7677,-28.7489,375.0],[30.7642,-28.7424,378.377],[30.7537,-28.7322,371.0],[30.7545,-28.7243,368.5],[30.759,-28.7221,372.4],[30.7709,-28.7227,405.9833],[30.7836,-28.7326,360.5],[30.7946,-28.7296,359.8536],[30.8106,-28.7355,361.4581],[30.8227,-28.7341,388.6365],[30.8232,-28.7427,352.48],[30.8166,-28.7574,349.1588],[30.8137,-28.7611,360.5526],[30.8027,-28.7666,340.3766],[30.7985,-28.7711,337.7783],[30.7988,-28.7729,336.5436],[30.804,-28.7764,346.5109],[30.8173,-28.7772,331.2461],[30.8335,-28.7717,330.3399],[30.8479,-28.7736,311.4536],[30.8612,-28.7813,307.9683],[30.8657,-28.7797,316.3937],[30.877,-28.7641,294.6],[30.8811,-28.7615,292.2691],[30.8867,-28.7613,290.4946],[30.897,-28.7705,286.8124],[30.9072,-28.7841,284.5842],[30.9087,-28.7953,280.3635],[30.9135,-28.8031,278.1489],[30.9139,-28.8128,274.3613],[30.9044,-28.8254,275.1205],[30.8994,-28.8381,272.6478],[30.9026,-28.8433,270.9495],[30.9095,-28.8463,270.6867],[30.9175,-28.8479,269.1697],[30.9261,-28.8476,264.1181],[30.9356,-28.846,260.5292],[30.9401,-28.843,263.2468],[30.9414,-28.8363,261.8858],[30.9304,-28.8267,255.9113],[30.9268,-28.82,257.6869],[30.9261,-28.8151,251.0597],[30.9412,-28.7959,255.7059],[30.9515,-28.7885,240.6248],[30.955,-28.7883,239.9407],[30.9631,-28.7966,243.2847],[30.9769,-28.7986,233.0],[30.9866,-28.8045,246.889],[30.9872,-28.811,230.5],[30.9849,-28.8153,234.4834],[30.9797,-28.8205,229.5],[30.9684,-28.8269,230.5981],[30.9668,-28.8299,228.5],[30.9679,-28.8339,227.625],[30.9728,-28.8382,228.0909],[30.9751,-28.8436,226.2445],[30.9838,-28.8549,224.0],[30.9897,-28.8574,224.8452],[31.0088,-28.8543,211.6705],[31.0284,-28.8624,202.2246],[31.0366,-28.8729,204.5084],[31.0377,-28.882,197.0],[31.028,-28.8908,197.4318],[31.0268,-28.8973,195.25]]]]}}