{"type": "Feature","bbox": [24.7977,-28.9654,26.0634,-27.7932],"geometry": {"type": "MultiPolygon","coordinates": [[[[25.6265,-28.8918,1206.0626],[25.6296,-28.8868,1203.1011],[25.6355,-28.8859,1207.3262],[25.6385,-28.8871,1207.4628],[25.641,-28.8916,1210.6484],[25.6499,-28.8875,1208.6511],[25.6545,-28.8913,1213.1827],[25.6606,-28.8925,1208.2882],[25.6612,-28.8888,1210.1646],[25.6676,-28.8927,1213.7075],[25.672,-28.9004,1210.4358],[25.6806,-28.8958,1211.0634],[25.6897,-28.8999,1213.9136],[25.6922,-28.9039,1213.6841],[25.6959,-28.9061,1212.2017],[25.7003,-28.9072,1211.9312],[25.7045,-28.9054,1212.0881],[25.7054,-28.9092,1211.033],[25.7119,-28.9056,1213.4547],[25.7233,-28.9087,1213.4875],[25.7384,-28.903199999999998,1218.3804],[25.7435,-28.9042,1216.4392],[25.7456,-28.9067,1216.0956],[25.7485,-28.9075,1216.9219],[25.7514,-28.906,1220.3727],[25.7519,-28.899,1216.7322],[25.7557,-28.8989,1218.3411],[25.7647,-28.9043,1216.9391],[25.769,-28.8944,1217.9791],[25.7846,-28.8946,1222.9355],[25.7956,-28.8868,1221.0013],[25.7982,-28.8875,1220.6849],[25.8017,-28.8925,1222.1495],[25.8046,-28.8939,1219.6774],[25.8089,-28.8535,1228.4292],[25.8563,-28.8676,1254.6576],[25.8541,-28.8157,1254.9695],[25.8644,-28.7812,1252.8539],[25.8703,-28.7841,1260.9214],[25.8745,-28.7663,1233.4503],[25.9118,-28.7099,1293.3264],[25.9314,-28.6831,1283.0844],[25.9496,-28.6513,1292.7507],[25.9769,-28.6154,1316.0245],[25.9782,-28.6046,1321.595],[26.0079,-28.5842,1325.2927],[26.0336,-28.5863,1300.4161],[26.0379,-28.549,1314.0957],[26.0634,-28.541,1308.9271],[26.0595,-28.5098,1329.8181],[26.0358,-28.5305,1332.6158],[26.0331,-28.5058,1350.7336],[25.9999,-28.5059,1374.3621],[25.9951,-28.4974,1357.4504],[25.9541,-28.5092,1342.0498],[25.9445,-28.5271,1317.6802],[25.8986,-28.5012,1290.9514],[25.9011,-28.4979,1308.3086],[25.8901,-28.4921,1283.2191],[25.8661,-28.4886,1312.5386],[25.8434,-28.4799,1293.342],[25.8242,-28.4538,1328.0795],[25.8067,-28.4493,1334.4351],[25.7649,-28.4148,1312.7024],[25.7484,-28.3952,1286.9658],[25.7313,-28.3708,1283.8423],[25.7254,-28.3697,1279.6313],[25.7233,-28.3612,1283.9457],[25.7257,-28.346,1268.5],[25.7083,-28.3333,1285.3778],[25.7204,-28.3295,1294.0146],[25.7068,-28.2775,1294.915],[25.7424,-28.2901,1300.2433],[25.7641,-28.2531,1325.205],[25.752,-28.2404,1330.0974],[25.741,-28.2433,1317.8052],[25.6878,-28.2142,1352.1343],[25.7337,-28.1782,1346.7885],[25.707,-28.1278,1343.6912],[25.6469,-28.1426,1321.9205],[25.6597,-28.1356,1320.3677],[25.6378,-28.1199,1309.3672],[25.5864,-28.1057,1305.4492],[25.6289,-28.0531,1301.2777],[25.6261,-28.0388,1293.5361],[25.5175,-27.9864,1273.625],[25.5068,-27.9598,1288.7834],[25.4688,-27.9607,1276.6382],[25.4704,-27.952,1277.6875],[25.4195,-27.9191,1276.3842],[25.4347,-27.9115,1274.2399],[25.3978,-27.896,1273.2104],[25.3492,-27.8502,1267.8215],[25.3235,-27.7938,1207.8475],[25.313,-27.7959,1206.28],[25.3015,-27.7932,1208.722],[25.2774,-27.7953,1204.5],[25.2698,-27.8006,1209.5422],[25.2606,-27.822,1206.2561],[25.2536,-27.8262,1210.1909],[25.2441,-27.8292,1204.7855],[25.2384,-27.8344,1204.3973],[25.2382,-27.8375,1202.0],[25.2422,-27.8437,1207.3049],[25.2577,-27.8551,1204.5826],[25.2575,-27.8602,1202.3511],[25.2541,-27.8651,1206.8877],[25.2497,-27.8687,1201.8418],[25.2282,-27.8785,1203.0137],[25.2067,-27.884,1196.0123],[25.1977,-27.8885,1194.7192],[25.193,-27.8933,1192.8069],[25.1851,-27.9089,1189.5518],[25.1721,-27.9185,1189.9618],[25.1657,-27.9214,1190.4728],[25.1606,-27.9271,1190.4305],[25.1506,-27.9286,1190.5775],[25.1387,-27.9236,1190.3362],[25.1335,-27.9253,1189.4723],[25.1309,-27.9291,1189.0],[25.1328,-27.9433,1192.0503],[25.131,-27.9506,1189.0],[25.1173,-27.9606,1189.0],[25.1113,-27.9702,1189.0],[25.0968,-27.9769,1189.8926],[25.0906,-27.984,1189.0],[25.0903,-27.9886,1189.0],[25.0951,-27.9918,1190.7461],[25.1025,-28.0009,1189.0],[25.1064,-28.0068,1192.6757],[25.1074,-28.0119,1189.0],[25.1049,-28.0167,1189.2878],[25.0769,-28.0484,1188.5],[25.0739,-28.0659,1188.5],[25.0702,-28.0685,1188.5],[25.0591,-28.0707,1188.5],[25.0385,-28.0681,1189.2417],[25.0281,-28.0735,1188.6108],[24.9646,-28.2507,1296.9343],[24.9267,-28.2469,1241.4027],[24.9053,-28.2748,1248.684],[24.8705,-28.2704,1220.088],[24.8903,-28.3102,1236.3884],[24.9376,-28.3249,1183.5444],[24.8868,-28.465,1154.5983],[24.8813,-28.4632,1147.7273],[24.8469,-28.5038,1155.2119],[24.8678,-28.5171,1166.5392],[24.8277,-28.627,1229.3425],[24.9018,-28.648,1298.3285],[24.8018,-28.8283,1155.2842],[24.7977,-28.8538,1142.5554],[24.811,-28.9131,1197.8868],[24.8692,-28.8947,1216.8248],[24.9593,-28.9449,1146.037],[24.9745,-28.9485,1152.9824],[24.9827,-28.9445,1155.5154],[24.9925,-28.903199999999998,1161.4944],[25.0059,-28.9081,1160.7589],[25.0878,-28.9062,1182.0164],[25.0856,-28.9076,1187.2203],[25.1141,-28.9654,1160.5172],[25.1312,-28.9631,1158.9563],[25.1456,-28.949,1159.553],[25.1489,-28.9435,1162.0408],[25.1582,-28.9475,1162.2069],[25.1661,-28.9481,1162.3257],[25.1707,-28.9472,1163.0376],[25.1764,-28.9433,1163.8428],[25.1813,-28.936,1164.521],[25.1843,-28.936,1163.9819],[25.1881,-28.9383,1163.0223],[25.1927,-28.9377,1165.1495],[25.2002,-28.9254,1164.4259],[25.206,-28.9225,1165.5317],[25.2053,-28.912,1166.1011],[25.2025,-28.9072,1170.78],[25.2064,-28.9028,1167.8851],[25.2239,-28.8942,1169.2289],[25.2302,-28.9009,1169.2673],[25.2423,-28.9075,1171.3359],[25.2507,-28.9031,1173.1295],[25.2602,-28.9037,1173.3345],[25.2641,-28.9024,1174.5555],[25.2663,-28.9001,1175.4277],[25.2674,-28.894,1172.8932],[25.2704,-28.8924,1175.6346],[25.2728,-28.893,1175.0699],[25.2822,-28.902,1176.0784],[25.2935,-28.8933,1177.6031],[25.2955,-28.8947,1177.1394],[25.2966,-28.9012,1177.483],[25.2999,-28.9019,1178.1666],[25.3036,-28.8998,1179.9958],[25.3059,-28.8947,1177.5718],[25.3104,-28.8926,1178.6497],[25.3125,-28.8929,1179.6299],[25.3162,-28.8982,1177.5981],[25.3199,-28.8987,1179.0869],[25.3302,-28.8984,1181.6361],[25.3361,-28.8945,1178.8052],[25.3442,-28.8975,1181.6034],[25.347,-28.9009,1180.2719],[25.3515,-28.8999,1179.7085],[25.3594,-28.9081,1182.8148],[25.3627,-28.9089,1180.7245],[25.3694,-28.9068,1181.7124],[25.3771,-28.9135,1182.6604],[25.3816,-28.9134,1183.1418],[25.3907,-28.917,1183.6071],[25.4012,-28.9161,1184.1719],[25.4066,-28.9172,1185.8424],[25.4165,-28.9109,1184.02],[25.4177,-28.8968,1186.2286],[25.442,-28.8968,1188.0135],[25.4482,-28.9004,1188.2908],[25.4504,-28.9002,1188.7412],[25.4703,-28.8884,1189.9639],[25.476,-28.882,1191.0093],[25.4855,-28.8832,1192.7135],[25.4944,-28.8764,1191.5227],[25.5112,-28.8694,1192.948],[25.5138,-28.8643,1192.4082],[25.515,-28.8564,1196.0981],[25.5288,-28.8525,1198.1807],[25.5347,-28.8547,1198.905],[25.5388,-28.8584,1197.1921],[25.5413,-28.865,1199.4613],[25.5394,-28.871,1198.5072],[25.5467,-28.8725,1201.0569],[25.5523,-28.8818,1199.2313],[25.5567,-28.8822,1201.3979],[25.5607,-28.878,1200.4835],[25.567,-28.8808,1199.4691],[25.5723,-28.8748,1201.745],[25.5778,-28.8761,1203.4065],[25.5819,-28.8807,1200.6331],[25.5889,-28.883,1205.0093],[25.5914,-28.8809,1202.4939],[25.5935,-28.8708,1201.4272],[25.5993,-28.8747,1206.2435],[25.601,-28.8804,1204.4829],[25.6137,-28.8833,1207.6027],[25.6158,-28.8911,1203.502],[25.6204,-28.8958,1203.9215],[25.6236,-28.896,1205.3716],[25.6265,-28.8918,1206.0626]]]]}
,"properties": {"GID_3": "ZAF.2.2.4_1","GID_0": "ZAF","country": "SouthAfrica","GID_1": "ZAF.2_1","province": "FreeState","NL_NAME_1": "NA","GID_2": "ZAF.2.2_1","county": "Lejweleputswa","NL_NAME_2": "NA","city": "Tokologo","VARNAME_3": "NA","NL_NAME_3": "NA","TYPE_3": "LocalMunicipality","ENGTYPE_3": "LocalMunicipality","CC_3": "FS182","HASC_3": "NA","name": "Tokologo.city","area_km2": 9339.6,"hist_schema_id": "Elevation0-9000","hist_area_km2": {"1150": 94.973,"1175": 423.473,"1200": 1032.415,"1225": 1769.788,"1250": 1987.848,"1275": 1886.979,"1300": 1304.854,"1325": 622.625,"1350": 195.318,"1375": 19.594,"1400": 1.566,"1425": 0.168}}}