{"type":"Feature","properties":{"GID_2":"ZAF.9.4_1","GID_0":"ZAF","country":"SouthAfrica","GID_1":"ZAF.9_1","province":"WesternCape","NL_NAME_1":"NA","county":"Eden","VARNAME_2":"NA","NL_NAME_2":"NA","TYPE_2":"DistrictMunicipality","ENGTYPE_2":"DistrictMunicipality","CC_2":"DC4","HASC_2":"ZA.WC.ED","name":"Eden.county"},
"geometry":{"type": "MultiPolygon","coordinates": [[[[21.4221,-34.3804,10.6284],[21.4221,-34.3782,13.8424],[21.4146,-34.3704,1.2981],[21.4126,-34.366,5.6987],[21.416,-34.3587,7.1505],[21.4165,-34.3599,14.6551],[21.414,-34.366,-0.2553],[21.4157,-34.3696,1.2981],[21.4196,-34.3712,0.1495],[21.4229,-34.3751,1.2073],[21.4221,-34.3768,4.9494],[21.4246,-34.3779,1.019],[21.4299,-34.3732,2.5788],[21.4446,-34.3682,2.8854],[21.4615,-34.3662,12.7227],[21.4821,-34.3676,4.799],[21.4935,-34.366,7.4911],[21.5104,-34.3604,0.0],[21.5179,-34.3615,0.0],[21.5238,-34.3576,25.3852],[21.5368,-34.3568,9.9793],[21.5501,-34.3615,0.0],[21.5651,-34.361,34.8756],[21.5696,-34.3637,0.0],[21.5776,-34.3649,0.0],[21.5824,-34.3637,4.7235],[21.5851,-34.3665,0.0],[21.611,-34.3721,19.9932],[21.6351,-34.3824,0.0],[21.6435,-34.381,42.3908],[21.6465,-34.3838,0.0],[21.6485,-34.3829,40.9291],[21.6607,-34.3871,0.4126],[21.669,-34.3865,5.1921],[21.6768,-34.3885,9.9973],[21.6832,-34.3924,0.0],[21.6913,-34.3918,4.1671],[21.6921,-34.3946,0.0],[21.6951,-34.3957,0.0],[21.7126,-34.3937,0.6727],[21.7296,-34.3951,0.2211],[21.7357,-34.394,0.1314],[21.7435,-34.3874,0.9076],[21.7563,-34.3879,0.0582],[21.7607,-34.3851,0.363],[21.7665,-34.3865,0.0],[21.7707,-34.384,2.984],[21.786,-34.384,0.1499],[21.7899,-34.3821,0.7779],[21.8037,-34.3829,0.0082],[21.8057,-34.3801,2.696],[21.8132,-34.3815,0.0],[21.8187,-34.3776,3.8385],[21.8226,-34.3785,0.0],[21.8271,-34.3763,0.0],[21.8357,-34.3754,0.2829],[21.8504,-34.3701,0.0],[21.8576,-34.3629,7.1968],[21.8696,-34.364,0.0],[21.8724,-34.3604,2.144],[21.8851,-34.3543,0.1898],[21.8863,-34.3515,0.0],[21.8815,-34.3501,4.3431],[21.8829,-34.3457,0.0],[21.8796,-34.3432,0.6277],[21.8779,-34.3385,0.0],[21.8604,-34.3349,0.0],[21.8782,-34.3363,0.4968],[21.8801,-34.3396,0.0],[21.8885,-34.3449,0.0],[21.906,-34.3443,0.0],[21.9129,-34.3399,0.4646],[21.9163,-34.3399,0.0],[21.9154,-34.3379,0.0],[21.9099,-34.3368,1.7889],[21.9043,-34.3324,0.0],[21.9049,-34.3246,0.0],[21.9079,-34.3187,0.7113],[21.9251,-34.3068,0.918],[21.9387,-34.3054,0.0],[21.9401,-34.3026,0.2515],[21.9424,-34.3037,0.0],[21.9468,-34.3013,0.0],[21.9468,-34.299,0.0],[21.9432,-34.2999,14.9832],[21.934,-34.2929,0.0],[21.9304,-34.2938,11.0175],[21.926,-34.2918,2.8948],[21.9151,-34.2912,0.0],[21.9115,-34.2854,17.6031],[21.9121,-34.2718,8.3582],[21.9185,-34.2585,1.8222],[21.931,-34.2451,1.3957],[21.9557,-34.2287,3.7669],[21.986,-34.216,18.7425],[22.0029,-34.2126,8.2128],[22.0118,-34.2093,10.5642],[22.0615,-34.2054,0.0],[22.0904,-34.2104,0.0],[22.0954,-34.2035,0.0],[22.0996,-34.2049,0.0],[22.1135,-34.2049,0.0],[22.1157,-34.2029,1.1224],[22.136,-34.1982,0.0],[22.1393,-34.1957,17.8794],[22.1443,-34.1971,0.0],[22.1465,-34.194,-0.19],[22.1513,-34.1924,0.0],[22.1526,-34.1888,13.5577],[22.1618,-34.1876,0.0],[22.1585,-34.1813,6.6597],[22.1507,-34.1787,0.0],[22.1471,-34.1749,0.0],[22.1465,-34.1754,0.0],[22.1479,-34.1763,0.0],[22.1476,-34.1785,0.0],[22.1454,-34.176,0.0],[22.1418,-34.1787,4.6439],[22.1387,-34.1787,3.4102],[22.1357,-34.1735,0.9382],[22.1285,-34.1726,0.9736],[22.1224,-34.1676,0.0],[22.1143,-34.1657,2.8893],[22.111,-34.1632,7.2733],[22.1101,-34.1518,2.2966],[22.1118,-34.1504,0.0],[22.1118,-34.1432,0.0],[22.1143,-34.1399,0.0],[22.1151,-34.1338,16.9048],[22.1229,-34.1213,0.0],[22.1229,-34.1165,0.0],[22.1507,-34.0929,0.0],[22.1401,-34.091,12.9877],[22.1357,-34.0876,1.4741],[22.1404,-34.0899,0.0],[22.1435,-34.0887,2.8883],[22.1465,-34.0907,0.4921],[22.1501,-34.0907,2.0799],[22.159,-34.0843,3.4315],[22.1901,-34.0715,0.0],[22.2124,-34.0638,1.5025],[22.2371,-34.0576,0.0],[22.2354,-34.0546,1.8986],[22.2318,-34.0526,0.0],[22.2363,-34.051,5.6191],[22.2376,-34.0515,2.757],[22.2371,-34.0537,3.9839],[22.2407,-34.0549,8.442],[22.2404,-34.0568,0.0],[22.2854,-34.0512,8.1551],[22.3204,-34.0512,30.3707],[22.3224,-34.0526,8.8646],[22.3351,-34.0526,28.8159],[22.3438,-34.0554,0.0],[22.3535,-34.0543,14.0491],[22.3587,-34.0557,6.9702],[22.3638,-34.0593,0.5616],[22.376,-34.0596,0.0],[22.379,-34.0615,0.0],[22.3854,-34.0615,0.0],[22.3868,-34.0582,15.2093],[22.3899,-34.0563,0.0],[22.3968,-34.0585,0.0],[22.3976,-34.0571,0.0],[22.404,-34.056,20.7547],[22.4085,-34.0588,0.0],[22.4199,-34.059,0.0],[22.424,-34.0612,2.6323],[22.4279,-34.0574,25.5355],[22.4315,-34.0604,0.0],[22.4365,-34.0571,0.0],[22.441,-34.0607,0.0],[22.4454,-34.0576,13.4321],[22.4524,-34.0574,0.0],[22.4607,-34.0513,0.0],[22.465699999999998,-34.0499,0.0],[22.4713,-34.051,2.522],[22.4715,-34.0496,2.522],[22.4735,-34.0496,0.0],[22.4851,-34.0526,0.0],[22.4879,-34.0471,29.4673],[22.4982,-34.0429,9.5813],[22.501,-34.0376,0.0],[22.5038,-34.0363,0.0],[22.5088,-34.0368,0.0],[22.5135,-34.0282,0.0],[22.5174,-34.0285,0.0],[22.521,-34.0257,1.8436],[22.5254,-34.0251,0.0],[22.5285,-34.0221,0.0],[22.5424,-34.0179,3.9778],[22.5443,-34.0137,0.0],[22.5582,-34.0021,0.0],[22.5565,-33.9979,7.9667],[22.5524,-33.9946,46.7989],[22.5613,-33.999,12.7265],[22.564,-33.9963,0.0],[22.5765,-33.9963,0.0],[22.5796,-33.9957,0.7418],[22.5818,-33.9929,14.5115],[22.5874,-33.9926,8.0657],[22.5929,-33.9943,0.0],[22.5849,-33.9935,4.5535],[22.5824,-33.9946,3.0507],[22.5829,-33.996,9.1925],[22.6632,-34.0074,15.5085],[22.7229,-34.0215,14.353],[22.7438,-34.0293,17.7195],[22.7601,-34.0335,5.6056],[22.7657,-34.0385,0.0],[22.7682,-34.0376,0.0],[22.7685,-34.036,0.0],[22.7657,-34.0349,0.0],[22.7651,-34.0315,0.0],[22.7704,-34.0274,35.8876],[22.7774,-34.0271,5.5252],[22.794,-34.0315,0.0],[22.8007,-34.0276,4.1429],[22.801,-34.0251,0.0],[22.7949,-34.0213,21.4946],[22.7946,-34.019,0.3604],[22.7965,-34.0171,0.3049],[22.7943,-34.0154,0.6111],[22.7915,-34.016,0.0],[22.789,-34.0196,8.4561],[22.7843,-34.0221,11.487],[22.7757,-34.0224,0.0],[22.7693,-34.0199,22.8442],[22.7646,-34.0132,0.1152],[22.7649,-34.0071,0.0876],[22.7682,-34.0071,0.2967],[22.7682,-34.0107,0.0805],[22.7704,-34.011,0.0],[22.7729,-34.0143,2.3768],[22.7724,-34.0179,5.7138],[22.7804,-34.0215,0.0],[22.7857,-34.0207,0.2192],[22.7907,-34.0151,0.0],[22.7965,-34.0151,0.1841],[22.7979,-34.0207,0.0],[22.8026,-34.024,3.6695],[22.8032,-34.0262,11.4345],[22.7962,-34.0324,0.0],[22.8082,-34.0371,0.0],[22.8146,-34.0379,21.5828],[22.8337,-34.046,0.0],[22.9149,-34.0646,0.0],[22.9493,-34.0765,0.0],[22.9468,-34.0746,0.0],[22.9465,-34.0701,2.0244],[22.9482,-34.0687,11.3171],[22.9496,-34.0749,0.4645],[22.9551,-34.0788,0.0],[22.9579,-34.0838,3.7104],[22.9568,-34.0857,0.0],[22.9596,-34.089,0.0],[22.9621,-34.0857,0.0],[22.9646,-34.0857,0.0],[22.9693,-34.0896,0.0],[22.9713,-34.089,0.0],[22.9804,-34.0946,0.0],[22.9799,-34.0907,0.0],[22.9746,-34.0854,0.0],[22.9771,-34.0804,0.0],[22.9813,-34.0765,1.7495],[22.989,-34.0735,3.4167],[23.0018,-34.0715,0.0],[23.0093,-34.0715,10.7327],[23.0254,-34.076,13.672],[23.0304,-34.0757,31.8491],[23.0343,-34.0771,10.2714],[23.0365,-34.0799,0.0],[23.041,-34.079,30.0542],[23.0413,-34.0826,0.0],[23.0429,-34.084,2.8776],[23.0554,-34.0854,0.0],[23.0596,-34.0824,0.0],[23.0557,-34.074,0.0],[23.0526,-34.0746,84.7041],[23.0485,-34.0676,0.0],[23.0404,-34.0635,10.6956],[23.0376,-34.0604,0.0],[23.0338,-34.0601,7.6765],[23.0318,-34.0535,0.0],[23.0338,-34.049,0.0],[23.0304,-34.0465,0.0],[23.0349,-34.0468,0.0],[23.0379,-34.049,0.0],[23.0393,-34.0465,0.0],[23.0368,-34.0446,0.0],[23.0321,-34.0446,0.0],[23.029,-34.0426,0.0],[23.0224,-34.0526,0.0],[23.0151,-34.0554,0.0],[23.0104,-34.0557,0.8103],[23.0065,-34.0537,0.0],[23.0026,-34.0546,40.2865],[23.0004,-34.0526,0.0],[23.0001,-34.0485,0.0],[23.0043,-34.0396,0.1326],[23.0004,-34.0382,0.0],[23.0018,-34.0363,0.0],[22.9979,-34.0324,0.0],[22.9979,-34.0299,0.0],[22.9951,-34.0329,0.0],[22.9924,-34.0326,0.0],[22.989,-34.0293,0.0],[22.9882,-34.0246,0.0],[22.9976,-34.0174,0.249],[23.0113,-34.0112,0.8834],[22.9946,-34.0201,4.6657],[22.9932,-34.0226,6.0236],[22.989,-34.0257,0.0],[22.9899,-34.0293,0.0],[22.9943,-34.0324,0.0],[22.9962,-34.0274,0.0],[23.0057,-34.0293,23.3022],[23.0138,-34.0399,0.0],[23.0096,-34.0449,0.0],[23.0143,-34.0438,0.0],[23.0199,-34.0382,0.0],[23.0313,-34.0365,0.0],[23.039,-34.0379,2.096],[23.044,-34.0435,0.0],[23.0515,-34.0438,0.0],[23.0546,-34.041,0.5469],[23.0643,-34.0401,0.6429],[23.0668,-34.0424,0.3096],[23.0671,-34.0479,0.4591],[23.0596,-34.0587,0.0],[23.0613,-34.0624,0.0],[23.0646,-34.0615,0.0],[23.0657,-34.0657,0.0],[23.0574,-34.064,1.1482],[23.0554,-34.0601,0.1454],[23.0524,-34.0621,1.3434],[23.0504,-34.061,0.0],[23.0499,-34.0635,1.0196],[23.0554,-34.0654,3.6919],[23.0565,-34.0685,1.0898],[23.0649,-34.0724,1.448],[23.0607,-34.0754,0.0],[23.0601,-34.0793,0.0],[23.0618,-34.0815,0.0],[23.0668,-34.0835,0.0],[23.0735,-34.0824,15.8085],[23.0851,-34.0849,0.9046],[23.0882,-34.0829,40.2177],[23.0987,-34.0818,0.0],[23.1007,-34.0801,0.9724],[23.109,-34.0824,8.6537],[23.1146,-34.0804,5.8744],[23.1235,-34.0812,15.7566],[23.129,-34.0788,2.5098],[23.1371,-34.0863,0.0],[23.1663,-34.0829,67.4461],[23.1682,-34.0835,22.5812],[23.1688,-34.0863,0.0],[23.1757,-34.0854,13.45],[23.1763,-34.0874,0.0],[23.1812,-34.0843,11.6266],[23.1893,-34.086,0.0],[23.1993,-34.0846,0.0],[23.201,-34.0868,0.0],[23.2087,-34.0865,0.0],[23.2104,-34.0893,4.3871],[23.2132,-34.0893,25.8024],[23.2138,-34.0907,1.0778],[23.2251,-34.0871,9.2956],[23.239,-34.0901,7.3259],[23.2415,-34.0929,17.1239],[23.2471,-34.0921,13.7782],[23.2496,-34.0946,0.0],[23.2579,-34.0918,11.2737],[23.2663,-34.0954,34.3513],[23.2679,-34.099,0.0],[23.2712,-34.1004,0.0],[23.2796,-34.0988,8.1281],[23.2849,-34.1018,0.0],[23.2929,-34.1001,51.3935],[23.2938,-34.1021,4.3008],[23.3046,-34.1015,1.2126],[23.3076,-34.1035,0.0],[23.3157,-34.1035,0.0],[23.3221,-34.0999,0.0],[23.3304,-34.1029,34.2216],[23.3363,-34.101,24.5817],[23.3424,-34.1021,0.0],[23.3457,-34.101,9.2082],[23.3521,-34.1057,1.3727],[23.3549,-34.1046,1.9956],[23.3571,-34.1065,0.1851],[23.3649,-34.1051,1.21],[23.3701,-34.1012,20.9805],[23.3826,-34.1021,0.9135],[23.3854,-34.1043,22.7043],[23.399,-34.1076,25.7091],[23.4054,-34.111,16.9319],[23.4112,-34.1093,15.8457],[23.4126,-34.1071,0.0],[23.4076,-34.1063,79.3579],[23.3979,-34.1004,0.0],[23.3826,-34.1004,11.7887],[23.3807,-34.0988,0.0],[23.3754,-34.0985,13.1115],[23.3712,-34.0868,0.0],[23.3718,-34.0771,0.0],[23.3785,-34.0618,1.1074],[23.381,-34.0607,1.826],[23.3796,-34.0601,1.826],[23.3768,-34.0621,4.7172],[23.374,-34.0615,2.6517],[23.3779,-34.0596,0.0],[23.3804,-34.0543,0.9066],[23.3771,-34.0512,0.0],[23.3796,-34.046,0.0],[23.3765,-34.049,0.0],[23.374,-34.049,4.3587],[23.3721,-34.0479,1.9329],[23.3721,-34.0457,3.4597],[23.376,-34.044,1.7146],[23.3854,-34.0326,0.4396],[23.3929,-34.0271,0.0],[23.3932,-34.0224,-0.027],[23.3913,-34.0201,4.0256],[23.3932,-34.0135,-0.0758],[23.3913,-34.0107,2.7006],[23.3949,-34.009,0.1865],[23.3937,-34.0207,0.2021],[23.3954,-34.021,0.2021],[23.4001,-33.9968,0.0],[23.401,-34.0024,0.0],[23.4035,-34.006,0.0],[23.404,-34.0135,3.0059],[23.3993,-34.0182,0.1256],[23.399,-34.0262,0.0],[23.3915,-34.0318,0.5785],[23.3868,-34.0387,1.4662],[23.394,-34.0324,2.1258],[23.3949,-34.0304,0.5118],[23.4138,-34.0182,2.2488],[23.449,-34.0051,4.4239],[23.4693,-34.0026,25.1875],[23.4718,-34.0035,0.0],[23.4726,-34.0024,10.4442],[23.4785,-34.0035,0.0],[23.4813,-34.0018,8.1719],[23.4857,-34.004,0.0],[23.4874,-34.0026,16.8876],[23.4935,-34.004,0.0],[23.5001,-34.0007,2.8776],[23.5149,-34.0021,0.0],[23.5165,-34.0004,9.727],[23.5187,-34.0032,0.0],[23.5196,-34.0018,0.0],[23.5232,-34.0024,0.0],[23.5254,-34.0004,0.0],[23.5285,-34.0004,0.0],[23.536,-33.9893,38.3681],[23.5379,-33.9907,9.0813],[23.5449,-33.9901,0.0],[23.5482,-33.989,0.0],[23.5468,-33.9879,2.4101],[23.5499,-33.9845,7.6109],[23.5668,-33.9813,0.0],[23.5626,-33.9751,0.0],[23.5643,-33.9726,9.6654],[23.5671,-33.9785,0.0],[23.5718,-33.9815,0.0],[23.576,-33.9821,0.0],[23.576,-33.9843,0.0],[23.5779,-33.9849,0.0],[23.590699999999998,-33.9837,9.2682],[23.6038,-33.9801,1.2944],[23.6107,-33.9813,0.0],[23.6157,-33.979,3.8877],[23.6185,-33.9813,0.0],[23.6296,-33.9815,0.0],[23.6346,-33.9832,0.0],[23.6469,-33.981,3.945],[23.6475,-33.9772,26.694],[23.6454,-33.9758,46.8546],[23.6474,-33.9727,49.2274],[23.6444,-33.9638,88.8365],[23.6459,-33.9624,39.9032],[23.6409,-33.9548,72.6825],[23.6377,-33.9552,74.1066],[23.6346,-33.952,89.6564],[23.636,-33.9433,123.0615],[23.6351,-33.94,120.3266],[23.6385,-33.9372,128.582],[23.637,-33.9347,116.6763],[23.6406,-33.9332,253.899],[23.6399,-33.931,218.707],[23.6432,-33.9319,164.1065],[23.6447,-33.9307,209.6139],[23.6439,-33.9275,198.4251],[23.64,-33.9242,262.2729],[23.6432,-33.9223,258.4451],[23.6428,-33.9198,276.7454],[23.6374,-33.913,261.991],[23.6399,-33.9097,275.2938],[23.6523,-33.9096,326.3776],[23.6568,-33.9069,285.8661],[23.6577,-33.9049,283.0818],[23.655,-33.9037,290.7705],[23.6569,-33.9022,317.4205],[23.6497,-33.8989,335.5349],[23.6476,-33.8967,365.1198],[23.6488,-33.8945,394.456],[23.6474,-33.8928,390.3791],[23.6516,-33.8927,371.5045],[23.6559,-33.8868,395.5769],[23.658,-33.8877,393.7539],[23.6666,-33.8847,420.1198],[23.6692,-33.8854,459.0551],[23.671,-33.8835,446.726],[23.683,-33.884,485.6746],[23.6881,-33.8789,593.9024],[23.6943,-33.868,963.8948],[23.7006,-33.8674,1336.0996],[23.7033,-33.8641,1559.9653],[23.6203,-33.8432,1361.8075],[23.6081,-33.8329,1245.543],[23.562,-33.8289,1192.7241],[23.554,-33.7964,953.5518],[23.5574,-33.7934,882.9922],[23.5188,-33.7821,891.1888],[23.5179,-33.7856,990.0314],[23.488,-33.7915,1146.9363],[23.4891,-33.8075,1397.4746],[23.4681,-33.8075,1305.2169],[23.4542,-33.8032,1441.7334],[23.4277,-33.7991,1433.801],[23.417,-33.7947,1483.1555],[23.395,-33.7926,1531.998],[23.4301,-33.7618,918.2767],[23.4399,-33.7174,674.1986],[23.4754,-33.7177,825.5453],[23.5413,-33.6995,934.3683],[23.5417,-33.683,917.9988],[23.5555,-33.673,866.9359],[23.5565,-33.6515,1490.1682],[23.5859,-33.6727,808.3015],[23.6288,-33.6693,1379.7428],[23.6704,-33.6726,1423.2118],[23.675,-33.6259,1639.1666],[23.6199,-33.5915,1605.3247],[23.6168,-33.5696,1267.3081],[23.5962,-33.5725,1219.0853],[23.6001,-33.5275,1082.5597],[23.6061,-33.5033,1130.0388],[23.604,-33.4964,1089.1108],[23.5786,-33.4857,1006.7021],[23.579,-33.4847,1017.985],[23.5142,-33.4627,1305.5309],[23.4956,-33.4434,1543.9846],[23.4676,-33.4481,1666.9607],[23.4233,-33.442,1531.4709],[23.3934,-33.4457,1446.6697],[23.3738,-33.4454,1298.709],[23.3549,-33.4412,1164.3185],[23.3641,-33.4618,946.7415],[23.318,-33.4065,797.1608],[23.2971,-33.3886,1412.838],[23.1954,-33.3862,1343.2812],[23.1348,-33.3876,1261.8893],[23.1129,-33.4008,712.7439],[23.0664,-33.4002,1342.2808],[22.9348,-33.4291,1329.7561],[22.8302,-33.4191,1582.573],[22.7744,-33.4197,1726.3988],[22.7145,-33.4149,1984.5919],[22.6643,-33.4157,1988.6711],[22.5818,-33.4047,1634.4359],[22.5157,-33.4097,2020.9987],[22.4647,-33.4045,2064.8093],[22.3913,-33.3641,1802.9731],[22.2887,-33.334,1808.4318],[22.214,-33.315,1742.0223],[22.1822,-33.3217,1860.6348],[22.1453,-33.3354,1811.8025],[22.0509,-33.3515,1585.5992],[22.0058,-33.3555,1869.7909],[21.9629,-33.3662,1922.8257],[21.9021,-33.365,1791.5322],[21.8569,-33.3824,1963.3855],[21.8272,-33.391,1920.9711],[21.7926,-33.3899,1833.4032],[21.7472,-33.3971,1659.1401],[21.7079,-33.3964,1539.4313],[21.68,-33.4048,1614.3022],[21.6119,-33.3968,989.0545],[21.5534,-33.4105,1832.2877],[21.5218,-33.4144,1800.6069],[21.5047,-33.4107,1883.8728],[21.4885,-33.4094,1727.166],[21.4331,-33.3942,1967.1173],[21.3677,-33.3982,2272.2886],[21.2064,-33.4217,2059.4609],[21.1657,-33.415,1834.4545],[21.1138,-33.4307,1684.2698],[21.0493,-33.4339,1384.8379],[21.0097,-33.4393,1113.9602],[20.9726,-33.4225,997.1027],[20.9218,-33.4306,1148.499],[20.762,-33.4908,1175.8048],[20.7236,-33.4972,1331.5739],[20.6566,-33.5046,1414.3733],[20.5476,-33.5195,1462.9585],[20.5494,-33.5287,949.8494],[20.5771,-33.5281,1025.8175],[20.5744,-33.5388,789.7614],[20.5032,-33.637,693.8564],[20.5816,-33.6221,714.933],[20.5862,-33.6672,645.4331],[20.6455,-33.6362,607.1833],[20.666,-33.622,607.9998],[20.7189,-33.6406,438.6609],[20.7378,-33.6592,417.0976],[20.7756,-33.6917,514.9557],[20.8072,-33.6898,442.0438],[20.8095,-33.6985,452.6268],[20.8003,-33.715,573.8123],[20.885,-33.7174,508.8414],[20.8799,-33.6926,467.5436],[20.9388,-33.6998,510.4133],[20.9341,-33.7246,368.9147],[20.965699999999998,-33.7426,337.9407],[20.9806,-33.7396,357.4497],[21.0103,-33.7566,378.6599],[20.9656,-33.8043,472.418],[20.9568,-33.8063,491.3712],[20.9361,-33.8792,505.5634],[20.9238,-33.8893,723.4695],[20.9524,-33.9018,736.7577],[20.9386,-33.925,1159.656],[20.934,-33.9476,1260.5889],[20.9364,-33.9612,734.9629],[20.9215,-33.9528,688.332],[20.8782,-33.964,391.8288],[20.8678,-33.955,970.8613],[20.8539,-33.9632,692.8312],[20.8456,-33.9628,520.3618],[20.8419,-33.9648,451.5645],[20.8411,-33.9732,318.6108],[20.8342,-33.9717,313.5569],[20.8331,-33.9675,344.9799],[20.8296,-33.9652,363.0356],[20.8267,-33.9658,354.0269],[20.8272,-33.9615,400.3475],[20.8195,-33.9469,714.8643],[20.8191,-33.9405,1105.1658],[20.8164,-33.9402,1131.3137],[20.8066,-33.9464,1056.1326],[20.7073,-33.9551,284.6491],[20.707,-33.9591,274.6819],[20.7021,-33.9609,260.4473],[20.7024,-33.9677,240.3571],[20.6947,-33.976,217.891],[20.6995,-33.9763,242.1187],[20.7008,-33.9782,252.1753],[20.7073,-33.9802,209.8418],[20.7064,-33.9826,205.9227],[20.7083,-33.9851,211.7473],[20.7052,-33.9902,163.0343],[20.7153,-33.9884,183.8048],[20.7178,-33.9865,195.1522],[20.729,-33.9884,375.5503],[20.7321,-33.9989,212.875],[20.7281,-34.0066,141.2294],[20.7296,-34.0181,231.7778],[20.7128,-34.0179,183.3616],[20.71,-34.0165,214.5824],[20.7119,-34.0123,155.0506],[20.7107,-34.0102,143.2189],[20.694,-34.0068,157.3792],[20.6999,-34.0397,328.1314],[20.7101,-34.0402,270.9495],[20.7227,-34.0368,228.1732],[20.7286,-34.0575,345.3617],[20.7476,-34.0667,360.3992],[20.7404,-34.0713,309.1942],[20.7543,-34.0973,197.414],[20.7335,-34.0933,279.6191],[20.7209,-34.0925,264.6657],[20.7032,-34.0881,230.1621],[20.7043,-34.0909,241.8576],[20.693,-34.1008,257.2285],[20.691,-34.0891,260.1469],[20.6873,-34.0874,248.1536],[20.6605,-34.089,288.0915],[20.6401,-34.086,216.1429],[20.6393,-34.0976,242.9863],[20.6474,-34.1092,177.6447],[20.6487,-34.1194,202.6023],[20.6475,-34.126,175.299],[20.6421,-34.1353,181.9007],[20.6562,-34.1448,218.5203],[20.6497,-34.1491,192.8581],[20.6453,-34.1755,100.5022],[20.6543,-34.1714,141.2826],[20.6649,-34.1885,154.0049],[20.6865,-34.1874,160.0477],[20.6969,-34.1843,172.595],[20.7189,-34.1955,194.529],[20.6996,-34.2132,223.8812],[20.6928,-34.2024,181.1488],[20.6528,-34.2236,154.1595],[20.6392,-34.2343,148.0071],[20.6377,-34.2429,170.6509],[20.5994,-34.2729,62.2325],[20.5747,-34.2834,30.3285],[20.5726,-34.283,26.0908],[20.5661,-34.2974,4.8213],[20.5663,-34.3037,1.9935],[20.5682,-34.3042,4.6324],[20.5732,-34.3014,15.6851],[20.5788,-34.2952,1.3541],[20.5831,-34.2947,3.5537],[20.5891,-34.298,34.6428],[20.5917,-34.3044,3.1477],[20.6049,-34.3048,0.4583],[20.6132,-34.3017,0.0],[20.6168,-34.3019,5.7997],[20.6223,-34.3133,0.0],[20.622,-34.3167,4.7048],[20.6201,-34.3183,4.4028],[20.6091,-34.3208,5.6607],[20.6046,-34.3245,20.4207],[20.6042,-34.3348,0.9348],[20.5969,-34.3465,0.7978],[20.5966,-34.3512,0.0],[20.6022,-34.3521,0.652],[20.6085,-34.3467,1.3248],[20.6256,-34.3437,0.4268],[20.632,-34.3468,12.4744],[20.6372,-34.3543,0.5129],[20.6433,-34.3555,0.3921],[20.648,-34.3547,2.2933],[20.6558,-34.3485,0.2912],[20.6688,-34.3498,0.0],[20.6861,-34.3466,0.0],[20.6875,-34.3475,0.0],[20.6875,-34.3541,0.0],[20.6907,-34.3587,0.0],[20.7066,-34.364,0.0],[20.7216,-34.379,0.0],[20.7346,-34.3875,0.0],[20.75,-34.392,0.0],[20.7666,-34.3946,0.0],[20.7925,-34.4062,0.0],[20.8008,-34.4082,0.0],[20.8105,-34.4028,0.0],[20.82,-34.4013,0.0],[20.85,-34.4034,0.0],[20.8538,-34.3976,4.4183],[20.8593,-34.3957,0.9673],[20.8804,-34.3812,13.2555],[20.8899,-34.3768,2.325],[20.9154,-34.3696,0.0],[20.9307,-34.3668,0.0],[20.9588,-34.3651,0.0],[21.0015,-34.3649,6.8015],[21.0007,-34.3615,0.0],[21.006,-34.361,0.9586],[21.0079,-34.3515,0.1134],[21.0018,-34.3496,41.3531],[21.0026,-34.349,2.5088],[21.0085,-34.351,0.0],[21.0082,-34.3601,0.0],[21.0063,-34.3632,5.0334],[21.0007,-34.3657,6.8015],[21.0012,-34.3682,0.0],[21.0029,-34.3662,17.3304],[21.0046,-34.3682,0.0],[21.0096,-34.3668,0.0],[21.0365,-34.3712,31.6198],[21.0471,-34.3701,3.9571],[21.1051,-34.3774,9.6664],[21.1146,-34.3804,0.0],[21.1293,-34.3821,13.7958],[21.1612,-34.3907,29.7735],[21.2043,-34.4049,11.1643],[21.2071,-34.4071,1.3511],[21.2076,-34.4113,0.0],[21.2138,-34.4118,0.1872],[21.2188,-34.4171,0.0],[21.2221,-34.416,4.9742],[21.2249,-34.4188,0.0],[21.2274,-34.4179,3.879],[21.2288,-34.419,0.0],[21.231,-34.4162,37.571],[21.2337,-34.4201,0.0],[21.2438,-34.4204,0.0],[21.2485,-34.4229,-0.065],[21.2543,-34.4235,0.0],[21.2588,-34.4265,0.0],[21.2618,-34.426,10.0901],[21.2729,-34.4315,0.0],[21.2796,-34.4304,2.3679],[21.2846,-34.436,0.0],[21.2899,-34.4385,0.0],[21.2971,-34.4382,0.0],[21.299,-34.4404,0.0],[21.3032,-34.441,0.0],[21.3051,-34.441,0.0],[21.3057,-34.4393,0.3023],[21.3146,-34.4396,0.0],[21.3146,-34.4343,14.4831],[21.3179,-34.4351,0.0],[21.3207,-34.434,0.0],[21.321,-34.4324,0.0],[21.3324,-34.4354,0.0],[21.3335,-34.434,3.9775],[21.3388,-34.434,0.0],[21.3379,-34.4285,0.0],[21.339,-34.4268,0.3621],[21.3429,-34.4285,0.0],[21.346,-34.4279,0.0],[21.3513,-34.4218,0.1105],[21.3565,-34.4204,0.0],[21.3604,-34.4199,0.0],[21.371,-34.4246,0.0],[21.3749,-34.4235,0.0],[21.3757,-34.4201,0.0],[21.3826,-34.411,9.7626],[21.3896,-34.4107,0.0],[21.3951,-34.4129,0.0],[21.4035,-34.4043,10.1374],[21.409,-34.4049,0.0],[21.4171,-34.3999,0.0],[21.4132,-34.3968,3.1744],[21.4163,-34.3924,0.0],[21.4246,-34.3907,8.444],[21.426,-34.3937,0.0],[21.4307,-34.3937,0.0],[21.4315,-34.3918,0.0],[21.4299,-34.389,0.3942],[21.4268,-34.3857,0.0],[21.4235,-34.3851,5.4567],[21.4221,-34.3804,10.6284]]],
[[[23.4015,-34.0149,0.0704],[23.4026,-34.0074,0.99],[23.4007,-34.0046,2.1769],[23.3971,-34.0149,0.0],[23.3982,-34.0168,0.0],[23.4015,-34.0149,0.0704]]],
[[[23.0343,-34.0521,0.0],[23.036,-34.0518,0.0],[23.0362,-34.0499,0.0],[23.0354,-34.0496,0.0],[23.0343,-34.0521,0.0]]],
[[[23.0651,-34.0426,0.0],[23.064,-34.041,0.0],[23.0593,-34.041,0.0],[23.0521,-34.0446,0.0],[23.0462,-34.0446,0.0],[23.0462,-34.0546,0.0],[23.0537,-34.0557,0.0],[23.0557,-34.0535,0.0],[23.061,-34.0521,0.0],[23.0657,-34.0457,0.0],[23.0651,-34.0426,0.0]]],
[[[22.7701,-34.0137,0.0],[22.7682,-34.0118,0.0],[22.7654,-34.0121,0.0],[22.7685,-34.0165,0.0],[22.7701,-34.0137,0.0]]]]}}