{"type":"Feature","properties":{"GID_3":"ZAF.4.9.1_1","GID_0":"ZAF","country":"SouthAfrica","GID_1":"ZAF.4_1","province":"KwaZulu-Natal","NL_NAME_1":"NA","GID_2":"ZAF.4.9_1","county":"Uthukela","NL_NAME_2":"NA","city":"Emnambithi/Ladysmith","VARNAME_3":"NA","NL_NAME_3":"NA","TYPE_3":"LocalMunicipality","ENGTYPE_3":"LocalMunicipality","CC_3":"KZN232","HASC_3":"NA","name":"Emnambithi_Ladysmith.city"},
"geometry":{"type": "MultiPolygon","coordinates": [[[[29.8851,-28.6723,852.4501],[29.8886,-28.6763,839.7367],[29.8903,-28.6815,878.5751],[29.8934,-28.6802,837.9269],[29.9064,-28.6834,846.5306],[29.9103,-28.6791,863.6742],[29.9144,-28.6783,832.5174],[29.9289,-28.6826,815.1094],[29.9316,-28.6806,844.4833],[29.9326,-28.6759,830.3242],[29.9345,-28.6741,838.875],[29.943,-28.6703,799.9564],[29.9579,-28.6727,788.0682],[29.9643,-28.6685,813.477],[29.9646,-28.6666,812.3794],[29.9625,-28.6646,782.9712],[29.9667,-28.6591,780.5825],[29.9674,-28.6516,775.3552],[29.9779,-28.645,769.7341],[29.9769,-28.6373,1047.5125],[29.9827,-28.5845,1059.7898],[29.9708,-28.5622,1141.2767],[29.9868,-28.5311,1115.188],[29.9988,-28.5227,1042.5057],[30.055,-28.4297,1137.2793],[30.0477,-28.4228,1115.3606],[29.9868,-28.3932,1123.062],[30.0105,-28.3857,1111.9674],[30.0316,-28.37,1203.332],[30.0377,-28.3654,1194.8145],[30.0352,-28.3571,1202.6315],[30.0409,-28.3573,1199.9304],[30.0415,-28.3561,1179.5681],[30.0453,-28.3576,1173.9812],[30.0467,-28.3559,1151.0927],[30.0567,-28.3621,1193.9143],[30.0703,-28.3565,1218.4827],[30.0755,-28.3578,1124.0138],[30.0786,-28.3508,1110.1096],[30.0786,-28.3493,1108.5382],[30.0715,-28.352,1207.4376],[30.0737,-28.345,1180.3229],[30.067,-28.3278,1226.6611],[30.0654,-28.3051,1184.7811],[30.0357,-28.2725,1214.7205],[29.9912,-28.2531,1281.0198],[29.9768,-28.2396,1290.7109],[29.9859,-28.2204,1462.9258],[29.9781,-28.2065,1516.2765],[29.9904,-28.1849,1631.1421],[29.9371,-28.1445,1660.3058],[29.941,-28.1315,1603.7898],[29.9375,-28.0997,1301.1265],[29.9381,-28.0745,1278.9281],[29.9258,-28.0759,1310.9811],[29.926,-28.0776,1306.1849],[29.9209,-28.078,1298.1232],[29.9146,-28.0828,1301.7188],[29.9003,-28.0846,1354.0037],[29.9007,-28.098,1358.9419],[29.8824,-28.1192,1435.4611],[29.8514,-28.1074,1569.1892],[29.8461,-28.0906,1483.5674],[29.8158,-28.0988,1490.1782],[29.7968,-28.1014,1606.16],[29.7883,-28.0984,1524.5223],[29.7746,-28.1427,1563.6595],[29.765,-28.1583,1581.3846],[29.7398,-28.1411,1698.6306],[29.7415,-28.1366,1655.1837],[29.7387,-28.131,1515.3243],[29.7276,-28.1257,1676.8755],[29.6851,-28.1218,1512.2224],[29.6845,-28.1282,1727.9834],[29.677,-28.1283,1755.6487],[29.6695,-28.1345,1695.0773],[29.6709,-28.1387,1745.9713],[29.6633,-28.142,1892.2695],[29.6628,-28.1772,1830.0269],[29.6263,-28.1857,1918.9664],[29.6096,-28.215,1831.6213],[29.6244,-28.225,1860.8154],[29.6198,-28.2412,1784.822],[29.5587,-28.2583,1758.4203],[29.5506,-28.2472,1740.406],[29.5099,-28.2654,1720.2786],[29.4829,-28.2722,1700.1167],[29.4793,-28.2907,1743.3143],[29.4587,-28.3104,1842.1471],[29.4376,-28.3211,1823.1554],[29.4381,-28.3321,1871.9723],[29.4277,-28.3393,1788.8467],[29.4143,-28.3759,1835.8569],[29.3756,-28.3721,1686.089],[29.4383,-28.4231,1371.0693],[29.4854,-28.4027,1321.8137],[29.5093,-28.4412,1237.0894],[29.5358,-28.4795,1137.575],[29.5195,-28.4718,1095.1816],[29.4903,-28.4898,1301.7592],[29.4919,-28.5288,1318.0652],[29.5362,-28.5691,1290.2058],[29.5478,-28.5683,1317.783],[29.5656,-28.5708,1332.5444],[29.5867,-28.5567,1231.7703],[29.6104,-28.5329,1069.7729],[29.6479,-28.5458,1050.6656],[29.6639,-28.5578,1042.6252],[29.6636,-28.559,1044.665],[29.67,-28.5623,1044.1725],[29.6345,-28.5909,1134.0452],[29.6509,-28.6093,1128.4846],[29.6452,-28.6099,1084.1484],[29.6425,-28.613,1089.0061],[29.6344,-28.6109,1095.5741],[29.617,-28.6126,1102.9482],[29.5895,-28.6335,1139.9336],[29.5788,-28.6396,1147.9585],[29.5961,-28.6474,1134.4982],[29.5674,-28.6654,1023.5267],[29.5717,-28.6693,1025.594],[29.5719,-28.6715,1024.9863],[29.5699,-28.6746,1034.4714],[29.5633,-28.6744,1026.6432],[29.5595,-28.6775,1034.0551],[29.5557,-28.689,1020.7281],[29.5566,-28.6908,1023.3629],[29.56,-28.6909,1023.0244],[29.566,-28.6863,1022.8033],[29.5727,-28.6846,1023.5549],[29.5782,-28.6891,1020.9619],[29.5872,-28.6896,1024.0532],[29.5878,-28.696,1023.7451],[29.5898,-28.6975,1019.4883],[29.596,-28.6961,1019.2134],[29.6011,-28.6894,1016.0226],[29.5989,-28.6866,1019.5358],[29.5897,-28.6822,1019.5642],[29.59,-28.6802,1020.0887],[29.5997,-28.671,1016.0776],[29.6052,-28.6597,1017.1979],[29.6155,-28.666,1016.3514],[29.6124,-28.6745,1017.4224],[29.6036,-28.6729,1036.2874],[29.6046,-28.6796,1011.5739],[29.6077,-28.6817,1015.3097],[29.6186,-28.6807,1014.895],[29.6209,-28.6835,1010.7465],[29.6176,-28.692,1012.7144],[29.6196,-28.6961,1008.8629],[29.6262,-28.6997,1007.3644],[29.6231,-28.703,1008.147],[29.626,-28.707,1009.1708],[29.6248,-28.7091,1010.0665],[29.6205,-28.7072,1008.2616],[29.61,-28.7091,1008.3584],[29.6072,-28.7123,1003.7864],[29.6071,-28.7168,1006.7601],[29.6112,-28.7179,1010.4598],[29.6152,-28.7125,1005.5912],[29.6202,-28.7122,1006.5372],[29.6317,-28.7203,1003.5763],[29.6382,-28.7225,1003.2787],[29.6371,-28.7236,1001.5146],[29.6385,-28.7279,1011.3824],[29.6427,-28.7322,998.3956],[29.6444,-28.7371,1004.4518],[29.6555,-28.7486,972.6069],[29.6476,-28.7523,968.2335],[29.6455,-28.7547,970.2009],[29.6468,-28.7561,970.2009],[29.6563,-28.7546,972.1241],[29.6632,-28.7573,966.3752],[29.6713,-28.7464,962.894],[29.6812,-28.7475,965.3969],[29.691,-28.7442,964.6279],[29.6969,-28.7452,965.2448],[29.7126,-28.7386,963.8974],[29.7153,-28.7392,961.4608],[29.7184,-28.7441,963.3176],[29.7271,-28.7438,963.7733],[29.734,-28.7475,961.22],[29.7419,-28.7431,961.2579],[29.7376,-28.7354,965.0244],[29.7383,-28.7335,963.3642],[29.7457,-28.7372,962.5999],[29.7566,-28.7353,959.9201],[29.7591,-28.7385,961.1899],[29.7623,-28.7377,961.225],[29.7888,-28.7405,960.2299],[29.7899,-28.7374,958.2755],[29.7815,-28.7302,956.3241],[29.7833,-28.7278,958.8027],[29.7968,-28.7326,957.0884],[29.802,-28.738,954.1196],[29.8033,-28.7426,955.0695],[29.8137,-28.744,953.3552],[29.8184,-28.7421,953.3054],[29.8193,-28.7433,955.0931],[29.8169,-28.7441,955.7369],[29.8171,-28.7532,978.9098],[29.8159,-28.7535,978.9098],[29.8231,-28.7706,978.6437],[29.8349,-28.7624,977.7976],[29.8371,-28.7658,985.9084],[29.8483,-28.7612,985.5923],[29.8396,-28.7592,985.7412],[29.8479,-28.7439,983.3036],[29.8444,-28.7306,947.6964],[29.8459,-28.7273,945.3799],[29.8363,-28.7219,945.0988],[29.8366,-28.7144,946.9812],[29.829,-28.7059,940.5607],[29.8291,-28.6986,931.1618],[29.834,-28.6962,934.7778],[29.8413,-28.6979,923.8208],[29.8482,-28.6948,918.5886],[29.8604,-28.6781,889.8184],[29.8647,-28.6772,888.0301],[29.8707,-28.6801,887.7571],[29.8757,-28.6726,882.1309],[29.8794,-28.6698,869.8342],[29.8816,-28.6695,925.7244],[29.8851,-28.6723,852.4501]]]]}}