{"type": "Feature","bbox": [26.1413,-30.6939,27.4101,-29.5688],"geometry": {"type": "MultiPolygon","coordinates": [[[[26.994,-30.0973,1428.2246],[26.9913,-30.1119,1494.7863],[26.9641,-30.1072,1793.8739],[26.9468,-30.1086,1971.0785],[26.8534,-30.051,1494.9237],[26.8152,-30.0304,1363.7024],[26.8192,-30.0229,1363.3478],[26.8248,-30.0249,1360.2848],[26.8358,-30.0222,1359.0897],[26.8615,-30.0239,1360.6461],[26.8707,-30.0104,1361.9716],[26.8707,-30.0037,1362.0265],[26.8682,-30.0016,1364.8163],[26.8636,-30.0059,1365.6957],[26.8568,-30.0064,1371.3191],[26.8543,-30.0019,1368.6528],[26.8594,-29.9979,1370.2289],[26.8659,-29.9966,1371.6111],[26.869,-29.9937,1403.5281],[26.8691,-29.9887,1405.0115],[26.861,-29.9891,1472.3218],[26.8465,-29.9822,1533.3777],[26.8469,-29.9793,1569.7645],[26.8239,-29.9647,1526.5676],[26.8017,-29.9836,1402.8937],[26.8002,-29.9823,1403.1096],[26.8049,-29.9762,1407.6426],[26.8046,-29.9708,1411.2432],[26.8072,-29.9674,1413.1099],[26.8065,-29.9585,1417.2039],[26.8174,-29.9456,1494.439],[26.8128,-29.9337,1547.022],[26.7964,-29.9193,1515.8892],[26.8038,-29.9146,1516.9869],[26.8056,-29.9057,1500.8528],[26.7952,-29.8961,1523.8608],[26.7998,-29.8932,1544.1035],[26.8011,-29.8887,1590.757],[26.7842,-29.882,1523.9926],[26.7652,-29.8846,1528.7297],[26.7333,-29.8422,1613.3707],[26.7566,-29.806,1557.8142],[26.7701,-29.7537,1532.2778],[26.7767,-29.7417,1492.2131],[26.7803,-29.739,1487.4236],[26.754,-29.7179,1518.2673],[26.7493,-29.6993,1533.7192],[26.738,-29.7012,1491.5],[26.737,-29.7051,1490.1119],[26.7381,-29.7081,1487.4548],[26.735,-29.7061,1496.3616],[26.7286,-29.7059,1507.8921],[26.7185,-29.7121,1495.6252],[26.7155,-29.7112,1498.0909],[26.7092,-29.6847,1541.5737],[26.7061,-29.6858,1541.4122],[26.7054,-29.6909,1558.5399],[26.6826,-29.702,1522.0481],[26.6832,-29.7039,1518.4536],[26.6602,-29.7268,1545.5305],[26.6584,-29.7154,1529.3564],[26.6442,-29.7185,1528.9072],[26.6423,-29.7154,1528.2113],[26.6383,-29.7139,1539.6278],[26.6364,-29.7004,1565.266],[26.6197,-29.7018,1581.2852],[26.6338,-29.6564,1623.865],[26.6362,-29.6571,1611.0839],[26.6544,-29.6403,1578.2006],[26.6602,-29.6299,1577.7159],[26.6551,-29.6228,1593.4658],[26.627,-29.6345,1636.6434],[26.5621,-29.6479,1609.3025],[26.5577,-29.6569,1598.7559],[26.5455,-29.6484,1586.3104],[26.5454,-29.6471,1581.6583],[26.5545,-29.6411,1605.0979],[26.5425,-29.6302,1586.2101],[26.5502,-29.6272,1576.2407],[26.5531,-29.6082,1543.1312],[26.5523,-29.6038,1542.1049],[26.5487,-29.6016,1534.8657],[26.5554,-29.5774,1577.2579],[26.5511,-29.5718,1591.2737],[26.5246,-29.5727,1599.0803],[26.5105,-29.5688,1561.5547],[26.4999,-29.5922,1515.0964],[26.4916,-29.5972,1524.9125],[26.4848,-29.5814,1508.4012],[26.4752,-29.5816,1500.6641],[26.4746,-29.5758,1497.6617],[26.4686,-29.5764,1503.8265],[26.4691,-29.581,1504.2944],[26.4542,-29.5848,1523.626],[26.4201,-29.5727,1507.2517],[26.4007,-29.5851,1541.8997],[26.3882,-29.6173,1574.3489],[26.3823,-29.6161,1555.3879],[26.3811,-29.6206,1570.2163],[26.4243,-29.6612,1564.4685],[26.4237,-29.6936,1614.7913],[26.4096,-29.6934,1626.7041],[26.3986,-29.701,1752.8126],[26.3922,-29.7227,1752.0537],[26.394,-29.7227,1729.3245],[26.386,-29.7416,1679.8607],[26.3814,-29.7414,1646.0469],[26.3752,-29.7464,1612.4072],[26.3704,-29.7471,1690.571],[26.3669,-29.7498,1650.499],[26.3643,-29.7557,1620.8396],[26.3491,-29.7605,1698.7642],[26.3378,-29.7759,1606.0188],[26.3291,-29.7754,1634.2493],[26.3107,-29.7784,1641.0206],[26.3106,-29.7807,1638.1265],[26.3065,-29.7857,1588.9463],[26.3095,-29.7903,1577.7385],[26.3135,-29.7907,1606.3127],[26.3162,-29.7932,1595.4537],[26.3157,-29.8007,1622.2476],[26.2926,-29.817,1434.2371],[26.2503,-29.8344,1482.666],[26.2418,-29.8222,1493.4182],[26.2295,-29.8215,1407.3584],[26.2272,-29.8196,1407.2389],[26.1956,-29.8394,1429.4607],[26.1965,-29.8472,1422.6333],[26.1855,-29.8531,1392.5166],[26.187,-29.8596,1396.4705],[26.1976,-29.8575,1422.1388],[26.2238,-29.8665,1457.6929],[26.2525,-29.8796,1566.6088],[26.2494,-29.8813,1560.7834],[26.2474,-29.8855,1564.7119],[26.2497,-29.8872,1554.1429],[26.2427,-29.8892,1510.0332],[26.2422,-29.8919,1542.1475],[26.2389,-29.8941,1564.4763],[26.237,-29.908,1561.1431],[26.2339,-29.9087,1563.1727],[26.2302,-29.9145,1543.4258],[26.2153,-29.9199,1458.1589],[26.212,-29.9245,1532.6682],[26.2045,-29.9263,1552.5764],[26.2019,-29.9295,1546.5109],[26.1988,-29.928,1519.0364],[26.1914,-29.9388,1470.6289],[26.209,-29.9549,1475.3501],[26.2083,-29.9603,1466.2531],[26.211,-29.9614,1470.9673],[26.2193,-29.9713,1492.2465],[26.2299,-29.9713,1517.5109],[26.2439,-30.0025,1577.9731],[26.2527,-30.0162,1550.0992],[26.2541,-30.0257,1546.1102],[26.2602,-30.0357,1551.666],[26.2555,-30.0445,1556.5017],[26.2591,-30.0447,1552.4348],[26.2549,-30.0575,1543.925],[26.2566,-30.0581,1547.7509],[26.246,-30.0745,1537.4099],[26.2421,-30.0759,1531.8458],[26.2422,-30.0786,1526.3516],[26.2374,-30.082,1525.1243],[26.2329,-30.0829,1523.6724],[26.2291,-30.0864,1520.1394],[26.225,-30.0804,1527.1008],[26.2128,-30.0901,1510.4518],[26.2031,-30.0863,1522.9655],[26.2007,-30.0903,1554.485],[26.1971,-30.0917,1540.4463],[26.1957,-30.0948,1533.7037],[26.1871,-30.1009,1518.5723],[26.1861,-30.1085,1496.5844],[26.1552,-30.1364,1480.6313],[26.1507,-30.1417,1489.4501],[26.1494,-30.1477,1480.6284],[26.1446,-30.1503,1462.7585],[26.1581,-30.1534,1502.7596],[26.1448,-30.1663,1494.9144],[26.1413,-30.1752,1491.01],[26.148,-30.1793,1476.3469],[26.1595,-30.2119,1410.4355],[26.1661,-30.245,1424.5498],[26.1671,-30.2723,1463.2034],[26.1539,-30.2757,1453.3146],[26.158,-30.2791,1443.5114],[26.1537,-30.2876,1443.7815],[26.1518,-30.2963,1439.3287],[26.144,-30.3024,1433.9888],[26.1444,-30.3065,1405.1412],[26.143,-30.3078,1405.1412],[26.1534,-30.32,1381.246],[26.165,-30.3261,1377.0183],[26.183,-30.3296,1354.2566],[26.1816,-30.3338,1353.3267],[26.2022,-30.3349,1392.8359],[26.2144,-30.3434,1413.5112],[26.2232,-30.3655,1467.7632],[26.2406,-30.3711,1412.9441],[26.255,-30.3872,1430.0842],[26.259,-30.4264,1507.7745],[26.2603,-30.4285,1491.8173],[26.2714,-30.4368,1379.6382],[26.277,-30.4373,1264.3524],[26.2789,-30.4453,1266.8821],[26.2772,-30.452,1269.5708],[26.2791,-30.4535,1303.1163],[26.2852,-30.454,1330.4445],[26.2948,-30.4752,1503.7747],[26.3236,-30.5024,1363.5303],[26.3002,-30.5397,1426.0862],[26.2845,-30.5518,1431.679],[26.281,-30.58,1267.7723],[26.2768,-30.5855,1264.0],[26.2798,-30.5894,1265.811],[26.291,-30.5918,1264.5],[26.3092,-30.584,1266.395],[26.3164,-30.5825,1269.0974],[26.344,-30.5937,1266.5],[26.3549,-30.5951,1267.0],[26.3613,-30.5931,1269.7302],[26.3719,-30.5818,1268.0],[26.3897,-30.5815,1272.0786],[26.3956,-30.5778,1270.1667],[26.4016,-30.5716,1269.0],[26.4179,-30.5664,1270.8203],[26.4293,-30.5655,1269.5],[26.4491,-30.5693,1275.5994],[26.4606,-30.5783,1273.0],[26.4789,-30.5893,1277.5012],[26.4873,-30.5916,1277.0],[26.4894,-30.5938,1278.0433],[26.49,-30.6,1280.4987],[26.4857,-30.6131,1278.0],[26.4807,-30.6213,1278.0],[26.4809,-30.6271,1279.6045],[26.4834,-30.6296,1281.6807],[26.5042,-30.6318,1282.6294],[26.5105,-30.636,1279.0],[26.5217,-30.6402,1279.5],[26.5512,-30.6618,1285.2954],[26.5579,-30.6641,1281.9305],[26.5755,-30.6667,1284.9445],[26.5909,-30.6626,1287.5002],[26.6077,-30.664,1283.6316],[26.629,-30.6617,1286.3103],[26.6365,-30.6728,1286.7883],[26.6278,-30.6782,1286.5648],[26.6249,-30.6832,1285.5],[26.6253,-30.6912,1288.9866],[26.6294,-30.6939,1286.0],[26.6396,-30.6936,1290.2512],[26.6535,-30.6901,1291.6736],[26.6608,-30.6853,1287.5],[26.6698,-30.6706,1288.0],[26.6753,-30.6675,1297.4681],[26.6773,-30.6682,1288.5],[26.6807,-30.6784,1289.0],[26.6857,-30.686,1289.5],[26.6932,-30.6879,1293.6521],[26.7031,-30.6869,1294.7739],[26.7091,-30.684,1290.5],[26.7257,-30.6664,1296.0437],[26.7366,-30.6646,1297.5293],[26.7519,-30.6661,1296.7202],[26.762,-30.658,1301.5779],[26.7687,-30.6555,1295.4838],[26.7761,-30.6484,1296.0474],[26.8053,-30.6394,1301.7092],[26.8141,-30.6427,1297.8734],[26.8283,-30.6596,1298.4178],[26.8388,-30.6694,1301.2291],[26.8443,-30.6826,1302.751],[26.8543,-30.6848,1305.616],[26.8669,-30.6834,1302.5399],[26.8735,-30.6808,1299.5],[26.8767,-30.6771,1304.0908],[26.8758,-30.6649,1302.744],[26.8787,-30.6596,1302.5035],[26.8862,-30.6595,1312.3276],[26.8962,-30.6671,1302.678],[26.903,-30.6689,1302.3389],[26.9181,-30.6651,1303.8582],[26.9346,-30.6651,1308.1891],[26.9488,-30.6586,1307.5752],[26.9493,-30.6529,1328.3921],[26.9301,-30.6276,1310.4047],[26.9293,-30.6245,1318.7273],[26.933,-30.619,1308.8916],[26.9398,-30.6174,1305.5],[26.9479,-30.6076,1306.0],[26.9794,-30.5979,1346.0923],[27.0005,-30.5946,1319.8932],[27.0056,-30.5957,1313.3096],[27.0103,-30.6041,1313.594],[27.0138,-30.6064,1348.3195],[27.0279,-30.6046,1387.0732],[27.0344,-30.5999,1328.1915],[27.0426,-30.5876,1326.7373],[27.0415,-30.5815,1338.5303],[27.0392,-30.5791,1325.5033],[27.0265,-30.5786,1311.0],[27.0178,-30.5613,1315.7932],[27.0054,-30.5579,1327.2695],[27.0012,-30.5545,1335.8849],[26.9981,-30.5487,1358.2925],[27.0048,-30.5377,1321.99],[27.0129,-30.5363,1329.8176],[27.0226,-30.5375,1318.0],[27.026,-30.5344,1328.2997],[27.0349,-30.5374,1327.9856],[27.0427,-30.537,1324.5311],[27.065,-30.5297,1351.6858],[27.0853,-30.528,1335.2734],[27.089,-30.5305,1325.4667],[27.0871,-30.5393,1381.0293],[27.0913,-30.5477,1349.2969],[27.0963,-30.5536,1328.0645],[27.1061,-30.5583,1343.0062],[27.1135,-30.5534,1327.4409],[27.1213,-30.5409,1357.4536],[27.1327,-30.538,1374.5017],[27.138,-30.5322,1356.1948],[27.1349,-30.5238,1345.5565],[27.1272,-30.5153,1329.0106],[27.1282,-30.5118,1354.4253],[27.1305,-30.5102,1352.0099],[27.1395,-30.5097,1339.0719],[27.1611,-30.5142,1338.1021],[27.1697,-30.5123,1340.0223],[27.1763,-30.52,1335.2168],[27.1864,-30.5246,1354.1848],[27.206,-30.5074,1340.933],[27.2057,-30.5006,1342.9148],[27.2095,-30.4935,1337.5],[27.2099,-30.489,1363.7621],[27.2128,-30.487,1338.0],[27.2153,-30.4876,1343.6753],[27.219,-30.4923,1369.3077],[27.2183,-30.5054,1367.5381],[27.2197,-30.5086,1338.5],[27.2215,-30.5104,1339.7583],[27.2297,-30.5096,1358.6482],[27.2295,-30.4992,1342.2537],[27.2336,-30.4933,1342.6813],[27.2332,-30.4848,1347.4995],[27.2395,-30.4806,1344.0166],[27.2456,-30.4818,1347.5828],[27.2481,-30.4868,1349.1985],[27.2482,-30.4953,1341.5],[27.2511,-30.5025,1346.1621],[27.2621,-30.5037,1357.72],[27.2665,-30.5063,1350.4675],[27.2747,-30.5023,1349.4894],[27.2833,-30.5031,1353.6425],[27.2902,-30.5103,1348.6819],[27.2975,-30.5122,1352.641],[27.3007,-30.5088,1351.8584],[27.3012,-30.5016,1381.9399],[27.2984,-30.4946,1356.3622],[27.3064,-30.4906,1361.2651],[27.3243,-30.4877,1352.4912],[27.3284,-30.4834,1350.5217],[27.3261,-30.4783,1363.6296],[27.3211,-30.4756,1366.0071],[27.3148,-30.469,1357.1781],[27.299,-30.4639,1363.1968],[27.2959,-30.4616,1382.3746],[27.2935,-30.4552,1360.4697],[27.3006,-30.4437,1363.6531],[27.3049,-30.4413,1375.7324],[27.3111,-30.4411,1375.9722],[27.3235,-30.4468,1381.8285],[27.3396,-30.4506,1369.4969],[27.3479,-30.4492,1380.3021],[27.3556,-30.4431,1370.0778],[27.3687,-30.437,1359.0],[27.3684,-30.4334,1365.7657],[27.3615,-30.4253,1366.9875],[27.340699999999998,-30.431,1384.3667],[27.3338,-30.4294,1390.1173],[27.3242,-30.4232,1378.9935],[27.3236,-30.4177,1420.7589],[27.3319,-30.4157,1390.1002],[27.3346,-30.4121,1384.7025],[27.3391,-30.4035,1372.7058],[27.3389,-30.3983,1369.6497],[27.3446,-30.3973,1377.9177],[27.3522,-30.4011,1372.55],[27.366,-30.403,1388.1628],[27.3734,-30.4053,1376.5439],[27.3769,-30.4088,1381.0544],[27.3809,-30.4064,1374.5969],[27.3832,-30.4013,1383.009],[27.3991,-30.3951,1378.9192],[27.404,-30.3909,1397.7358],[27.4018,-30.385,1409.4336],[27.4029,-30.3804,1385.7799],[27.3959,-30.3703,1383.4436],[27.3967,-30.3611,1396.0485],[27.3914,-30.3575,1380.9332],[27.3834,-30.3583,1378.8518],[27.3799,-30.3619,1382.8982],[27.3787,-30.3745,1375.0],[27.3721,-30.3745,1378.1232],[27.3683,-30.3709,1375.5],[27.3629,-30.3552,1383.5936],[27.367,-30.3452,1417.2329],[27.3664,-30.3387,1377.6638],[27.3583,-30.3358,1380.0575],[27.3534,-30.3359,1378.0],[27.3489,-30.3324,1379.0],[27.3489,-30.3308,1381.9226],[27.3627,-30.3237,1381.0],[27.3773,-30.3271,1385.0956],[27.3773,-30.3248,1397.8057],[27.3841,-30.3199,1391.0549],[27.3865,-30.3239,1388.7333],[27.3883,-30.3238,1393.4915],[27.3909,-30.3222,1391.1838],[27.3919,-30.3192,1394.0404],[27.3856,-30.3123,1405.6216],[27.3857,-30.3099,1406.1149],[27.3883,-30.3082,1396.2097],[27.3925,-30.3103,1395.8975],[27.3952,-30.3098,1408.705],[27.3934,-30.3036,1396.6855],[27.3835,-30.3043,1396.4089],[27.3799,-30.3002,1393.988],[27.3892,-30.2934,1396.9717],[27.385,-30.2894,1408.2455],[27.3893,-30.2855,1399.5007],[27.3893,-30.2835,1401.3373],[27.3874,-30.2817,1405.0342],[27.3827,-30.2823,1401.9011],[27.3798,-30.2742,1410.152],[27.3773,-30.2761,1400.2919],[27.3766,-30.2797,1401.631],[27.3738,-30.2806,1400.4697],[27.3693,-30.279,1405.6296],[27.367,-30.274,1410.4091],[27.3708,-30.2672,1399.8109],[27.3658,-30.2591,1404.0841],[27.3706,-30.2486,1404.2209],[27.3666,-30.2372,1420.4738],[27.3701,-30.2274,1415.2],[27.3654,-30.218,1410.8917],[27.3678,-30.2133,1414.4996],[27.3729,-30.2086,1413.1375],[27.3748,-30.2033,1415.7599],[27.3753,-30.1984,1409.7831],[27.3712,-30.1977,1414.2346],[27.3683,-30.1938,1409.4033],[27.3686,-30.1911,1412.5836],[27.3721,-30.1901,1412.3071],[27.3822,-30.1948,1415.91],[27.3862,-30.1933,1430.5042],[27.3862,-30.1826,1422.5735],[27.3811,-30.1808,1415.7086],[27.381,-30.1775,1416.9828],[27.3895,-30.178,1416.2656],[27.3916,-30.1761,1420.7661],[27.3923,-30.167,1416.7167],[27.4017,-30.1637,1417.578],[27.4014,-30.1584,1425.239],[27.409,-30.1557,1420.7013],[27.4101,-30.1521,1422.9604],[27.4045,-30.1498,1418.6416],[27.4073,-30.1445,1420.624],[27.4021,-30.1391,1429.5541],[27.39,-30.1434,1483.8931],[27.3411,-30.146,1596.637],[27.336,-30.1478,1640.0593],[27.3269,-30.1481,1686.9133],[27.323,-30.1399,1769.0963],[27.2965,-30.0561,1842.1208],[27.2909,-30.0503,1879.8085],[27.2685,-30.043,1845.6139],[27.2654,-30.0332,1934.5924],[27.2695,-30.026,1967.2493],[27.2539,-30.0261,1930.4525],[27.2347,-30.0083,1886.0607],[27.2189,-30.01,1911.6077],[27.2241,-30.0058,1862.7614],[27.2229,-29.9968,1755.8762],[27.2164,-29.983,2025.3311],[27.192,-29.9981,1800.031],[27.1632,-30.0022,1623.0005],[27.1522,-30.0261,1543.6892],[27.1474,-30.0255,1542.0544],[27.1303,-30.0093,1523.354],[27.0919,-30.0268,1557.4486],[27.122,-30.0368,1534.2589],[27.0898,-30.0534,1515.4388],[27.0654,-30.0758,1524.6154],[27.0666,-30.0826,1571.0096],[27.0232,-30.0813,1549.8196],[26.9989,-30.07,1635.9043],[26.994,-30.0973,1428.2246]]]]}
,"properties": {"GID_3": "ZAF.2.5.3_1","GID_0": "ZAF","country": "SouthAfrica","GID_1": "ZAF.2_1","province": "FreeState","NL_NAME_1": "NA","GID_2": "ZAF.2.5_1","county": "Xhariep","NL_NAME_2": "NA","city": "Mohokare","VARNAME_3": "NA","NL_NAME_3": "NA","TYPE_3": "LocalMunicipality","ENGTYPE_3": "LocalMunicipality","CC_3": "FS163","HASC_3": "NA","name": "Mohokare.city","area_km2": 8785.131,"hist_schema_id": "Elevation0-9000","hist_area_km2": {"1275": 38.091,"1300": 132.848,"1325": 221.022,"1350": 362.4,"1375": 433.431,"1400": 470.25,"1425": 562.052,"1450": 636.483,"1475": 729.203,"1500": 859.315,"1525": 961.905,"1550": 949.47,"1575": 849.572,"1600": 676.507,"1625": 410.705,"1650": 206.135,"1675": 90.308,"1700": 50.876,"1725": 34.451,"1750": 22.399,"1775": 19.665,"1800": 14.411,"1825": 10.419,"1850": 9.448,"1875": 7.948,"1900": 5.549,"1925": 4.065,"1950": 4.67,"1975": 3.222,"2000": 2.984,"2025": 2.087,"2050": 2.032,"2075": 0.714,"2100": 0.201,"2125": 0.146,"2150": 0.11}}}