{"type": "Feature","bbox": [19.0577,-33.624,20.4386,-32.1845],"geometry": {"type": "MultiPolygon","coordinates": [[[[19.3685,-33.6221,222.5071],[19.3786,-33.6191,255.7593],[19.3776,-33.5905,524.3557],[19.3672,-33.5678,1454.373],[19.3954,-33.5574,1738.9814],[19.4053,-33.4805,2034.895],[19.4732,-33.4617,1959.7034],[19.5209,-33.4374,1649.6107],[19.5379,-33.4264,1694.8191],[19.5497,-33.3953,1396.0446],[19.5671,-33.382,1345.6301],[19.5807,-33.3645,932.0],[19.6687,-33.3819,2140.7007],[19.7545,-33.3726,1001.1921],[19.7884,-33.3768,1286.7246],[19.8199,-33.3769,1071.9468],[19.8298,-33.381,941.0895],[19.8306,-33.3794,960.7816],[19.8753,-33.3714,1237.5769],[19.9085,-33.3627,1008.9793],[19.9344,-33.348,820.3155],[19.9554,-33.3177,1089.5033],[19.972,-33.3168,1169.6531],[19.9891,-33.2872,812.0392],[19.9976,-33.2591,1161.9441],[20.0138,-33.2388,1206.2191],[20.087,-33.1933,1333.5037],[20.1202,-33.1916,1309.484],[20.1461,-33.1735,1168.6431],[20.2022,-33.1701,1128.6118],[20.2512,-33.1499,799.5189],[20.3064,-33.1593,794.671],[20.3185,-33.1209,789.13],[20.2791,-33.0639,1101.5129],[20.3025,-33.068,1163.3503],[20.3343,-33.0358,1113.275],[20.3838,-33.0363,1144.1929],[20.395,-32.9932,1293.7788],[20.4278,-32.9794,1250.4662],[20.4347,-32.9719,1202.9741],[20.4386,-32.9401,1381.5736],[20.3801,-32.9019,1233.7751],[20.3639,-32.9108,1248.1226],[20.3639,-32.8859,1341.9805],[20.3572,-32.8641,1299.9163],[20.3417,-32.8578,1311.4968],[20.2999,-32.805,1111.2205],[20.2573,-32.7997,1133.0911],[20.219,-32.7847,1154.3724],[20.1876,-32.7527,1161.5024],[20.1917,-32.6858,1105.749],[20.1814,-32.6681,995.5238],[20.1412,-32.6437,1044.1711],[20.1369,-32.611,1086.4209],[20.1147,-32.5702,1044.3839],[20.1228,-32.557,915.8279],[20.0968,-32.503,953.5342],[20.0964,-32.4767,855.0518],[20.0796,-32.3973,424.9939],[20.132,-32.4211,440.8178],[20.1705,-32.3809,476.2451],[20.1635,-32.351,498.7186],[20.216,-32.3032,1459.7396],[20.2542,-32.3108,1610.1226],[20.2463,-32.2526,1528.3007],[20.2408,-32.2242,1570.3475],[20.1664,-32.2275,1244.8777],[20.181,-32.1845,1302.0106],[20.1518,-32.1865,594.2318],[20.1359,-32.1923,592.6766],[20.1157,-32.211,531.4492],[20.1093,-32.2301,508.0833],[20.1001,-32.2427,492.3928],[20.097,-32.2502,503.3463],[20.085,-32.2483,504.1773],[20.0536,-32.2523,568.9379],[20.0386,-32.2964,427.4671],[20.0044,-32.3299,406.5927],[19.9682,-32.3505,422.873],[19.9375,-32.3773,393.3827],[19.8739,-32.3832,352.1604],[19.8495,-32.3662,358.6543],[19.8178,-32.3607,335.7716],[19.8027,-32.3937,323.6179],[19.7641,-32.4111,322.1131],[19.7366,-32.3855,335.365],[19.7313,-32.4101,333.2991],[19.7074,-32.4203,343.6666],[19.7302,-32.4424,353.0581],[19.6996,-32.454,391.9349],[19.6797,-32.4635,372.7944],[19.6681,-32.4548,398.9548],[19.6549,-32.4388,391.2683],[19.6218,-32.4706,504.5298],[19.6265,-32.502,485.4599],[19.6071,-32.5454,434.9721],[19.612,-32.5666,465.3359],[19.6049,-32.6295,497.5035],[19.5872,-32.6478,620.4072],[19.528199999999998,-32.6732,900.7007],[19.4992,-32.6121,741.5452],[19.4868,-32.5654,635.2913],[19.4842,-32.5766,428.9385],[19.485,-32.5799,450.5163],[19.4756,-32.5969,537.6462],[19.4663,-32.6015,462.2637],[19.4608,-32.6076,443.427],[19.4522,-32.6078,445.3119],[19.4535,-32.6125,464.9483],[19.4533,-32.6257,553.0794],[19.4413,-32.6381,940.3475],[19.4379,-32.6259,603.5895],[19.419,-32.6223,974.9863],[19.3961,-32.6067,1346.3409],[19.3712,-32.6089,1147.3223],[19.3569,-32.6164,1184.4788],[19.3412,-32.583,975.5894],[19.32,-32.5746,1029.3235],[19.2812,-32.5814,1344.6787],[19.2647,-32.5887,1487.5972],[19.2231,-32.5747,1553.4897],[19.2026,-32.5776,1590.7985],[19.1592,-32.5719,1393.7327],[19.1486,-32.5857,1371.2365],[19.1564,-32.6043,1470.1832],[19.1376,-32.6046,1156.9568],[19.143,-32.6214,1191.0474],[19.164,-32.6493,1365.49],[19.1717,-32.6639,1489.0601],[19.2048,-32.7111,1154.1416],[19.2086,-32.731,1074.0071],[19.1718,-32.7368,1622.0498],[19.1706,-32.7958,1452.6052],[19.1844,-32.8271,1740.8535],[19.1861,-32.8682,1673.899],[19.1537,-32.984,1377.6083],[19.1655,-33.0354,1710.5743],[19.1774,-33.06,1372.9094],[19.173,-33.0919,1839.0408],[19.1462,-33.1061,2011.4294],[19.0896,-33.1141,291.5274],[19.0724,-33.1277,494.8665],[19.074,-33.1317,415.7565],[19.0657,-33.1496,839.8335],[19.0824,-33.1654,1126.9697],[19.08,-33.1796,225.363],[19.0774,-33.179,215.3017],[19.0577,-33.2001,1172.2056],[19.0752,-33.2131,1444.4746],[19.0787,-33.2291,1027.1241],[19.078,-33.2371,675.791],[19.063,-33.2313,355.1209],[19.0659,-33.2667,387.7483],[19.0577,-33.2674,285.6808],[19.0678,-33.2919,229.7656],[19.0617,-33.297,94.4411],[19.069,-33.303,93.7468],[19.0706,-33.3075,87.7592],[19.0763,-33.3152,104.6361],[19.0807,-33.3189,123.3299],[19.0837,-33.3187,112.0297],[19.0867,-33.3326,603.8243],[19.0831,-33.3509,777.6182],[19.0863,-33.4311,1045.8313],[19.1113,-33.5092,1488.9365],[19.0995,-33.5299,856.2345],[19.107,-33.5411,921.0623],[19.1402,-33.5647,465.7964],[19.1694,-33.5975,1297.2808],[19.1854,-33.562,917.3035],[19.1987,-33.5572,434.3349],[19.2147,-33.5593,222.2645],[19.2218,-33.5624,221.7567],[19.2395,-33.5588,224.3229],[19.2521,-33.5797,214.611],[19.2774,-33.59,218.0343],[19.2786,-33.5872,222.4492],[19.2885,-33.5979,227.4753],[19.2766,-33.6102,208.7041],[19.28,-33.6139,208.1167],[19.2867,-33.6067,216.6934],[19.3113,-33.6071,241.1492],[19.3167,-33.5975,259.3128],[19.3231,-33.5993,262.6483],[19.3215,-33.6031,254.0858],[19.3227,-33.6035,254.0858],[19.3238,-33.5994,264.0289],[19.3286,-33.6008,264.859],[19.328,-33.599,267.4484],[19.3481,-33.6008,273.4349],[19.3489,-33.6044,264.4619],[19.3516,-33.6063,255.5862],[19.3623,-33.624,218.6331],[19.3685,-33.6221,222.5071]]]]}
,"properties": {"GID_3": "ZAF.9.1.5_1","GID_0": "ZAF","country": "SouthAfrica","GID_1": "ZAF.9_1","province": "WesternCape","NL_NAME_1": "NA","GID_2": "ZAF.9.1_1","county": "CapeWinelands","NL_NAME_2": "NA","city": "Witzenberg","VARNAME_3": "NA","NL_NAME_3": "NA","TYPE_3": "LocalMunicipality","ENGTYPE_3": "LocalMunicipality","CC_3": "WC022","HASC_3": "NA","name": "Witzenberg.city","area_km2": 10758.872,"hist_schema_id": "Elevation0-9000","hist_area_km2": {"75": 0.354,"100": 2.392,"125": 16.266,"150": 27.998,"175": 33.42,"200": 31.062,"225": 52.118,"250": 82.591,"275": 63.47,"300": 41.484,"325": 95.697,"350": 154.242,"375": 189.293,"400": 254.735,"425": 371.492,"450": 373.515,"475": 311.499,"500": 267.669,"525": 254.561,"550": 281.841,"575": 317.572,"600": 319.511,"625": 367.714,"650": 349.866,"675": 323.116,"700": 285.978,"725": 273.656,"750": 246.139,"775": 214.635,"800": 209.952,"825": 244.307,"850": 282.673,"875": 236.78,"900": 248.018,"925": 312.373,"950": 336.188,"975": 316.024,"1000": 294.763,"1025": 246.994,"1050": 229.965,"1075": 209.105,"1100": 195.026,"1125": 179.156,"1150": 190.341,"1175": 175.473,"1200": 153.735,"1225": 135.113,"1250": 120.222,"1275": 103.945,"1300": 81.815,"1325": 73.636,"1350": 67.128,"1375": 63.496,"1400": 56.789,"1425": 50.369,"1450": 45.27,"1475": 41.159,"1500": 34.777,"1525": 30.308,"1550": 28.048,"1575": 23.351,"1600": 21.108,"1625": 18.615,"1650": 16.625,"1675": 15.418,"1700": 12.592,"1725": 10.302,"1750": 8.918,"1775": 6.311,"1800": 5.372,"1825": 4.36,"1850": 3.65,"1875": 3.225,"1900": 2.444,"1925": 2.445,"1950": 2.249,"1975": 1.842,"2000": 1.223,"2025": 0.727,"2050": 0.283,"2075": 0.319,"2100": 0.283,"2125": 0.177,"2150": 0.089}}}