{"type": "Feature","bbox": [19.5093,-30.0444,23.8914,-24.7659],"geometry": {"type": "MultiPolygon","coordinates": [[[[21.2888,-29.9669,863.9814],[21.3053,-29.9804,873.1774],[21.243,-30.0391,870.4645],[21.3713,-30.0175,896.0693],[21.4257,-29.9864,912.772],[21.5069,-30.0312,916.2053],[21.5752,-30.0444,955.1118],[21.5922,-30.0116,1006.6433],[21.6134,-30.013,984.2451],[21.6947,-29.9954,930.0021],[21.8327,-30.0279,994.8627],[21.9146,-29.9911,1011.6342],[21.9384,-30.0243,988.1008],[22.0143,-30.0058,1016.7625],[21.9944,-29.9538,1025.4653],[22.0103,-29.9024,1053.0336],[21.9266,-29.8796,1018.5604],[21.8114,-29.842,993.6964],[21.7216,-29.7748,1011.9358],[21.7789,-29.666,1053.6532],[21.83,-29.6232,1079.3396],[21.7849,-29.5566,1052.4442],[21.8998,-29.4491,1069.3584],[21.8457,-29.3959,1080.4647],[21.911,-29.3538,1076.3772],[21.9793,-29.2778,1188.4093],[21.899,-29.1649,1108.1067],[21.840699999999998,-29.0998,1157.5193],[21.8945,-29.0594,1221.2933],[21.9586,-29.0157,1219.6947],[21.991,-28.9461,895.7418],[22.0863,-28.9506,904.3707],[22.117,-29.0121,1138.8669],[22.1812,-29.0624,1110.8577],[22.2047,-29.1091,910.7401],[22.2179,-29.0988,887.8514],[22.2125,-29.0907,888.3466],[22.2069,-29.086,883.5],[22.2037,-29.0789,883.5],[22.2109,-29.0612,883.0],[22.2121,-29.0499,883.0],[22.208,-29.0454,882.5],[22.1995,-29.041,875.0802],[22.1927,-29.0298,874.7119],[22.1837,-29.0265,881.7906],[22.1695,-29.0185,869.5],[22.167,-29.0157,881.4982],[22.1614,-29.0023,868.5],[22.1621,-28.9977,868.5],[22.1794,-28.983,912.0546],[22.1799,-28.9743,876.7078],[22.175,-28.9667,869.6221],[22.1676,-28.9608,865.5242],[22.1594,-28.9511,869.569],[22.1421,-28.9137,866.8541],[22.1312,-28.9062,860.3572],[22.1108,-28.8982,857.0],[22.0971,-28.8871,858.9443],[22.088,-28.8744,858.0343],[22.0866,-28.8655,857.3436],[22.0835,-28.8597,856.0],[22.0831,-28.8508,856.0],[22.0791,-28.8448,857.5477],[22.0708,-28.8419,854.25],[22.062,-28.8427,854.5948],[22.0541,-28.846,852.269],[22.0492,-28.8515,852.4094],[22.0419,-28.8399,893.6373],[22.4606,-28.4445,1159.0002],[22.5243,-28.4974,1213.3806],[22.583,-28.4991,1278.9023],[22.5914,-28.5148,1559.5037],[22.6007,-28.5029,1526.1797],[22.6672,-28.5027,1188.4194],[22.7298,-28.518,1188.0764],[22.7658,-28.5419,1158.6514],[22.7962,-28.5776,1141.6122],[22.838,-28.5763,1117.0769],[22.8765,-28.5797,1133.906],[22.9176,-28.577,1164.416],[22.9625,-28.5614,1186.2134],[22.9957,-28.5803,1209.9796],[23.0142,-28.5812,1215.8832],[23.097,-28.5993,1371.4381],[23.1285,-28.5966,1364.4761],[23.1824,-28.5705,1501.2693],[23.1924,-28.5456,1482.6616],[23.223,-28.5573,1466.6578],[23.2075,-28.6013,1443.5402],[23.2022,-28.6296,1430.3408],[23.2336,-28.6373,1422.7036],[23.2551,-28.6143,1482.9211],[23.292,-28.6499,1471.0369],[23.3547,-28.6471,1423.277],[23.3791,-28.6363,1457.8724],[23.4103,-28.6953,1407.6782],[23.4219,-28.6963,1408.239],[23.4794,-28.7139,1451.9131],[23.5184,-28.733,1404.3223],[23.5424,-28.7474,1387.7239],[23.5578,-28.751,1382.9351],[23.6329,-28.7579,1352.9456],[23.6685,-28.7667,1340.311],[23.693,-28.7369,1338.4717],[23.6238,-28.7084,1368.5813],[23.6608,-28.6464,1390.5187],[23.6837,-28.616,1382.8163],[23.7547,-28.5288,1388.3813],[23.7924,-28.4911,1382.4778],[23.7673,-28.4715,1390.7781],[23.8281,-28.391,1383.7135],[23.8285,-28.3863,1385.2036],[23.8423,-28.3487,1397.0865],[23.8144,-28.3338,1397.7601],[23.8484,-28.2594,1404.0697],[23.8607,-28.1998,1412.3069],[23.8914,-28.1259,1416.5907],[23.8582,-28.1116,1431.4641],[23.8237,-28.0991,1444.0886],[23.7907,-28.0828,1466.9297],[23.8346,-28.0151,1461.1012],[23.6372,-27.9095,1554.9977],[23.6287,-27.9217,1566.6005],[23.6047,-27.9076,1607.6346],[23.597,-27.9112,1603.0292],[23.5905,-27.8899,1616.0569],[23.5978,-27.8883,1591.7197],[23.5809,-27.8793,1636.7371],[23.5555,-27.8975,1842.5104],[23.4439,-27.9552,1492.0299],[23.4165,-27.9158,1425.9573],[23.362,-27.9422,1391.6731],[23.3496,-27.9019,1361.9907],[23.3044,-27.9365,1411.6895],[23.2668,-27.9466,1391.9375],[23.2203,-27.9543,1312.246],[23.1118,-27.9628,1304.7643],[23.0977,-27.8888,1265.2192],[23.0551,-27.8811,1228.1145],[23.0447,-27.8899,1226.3185],[23.0231,-27.858,1331.853],[22.9916,-27.898,1223.5498],[22.9632,-27.8958,1216.3945],[22.9331,-27.888,1228.6387],[22.8636,-27.9272,1220.6582],[22.8274,-27.956,1226.4095],[22.7728,-27.9841,1279.5203],[22.7484,-27.987,1332.9978],[22.674,-27.9844,1454.0461],[22.6448,-27.9879,1527.562],[22.6496,-27.9698,1670.3384],[22.6424,-27.9397,1650.1686],[22.7274,-27.9304,1432.1223],[22.7644,-27.9338,1370.1528],[22.7967,-27.9111,1312.2878],[22.7887,-27.8902,1305.0438],[22.7395,-27.8507,1244.3691],[22.7788,-27.8451,1217.652],[22.8193,-27.8316,1202.6458],[22.8017,-27.7929,1202.1522],[22.7663,-27.7508,1186.178],[22.7005,-27.687,1180.1573],[22.6747,-27.6678,1196.5428],[22.7014,-27.6657,1191.1218],[22.7116,-27.6124,1155.7065],[22.7198,-27.4564,1197.2441],[22.6691,-27.4507,1177.283],[22.6712,-27.3899,1156.3444],[22.6817,-27.3477,1217.0303],[22.6458,-27.3498,1175.9001],[22.653,-27.3141,1202.1215],[22.6726,-27.3029,1297.0775],[22.676,-27.2823,1242.4655],[22.6857,-27.2673,1204.4443],[22.6521,-27.2369,1169.4529],[22.6204,-27.2631,1394.0618],[22.5442,-27.2737,1393.3403],[22.5383,-27.2767,1447.0444],[22.4779,-27.2799,1231.7362],[22.4687,-27.2779,1407.6975],[22.3964,-27.278199999999998,1116.4277],[22.3975,-27.264,1120.1953],[22.3413,-27.2611,1088.9573],[22.3248,-27.0777,1034.1855],[22.2517,-27.0399,1005.7934],[22.2286,-27.0747,1009.9267],[22.2094,-27.0944,1005.4353],[22.1971,-27.0867,1001.8978],[22.1871,-27.0701,996.9651],[22.1506,-27.0309,981.5575],[22.1098,-26.9761,963.4424],[22.1003,-26.988,963.2666],[22.1046,-26.9952,964.2559],[22.11,-26.9939,966.0119],[22.1116,-27.0046,966.0167],[22.1424,-27.0429,981.7226],[22.1243,-27.0736,982.7919],[22.0588,-27.0969,976.067],[22.0297,-27.0964,968.1636],[21.9995,-27.1103,963.849],[21.9995,-27.0248,950.5059],[21.9852,-27.0182,944.699],[21.9516,-26.9488,932.5123],[21.9171,-26.9587,928.7714],[21.9075,-26.9323,928.4229],[21.8724,-26.8601,937.0456],[21.831,-26.7978,936.0589],[21.8103,-26.7742,930.9615],[21.7929,-26.7696,885.2525],[21.7918,-26.7757,884.1982],[21.7836,-26.7855,884.5049],[21.781,-26.8023,883.8443],[21.7718,-26.8029,892.5397],[21.7638,-26.8121,883.9413],[21.7368,-26.8288,882.3878],[21.7009,-26.8588,880.1193],[21.6944,-26.8612,879.9227],[21.6843,-26.8554,879.1475],[21.6775,-26.854,878.4396],[21.6743,-26.8551,878.6334],[21.6695,-26.8612,878.9331],[21.6627,-26.8646,879.267],[21.6436,-26.8635,877.5005],[21.6271,-26.8667,881.5292],[21.6184,-26.8613,877.2737],[21.6047,-26.846,877.4848],[21.5949,-26.8413,879.7001],[21.5753,-26.8399,874.2515],[21.5615,-26.85,875.3762],[21.5566,-26.8493,873.2935],[21.549,-26.8441,873.354],[21.5411,-26.843,872.6471],[21.5333,-26.856,872.6245],[21.5292,-26.8606,874.3999],[21.5255,-26.8619,875.9186],[21.4983,-26.8508,870.8264],[21.4854,-26.8414,871.8573],[21.4619,-26.840699999999998,869.5026],[21.4558,-26.8381,883.4517],[21.4492,-26.8309,875.1577],[21.4401,-26.8272,869.1578],[21.4049,-26.8221,867.78],[21.3895,-26.8245,867.3828],[21.3761,-26.8306,868.2214],[21.3578,-26.8293,866.0316],[21.3441,-26.8254,865.9763],[21.3327,-26.8256,864.7662],[21.3281,-26.8286,864.7424],[21.3172,-26.8412,864.6378],[21.3067,-26.8472,866.3202],[21.2992,-26.8494,865.8876],[21.2885,-26.849,863.5269],[21.2747,-26.8391,869.0443],[21.2686,-26.8375,866.6361],[21.2599,-26.8388,862.3036],[21.2488,-26.8456,862.4134],[21.2452,-26.8462,863.1345],[21.2299,-26.8436,861.6021],[21.2217,-26.8438,862.2611],[21.1932,-26.8527,867.9108],[21.1769,-26.8666,859.9417],[21.1691,-26.8687,860.4343],[21.1549,-26.8673,858.9241],[21.1342,-26.8738,859.4205],[21.1244,-26.8693,859.2292],[21.1156,-26.8595,867.7223],[21.1099,-26.8575,863.4572],[21.0972,-26.8564,857.1655],[21.0789,-26.8485,856.1117],[21.0712,-26.8484,856.0516],[21.0601,-26.8517,858.499],[21.0415,-26.8467,855.0841],[21.0258,-26.8477,854.4601],[21.0109,-26.8467,854.509],[21.0066,-26.8443,854.5959],[20.986,-26.8252,853.5308],[20.9778,-26.8115,853.7103],[20.9718,-26.8072,855.9641],[20.962,-26.8069,852.2582],[20.9537,-26.8119,852.0218],[20.9466,-26.8139,852.5453],[20.9094,-26.7976,853.4867],[20.8986,-26.7963,851.8495],[20.8858,-26.7971,850.7792],[20.8447,-26.8185,850.6171],[20.8289,-26.8179,851.2917],[20.8207,-26.8193,851.3298],[20.8178,-26.823,849.244],[20.8188,-26.8378,847.8981],[20.8163,-26.8417,848.8332],[20.813,-26.8434,850.6748],[20.7942,-26.8403,847.4038],[20.7866,-26.8417,846.8884],[20.7729,-26.8598,849.5006],[20.7635,-26.8664,848.1605],[20.7286,-26.8664,847.2604],[20.715,-26.8701,845.8728],[20.7082,-26.8754,845.13],[20.7049,-26.8855,846.1747],[20.6974,-26.8996,846.0775],[20.6854,-26.9074,848.9718],[20.687,-26.9018,846.4338],[20.6799,-26.8818,847.7923],[20.6798,-26.8696,851.4423],[20.6761,-26.861,855.9902],[20.6805,-26.8515,850.4068],[20.6851,-26.848,850.8773],[20.6827,-26.8405,849.6793],[20.6555,-26.8345,850.1709],[20.6454,-26.829,850.7749],[20.6426,-26.8229,852.6921],[20.6504,-26.8095,852.8941],[20.645,-26.8019,852.7042],[20.6368,-26.7944,862.0473],[20.6238,-26.7894,855.4868],[20.6224,-26.7869,853.9441],[20.6351,-26.7748,860.2131],[20.6377,-26.7675,855.5532],[20.6367,-26.7636,855.0611],[20.6257,-26.7493,857.168],[20.6325,-26.7351,861.2555],[20.6326,-26.7289,857.4796],[20.6345,-26.7256,860.3726],[20.6261,-26.7198,856.785],[20.6209,-26.7135,858.5546],[20.6191,-26.7056,857.397],[20.6166,-26.7022,857.541],[20.6145,-26.6869,859.6552],[20.617,-26.6772,859.0638],[20.6334,-26.6692,861.4891],[20.6353,-26.6653,861.0906],[20.6292,-26.6428,860.449],[20.6301,-26.6279,860.382],[20.6337,-26.6173,861.4444],[20.6318,-26.6037,864.8717],[20.6326,-26.5918,865.8844],[20.6304,-26.5825,864.4532],[20.6185,-26.5685,864.2966],[20.6133,-26.5651,872.6794],[20.61,-26.5599,863.9863],[20.6085,-26.553,863.8229],[20.6102,-26.5356,866.6434],[20.6046,-26.5214,869.328],[20.6048,-26.5147,868.1569],[20.6118,-26.4992,869.1669],[20.6116,-26.4879,869.0914],[20.6166,-26.4676,868.7545],[20.6174,-26.4437,869.4775],[20.6257,-26.4348,870.0112],[20.6462,-26.4351,871.6422],[20.6498,-26.4329,873.9965],[20.6608,-26.4156,874.1489],[20.6768,-26.3979,885.5352],[20.6789,-26.3969,873.3162],[20.6875,-26.3992,874.4436],[20.6934,-26.3977,874.5505],[20.6975,-26.3902,874.7544],[20.6986,-26.3832,876.0798],[20.6973,-26.3691,876.1008],[20.7005,-26.3634,876.9214],[20.7122,-26.3509,880.6199],[20.7199,-26.3338,880.3925],[20.7372,-26.3241,882.1749],[20.744,-26.3178,879.5311],[20.7563,-26.2968,889.4275],[20.7594,-26.2865,880.7622],[20.7638,-26.284,882.493],[20.7727,-26.2821,885.6244],[20.7904,-26.2712,888.6977],[20.7928,-26.2587,888.1773],[20.8053,-26.245,888.5328],[20.8077,-26.2295,887.8393],[20.816,-26.2149,886.598],[20.8152,-26.1924,886.9659],[20.8193,-26.1823,891.0269],[20.8269,-26.1729,890.7854],[20.8366,-26.169,890.197],[20.8438,-26.1621,890.7979],[20.8538,-26.1492,890.5262],[20.8562,-26.1413,891.1409],[20.8633,-26.1327,894.4429],[20.8624,-26.1282,891.2639],[20.8577,-26.1238,891.5549],[20.8524,-26.1222,893.6135],[20.8436,-26.1255,893.6096],[20.840699999999998,-26.1238,892.6527],[20.8382,-26.1185,896.0262],[20.8288,-26.1129,898.7534],[20.8209,-26.1055,894.0668],[20.8207,-26.1011,895.4932],[20.8339,-26.0944,896.6111],[20.8389,-26.0895,896.5281],[20.8418,-26.0804,897.3527],[20.8393,-26.0766,895.928],[20.8273,-26.0726,896.7731],[20.8187,-26.0586,897.3658],[20.821,-26.0543,899.92],[20.8329,-26.047,898.7134],[20.8361,-26.0415,902.782],[20.8361,-26.0361,904.6523],[20.8319,-26.0227,905.3154],[20.8164,-26.0101,908.6096],[20.8153,-26.0059,901.5189],[20.8285,-25.9884,904.964],[20.8307,-25.9825,902.5361],[20.8313,-25.9722,908.2196],[20.8402,-25.9616,906.199],[20.8404,-25.956,906.1221],[20.8374,-25.9508,904.6266],[20.8104,-25.9302,906.9147],[20.8051,-25.9253,906.1663],[20.8029,-25.921,908.5538],[20.8018,-25.9097,908.5099],[20.7981,-25.8996,912.8597],[20.8094,-25.8934,917.3958],[20.8121,-25.8903,910.2797],[20.8131,-25.8697,912.4585],[20.809,-25.8644,924.2711],[20.8042,-25.8621,910.7211],[20.7867,-25.8606,911.5811],[20.7827,-25.855,911.5049],[20.7815,-25.8488,917.9591],[20.7894,-25.8339,912.3447],[20.7859,-25.82,913.3225],[20.7901,-25.8083,915.4813],[20.7882,-25.8031,915.5648],[20.7829,-25.8007,917.9316],[20.7729,-25.8048,915.0867],[20.7621,-25.8152,916.1589],[20.7593,-25.8222,916.5259],[20.7535,-25.8262,916.7086],[20.747,-25.827,919.1152],[20.7393,-25.8227,919.145],[20.7391,-25.8156,919.6761],[20.7444,-25.8046,918.3833],[20.7496,-25.7991,919.2728],[20.7622,-25.791,920.1451],[20.7646,-25.7871,926.1763],[20.7635,-25.7804,920.7891],[20.7606,-25.7766,920.4064],[20.7541,-25.7725,924.6654],[20.7486,-25.7716,921.1057],[20.7373,-25.7737,922.7861],[20.7317,-25.7717,923.0313],[20.7298,-25.7684,922.3473],[20.7307,-25.7477,923.7802],[20.723,-25.727,927.1899],[20.7181,-25.7187,924.8939],[20.7078,-25.7076,926.1497],[20.6826,-25.6945,926.6467],[20.6779,-25.6904,926.8127],[20.6747,-25.6718,928.0449],[20.677,-25.6655,928.5883],[20.6873,-25.6519,930.2146],[20.6889,-25.6455,929.7924],[20.6879,-25.6355,939.0049],[20.6823,-25.6318,930.0043],[20.6726,-25.6298,931.4938],[20.662,-25.6385,932.4756],[20.6569,-25.6399,932.721],[20.6518,-25.6375,932.0267],[20.6504,-25.6325,933.9522],[20.6523,-25.6263,933.3217],[20.6577,-25.6187,933.6063],[20.6611,-25.6085,934.9803],[20.6654,-25.604,937.2678],[20.6824,-25.6046,937.4639],[20.6906,-25.6031,939.6436],[20.6955,-25.6002,935.9637],[20.6982,-25.5951,937.7278],[20.6969,-25.5896,936.822],[20.6874,-25.5793,937.0751],[20.67,-25.5498,940.1394],[20.648,-25.5318,940.0935],[20.6329,-25.53,941.0842],[20.6292,-25.525,941.4266],[20.6288,-25.5128,942.2135],[20.6402,-25.5041,943.7527],[20.6434,-25.498,946.7012],[20.6345,-25.4787,944.3649],[20.6362,-25.4735,945.0569],[20.6412,-25.4704,945.2175],[20.6616,-25.472,948.7054],[20.6677,-25.4696,953.5393],[20.6728,-25.4635,946.3489],[20.6744,-25.4532,947.0764],[20.6711,-25.4481,947.3127],[20.6668,-25.4459,947.7605],[20.6597,-25.4461,948.5552],[20.6539,-25.4495,949.1077],[20.6484,-25.4595,948.9504],[20.6441,-25.4627,949.8598],[20.6374,-25.4645,950.1577],[20.6225,-25.4618,952.5461],[20.616,-25.4453,952.0839],[20.6202,-25.4405,951.8848],[20.6298,-25.4355,952.7791],[20.6337,-25.4315,953.3738],[20.631,-25.4253,953.6234],[20.6255,-25.4216,953.6262],[20.6082,-25.4297,955.6013],[20.6012,-25.4274,955.3859],[20.5983,-25.4216,955.7603],[20.6054,-25.4042,957.0415],[20.6046,-25.3987,957.171],[20.6016,-25.3947,957.1906],[20.5966,-25.3907,957.7784],[20.5918,-25.39,958.056],[20.5778,-25.3964,959.8609],[20.566,-25.3948,961.4589],[20.5616,-25.3895,960.5909],[20.5599,-25.3843,961.0856],[20.5511,-25.3713,963.0653],[20.5455,-25.3561,964.0505],[20.5392,-25.3448,964.1444],[20.542,-25.3361,964.2405],[20.5481,-25.3288,965.9888],[20.5488,-25.3243,965.5906],[20.547,-25.3206,966.1456],[20.5409,-25.3182,966.038],[20.5366,-25.319,966.0453],[20.532,-25.3228,966.5928],[20.5217,-25.3247,967.0538],[20.5169,-25.3233,967.5979],[20.5139,-25.3171,967.5261],[20.514,-25.3115,968.4014],[20.5173,-25.3065,968.3329],[20.5257,-25.3044,969.1757],[20.5312,-25.2987,969.5562],[20.5427,-25.2928,970.95],[20.5459,-25.2862,972.4004],[20.5281,-25.2878,972.0601],[20.5236,-25.2844,972.0815],[20.5234,-25.278199999999998,972.5417],[20.519,-25.2749,976.1223],[20.506,-25.2755,973.3824],[20.4997,-25.2722,973.98],[20.4873,-25.2531,975.7891],[20.4924,-25.2467,980.2894],[20.4989,-25.2284,977.8013],[20.4956,-25.2246,977.9645],[20.4889,-25.2226,978.8579],[20.476,-25.2252,980.1827],[20.4711,-25.2283,980.496],[20.4656,-25.2234,980.4766],[20.4619,-25.2116,981.3008],[20.4464,-25.199,982.8837],[20.4442,-25.1942,982.9255],[20.4474,-25.1887,983.3397],[20.462,-25.1837,984.7068],[20.4674,-25.1761,989.2726],[20.4697,-25.1618,988.1672],[20.469,-25.1569,987.3438],[20.4655,-25.1523,989.207],[20.4596,-25.1499,988.0381],[20.4448,-25.1582,988.8756],[20.436,-25.1578,989.4232],[20.4309,-25.1543,990.1481],[20.4274,-25.1479,990.2692],[20.4277,-25.1442,990.9828],[20.4316,-25.1411,992.5992],[20.4314,-25.1358,993.9434],[20.426,-25.1328,991.8511],[20.424,-25.1282,992.6518],[20.4255,-25.1239,992.6637],[20.4295,-25.1209,993.348],[20.4292,-25.1163,992.9734],[20.4198,-25.1046,994.2875],[20.4148,-25.1054,994.6276],[20.4107,-25.1034,995.4482],[20.41,-25.0989,994.9843],[20.4157,-25.0891,996.1838],[20.4126,-25.0829,996.9749],[20.3924,-25.0768,998.805],[20.3868,-25.0691,999.2307],[20.3816,-25.0666,999.366],[20.3788,-25.0619,1001.2964],[20.3856,-25.05,1000.1452],[20.3867,-25.0387,1001.825],[20.3842,-25.0343,1001.8926],[20.3689,-25.0278,1004.1504],[20.3566,-25.0244,1005.0371],[20.3492,-25.0095,1004.6155],[20.3286,-25.0059,1006.261],[20.3262,-24.9975,1007.3163],[20.3227,-24.9914,1007.4576],[20.3176,-24.9868,1008.0577],[20.2965,-24.9806,1009.5451],[20.2861,-24.9696,1010.3674],[20.2881,-24.96,1011.3748],[20.2865,-24.9538,1012.4831],[20.2843,-24.9514,1011.6644],[20.2757,-24.9503,1013.0634],[20.2726,-24.9474,1012.7486],[20.2705,-24.9381,1013.0],[20.2662,-24.9293,1014.3373],[20.2593,-24.9237,1014.6826],[20.2545,-24.9233,1018.514],[20.2488,-24.9184,1015.3896],[20.2331,-24.9138,1016.3079],[20.222,-24.9199,1018.8337],[20.217,-24.9166,1017.8176],[20.2137,-24.9078,1018.431],[20.2036,-24.8964,1019.3303],[20.1975,-24.897,1020.057],[20.1895,-24.9104,1021.6873],[20.1817,-24.9118,1021.7228],[20.1604,-24.8888,1023.5085],[20.1581,-24.8836,1023.9256],[20.1502,-24.8795,1025.2008],[20.1305,-24.8808,1026.9584],[20.1213,-24.8848,1028.0818],[20.1152,-24.88,1028.6233],[20.1092,-24.8624,1028.8864],[20.0992,-24.8594,1030.0912],[20.0877,-24.852,1031.8188],[20.0865,-24.845,1031.1335],[20.0897,-24.8402,1031.5503],[20.0902,-24.8328,1031.7825],[20.0859,-24.83,1032.5242],[20.0719,-24.8309,1033.0225],[20.0668,-24.8285,1033.761],[20.0652,-24.8141,1035.9646],[20.0381,-24.8095,1035.6143],[20.0295,-24.7882,1038.6514],[20.0078,-24.7743,1038.5668],[19.9989,-24.7659,1039.2354],[20.0005,-27.9839,846.6129],[19.9992,-28.4278,437.3432],[19.9968,-28.4274,440.7352],[19.9968,-28.432,441.5513],[19.9925,-28.4314,458.1412],[19.9936,-28.4266,429.1408],[19.9905,-28.4258,444.9418],[19.9724,-28.4259,444.9871],[19.9476,-28.4366,426.5],[19.9338,-28.4389,450.7612],[19.9144,-28.4454,430.2757],[19.9043,-28.445,426.9354],[19.8957,-28.4416,432.0131],[19.889,-28.4408,429.6929],[19.8771,-28.4427,433.1702],[19.8736,-28.4448,424.6985],[19.8643,-28.4568,427.8535],[19.8535,-28.4569,427.6842],[19.8476,-28.4596,431.2814],[19.8398,-28.4715,424.0684],[19.841,-28.4806,429.8214],[19.8347,-28.4873,425.3191],[19.8246,-28.5027,456.4648],[19.8133,-28.5083,425.021],[19.7996,-28.5067,421.2022],[19.7891,-28.5016,419.3721],[19.7795,-28.5013,420.1772],[19.7701,-28.4932,421.1341],[19.7602,-28.4888,427.8221],[19.7386,-28.4857,424.4747],[19.73,-28.4879,422.595],[19.7186,-28.4956,420.9446],[19.7105,-28.5068,415.4145],[19.6968,-28.5176,416.008],[19.6734,-28.5219,413.0],[19.6709,-28.5294,419.3067],[19.6683,-28.5311,425.086],[19.6645,-28.5307,414.9244],[19.6592,-28.5251,418.2969],[19.6448,-28.5201,412.8094],[19.633,-28.5125,426.2172],[19.6252,-28.5109,415.4465],[19.615,-28.5128,439.4095],[19.6064,-28.5184,408.0875],[19.5967,-28.5209,437.2605],[19.5854,-28.5293,414.8475],[19.579,-28.5292,409.736],[19.5728,-28.5262,410.5127],[19.5676,-28.5267,407.1942],[19.546,-28.544,408.9224],[19.5455,-28.5478,410.2246],[19.5477,-28.554,401.4016],[19.5441,-28.5655,414.4701],[19.5432,-28.5744,418.6631],[19.5361,-28.5871,401.7668],[19.5228,-28.5905,418.7398],[19.5093,-28.5965,399.9749],[19.6191,-28.6906,948.5547],[19.6662,-28.8298,1031.6995],[19.7795,-28.8764,959.8009],[19.681,-28.9926,1041.5996],[19.5767,-29.0947,994.0091],[19.5841,-29.1651,1101.5547],[19.6013,-29.2719,1063.3081],[19.657,-29.321,1058.4429],[19.7053,-29.4009,1006.9197],[19.7027,-29.423,999.5896],[19.7402,-29.4286,995.7454],[19.767,-29.54,988.3145],[19.7658,-29.5611,975.8369],[19.7622,-29.582,975.0558],[19.6854,-29.592,974.4324],[19.586,-29.6099,1012.6025],[19.6109,-29.6809,994.645],[19.5748,-29.7253,996.3607],[19.6591,-29.793,995.6006],[19.883,-29.7769,999.2733],[19.9479,-29.8333,995.5804],[19.9956,-29.8667,1009.1822],[20.0036,-29.8665,1003.5184],[20.0461,-29.8618,1002.074],[20.1046,-29.8288,983.7948],[20.1475,-29.7867,986.0463],[20.1752,-29.7644,979.7526],[20.1567,-29.6525,954.8553],[20.2734,-29.6436,974.3737],[20.3858,-29.6038,966.7578],[20.4368,-29.6159,954.6616],[20.5198,-29.719,959.6035],[20.5945,-29.6348,932.1401],[20.6256,-29.6203,945.9313],[20.6614,-29.6431,933.4059],[20.6369,-29.7521,951.7045],[20.6264,-29.8632,923.0378],[20.6709,-29.927,928.1019],[20.7081,-29.9856,878.9622],[20.7261,-29.9911,872.4771],[20.7548,-29.9827,871.4728],[20.8239,-29.952,879.7198],[20.8037,-29.9422,879.1792],[20.8316,-29.8828,880.0946],[20.8576,-29.8586,869.4631],[20.8986,-29.8503,858.1064],[20.9615,-29.7962,849.68],[21.0371,-29.7488,852.1765],[21.1136,-29.6973,847.9808],[21.1954,-29.6373,868.2232],[21.2303,-29.6548,902.3767],[21.2756,-29.6872,919.391],[21.272,-29.7363,889.8643],[21.1541,-29.8726,901.9278],[21.2449,-29.9309,878.7567],[21.2888,-29.9669,863.9814]],
[[19.9968,-28.4331,472.726],[19.9965,-28.4331,472.726],[19.9968,-28.4323,441.5513],[19.9968,-28.4331,472.726]]]]}
,"properties": {"GID_2": "ZAF.8.5_1","GID_0": "ZAF","country": "SouthAfrica","GID_1": "ZAF.8_1","province": "NorthernCape","NL_NAME_1": "NA","county": "Siyanda","VARNAME_2": "NA","NL_NAME_2": "NA","TYPE_2": "DistrictMunicipality","ENGTYPE_2": "DistrictMunicipality","CC_2": "DC8","HASC_2": "ZA.NC.SY","name": "Siyanda.county","area_km2": 102666.14,"hist_schema_id": "Elevation0-9000","hist_area_km2": {"400": 7.21,"425": 27.5,"450": 41.52,"475": 37.38,"500": 47.73,"525": 57.53,"550": 88.64,"575": 137.91,"600": 166.29,"625": 235.63,"650": 368.68,"675": 473.09,"700": 588.66,"725": 807.8,"750": 1159.85,"775": 1690.21,"800": 3126.23,"825": 5600.76,"850": 7667.18,"875": 10608.44,"900": 10216.7,"925": 12165.48,"950": 9468.46,"975": 7547.71,"1000": 6497.12,"1025": 4665.89,"1050": 3070.61,"1075": 1638.67,"1100": 929.36,"1125": 797.64,"1150": 995.14,"1175": 955.69,"1200": 938.62,"1225": 852.6,"1250": 727.13,"1275": 691.07,"1300": 644.34,"1325": 483.5,"1350": 451.69,"1375": 487.2,"1400": 941.18,"1425": 1135.04,"1450": 941.82,"1475": 559.93,"1500": 528.91,"1525": 434.44,"1550": 315.13,"1575": 197.08,"1600": 131.1,"1625": 98.5,"1650": 70.5,"1675": 54.23,"1700": 38.97,"1725": 26.13,"1750": 17.04,"1775": 9.03,"1800": 3.48}}}