{"type": "Feature","bbox": [28.8735,-29.1492,29.7619,-28.3719],"geometry": {"type": "MultiPolygon","coordinates": [[[[29.3559,-29.1327,2983.9805],[29.357,-29.1343,2982.7095],[29.369,-29.1326,2499.9507],[29.42,-29.1492,1747.2738],[29.4266,-29.1368,1684.2988],[29.4352,-29.1324,1553.9124],[29.4329,-29.1255,1679.4712],[29.4245,-29.113,1623.9148],[29.4493,-29.108,1712.3201],[29.4745,-29.0912,1510.1471],[29.4655,-29.0784,1364.8057],[29.4747,-29.0746,1363.9067],[29.4695,-29.0626,1382.3999],[29.5015,-29.0418,1449.2286],[29.5204,-28.9988,1291.7823],[29.5162,-28.9984,1361.8097],[29.5193,-28.9639,1435.2177],[29.5312,-28.9751,1452.9514],[29.5406,-28.9375,1105.3085],[29.5811,-28.9411,1090.901],[29.5781,-28.909,1092.4907],[29.6068,-28.9114,1195.4988],[29.6133,-28.8902,1224.8032],[29.6319,-28.8687,1112.2278],[29.6772,-28.8664,1060.8235],[29.7073,-28.8887,1164.2631],[29.7299,-28.8827,1148.5376],[29.7181,-28.8575,1106.843],[29.7047,-28.8414,1082.1843],[29.7337,-28.8028,1081.7155],[29.7384,-28.7918,1083.7954],[29.7619,-28.7789,1051.4799],[29.7612,-28.7379,964.0748],[29.7587,-28.7382,961.1899],[29.7572,-28.7355,959.9201],[29.7457,-28.7372,962.5999],[29.7381,-28.7336,963.3642],[29.7376,-28.7354,965.0244],[29.7419,-28.7431,961.2579],[29.7335,-28.7476,961.22],[29.7271,-28.7438,963.7733],[29.7184,-28.7441,963.3176],[29.7153,-28.7392,961.4608],[29.7126,-28.7386,963.8974],[29.6969,-28.7452,965.2448],[29.691,-28.7442,964.6279],[29.6812,-28.7475,965.3969],[29.6713,-28.7464,962.894],[29.6632,-28.7573,966.3752],[29.6563,-28.7546,972.1241],[29.6457,-28.7553,970.2009],[29.6481,-28.7519,968.2335],[29.6555,-28.7486,972.6069],[29.6444,-28.7371,1004.4518],[29.6427,-28.7322,998.3956],[29.6385,-28.7279,1011.3824],[29.6371,-28.7236,1001.5146],[29.6382,-28.7225,1003.2787],[29.6317,-28.7203,1003.5763],[29.6202,-28.7122,1006.5372],[29.6152,-28.7125,1005.5912],[29.6112,-28.7179,1010.4598],[29.6071,-28.7168,1006.7601],[29.6072,-28.7123,1003.7864],[29.61,-28.7091,1008.3584],[29.6163,-28.7072,1013.6495],[29.625,-28.709,1010.0665],[29.626,-28.7064,1009.1708],[29.6231,-28.703,1008.147],[29.6262,-28.7001,1007.3644],[29.6184,-28.6943,1010.587],[29.6177,-28.6902,1010.5911],[29.6211,-28.6841,1010.7465],[29.6188,-28.6808,1014.895],[29.6077,-28.6817,1015.3097],[29.6046,-28.6796,1011.5739],[29.6036,-28.6729,1036.2874],[29.6124,-28.6745,1017.4224],[29.6156,-28.6661,1016.3514],[29.6066,-28.6595,1028.4974],[29.6044,-28.6607,1017.1979],[29.599,-28.6718,1016.0552],[29.5895,-28.6811,1020.0887],[29.5998,-28.6872,1026.2174],[29.6011,-28.6894,1016.0226],[29.5971,-28.6956,1019.2134],[29.5898,-28.6975,1019.4883],[29.5878,-28.696,1023.7451],[29.5872,-28.6896,1024.0532],[29.5782,-28.6891,1020.9619],[29.5727,-28.6846,1023.5549],[29.566,-28.6863,1022.8033],[29.56,-28.6909,1023.0244],[29.556,-28.6903,1026.2449],[29.5595,-28.6775,1034.0551],[29.5633,-28.6744,1026.6432],[29.5699,-28.6746,1034.4714],[29.5719,-28.6715,1024.9863],[29.5717,-28.6693,1025.594],[29.5674,-28.6654,1023.5267],[29.5961,-28.6474,1134.4982],[29.5788,-28.6396,1147.9585],[29.5895,-28.6335,1139.9336],[29.617,-28.6126,1102.9482],[29.6344,-28.6109,1095.5741],[29.6425,-28.613,1089.0061],[29.6452,-28.6099,1084.1484],[29.6509,-28.6093,1128.4846],[29.6345,-28.5909,1134.0452],[29.67,-28.5623,1044.1725],[29.6636,-28.559,1044.665],[29.6639,-28.5578,1042.6252],[29.6479,-28.5458,1050.6656],[29.6104,-28.5329,1069.7729],[29.5867,-28.5567,1231.7703],[29.5656,-28.5708,1332.5444],[29.5478,-28.5683,1317.783],[29.5362,-28.5691,1290.2058],[29.4919,-28.5288,1318.0652],[29.4903,-28.4898,1301.7592],[29.5195,-28.4718,1095.1816],[29.5358,-28.4795,1137.575],[29.5093,-28.4412,1237.0894],[29.4854,-28.4027,1321.8137],[29.4383,-28.4231,1371.0693],[29.3756,-28.3721,1686.089],[29.3734,-28.3719,1694.4805],[29.3575,-28.388,1712.2362],[29.3388,-28.3988,1997.2815],[29.3201,-28.4068,1808.7238],[29.3226,-28.424,1831.6057],[29.2901,-28.4379,1773.0728],[29.2685,-28.4319,1815.9746],[29.2615,-28.4337,1886.0714],[29.2488,-28.4249,2021.2703],[29.229,-28.4563,1843.5167],[29.1915,-28.4938,1869.4736],[29.2162,-28.5191,1889.4696],[29.1964,-28.545,1787.4575],[29.1787,-28.5427,1793.8099],[29.171,-28.53,1934.2775],[29.1615,-28.5421,1894.0406],[29.135,-28.5663,1738.9611],[29.0963,-28.5451,1866.7767],[28.974,-28.5746,2284.0674],[28.9613,-28.5972,2095.7725],[28.966,-28.6053,1944.0486],[28.9559,-28.6075,2073.8726],[28.9486,-28.6133,1949.1184],[28.9466,-28.6208,2075.3689],[28.9443,-28.6226,2057.0452],[28.9409,-28.6314,1973.1671],[28.9447,-28.6387,1961.86],[28.9428,-28.6509,2070.76],[28.9357,-28.6538,2002.2428],[28.9346,-28.6569,2034.7354],[28.9284,-28.6601,2197.8662],[28.926,-28.6638,2136.1592],[28.922,-28.6637,2150.2205],[28.9089,-28.6814,2060.5352],[28.9034,-28.6872,2137.2773],[28.8991,-28.6873,2177.4517],[28.8972,-28.6909,2191.2354],[28.8962,-28.6947,2216.3862],[28.9,-28.7032,2251.189],[28.8921,-28.7449,2909.0933],[28.8913,-28.7465,3051.0383],[28.883,-28.7487,3002.2686],[28.8735,-28.7716,3245.396],[28.8823,-28.775,3120.376],[28.8883,-28.775,3141.9092],[28.8934,-28.7664,3007.5332],[28.9064,-28.759,2910.7202],[28.9078,-28.7605,2953.4854],[28.9124,-28.7606,2924.8848],[28.9154,-28.7643,2986.957],[28.9154,-28.77,3144.4192],[28.9321,-28.7749,3099.4119],[28.9438,-28.7827,2987.03],[28.9452,-28.7872,3057.7126],[28.9421,-28.7875,3026.4568],[28.939,-28.7854,3038.4209],[28.9359,-28.7918,3162.9873],[28.9322,-28.7919,3185.7573],[28.9478,-28.798,3065.9143],[28.949,-28.8043,3113.3647],[28.9404,-28.8066,3007.0503],[28.9362,-28.8048,3170.7734],[28.9341,-28.8071,3110.9343],[28.9348,-28.8094,3095.0713],[28.9297,-28.8097,3082.5203],[28.922,-28.8128,3223.5913],[28.9242,-28.8171,3204.6084],[28.931,-28.8203,3191.603],[28.9396,-28.8184,3187.1299],[28.9377,-28.8236,3106.9482],[28.9459,-28.8251,2960.9639],[28.945,-28.8272,3085.5269],[28.9483,-28.8286,3051.438],[28.9457,-28.8339,3068.1506],[28.9478,-28.8409,3053.6274],[28.9446,-28.843,3169.4604],[28.9462,-28.8463,3110.3074],[28.951,-28.8492,2984.5874],[28.953,-28.8534,2994.5979],[28.9521,-28.8551,2874.2603],[28.9465,-28.8539,3028.1985],[28.9432,-28.8551,2979.7273],[28.9445,-28.8567,3012.9377],[28.9395,-28.8597,3036.6689],[28.9398,-28.8624,3032.0715],[28.9485,-28.8689,3089.3003],[28.9535,-28.8678,3018.7139],[28.958,-28.8696,3089.7825],[28.962,-28.8688,3028.9714],[28.9609,-28.8701,3100.021],[28.9629,-28.8712,3065.3215],[28.9572,-28.8768,3083.4585],[28.9643,-28.8821,3204.9526],[28.9627,-28.8845,3192.7842],[28.9639,-28.887,3137.3213],[28.9743,-28.8912,3162.9822],[28.975,-28.9039,3195.1838],[28.9727,-28.9069,3194.9087],[28.9802,-28.9147,3147.2991],[28.9865,-28.9158,3186.0723],[28.9909,-28.9143,3157.5493],[28.9942,-28.9052,3113.6157],[29.0035,-28.9025,2958.7678],[29.0055,-28.8976,2961.4019],[29.0121,-28.8974,2916.8887],[29.0134,-28.8944,2888.9526],[29.01,-28.8904,2963.2],[29.0114,-28.8873,2909.8953],[29.0101,-28.886,2871.4709],[29.0121,-28.8853,2910.6455],[29.011,-28.8844,2784.021],[29.0123,-28.8835,2861.6731],[29.019,-28.8819,2910.4792],[29.0291,-28.888,2980.7434],[29.029,-28.8982,2911.1118],[29.0378,-28.9055,2891.5984],[29.039,-28.9079,2898.6055],[29.0381,-28.9112,3001.6042],[29.0413,-28.9151,3024.4526],[29.0488,-28.9142,3048.2737],[29.0579,-28.9185,2916.9648],[29.0599,-28.9162,2805.6736],[29.0638,-28.9157,3039.8442],[29.0711,-28.9185,2981.293],[29.0778,-28.9181,2934.9661],[29.0724,-28.9227,3020.0317],[29.0772,-28.9285,2912.7153],[29.0735,-28.9351,3161.5759],[29.0739,-28.9377,3150.938],[29.0789,-28.9394,3096.9878],[29.0856,-28.9359,2902.1809],[29.0892,-28.9375,2880.3901],[29.0933,-28.9367,2880.4189],[29.0935,-28.9386,2858.551],[29.0994,-28.9422,2916.1519],[29.1012,-28.9481,2867.5239],[29.1083,-28.9493,2893.1985],[29.1112,-28.9532,2955.2864],[29.1267,-28.9639,2890.5488],[29.1305,-28.969,2745.0347],[29.1263,-28.9682,2977.6465],[29.1233,-28.9704,3003.8057],[29.1245,-28.9803,3161.2197],[29.1336,-28.9851,3055.1284],[29.1376,-28.9837,2965.1655],[29.1378,-28.9814,2973.1814],[29.1408,-28.9817,2913.8313],[29.1434,-28.9847,2984.3091],[29.1517,-28.9878,2756.6104],[29.1492,-28.9897,2974.8193],[29.1528,-28.9902,2988.0918],[29.1546,-28.9975,3156.959],[29.1592,-29.0031,3237.9807],[29.1669,-29.002,3254.7656],[29.1782,-29.0033,2977.1396],[29.1852,-29.013,3047.3557],[29.202,-29.0154,2921.8564],[29.2088,-29.0224,2922.2654],[29.2153,-29.0261,3014.3982],[29.2173,-29.0311,3006.7957],[29.215,-29.0348,3030.5291],[29.2111,-29.0372,3042.9714],[29.2136,-29.0407,3010.0894],[29.2119,-29.0461,2938.0635],[29.2153,-29.0485,2768.1445],[29.2257,-29.0494,2734.4807],[29.2296,-29.0568,2828.1021],[29.2279,-29.0631,2975.4526],[29.2398,-29.073,3194.8374],[29.2413,-29.076,3246.9697],[29.2526,-29.0822,3329.8635],[29.2542,-29.0891,3317.624],[29.2585,-29.0906,3311.2361],[29.2611,-29.0895,3292.7554],[29.2632,-29.0856,3281.76],[29.2693,-29.0812,3275.3274],[29.2746,-29.0797,3225.271],[29.2792,-29.0757,3285.6748],[29.3078,-29.0766,3295.9966],[29.3126,-29.0794,3299.0664],[29.3146,-29.0856,3259.9038],[29.3255,-29.0972,3306.9873],[29.3261,-29.1013,3234.0928],[29.3295,-29.1016,3179.3408],[29.3375,-29.1065,3176.3445],[29.3438,-29.115,3148.7234],[29.3494,-29.1187,2912.9907],[29.3489,-29.1208,2918.4978],[29.3561,-29.1276,3116.3091],[29.3548,-29.1311,3019.646],[29.3559,-29.1327,2983.9805]]]]}
,"properties": {"GID_3": "ZAF.4.9.4_1","GID_0": "ZAF","country": "SouthAfrica","GID_1": "ZAF.4_1","province": "KwaZulu-Natal","NL_NAME_1": "NA","GID_2": "ZAF.4.9_1","county": "Uthukela","NL_NAME_2": "NA","city": "Okhahlamba","VARNAME_3": "NA","NL_NAME_3": "NA","TYPE_3": "LocalMunicipality","ENGTYPE_3": "LocalMunicipality","CC_3": "KZN235","HASC_3": "NA","name": "Okhahlamba.city","area_km2": 3977.708,"hist_schema_id": "Elevation0-9000","hist_area_km2": {"950": 0.706,"975": 22.23,"1000": 47.612,"1025": 85.333,"1050": 131.018,"1075": 152.109,"1100": 152.753,"1125": 185.893,"1150": 222.173,"1175": 282.542,"1200": 263.364,"1225": 226.512,"1250": 190.511,"1275": 153.697,"1300": 135.627,"1325": 118.988,"1350": 101.323,"1375": 82.187,"1400": 69.624,"1425": 68.459,"1450": 70.062,"1475": 58.482,"1500": 52.07,"1525": 47.923,"1550": 47.98,"1575": 47.52,"1600": 47.091,"1625": 42.015,"1650": 35.673,"1675": 37.011,"1700": 42.82,"1725": 46.384,"1750": 41.787,"1775": 38.782,"1800": 35.945,"1825": 38.092,"1850": 34.63,"1875": 35.364,"1900": 35.117,"1925": 34.447,"1950": 33.813,"1975": 31.123,"2000": 29.341,"2025": 25.929,"2050": 23.663,"2075": 21.639,"2100": 17.314,"2125": 15.42,"2150": 13.323,"2175": 11.151,"2200": 9.686,"2225": 9.407,"2250": 8.275,"2275": 7.384,"2300": 7.18,"2325": 7.143,"2350": 6.865,"2375": 6.402,"2400": 5.956,"2425": 6.327,"2450": 5.9,"2475": 5.176,"2500": 4.639,"2525": 4.508,"2550": 4.36,"2575": 3.804,"2600": 4.342,"2625": 4.045,"2650": 4.026,"2675": 3.785,"2700": 3.599,"2725": 3.747,"2750": 3.154,"2775": 3.561,"2800": 2.82,"2825": 3.005,"2850": 2.95,"2875": 2.56,"2900": 2.542,"2925": 2.635,"2950": 2.839,"2975": 3.285,"3000": 3.657,"3025": 3.897,"3050": 3.693,"3075": 3.451,"3100": 3.655,"3125": 3.154,"3150": 4.025,"3175": 3.319,"3200": 2.28,"3225": 1.742,"3250": 1.427,"3275": 1.278,"3300": 0.908,"3325": 0.537,"3350": 0.167,"3375": 0.037}}}