{"type":"Feature","properties":{"GID_2":"ZAF.1.7_1","GID_0":"ZAF","country":"SouthAfrica","GID_1":"ZAF.1_1","province":"EasternCape","NL_NAME_1":"NA","county":"NelsonMandelaBay","VARNAME_2":"NA","NL_NAME_2":"NA","TYPE_2":"DistrictMunicipality","ENGTYPE_2":"DistrictMunicipality","CC_2":"NMA","HASC_2":"ZA.EC.NM","name":"Nelson_Mandela_Bay.county"},
"geometry":{"type": "MultiPolygon","coordinates": [[[[25.6151,-33.9154,0.0],[25.6201,-33.8996,0.2966],[25.6232,-33.8946,0.0],[25.6229,-33.8907,0.0],[25.6265,-33.8799,0.0],[25.6326,-33.8688,0.0],[25.6318,-33.8651,0.0],[25.6365,-33.8604,0.0],[25.6424,-33.8496,0.0],[25.6563,-33.8307,6.4273],[25.6801,-33.8079,15.0552],[25.6963,-33.7982,0.0],[25.6982,-33.794,1.5616],[25.709,-33.7871,1.7717],[25.7549,-33.7646,0.0],[25.7779,-33.7476,10.2068],[25.8082,-33.7354,0.0],[25.8493,-33.7221,0.0],[25.8682,-33.6995,77.512],[25.8619,-33.6841,53.8621],[25.858,-33.682,62.5619],[25.8498,-33.6654,74.9988],[25.7916,-33.6837,61.4279],[25.7925,-33.6944,4.356],[25.7858,-33.6941,1.7587],[25.7758,-33.6897,6.2403],[25.7705,-33.684,2.8283],[25.7685,-33.6791,6.4021],[25.7394,-33.6581,5.1291],[25.7375,-33.6535,8.0796],[25.7389,-33.6391,7.5368],[25.7354,-33.6281,5.0232],[25.731,-33.6254,6.0766],[25.7132,-33.6233,8.8753],[25.7078,-33.6206,9.873],[25.7047,-33.6224,8.2949],[25.7017,-33.6278,13.0854],[25.6914,-33.6152,16.059],[25.6936,-33.6095,33.8211],[25.6881,-33.6016,40.4933],[25.6786,-33.6061,35.0552],[25.6752,-33.6179,23.3082],[25.6823,-33.6185,17.2254],[25.679,-33.6226,20.1907],[25.6835,-33.6252,18.1256],[25.6793,-33.6284,10.098],[25.6695,-33.6198,9.0695],[25.6681,-33.6144,25.659],[25.6596,-33.6153,11.4224],[25.6271,-33.6089,118.5574],[25.6317,-33.5916,42.946],[25.558,-33.5962,169.3575],[25.5534,-33.6051,140.6867],[25.5558,-33.6281,205.9201],[25.4938,-33.6116,256.9803],[25.5076,-33.5718,267.7969],[25.4377,-33.5531,224.5871],[25.4263,-33.559,257.5335],[25.4045,-33.5617,325.3939],[25.3583,-33.5567,287.6823],[25.3463,-33.5571,261.2291],[25.3211,-33.6216,680.4191],[25.3395,-33.6288,650.514],[25.3362,-33.6367,770.5566],[25.3081,-33.6379,930.5578],[25.3478,-33.6709,546.0997],[25.3306,-33.689,451.0516],[25.3505,-33.702,300.752],[25.3504,-33.7151,253.3329],[25.3373,-33.7095,284.8796],[25.3273,-33.7259,120.6504],[25.3075,-33.7169,155.7419],[25.2951,-33.7141,96.698],[25.3027,-33.7121,140.3752],[25.3014,-33.703,137.1172],[25.267,-33.6976,130.7207],[25.2755,-33.6889,237.244],[25.2492,-33.6828,283.7556],[25.2475,-33.687,150.4238],[25.2399,-33.6913,196.4136],[25.2418,-33.6944,165.1553],[25.2448,-33.6924,146.1315],[25.2533,-33.6917,202.2742],[25.261,-33.6964,238.0605],[25.264,-33.7015,156.191],[25.2663,-33.6993,144.2578],[25.2682,-33.7062,124.3484],[25.2831,-33.7112,194.0961],[25.2913,-33.7225,200.2563],[25.3015,-33.7264,167.5485],[25.285,-33.7533,279.1447],[25.305,-33.762,169.0278],[25.2997,-33.7709,382.9755],[25.2733,-33.7734,389.9308],[25.2682,-33.7793,395.2663],[25.2616,-33.8021,105.6463],[25.2261,-33.8484,323.6069],[25.2279,-33.8502,339.4002],[25.2259,-33.852,309.11],[25.2469,-33.8631,441.2169],[25.2187,-33.8764,472.1392],[25.2637,-33.8868,550.9508],[25.2124,-33.8838,222.7141],[25.209,-33.8865,197.4393],[25.2059,-33.8932,180.2552],[25.201,-33.8986,163.5054],[25.1987,-33.905,126.2368],[25.1994,-33.9074,109.5643],[25.1959,-33.9105,103.2819],[25.1923,-33.922,91.4913],[25.1956,-33.9252,60.037],[25.2058,-33.9214,221.6814],[25.2087,-33.9217,214.7988],[25.215699999999998,-33.9345,167.4897],[25.2244,-33.9394,155.3067],[25.225,-33.9466,86.6736],[25.2269,-33.9469,86.6736],[25.2282,-33.9513,19.4605],[25.221,-33.9617,9.9783],[25.2139,-33.9606,127.2595],[25.2121,-33.9644,50.1432],[25.2204,-33.967,0.0],[25.2215,-33.9708,2.1673],[25.2237,-33.9715,0.0],[25.2787,-33.984,2.182],[25.3001,-33.9924,0.0],[25.3049,-33.9926,2.4534],[25.309,-33.9957,0.0],[25.3224,-33.9996,2.2109],[25.3257,-34.0026,11.168],[25.331,-34.0037,3.7461],[25.3571,-34.0165,0.0],[25.3621,-34.0185,0.0],[25.3676,-34.0174,10.7555],[25.3765,-34.0218,0.0],[25.3807,-34.0218,0.8064],[25.3865,-34.026,1.2509],[25.394,-34.0282,8.5381],[25.3951,-34.0307,1.3334],[25.4063,-34.0335,0.6374],[25.4188,-34.0326,15.301],[25.4376,-34.0343,10.5485],[25.4596,-34.0288,4.8063],[25.4676,-34.0288,4.1801],[25.4754,-34.0301,2.5934],[25.4793,-34.0326,0.0],[25.4851,-34.0324,14.8325],[25.4988,-34.0357,0.0],[25.504,-34.0351,0.0],[25.5112,-34.0374,4.6613],[25.521,-34.0368,0.0],[25.536,-34.0421,0.6456],[25.5604,-34.0438,6.4695],[25.5782,-34.0493,1.3086],[25.5924,-34.049,0.0],[25.5946,-34.0474,6.2186],[25.6115,-34.0451,0.5882],[25.6246,-34.0471,1.9812],[25.6326,-34.0465,0.0],[25.6407,-34.0396,0.0],[25.6454,-34.0393,0.0],[25.6457,-34.036,0.0],[25.6493,-34.0337,0.0],[25.6493,-34.0304,0.0],[25.6546,-34.0271,5.3076],[25.6618,-34.026,8.7108],[25.679,-34.0271,1.8807],[25.6893,-34.031,0.4652],[25.6968,-34.0315,0.0],[25.6971,-34.0343,0.0],[25.7007,-34.0332,0.0],[25.7021,-34.0357,0.0],[25.7035,-34.0351,0.0],[25.7068,-34.0315,0.0],[25.7051,-34.0285,0.0],[25.694,-34.0301,0.0],[25.6996,-34.0285,2.0711],[25.701,-34.0243,0.0],[25.696,-34.0201,1.9874],[25.6874,-33.9996,0.0],[25.6843,-33.9987,0.0],[25.6815,-33.9943,1.2873],[25.6735,-33.9874,0.0],[25.6721,-33.9837,0.2488],[25.661,-33.9813,5.4208],[25.6476,-33.9749,4.0907],[25.6435,-33.9654,1.0351],[25.6457,-33.9618,0.2648],[25.6437,-33.9618,0.5015],[25.6376,-33.9674,0.0],[25.6343,-33.9649,0.0],[25.6324,-33.9651,0.0],[25.6321,-33.964,1.6294],[25.6371,-33.9632,0.0],[25.6371,-33.9618,0.7357],[25.6307,-33.9618,1.7375],[25.6301,-33.9599,1.272],[25.6401,-33.959,1.496],[25.6393,-33.9551,1.4068],[25.6251,-33.956,0.0],[25.6162,-33.9518,1.1345],[25.6135,-33.9487,3.3806],[25.6115,-33.9296,5.0366],[25.6151,-33.9154,0.0]]],
[[[25.6446,-33.9543,0.0],[25.6435,-33.9535,0.0],[25.6429,-33.9546,0.0],[25.6451,-33.9571,0.0],[25.6454,-33.9562,0.0],[25.6446,-33.9543,0.0]]],
[[[25.7051,-33.8051,0.1775],[25.7049,-33.804,0.0],[25.704,-33.8037,0.0],[25.704,-33.8065,0.0],[25.7051,-33.8051,0.1775]]],
[[[25.7704,-33.7979,0.0],[25.7674,-33.7968,1.8289],[25.7668,-33.8001,1.054],[25.7726,-33.8021,0.0],[25.7729,-33.799,0.0],[25.7704,-33.7979,0.0]]]]}}