{"type": "Feature","bbox": [18.8754,-32.6732,21.3053,-29.6038],"geometry": {"type": "MultiPolygon","coordinates": [[[[19.7582,-30.3931,943.9826],[19.7523,-30.3942,949.5581],[19.7131,-30.3844,940.1098],[19.6494,-30.3789,950.1976],[19.5937,-30.3511,942.6909],[19.5338,-30.317,928.3127],[19.4648,-30.3179,943.2644],[19.3684,-30.2964,955.3754],[19.2981,-30.2541,934.6981],[19.1872,-30.2985,884.7649],[19.1612,-30.3206,871.6829],[19.1358,-30.3769,904.7132],[19.0831,-30.3424,909.9977],[19.006,-30.497,856.0791],[18.9988,-30.5413,795.0581],[18.9515,-30.7444,1082.4213],[18.9605,-30.8661,579.3217],[18.8754,-30.8871,455.0441],[18.9242,-30.916,417.8918],[18.9845,-30.9458,373.2956],[18.9118,-30.9789,346.9026],[18.9035,-31.0418,275.1245],[18.9123,-31.0608,274.1932],[18.9476,-31.1129,745.5668],[18.9497,-31.1959,274.6217],[18.9445,-31.2373,655.5297],[18.9664,-31.2845,288.0703],[19.013,-31.3057,798.0],[18.9801,-31.3552,820.2747],[19.0124,-31.3701,809.3269],[19.0309,-31.3895,780.0303],[19.034,-31.4022,780.1161],[19.0324,-31.4032,776.6429],[19.0307,-31.4154,756.3485],[19.043,-31.425,699.2982],[19.0369,-31.4643,709.504],[19.0246,-31.4821,747.3604],[19.0197,-31.4993,854.4109],[19.0062,-31.512,643.4677],[19.012,-31.5144,762.3832],[19.0187,-31.5104,790.3096],[19.0231,-31.5051,820.6036],[19.0418,-31.5185,718.7983],[19.0678,-31.518,673.3068],[19.0781,-31.5251,682.0886],[19.0854,-31.5269,660.3212],[19.0518,-31.5727,617.4807],[19.0556,-31.575,652.5021],[19.0737,-31.5743,373.4825],[19.0854,-31.5721,724.0248],[19.0905,-31.5978,688.4686],[19.0705,-31.6241,647.2228],[19.079,-31.6432,703.0422],[19.0737,-31.6669,855.8646],[19.0549,-31.6703,609.9393],[19.0577,-31.6878,546.3456],[19.0656,-31.7063,472.582],[19.0769,-31.7185,441.4534],[19.0811,-31.7307,489.7131],[19.0947,-31.7502,320.1851],[19.0914,-31.7625,430.1118],[19.0857,-31.7629,294.3418],[19.0808,-31.7596,297.3009],[19.073,-31.7619,283.3219],[19.0665,-31.766,283.5037],[19.065,-31.7779,276.0472],[19.066,-31.7809,273.7899],[19.0701,-31.7838,282.9094],[19.0757,-31.7819,265.8438],[19.0766,-31.7882,296.9154],[19.083,-31.7859,299.4342],[19.0872,-31.7936,256.9838],[19.08,-31.794,361.4317],[19.0782,-31.8024,217.6512],[19.0723,-31.8039,226.9575],[19.0691,-31.8085,198.598],[19.0601,-31.8107,192.7382],[19.0586,-31.815,205.2349],[19.0539,-31.8167,232.7148],[19.0535,-31.8226,224.1594],[19.0468,-31.8295,183.0357],[19.044,-31.8302,204.6389],[19.0384,-31.8287,182.6966],[19.0303,-31.8338,169.6217],[19.0298,-31.8359,171.2907],[19.0323,-31.8398,163.8887],[19.0266,-31.8435,247.7564],[19.0329,-31.849,154.7465],[19.0315,-31.8548,140.6139],[19.0346,-31.8589,144.0456],[19.0301,-31.8629,140.3306],[19.0314,-31.8682,202.7778],[19.0258,-31.8709,134.3818],[19.0272,-31.8743,173.8779],[19.0262,-31.8766,121.9857],[19.0348,-31.8762,139.0587],[19.058,-31.8804,122.6327],[19.0822,-31.8898,130.8536],[19.0859,-31.894,127.1872],[19.1094,-31.8981,130.666],[19.1181,-31.9071,133.8125],[19.1308,-31.9066,147.9407],[19.1418,-31.9121,175.7032],[19.1448,-31.9105,170.4331],[19.1504,-31.9029,156.2354],[19.156,-31.8997,176.5044],[19.159,-31.8996,156.547],[19.1723,-31.9098,168.2791],[19.1997,-31.9048,341.3795],[19.2107,-31.948,344.1734],[19.2441,-31.9139,393.3755],[19.2897,-31.863,496.3432],[19.2798,-31.922,544.918],[19.2648,-31.965699999999998,402.1949],[19.2775,-31.9797,284.4617],[19.2899,-31.9651,475.164],[19.3234,-31.9848,482.7234],[19.3298,-32.0126,295.0832],[19.3531,-32.0279,278.7488],[19.363,-32.0428,295.5958],[19.3804,-32.0376,229.4861],[19.3958,-32.0151,241.7823],[19.4259,-32.0313,389.5841],[19.4676,-32.0731,222.5681],[19.4799,-32.073,210.6542],[19.4863,-32.0764,214.9232],[19.488,-32.0915,290.7183],[19.4834,-32.1137,321.1803],[19.4885,-32.1212,230.2146],[19.5075,-32.0861,340.2406],[19.5152,-32.1152,266.0602],[19.5083,-32.1259,337.391],[19.4911,-32.1301,328.3318],[19.4752,-32.1463,300.0104],[19.4841,-32.1614,384.8646],[19.4793,-32.1677,292.2106],[19.4873,-32.1637,385.7477],[19.5014,-32.1799,388.5556],[19.4927,-32.1986,351.761],[19.5023,-32.2054,292.1859],[19.4942,-32.2087,293.8775],[19.4972,-32.2152,246.0322],[19.4958,-32.2216,245.7945],[19.4858,-32.2358,247.0284],[19.4875,-32.2421,248.5137],[19.4951,-32.245,249.8428],[19.4919,-32.2517,407.5215],[19.4091,-32.2901,689.2899],[19.4302,-32.3657,556.3675],[19.4353,-32.3683,322.8616],[19.4347,-32.3732,347.0228],[19.4432,-32.3883,344.6956],[19.4533,-32.3979,392.6615],[19.4594,-32.41,363.7395],[19.4647,-32.4151,363.3166],[19.4671,-32.4216,355.8279],[19.4719,-32.4279,371.4623],[19.4727,-32.4361,365.6171],[19.4798,-32.4413,366.8073],[19.4892,-32.4635,392.7975],[19.4954,-32.4737,379.1134],[19.4984,-32.4753,389.8211],[19.5037,-32.4729,394.3382],[19.5071,-32.4731,377.4597],[19.5164,-32.4859,372.847],[19.495,-32.4989,660.1443],[19.4868,-32.5654,635.2913],[19.4992,-32.6121,741.5452],[19.528199999999998,-32.6732,900.7007],[19.5872,-32.6478,620.4072],[19.6049,-32.6295,497.5035],[19.612,-32.5666,465.3359],[19.6071,-32.5454,434.9721],[19.6265,-32.502,485.4599],[19.6218,-32.4706,504.5298],[19.6549,-32.4388,391.2683],[19.6681,-32.4548,398.9548],[19.6797,-32.4635,372.7944],[19.6996,-32.454,391.9349],[19.7302,-32.4424,353.0581],[19.7074,-32.4203,343.6666],[19.7313,-32.4101,333.2991],[19.7366,-32.3855,335.365],[19.7641,-32.4111,322.1131],[19.8027,-32.3937,323.6179],[19.8178,-32.3607,335.7716],[19.8495,-32.3662,358.6543],[19.8739,-32.3832,352.1604],[19.9375,-32.3773,393.3827],[19.9682,-32.3505,422.873],[20.0044,-32.3299,406.5927],[20.0386,-32.2964,427.4671],[20.0536,-32.2523,568.9379],[20.085,-32.2483,504.1773],[20.097,-32.2502,503.3463],[20.1001,-32.2427,492.3928],[20.1093,-32.2301,508.0833],[20.1141,-32.214,526.3906],[20.119,-32.207,535.9449],[20.1359,-32.1923,592.6766],[20.1518,-32.1865,594.2318],[20.1381,-32.1803,1183.2509],[20.162,-32.1443,714.6986],[20.1647,-32.0874,1180.9147],[20.1731,-32.091,1188.6265],[20.181,-32.114,1181.33],[20.1889,-32.0876,1252.5125],[20.2469,-32.0903,1557.436],[20.2771,-32.0842,1604.6525],[20.311,-32.0326,1511.1154],[20.2801,-32.0124,1524.7161],[20.2863,-32.0058,1486.441],[20.2957,-31.9769,1343.5164],[20.2914,-31.9688,1276.8696],[20.3267,-31.9035,1182.2322],[20.3405,-31.8965,1189.3259],[20.3176,-31.8641,1214.1973],[20.3316,-31.8435,1165.8076],[20.3719,-31.822,1079.3378],[20.4349,-31.8051,1278.1619],[20.4747,-31.8062,1332.4426],[20.4756,-31.8406,1345.2583],[20.5593,-31.8527,1156.7825],[20.6484,-31.8445,1222.7114],[20.621,-31.7658,1162.0979],[20.6025,-31.7549,1159.4258],[20.5828,-31.7333,1235.9623],[20.5625,-31.7228,1177.4247],[20.6105,-31.6575,1129.9485],[20.5576,-31.6048,1125.4545],[20.5847,-31.574,1080.2822],[20.6102,-31.5363,1117.1699],[20.6241,-31.5201,1096.592],[20.5641,-31.4941,1186.6116],[20.553,-31.4564,1115.3629],[20.5277,-31.4249,1109.0742],[20.5793,-31.4152,1172.076],[20.582,-31.3897,1242.5447],[20.5619,-31.3906,1226.147],[20.5463,-31.3315,1269.9794],[20.5916,-31.3106,1273.7555],[20.5515,-31.2354,1069.963],[20.5793,-31.2263,1075.1631],[20.6315,-31.1927,1001.0436],[20.6263,-31.1879,999.557],[20.589,-31.1923,1015.0565],[20.559,-31.196,1033.1707],[20.5514,-31.1994,1040.0532],[20.5499,-31.2027,1040.6757],[20.4605,-31.1768,1056.6873],[20.4231,-31.1785,1009.1182],[20.4031,-31.1855,1000.6813],[20.3968,-31.1501,997.212],[20.389,-31.1546,996.3729],[20.3512,-31.0909,1011.9156],[20.3665,-31.0415,989.2836],[20.3786,-31.0269,1002.7504],[20.3745,-31.009,1005.1774],[20.3899,-30.9568,971.0005],[20.4593,-30.8989,1004.6497],[20.4205,-30.8981,948.7827],[20.4422,-30.88,963.1931],[20.3832,-30.8153,944.1358],[20.4121,-30.7583,940.4241],[20.4455,-30.7177,940.3633],[20.4553,-30.6627,937.53],[20.4785,-30.6206,930.5742],[20.4554,-30.5909,926.8206],[20.4428,-30.5394,922.4729],[20.4777,-30.5064,919.6025],[20.4994,-30.5002,923.1557],[20.5142,-30.4758,917.1563],[20.5331,-30.4525,925.2955],[20.5193,-30.4419,910.6141],[20.5306,-30.4073,909.5884],[20.5602,-30.3667,905.1704],[20.5791,-30.292,902.5054],[20.581,-30.247,896.5693],[20.6623,-30.2874,953.3846],[20.7281,-30.299,986.6417],[20.7597,-30.2961,982.2672],[20.8164,-30.327,973.4979],[20.8522,-30.3438,977.0889],[20.8911,-30.3447,973.0375],[20.9775,-30.3156,990.9764],[20.978,-30.3129,991.0774],[21.0201,-30.3018,983.9593],[21.0772,-30.301,1000.1608],[21.1431,-30.2562,967.4983],[21.1492,-30.2077,931.2388],[21.2598,-30.2041,912.313],[21.2107,-30.1793,890.3185],[21.1522,-30.1918,938.2393],[21.1652,-30.0856,905.8433],[21.2428,-30.0392,870.4645],[21.3053,-29.9804,873.1774],[21.2449,-29.9309,878.7567],[21.1541,-29.8726,901.9278],[21.272,-29.7363,889.8643],[21.2756,-29.6872,919.391],[21.2303,-29.6548,902.3767],[21.1954,-29.6373,868.2232],[21.1136,-29.6973,847.9808],[21.0371,-29.7488,852.1765],[20.9615,-29.7962,849.68],[20.8986,-29.8503,858.1064],[20.8576,-29.8586,869.4631],[20.8316,-29.8828,880.0946],[20.8037,-29.9422,879.1792],[20.8239,-29.952,879.7198],[20.7548,-29.9827,871.4728],[20.7261,-29.9911,872.4771],[20.7081,-29.9856,878.9622],[20.6709,-29.927,928.1019],[20.6264,-29.8632,923.0378],[20.6369,-29.7521,951.7045],[20.6614,-29.6431,933.4059],[20.6256,-29.6203,945.9313],[20.5945,-29.6348,932.1401],[20.5198,-29.719,959.6035],[20.4368,-29.6159,954.6616],[20.3858,-29.6038,966.7578],[20.2734,-29.6436,974.3737],[20.1567,-29.6525,954.8553],[20.1752,-29.7644,979.7526],[20.1475,-29.7867,986.0463],[20.1046,-29.8288,983.7948],[20.0475,-29.861,999.8467],[20.1141,-29.9455,1011.1837],[20.0508,-29.9658,1008.4081],[20.076,-30.0279,980.8853],[19.9802,-30.0846,962.3779],[20.002,-30.1507,960.4036],[19.9941,-30.1896,940.1178],[20.0274,-30.2386,941.9859],[20.0023,-30.2793,943.8237],[20.0224,-30.3136,934.9355],[19.9423,-30.3113,927.9216],[19.8747,-30.3426,904.9028],[19.8511,-30.3639,954.4841],[19.8057,-30.3849,931.4296],[19.7582,-30.3931,943.9826]]]]}
,"properties": {"GID_3": "ZAF.8.3.1_1","GID_0": "ZAF","country": "SouthAfrica","GID_1": "ZAF.8_1","province": "NorthernCape","NL_NAME_1": "NA","GID_2": "ZAF.8.3_1","county": "Namakwa","NL_NAME_2": "NA","city": "Hantam","VARNAME_3": "NA","NL_NAME_3": "NA","TYPE_3": "LocalMunicipality","ENGTYPE_3": "LocalMunicipality","CC_3": "NC065","HASC_3": "NA","name": "Hantam.city","area_km2": 36160.68,"hist_schema_id": "Elevation0-9000","hist_area_km2": {"125": 1.19,"150": 1.37,"175": 1.26,"200": 2.27,"225": 3.56,"250": 9.24,"275": 80.35,"300": 257.54,"325": 406.42,"350": 485.56,"375": 529.71,"400": 538.05,"425": 451.61,"450": 386.17,"475": 405.32,"500": 446.6,"525": 486.81,"550": 491.22,"575": 470.62,"600": 447.97,"625": 469.98,"650": 507.47,"675": 567.26,"700": 629.29,"725": 740.12,"750": 759.76,"775": 793.24,"800": 751.6,"825": 707.57,"850": 1247.96,"875": 2326.19,"900": 2437.64,"925": 3550.66,"950": 3605.68,"975": 2639.25,"1000": 1292.43,"1025": 866.34,"1050": 1047.26,"1075": 1023.17,"1100": 803.33,"1125": 562.32,"1150": 434.37,"1175": 456.35,"1200": 372.37,"1225": 264.38,"1250": 206.59,"1275": 166.6,"1300": 141.45,"1325": 126.11,"1350": 113.63,"1375": 103.2,"1400": 99.62,"1425": 90.81,"1450": 86.37,"1475": 81.49,"1500": 62.42,"1525": 44.94,"1550": 31.01,"1575": 25.52,"1600": 12.62,"1625": 5.53,"1650": 3.87}}}