{"type":"Feature","properties":{"GID_3":"ZAF.8.5.6_1","GID_0":"ZAF","country":"SouthAfrica","GID_1":"ZAF.8_1","province":"NorthernCape","NL_NAME_1":"NA","GID_2":"ZAF.8.5_1","county":"Siyanda","NL_NAME_2":"NA","city":"Tsantsabane","VARNAME_3":"NA","NL_NAME_3":"NA","TYPE_3":"LocalMunicipality","ENGTYPE_3":"LocalMunicipality","CC_3":"NC085","HASC_3":"NA","name":"Tsantsabane.city"},
"geometry":{"type": "MultiPolygon","coordinates": [[[[23.3917,-28.6601,1421.3521],[23.4103,-28.6953,1407.6782],[23.4219,-28.6963,1408.239],[23.4794,-28.7139,1451.9131],[23.5184,-28.733,1404.3223],[23.5425,-28.7475,1387.7239],[23.5578,-28.751,1382.9351],[23.6329,-28.7579,1352.9456],[23.6685,-28.7667,1340.311],[23.693,-28.7369,1338.4717],[23.6238,-28.7084,1368.5813],[23.6613,-28.6456,1390.8667],[23.707,-28.5877,1391.1289],[23.6535,-28.5664,1407.6417],[23.6303,-28.5544,1410.4382],[23.5431,-28.5173,1431.9766],[23.5682,-28.4499,1436.363],[23.5035,-28.4152,1438.0654],[23.4583,-28.4062,1593.0754],[23.3887,-28.3716,1591.0707],[23.4201,-28.295,1679.1812],[23.3988,-28.2824,1634.8314],[23.4421,-28.203,1694.115],[23.4731,-28.1768,1567.4469],[23.4872,-28.1602,1499.7919],[23.5236,-28.0953,1742.3445],[23.4755,-28.0976,1582.8544],[23.4412,-28.086,1632.6409],[23.362,-27.9422,1391.6731],[23.3496,-27.9019,1361.9907],[23.3044,-27.9365,1411.6895],[23.2668,-27.9466,1391.9375],[23.2203,-27.9543,1312.246],[23.1118,-27.9628,1304.7643],[23.0977,-27.8888,1265.2192],[23.0551,-27.8811,1228.1145],[23.0447,-27.8899,1226.3185],[23.0231,-27.858,1331.853],[22.9916,-27.898,1223.5498],[22.9632,-27.8958,1216.3945],[22.9331,-27.888,1228.6387],[22.8636,-27.9272,1220.6582],[22.8274,-27.956,1226.4095],[22.7728,-27.9841,1279.5203],[22.7484,-27.987,1332.9978],[22.674,-27.9844,1454.0461],[22.6448,-27.9879,1527.562],[22.6496,-27.9698,1670.3384],[22.6424,-27.9397,1650.1686],[22.7274,-27.9304,1432.1223],[22.7644,-27.9338,1370.1528],[22.7967,-27.9111,1312.2878],[22.7887,-27.8902,1305.0438],[22.7395,-27.8507,1244.3691],[22.7788,-27.8451,1217.652],[22.8193,-27.8316,1202.6458],[22.8017,-27.7929,1202.1522],[22.7663,-27.7508,1186.178],[22.7005,-27.687,1180.1573],[22.6747,-27.6678,1196.5428],[22.7014,-27.6657,1191.1218],[22.7116,-27.6124,1155.7065],[22.7198,-27.4564,1197.2441],[22.6691,-27.4507,1177.283],[22.6712,-27.3899,1156.3444],[22.6817,-27.3477,1217.0303],[22.6458,-27.3498,1175.9001],[22.653,-27.3141,1202.1215],[22.6726,-27.3029,1297.0775],[22.676,-27.2823,1242.4655],[22.6857,-27.2673,1204.4443],[22.6521,-27.2369,1169.4529],[22.6204,-27.2631,1394.0618],[22.5442,-27.2737,1393.3403],[22.5383,-27.2767,1447.0444],[22.4779,-27.2799,1231.7362],[22.4687,-27.2779,1407.6975],[22.3964,-27.278199999999998,1116.4277],[22.3975,-27.264,1120.1953],[22.3413,-27.2611,1088.9573],[22.3248,-27.0777,1034.1855],[22.2517,-27.0399,1005.7934],[22.2286,-27.0747,1009.9267],[22.2094,-27.0944,1005.4353],[22.1971,-27.0867,1001.8978],[22.1871,-27.0701,996.9651],[22.1506,-27.0309,981.5575],[22.1098,-26.9761,963.4424],[22.1003,-26.988,963.2666],[22.1046,-26.9952,964.2559],[22.11,-26.9939,966.0119],[22.1116,-27.0046,966.0167],[22.1424,-27.0429,981.7226],[22.1243,-27.0736,982.7919],[22.0588,-27.0969,976.067],[22.0297,-27.0964,968.1636],[21.9995,-27.1103,963.849],[21.9994,-27.5248,1035.5168],[21.9163,-27.5538,1009.887],[21.9997,-27.7506,1031.6682],[21.9997,-27.761,1044.7848],[21.987,-27.761,1034.1204],[21.9872,-27.8069,1048.9774],[21.7885,-27.9682,1012.283],[21.8329,-28.0106,1027.8182],[21.8261,-28.0389,1023.1636],[21.809,-28.08,1018.9286],[21.7557,-28.1416,1031.866],[21.7365,-28.1566,969.6709],[21.6813,-28.2096,945.1395],[21.7479,-28.2363,943.5093],[21.6896,-28.2752,933.3663],[21.7147,-28.2923,916.8837],[21.7465,-28.3008,913.6091],[21.7742,-28.353,912.7106],[21.797,-28.3437,920.9291],[21.8168,-28.3479,940.7634],[21.8376,-28.3827,944.2686],[21.9007,-28.4252,965.0275],[21.9266,-28.5205,930.0313],[21.9529,-28.5465,952.3628],[21.971,-28.5839,971.6912],[21.9922,-28.6087,999.8789],[22.0091,-28.6362,1026.009],[22.0248,-28.6572,1031.3644],[22.0459,-28.6817,1104.9633],[22.0688,-28.703,1088.6289],[22.0989,-28.7097,982.6455],[22.1233,-28.7632,959.9727],[22.4606,-28.4445,1159.0002],[22.5243,-28.4974,1213.3806],[22.583,-28.4991,1278.9023],[22.5914,-28.5148,1559.5037],[22.6007,-28.5029,1526.1797],[22.6672,-28.5027,1188.4194],[22.7298,-28.518,1188.0764],[22.7658,-28.5419,1158.6514],[22.7962,-28.5776,1141.6122],[22.838,-28.5763,1117.0769],[22.8765,-28.5797,1133.906],[22.9176,-28.577,1164.416],[22.9625,-28.5614,1186.2134],[22.9957,-28.5803,1209.9796],[23.0142,-28.5812,1215.8832],[23.097,-28.5993,1371.4381],[23.1285,-28.5966,1364.4761],[23.1824,-28.5705,1501.2693],[23.1924,-28.5456,1482.6616],[23.223,-28.5573,1466.6578],[23.2075,-28.6013,1443.5402],[23.2022,-28.6296,1430.3408],[23.2336,-28.6373,1422.7036],[23.2551,-28.6143,1482.9211],[23.292,-28.6499,1471.0369],[23.3547,-28.6471,1423.277],[23.3791,-28.6363,1457.8724],[23.3917,-28.6601,1421.3521]]]]}}