{"type":"Feature","properties":{"GID_3":"ZAF.9.6.2_1","GID_0":"ZAF","country":"SouthAfrica","GID_1":"ZAF.9_1","province":"WesternCape","NL_NAME_1":"NA","GID_2":"ZAF.9.6_1","county":"WestCoast","NL_NAME_2":"NA","city":"Cederberg","VARNAME_3":"NA","NL_NAME_3":"NA","TYPE_3":"LocalMunicipality","ENGTYPE_3":"LocalMunicipality","CC_3":"WC012","HASC_3":"NA","name":"Cederberg.city"},
"geometry":{"type": "MultiPolygon","coordinates": [[[[19.143,-32.6214,1191.0474],[19.1376,-32.6046,1156.9568],[19.1564,-32.6043,1470.1832],[19.1486,-32.5857,1371.2365],[19.1592,-32.5719,1393.7327],[19.2026,-32.5776,1590.7985],[19.2231,-32.5747,1553.4897],[19.2647,-32.5887,1487.5972],[19.2812,-32.5814,1344.6787],[19.32,-32.5746,1029.3235],[19.3412,-32.583,975.5894],[19.3569,-32.6164,1184.4788],[19.3712,-32.6089,1147.3223],[19.3961,-32.6067,1346.3409],[19.419,-32.6223,974.9863],[19.4379,-32.6259,603.5895],[19.4413,-32.6381,940.3475],[19.4533,-32.6257,553.0794],[19.4535,-32.6125,464.9483],[19.4522,-32.6078,445.3119],[19.4608,-32.6076,443.427],[19.4663,-32.6015,462.2637],[19.4756,-32.5969,537.6462],[19.485,-32.5799,450.5163],[19.4842,-32.5766,428.9385],[19.4868,-32.5654,635.2913],[19.495,-32.4989,660.1443],[19.5164,-32.4859,372.847],[19.5071,-32.4731,377.4597],[19.5037,-32.4729,394.3382],[19.4984,-32.4753,389.8211],[19.4954,-32.4737,379.1134],[19.4892,-32.4635,392.7975],[19.4798,-32.4413,366.8073],[19.4727,-32.4361,365.6171],[19.4719,-32.4279,371.4623],[19.4671,-32.4216,355.8279],[19.4647,-32.4151,363.3166],[19.4594,-32.41,363.7395],[19.4533,-32.3979,392.6615],[19.4432,-32.3883,344.6956],[19.4347,-32.3732,347.0228],[19.4353,-32.3683,322.8616],[19.4302,-32.3657,556.3675],[19.4091,-32.2901,689.2899],[19.4919,-32.2517,407.5215],[19.4951,-32.245,249.8428],[19.4875,-32.2421,248.5137],[19.4858,-32.2358,247.0284],[19.4958,-32.2216,245.7945],[19.4972,-32.2152,246.0322],[19.4942,-32.2087,293.8775],[19.5023,-32.2054,292.1859],[19.4927,-32.1986,351.761],[19.5014,-32.1799,388.5556],[19.4873,-32.1637,385.7477],[19.4793,-32.1677,292.2106],[19.4841,-32.1614,384.8646],[19.4752,-32.1463,300.0104],[19.4911,-32.1301,328.3318],[19.5083,-32.1259,337.391],[19.5152,-32.1152,266.0602],[19.5075,-32.0861,340.2406],[19.4885,-32.1212,230.2146],[19.4834,-32.1137,321.1803],[19.488,-32.0915,290.7183],[19.4863,-32.0764,214.9232],[19.4799,-32.073,210.6542],[19.4676,-32.0731,222.5681],[19.4259,-32.0313,389.5841],[19.3958,-32.0151,241.7823],[19.3804,-32.0376,229.4861],[19.363,-32.0428,295.5958],[19.3531,-32.0279,278.7488],[19.3298,-32.0126,295.0832],[19.3234,-31.9848,482.7234],[19.2899,-31.9651,475.164],[19.2775,-31.9797,284.4617],[19.2648,-31.965699999999998,402.1949],[19.2798,-31.922,544.918],[19.2897,-31.863,496.3432],[19.2441,-31.9139,393.3755],[19.2107,-31.948,344.1734],[19.1997,-31.9048,341.3795],[19.1723,-31.9098,168.2791],[19.159,-31.8996,156.547],[19.156,-31.8997,176.5044],[19.1504,-31.9029,156.2354],[19.142,-31.9121,175.7032],[19.1308,-31.9066,147.9407],[19.1181,-31.9071,133.8125],[19.1094,-31.8981,130.666],[19.0859,-31.894,127.1872],[19.0812,-31.8893,147.1382],[19.0532,-31.879,122.014],[19.034,-31.8762,139.0587],[18.9878,-31.8793,111.511],[18.9833,-31.8752,121.3349],[18.985,-31.8692,114.3036],[18.9817,-31.8556,99.1298],[18.9599,-31.8591,101.0238],[18.9341,-31.854,122.5448],[18.9048,-31.8585,80.9074],[18.8917,-31.8526,102.9557],[18.8794,-31.8518,79.5572],[18.8747,-31.8527,88.2795],[18.8646,-31.8589,74.6038],[18.8568,-31.8579,97.0746],[18.8467,-31.859,74.1901],[18.8236,-31.8686,72.5604],[18.8205,-31.8678,64.8026],[18.8196,-31.8652,75.2535],[18.8152,-31.8627,97.8779],[18.8039,-31.8619,55.7911],[18.7903,-31.8655,71.9639],[18.7853,-31.8729,54.8361],[18.7807,-31.8754,54.7165],[18.7576,-31.8733,53.3957],[18.7479,-31.8779,58.5619],[18.7413,-31.8789,50.1806],[18.7183,-31.8635,40.0997],[18.711,-31.8546,38.1868],[18.7027,-31.8522,41.4182],[18.7007,-31.8526,48.3122],[18.689,-31.8661,92.5452],[18.7073,-31.8967,157.7234],[18.6557,-31.9312,292.6202],[18.6647,-31.9557,518.0798],[18.6229,-31.9563,250.4098],[18.5612,-31.8789,193.1824],[18.5454,-31.8844,246.0066],[18.5109,-31.8837,336.0687],[18.4992,-31.889,333.4168],[18.4837,-31.8846,338.0872],[18.4903,-31.8784,313.3892],[18.4945,-31.8681,286.0543],[18.4599,-31.8578,190.1237],[18.4516,-31.8438,257.1501],[18.3957,-31.874,194.9087],[18.436,-31.9041,179.867],[18.4361,-31.9111,174.5984],[18.402,-31.9121,188.5732],[18.4119,-31.9456,136.9087],[18.4012,-31.9515,108.0986],[18.3925,-31.9542,97.1919],[18.3951,-31.9625,101.5685],[18.3254,-31.9807,51.6275],[18.3118,-31.9981,26.9782],[18.2903,-32.0067,6.129],[18.2946,-32.0165,5.7162],[18.2932,-32.0249,0.2499],[18.2971,-32.0279,6.0927],[18.3035,-32.0418,1.9109],[18.3151,-32.0737,6.1779],[18.3143,-32.0846,4.4233],[18.3079,-32.0913,9.9723],[18.3046,-32.091,0.719],[18.3051,-32.0865,0.0],[18.3026,-32.0885,0.3522],[18.2993,-32.0865,0.0],[18.2974,-32.0871,0.0],[18.3007,-32.0918,1.405],[18.2985,-32.096,0.0],[18.3013,-32.0985,0.7165],[18.3007,-32.1024,0.0],[18.3021,-32.1035,0.0],[18.3013,-32.1154,3.3789],[18.3051,-32.1329,5.9609],[18.3062,-32.1471,0.0],[18.3118,-32.1621,7.5909],[18.3115,-32.1657,8.2074],[18.3096,-32.1674,0.9183],[18.3118,-32.171,2.6599],[18.3101,-32.1743,0.0],[18.3185,-32.1868,1.9584],[18.3263,-32.2038,2.7545],[18.3257,-32.2085,8.1628],[18.3235,-32.2118,0.0],[18.3274,-32.2207,1.7686],[18.3288,-32.2207,1.7686],[18.3293,-32.2268,0.0],[18.3349,-32.2374,0.0],[18.3426,-32.2643,1.2327],[18.3457,-32.281,3.0944],[18.3429,-32.3065,2.5203],[18.3376,-32.3143,5.6085],[18.336,-32.316,3.0682],[18.3288,-32.3149,1.0099],[18.3232,-32.3174,0.3945],[18.3146,-32.314,0.0],[18.3135,-32.3171,0.0878],[18.3154,-32.3221,2.5312],[18.3146,-32.3262,0.0],[18.3168,-32.3307,0.0],[18.3154,-32.3368,0.5905],[18.3176,-32.3399,8.2101],[18.3237,-32.3593,5.706],[18.3279,-32.3799,8.1726],[18.3332,-32.4146,0.0],[18.3349,-32.4428,0.0],[18.3988,-32.4255,116.8329],[18.4062,-32.4341,96.1581],[18.4585,-32.4764,102.9132],[18.4696,-32.4658,236.1011],[18.4928,-32.4383,170.543],[18.5009,-32.434,7.8306],[18.5116,-32.4443,2.9271],[18.5198,-32.4496,4.5235],[18.541,-32.4441,221.5831],[18.558,-32.4524,46.0577],[18.5719,-32.4541,170.7598],[18.571,-32.4769,328.7092],[18.5752,-32.48,251.0395],[18.5913,-32.4648,228.0972],[18.6067,-32.4643,348.4039],[18.6427,-32.456,298.9288],[18.6576,-32.4613,287.7497],[18.6727,-32.4699,212.8397],[18.6622,-32.491,465.0157],[18.6852,-32.5191,403.0125],[18.7063,-32.5367,239.9277],[18.7079,-32.5576,126.8089],[18.7249,-32.5665,109.2566],[18.7684,-32.5653,318.4624],[18.8039,-32.572,205.1664],[18.7914,-32.5594,582.249],[18.7831,-32.5297,532.91],[18.7866,-32.5204,452.7155],[18.8277,-32.5113,855.1131],[18.8489,-32.5218,583.1761],[18.8673,-32.5392,738.6929],[18.8655,-32.5424,512.3856],[18.8862,-32.5556,559.6909],[18.9058,-32.5749,649.4066],[18.931,-32.6068,542.8608],[18.9499,-32.5991,769.8902],[18.9631,-32.6173,423.3426],[18.9607,-32.633,612.754],[18.9655,-32.6539,650.3034],[18.973,-32.6705,512.0742],[19.0072,-32.7162,681.3364],[19.0191,-32.77,347.9803],[19.0314,-32.7725,680.7948],[19.0329,-32.7783,723.4232],[19.0206,-32.7786,333.4595],[19.0239,-32.7973,360.7527],[19.0347,-32.7858,797.4148],[19.0411,-32.8242,627.5562],[19.0341,-32.8256,382.5781],[19.0357,-32.8489,387.2964],[19.0448,-32.8431,759.5209],[19.0643,-32.8345,235.0229],[19.0557,-32.8563,392.7579],[19.0563,-32.8593,407.0787],[19.0686,-32.8553,308.726],[19.0828,-32.8562,232.6886],[19.0818,-32.8667,244.9439],[19.0986,-32.8791,245.1289],[19.1084,-32.8758,573.2942],[19.1206,-32.8779,804.0938],[19.1505,-32.8721,1391.5837],[19.1844,-32.8271,1740.8535],[19.1706,-32.7958,1452.6052],[19.1718,-32.7368,1622.0498],[19.2086,-32.731,1074.0071],[19.2048,-32.7111,1154.1416],[19.1717,-32.6639,1489.0601],[19.164,-32.6493,1365.49],[19.143,-32.6214,1191.0474]]]]}}