{"type":"Feature","properties":{"GID_2":"ZAF.8.3_1","GID_0":"ZAF","country":"SouthAfrica","GID_1":"ZAF.8_1","province":"NorthernCape","NL_NAME_1":"NA","county":"Namakwa","VARNAME_2":"NA","NL_NAME_2":"NA","TYPE_2":"DistrictMunicipality","ENGTYPE_2":"DistrictMunicipality","CC_2":"DC6","HASC_2":"ZA.NC.NA","name":"Namakwa.county"},
"geometry":{"type": "MultiPolygon","coordinates": [[[[20.2794,-32.8024,1134.5137],[20.2999,-32.805,1111.2205],[20.3417,-32.8578,1311.4968],[20.3572,-32.8641,1299.9163],[20.3639,-32.8859,1341.9805],[20.3639,-32.9108,1248.1226],[20.3801,-32.9019,1233.7751],[20.4386,-32.9401,1381.5736],[20.4993,-32.9416,1397.4866],[20.5612,-32.881,1108.804],[20.5921,-32.9265,1067.3016],[20.5901,-32.943,1137.896],[20.6219,-32.9431,1115.2439],[20.6496,-32.9337,1038.7651],[20.6503,-32.9323,1028.5359],[20.7312,-32.945,964.4393],[20.7442,-32.9129,922.0602],[20.7986,-32.8947,925.8068],[20.8324,-32.8174,1180.1996],[20.8303,-32.7846,1328.0375],[20.7922,-32.735,1191.3918],[20.7898,-32.7112,1265.2651],[20.8228,-32.6945,1374.1479],[20.8441,-32.6624,1677.349],[20.9628,-32.6393,1613.8965],[21.0373,-32.6491,1670.2384],[21.0603,-32.6555,1650.5007],[21.0945,-32.653,1672.8942],[21.157,-32.6289,1082.6528],[21.1401,-32.5898,1692.823],[21.1821,-32.5087,1222.6161],[21.1883,-32.5031,1187.0238],[21.1975,-32.4998,1268.4801],[21.2311,-32.4632,1675.6997],[21.2695,-32.4503,1789.4546],[21.2815,-32.4397,1768.1074],[21.303,-32.4024,1448.5283],[21.3015,-32.3773,1702.451],[21.3528,-32.3915,1646.6675],[21.4084,-32.3688,1607.2904],[21.4299,-32.3752,1499.9863],[21.4436,-32.3548,1486.2245],[21.4756,-32.3315,1578.032],[21.5191,-32.337,1595.6145],[21.5504,-32.3269,1310.4189],[21.5618,-32.3147,1481.9401],[21.549,-32.2908,1833.0488],[21.536,-32.2292,1624.9363],[21.5489,-32.2284,1493.7092],[21.5786,-32.2215,1502.3228],[21.5944,-32.2169,1509.8901],[21.6065,-32.2097,1409.8356],[21.6446,-32.2087,1358.4851],[21.6655,-32.2314,1685.687],[21.6738,-32.2433,1699.8137],[21.6917,-32.2486,1653.5713],[21.7114,-32.2248,1617.4097],[21.7359,-32.205,1605.4451],[21.746,-32.2252,1532.8815],[21.773,-32.2268,1322.3574],[21.7703,-32.2384,1443.9731],[21.7806,-32.2509,1567.1237],[21.8551,-32.2755,1451.0067],[21.8742,-32.2766,1552.1125],[21.9016,-32.2709,1350.0858],[21.9046,-32.2564,1216.8517],[21.9074,-32.2528,1134.6398],[21.9246,-32.262,911.0541],[21.9362,-32.2229,1415.1775],[21.9712,-32.2164,1599.0779],[21.9959,-32.203,1362.8032],[21.9995,-32.206,1280.8728],[22.0035,-32.1742,1370.0342],[22.0164,-32.1143,1412.2646],[22.0696,-32.0815,1414.5044],[22.0896,-32.1464,1532.7303],[22.1199,-32.077,1522.7838],[22.134,-32.0644,1558.4232],[22.0936,-32.0459,1509.8789],[22.0741,-32.0179,1423.8335],[22.095,-32.0011,1499.6077],[22.0892,-31.9743,1482.3125],[22.0713,-31.9393,1366.2985],[22.1004,-31.9243,1352.6687],[22.1017,-31.9005,1330.3813],[22.1005,-31.893,1327.5889],[22.0972,-31.8886,1343.1034],[22.0917,-31.8854,1323.0078],[22.084,-31.8757,1319.5576],[22.0843,-31.8688,1317.4778],[22.0824,-31.8685,1316.6375],[22.08,-31.8637,1315.7683],[22.0789,-31.8549,1313.1665],[22.1159,-31.8626,1517.6877],[22.1315,-31.8843,1530.7739],[22.1666,-31.8931,1563.6682],[22.1769,-31.8207,1346.0004],[22.1599,-31.8097,1357.1692],[22.2063,-31.7922,1399.1962],[22.204,-31.764,1415.7312],[22.1879,-31.7814,1369.0132],[22.1833,-31.7816,1379.806],[22.1797,-31.7817,1377.9779],[22.1161,-31.7584,1409.6511],[22.0496,-31.77,1330.3302],[21.9868,-31.7199,1362.9891],[21.9854,-31.6959,1338.3173],[21.9436,-31.6818,1280.7255],[21.9155,-31.6457,1281.621],[21.9287,-31.6213,1261.1619],[21.9323,-31.6243,1262.7014],[21.9497,-31.601,1257.6763],[22.0117,-31.5905,1314.5674],[22.0005,-31.5662,1281.2717],[21.9879,-31.5581,1283.8501],[21.962,-31.5122,1253.4198],[21.9533,-31.4707,1273.0936],[21.9448,-31.4726,1281.9888],[21.9199,-31.4912,1295.0068],[21.8655,-31.4973,1287.4697],[21.8499,-31.4564,1292.4641],[21.9328,-31.4342,1253.6603],[21.9378,-31.4259,1245.2753],[21.9298,-31.4181,1297.4507],[21.8802,-31.3995,1320.845],[21.8145,-31.3978,1252.5599],[21.8228,-31.3535,1229.9016],[21.8137,-31.3334,1267.8289],[21.796,-31.3163,1232.9],[21.7473,-31.3158,1274.5867],[21.7624,-31.2714,1264.9875],[21.7261,-31.2638,1287.0715],[21.6692,-31.2619,1316.2189],[21.6148,-31.2499,1344.3201],[21.6082,-31.1973,1328.8833],[21.6219,-31.1514,1330.3933],[21.6938,-31.1701,1273.4841],[21.7022,-31.1648,1277.416],[21.688,-31.127,1294.6025],[21.6707,-31.0976,1290.0935],[21.5881,-31.0619,1333.4548],[21.5672,-31.0969,1370.2275],[21.5098,-31.0572,1345.396],[21.5256,-31.0035,1339.3801],[21.483,-30.9939,1366.209],[21.4858,-30.9574,1415.3269],[21.4831,-30.9448,1394.3928],[21.502,-30.9148,1390.0878],[21.5034,-30.8881,1542.1776],[21.4842,-30.8906,1313.6095],[21.4696,-30.8752,1307.481],[21.4933,-30.8281,1371.5105],[21.4651,-30.8204,1404.3087],[21.4477,-30.7842,1396.9138],[21.4834,-30.7461,1301.0673],[21.4209,-30.7286,1096.981],[21.3815,-30.6992,1078.5308],[21.3753,-30.6889,1097.1127],[21.3364,-30.6383,1012.8649],[21.2709,-30.5895,977.2231],[21.3081,-30.5436,1012.7977],[21.2652,-30.4744,1012.1522],[21.2517,-30.3975,1011.2071],[21.2198,-30.3329,960.9902],[21.1944,-30.3384,1014.2332],[21.1085,-30.3356,1005.1993],[21.0729,-30.3323,996.7342],[21.0749,-30.3026,1000.4813],[21.1431,-30.2562,967.4983],[21.1492,-30.2077,931.2388],[21.2598,-30.2041,912.313],[21.2107,-30.1793,890.3185],[21.1522,-30.1918,938.2393],[21.1652,-30.0856,905.8433],[21.2428,-30.0392,870.4645],[21.3053,-29.9804,873.1774],[21.2449,-29.9309,878.7567],[21.1541,-29.8726,901.9278],[21.272,-29.7363,889.8643],[21.2756,-29.6872,919.391],[21.2303,-29.6548,902.3767],[21.1954,-29.6373,868.2232],[21.1136,-29.6973,847.9808],[21.0371,-29.7488,852.1765],[20.9615,-29.7962,849.68],[20.8986,-29.8503,858.1064],[20.8576,-29.8586,869.4631],[20.8316,-29.8828,880.0946],[20.8037,-29.9422,879.1792],[20.8239,-29.952,879.7198],[20.7548,-29.9827,871.4728],[20.7261,-29.9911,872.4771],[20.7081,-29.9856,878.9622],[20.6709,-29.927,928.1019],[20.6264,-29.8632,923.0378],[20.6369,-29.7521,951.7045],[20.6614,-29.6431,933.4059],[20.6256,-29.6203,945.9313],[20.5945,-29.6348,932.1401],[20.5198,-29.719,959.6035],[20.4368,-29.6159,954.6616],[20.3858,-29.6038,966.7578],[20.2734,-29.6436,974.3737],[20.1567,-29.6525,954.8553],[20.1752,-29.7644,979.7526],[20.1475,-29.7867,986.0463],[20.1046,-29.8288,983.7948],[20.0461,-29.8618,1002.074],[19.9956,-29.8667,1009.1822],[19.9479,-29.8333,995.5804],[19.883,-29.7769,999.2733],[19.6591,-29.793,995.6006],[19.5748,-29.7253,996.3607],[19.6109,-29.6809,994.645],[19.586,-29.6099,1012.6025],[19.6854,-29.592,974.4324],[19.7622,-29.582,975.0558],[19.7658,-29.5611,975.8369],[19.767,-29.54,988.3145],[19.7402,-29.4286,995.7454],[19.7027,-29.423,999.5896],[19.7053,-29.4009,1006.9197],[19.657,-29.321,1058.4429],[19.6013,-29.2719,1063.3081],[19.5841,-29.1651,1101.5547],[19.5767,-29.0947,994.0091],[19.681,-28.9926,1041.5996],[19.7795,-28.8764,959.8009],[19.6662,-28.8298,1031.6995],[19.6191,-28.6906,948.5547],[19.5093,-28.5965,399.9749],[19.504,-28.6009,400.0841],[19.5008,-28.6078,399.2229],[19.502,-28.6293,403.6395],[19.496,-28.6382,398.5637],[19.4947,-28.66,392.2174],[19.492,-28.6679,391.9114],[19.4914,-28.6799,405.7084],[19.48,-28.6876,391.5305],[19.4668,-28.7061,399.4872],[19.4433,-28.7182,384.042],[19.4311,-28.7203,382.8712],[19.4164,-28.7305,380.8249],[19.4036,-28.7368,381.2682],[19.3872,-28.7337,379.0152],[19.3798,-28.7375,377.7908],[19.375,-28.7373,375.4414],[19.3509,-28.743,372.5683],[19.3337,-28.7361,376.016],[19.3277,-28.7356,369.5253],[19.3187,-28.7374,369.7784],[19.3033,-28.7318,366.9201],[19.2959,-28.7326,367.1374],[19.2688,-28.7427,364.1182],[19.2579,-28.7597,357.7345],[19.2545,-28.7738,365.0815],[19.2461,-28.7883,365.6741],[19.2399,-28.8055,349.5],[19.2392,-28.813,351.994],[19.2421,-28.8276,352.3547],[19.2448,-28.8332,362.0221],[19.2495,-28.8373,332.9391],[19.2504,-28.8445,327.3026],[19.2564,-28.8577,317.5141],[19.2674,-28.8714,358.07],[19.2817,-28.872,318.5555],[19.2903,-28.877,326.2519],[19.2965,-28.8857,314.8387],[19.2958,-28.8944,340.7999],[19.2914,-28.9015,313.8082],[19.2828,-28.9092,318.9846],[19.2548,-28.9019,318.3713],[19.245,-28.9026,336.9246],[19.2315,-28.9107,313.9908],[19.2268,-28.9166,311.3323],[19.224,-28.9234,312.3229],[19.1967,-28.947,307.9543],[19.1721,-28.9571,307.5494],[19.1635,-28.9583,305.8629],[19.1551,-28.9619,306.5479],[19.146,-28.9632,304.0112],[19.1356,-28.9608,314.7224],[19.1259,-28.9671,302.2249],[19.1189,-28.9694,303.8901],[19.0979,-28.9658,312.4074],[19.0839,-28.9602,303.3298],[19.0724,-28.958,300.6534],[19.0676,-28.9507,306.2805],[19.0594,-28.9454,299.8624],[19.0563,-28.9407,307.7973],[19.042,-28.9314,301.5908],[19.0286,-28.9286,302.3788],[19.015,-28.9312,303.3039],[19.0091,-28.9293,297.94],[19.0059,-28.9241,298.4251],[19.0039,-28.9101,298.4821],[18.9972,-28.898,296.0414],[18.9965,-28.8922,299.6066],[18.993,-28.8872,303.7364],[18.9878,-28.885,292.338],[18.9823,-28.8776,305.1607],[18.9722,-28.8705,299.5697],[18.961,-28.8695,293.5819],[18.9356,-28.8572,287.5102],[18.9264,-28.8554,293.627],[18.9049,-28.8555,287.2682],[18.8969,-28.8521,284.328],[18.8853,-28.8509,316.4597],[18.8743,-28.8473,302.2512],[18.8694,-28.848,264.9919],[18.8554,-28.8444,272.7559],[18.8449,-28.8491,275.8932],[18.8355,-28.8483,261.1958],[18.8309,-28.845,260.8803],[18.8232,-28.8431,260.2949],[18.8193,-28.8435,258.86],[18.8137,-28.8467,254.3758],[18.7872,-28.8408,257.6442],[18.7792,-28.8444,253.2434],[18.7711,-28.8397,248.1888],[18.7642,-28.8409,247.4816],[18.7499,-28.8341,248.7159],[18.73,-28.8316,241.0693],[18.7164,-28.8342,241.4839],[18.7109,-28.8375,241.8396],[18.7092,-28.8367,243.0968],[18.7085,-28.8387,239.3727],[18.6888,-28.8422,236.6217],[18.6712,-28.8414,234.6674],[18.6605,-28.8442,242.1602],[18.643,-28.84,232.0504],[18.6279,-28.8411,231.3868],[18.6244,-28.8423,229.3727],[18.6188,-28.8478,226.4942],[18.6044,-28.8546,222.3471],[18.5894,-28.8578,228.3866],[18.5677,-28.857,228.3521],[18.5628,-28.8596,218.5],[18.5379,-28.8661,224.2573],[18.5322,-28.8687,221.6623],[18.5259,-28.8773,223.9896],[18.5122,-28.8895,232.3616],[18.5056,-28.8906,218.0828],[18.4907,-28.8873,217.3405],[18.4832,-28.8836,219.1232],[18.4708,-28.8833,214.2052],[18.462,-28.8857,213.8171],[18.4484,-28.894,221.0296],[18.4235,-28.9008,209.6607],[18.4177,-28.9005,209.7653],[18.4055,-28.8965,208.3769],[18.3946,-28.8972,214.9715],[18.367,-28.8934,203.8325],[18.3621,-28.8913,200.5],[18.3559,-28.8841,210.3713],[18.3503,-28.8807,213.6065],[18.3367,-28.8839,202.7942],[18.33,-28.8823,209.3468],[18.3008,-28.8846,200.9054],[18.2635,-28.8794,211.6626],[18.2596,-28.8816,200.3469],[18.2569,-28.8908,196.9065],[18.2532,-28.8959,206.5826],[18.2476,-28.8975,201.9778],[18.226,-28.8939,205.5169],[18.2192,-28.8943,214.1511],[18.2007,-28.9107,202.6387],[18.1928,-28.9158,200.478],[18.188,-28.9161,202.2497],[18.1806,-28.9113,195.5247],[18.1746,-28.9035,197.2452],[18.1621,-28.8974,202.8679],[18.1467,-28.8925,209.8923],[18.1341,-28.8956,205.6278],[18.1278,-28.8951,200.7753],[18.1114,-28.8862,211.4694],[18.1007,-28.8773,201.2904],[18.0831,-28.8706,201.9167],[18.0778,-28.8702,199.9716],[18.0588,-28.8769,196.5055],[18.0532,-28.8768,194.916],[18.0461,-28.8743,199.709],[18.0345,-28.8617,188.5],[18.0264,-28.8464,187.5],[18.0147,-28.8391,191.8067],[18.0117,-28.8345,190.4971],[18.0124,-28.828,186.408],[18.0032,-28.8188,199.9118],[17.9996,-28.8175,190.3085],[17.9935,-28.8095,191.3872],[17.988,-28.8063,188.6629],[17.9848,-28.8075,185.4863],[17.9821,-28.8065,182.9968],[17.9745,-28.7939,187.9331],[17.9628,-28.785,186.4708],[17.9566,-28.7846,185.4465],[17.9448,-28.7892,188.0168],[17.9353,-28.7875,188.5451],[17.9324,-28.7849,189.6521],[17.932,-28.7807,181.5615],[17.9262,-28.7695,190.6587],[17.9176,-28.7641,191.8091],[17.9123,-28.7652,182.1249],[17.9072,-28.7724,178.7783],[17.8984,-28.7681,179.3798],[17.8803,-28.7639,199.3607],[17.8287,-28.761,175.4246],[17.8208,-28.7553,182.7913],[17.8058,-28.7545,236.3571],[17.7814,-28.7579,176.1399],[17.7708,-28.7542,176.596],[17.7588,-28.7444,173.5069],[17.7495,-28.7399,166.3433],[17.7426,-28.7423,193.2433],[17.7359,-28.7566,163.5],[17.7314,-28.76,164.6159],[17.7235,-28.7604,163.0],[17.7145,-28.7482,169.8944],[17.7107,-28.7456,167.2204],[17.7043,-28.7447,163.4023],[17.6975,-28.7466,164.6088],[17.6926,-28.7503,169.2833],[17.6853,-28.7613,163.9557],[17.6791,-28.7665,161.6003],[17.6661,-28.7721,162.2537],[17.6471,-28.7737,169.1628],[17.625,-28.7632,157.8259],[17.6218,-28.7629,160.9732],[17.6227,-28.7646,156.4128],[17.6196,-28.7646,154.9989],[17.6161,-28.7607,162.0797],[17.6088,-28.7463,156.5076],[17.6126,-28.7285,157.3791],[17.6123,-28.7236,158.7397],[17.6094,-28.7199,159.5839],[17.61,-28.7129,160.8501],[17.5989,-28.6947,163.9143],[17.5898,-28.6888,159.7766],[17.5801,-28.689,151.0337],[17.5684,-28.6856,155.8165],[17.5554,-28.6887,151.6379],[17.5536,-28.6903,153.919],[17.5529,-28.6957,153.2406],[17.542,-28.7011,152.3109],[17.5238,-28.6994,153.4152],[17.4967,-28.6932,150.0326],[17.4913,-28.6933,148.6404],[17.4825,-28.6963,154.4052],[17.4739,-28.7046,146.4805],[17.4716,-28.7052,156.6187],[17.4624,-28.7022,155.4442],[17.4539,-28.708,145.2948],[17.4412,-28.7129,178.9804],[17.4302,-28.7216,144.2464],[17.4233,-28.7232,142.3471],[17.4186,-28.7219,144.7081],[17.4105,-28.7145,144.7778],[17.4173,-28.6961,147.939],[17.414,-28.6712,150.7411],[17.4157,-28.6675,137.3345],[17.4263,-28.6563,155.7361],[17.428,-28.6503,133.5],[17.4256,-28.6339,140.0818],[17.4301,-28.6234,132.9368],[17.4313,-28.6144,132.5],[17.4298,-28.6087,134.1728],[17.4246,-28.6001,153.758],[17.4321,-28.5832,130.304],[17.4318,-28.5742,128.2339],[17.4297,-28.5699,130.108],[17.4242,-28.5656,144.1245],[17.4128,-28.5626,136.7302],[17.3981,-28.5654,128.3062],[17.3891,-28.5712,143.405],[17.3845,-28.5711,138.5713],[17.3802,-28.5689,142.5522],[17.3763,-28.562,120.1347],[17.3773,-28.5366,124.2274],[17.3761,-28.5384,119.677],[17.3716,-28.5212,130.1637],[17.367,-28.5143,118.4734],[17.3664,-28.5101,124.1621],[17.3591,-28.504,123.4208],[17.3462,-28.5004,118.597],[17.3407,-28.496,122.5504],[17.3331,-28.4755,111.9139],[17.3355,-28.4644,151.8507],[17.3393,-28.4559,118.0381],[17.339,-28.4527,111.8999],[17.347,-28.4449,159.4654],[17.3489,-28.4388,113.8626],[17.3553,-28.4368,113.045],[17.3844,-28.4371,118.625],[17.3961,-28.428,125.368],[17.4088,-28.4033,112.4993],[17.4142,-28.3775,114.9793],[17.4102,-28.3709,109.0717],[17.4046,-28.3551,103.1841],[17.3943,-28.3417,103.6221],[17.3817,-28.3307,104.6051],[17.3762,-28.3224,107.4622],[17.3764,-28.3156,101.507],[17.383,-28.3012,123.1506],[17.3823,-28.2959,115.0731],[17.3708,-28.2785,162.6507],[17.3622,-28.2744,95.2124],[17.3583,-28.2649,105.0532],[17.3562,-28.2535,105.752],[17.3478,-28.2417,94.0382],[17.3437,-28.2367,133.0146],[17.3391,-28.2341,96.1727],[17.337,-28.2288,103.9273],[17.334,-28.2261,106.9601],[17.3088,-28.2238,123.5943],[17.3035,-28.2259,96.2605],[17.289,-28.2391,105.0223],[17.2784,-28.2453,90.1042],[17.2735,-28.245,84.5295],[17.2614,-28.2391,97.0057],[17.2556,-28.2378,95.3266],[17.2504,-28.239,88.249],[17.2399,-28.2478,87.5005],[17.2309,-28.2508,80.6499],[17.2229,-28.2504,80.3131],[17.2147,-28.2479,84.5623],[17.1953,-28.2277,72.581],[17.1879,-28.2163,76.9691],[17.1824,-28.2034,74.046],[17.1839,-28.1919,76.8812],[17.1832,-28.1828,73.9894],[17.1932,-28.1517,67.3547],[17.1964,-28.1297,73.3897],[17.1944,-28.1245,66.9383],[17.1945,-28.1144,68.9647],[17.1919,-28.1082,68.4852],[17.186,-28.1021,68.1631],[17.1792,-28.0988,67.693],[17.1663,-28.1003,65.0321],[17.1382,-28.0931,59.8645],[17.1314,-28.0855,53.5],[17.1257,-28.0674,90.3176],[17.1027,-28.0465,51.0],[17.0823,-28.033,51.4608],[17.0729,-28.0345,59.159],[17.0669,-28.0426,50.612],[17.051,-28.0491,52.649],[17.026,-28.0505,54.1277],[17.0215,-28.0521,52.4258],[17.017,-28.0576,49.8153],[17.0122,-28.0677,49.9037],[17.0082,-28.0724,48.7584],[17.002,-28.0755,43.2209],[16.991,-28.0707,42.5743],[16.9846,-28.0621,48.584],[16.9738,-28.0587,44.7772],[16.96,-28.0732,37.7116],[16.9545,-28.076,39.9466],[16.9475,-28.0763,36.1377],[16.9291,-28.0697,37.1953],[16.9232,-28.0693,38.4978],[16.9148,-28.0709,35.2562],[16.9071,-28.0704,34.976],[16.9,-28.0732,29.7896],[16.8966,-28.0797,32.5107],[16.8859,-28.0881,33.3051],[16.8814,-28.0977,26.5563],[16.8842,-28.1112,33.2142],[16.8878,-28.1139,29.9922],[16.8896,-28.1193,33.6119],[16.8895,-28.1387,29.8314],[16.8878,-28.1461,36.9277],[16.8841,-28.1505,35.6534],[16.8851,-28.1629,30.2646],[16.8879,-28.1729,29.4357],[16.8822,-28.1783,24.1432],[16.8707,-28.182,25.3213],[16.8636,-28.1733,28.3634],[16.8454,-28.1652,23.128],[16.8395,-28.1643,27.3976],[16.8313,-28.1667,25.6564],[16.8282,-28.1696,20.5619],[16.8268,-28.1746,52.9824],[16.8302,-28.1835,31.5188],[16.8369,-28.1906,26.1619],[16.8442,-28.1933,20.8749],[16.851,-28.198,28.4703],[16.8568,-28.2062,23.3646],[16.8561,-28.2117,21.5488],[16.848,-28.2161,25.6402],[16.8329,-28.2176,29.0936],[16.8199,-28.2171,19.6166],[16.8108,-28.2138,24.9094],[16.8071,-28.2156,20.7621],[16.8031,-28.222,18.4097],[16.8034,-28.2272,51.7852],[16.8067,-28.2335,27.7082],[16.8195,-28.2398,24.4015],[16.826,-28.2451,26.8596],[16.8274,-28.2542,20.3955],[16.8267,-28.2642,29.6328],[16.8247,-28.269,31.284],[16.8204,-28.2739,18.4776],[16.8153,-28.2761,26.8079],[16.8024,-28.2754,20.5744],[16.7932,-28.271,28.0025],[16.7815,-28.2603,16.7264],[16.7764,-28.2591,20.6745],[16.7602,-28.2626,16.4351],[16.7545,-28.2728,29.308],[16.7519,-28.2907,12.5],[16.755,-28.302,28.1006],[16.7661,-28.3141,12.0],[16.7798,-28.3216,23.3388],[16.7888,-28.3461,13.6428],[16.8009,-28.3542,12.1703],[16.8084,-28.3619,15.7906],[16.8019,-28.3658,15.9476],[16.7886,-28.3816,12.6694],[16.769,-28.3968,13.324],[16.7671,-28.4091,13.4749],[16.7768,-28.4401,8.7381],[16.7752,-28.4448,9.8562],[16.7689,-28.453,8.3707],[16.758,-28.4575,17.9505],[16.7502,-28.4638,15.4425],[16.7341,-28.4941,11.7545],[16.7248,-28.4995,15.6033],[16.7183,-28.5009,11.8671],[16.7009,-28.4968,11.3248],[16.6977,-28.4914,18.8699],[16.6968,-28.4776,16.6732],[16.6899,-28.4711,16.8005],[16.6813,-28.4701,7.4885],[16.6724,-28.4723,21.3468],[16.6211,-28.5001,22.6491],[16.6175,-28.5047,3.5],[16.6127,-28.5203,9.0206],[16.6024,-28.5305,7.4604],[16.5958,-28.5339,6.4407],[16.5691,-28.54,6.7467],[16.5437,-28.5481,5.2104],[16.5302,-28.5545,6.0607],[16.5181,-28.5562,6.7848],[16.5143,-28.5583,3.0105],[16.5022,-28.5589,6.0567],[16.5,-28.562,3.6521],[16.4887,-28.5628,7.6632],[16.4805,-28.5653,4.743],[16.4788,-28.5676,3.759],[16.4679,-28.5732,3.106],[16.4654,-28.583,3.0265],[16.4558,-28.5921,3.8563],[16.4522,-28.6121,0.1656],[16.4534,-28.6209,0.86],[16.4519,-28.6321,0.3458],[16.4583,-28.6358,0.0],[16.4618,-28.641,0.0],[16.4851,-28.6499,1.036],[16.4882,-28.6535,1.578],[16.4871,-28.656,0.0],[16.4896,-28.656,0.6362],[16.4938,-28.6612,0.0],[16.5035,-28.6665,0.0],[16.5043,-28.6701,0.0],[16.5079,-28.6721,0.0],[16.5088,-28.676,0.0],[16.5132,-28.6779,1.9277],[16.5156,-28.686,0.0],[16.5213,-28.6882,0.0],[16.5221,-28.691,0.0],[16.5307,-28.6971,0.0],[16.5301,-28.7015,0.0],[16.5335,-28.7057,0.0],[16.5407,-28.7101,0.0],[16.5446,-28.7085,0.0],[16.5504,-28.7112,0.0],[16.5535,-28.7135,0.0],[16.5535,-28.7165,0.0],[16.5579,-28.7179,0.0],[16.5643,-28.7251,0.0],[16.5693,-28.7276,0.0],[16.569,-28.7329,0.0],[16.5713,-28.7407,0.0],[16.5688,-28.7507,2.7475],[16.5643,-28.7537,2.6675],[16.561,-28.759,0.0],[16.5613,-28.7635,0.0],[16.5626,-28.7665,0.0],[16.566,-28.766,6.3637],[16.5643,-28.7685,1.2182],[16.5682,-28.7699,0.0],[16.5707,-28.7732,0.0],[16.5704,-28.7763,0.0],[16.5735,-28.7774,1.971],[16.5715,-28.7843,0.0],[16.5738,-28.7907,0.0],[16.5729,-28.7949,0.0],[16.5785,-28.7965,0.0],[16.5824,-28.8015,6.5292],[16.5832,-28.8121,0.7422],[16.5799,-28.8137,0.0],[16.5793,-28.8218,0.0],[16.584,-28.8274,0.0],[16.5846,-28.8326,0.0],[16.5949,-28.8393,-0.5188],[16.599,-28.8576,2.7141],[16.5993,-28.8657,0.1535],[16.6015,-28.8679,0.0],[16.6001,-28.8732,0.0],[16.601,-28.8774,0.0],[16.6051,-28.879,0.0],[16.6093,-28.8774,0.0],[16.6143,-28.8785,0.0],[16.6285,-28.891,0.0],[16.6374,-28.8924,0.0],[16.6526,-28.9004,0.0],[16.6751,-28.9154,0.0],[16.6807,-28.9224,0.0],[16.6885,-28.9279,0.1535],[16.6896,-28.9343,0.3023],[16.6954,-28.9418,0.0],[16.6963,-28.954,0.4774],[16.701,-28.9568,0.0],[16.7013,-28.9657,0.0],[16.7071,-28.9674,0.0209],[16.7113,-28.9754,0.0],[16.7204,-28.9801,0.0],[16.7204,-28.9907,0.0],[16.7171,-28.9979,0.0],[16.7179,-29.0037,0.0],[16.724,-29.0082,0.0],[16.7254,-29.0137,0.0],[16.7401,-29.0307,0.0],[16.7465,-29.0426,0.0],[16.7818,-29.0618,0.0],[16.7954,-29.0751,0.0],[16.8026,-29.0801,1.9584],[16.8049,-29.0837,0.0],[16.8076,-29.0849,0.0],[16.8121,-29.091,0.0],[16.8137,-29.0901,0.0],[16.8179,-29.0965,6.553],[16.8149,-29.1015,1.6874],[16.8151,-29.1068,1.1711],[16.8132,-29.1099,1.5669],[16.8157,-29.1132,0.0],[16.8143,-29.1162,0.0],[16.8185,-29.119,0.0],[16.8229,-29.1257,0.0],[16.8229,-29.1357,0.0],[16.8312,-29.1513,0.0],[16.8318,-29.1557,1.61],[16.836,-29.1601,14.9673],[16.8357,-29.1621,3.97],[16.8318,-29.1618,0.0],[16.8304,-29.1637,0.0],[16.831,-29.1696,0.0],[16.836,-29.1732,3.3258],[16.836,-29.1754,4.0863],[16.8338,-29.1771,0.0],[16.8338,-29.1807,0.0],[16.8376,-29.1818,0.0],[16.8385,-29.1796,0.0],[16.8401,-29.1799,0.3318],[16.8421,-29.1849,0.0],[16.8415,-29.1926,0.0],[16.8435,-29.201,0.0],[16.8376,-29.2079,0.2475],[16.8371,-29.2115,0.0],[16.8438,-29.2215,0.0768],[16.8476,-29.2224,0.2635],[16.846,-29.224,1.0524],[16.8457,-29.2279,0.0],[16.8543,-29.2362,5.3356],[16.854,-29.2385,3.2348],[16.851,-29.2396,0.0],[16.854,-29.2424,0.0],[16.8585,-29.241,2.7602],[16.8665,-29.2474,0.887],[16.8665,-29.2576,0.0],[16.8688,-29.2599,0.7972],[16.8685,-29.2637,0.1391],[16.8665,-29.2649,0.2187],[16.8604,-29.2579,0.0],[16.859,-29.259,0.0],[16.866,-29.266,0.0],[16.8674,-29.2721,0.0],[16.8696,-29.2712,0.0],[16.8701,-29.2676,0.4978],[16.8715,-29.2671,2.7084],[16.8715,-29.2718,0.0],[16.8743,-29.2771,0.0],[16.8762,-29.2774,0.0],[16.8749,-29.274,0.0],[16.876,-29.2726,4.5992],[16.879,-29.2776,9.4962],[16.8793,-29.284,5.379],[16.8771,-29.2857,0.1639],[16.8771,-29.2904,0.3125],[16.8746,-29.2876,0.0],[16.876,-29.2796,0.04],[16.8749,-29.2785,0.0],[16.8729,-29.2793,0.0],[16.8732,-29.2901,0.0],[16.8865,-29.306,0.0],[16.8943,-29.3121,0.0],[16.8946,-29.3187,0.0],[16.9015,-29.3254,0.0],[16.9079,-29.3276,4.1379],[16.9085,-29.3351,0.303],[16.9112,-29.3388,0.0],[16.9268,-29.3504,2.09],[16.9237,-29.3546,0.0],[16.9251,-29.361,0.0],[16.9296,-29.3604,0.0],[16.9276,-29.3585,0.0],[16.9263,-29.359,0.0],[16.926,-29.3551,0.4211],[16.9349,-29.3604,1.0829],[16.9351,-29.364,0.6055],[16.9407,-29.3718,6.6634],[16.939,-29.3876,0.0],[16.9418,-29.3876,0.6439],[16.9426,-29.401,0.7418],[16.9454,-29.4035,0.0],[16.9454,-29.409,0.2317],[16.9493,-29.4107,0.5536],[16.9538,-29.4196,0.0],[16.9579,-29.4207,0.0],[16.9588,-29.4268,0.0],[16.9662,-29.4318,0.0],[16.9685,-29.4374,0.0813],[16.9685,-29.4487,0.0],[16.9732,-29.461,0.0],[16.9776,-29.4649,1.3365],[16.9774,-29.4793,0.0],[16.981,-29.486,0.0647],[16.9854,-29.4896,1.176],[16.9824,-29.4954,0.0],[16.984,-29.4971,2.2553],[16.984,-29.5004,1.2184],[16.9818,-29.4996,0.0],[16.9835,-29.5035,0.0],[16.9821,-29.5068,0.0],[16.9874,-29.5099,0.0],[16.9901,-29.5093,0.8384],[16.9935,-29.5121,0.0],[16.9912,-29.5187,0.0],[16.9949,-29.5199,0.0],[16.9971,-29.5237,0.0],[16.996,-29.5307,1.5476],[16.9971,-29.5399,0.0],[17.0032,-29.5499,2.3316],[17.0035,-29.5646,2.5431],[16.9968,-29.5682,0.0],[16.9976,-29.5737,0.0],[17.0007,-29.5754,1.1703],[17.0068,-29.5832,0.9314],[17.0068,-29.5851,0.0],[17.0126,-29.5888,4.8163],[17.0132,-29.5924,0.0],[17.0168,-29.5954,0.0],[17.0179,-29.599,0.0],[17.0299,-29.6099,1.5681],[17.0332,-29.6151,2.3423],[17.0338,-29.624,0.0],[17.0315,-29.6262,0.112],[17.0338,-29.6379,0.7426],[17.0362,-29.6426,0.5527],[17.0346,-29.6493,0.0],[17.0371,-29.651,3.7847],[17.0412,-29.6588,0.3277],[17.044,-29.669,1.2273],[17.0429,-29.6735,0.0],[17.0513,-29.679,0.0],[17.0551,-29.6876,0.0],[17.0551,-29.6954,0.0],[17.0565,-29.6976,1.3072],[17.0543,-29.7007,0.0],[17.0524,-29.7093,0.0],[17.0551,-29.7104,0.0],[17.0568,-29.7093,3.7875],[17.0588,-29.7124,0.305],[17.059,-29.7171,0.1297],[17.0571,-29.7204,0.0],[17.0601,-29.7257,1.9568],[17.0576,-29.7324,0.0],[17.059,-29.7332,1.4787],[17.0576,-29.7351,0.038],[17.0543,-29.7357,0.0],[17.054,-29.7374,0.0],[17.0576,-29.7404,0.0],[17.0568,-29.7435,0.0],[17.0601,-29.7485,0.9933],[17.0582,-29.7551,0.3399],[17.0624,-29.7657,0.0],[17.0693,-29.7724,0.6322],[17.0674,-29.7743,0.0],[17.0679,-29.7774,0.0],[17.0726,-29.784,3.3908],[17.0726,-29.7882,0.0],[17.0763,-29.7918,3.7025],[17.0732,-29.7987,0.0],[17.0796,-29.8046,0.0],[17.0801,-29.8115,0.0],[17.0743,-29.8118,0.6372],[17.074,-29.8146,0.0],[17.0771,-29.8171,0.3531],[17.0763,-29.8201,0.1363],[17.079,-29.8235,0.1929],[17.0796,-29.8276,0.0],[17.0815,-29.8288,1.86],[17.0824,-29.8335,0.0],[17.0863,-29.8354,0.0404],[17.0863,-29.8399,0.0],[17.0885,-29.8401,0.0],[17.0888,-29.8515,0.0],[17.0926,-29.8546,0.0],[17.0929,-29.8571,0.0],[17.099,-29.8596,8.3121],[17.1007,-29.8676,0.207],[17.1049,-29.8688,0.0],[17.1026,-29.8743,0.0],[17.1035,-29.8804,0.826],[17.1004,-29.886,0.0],[17.1038,-29.886,2.7372],[17.1063,-29.8879,3.041],[17.1063,-29.8901,0.0],[17.1038,-29.8915,0.0],[17.111,-29.8985,0.0],[17.1099,-29.9021,0.7634],[17.1115,-29.9051,2.8295],[17.1121,-29.9151,0.0],[17.1168,-29.9157,4.4548],[17.116,-29.9218,2.8117],[17.119,-29.9276,0.3359],[17.1188,-29.9337,0.402],[17.1262,-29.9371,6.1453],[17.1279,-29.9401,5.8955],[17.1265,-29.9426,0.1768],[17.1288,-29.9457,0.0],[17.1324,-29.9449,0.0],[17.1374,-29.9499,0.0],[17.1374,-29.9538,0.0],[17.1418,-29.9557,0.1295],[17.141,-29.959,0.0],[17.1429,-29.9599,4.1927],[17.144,-29.9635,0.0],[17.1465,-29.964,4.3063],[17.1468,-29.969,0.1303],[17.1501,-29.9707,1.443],[17.1496,-29.9721,0.0],[17.1557,-29.9776,2.7673],[17.1554,-29.9807,0.15],[17.1582,-29.9829,0.3051],[17.1593,-29.9876,0.0506],[17.1576,-29.9885,0.0],[17.1588,-29.9899,2.0399],[17.1568,-29.9951,0.4179],[17.1624,-30.0026,5.6426],[17.1612,-30.0088,5.0496],[17.159,-30.0099,0.0],[17.159,-30.0118,0.0],[17.1621,-30.0132,0.0387],[17.1638,-30.0163,0.5358],[17.1621,-30.0207,0.6872],[17.1646,-30.0207,1.2869],[17.1635,-30.0232,0.0],[17.1665,-30.026,0.0],[17.1651,-30.0285,1.0375],[17.166,-30.034,0.0],[17.171,-30.0376,11.7934],[17.1734,-30.0465,0.0],[17.1771,-30.0465,7.7889],[17.1779,-30.0479,7.7889],[17.1779,-30.0565,0.1462],[17.1799,-30.059,4.528],[17.179,-30.0615,0.0],[17.1815,-30.0621,3.3059],[17.1796,-30.0682,3.7382],[17.1821,-30.0751,1.7458],[17.1807,-30.0779,0.1372],[17.1849,-30.0846,0.3393],[17.184,-30.0865,0.0],[17.1857,-30.0871,11.7991],[17.1832,-30.089,0.9247],[17.1821,-30.0929,0.0],[17.186,-30.0968,10.3229],[17.1843,-30.0996,0.0],[17.1851,-30.1029,0.0],[17.1901,-30.1015,0.9643],[17.1893,-30.1049,0.0],[17.1924,-30.106,0.5955],[17.1926,-30.1096,3.0376],[17.1893,-30.1113,0.0601],[17.1893,-30.1132,0.0],[17.1935,-30.1204,1.3958],[17.1921,-30.1246,0.0],[17.196,-30.1293,8.6633],[17.1938,-30.1368,0.0],[17.1951,-30.1376,0.0],[17.1987,-30.1357,0.6979],[17.2029,-30.1451,0.0],[17.211,-30.1551,0.0],[17.2168,-30.1574,1.8133],[17.2218,-30.1624,2.0531],[17.2226,-30.1887,0.6024],[17.2246,-30.1924,0.0],[17.2282,-30.1907,2.3472],[17.2304,-30.1987,0.0],[17.2321,-30.2001,0.7946],[17.2307,-30.2129,8.2067],[17.2326,-30.2143,8.7007],[17.2324,-30.2168,0.0],[17.2363,-30.2182,0.0],[17.2346,-30.226,0.0],[17.2382,-30.2262,2.6501],[17.2401,-30.2321,0.4388],[17.2443,-30.2368,0.1034],[17.2435,-30.2388,0.2435],[17.2454,-30.2426,0.2788],[17.256,-30.2512,0.0],[17.2612,-30.2601,0.0],[17.2612,-30.2632,1.1546],[17.2571,-30.2626,0.0],[17.2565,-30.2665,0.0],[17.2576,-30.2707,0.7268],[17.2593,-30.271,0.7268],[17.259,-30.2732,0.0],[17.2632,-30.2746,0.0],[17.2629,-30.2771,0.0],[17.2654,-30.2801,0.0],[17.2654,-30.2857,0.0],[17.2682,-30.2874,1.8746],[17.2701,-30.2913,3.978],[17.2676,-30.2976,1.7938],[17.2712,-30.2979,5.1553],[17.271,-30.3029,0.0],[17.2724,-30.304,0.7973],[17.2685,-30.3079,-0.02],[17.2696,-30.3126,0.0],[17.274,-30.3132,5.2818],[17.2751,-30.3151,1.8699],[17.2726,-30.3176,0.1376],[17.2712,-30.3171,0.0],[17.2715,-30.321,0.0],[17.2699,-30.3229,0.0835],[17.2746,-30.326,7.867],[17.2726,-30.3285,0.0],[17.2718,-30.3349,0.0],[17.2757,-30.3379,0.6185],[17.2779,-30.3421,3.3076],[17.2779,-30.346,1.6241],[17.2829,-30.3474,6.7524],[17.2862,-30.3521,5.5917],[17.2871,-30.3563,1.2679],[17.2857,-30.3587,0.0],[17.2888,-30.3599,0.0],[17.2893,-30.3621,0.0],[17.2946,-30.3665,4.4889],[17.2951,-30.3696,0.0],[17.2999,-30.3707,0.3316],[17.3079,-30.3776,1.6912],[17.3062,-30.3821,0.0],[17.3079,-30.3868,0.0],[17.3074,-30.3921,0.0],[17.311,-30.3937,4.5398],[17.3188,-30.4051,0.0],[17.3218,-30.406,0.6883],[17.3207,-30.4082,0.0],[17.3271,-30.4165,0.0],[17.3304,-30.426,0.7116],[17.3349,-30.4307,0.0],[17.3349,-30.4335,0.0],[17.3412,-30.4385,0.0],[17.3424,-30.449,0.0],[17.3449,-30.4532,0.0],[17.3504,-30.4529,13.1446],[17.3535,-30.4546,17.9168],[17.3535,-30.456,17.9168],[17.3482,-30.4588,0.195],[17.3485,-30.4621,0.0559],[17.3526,-30.4665,0.0],[17.3563,-30.4665,2.023],[17.3574,-30.4685,0.0],[17.3593,-30.4729,0.0],[17.3557,-30.4754,0.0],[17.359,-30.479,0.5797],[17.3571,-30.4796,0.0],[17.3576,-30.4818,0.0],[17.3604,-30.4821,0.8669],[17.3599,-30.484,0.0],[17.3632,-30.4843,2.7158],[17.3651,-30.4868,0.1251],[17.3618,-30.4899,0.0],[17.3676,-30.4932,0.0],[17.3701,-30.4999,0.0],[17.374,-30.5004,3.2204],[17.3796,-30.5082,0.3433],[17.3876,-30.5151,6.1925],[17.3896,-30.5193,4.4509],[17.3929,-30.521,3.7319],[17.3946,-30.5276,0.0],[17.399,-30.5271,4.2475],[17.4001,-30.531,2.95],[17.3988,-30.5338,0.0],[17.4051,-30.5374,0.0],[17.403199999999998,-30.5418,0.0],[17.4132,-30.5554,0.0],[17.4107,-30.5626,0.1439],[17.4196,-30.5699,0.0],[17.4354,-30.5879,2.5025],[17.439,-30.5899,4.7068],[17.4396,-30.5935,0.0],[17.4429,-30.5976,8.6093],[17.4401,-30.6029,0.0],[17.4399,-30.6099,0.4384],[17.4351,-30.6132,1.1204],[17.4351,-30.6165,4.7892],[17.4332,-30.6174,0.404],[17.4332,-30.619,3.5629],[17.439,-30.6262,1.7755],[17.4426,-30.626,13.1365],[17.446,-30.6285,0.1373],[17.4471,-30.6326,0.1856],[17.4493,-30.6338,13.683],[17.4493,-30.6376,7.2154],[17.4507,-30.6379,20.2622],[17.4501,-30.641,0.6395],[17.4621,-30.6513,0.0],[17.4632,-30.6629,1.4256],[17.4674,-30.6663,2.3267],[17.471,-30.6735,0.0],[17.4699,-30.6829,0.7453],[17.4774,-30.6868,0.0],[17.4849,-30.6976,0.0],[17.4915,-30.6996,0.0],[17.4937,-30.7018,0.0],[17.5012,-30.7099,0.0],[17.5021,-30.7126,0.0],[17.5168,-30.7257,9.1533],[17.519,-30.7313,0.4634],[17.5235,-30.7365,1.0462],[17.5282,-30.7476,0.0],[17.5307,-30.7618,0.0788],[17.5332,-30.766,3.7086],[17.5332,-30.7754,2.2956],[17.5357,-30.7826,0.0],[17.5454,-30.794,16.7747],[17.5532,-30.8065,0.0],[17.5549,-30.811,10.1328],[17.5546,-30.8171,5.8104],[17.5568,-30.8188,5.0935],[17.5574,-30.8226,0.1077],[17.5635,-30.8279,0.0],[17.5657,-30.834,0.0],[17.569,-30.8349,3.1566],[17.569,-30.841,0.0],[17.5729,-30.8457,3.6853],[17.5771,-30.8463,1.4469],[17.5804,-30.8388,19.9207],[17.5779,-30.8474,1.4469],[17.574,-30.8518,0.0],[17.5746,-30.8585,4.4878],[17.5835,-30.8729,5.4164],[17.5849,-30.8782,0.9886],[17.5876,-30.8801,0.0],[17.5868,-30.8826,0.782],[17.5901,-30.8854,2.7827],[17.5912,-30.8896,0.0],[17.5957,-30.8921,3.4215],[17.5946,-30.9013,0.0],[17.5987,-30.901,5.2705],[17.5996,-30.9063,0.1833],[17.6032,-30.9076,12.319],[17.6032,-30.9165,0.0],[17.6099,-30.9174,6.2546],[17.6185,-30.9249,1.3885],[17.624,-30.9312,7.1233],[17.6249,-30.9343,0.0],[17.6299,-30.9363,4.2434],[17.6299,-30.9399,2.018],[17.6313,-30.9401,2.018],[17.6313,-30.9426,0.1638],[17.634,-30.9463,1.3366],[17.6351,-30.9457,4.5216],[17.6368,-30.9493,2.9491],[17.6407,-30.9499,1.1483],[17.6443,-30.9551,2.8844],[17.6465,-30.9557,6.2584],[17.6462,-30.9587,2.7713],[17.6493,-30.9615,0.0642],[17.6515,-30.9615,1.1871],[17.656,-30.9674,0.8448],[17.6554,-30.9693,-0.0135],[17.6576,-30.9704,0.5053],[17.6585,-30.9754,0.0],[17.6621,-30.9774,2.1914],[17.6624,-30.9821,0.0],[17.6663,-30.9829,5.2869],[17.674,-30.994,0.0],[17.6796,-30.9985,9.3101],[17.6765,-30.999,0.0],[17.6818,-31.0024,3.2235],[17.6807,-31.004,0.0],[17.6815,-31.009,0.5851],[17.6868,-31.0151,0.8442],[17.6882,-31.0193,5.33],[17.6854,-31.0221,2.2216],[17.6857,-31.026,1.9073],[17.6918,-31.0299,1.4953],[17.6924,-31.0382,0.0],[17.6982,-31.0443,0.0],[17.6985,-31.0471,0.0],[17.7007,-31.049,0.0],[17.7007,-31.0535,0.0],[17.7051,-31.0557,2.7982],[17.7051,-31.061,0.5642],[17.7029,-31.0632,0.0],[17.7024,-31.0671,0.0],[17.7093,-31.071,0.0],[17.7129,-31.0779,4.4735],[17.7213,-31.0857,4.7392],[17.7221,-31.096,0.0],[17.7285,-31.0985,0.0],[17.7362,-31.1082,0.0],[17.7385,-31.1135,0.0],[17.7371,-31.1146,0.164],[17.7357,-31.1235,0.0],[17.7382,-31.1265,0.0],[17.7446,-31.1271,0.0],[17.7457,-31.1287,0.0],[17.7429,-31.1335,1.875],[17.7432,-31.1362,1.0061],[17.7465,-31.1371,0.0],[17.7507,-31.146,0.0],[17.7529,-31.146,0.0],[17.7585,-31.1519,0.4403],[17.8344,-31.1765,127.4984],[17.8113,-31.0925,169.5232],[17.8352,-31.0726,167.4146],[17.8786,-31.0405,257.6384],[17.8886,-31.0403,265.8306],[17.8945,-31.0304,341.8424],[17.9264,-31.0114,315.0108],[17.9094,-30.9875,299.5175],[17.8779,-30.9487,227.647],[17.8803,-30.9239,177.7977],[17.914,-30.9247,272.3227],[17.9344,-30.9174,280.1071],[17.9721,-30.9139,289.3591],[17.9934,-30.9187,274.7234],[17.9948,-30.8192,249.267],[18.0065,-30.7912,233.9363],[18.0579,-30.7769,301.2719],[18.0809,-30.7848,279.929],[18.0892,-30.7879,403.0229],[18.1396,-30.828,432.3609],[18.1692,-30.8486,359.5026],[18.1904,-30.8347,335.7129],[18.2058,-30.8313,255.4861],[18.1952,-30.816,302.9574],[18.2135,-30.8104,307.3453],[18.2293,-30.8191,415.3612],[18.2518,-30.8275,438.6539],[18.2642,-30.8183,453.622],[18.3139,-30.7422,373.9448],[18.371,-30.6596,931.6094],[18.3711,-30.5921,863.6906],[18.4138,-30.5273,1034.5768],[18.3806,-30.4596,651.0316],[18.4441,-30.5113,756.8641],[18.5222,-30.6065,887.8821],[18.4836,-30.5219,1065.4471],[18.5021,-30.4444,1093.9052],[18.5701,-30.4303,1041.8691],[18.6551,-30.5567,953.6646],[18.7587,-30.5679,886.8998],[18.7959,-30.6249,936.5203],[18.7945,-30.6676,934.502],[18.863,-30.7171,671.0181],[18.9519,-30.7447,1014.4312],[18.9605,-30.8661,579.3217],[18.8754,-30.8871,455.0441],[18.9242,-30.916,417.8918],[18.9845,-30.9458,373.2956],[18.9118,-30.9789,346.9026],[18.9035,-31.0418,275.1245],[18.9123,-31.0608,274.1932],[18.9476,-31.1129,745.5668],[18.9497,-31.1959,274.6217],[18.9445,-31.2373,655.5297],[18.9664,-31.2845,288.0703],[19.013,-31.3057,798.0],[18.9801,-31.3552,820.2747],[19.0124,-31.3701,809.3269],[19.0309,-31.3895,780.0303],[19.034,-31.4022,780.1161],[19.0324,-31.4032,776.6429],[19.0307,-31.4154,756.3485],[19.043,-31.425,699.2982],[19.0369,-31.4643,709.504],[19.0246,-31.4821,747.3604],[19.0197,-31.4993,854.4109],[19.0062,-31.512,643.4677],[19.012,-31.5144,762.3832],[19.0187,-31.5104,790.3096],[19.0231,-31.5051,820.6036],[19.0418,-31.5185,718.7983],[19.0678,-31.518,673.3068],[19.0781,-31.5251,682.0886],[19.0854,-31.5269,660.3212],[19.0518,-31.5727,617.4807],[19.0556,-31.575,652.5021],[19.0737,-31.5743,373.4825],[19.0854,-31.5721,724.0248],[19.0905,-31.5978,688.4686],[19.0705,-31.6241,647.2228],[19.079,-31.6432,703.0422],[19.0737,-31.6669,855.8646],[19.0549,-31.6703,609.9393],[19.0577,-31.6878,546.3456],[19.0656,-31.7063,472.582],[19.0769,-31.7185,441.4534],[19.0811,-31.7307,489.7131],[19.0947,-31.7502,320.1851],[19.0914,-31.7625,430.1118],[19.0857,-31.7629,294.3418],[19.0808,-31.7596,297.3009],[19.073,-31.7619,283.3219],[19.0665,-31.766,283.5037],[19.065,-31.7779,276.0472],[19.066,-31.7809,273.7899],[19.0701,-31.7838,282.9094],[19.0757,-31.7819,265.8438],[19.0766,-31.7882,296.9154],[19.083,-31.7859,299.4342],[19.0872,-31.7936,256.9838],[19.08,-31.794,361.4317],[19.0782,-31.8024,217.6512],[19.0723,-31.8039,226.9575],[19.0691,-31.8085,198.598],[19.0601,-31.8107,192.7382],[19.0586,-31.815,205.2349],[19.0539,-31.8167,232.7148],[19.0535,-31.8226,224.1594],[19.0468,-31.8295,183.0357],[19.044,-31.8302,204.6389],[19.0384,-31.8287,182.6966],[19.0303,-31.8338,169.6217],[19.0298,-31.8359,171.2907],[19.0323,-31.8398,163.8887],[19.0266,-31.8435,247.7564],[19.0329,-31.849,154.7465],[19.0315,-31.8548,140.6139],[19.0346,-31.8589,144.0456],[19.0301,-31.8629,140.3306],[19.0314,-31.8682,202.7778],[19.0258,-31.8709,134.3818],[19.0272,-31.8743,173.8779],[19.0262,-31.8766,121.9857],[19.0348,-31.8762,139.0587],[19.058,-31.8804,122.6327],[19.0822,-31.8898,130.8536],[19.0859,-31.894,127.1872],[19.1094,-31.8981,130.666],[19.1181,-31.9071,133.8125],[19.1308,-31.9066,147.9407],[19.1418,-31.9121,175.7032],[19.1448,-31.9105,170.4331],[19.1504,-31.9029,156.2354],[19.156,-31.8997,176.5044],[19.159,-31.8996,156.547],[19.1723,-31.9098,168.2791],[19.1997,-31.9048,341.3795],[19.2107,-31.948,344.1734],[19.2441,-31.9139,393.3755],[19.2897,-31.863,496.3432],[19.2798,-31.922,544.918],[19.2648,-31.965699999999998,402.1949],[19.2775,-31.9797,284.4617],[19.2899,-31.9651,475.164],[19.3234,-31.9848,482.7234],[19.3298,-32.0126,295.0832],[19.3531,-32.0279,278.7488],[19.363,-32.0428,295.5958],[19.3804,-32.0376,229.4861],[19.3958,-32.0151,241.7823],[19.4259,-32.0313,389.5841],[19.4676,-32.0731,222.5681],[19.4799,-32.073,210.6542],[19.4863,-32.0764,214.9232],[19.488,-32.0915,290.7183],[19.4834,-32.1137,321.1803],[19.4885,-32.1212,230.2146],[19.5075,-32.0861,340.2406],[19.5152,-32.1152,266.0602],[19.5083,-32.1259,337.391],[19.4911,-32.1301,328.3318],[19.4752,-32.1463,300.0104],[19.4841,-32.1614,384.8646],[19.4793,-32.1677,292.2106],[19.4873,-32.1637,385.7477],[19.5014,-32.1799,388.5556],[19.4927,-32.1986,351.761],[19.5023,-32.2054,292.1859],[19.4942,-32.2087,293.8775],[19.4972,-32.2152,246.0322],[19.4958,-32.2216,245.7945],[19.4858,-32.2358,247.0284],[19.4875,-32.2421,248.5137],[19.4951,-32.245,249.8428],[19.4919,-32.2517,407.5215],[19.4091,-32.2901,689.2899],[19.4302,-32.3657,556.3675],[19.4353,-32.3683,322.8616],[19.4347,-32.3732,347.0228],[19.4432,-32.3883,344.6956],[19.4533,-32.3979,392.6615],[19.4594,-32.41,363.7395],[19.4647,-32.4151,363.3166],[19.4671,-32.4216,355.8279],[19.4719,-32.4279,371.4623],[19.4727,-32.4361,365.6171],[19.4798,-32.4413,366.8073],[19.4892,-32.4635,392.7975],[19.4954,-32.4737,379.1134],[19.4984,-32.4753,389.8211],[19.5037,-32.4729,394.3382],[19.5071,-32.4731,377.4597],[19.5164,-32.4859,372.847],[19.495,-32.4989,660.1443],[19.4868,-32.5654,635.2913],[19.4992,-32.6121,741.5452],[19.528199999999998,-32.6732,900.7007],[19.5872,-32.6478,620.4072],[19.6049,-32.6295,497.5035],[19.612,-32.5666,465.3359],[19.6071,-32.5454,434.9721],[19.6265,-32.502,485.4599],[19.6218,-32.4706,504.5298],[19.6549,-32.4388,391.2683],[19.6681,-32.4548,398.9548],[19.6797,-32.4635,372.7944],[19.6996,-32.454,391.9349],[19.7302,-32.4424,353.0581],[19.7074,-32.4203,343.6666],[19.7313,-32.4101,333.2991],[19.7366,-32.3855,335.365],[19.7641,-32.4111,322.1131],[19.8027,-32.3937,323.6179],[19.8178,-32.3607,335.7716],[19.8495,-32.3662,358.6543],[19.8739,-32.3832,352.1604],[19.9375,-32.3773,393.3827],[19.9682,-32.3505,422.873],[20.0044,-32.3299,406.5927],[20.0386,-32.2964,427.4671],[20.0536,-32.2523,568.9379],[20.085,-32.2483,504.1773],[20.097,-32.2502,503.3463],[20.1001,-32.2427,492.3928],[20.1093,-32.2301,508.0833],[20.1157,-32.211,531.4492],[20.1359,-32.1923,592.6766],[20.1518,-32.1865,594.2318],[20.181,-32.1845,1302.0106],[20.1664,-32.2275,1244.8777],[20.2408,-32.2242,1570.3475],[20.2463,-32.2526,1528.3007],[20.2542,-32.3108,1610.1226],[20.216,-32.3032,1459.7396],[20.1635,-32.351,498.7186],[20.1705,-32.3809,476.2451],[20.132,-32.4211,440.8178],[20.0796,-32.3973,424.9939],[20.0964,-32.4767,855.0518],[20.0968,-32.503,953.5342],[20.1228,-32.557,915.8279],[20.1147,-32.5702,1044.3839],[20.1369,-32.611,1086.4209],[20.1412,-32.6437,1044.1711],[20.1814,-32.6681,995.5238],[20.1917,-32.6858,1105.749],[20.1876,-32.7527,1161.5024],[20.219,-32.7847,1154.3724],[20.2573,-32.7997,1133.0911],[20.2794,-32.8024,1134.5137]]],
[[[16.996,-29.5235,0.0],[16.9951,-29.5224,0.0],[16.9932,-29.5226,0.0],[16.9943,-29.524,0.0],[16.996,-29.5235,0.0]]],
[[[16.9343,-29.3651,0.0],[16.9326,-29.3646,0.0],[16.9337,-29.3704,0.0],[16.9365,-29.3735,0.0],[16.9349,-29.3704,0.0],[16.9343,-29.3651,0.0]]],
[[[16.9221,-29.3496,0.0],[16.9174,-29.349,0.0],[16.9182,-29.3515,0.0],[16.9204,-29.3501,0.0],[16.9204,-29.3526,0.0],[16.924,-29.351,0.0],[16.924,-29.3496,0.0],[16.9221,-29.3496,0.0]]],
[[[16.9135,-29.3449,0.0],[16.9121,-29.3437,0.0],[16.9115,-29.3457,0.0],[16.9146,-29.3471,0.0],[16.9151,-29.3457,0.0],[16.9135,-29.3449,0.0]]],
[[[16.9057,-29.3326,0.0],[16.9051,-29.3315,0.0],[16.9032,-29.3343,0.0],[16.9079,-29.3429,0.0],[16.911,-29.344,0.0],[16.9121,-29.3424,0.0],[16.9082,-29.3396,0.0],[16.9079,-29.3362,0.303],[16.9049,-29.3343,0.0],[16.9057,-29.3326,0.0]]],
[[[16.8635,-29.2596,0.0],[16.864,-29.2576,0.0],[16.8629,-29.2574,0.0],[16.8626,-29.2588,0.0],[16.8635,-29.2596,0.0]]],
[[[16.8587,-29.246,0.0],[16.8568,-29.2457,0.0],[16.8576,-29.2479,0.0],[16.8596,-29.2474,0.0],[16.8587,-29.246,0.0]]],
[[[16.5701,-28.7776,0.0],[16.5685,-28.7771,0.0],[16.5676,-28.779,0.0],[16.5701,-28.779,0.0],[16.5701,-28.7776,0.0]]]]}}