{"type":"Feature","properties":{"GID_3":"ZAF.4.8.4_1","GID_0":"ZAF","country":"SouthAfrica","GID_1":"ZAF.4_1","province":"KwaZulu-Natal","NL_NAME_1":"NA","GID_2":"ZAF.4.8_1","county":"Umzinyathi","NL_NAME_2":"NA","city":"Umvoti","VARNAME_3":"NA","NL_NAME_3":"NA","TYPE_3":"LocalMunicipality","ENGTYPE_3":"LocalMunicipality","CC_3":"KZN245","HASC_3":"NA","name":"Umvoti.city"},
"geometry":{"type": "MultiPolygon","coordinates": [[[[30.8011,-29.204,564.2578],[30.7984,-29.2074,563.3436],[30.7937,-29.2086,569.1923],[30.7972,-29.2174,645.2711],[30.8061,-29.2223,713.2151],[30.8039,-29.2253,694.4803],[30.8073,-29.2285,821.8534],[30.8058,-29.2301,842.1936],[30.8074,-29.2318,826.436],[30.7983,-29.247,877.4079],[30.7988,-29.25,862.558],[30.8072,-29.2558,900.5663],[30.8278,-29.2651,717.1241],[30.839,-29.2902,764.4061],[30.8454,-29.2826,757.5263],[30.8429,-29.2717,864.4968],[30.8367,-29.2605,912.7184],[30.8351,-29.2538,794.8044],[30.8402,-29.2529,722.929],[30.8395,-29.2511,696.4487],[30.8418,-29.2463,792.1459],[30.8524,-29.2448,729.4437],[30.8555,-29.2422,681.9575],[30.8536,-29.2351,435.9162],[30.8616,-29.2266,709.9172],[30.8613,-29.2236,743.1243],[30.865,-29.2207,676.3176],[30.8856,-29.2185,702.6846],[30.8859,-29.2221,759.4421],[30.8836,-29.2242,590.9529],[30.8818,-29.2313,645.0682],[30.8833,-29.2341,621.1215],[30.8854,-29.234,740.6147],[30.8849,-29.2368,694.4815],[30.8873,-29.238,703.0348],[30.8857,-29.2402,633.6382],[30.8876,-29.2382,703.0348],[30.8877,-29.2367,738.3349],[30.8923,-29.2399,446.3383],[30.8986,-29.2404,374.7862],[30.8958,-29.2441,379.5274],[30.8962,-29.2489,404.5712],[30.8944,-29.2522,395.2727],[30.8816,-29.2593,393.4886],[30.8801,-29.262,400.9235],[30.8842,-29.275,452.6302],[30.877,-29.2752,438.5365],[30.8947,-29.2875,883.2364],[30.898,-29.2884,965.8519],[30.8978,-29.2853,845.1174],[30.905,-29.2704,910.8235],[30.9174,-29.2808,883.2872],[30.9265,-29.2716,904.0225],[30.9313,-29.2738,894.5226],[30.936,-29.2709,828.0929],[30.9512,-29.27,829.1945],[30.9725,-29.2737,593.8007],[30.9743,-29.2713,600.8055],[30.98,-29.27,612.6805],[30.9835,-29.2668,463.6674],[30.9822,-29.2604,287.726],[30.9847,-29.2569,295.6223],[30.9825,-29.2534,282.1785],[30.9806,-29.243,309.9552],[30.9827,-29.24,267.821],[30.9845,-29.24,267.5828],[30.9856,-29.234,414.7009],[30.9834,-29.2325,470.9877],[30.9859,-29.2288,555.6714],[30.9847,-29.2241,785.5118],[30.9862,-29.2228,759.3212],[30.9804,-29.222,764.1107],[30.969,-29.2142,802.3635],[30.9663,-29.2099,855.7859],[30.959,-29.2051,793.1701],[30.9552,-29.206,818.5398],[30.9486,-29.1998,894.8317],[30.946,-29.1968,811.953],[30.9493,-29.1955,794.6769],[30.9503,-29.1918,814.661],[30.9403,-29.188,940.486],[30.9382,-29.1843,935.4688],[30.9416,-29.1825,918.3105],[30.9473,-29.1843,908.3912],[30.9485,-29.1828,817.8248],[30.9435,-29.1818,923.9777],[30.9439,-29.1804,894.6909],[30.9422,-29.181,885.2255],[30.9391,-29.1784,934.233],[30.9346,-29.1808,871.4572],[30.9327,-29.1845,919.2853],[30.9278,-29.1795,790.7644],[30.9217,-29.1776,736.8369],[30.9206,-29.1746,753.6937],[30.9176,-29.1795,672.4656],[30.9147,-29.176,632.5271],[30.9083,-29.1769,685.1931],[30.9058,-29.181,751.3755],[30.9048,-29.1787,702.5024],[30.9028,-29.1783,791.247],[30.8948,-29.1803,825.6512],[30.8912,-29.1736,848.4061],[30.8969,-29.1767,771.8052],[30.8981,-29.1744,852.6326],[30.9025,-29.1725,700.5364],[30.9025,-29.1697,724.7754],[30.8974,-29.1694,843.6022],[30.8978,-29.1669,842.5048],[30.8925,-29.1672,858.303],[30.8904,-29.1655,899.2468],[30.8895,-29.1619,903.0097],[30.8841,-29.1632,922.407],[30.8841,-29.1616,831.2655],[30.8811,-29.1601,957.5266],[30.8757,-29.1605,940.6772],[30.8748,-29.1624,922.937],[30.8699,-29.1636,943.8907],[30.8659,-29.1569,738.3927],[30.8684,-29.1512,658.4021],[30.8635,-29.1521,689.0381],[30.8622,-29.1465,847.4004],[30.851,-29.1408,1051.9446],[30.8668,-29.1341,746.9017],[30.873,-29.1266,617.358],[30.8766,-29.1246,561.8684],[30.8795,-29.1263,578.0029],[30.8804,-29.1243,570.8912],[30.888,-29.1231,592.0487],[30.8927,-29.1257,625.5876],[30.8958,-29.1232,643.7717],[30.8948,-29.1211,679.0521],[30.9111,-29.1158,742.7005],[30.9118,-29.1075,788.3769],[30.9062,-29.1038,894.704],[30.9053,-29.0997,976.4796],[30.9367,-29.0802,1076.423],[30.9427,-29.0879,1093.2944],[30.9511,-29.0921,1032.8365],[30.9741,-29.0806,1009.3852],[31.0042,-29.0839,888.6368],[31.0238,-29.0788,829.8066],[31.0012,-29.0433,930.0255],[30.9802,-28.9699,658.4492],[30.9682,-28.9719,609.5283],[30.9471,-28.9698,725.1627],[30.9624,-28.9636,535.8345],[30.9664,-28.9594,533.0244],[30.9603,-28.9534,740.7232],[30.9451,-28.9594,786.8744],[30.9471,-28.957,1001.9073],[30.9458,-28.9506,1091.7328],[30.9441,-28.9518,1074.2766],[30.9221,-28.9484,1130.0728],[30.9244,-28.9396,1176.8562],[30.9296,-28.9354,1187.0977],[30.9379,-28.9335,1124.5796],[30.9319,-28.9304,1148.6609],[30.9328,-28.9275,1123.6782],[30.929,-28.926,1014.8644],[30.9192,-28.9085,471.0647],[30.9255,-28.9002,428.6021],[30.9357,-28.8954,398.0345],[30.9398,-28.89,380.6198],[30.964,-28.8825,337.4774],[30.9691,-28.875,311.7536],[30.9739,-28.8737,306.5738],[30.9822,-28.8807,279.9794],[30.9853,-28.8762,279.4018],[30.9882,-28.8758,269.8203],[30.9933,-28.8565,223.6134],[30.9883,-28.8573,224.8933],[30.9846,-28.8556,226.6754],[30.9668,-28.8313,228.0],[30.968,-28.8272,240.5057],[30.9807,-28.8197,243.6468],[30.9869,-28.8119,231.9538],[30.9866,-28.8045,246.889],[30.981,-28.8005,239.2219],[30.9635,-28.7968,243.2847],[30.9556,-28.7886,239.9407],[30.9515,-28.7885,240.6248],[30.9387,-28.7984,243.8167],[30.9261,-28.8151,251.0597],[30.9268,-28.82,257.6869],[30.9304,-28.8267,255.9113],[30.9414,-28.8363,261.8858],[30.9401,-28.843,263.2468],[30.9343,-28.8464,267.1534],[30.9232,-28.8479,264.7934],[30.9074,-28.8457,269.3924],[30.9004,-28.8411,270.8217],[30.8996,-28.8363,273.2141],[30.9044,-28.8254,275.1205],[30.9139,-28.8128,274.3613],[30.9135,-28.8031,278.1489],[30.9087,-28.7953,280.3635],[30.9072,-28.7841,284.5842],[30.8904,-28.7636,289.2069],[30.8865,-28.7612,322.3965],[30.8794,-28.7622,299.9377],[30.8654,-28.78,316.3937],[30.8612,-28.7813,307.9683],[30.8479,-28.7736,311.4536],[30.8335,-28.7717,330.3399],[30.8173,-28.7772,331.2461],[30.804,-28.7764,346.5109],[30.7988,-28.7729,336.5436],[30.7985,-28.7711,337.7783],[30.8027,-28.7666,340.3766],[30.8137,-28.7611,360.5526],[30.8166,-28.7574,349.1588],[30.8232,-28.7427,352.48],[30.8227,-28.7341,388.6365],[30.8106,-28.7355,361.4581],[30.7946,-28.7296,359.8536],[30.7836,-28.7326,360.5],[30.7709,-28.7227,405.9833],[30.759,-28.7221,372.4],[30.7545,-28.7243,368.5],[30.7538,-28.7327,371.0],[30.764,-28.7422,378.377],[30.7678,-28.7494,375.0],[30.7663,-28.7548,378.4528],[30.7617,-28.7574,443.5647],[30.7599,-28.7615,387.717],[30.7457,-28.7658,394.3373],[30.7399,-28.7746,386.2413],[30.7398,-28.7775,385.374],[30.7479,-28.796,394.1472],[30.7474,-28.8013,394.3335],[30.7438,-28.8038,397.2816],[30.7391,-28.8041,397.25],[30.7325,-28.799,402.5],[30.7288,-28.8026,435.5224],[30.7279,-28.8075,474.7946],[30.7238,-28.8097,548.1747],[30.7241,-28.8114,582.6123],[30.7201,-28.8158,643.7747],[30.7217,-28.8204,772.497],[30.7213,-28.8278,945.6539],[30.7234,-28.8315,1070.7092],[30.7213,-28.8356,1324.0287],[30.7265,-28.8426,1345.0061],[30.742,-28.8498,1287.7175],[30.7651,-28.8777,1377.4156],[30.7585,-28.8948,1350.5261],[30.7009,-28.8846,964.4653],[30.6781,-28.9135,1080.8337],[30.647,-28.889,1427.7705],[30.6232,-28.8777,1455.7336],[30.6334,-28.8693,1487.2216],[30.6306,-28.8559,1477.9758],[30.6079,-28.8399,1439.9912],[30.564,-28.8793,882.9439],[30.5583,-28.868,818.1971],[30.5389,-28.8631,699.1653],[30.5373,-28.8748,735.7279],[30.4979,-28.9042,955.7233],[30.4978,-28.8886,824.2687],[30.4618,-28.8796,713.0014],[30.4588,-28.8762,673.5144],[30.4548,-28.8774,674.7739],[30.4515,-28.8765,678.0224],[30.454,-28.8883,734.2161],[30.4467,-28.8907,693.5485],[30.443,-28.8957,696.0606],[30.441,-28.903199999999998,704.4294],[30.4283,-28.9025,710.1646],[30.417,-28.9047,704.7131],[30.4166,-28.9091,706.2439],[30.4192,-28.9124,708.8939],[30.4245,-28.909,736.9935],[30.4257,-28.9102,709.2302],[30.4184,-28.9203,716.1663],[30.4109,-28.9184,717.4299],[30.4084,-28.914,721.2487],[30.3948,-28.9133,724.8427],[30.3935,-28.9106,730.9045],[30.3973,-28.9078,722.3296],[30.397,-28.9058,722.8738],[30.3912,-28.906,741.0977],[30.3908,-28.914,728.6449],[30.3869,-28.9111,729.7874],[30.3848,-28.9123,731.1476],[30.3883,-28.9223,735.6871],[30.364,-28.9429,902.1095],[30.3435,-28.9284,1082.2017],[30.3292,-28.9474,1216.7074],[30.3253,-28.9457,1254.1045],[30.3404,-28.9718,1025.6718],[30.3701,-28.9831,863.1215],[30.3617,-28.9869,856.153],[30.3602,-28.9891,875.5396],[30.3602,-28.9918,869.4434],[30.3626,-28.9945,867.324],[30.367,-28.9958,834.6057],[30.3668,-28.9971,855.7579],[30.3474,-28.9987,979.5649],[30.3447,-29.0077,937.8048],[30.3507,-29.0107,885.8582],[30.3495,-29.0172,1027.6421],[30.3374,-29.0311,1168.5435],[30.3588,-29.0307,907.3943],[30.3597,-29.0329,852.6993],[30.3639,-29.0342,859.4498],[30.3678,-29.0405,874.9339],[30.3596,-29.0415,876.8065],[30.3741,-29.0685,1160.4574],[30.3659,-29.0997,1261.4827],[30.3636,-29.123,1438.6382],[30.3359,-29.1639,1522.3301],[30.3486,-29.1699,1535.4373],[30.3486,-29.1929,1510.6895],[30.376,-29.1862,1431.3082],[30.3845,-29.2022,1336.4551],[30.3975,-29.2058,1245.8599],[30.4,-29.2095,1181.7787],[30.3978,-29.2117,1197.2463],[30.398,-29.2193,1333.7549],[30.42,-29.2176,1174.2087],[30.4188,-29.2627,1331.97],[30.4554,-29.2407,1451.9705],[30.4794,-29.2317,1369.4678],[30.4797,-29.2327,1369.4678],[30.5042,-29.23,1207.0803],[30.5106,-29.2208,1152.9269],[30.5228,-29.22,1084.1531],[30.5548,-29.2501,1108.181],[30.556,-29.2554,1092.3311],[30.5658,-29.2493,1095.0228],[30.5788,-29.2581,1074.9852],[30.6003,-29.2479,1068.4697],[30.6329,-29.2401,1051.0797],[30.6415,-29.2467,1038.9893],[30.6603,-29.2242,1069.6995],[30.7149,-29.2088,1029.2546],[30.7231,-29.2185,690.1339],[30.7329,-29.2221,674.1955],[30.7335,-29.211,657.4911],[30.7381,-29.2115,671.2503],[30.7453,-29.2074,661.0031],[30.7509,-29.207,646.7181],[30.7514,-29.2024,681.7456],[30.7562,-29.1937,742.4636],[30.7554,-29.1897,795.8671],[30.7588,-29.1868,849.296],[30.763,-29.1784,951.8244],[30.7691,-29.1763,1098.8756],[30.7693,-29.1793,1080.3101],[30.7661,-29.1834,1023.6854],[30.7712,-29.1895,908.3076],[30.7658,-29.1954,907.0575],[30.7722,-29.2042,828.6161],[30.7756,-29.2046,844.884],[30.7824,-29.2101,794.6465],[30.788,-29.2083,632.386],[30.7876,-29.2012,572.8068],[30.7905,-29.2009,579.801],[30.7941,-29.2036,558.8541],[30.8006,-29.2022,562.8462],[30.8011,-29.204,564.2578]]]]}}