{"type":"Feature","properties":{"GID_3":"ZAF.6.2.7_1","GID_0":"ZAF","country":"SouthAfrica","GID_1":"ZAF.6_1","province":"Mpumalanga","NL_NAME_1":"NA","GID_2":"ZAF.6.2_1","county":"GertSibande","NL_NAME_2":"NA","city":"PixleyKaSeme","VARNAME_3":"NA","NL_NAME_3":"NA","TYPE_3":"LocalMunicipality","ENGTYPE_3":"LocalMunicipality","CC_3":"MP304","HASC_3":"NA","name":"Pixley_Ka_Seme.city"},
"geometry":{"type": "MultiPolygon","coordinates": [[[[29.9096,-27.373,1703.2719],[29.9172,-27.3544,1702.4731],[29.9555,-27.3649,1742.3765],[29.9785,-27.373,1744.7395],[29.9951,-27.3884,1779.6521],[30.0162,-27.3976,2005.7916],[30.0245,-27.3945,1993.4424],[30.0306,-27.3867,1995.7429],[30.0396,-27.3893,2128.6313],[30.0464,-27.3868,2237.3032],[30.0522,-27.3797,2082.5181],[30.0683,-27.3659,2164.7007],[30.079,-27.3702,2006.9668],[30.0868,-27.3685,1965.7921],[30.1116,-27.3865,1734.3389],[30.1434,-27.4134,2001.0817],[30.1527,-27.4043,1950.9441],[30.1541,-27.397,2059.5056],[30.1502,-27.3923,2144.6018],[30.1607,-27.3871,2139.876],[30.1658,-27.3875,2033.3896],[30.1782,-27.3783,1950.499],[30.1901,-27.3689,1997.2207],[30.1981,-27.3552,2053.4563],[30.2286,-27.3654,2050.6616],[30.2347,-27.3807,1985.7244],[30.2466,-27.3739,2106.054],[30.2799,-27.3686,2180.1885],[30.2805,-27.3503,2116.0918],[30.2787,-27.3326,2175.6184],[30.2816,-27.3282,2205.0085],[30.2825,-27.3144,2073.7622],[30.3022,-27.3174,1951.0349],[30.3175,-27.302,1845.7458],[30.3284,-27.2996,1805.8887],[30.3667,-27.3117,1659.821],[30.3684,-27.2873,1649.5253],[30.3676,-27.2674,1548.7776],[30.3976,-27.2738,1717.8546],[30.4265,-27.2698,1842.0903],[30.426,-27.315,1819.7876],[30.4335,-27.3257,2043.5261],[30.4483,-27.3277,1874.9679],[30.4529,-27.3251,1868.3707],[30.4583,-27.3267,1857.1582],[30.4621,-27.3252,1847.55],[30.4659,-27.3263,1724.588],[30.4663,-27.3243,1689.1992],[30.475,-27.3195,1807.9928],[30.4968,-27.3124,1683.9519],[30.5271,-27.3158,1762.8434],[30.5281,-27.2927,1585.5758],[30.5023,-27.2836,1620.5551],[30.5253,-27.2554,1431.1738],[30.5244,-27.2362,1497.2224],[30.5296,-27.2381,1411.3997],[30.5669,-27.1695,1821.845],[30.5512,-27.1746,2070.1382],[30.5435,-27.1745,2065.8071],[30.5339,-27.1691,1924.8989],[30.4997,-27.1709,1785.2988],[30.4889,-27.1765,1882.0643],[30.4485,-27.2072,2251.9448],[30.4177,-27.2118,1573.2234],[30.399,-27.2071,1437.644],[30.3948,-27.2196,1439.0425],[30.3851,-27.2189,1461.1578],[30.3676,-27.1999,1453.2484],[30.353,-27.1924,1352.8298],[30.3281,-27.1839,1472.3468],[30.3389,-27.1593,1329.5886],[30.3155,-27.1463,1382.8768],[30.352,-27.1194,1328.2474],[30.3617,-27.1266,1347.0015],[30.3806,-27.117,1304.8113],[30.3875,-27.0737,1320.6945],[30.3988,-27.0653,1317.8615],[30.3937,-27.0602,1320.8447],[30.3995,-27.0215,1396.2449],[30.3826,-26.9873,1370.0057],[30.3607,-26.97,1442.7577],[30.3342,-26.9906,1471.0984],[30.2957,-27.0162,1576.1803],[30.2947,-27.0215,1675.3296],[30.2711,-27.0095,1672.8373],[30.2708,-26.9734,1713.5518],[30.2673,-26.974,1721.9927],[30.2719,-26.9509,1555.2708],[30.2437,-26.8598,1709.3058],[30.2508,-26.8248,1730.7587],[30.189,-26.817,1621.5616],[30.2022,-26.8588,1654.3116],[30.1742,-26.8598,1692.1433],[30.167,-26.835,1601.2532],[30.1379,-26.8348,1601.1769],[30.1278,-26.7855,1619.7429],[30.1529,-26.7722,1665.9038],[30.1279,-26.7289,1699.196],[30.1112,-26.7363,1662.6958],[30.053,-26.7087,1593.1484],[30.0459,-26.7182,1609.9955],[29.9948,-26.6977,1645.059],[29.9638,-26.7707,1597.8367],[29.9371,-26.7631,1584.3838],[29.9347,-26.766,1579.093],[29.9351,-26.7642,1579.2943],[29.929,-26.7653,1578.8198],[29.9261,-26.7643,1590.5066],[29.9228,-26.7706,1580.135],[29.9235,-26.7771,1581.552],[29.9188,-26.7793,1579.1804],[29.9187,-26.7817,1583.5852],[29.9171,-26.7826,1581.4762],[29.9201,-26.7843,1583.3375],[29.9193,-26.787,1577.8655],[29.9211,-26.7866,1584.1699],[29.9218,-26.7892,1580.1143],[29.9184,-26.7908,1578.9161],[29.9139,-26.7853,1583.7025],[29.9129,-26.7968,1579.653],[29.9045,-26.7866,1583.2074],[29.9025,-26.7877,1581.1644],[29.9008,-26.7959,1579.5032],[29.8994,-26.7963,1596.1301],[29.893,-26.7924,1579.9712],[29.8923,-26.7888,1577.7201],[29.8899,-26.788,1577.4546],[29.8911,-26.7868,1577.6979],[29.8875,-26.7828,1579.7601],[29.8856,-26.784,1579.3987],[29.8881,-26.785,1577.9817],[29.8878,-26.7868,1577.4231],[29.8842,-26.7876,1577.8815],[29.882,-26.7929,1577.2571],[29.8807,-26.789,1578.3846],[29.8747,-26.7908,1578.8466],[29.8738,-26.7866,1576.2964],[29.8697,-26.7853,1581.6714],[29.8672,-26.7885,1580.3898],[29.8707,-26.7995,1575.8585],[29.8692,-26.8009,1576.528],[29.8709,-26.8075,1576.6543],[29.8682,-26.8109,1576.9364],[29.8634,-26.8138,1578.1479],[29.8658,-26.8098,1577.1781],[29.859,-26.8042,1582.592],[29.8514,-26.8006,1575.8289],[29.8519,-26.798,1575.2811],[29.8443,-26.7982,1579.9602],[29.8401,-26.803,1606.2959],[29.8481,-26.8071,1574.4735],[29.8469,-26.8081,1574.2526],[29.843,-26.8067,1574.0735],[29.8438,-26.8088,1574.0538],[29.8453,-26.8086,1574.2053],[29.8445,-26.81,1574.4536],[29.8368,-26.8087,1577.1727],[29.8363,-26.8101,1573.7584],[29.8383,-26.8096,1573.7584],[29.8369,-26.8132,1581.3334],[29.8441,-26.819,1575.4508],[29.8411,-26.8183,1575.5441],[29.8376,-26.823,1578.0378],[29.8326,-26.8216,1575.3311],[29.8333,-26.827,1579.4473],[29.8306,-26.8309,1575.38],[29.8258,-26.8294,1574.4611],[29.823,-26.8252,1574.5376],[29.8137,-26.8201,1573.3868],[29.8143,-26.8174,1576.8315],[29.8125,-26.8171,1575.0581],[29.8137,-26.8155,1583.2285],[29.812,-26.8125,1590.6398],[29.8017,-26.8108,1575.3933],[29.7946,-26.8143,1584.4424],[29.7945,-26.8177,1577.9562],[29.7956,-26.8193,1574.0143],[29.8038,-26.8216,1573.799],[29.8039,-26.8262,1574.4595],[29.8002,-26.8297,1583.7444],[29.7937,-26.8237,1575.0117],[29.7914,-26.8236,1574.064],[29.79,-26.8258,1574.2936],[29.7938,-26.8338,1575.6077],[29.7983,-26.8356,1573.7858],[29.8022,-26.8404,1572.9315],[29.8,-26.8479,1572.6887],[29.7926,-26.8478,1574.2998],[29.7879,-26.8495,1572.5764],[29.7861,-26.8449,1572.7593],[29.7814,-26.8424,1574.7909],[29.7785,-26.8449,1583.8976],[29.7801,-26.8486,1575.1696],[29.7724,-26.8529,1581.5999],[29.7714,-26.8564,1578.2217],[29.7694,-26.8577,1572.9419],[29.7674,-26.8575,1572.5052],[29.7657,-26.8458,1570.9713],[29.7616,-26.8403,1575.05],[29.7645,-26.8379,1576.847],[29.7626,-26.8339,1593.0844],[29.7589,-26.8316,1574.0121],[29.7526,-26.8316,1570.6033],[29.749,-26.8326,1571.4426],[29.7498,-26.8349,1571.6544],[29.7471,-26.834,1570.0171],[29.7469,-26.8321,1572.2065],[29.745,-26.8327,1574.3025],[29.7443,-26.8369,1576.4331],[29.7407,-26.8394,1578.6749],[29.7422,-26.848,1575.3591],[29.7372,-26.8479,1573.1309],[29.7363,-26.8495,1570.9865],[29.7379,-26.8517,1570.8931],[29.7327,-26.8561,1570.4895],[29.7239,-26.8484,1569.8933],[29.7247,-26.8416,1570.1418],[29.7222,-26.841,1574.1017],[29.7183,-26.8437,1570.4926],[29.7078,-26.8412,1568.7368],[29.7046,-26.8427,1568.2255],[29.7039,-26.8499,1568.2585],[29.701,-26.8511,1567.9893],[29.7013,-26.854,1570.1241],[29.6969,-26.855,1571.8899],[29.691,-26.8504,1568.9207],[29.6842,-26.8575,1567.9009],[29.669,-26.857,1567.615],[29.6589,-26.8627,1576.2871],[29.6574,-26.8693,1571.178],[29.6685,-26.9011,1625.9716],[29.6652,-26.9432,1612.0393],[29.6586,-26.9579,1611.5647],[29.6481,-26.9958,1655.3021],[29.6558,-27.0045,1650.8058],[29.6476,-27.032,1687.7744],[29.6372,-27.0321,1693.0044],[29.6202,-27.0746,1624.3279],[29.632,-27.1001,1646.4233],[29.5728,-27.1054,1643.022],[29.5504,-27.1856,1659.2727],[29.4864,-27.1728,1631.5579],[29.4926,-27.1947,1682.9537],[29.4601,-27.2325,1605.1577],[29.4339,-27.2343,1595.5632],[29.4189,-27.2545,1539.3531],[29.42,-27.2555,1556.2147],[29.4217,-27.2539,1540.2429],[29.4213,-27.2566,1544.6877],[29.4233,-27.2576,1538.9655],[29.4265,-27.2563,1540.3992],[29.4248,-27.2547,1537.5015],[29.4282,-27.2539,1539.2106],[29.432,-27.2622,1538.0417],[29.4343,-27.2613,1538.3641],[29.4357,-27.2628,1538.7311],[29.4364,-27.261,1539.5027],[29.4395,-27.2677,1542.1781],[29.4434,-27.2669,1540.2739],[29.4481,-27.273,1543.701],[29.4483,-27.2754,1541.4991],[29.4507,-27.2748,1540.079],[29.4506,-27.2781,1540.3723],[29.4517,-27.2763,1540.4531],[29.4533,-27.277,1540.4531],[29.4552,-27.2796,1541.1483],[29.4548,-27.2826,1546.144],[29.4566,-27.2815,1541.5068],[29.4565,-27.2842,1541.1566],[29.4603,-27.2844,1543.2731],[29.4591,-27.2863,1545.9929],[29.4611,-27.2867,1541.3787],[29.4617,-27.2853,1542.2386],[29.4637,-27.2877,1541.5302],[29.4663,-27.299,1542.7515],[29.4687,-27.2987,1543.5179],[29.47,-27.3003,1543.8718],[29.4687,-27.3015,1543.5326],[29.4709,-27.3015,1543.3102],[29.4697,-27.3036,1551.3572],[29.4722,-27.3095,1547.7604],[29.4676,-27.3156,1576.5251],[29.4702,-27.3204,1564.4166],[29.469,-27.3242,1563.2593],[29.4807,-27.3328,1572.957],[29.4826,-27.3322,1584.5894],[29.4833,-27.3281,1576.6304],[29.4863,-27.3273,1581.793],[29.484,-27.3396,1592.3656],[29.4868,-27.3406,1586.5358],[29.4878,-27.3375,1587.302],[29.4902,-27.337,1584.5961],[29.4898,-27.3449,1587.0366],[29.4848,-27.347,1593.4655],[29.4871,-27.3506,1587.9399],[29.483,-27.3569,1595.786],[29.4828,-27.36,1595.4634],[29.4865,-27.3628,1598.7961],[29.5029,-27.3582,1602.8265],[29.5052,-27.365,1606.834],[29.5124,-27.3678,1608.2866],[29.5095,-27.3692,1607.3345],[29.5087,-27.3727,1608.7075],[29.5088,-27.3764,1612.0908],[29.5119,-27.3796,1614.0103],[29.52,-27.3844,1617.3953],[29.5222,-27.3828,1619.1624],[29.5184,-27.3779,1625.05],[29.5239,-27.3772,1626.105],[29.5271,-27.3783,1624.4772],[29.5304,-27.3828,1640.4822],[29.5298,-27.3864,1664.2318],[29.5257,-27.3863,1637.9852],[29.5271,-27.3941,1642.0073],[29.5381,-27.387,1649.9124],[29.5416,-27.3915,1660.506],[29.5435,-27.399,1654.795],[29.552,-27.3988,1663.9519],[29.5489,-27.4047,1660.1826],[29.5492,-27.4092,1661.9716],[29.552,-27.4136,1664.045],[29.5474,-27.4141,1663.1609],[29.5425,-27.42,1665.8577],[29.55,-27.4241,1666.3022],[29.5465,-27.4311,1667.5491],[29.5599,-27.4322,1673.9812],[29.5613,-27.4413,1677.7812],[29.5633,-27.4427,1679.1213],[29.5691,-27.4421,1683.3795],[29.5791,-27.4545,1680.2448],[29.5787,-27.4565,1679.908],[29.5767,-27.4569,1680.0601],[29.5781,-27.4596,1680.2769],[29.58,-27.4584,1680.0992],[29.581,-27.4607,1680.3135],[29.5846,-27.4619,1680.4569],[29.5836,-27.4623,1680.4569],[29.5845,-27.4644,1681.0779],[29.589,-27.4632,1681.2712],[29.5897,-27.4663,1681.4072],[29.6007,-27.4701,1683.0415],[29.5998,-27.4728,1681.6503],[29.6016,-27.4718,1681.6503],[29.6029,-27.4741,1682.4215],[29.601,-27.4768,1682.2612],[29.6039,-27.4802,1682.7141],[29.6018,-27.4816,1682.3369],[29.6049,-27.4854,1682.3931],[29.604,-27.4942,1683.6121],[29.6068,-27.4966,1683.9536],[29.6093,-27.4964,1683.9913],[29.6192,-27.5061,1686.3408],[29.6255,-27.5057,1685.8519],[29.6297,-27.5023,1694.666],[29.6368,-27.5047,1689.4786],[29.6494,-27.5042,1687.1792],[29.6505,-27.4998,1687.1575],[29.6551,-27.4962,1698.5436],[29.6669,-27.4959,1688.4631],[29.6741,-27.498,1692.2092],[29.6795,-27.4968,1690.0519],[29.681,-27.5001,1691.9998],[29.6858,-27.4978,1698.4897],[29.6883,-27.4935,1695.8401],[29.6936,-27.4923,1715.1636],[29.6989,-27.4947,1710.6305],[29.7014,-27.4939,1713.7563],[29.7065,-27.4879,1712.1068],[29.7049,-27.4858,1714.1211],[29.7063,-27.4817,1723.2559],[29.6992,-27.4778,1735.5747],[29.6977,-27.4754,1756.5044],[29.6993,-27.4747,1734.3416],[29.6984,-27.4726,1734.5935],[29.7024,-27.4659,1737.2427],[29.6994,-27.4591,1748.3719],[29.6991,-27.4508,1757.9196],[29.7044,-27.4454,1757.7306],[29.7172,-27.4403,1803.2804],[29.717,-27.4384,1793.0175],[29.7197,-27.4383,1800.8245],[29.721,-27.4332,1790.9347],[29.7226,-27.4323,1792.5486],[29.7325,-27.4309,1808.6331],[29.7446,-27.4326,1885.0098],[29.7734,-27.4538,2133.4548],[29.7909,-27.4592,2115.9631],[29.7962,-27.4577,2123.592],[29.7991,-27.4512,2011.0334],[29.8058,-27.4504,1980.0869],[29.8114,-27.4461,2012.9131],[29.8113,-27.4356,1951.2017],[29.8137,-27.4339,1939.3494],[29.8145,-27.4306,1951.3782],[29.8227,-27.4273,1941.5106],[29.8217,-27.4115,1934.2252],[29.8249,-27.407,1937.9827],[29.8337,-27.4038,1921.9108],[29.836,-27.3969,1931.2266],[29.8349,-27.3903,1937.1532],[29.8402,-27.379,1732.2274],[29.8463,-27.3787,1710.9818],[29.8662,-27.3841,1671.7012],[29.8851,-27.3766,1636.2544],[29.8864,-27.3818,1620.1168],[29.8902,-27.3855,1591.8918],[29.8988,-27.3858,1568.2621],[29.9096,-27.373,1703.2719]]]]}}