{"type": "Feature","bbox": [27.8048,-25.4017,28.2982,-24.9578],"geometry": {"type": "MultiPolygon","coordinates": [[[[28.0725,-25.3908,1092.2198],[28.0834,-25.3848,1092.2902],[28.108,-25.367,1082.6528],[28.1107,-25.3789,1091.8843],[28.1767,-25.3659,1093.5044],[28.1768,-25.3286,1066.1274],[28.2015,-25.3237,1063.651],[28.2283,-25.3542,1082.2572],[28.2826,-25.3426,1060.479],[28.2834,-25.3381,1061.4097],[28.2895,-25.3383,1067.7415],[28.2896,-25.3412,1067.6851],[28.2981,-25.3393,1073.1198],[28.2982,-25.2932,1055.8541],[28.2598,-25.2387,1047.3221],[28.2463,-25.2129,1042.9185],[28.2112,-25.1981,1037.6553],[28.1695,-25.2094,1033.6831],[28.1357,-25.2056,1023.6177],[28.129,-25.1457,1017.8536],[28.0944,-25.1485,1027.0637],[28.0839,-25.1004,1083.5385],[28.1179,-25.0981,1082.3951],[28.1539,-25.0868,1079.974],[28.1751,-25.1136,1030.7778],[28.1738,-25.12,1032.0435],[28.1983,-25.1276,1048.9996],[28.215,-25.1282,1064.6544],[28.2171,-25.1229,1069.8569],[28.2171,-25.113,1066.2085],[28.2598,-25.0504,1061.6968],[28.1587,-25.0206,1107.0024],[28.1252,-25.0048,1120.7861],[28.12,-24.9795,1103.6392],[28.0801,-24.9795,1092.467],[28.0378,-24.9838,1082.0386],[28.037,-24.9853,1084.2793],[28.0178,-24.9741,1057.0403],[27.9976,-24.9735,1043.4056],[27.9836,-24.9578,1056.3074],[27.9752,-24.965699999999998,1046.3279],[27.955,-24.9702,1036.8042],[27.9465,-25.0012,1025.5266],[27.9129,-24.9911,1051.8848],[27.8867,-24.9883,1069.5817],[27.8331,-24.9735,1157.1812],[27.8217,-24.9746,1164.8651],[27.8048,-25.0184,1206.1447],[27.8194,-25.0746,1088.1851],[27.8147,-25.0747,1083.589],[27.8156,-25.0777,1086.0725],[27.8179,-25.0771,1085.1216],[27.82,-25.0854,1061.5573],[27.8177,-25.0861,1063.9209],[27.8244,-25.1109,1042.6133],[27.8389,-25.1051,1040.1191],[27.8646,-25.0805,1093.9628],[27.883,-25.1005,1068.4517],[27.8736,-25.1084,1030.115],[27.8767,-25.1152,1024.8643],[27.8812,-25.1195,1015.6149],[27.8822,-25.1266,1008.5111],[27.8963,-25.1357,994.7036],[27.8906,-25.1488,992.5919],[27.8868,-25.153199999999998,991.674],[27.8813,-25.1569,989.5622],[27.8765,-25.1567,989.9129],[27.8718,-25.1615,989.0897],[27.8727,-25.1659,995.2064],[27.8673,-25.1685,999.1559],[27.8681,-25.1721,1007.2246],[27.87,-25.1717,1007.9282],[27.8853,-25.2526,1043.2153],[27.8913,-25.259,1042.2719],[27.8921,-25.2631,1042.1658],[27.9313,-25.2337,1031.2427],[27.961,-25.2517,1024.7698],[27.9855,-25.2384,1018.8379],[27.9891,-25.2666,1024.7499],[27.9438,-25.2913,1062.5995],[27.9636,-25.3046,1053.1898],[27.9666,-25.3012,1049.5906],[27.9986,-25.2904,1032.9607],[28.0026,-25.3006,1031.7932],[27.9718,-25.3182,1047.1072],[27.9708,-25.3629,1070.1451],[28.0004,-25.3594,1064.6896],[28.0447,-25.4017,1102.5331],[28.0555,-25.4,1100.9191],[28.0725,-25.3908,1092.2198]]]]}
,"properties": {"GID_3": "ZAF.7.1.3_1","GID_0": "ZAF","country": "SouthAfrica","GID_1": "ZAF.7_1","province": "NorthWest","NL_NAME_1": "NA","GID_2": "ZAF.7.1_1","county": "Bojanala","NL_NAME_2": "NA","city": "Moretele","VARNAME_3": "NA","NL_NAME_3": "NA","TYPE_3": "LocalMunicipality","ENGTYPE_3": "LocalMunicipality","CC_3": "NW371","HASC_3": "NA","name": "Moretele.city","area_km2": 1381.681,"hist_schema_id": "Elevation0-9000","hist_area_km2": {"1000": 93.805,"1025": 376.562,"1050": 485.915,"1075": 218.656,"1100": 138.285,"1125": 52.912,"1150": 12.452,"1175": 2.632,"1200": 0.461}}}