{"type":"Feature","properties":{"GID_3":"ZAF.5.5.3_1","GID_0":"ZAF","country":"SouthAfrica","GID_1":"ZAF.5_1","province":"Limpopo","NL_NAME_1":"NA","GID_2":"ZAF.5.5_1","county":"Waterberg","NL_NAME_2":"NA","city":"Modimolle","VARNAME_3":"NA","NL_NAME_3":"NA","TYPE_3":"LocalMunicipality","ENGTYPE_3":"LocalMunicipality","CC_3":"LIM365","HASC_3":"NA","name":"Modimolle.city"},
"geometry":{"type": "MultiPolygon","coordinates": [[[[28.541,-24.8588,1110.7594],[28.5769,-24.842,1110.033],[28.567,-24.7968,1125.1912],[28.5275,-24.7625,1241.4192],[28.5649,-24.7457,1180.2003],[28.6186,-24.739,1166.7183],[28.6357,-24.7152,1147.7339],[28.6284,-24.6822,1098.9392],[28.5945,-24.6806,1106.4077],[28.5792,-24.6293,1262.9374],[28.5887,-24.6138,1262.1067],[28.5993,-24.6244,1192.4963],[28.6022,-24.6131,1210.4165],[28.566,-24.5713,1414.962],[28.5124,-24.5905,1475.3743],[28.5197,-24.569,1443.3152],[28.4951,-24.5557,1497.3337],[28.5198,-24.5332,1433.964],[28.5149,-24.503,1422.0197],[28.5106,-24.4937,1461.4993],[28.5117,-24.4853,1584.7749],[28.5074,-24.4699,1542.0873],[28.4755,-24.4619,1686.0419],[28.4481,-24.4682,1648.5009],[28.4548,-24.4463,1414.5961],[28.4544,-24.4368,1382.6116],[28.4656,-24.4228,1332.0667],[28.42,-24.387,1768.0959],[28.3864,-24.3848,1581.6296],[28.3794,-24.347,1548.7571],[28.3691,-24.3208,1556.5917],[28.3639,-24.3221,1562.636],[28.365,-24.3116,1492.0909],[28.3765,-24.3088,1522.2074],[28.3783,-24.3055,1528.7186],[28.373,-24.3033,1547.4707],[28.3759,-24.3008,1561.0092],[28.3757,-24.2965,1594.0725],[28.3668,-24.2949,1534.0469],[28.3701,-24.265,1607.6504],[28.3967,-24.2679,1689.8741],[28.4038,-24.2377,1602.9722],[28.4053,-24.2174,1415.542],[28.4079,-24.2059,1509.0422],[28.4053,-24.1705,1551.2982],[28.4687,-24.166,1338.989],[28.478,-24.1609,1314.0991],[28.4739,-24.156,1309.075],[28.4748,-24.1479,1322.5123],[28.4693,-24.1471,1303.3844],[28.4681,-24.1428,1301.2185],[28.4801,-24.1399,1290.8655],[28.4816,-24.1369,1283.1537],[28.4725,-24.1265,1269.7349],[28.4701,-24.1162,1290.7327],[28.4681,-24.115,1261.5078],[28.4648,-24.1166,1269.6761],[28.4626,-24.1156,1269.9523],[28.4651,-24.1028,1238.2632],[28.4764,-24.0938,1234.9664],[28.4746,-24.0905,1246.9106],[28.47,-24.0889,1225.5243],[28.4705,-24.0866,1222.7106],[28.4761,-24.084,1220.4541],[28.4749,-24.0785,1230.0399],[28.4685,-24.0748,1217.8699],[28.4676,-24.07,1211.4885],[28.4682,-24.068,1214.9697],[28.4731,-24.0671,1216.4557],[28.4771,-24.0604,1213.975],[28.4712,-24.0533,1209.4771],[28.4637,-24.0582,1208.3458],[28.4598,-24.0565,1205.2261],[28.4586,-24.0551,1204.881],[28.4596,-24.0481,1204.5575],[28.4522,-24.0452,1202.7336],[28.4515,-24.0431,1202.4526],[28.4465,-24.0448,1201.4771],[28.4436,-24.0493,1200.475],[28.4412,-24.0478,1203.3623],[28.4402,-24.0443,1203.7222],[28.4345,-24.0435,1210.4138],[28.4321,-24.0386,1194.7246],[28.4368,-24.0353,1195.9373],[28.436,-24.0313,1194.5376],[28.4305,-24.0284,1197.9835],[28.4287,-24.0201,1194.7854],[28.426,-24.0167,1199.0583],[28.4252,-24.0064,1173.6155],[28.4225,-24.0058,1172.7666],[28.4158,-23.9972,1168.5304],[28.3952,-24.0036,1286.733],[28.3636,-23.99,1154.7911],[28.354,-23.9965,1159.8484],[28.3575,-24.0138,1163.9753],[28.3563,-24.0161,1165.6523],[28.3124,-24.0045,1288.03],[28.2796,-23.9929,1315.0792],[28.2664,-24.0168,1219.7842],[28.2361,-24.0057,1248.293],[28.1924,-24.0685,1489.0632],[28.1886,-24.0954,1487.4497],[28.1766,-24.127,1341.0933],[28.1589,-24.1576,1295.8442],[28.1579,-24.1913,1218.2501],[28.1464,-24.1875,1233.2887],[28.1222,-24.176,1195.5447],[28.1102,-24.1773,1168.0293],[28.1081,-24.1747,1168.9343],[28.1006,-24.1759,1173.2263],[28.109,-24.183,1166.0319],[28.1061,-24.1838,1161.1418],[28.0814,-24.1786,1165.6566],[28.0408,-24.1769,1092.7129],[28.0288,-24.1937,1063.0496],[28.0269,-24.1989,1057.3245],[28.0249,-24.1997,1084.1204],[28.0213,-24.1881,1050.8044],[28.0173,-24.1833,1062.491],[28.007,-24.1843,1043.0386],[28.0024,-24.1786,1038.91],[27.992,-24.1784,1037.59],[27.9902,-24.1803,1051.3127],[28.0098,-24.2329,1132.3362],[28.0228,-24.2326,1133.6813],[27.9993,-24.28,1197.2443],[27.9996,-24.3086,1290.9268],[27.9775,-24.3109,1326.05],[27.9512,-24.2793,1206.2828],[27.9216,-24.2975,1191.0215],[27.9094,-24.2917,1239.9803],[27.906,-24.2986,1269.8286],[27.8725,-24.301,1328.8983],[27.8731,-24.2987,1302.9435],[27.8539,-24.3065,1335.6976],[27.8533,-24.3049,1325.762],[27.8487,-24.3083,1343.6638],[27.8005,-24.3084,1342.4246],[27.7969,-24.3163,1426.4884],[27.8189,-24.3494,1486.2158],[27.7579,-24.404,1639.3256],[27.6983,-24.3942,1407.1235],[27.6588,-24.3568,1303.5212],[27.6496,-24.36,1301.6898],[27.6488,-24.3549,1275.9507],[27.6092,-24.3719,1069.1765],[27.6077,-24.3682,1075.1621],[27.5641,-24.3823,1488.2727],[27.5747,-24.4282,1310.2471],[27.5809,-24.4711,1837.3018],[27.6159,-24.4694,2031.9058],[27.6533,-24.4813,1829.9424],[27.685,-24.4687,1723.0966],[27.7489,-24.4774,1731.9363],[27.7395,-24.5067,1561.437],[27.7338,-24.501,1472.1738],[27.7284,-24.5035,1465.6863],[27.7189,-24.5006,1433.5941],[27.6759,-24.5007,1356.1917],[27.662,-24.5178,1179.2737],[27.6829,-24.5235,1458.0835],[27.6855,-24.5524,1454.8298],[27.7007,-24.5991,1034.5876],[27.7859,-24.5888,1505.844],[27.8165,-24.5821,1646.4922],[27.8612,-24.5783,1562.5503],[27.8951,-24.5827,1682.7144],[27.968,-24.631,1606.7019],[27.9835,-24.6375,1640.8187],[27.996,-24.6384,1605.1125],[28.0949,-24.6303,1452.6508],[28.1392,-24.6667,1584.3979],[28.1761,-24.6816,1569.2036],[28.1817,-24.7394,1610.1526],[28.2106,-24.7306,1462.869],[28.2407,-24.7519,1484.1239],[28.2414,-24.7504,1481.4679],[28.2614,-24.7487,1461.5942],[28.2762,-24.752,1446.8494],[28.2921,-24.7957,1424.8678],[28.3506,-24.8013,1347.7061],[28.3522,-24.7978,1319.6675],[28.3559,-24.7996,1324.6389],[28.3543,-24.7935,1326.7301],[28.3562,-24.7896,1331.2491],[28.3661,-24.7865,1339.8992],[28.4153,-24.8119,1246.7827],[28.4137,-24.8139,1235.6356],[28.4217,-24.8216,1171.1484],[28.4237,-24.82,1172.5104],[28.4502,-24.8452,1168.6176],[28.4763,-24.8319,1158.2164],[28.5009,-24.8823,1108.3076],[28.5049,-24.8735,1112.5049],[28.541,-24.8588,1110.7594]]]]}}