{"type": "Feature","bbox": [29.4341,-25.0154,30.1198,-24.4595],"geometry": {"type": "MultiPolygon","coordinates": [[[[29.7963,-24.9782,1512.3552],[29.8813,-24.9773,1580.88],[29.9051,-24.9324,1536.7302],[29.9075,-24.9197,1570.3705],[29.9048,-24.9131,1514.4603],[29.899,-24.9072,1488.8221],[29.9025,-24.8749,1410.2344],[29.896,-24.8585,1538.5146],[29.9265,-24.8484,1542.9655],[29.9187,-24.8341,1543.0826],[29.9194,-24.8269,1675.1382],[29.9235,-24.8267,1666.1244],[29.9342,-24.814,1724.0228],[29.9832,-24.8412,1245.3385],[30.0212,-24.8391,1311.6018],[30.0481,-24.8197,1380.1711],[30.0835,-24.7794,1477.8505],[30.1042,-24.7407,1135.74],[30.1198,-24.6997,1228.1555],[30.0873,-24.6206,1329.0715],[30.0675,-24.6262,1762.989],[30.0769,-24.6455,1711.9443],[30.0348,-24.6367,1764.1917],[29.9903,-24.5808,1366.6643],[29.9797,-24.5857,1292.7849],[29.976,-24.5917,1214.9055],[29.9733,-24.5933,1193.0156],[29.972,-24.5912,1216.6721],[29.9695,-24.6005,1162.0513],[29.9622,-24.6039,1153.8926],[29.9619,-24.6078,1125.4775],[29.9538,-24.6103,1103.1492],[29.9459,-24.6206,1077.0935],[29.9452,-24.6194,1075.7467],[29.9433,-24.624,1063.2977],[29.9339,-24.6112,1123.6765],[29.9319,-24.6106,1123.8574],[29.9292,-24.6203,1079.1174],[29.924,-24.6211,1079.4934],[29.9208,-24.6184,1091.3717],[29.9178,-24.6089,1194.4248],[29.9131,-24.6046,1168.6915],[29.909,-24.6038,1114.3901],[29.9017,-24.5946,1229.5817],[29.861,-24.596,982.0743],[29.8636,-24.5967,987.4838],[29.8624,-24.6002,1023.7848],[29.8573,-24.6026,1073.6531],[29.8547,-24.6005,1065.6709],[29.8491,-24.6,1050.0908],[29.8481,-24.5964,1051.9962],[29.8398,-24.5967,1083.0068],[29.8083,-24.626,1381.7844],[29.7763,-24.6047,1235.4038],[29.7702,-24.5888,1107.3992],[29.7707,-24.5746,1056.8164],[29.764,-24.5724,1104.9568],[29.7661,-24.5679,1092.655],[29.7718,-24.5668,1052.5575],[29.768,-24.5618,1122.8215],[29.7579,-24.5571,1131.1956],[29.7735,-24.5508,979.761],[29.7203,-24.5267,1048.7689],[29.6966,-24.4668,752.9657],[29.6866,-24.4689,755.9246],[29.6752,-24.4627,755.4064],[29.6676,-24.4623,758.496],[29.6636,-24.4665,756.6249],[29.6565,-24.4705,757.5759],[29.6515,-24.4794,757.1843],[29.6478,-24.4824,758.5224],[29.6432,-24.4767,757.6566],[29.6394,-24.4745,760.3091],[29.6344,-24.4764,759.97],[29.622,-24.4763,766.0923],[29.6205,-24.4742,761.6616],[29.619,-24.4625,762.6851],[29.6173,-24.4605,762.2589],[29.6133,-24.4595,763.6501],[29.5959,-24.4694,763.7273],[29.5886,-24.4774,764.2338],[29.5849,-24.4871,766.7418],[29.5815,-24.4887,766.1481],[29.5774,-24.4942,767.0253],[29.5715,-24.4967,768.0624],[29.5628,-24.5041,768.8019],[29.5685,-24.5161,769.6678],[29.5649,-24.5232,770.1991],[29.5625,-24.5246,770.7679],[29.5573,-24.5233,770.7831],[29.5455,-24.5284,770.0841],[29.545,-24.5309,770.9078],[29.5495,-24.536,771.8708],[29.5526,-24.5441,773.6933],[29.5502,-24.5521,773.9984],[29.544,-24.5539,773.3605],[29.5389,-24.5602,774.0151],[29.5323,-24.5617,773.5468],[29.526,-24.5688,775.8572],[29.5239,-24.5743,775.9415],[29.5179,-24.5759,775.1386],[29.4964,-24.5913,777.2581],[29.4914,-24.6036,778.1168],[29.4803,-24.6059,778.7097],[29.4798,-24.6103,779.9315],[29.4764,-24.6163,780.5125],[29.469,-24.6216,778.518],[29.4681,-24.6241,778.0056],[29.4726,-24.6338,782.2676],[29.4689,-24.645,780.6577],[29.4606,-24.6542,782.6656],[29.4629,-24.6628,781.7621],[29.4614,-24.6759,784.5146],[29.4592,-24.6791,782.1875],[29.4495,-24.6796,785.0378],[29.445,-24.6817,786.393],[29.4356,-24.6942,795.708],[29.4341,-24.7098,786.5788],[29.4945,-24.7322,912.1927],[29.478,-24.7636,898.4471],[29.4918,-24.7829,945.9837],[29.4985,-24.77,907.5742],[29.518,-24.7787,946.1948],[29.5181,-24.7801,946.1219],[29.5186,-24.7789,946.1948],[29.5731,-24.7905,1051.368],[29.5803,-24.7802,1087.7902],[29.6347,-24.8005,1193.2039],[29.6964,-24.7984,1364.0898],[29.7443,-24.7912,1469.481],[29.7734,-24.8339,1505.9025],[29.7157,-24.8329,1414.99],[29.6994,-24.8613,1435.3877],[29.7097,-24.8698,1475.6581],[29.6811,-24.8824,1337.4645],[29.6543,-24.9172,1292.6583],[29.6367,-24.9531,1480.2179],[29.685,-24.9324,1423.3773],[29.7183,-25.0003,1578.4735],[29.7329,-25.0117,1629.5321],[29.7372,-25.0109,1623.4022],[29.7418,-25.0154,1614.2157],[29.7702,-24.9872,1616.4921],[29.7826,-24.9788,1569.2229],[29.7963,-24.9782,1512.3552]]]]}
,"properties": {"GID_3": "ZAF.5.3.5_1","GID_0": "ZAF","country": "SouthAfrica","GID_1": "ZAF.5_1","province": "Limpopo","NL_NAME_1": "NA","GID_2": "ZAF.5.3_1","county": "Sekhukhune","NL_NAME_2": "NA","city": "Makhuduthamaga","VARNAME_3": "NA","NL_NAME_3": "NA","TYPE_3": "LocalMunicipality","ENGTYPE_3": "LocalMunicipality","CC_3": "LIM473","HASC_3": "NA","name": "Makhuduthamaga.city","area_km2": 2101.109,"hist_schema_id": "Elevation0-9000","hist_area_km2": {"750": 5.172,"775": 45.347,"800": 61.374,"825": 59.958,"850": 59.662,"875": 58.018,"900": 57.74,"925": 51.316,"950": 49.018,"975": 53.452,"1000": 55.554,"1025": 57.035,"1050": 63.991,"1075": 63.621,"1100": 61.902,"1125": 63.093,"1150": 70.063,"1175": 76.01,"1200": 70.128,"1225": 66.039,"1250": 62.875,"1275": 66.067,"1300": 67.063,"1325": 61.666,"1350": 66.605,"1375": 64.921,"1400": 65.641,"1425": 67.036,"1450": 67.242,"1475": 61.638,"1500": 59.444,"1525": 57.328,"1550": 49.593,"1575": 43.437,"1600": 30.837,"1625": 12.32,"1650": 8.724,"1675": 7.357,"1700": 7.222,"1725": 5.567,"1750": 5.452,"1775": 3.718,"1800": 3.834,"1825": 3.911,"1850": 1.946,"1875": 0.905,"1900": 0.25,"1925": 0.019}}}