{"type":"Feature","properties":{"GID_3":"ZAF.4.5.1_1","GID_0":"ZAF","country":"SouthAfrica","GID_1":"ZAF.4_1","province":"KwaZulu-Natal","NL_NAME_1":"NA","GID_2":"ZAF.4.5_1","county":"Ugu","NL_NAME_2":"NA","city":"Ezingoleni","VARNAME_3":"NA","NL_NAME_3":"NA","TYPE_3":"LocalMunicipality","ENGTYPE_3":"LocalMunicipality","CC_3":"KZN215","HASC_3":"NA","name":"Ezingoleni.city"},
"geometry":{"type": "MultiPolygon","coordinates": [[[[30.07,-30.8729,260.6935],[30.0757,-30.8822,258.6393],[30.081,-30.885,269.2821],[30.0914,-30.883,256.2934],[30.0984,-30.8848,272.8595],[30.1092,-30.8845,279.6425],[30.115,-30.8877,244.3681],[30.1195,-30.888,263.7611],[30.1211,-30.891,240.9261],[30.1135,-30.9001,239.1411],[30.1208,-30.9038,237.9043],[30.1415,-30.9031,489.3962],[30.1452,-30.8985,497.8299],[30.158,-30.9066,472.014],[30.1781,-30.8945,461.7531],[30.1809,-30.8671,499.0593],[30.1666,-30.8625,493.4467],[30.1525,-30.8528,497.5703],[30.1506,-30.8577,513.1151],[30.146,-30.838,498.8529],[30.144,-30.8209,549.8032],[30.1538,-30.8078,527.0784],[30.1554,-30.806,508.6043],[30.1587,-30.8058,429.4401],[30.1627,-30.802,477.8615],[30.1652,-30.7951,541.1857],[30.1772,-30.7803,560.2216],[30.1788,-30.7829,615.6635],[30.1819,-30.7749,618.0913],[30.2038,-30.8517,394.6366],[30.2353,-30.8296,502.1614],[30.2356,-30.8311,502.2248],[30.2387,-30.8304,497.8629],[30.2384,-30.8274,445.4068],[30.2487,-30.8202,541.0311],[30.2435,-30.8174,499.6145],[30.2495,-30.8103,540.8653],[30.2783,-30.7947,448.4988],[30.2909,-30.7844,448.14],[30.2881,-30.783,461.0631],[30.2822,-30.7624,468.9044],[30.2912,-30.7532,416.5318],[30.2907,-30.75,440.2073],[30.2891,-30.7492,441.8718],[30.2877,-30.737,480.305],[30.2861,-30.7355,470.702],[30.2872,-30.7346,481.1393],[30.276,-30.7248,495.2556],[30.2831,-30.7081,507.8765],[30.2765,-30.7082,442.251],[30.2748,-30.7027,464.874],[30.2808,-30.7024,521.2413],[30.2909,-30.6962,431.3275],[30.2971,-30.6978,459.4463],[30.3311,-30.6856,360.2943],[30.3373,-30.6981,328.1995],[30.3985,-30.726,187.0176],[30.3991,-30.7217,209.8992],[30.3928,-30.7118,178.9324],[30.397,-30.7074,3.7152],[30.3887,-30.7039,12.314],[30.388,-30.6976,30.8076],[30.3842,-30.691,40.9648],[30.3864,-30.6841,34.249],[30.3774,-30.6709,17.2877],[30.374,-30.6616,18.4107],[30.3698,-30.6574,13.7249],[30.3694,-30.6617,98.2805],[30.3671,-30.6648,48.0302],[30.3622,-30.6639,26.5375],[30.3538,-30.6494,67.0938],[30.3389,-30.642,40.7505],[30.3313,-30.6316,87.5283],[30.3314,-30.6288,66.7648],[30.3351,-30.6278,50.3273],[30.3345,-30.6246,50.7777],[30.316,-30.6221,61.4686],[30.2962,-30.6374,83.285],[30.2798,-30.6423,90.3959],[30.2724,-30.6367,110.0254],[30.2647,-30.6246,105.565],[30.2591,-30.6236,107.1339],[30.2527,-30.6265,151.5253],[30.2474,-30.6252,114.0442],[30.2395,-30.6122,117.6384],[30.2367,-30.6106,121.2612],[30.2328,-30.6137,142.8141],[30.2325,-30.6177,124.3976],[30.2512,-30.6346,128.7589],[30.251,-30.637,131.099],[30.2486,-30.6412,139.3882],[30.2425,-30.6462,145.9936],[30.2183,-30.6554,156.7966],[30.1996,-30.6535,159.994],[30.1966,-30.6498,151.5371],[30.1976,-30.6439,154.5115],[30.1966,-30.6384,155.2418],[30.1993,-30.6294,155.0695],[30.1939,-30.6201,156.2479],[30.1916,-30.6194,182.9698],[30.1877,-30.6216,160.5807],[30.1858,-30.627,159.1993],[30.1788,-30.6274,159.5885],[30.1761,-30.6258,167.7137],[30.171,-30.6156,166.4463],[30.1713,-30.6135,163.9122],[30.1696,-30.6126,180.1748],[30.1599,-30.6193,164.7598],[30.1478,-30.6211,175.0693],[30.135,-30.6373,169.5775],[30.1336,-30.6369,166.0594],[30.1329,-30.6329,171.897],[30.1361,-30.6249,168.6711],[30.092,-30.6422,605.3935],[30.0814,-30.6444,636.5325],[30.0731,-30.6501,671.5652],[30.0667,-30.6385,652.7351],[30.0632,-30.6445,708.2518],[30.0493,-30.6413,723.408],[30.0391,-30.6445,708.0578],[30.0296,-30.6406,720.3027],[30.0199,-30.6461,725.1963],[30.0225,-30.6537,717.6127],[30.0367,-30.6714,654.2993],[30.0631,-30.6651,681.67],[30.0798,-30.6553,708.0448],[30.0835,-30.6655,672.1266],[30.0674,-30.6766,584.1093],[30.0821,-30.6967,533.4171],[30.0741,-30.6995,502.2324],[30.0685,-30.7061,516.6683],[30.0593,-30.7072,607.631],[30.0458,-30.7057,568.8192],[30.0509,-30.7204,658.2792],[30.0352,-30.7303,713.1001],[30.0363,-30.7194,584.259],[30.0312,-30.719,592.52],[30.0184,-30.7131,671.5936],[30.008,-30.7327,709.0103],[30.021,-30.7383,737.4644],[30.0107,-30.7647,716.7838],[29.9895,-30.8071,667.9343],[29.9828,-30.8281,577.4365],[29.9697,-30.8277,386.3846],[29.9591,-30.8215,344.0163],[29.9582,-30.8244,343.3485],[29.9615,-30.83,366.7034],[29.9748,-30.8381,351.3763],[29.9799,-30.8374,338.4258],[29.9833,-30.835,338.2158],[29.9898,-30.838,384.9409],[29.9937,-30.836,353.767],[30.0003,-30.8375,348.1429],[30.0015,-30.8279,336.359],[30.0054,-30.8256,338.1089],[30.0097,-30.8266,324.1342],[30.0119,-30.8321,333.2878],[30.007,-30.8422,336.2603],[30.0098,-30.8433,359.3953],[30.0162,-30.8396,314.9733],[30.0218,-30.8392,310.409],[30.0224,-30.8475,303.477],[30.0194,-30.8537,302.7396],[30.0237,-30.8574,301.0813],[30.0257,-30.8549,375.287],[30.0255,-30.8488,348.7787],[30.0364,-30.8466,313.6195],[30.039,-30.8446,298.2417],[30.046,-30.848,320.6824],[30.0532,-30.8468,283.4535],[30.0579,-30.8485,282.3198],[30.0622,-30.8481,280.6863],[30.0668,-30.8517,283.6823],[30.0702,-30.8516,281.8382],[30.0742,-30.8564,276.3211],[30.0732,-30.8658,273.9957],[30.0818,-30.8659,274.1422],[30.0828,-30.8637,283.8459],[30.0874,-30.8641,289.8701],[30.0941,-30.862,279.6625],[30.0953,-30.863,282.0411],[30.0926,-30.8687,287.9868],[30.0932,-30.878,298.9961],[30.0882,-30.8745,288.3678],[30.0741,-30.8708,271.6329],[30.071,-30.871,274.0486],[30.07,-30.8729,260.6935]]],
[[[30.1361,-30.6249,168.6711],[30.1363,-30.6246,168.6711],[30.1363,-30.6245,171.5176],[30.1361,-30.6249,168.6711]]]]}}