{"type":"Feature","properties":{"GID_3":"ZAF.8.4.2_1","GID_0":"ZAF","country":"SouthAfrica","GID_1":"ZAF.8_1","province":"NorthernCape","NL_NAME_1":"NA","GID_2":"ZAF.8.4_1","county":"PixleykaSeme","NL_NAME_2":"NA","city":"Kareeberg","VARNAME_3":"NA","NL_NAME_3":"NA","TYPE_3":"LocalMunicipality","ENGTYPE_3":"LocalMunicipality","CC_3":"NC074","HASC_3":"NA","name":"Kareeberg.city"},
"geometry":{"type": "MultiPolygon","coordinates": [[[[22.978,-30.2444,1093.0079],[22.982,-30.2381,1097.3041],[22.9549,-30.2222,1068.7456],[22.9555,-30.1546,1085.3445],[22.9863,-30.1436,1092.7141],[22.9949,-30.1361,1081.2303],[22.9838,-30.1255,1085.9385],[22.9988,-30.1139,1086.3484],[22.9376,-30.1236,1063.1464],[22.867,-30.1703,1093.2531],[22.8648,-30.1122,1087.7375],[22.8108,-30.0839,1120.0231],[22.7483,-30.0793,1164.983],[22.6478,-30.1302,1126.8931],[22.6739,-30.1886,1113.1792],[22.6081,-30.1993,1149.0764],[22.5235,-30.1584,1129.6289],[22.4663,-30.1904,1108.0698],[22.2996,-30.1964,1066.5635],[22.2896,-30.1726,1001.4914],[22.2559,-30.1738,1040.2581],[22.2044,-30.2177,1050.5496],[22.1819,-30.1757,988.1763],[22.209,-30.1249,1029.853],[22.1355,-30.1131,1024.9438],[22.109,-30.1014,1015.1392],[22.0346,-30.0576,1041.2814],[22.0142,-30.0058,1016.7625],[21.9384,-30.0243,988.1008],[21.9146,-29.9911,1011.6342],[21.8327,-30.0279,994.8627],[21.6947,-29.9954,930.0021],[21.6134,-30.013,984.2451],[21.5922,-30.0116,1006.6433],[21.5752,-30.0444,955.1118],[21.5069,-30.0312,916.2053],[21.4257,-29.9864,912.772],[21.3713,-30.0175,896.0693],[21.243,-30.0391,870.4645],[21.1652,-30.0856,905.8433],[21.1522,-30.1918,938.2393],[21.2107,-30.1793,890.3185],[21.2598,-30.2041,912.313],[21.1492,-30.2077,931.2388],[21.1431,-30.2562,967.4983],[21.0749,-30.3026,1000.4813],[21.0729,-30.3323,996.7342],[21.1085,-30.3356,1005.1993],[21.1944,-30.3384,1014.2332],[21.2198,-30.3329,960.9902],[21.2517,-30.3975,1011.2071],[21.2652,-30.4744,1012.1522],[21.3081,-30.5436,1012.7977],[21.2709,-30.5895,977.2231],[21.3364,-30.6383,1012.8649],[21.3753,-30.6889,1097.1127],[21.3815,-30.6992,1078.5308],[21.4209,-30.7286,1096.981],[21.4834,-30.7461,1301.0673],[21.4477,-30.7842,1396.9138],[21.4651,-30.8204,1404.3087],[21.4933,-30.8281,1371.5105],[21.4696,-30.8752,1307.481],[21.4842,-30.8906,1313.6095],[21.5034,-30.8881,1542.1776],[21.502,-30.9148,1390.0878],[21.4831,-30.9448,1394.3928],[21.4858,-30.9574,1415.3269],[21.483,-30.9939,1366.209],[21.5256,-31.0035,1339.3801],[21.5098,-31.0572,1345.396],[21.5672,-31.0969,1370.2275],[21.5881,-31.0619,1333.4548],[21.6707,-31.0976,1290.0935],[21.7034,-31.078,1269.2827],[21.7001,-31.0635,1284.6881],[21.7379,-31.0645,1272.9047],[21.7952,-31.0601,1334.9497],[21.8459,-31.0641,1284.7389],[21.9183,-31.0435,1302.571],[21.9497,-31.0129,1341.2159],[21.9827,-31.0326,1346.491],[22.0032,-31.0124,1336.6956],[22.0822,-31.0515,1334.0421],[22.0875,-31.1005,1334.9861],[22.077,-31.1343,1333.8425],[22.0863,-31.1485,1349.6521],[22.1052,-31.1562,1320.7958],[22.1214,-31.148,1367.3127],[22.1875,-31.1689,1371.0901],[22.1843,-31.1934,1350.5164],[22.2145,-31.2163,1362.5249],[22.252,-31.19,1439.845],[22.2666,-31.1658,1397.9761],[22.3185,-31.1429,1494.1134],[22.4435,-31.131,1528.3208],[22.4732,-31.1163,1535.5573],[22.4824,-31.1087,1468.0663],[22.4976,-31.0958,1426.9275],[22.5013,-31.0575,1468.3464],[22.4634,-31.007,1416.5657],[22.4972,-30.98,1660.344],[22.5101,-30.9678,1580.3828],[22.5179,-30.9704,1621.1528],[22.5248,-30.9677,1393.9087],[22.5291,-30.9852,1434.8912],[22.5606,-30.9807,1421.4919],[22.5731,-30.9804,1378.0327],[22.5808,-30.9687,1348.5393],[22.665,-30.9542,1278.9574],[22.6901,-30.9755,1261.7828],[22.7526,-30.9514,1233.5203],[22.7393,-30.9258,1232.4011],[22.7819,-30.9476,1224.6722],[22.8966,-30.8797,1182.499],[22.8911,-30.8637,1181.5625],[22.8969,-30.8563,1180.0936],[22.9888,-30.8715,1194.1478],[22.9862,-30.8832,1201.5013],[23.0084,-30.8842,1208.1243],[23.0562,-30.8823,1264.7693],[23.1094,-30.8282,1469.2913],[23.1013,-30.8134,1502.5164],[23.0983,-30.7902,1186.7032],[23.0674,-30.7993,1203.1211],[23.0555,-30.7285,1137.4121],[23.0133,-30.6588,1176.9061],[23.0645,-30.6512,1207.1989],[23.0677,-30.6866,1149.4073],[23.0922,-30.6797,1134.5857],[23.0852,-30.6501,1184.1558],[23.1029,-30.6526,1152.9539],[23.1148,-30.625,1153.6855],[23.0839,-30.6189,1180.7379],[23.0943,-30.5674,1127.0997],[23.1623,-30.5889,1142.809],[23.1702,-30.5543,1090.032],[23.2425,-30.5413,1109.8944],[23.2243,-30.4883,1142.3999],[23.2236,-30.4425,1161.1501],[23.2303,-30.3987,1093.0864],[23.1787,-30.3843,1134.4198],[23.1332,-30.3815,1091.7173],[23.0668,-30.3916,1107.8208],[22.998,-30.3773,1067.6821],[22.9746,-30.3345,1103.7844],[22.9592,-30.2732,1103.5896],[22.978,-30.2444,1093.0079]]]]}}