{"type": "Feature","bbox": [26.9981,-31.4223,28.1623,-30.3134],"geometry": {"type": "MultiPolygon","coordinates": [[[[27.3363,-31.3754,2070.1279],[27.3446,-31.3803,1925.2323],[27.3626,-31.4223,1374.072],[27.3859,-31.4155,1370.5826],[27.4085,-31.4185,1794.7294],[27.4398,-31.3847,1808.0281],[27.4435,-31.3745,1779.5485],[27.4567,-31.301,2345.0889],[27.4339,-31.2795,2381.7915],[27.4513,-31.2572,2434.0234],[27.4907,-31.2526,2146.9624],[27.5145,-31.2367,2241.614],[27.526,-31.2271,2233.2537],[27.5515,-31.2303,2146.7642],[27.559,-31.225,2224.9438],[27.5577,-31.2197,2240.4375],[27.5696,-31.2091,2196.1885],[27.6052,-31.212,2277.9768],[27.6241,-31.224,2295.8228],[27.6302,-31.2223,2339.6194],[27.6803,-31.2279,2159.4834],[27.7101,-31.2168,2204.0195],[27.7063,-31.2301,2001.0537],[27.7329,-31.2334,2265.1062],[27.7365,-31.2351,2152.1646],[27.7483,-31.221,2211.7781],[27.7529,-31.2213,1991.5872],[27.76,-31.2036,2235.5078],[27.7858,-31.203,2094.8484],[27.8081,-31.2148,2045.8693],[27.815,-31.2076,2057.3472],[27.8329,-31.2085,2053.3306],[27.8718,-31.2033,2214.7031],[27.8784,-31.2074,2185.8804],[27.8874,-31.2165,2186.1421],[27.9038,-31.2272,2340.8013],[27.9061,-31.2481,2140.2258],[27.9313,-31.234,2183.8608],[27.9411,-31.2139,2281.2671],[27.9495,-31.2038,2316.7019],[27.9685,-31.1985,2212.8499],[27.9855,-31.152,2541.3818],[27.9816,-31.0765,2635.2207],[28.0237,-31.0389,2520.9851],[28.0639,-31.0126,2529.7659],[28.0511,-30.9743,2523.8164],[28.0659,-30.9654,2494.2524],[28.0596,-30.9495,2489.3594],[28.0807,-30.9395,2490.3579],[28.0758,-30.9238,2554.9971],[28.0786,-30.9131,2517.8479],[28.0957,-30.8917,2414.1006],[28.103,-30.875,2601.0537],[28.1177,-30.8613,2513.8345],[28.1214,-30.84,2546.3235],[28.1321,-30.8353,2503.2078],[28.1255,-30.7912,2684.929],[28.1382,-30.7822,2643.4854],[28.1204,-30.7782,2656.533],[28.1315,-30.7426,2598.22],[28.1514,-30.7178,2547.5972],[28.148,-30.7,2581.3572],[28.1623,-30.6928,2587.2954],[28.1457,-30.6707,2597.5752],[28.1412,-30.6598,2706.3997],[28.1177,-30.6687,2797.1201],[28.1136,-30.6756,2827.9875],[28.0846,-30.654,2796.7988],[28.0524,-30.6581,2726.5295],[28.0037,-30.659,2677.6868],[27.9916,-30.6509,2800.7786],[27.9775,-30.655,2657.3567],[27.9405,-30.6441,2961.5002],[27.9405,-30.6397,2940.4314],[27.9335,-30.6332,2919.7893],[27.933,-30.6275,2883.3254],[27.9266,-30.6231,2927.4067],[27.9202,-30.622,2909.6978],[27.9224,-30.6092,2781.3215],[27.9184,-30.6026,2745.6416],[27.9155,-30.6013,2747.0608],[27.9069,-30.6043,2659.3208],[27.903199999999998,-30.6029,2634.2041],[27.8985,-30.6072,2513.6479],[27.8896,-30.6052,2229.7007],[27.8812,-30.6137,2054.728],[27.8607,-30.6142,1964.953],[27.8553,-30.6158,1947.3197],[27.8304,-30.6137,1854.6057],[27.8142,-30.6163,1833.6509],[27.8058,-30.6155,1781.4387],[27.7955,-30.6191,1734.4468],[27.7922,-30.6176,1740.4557],[27.787,-30.6189,1717.3396],[27.7855,-30.6173,1708.4119],[27.7736,-30.6143,1689.9338],[27.7699,-30.6111,1715.0461],[27.7685,-30.612,1688.4521],[27.7645,-30.6105,1663.0491],[27.7589,-30.6068,1634.9514],[27.7482,-30.6062,1643.3739],[27.7419,-30.6039,1589.9758],[27.735,-30.590699999999998,1566.3118],[27.7302,-30.5896,1572.0173],[27.7207,-30.5791,1545.0637],[27.7164,-30.5686,1541.4188],[27.7021,-30.5645,1522.7202],[27.7005,-30.5612,1524.5885],[27.6943,-30.5587,1516.304],[27.6939,-30.5554,1515.0542],[27.6973,-30.553,1512.5137],[27.6953,-30.5501,1512.8997],[27.6916,-30.5486,1548.6555],[27.6934,-30.5448,1522.1437],[27.6904,-30.5408,1528.0149],[27.6868,-30.54,1512.1533],[27.6796,-30.5345,1529.8672],[27.6726,-30.5354,1491.0404],[27.6651,-30.5254,1479.0022],[27.6576,-30.5225,1480.0424],[27.6573,-30.5193,1514.5826],[27.6531,-30.5174,1480.8716],[27.6459,-30.5197,1480.0889],[27.6453,-30.517,1473.2703],[27.6392,-30.5157,1494.1235],[27.6369,-30.5131,1472.2766],[27.6246,-30.507,1462.1891],[27.6209,-30.5021,1453.1327],[27.6219,-30.4993,1463.684],[27.6199,-30.4937,1454.3103],[27.6147,-30.4967,1472.9071],[27.6097,-30.4956,1451.9637],[27.6071,-30.4919,1440.8274],[27.6119,-30.4911,1450.4802],[27.6151,-30.4882,1462.3668],[27.6141,-30.4844,1505.6069],[27.615,-30.4777,1438.7854],[27.6089,-30.4709,1431.6533],[27.6038,-30.4585,1456.3217],[27.5976,-30.4573,1423.6801],[27.6043,-30.4499,1439.9185],[27.6037,-30.448,1442.4419],[27.6012,-30.4466,1421.5364],[27.5932,-30.4503,1419.1362],[27.5874,-30.4499,1422.1127],[27.5851,-30.4485,1419.9059],[27.5724,-30.4481,1416.0414],[27.5673,-30.4448,1421.0485],[27.5644,-30.4345,1420.406],[27.5715,-30.4302,1410.7522],[27.5714,-30.4286,1409.1515],[27.5601,-30.4155,1406.9893],[27.5531,-30.4012,1414.8989],[27.5388,-30.3931,1398.373],[27.5334,-30.3841,1396.6338],[27.5204,-30.3833,1392.5],[27.512,-30.3871,1392.0],[27.5069,-30.3876,1393.0428],[27.5007,-30.3781,1395.2249],[27.5021,-30.3718,1393.2253],[27.4945,-30.3745,1393.7922],[27.4894,-30.3734,1397.1339],[27.49,-30.366,1399.1073],[27.4883,-30.3629,1392.6631],[27.4812,-30.3604,1401.2832],[27.4743,-30.355,1393.1538],[27.4769,-30.3488,1395.6709],[27.4745,-30.333,1418.7957],[27.4755,-30.3221,1391.5298],[27.4679,-30.3158,1419.5898],[27.4618,-30.3134,1391.6162],[27.4502,-30.3147,1390.2349],[27.4374,-30.3234,1396.5283],[27.4203,-30.3241,1399.5128],[27.4127,-30.3308,1387.2617],[27.393,-30.3398,1392.4441],[27.3827,-30.3367,1400.4678],[27.3808,-30.3292,1384.4827],[27.3782,-30.3268,1385.0956],[27.3627,-30.3237,1381.0],[27.3489,-30.3308,1381.9226],[27.3489,-30.3324,1379.0],[27.3534,-30.3359,1378.0],[27.3583,-30.3358,1380.0575],[27.3664,-30.3387,1377.6638],[27.367,-30.3452,1417.2329],[27.3629,-30.3552,1383.5936],[27.3683,-30.3709,1375.5],[27.3721,-30.3745,1378.1232],[27.3787,-30.3745,1375.0],[27.3799,-30.3619,1382.8982],[27.3834,-30.3583,1378.8518],[27.3914,-30.3575,1380.9332],[27.3967,-30.3611,1396.0485],[27.3959,-30.3703,1383.4436],[27.4029,-30.3804,1385.7799],[27.4018,-30.385,1409.4336],[27.4038,-30.3916,1374.9421],[27.3991,-30.3951,1378.9192],[27.3832,-30.4013,1383.009],[27.3809,-30.4064,1374.5969],[27.3769,-30.4088,1381.0544],[27.3734,-30.4053,1376.5439],[27.366,-30.403,1388.1628],[27.3522,-30.4011,1372.55],[27.3446,-30.3973,1377.9177],[27.3389,-30.3983,1369.6497],[27.3391,-30.4035,1372.7058],[27.3346,-30.4121,1384.7025],[27.3319,-30.4157,1390.1002],[27.3236,-30.4177,1420.7589],[27.3242,-30.4232,1378.9935],[27.3338,-30.4294,1390.1173],[27.340699999999998,-30.431,1384.3667],[27.3615,-30.4253,1366.9875],[27.3684,-30.4334,1365.7657],[27.3687,-30.437,1359.0],[27.3556,-30.4431,1370.0778],[27.3479,-30.4492,1380.3021],[27.3396,-30.4506,1369.4969],[27.3235,-30.4468,1381.8285],[27.3111,-30.4411,1375.9722],[27.3049,-30.4413,1375.7324],[27.3006,-30.4437,1363.6531],[27.2935,-30.4552,1360.4697],[27.2959,-30.4616,1382.3746],[27.299,-30.4639,1363.1968],[27.3148,-30.469,1357.1781],[27.3211,-30.4756,1366.0071],[27.3261,-30.4783,1363.6296],[27.3284,-30.4834,1350.5217],[27.3243,-30.4877,1352.4912],[27.3064,-30.4906,1361.2651],[27.2984,-30.4946,1356.3622],[27.3012,-30.5016,1381.9399],[27.3007,-30.5088,1351.8584],[27.2975,-30.5122,1352.641],[27.2902,-30.5103,1348.6819],[27.2833,-30.5031,1353.6425],[27.2747,-30.5023,1349.4894],[27.2665,-30.5063,1350.4675],[27.2621,-30.5037,1357.72],[27.2511,-30.5025,1346.1621],[27.2482,-30.4953,1341.5],[27.2481,-30.4868,1349.1985],[27.2456,-30.4818,1347.5828],[27.2395,-30.4806,1344.0166],[27.2332,-30.4848,1347.4995],[27.2336,-30.4933,1342.6813],[27.2295,-30.4992,1342.2537],[27.2297,-30.5096,1358.6482],[27.2215,-30.5104,1339.7583],[27.2197,-30.5086,1338.5],[27.2183,-30.5054,1367.5381],[27.219,-30.4923,1369.3077],[27.2153,-30.4876,1343.6753],[27.2128,-30.487,1338.0],[27.2099,-30.489,1363.7621],[27.2095,-30.4935,1337.5],[27.2057,-30.5006,1342.9148],[27.206,-30.5074,1340.933],[27.1864,-30.5246,1354.1848],[27.1763,-30.52,1335.2168],[27.1697,-30.5123,1340.0223],[27.1611,-30.5142,1338.1021],[27.1395,-30.5097,1339.0719],[27.1305,-30.5102,1352.0099],[27.1282,-30.5118,1354.4253],[27.1272,-30.5153,1329.0106],[27.1349,-30.5238,1345.5565],[27.138,-30.5322,1356.1948],[27.1327,-30.538,1374.5017],[27.1213,-30.5409,1357.4536],[27.1135,-30.5534,1327.4409],[27.1061,-30.5583,1343.0062],[27.0963,-30.5536,1328.0645],[27.0913,-30.5477,1349.2969],[27.0871,-30.5393,1381.0293],[27.089,-30.5305,1325.4667],[27.0853,-30.528,1335.2734],[27.065,-30.5297,1351.6858],[27.0427,-30.537,1324.5311],[27.0349,-30.5374,1327.9856],[27.026,-30.5344,1328.2997],[27.0226,-30.5375,1318.0],[27.0129,-30.5363,1329.8176],[27.0037,-30.5383,1320.7864],[26.9981,-30.5487,1358.2925],[27.0012,-30.5545,1335.8849],[27.0054,-30.5579,1327.2695],[27.0178,-30.5613,1315.7932],[27.0265,-30.5786,1311.0],[27.0392,-30.5791,1325.5033],[27.0415,-30.5815,1338.5303],[27.0426,-30.5876,1326.7373],[27.0343,-30.5999,1328.1915],[27.0355,-30.6019,1347.0107],[27.0404,-30.6008,1351.5887],[27.0427,-30.6038,1340.2954],[27.0357,-30.6088,1372.7991],[27.0393,-30.6094,1389.9797],[27.0441,-30.6136,1419.0591],[27.0476,-30.6199,1394.1157],[27.051,-30.6217,1402.4641],[27.0536,-30.6211,1402.2517],[27.0595,-30.6145,1444.8267],[27.069,-30.6177,1437.9034],[27.0679,-30.6225,1420.4556],[27.0727,-30.6224,1425.8341],[27.0728,-30.625,1419.8873],[27.0799,-30.6315,1420.951],[27.0852,-30.631,1427.2124],[27.089,-30.6328,1426.9939],[27.0918,-30.6298,1427.9561],[27.0963,-30.6305,1430.8756],[27.097,-30.6333,1432.1699],[27.1073,-30.6316,1436.4519],[27.115,-30.6454,1446.0359],[27.1134,-30.6517,1457.5774],[27.1085,-30.6565,1456.7992],[27.1112,-30.6598,1460.5015],[27.1104,-30.6624,1466.1152],[27.1273,-30.6607,1475.4413],[27.1295,-30.6658,1512.9546],[27.1047,-30.6879,1530.814],[27.1079,-30.6928,1578.0371],[27.1096,-30.702,1559.5693],[27.1164,-30.7086,1635.3555],[27.1157,-30.7308,1477.6406],[27.1376,-30.7359,1532.4395],[27.14,-30.7491,1577.474],[27.1187,-30.7832,1457.438],[27.1798,-30.8026,1912.9025],[27.1708,-30.8344,1588.9712],[27.1489,-30.8521,1780.4705],[27.1311,-30.9052,1355.5413],[27.1504,-30.9176,1360.2994],[27.1489,-30.921,1391.5912],[27.1432,-30.9236,1364.3816],[27.1395,-30.9284,1376.645],[27.1477,-30.9382,1363.3376],[27.1469,-30.9477,1364.3907],[27.1484,-30.951,1373.8054],[27.1518,-30.9519,1372.2095],[27.1582,-30.9477,1372.1293],[27.161,-30.9483,1377.1133],[27.1617,-30.9566,1373.406],[27.1646,-30.9589,1377.6316],[27.1689,-30.9564,1380.5231],[27.1711,-30.9478,1410.1074],[27.1748,-30.9509,1384.4075],[27.1735,-30.9753,1663.8505],[27.1683,-30.9851,1686.9292],[27.1538,-30.9898,1711.839],[27.1469,-30.9946,1704.0056],[27.1412,-31.0019,1761.179],[27.1587,-31.052,1923.8004],[27.1298,-31.0621,1764.3547],[27.1642,-31.0878,1788.6971],[27.1725,-31.0826,1806.3768],[27.1895,-31.1032,1621.8674],[27.2016,-31.0994,1650.0204],[27.2178,-31.146,1916.2458],[27.1843,-31.1542,1795.6182],[27.1745,-31.1499,1621.9834],[27.1688,-31.1602,1597.5605],[27.1695,-31.1669,1559.5693],[27.1676,-31.1686,1553.4841],[27.1705,-31.1763,1598.281],[27.1649,-31.1827,1616.274],[27.1735,-31.2166,1701.3145],[27.1674,-31.218,1782.522],[27.1646,-31.2422,1618.5747],[27.1651,-31.2598,1820.7489],[27.1953,-31.2834,1630.0],[27.2422,-31.2599,2033.6589],[27.2556,-31.2665,1722.2412],[27.2726,-31.2644,1639.973],[27.2966,-31.2916,2014.1864],[27.2968,-31.34,1851.9801],[27.276,-31.3398,2007.8324],[27.2814,-31.3807,1532.9359],[27.2962,-31.375,1598.2723],[27.2908,-31.3562,1704.2614],[27.2935,-31.3542,1677.9716],[27.2979,-31.3552,1695.7056],[27.3043,-31.3483,1972.1012],[27.3038,-31.3463,2016.0864],[27.3218,-31.3741,2082.0825],[27.3225,-31.3792,1969.2249],[27.334,-31.3823,2086.0371],[27.3363,-31.3754,2070.1279]]]]}
,"properties": {"GID_3": "ZAF.1.6.4_1","GID_0": "ZAF","country": "SouthAfrica","GID_1": "ZAF.1_1","province": "EasternCape","NL_NAME_1": "NA","GID_2": "ZAF.1.6_1","county": "JoeGqabi","NL_NAME_2": "NA","city": "Senqu","VARNAME_3": "NA","NL_NAME_3": "NA","TYPE_3": "LocalMunicipality","ENGTYPE_3": "LocalMunicipality","CC_3": "EC142","HASC_3": "NA","name": "Senqu.city","area_km2": 7336.487,"hist_schema_id": "Elevation0-9000","hist_area_km2": {"1300": 0.292,"1325": 2.958,"1350": 8.688,"1375": 21.565,"1400": 49.541,"1425": 74.474,"1450": 113.934,"1475": 144.231,"1500": 176.297,"1525": 194.9,"1550": 168.792,"1575": 152.121,"1600": 147.926,"1625": 143.614,"1650": 147.37,"1675": 153.849,"1700": 174.474,"1725": 214.942,"1750": 243.782,"1775": 270.922,"1800": 283.82,"1825": 276.081,"1850": 272.721,"1875": 257.365,"1900": 245.726,"1925": 247.287,"1950": 232.627,"1975": 205.993,"2000": 197.333,"2025": 194.477,"2050": 184.463,"2075": 168.504,"2100": 158.96,"2125": 146.008,"2150": 133.252,"2175": 123.474,"2200": 112.553,"2225": 104.731,"2250": 95.001,"2275": 92.388,"2300": 88.708,"2325": 92.004,"2350": 84.899,"2375": 83.592,"2400": 84.784,"2425": 79.886,"2450": 69.291,"2475": 69.256,"2500": 67.613,"2525": 63.629,"2550": 52.615,"2575": 40.522,"2600": 29.777,"2625": 22.198,"2650": 16.149,"2675": 12.415,"2700": 8.131,"2725": 7.258,"2750": 6.019,"2775": 5.144,"2800": 4.031,"2825": 3.265,"2850": 2.919,"2875": 1.842,"2900": 1.405,"2925": 1.113,"2950": 0.42,"2975": 0.146}}}