{"type": "Feature","bbox": [29.6169,-28.1898,30.6999,-27.2674],"geometry": {"type": "MultiPolygon","coordinates": [[[[30.1926,-28.083,1350.4407],[30.1977,-28.0715,1277.2478],[30.2385,-28.0731,1234.2438],[30.2558,-28.0779,1237.3853],[30.2709,-28.0557,1283.9005],[30.2794,-28.0511,1436.301],[30.2792,-28.0494,1416.944],[30.2841,-28.0419,1392.2729],[30.2553,-28.0352,1482.3833],[30.2469,-28.0095,1464.7745],[30.2453,-27.9953,1308.5991],[30.2584,-27.9787,1236.1802],[30.2823,-27.9825,1209.2731],[30.3053,-27.9761,1157.5721],[30.3159,-27.9646,1149.4565],[30.315,-27.9609,1146.9756],[30.3081,-27.9611,1145.0256],[30.2953,-27.9575,1145.7479],[30.2923,-27.9512,1149.8086],[30.2965,-27.9309,1176.7269],[30.3533,-27.9347,1206.2126],[30.3862,-27.9306,1212.6725],[30.4324,-27.9737,1215.4734],[30.4572,-27.9862,1433.2483],[30.4825,-27.9853,1522.3856],[30.5307,-28.0039,1224.7559],[30.5697,-28.0089,1172.863],[30.5666,-28.007,1169.7983],[30.5665,-28.0046,1170.4395],[30.5714,-27.9998,1170.8571],[30.578,-27.9986,1171.4033],[30.5778,-27.9963,1170.4371],[30.5856,-27.9958,1173.1758],[30.5813,-27.9921,1171.4023],[30.5836,-27.9872,1172.6086],[30.5872,-27.9886,1173.3113],[30.5873,-27.9822,1172.4379],[30.5839,-27.9806,1171.7856],[30.5868,-27.9774,1176.3354],[30.5839,-27.9764,1172.6975],[30.5827,-27.974,1172.5935],[30.5863,-27.9714,1178.819],[30.5838,-27.9703,1173.5322],[30.5847,-27.9684,1172.821],[30.5833,-27.9669,1173.4602],[30.585,-27.9663,1173.4602],[30.5841,-27.965,1174.2271],[30.5862,-27.9658,1173.4974],[30.5874,-27.9644,1173.7457],[30.5862,-27.9628,1174.2234],[30.5902,-27.9598,1174.4814],[30.5901,-27.9578,1177.4738],[30.5955,-27.9595,1175.175],[30.5982,-27.9537,1177.6536],[30.6008,-27.9531,1178.5641],[30.5989,-27.9497,1177.5],[30.6001,-27.9482,1178.2848],[30.5982,-27.9474,1177.5],[30.5959,-27.949,1177.5],[30.597,-27.9441,1177.5],[30.5933,-27.944,1177.5],[30.594,-27.9425,1177.5],[30.5914,-27.9404,1179.4619],[30.593,-27.9412,1177.899],[30.5938,-27.9378,1177.6257],[30.5979,-27.9387,1178.188],[30.5994,-27.9346,1178.8939],[30.602,-27.9348,1178.748],[30.604,-27.9315,1179.864],[30.5988,-27.9293,1186.3636],[30.5906,-27.9333,1179.7068],[30.5851,-27.9308,1182.5414],[30.5835,-27.9318,1179.8444],[30.581,-27.9288,1182.0],[30.5811,-27.9257,1182.0],[30.58,-27.9268,1182.0],[30.5789,-27.925,1182.0],[30.5826,-27.9215,1182.3019],[30.5815,-27.9207,1182.0],[30.5839,-27.9165,1182.7494],[30.5815,-27.9156,1182.0],[30.5827,-27.9134,1182.0],[30.5814,-27.9114,1182.229],[30.5838,-27.9104,1182.0],[30.584,-27.9057,1182.1702],[30.5828,-27.9055,1182.2961],[30.5858,-27.9027,1185.6353],[30.5823,-27.9029,1182.1641],[30.5805,-27.901,1183.0743],[30.5815,-27.8943,1184.3772],[30.5802,-27.8938,1182.2678],[30.582,-27.8918,1182.6522],[30.5802,-27.8898,1183.2654],[30.5816,-27.8885,1183.6185],[30.5886,-27.889,1183.329],[30.5889,-27.8859,1182.7271],[30.5858,-27.8825,1182.1709],[30.5913,-27.8798,1182.7551],[30.5896,-27.8795,1182.0],[30.5895,-27.8774,1182.6038],[30.5914,-27.877,1182.6038],[30.5901,-27.8751,1183.374],[30.5869,-27.8757,1183.0872],[30.5881,-27.8723,1183.1758],[30.5864,-27.8729,1183.12],[30.5858,-27.8684,1183.7975],[30.5831,-27.8682,1185.7166],[30.5819,-27.8669,1184.0723],[30.5836,-27.8676,1183.746],[30.5849,-27.8664,1183.746],[30.5833,-27.8664,1183.746],[30.5834,-27.8645,1184.9379],[30.5866,-27.8649,1184.0657],[30.5875,-27.8633,1184.9082],[30.5878,-27.8654,1183.9664],[30.5922,-27.8671,1184.2703],[30.593,-27.8646,1184.4905],[30.5917,-27.862,1188.1906],[30.5865,-27.8606,1184.8363],[30.5904,-27.858,1189.0371],[30.5904,-27.8538,1185.0718],[30.5932,-27.8538,1186.1045],[30.5942,-27.8507,1186.0056],[30.5928,-27.8502,1185.7822],[30.5931,-27.8463,1185.7867],[30.5966,-27.8433,1188.3237],[30.596,-27.838,1187.7172],[30.5994,-27.8343,1187.7826],[30.6016,-27.8345,1187.896],[30.6011,-27.8314,1190.8975],[30.603,-27.8283,1195.0676],[30.6082,-27.8299,1190.8344],[30.6123,-27.8276,1192.516],[30.6122,-27.8249,1193.5],[30.615,-27.8244,1194.2156],[30.6176,-27.8195,1196.0239],[30.6294,-27.8103,1196.9379],[30.6332,-27.7884,1204.8335],[30.6305,-27.7843,1210.0082],[30.6304,-27.7759,1212.2887],[30.6264,-27.7735,1222.71],[30.6183,-27.7593,1227.6957],[30.6163,-27.7518,1241.7507],[30.6175,-27.7479,1260.4153],[30.6279,-27.7396,1317.4568],[30.6294,-27.7421,1301.7449],[30.6375,-27.7466,1274.959],[30.651,-27.7449,1242.042],[30.6527,-27.7497,1255.8551],[30.6594,-27.7524,1221.4037],[30.6665,-27.7502,1207.3827],[30.6735,-27.7532,1208.3124],[30.6789,-27.7478,1192.2894],[30.6948,-27.7484,1179.0775],[30.6999,-27.7458,1176.9771],[30.6936,-27.7415,1179.9788],[30.6945,-27.7382,1186.5884],[30.6932,-27.7331,1187.5171],[30.6953,-27.7288,1190.8114],[30.6933,-27.7222,1196.9265],[30.6892,-27.7199,1218.1626],[30.6917,-27.7166,1214.1691],[30.6908,-27.7134,1215.4954],[30.6855,-27.7148,1222.3479],[30.6804,-27.7129,1228.2007],[30.6807,-27.7094,1249.5698],[30.6756,-27.7078,1277.4985],[30.6771,-27.7004,1294.7034],[30.6749,-27.698,1300.637],[30.6686,-27.6971,1318.1987],[30.6624,-27.6993,1350.7487],[30.6676,-27.6449,1312.9786],[30.615,-27.636,1528.3076],[30.6247,-27.6284,1491.9033],[30.6418,-27.6015,1503.0867],[30.6152,-27.5608,1350.9303],[30.6134,-27.5525,1510.798],[30.5925,-27.5325,1604.6614],[30.5868,-27.4998,1761.3635],[30.543,-27.482,1752.2385],[30.5206,-27.4693,1428.4512],[30.5096,-27.4566,1409.4529],[30.5162,-27.4284,1445.314],[30.4936,-27.4121,1412.3031],[30.4829,-27.4156,1447.0365],[30.4821,-27.4131,1439.066],[30.5004,-27.3906,1262.0095],[30.4778,-27.3721,1456.8849],[30.4863,-27.357,1394.9608],[30.4811,-27.3433,1210.324],[30.472,-27.3429,1247.678],[30.4679,-27.3467,1220.7725],[30.4634,-27.3467,1231.4893],[30.4651,-27.3493,1226.4373],[30.4577,-27.3513,1235.1129],[30.4549,-27.3503,1241.6628],[30.4541,-27.3538,1239.3962],[30.4494,-27.3589,1255.5925],[30.4447,-27.3575,1262.7731],[30.4484,-27.327,1874.9679],[30.4335,-27.3257,2043.5261],[30.426,-27.315,1819.7876],[30.4265,-27.2698,1842.0903],[30.3976,-27.2738,1717.8546],[30.3676,-27.2674,1548.7776],[30.3684,-27.2873,1649.5253],[30.3667,-27.3117,1659.821],[30.3284,-27.2996,1805.8887],[30.3175,-27.302,1845.7458],[30.3022,-27.3174,1951.0349],[30.2825,-27.3144,2073.7622],[30.2816,-27.3282,2205.0085],[30.2787,-27.3326,2175.6184],[30.2805,-27.3503,2116.0918],[30.2799,-27.3686,2180.1885],[30.2466,-27.3739,2106.054],[30.2347,-27.3807,1985.7244],[30.2286,-27.3654,2050.6616],[30.1981,-27.3552,2053.4563],[30.1901,-27.3689,1997.2207],[30.1782,-27.3783,1950.499],[30.1658,-27.3875,2033.3896],[30.1607,-27.3871,2139.876],[30.1502,-27.3923,2144.6018],[30.1541,-27.397,2059.5056],[30.1527,-27.4043,1950.9441],[30.1434,-27.4134,2001.0817],[30.1116,-27.3865,1734.3389],[30.0868,-27.3685,1965.7921],[30.079,-27.3702,2006.9668],[30.0683,-27.3659,2164.7007],[30.0522,-27.3797,2082.5181],[30.0464,-27.3868,2237.3032],[30.0396,-27.3893,2128.6313],[30.0306,-27.3867,1995.7429],[30.0245,-27.3945,1993.4424],[30.0162,-27.3976,2005.7916],[29.9951,-27.3884,1779.6521],[29.9785,-27.373,1744.7395],[29.9555,-27.3649,1742.3765],[29.9172,-27.3544,1702.4731],[29.9094,-27.3738,1703.2719],[29.8988,-27.3858,1568.2621],[29.8902,-27.3855,1591.8918],[29.8864,-27.3818,1620.1168],[29.8851,-27.3766,1636.2544],[29.8662,-27.3841,1671.7012],[29.8463,-27.3787,1710.9818],[29.8402,-27.379,1732.2274],[29.8349,-27.3903,1937.1532],[29.836,-27.3969,1931.2266],[29.8337,-27.4038,1921.9108],[29.8249,-27.407,1937.9827],[29.8217,-27.4115,1934.2252],[29.8227,-27.4273,1941.5106],[29.8145,-27.4306,1951.3782],[29.8137,-27.4339,1939.3494],[29.8113,-27.4356,1951.2017],[29.8114,-27.4461,2012.9131],[29.8058,-27.4504,1980.0869],[29.7991,-27.4512,2011.0334],[29.7962,-27.4577,2123.592],[29.7909,-27.4592,2115.9631],[29.7734,-27.4538,2133.4548],[29.7594,-27.4444,2234.1001],[29.7587,-27.4426,2234.5369],[29.7352,-27.4508,1935.8824],[29.7169,-27.4649,1761.4138],[29.7084,-27.4618,1769.176],[29.7032,-27.4718,1803.2454],[29.7143,-27.4804,1735.5831],[29.7319,-27.4879,1761.0631],[29.725,-27.4894,1755.3046],[29.7216,-27.4883,1749.7168],[29.7105,-27.4987,1750.0839],[29.7109,-27.5101,1788.1204],[29.7092,-27.5136,1795.2712],[29.7124,-27.5184,1799.2764],[29.7246,-27.5243,1797.0879],[29.736,-27.5196,1788.827],[29.7434,-27.5231,1767.3923],[29.7449,-27.5255,1749.312],[29.7584,-27.5271,1826.584],[29.7585,-27.5295,1818.1093],[29.7655,-27.5367,1776.3193],[29.766,-27.5413,1796.6873],[29.7711,-27.5464,1780.9634],[29.7721,-27.5534,1794.196],[29.7804,-27.5595,1785.6912],[29.7838,-27.5735,1913.8501],[29.7808,-27.5791,1829.5331],[29.7796,-27.5873,1785.8942],[29.7851,-27.5967,1794.1641],[29.7808,-27.5994,1794.7067],[29.774,-27.5951,1798.5278],[29.7707,-27.5956,1786.0729],[29.7589,-27.6015,1762.4343],[29.757,-27.604,1760.5814],[29.7522,-27.6051,1751.6013],[29.7489,-27.6137,1784.2474],[29.7402,-27.6056,1793.4341],[29.7348,-27.6071,1793.2538],[29.7315,-27.613,1794.0913],[29.7312,-27.6177,1785.114],[29.7281,-27.6167,1782.3032],[29.7229,-27.6188,1783.2512],[29.7196,-27.6257,1826.7643],[29.7206,-27.6268,1813.3589],[29.7183,-27.6295,1817.2533],[29.7148,-27.6319,1811.5726],[29.7121,-27.6306,1806.5881],[29.6979,-27.6408,1801.2607],[29.6844,-27.6377,1793.5863],[29.678,-27.6389,1806.0697],[29.6712,-27.6505,1864.1021],[29.6743,-27.66,1893.848],[29.6698,-27.6672,1960.2964],[29.6701,-27.6701,2048.5771],[29.6779,-27.6771,1996.5061],[29.6838,-27.6796,1975.1951],[29.6854,-27.6814,2003.2552],[29.6854,-27.6862,2057.5708],[29.6939,-27.6953,2037.4254],[29.6997,-27.698,2018.6537],[29.709,-27.6985,2041.1757],[29.7086,-27.7165,1975.8969],[29.7123,-27.7209,1973.4812],[29.71,-27.7222,1974.509],[29.7086,-27.7262,1960.8964],[29.7103,-27.7302,1960.1392],[29.7091,-27.7389,2011.1946],[29.7047,-27.7469,2137.5095],[29.7083,-27.7572,2006.7349],[29.703,-27.7614,1967.4312],[29.7035,-27.7667,1964.7792],[29.7108,-27.7717,1969.1902],[29.7078,-27.7752,1968.8547],[29.709,-27.7799,1962.5364],[29.7127,-27.7805,1960.8396],[29.7175,-27.7875,1958.9016],[29.7115,-27.7927,1973.9113],[29.7108,-27.7956,1982.6978],[29.724,-27.7968,1963.8574],[29.7283,-27.801,1979.4069],[29.7313,-27.8081,1930.657],[29.7293,-27.812,1892.1252],[29.7229,-27.8128,1897.3728],[29.7217,-27.8118,1897.3728],[29.716,-27.8147,1911.5416],[29.7134,-27.8181,1882.3865],[29.7095,-27.8157,1895.4788],[29.7038,-27.8189,1851.4441],[29.7022,-27.8222,1871.965],[29.697,-27.8245,1850.2349],[29.6963,-27.8291,1935.1589],[29.6938,-27.8323,1977.3085],[29.6931,-27.8393,2000.8611],[29.6969,-27.8437,1977.4945],[29.7028,-27.8566,1946.9016],[29.699,-27.8598,1973.3784],[29.6871,-27.8585,1924.936],[29.6896,-27.8644,1893.4521],[29.685,-27.8675,1850.3888],[29.6872,-27.878,1917.0144],[29.6859,-27.8831,1958.1313],[29.683,-27.8836,1966.2935],[29.6827,-27.888,1938.6471],[29.6869,-27.8907,1937.4037],[29.6903,-27.8957,1933.1227],[29.682,-27.9068,1959.4634],[29.678,-27.9088,1962.7522],[29.6717,-27.917,1972.0055],[29.6641,-27.9213,1972.1099],[29.6567,-27.9189,2003.9594],[29.6538,-27.9233,2008.5175],[29.6578,-27.9245,2000.7402],[29.6632,-27.93,1980.4248],[29.6576,-27.9374,1990.0684],[29.6646,-27.9418,1981.1649],[29.6732,-27.9432,1983.335],[29.6798,-27.9574,1987.1995],[29.6768,-27.9595,1985.8452],[29.6737,-27.9576,1965.2249],[29.6636,-27.9573,1988.0555],[29.6508,-27.9667,1959.9727],[29.6359,-27.9945,1932.9542],[29.6394,-28.0156,1858.6007],[29.6169,-28.0468,2096.9819],[29.6318,-28.069,1916.6262],[29.6555,-28.09,1851.8206],[29.6526,-28.0988,1853.6477],[29.6606,-28.1261,1876.7861],[29.6541,-28.1383,1904.6117],[29.6633,-28.142,1892.2695],[29.6709,-28.1387,1745.9713],[29.6695,-28.1345,1695.0773],[29.677,-28.1283,1755.6487],[29.6845,-28.1282,1727.9834],[29.6851,-28.1218,1512.2224],[29.7276,-28.1257,1676.8755],[29.7387,-28.131,1515.3243],[29.7415,-28.1366,1655.1837],[29.7398,-28.1411,1698.6306],[29.765,-28.1583,1581.3846],[29.7746,-28.1427,1563.6595],[29.7883,-28.0984,1524.5223],[29.7968,-28.1014,1606.16],[29.8158,-28.0988,1490.1782],[29.8461,-28.0906,1483.5674],[29.8514,-28.1074,1569.1892],[29.8824,-28.1192,1435.4611],[29.9007,-28.098,1358.9419],[29.9003,-28.0846,1354.0037],[29.9146,-28.0828,1301.7188],[29.9209,-28.078,1298.1232],[29.926,-28.0776,1306.1849],[29.9258,-28.0759,1310.9811],[29.9381,-28.0745,1278.9281],[29.9375,-28.0997,1301.1265],[29.941,-28.1315,1603.7898],[29.9371,-28.1445,1660.3058],[29.9959,-28.1898,1650.2916],[30.0156,-28.1531,1361.8396],[30.0484,-28.1653,1351.6931],[30.0723,-28.1649,1352.5909],[30.1321,-28.1774,1379.8615],[30.1292,-28.1536,1349.6476],[30.1182,-28.1533,1318.3044],[30.1238,-28.1294,1368.9899],[30.1413,-28.1346,1345.098],[30.1461,-28.1465,1358.6193],[30.1581,-28.1449,1368.3236],[30.1619,-28.1566,1343.0786],[30.1657,-28.1616,1281.9641],[30.1842,-28.1615,1261.887],[30.1809,-28.146,1346.8301],[30.1918,-28.1166,1508.2854],[30.1889,-28.1088,1563.585],[30.1909,-28.1063,1575.2886],[30.2013,-28.1033,1574.2401],[30.201,-28.099,1421.536],[30.1901,-28.0956,1349.9171],[30.1926,-28.083,1350.4407]]]]}
,"properties": {"GID_2": "ZAF.4.1_1","GID_0": "ZAF","country": "SouthAfrica","GID_1": "ZAF.4_1","province": "KwaZulu-Natal","NL_NAME_1": "NA","county": "Amajuba","VARNAME_2": "NA","NL_NAME_2": "NA","TYPE_2": "DistrictMunicipality","ENGTYPE_2": "DistrictMunicipality","CC_2": "DC25","HASC_2": "ZA.NL.AJ","name": "Amajuba.county","area_km2": 6921.201,"hist_schema_id": "Elevation0-9000","hist_area_km2": {"1150": 32.253,"1175": 305.911,"1200": 598.021,"1225": 647.835,"1250": 597.276,"1275": 480.181,"1300": 424.791,"1325": 380.479,"1350": 357.426,"1375": 263.049,"1400": 196.614,"1425": 161.863,"1450": 140.408,"1475": 130.697,"1500": 117.167,"1525": 113.294,"1550": 124.858,"1575": 135.025,"1600": 139.505,"1625": 161.072,"1650": 152.38,"1675": 131.967,"1700": 108.21,"1725": 111.395,"1750": 105.522,"1775": 108.156,"1800": 90.876,"1825": 89.484,"1850": 82.737,"1875": 72.763,"1900": 73.515,"1925": 65.707,"1950": 71.492,"1975": 53.034,"2000": 30.882,"2025": 18.266,"2050": 14.352,"2075": 11.044,"2100": 9.991,"2125": 5.155,"2150": 2.935,"2175": 2.257,"2200": 0.64,"2225": 0.282,"2250": 0.357,"2275": 0.075}}}