{"type": "Feature","bbox": [26.5216,-28.2842,27.8726,-26.8527],"geometry": {"type": "MultiPolygon","coordinates": [[[[27.3034,-27.5088,1437.9291],[27.29,-27.5092,1431.8248],[27.2978,-27.4642,1409.7871],[27.2575,-27.4721,1436.0786],[27.2321,-27.4746,1433.6382],[27.1861,-27.4201,1489.6163],[27.1951,-27.4044,1407.8518],[27.1937,-27.4013,1409.5205],[27.1718,-27.3976,1406.6439],[27.1718,-27.3722,1395.5719],[27.1625,-27.3708,1391.2206],[27.1634,-27.3666,1392.0618],[27.1434,-27.3637,1381.561],[27.1291,-27.3426,1388.2877],[27.1717,-27.340699999999998,1357.191],[27.1703,-27.3168,1364.1786],[27.1472,-27.297,1386.0536],[27.1873,-27.2872,1335.7523],[27.1889,-27.2815,1334.0449],[27.1768,-27.2726,1332.9302],[27.1747,-27.2694,1333.1506],[27.1753,-27.264,1332.3339],[27.1814,-27.2676,1332.8397],[27.184,-27.2671,1333.5748],[27.2145,-27.2786,1351.6608],[27.2702,-27.2851,1360.795],[27.3091,-27.2865,1373.2458],[27.3109,-27.2843,1372.285],[27.3787,-27.2913,1397.9199],[27.3937,-27.2383,1356.0702],[27.3876,-27.195,1377.3823],[27.4266,-27.1873,1380.1979],[27.4295,-27.1689,1378.7811],[27.3741,-27.1498,1380.3925],[27.393,-27.137,1386.1714],[27.3845,-27.1315,1388.1984],[27.3899,-27.1114,1393.8893],[27.3936,-27.1096,1395.0613],[27.3838,-27.1087,1399.1592],[27.3873,-27.0996,1400.7578],[27.372,-27.0898,1408.4493],[27.3668,-27.0762,1418.7471],[27.3499,-27.0751,1422.4286],[27.3456,-27.0611,1437.1239],[27.3585,-27.0541,1432.2666],[27.3408,-27.0193,1440.6055],[27.3421,-26.9718,1398.1782],[27.3515,-26.9423,1414.287],[27.3897,-26.9062,1342.9331],[27.3883,-26.9029,1343.123],[27.3835,-26.9002,1337.2599],[27.3766,-26.9049,1335.0002],[27.3709,-26.9042,1329.5],[27.3678,-26.8956,1334.4939],[27.3684,-26.8917,1330.5659],[27.3651,-26.891,1328.5],[27.3608,-26.8843,1331.1957],[27.3553,-26.8824,1327.9563],[27.340699999999998,-26.872,1326.0558],[27.3395,-26.8685,1324.0],[27.3402,-26.8609,1326.8959],[27.3319,-26.8538,1323.379],[27.3134,-26.8527,1325.8524],[27.3012,-26.8554,1322.6187],[27.2996,-26.8629,1318.875],[27.2921,-26.8694,1320.27],[27.2898,-26.8794,1317.406],[27.2821,-26.8836,1318.2429],[27.278199999999998,-26.8881,1316.5],[27.2704,-26.8915,1327.7861],[27.2621,-26.9082,1332.3287],[27.255,-26.9126,1318.063],[27.2469,-26.9144,1320.5582],[27.2416,-26.9187,1318.8761],[27.2344,-26.9274,1321.8759],[27.2295,-26.939,1318.855],[27.2175,-26.9461,1324.6832],[27.2111,-26.9624,1319.3046],[27.2121,-26.9762,1314.5],[27.2079,-26.9799,1313.5],[27.2042,-26.9805,1313.6132],[27.1901,-26.9775,1315.7927],[27.174,-26.9685,1309.75],[27.1752,-26.9636,1309.125],[27.1815,-26.9577,1309.8218],[27.1832,-26.9503,1310.9332],[27.1818,-26.9407,1307.0278],[27.1829,-26.9304,1304.9729],[27.1813,-26.9274,1303.875],[27.1764,-26.9249,1304.4359],[27.1701,-26.923,1306.5024],[27.1647,-26.9241,1312.4106],[27.1618,-26.9259,1301.5],[27.1537,-26.937,1301.9166],[27.1435,-26.9419,1298.5],[27.113,-26.9263,1302.2308],[27.0949,-26.931,1301.124],[27.0868,-26.9385,1298.4562],[27.0734,-26.9348,1299.5306],[27.0646,-26.9373,1295.0],[27.0506,-26.9367,1294.5],[27.04,-26.9382,1297.7168],[27.028199999999998,-26.9359,1294.0],[27.0139,-26.9321,1294.5231],[27.0052,-26.9254,1293.0441],[26.9748,-26.9121,1293.281],[26.9561,-26.9002,1293.4714],[26.9472,-26.892,1297.7122],[26.9513,-26.8783,1296.4915],[26.9508,-26.8745,1294.0593],[26.94,-26.8715,1296.6897],[26.9272,-26.8871,1292.7675],[26.9202,-26.906,1298.8055],[26.9246,-26.9303,1296.3191],[26.9233,-26.9434,1292.0],[26.925,-26.957,1292.0],[26.9231,-26.969,1293.1128],[26.9204,-26.9733,1293.2188],[26.9169,-26.9725,1292.0],[26.909,-26.9613,1293.9241],[26.9097,-26.9525,1294.0563],[26.9076,-26.9445,1289.5696],[26.8961,-26.9351,1286.1985],[26.8829,-26.9359,1284.8702],[26.8798,-26.9345,1291.9169],[26.8748,-26.9301,1290.6731],[26.8751,-26.9246,1290.329],[26.8678,-26.9195,1291.8159],[26.8635,-26.9189,1283.0],[26.8583,-26.9217,1289.3274],[26.8485,-26.9402,1283.7668],[26.8424,-26.9421,1286.1807],[26.8306,-26.9493,1285.3162],[26.8188,-26.9531,1285.2538],[26.8132,-26.9523,1286.5015],[26.8102,-26.95,1284.5419],[26.8094,-26.9468,1290.5592],[26.8117,-26.9342,1285.915],[26.8098,-26.9317,1284.4988],[26.805,-26.932,1285.7845],[26.7896,-26.9429,1282.5],[26.7667,-26.9481,1287.688],[26.7615,-26.9525,1288.8711],[26.7552,-26.9619,1287.1761],[26.7496,-26.9651,1287.3854],[26.7405,-26.9651,1286.3475],[26.7131,-26.9755,1283.506],[26.7051,-26.991,1282.0],[26.7006,-27.0086,1289.9839],[26.6966,-27.0139,1282.5117],[26.6912,-27.0171,1281.7421],[26.6869,-27.0181,1283.4015],[26.6795,-27.0152,1281.8761],[26.6765,-27.0102,1280.0],[26.6763,-27.0008,1282.7048],[26.6744,-26.998,1284.9768],[26.6712,-26.9954,1283.8082],[26.6625,-26.9935,1283.8385],[26.6361,-27.0034,1277.733],[26.6189,-27.0036,1274.0],[26.6135,-27.0271,1279.4294],[26.5926,-27.0378,1277.2964],[26.5814,-27.0544,1273.0144],[26.5809,-27.0583,1275.6858],[26.5833,-27.0631,1272.7889],[26.5897,-27.0667,1271.0],[26.5923,-27.0706,1270.5],[26.5938,-27.0793,1270.5],[26.5881,-27.0954,1271.0319],[26.5869,-27.1034,1274.2526],[26.5835,-27.108,1272.8777],[26.5684,-27.1026,1268.0],[26.549,-27.0986,1269.2277],[26.538,-27.0902,1270.2322],[26.5287,-27.091,1268.8367],[26.5242,-27.0959,1265.9371],[26.5216,-27.1044,1264.0],[26.5622,-27.1598,1313.2347],[26.5561,-27.1598,1311.6309],[26.5754,-27.1833,1323.3385],[26.6353,-27.1716,1335.8214],[26.6452,-27.1909,1323.4241],[26.6831,-27.1903,1319.9259],[26.7032,-27.2188,1309.8036],[26.7374,-27.2135,1337.4998],[26.7373,-27.2241,1316.0222],[26.7276,-27.2308,1308.2075],[26.7229,-27.264,1302.8253],[26.7099,-27.2682,1294.0602],[26.7159,-27.2806,1301.4741],[26.7344,-27.2743,1306.1608],[26.7396,-27.2882,1310.9116],[26.7568,-27.2835,1316.8716],[26.7613,-27.2988,1326.244],[26.7432,-27.3037,1314.1165],[26.75,-27.3141,1322.021],[26.7434,-27.3173,1320.6346],[26.7513,-27.3317,1329.902],[26.7544,-27.3303,1328.5469],[26.7577,-27.3482,1317.6671],[26.738,-27.3449,1327.2379],[26.696,-27.3498,1318.1906],[26.699,-27.4008,1278.2107],[26.7463,-27.3953,1327.7551],[26.7568,-27.4356,1335.2859],[26.7899,-27.4477,1355.3223],[26.7735,-27.4565,1337.4971],[26.7931,-27.515,1283.3995],[26.7897,-27.5108,1285.0295],[26.7686,-27.5158,1279.6628],[26.7712,-27.5105,1279.1824],[26.766,-27.5091,1281.877],[26.7649,-27.5095,1281.877],[26.7662,-27.5182,1283.2964],[26.7537,-27.514,1279.5027],[26.7633,-27.5643,1311.0718],[26.7758,-27.5754,1309.267],[26.8185,-27.5856,1312.319],[26.8416,-27.5845,1304.4927],[26.8577,-27.586,1311.6951],[26.8739,-27.5896,1313.4594],[26.8854,-27.5759,1330.6757],[26.8704,-27.5338,1337.0193],[26.8894,-27.5226,1351.0905],[26.9229,-27.5228,1343.6608],[26.9227,-27.5161,1341.8083],[26.9501,-27.5225,1341.2466],[26.9491,-27.5303,1362.54],[26.9335,-27.5578,1357.48],[26.9453,-27.5595,1361.7441],[26.9633,-27.5492,1379.5627],[26.9663,-27.5625,1375.0699],[27.0163,-27.5982,1395.2466],[26.9745,-27.6429,1342.8057],[26.9941,-27.6552,1333.323],[27.0062,-27.6655,1349.8615],[26.9699,-27.6945,1331.2706],[26.9892,-27.7062,1346.2793],[27.0015,-27.715699999999998,1349.5684],[27.0201,-27.707,1344.844],[27.0308,-27.7168,1351.5813],[27.0168,-27.7271,1356.5105],[27.0449,-27.749,1374.9492],[27.0772,-27.7892,1410.2148],[27.0409,-27.8091,1386.1115],[27.0525,-27.8593,1425.9421],[27.0566,-27.8574,1419.9027],[27.0757,-27.8905,1453.658],[27.0938,-27.8859,1450.8829],[27.1409,-27.9227,1400.0758],[27.1594,-27.9151,1404.0649],[27.1578,-27.9333,1430.4631],[27.1728,-27.9347,1441.3141],[27.1716,-27.911,1405.4396],[27.1786,-27.9085,1409.0557],[27.1796,-27.9222,1428.7083],[27.1873,-27.9061,1419.6991],[27.1938,-27.9045,1417.6951],[27.1928,-27.8997,1423.8488],[27.2152,-27.9151,1438.6874],[27.2386,-27.9086,1463.2205],[27.2922,-27.923,1465.3816],[27.2926,-27.9381,1474.5439],[27.3008,-27.9607,1483.0898],[27.3351,-27.9454,1454.707],[27.359,-27.9325,1457.5759],[27.3658,-27.9452,1453.2732],[27.3634,-28.0015,1518.4996],[27.3779,-28.0058,1509.212],[27.3736,-28.0196,1498.4233],[27.4023,-28.0136,1482.4934],[27.4056,-28.0261,1524.1418],[27.4263,-28.0231,1522.9187],[27.423,-28.037,1516.6182],[27.4345,-28.0401,1505.3489],[27.4338,-28.0498,1525.4946],[27.4718,-28.1071,1534.9863],[27.4275,-28.1077,1509.8049],[27.4068,-28.105,1506.9929],[27.3867,-28.1588,1474.0658],[27.3701,-28.1703,1463.1373],[27.3833,-28.1901,1525.8051],[27.3908,-28.2395,1479.6982],[27.4452,-28.2387,1530.9871],[27.4497,-28.2478,1518.7599],[27.4564,-28.248,1492.2091],[27.4616,-28.2605,1474.9214],[27.4608,-28.2647,1481.5793],[27.4695,-28.2635,1487.2366],[27.4708,-28.2666,1492.8741],[27.4701,-28.2732,1453.6416],[27.4811,-28.2718,1501.3977],[27.4832,-28.2488,1523.652],[27.5031,-28.2491,1548.9607],[27.5048,-28.2708,1567.0211],[27.5107,-28.2743,1583.0111],[27.5272,-28.267,1497.7295],[27.544,-28.2747,1439.1123],[27.5442,-28.2731,1442.5852],[27.5696,-28.2825,1450.8469],[27.5695,-28.2842,1447.7256],[27.5958,-28.2595,1481.2312],[27.605,-28.2664,1454.9532],[27.6169,-28.2512,1494.7466],[27.6112,-28.2415,1517.5836],[27.6053,-28.2055,1509.3719],[27.5963,-28.176,1571.5051],[27.6277,-28.1711,1538.3939],[27.6458,-28.1922,1494.1726],[27.6598,-28.1841,1472.627],[27.6617,-28.1862,1471.5444],[27.6564,-28.1616,1515.2991],[27.6608,-28.1613,1503.9044],[27.6602,-28.1621,1503.9044],[27.6621,-28.1627,1500.3247],[27.6614,-28.1477,1538.0367],[27.6538,-28.1266,1571.0399],[27.6932,-28.124,1553.0172],[27.689,-28.0962,1572.0522],[27.655,-28.0599,1585.7937],[27.6851,-28.0464,1596.9258],[27.7035,-28.0404,1591.1035],[27.6954,-28.0026,1591.3445],[27.7187,-27.9848,1597.9752],[27.7193,-27.9829,1573.2289],[27.7047,-27.9836,1599.6591],[27.7181,-27.9562,1557.7866],[27.7273,-27.9591,1563.6521],[27.7377,-27.9282,1492.5198],[27.7541,-27.9183,1469.1505],[27.7529,-27.9126,1460.8105],[27.7586,-27.9048,1453.1864],[27.765,-27.909,1456.9202],[27.7635,-27.9107,1455.7841],[27.765,-27.9113,1457.0925],[27.7661,-27.9149,1463.8469],[27.7729,-27.9107,1462.8635],[27.7775,-27.9102,1463.3997],[27.7862,-27.9132,1467.3138],[27.7874,-27.9159,1468.0413],[27.7917,-27.9189,1474.0037],[27.7878,-27.9245,1480.3831],[27.7894,-27.9269,1472.4084],[27.7884,-27.928,1479.0258],[27.7904,-27.9292,1472.5946],[27.7883,-27.9308,1478.2559],[27.7931,-27.9319,1474.5283],[27.7938,-27.9343,1474.3016],[27.7985,-27.9347,1476.1208],[27.7979,-27.9381,1476.9135],[27.8009,-27.9403,1478.2675],[27.8,-27.9443,1478.3442],[27.8041,-27.9442,1482.542],[27.8108,-27.9503,1482.3223],[27.823,-27.9337,1513.6851],[27.8726,-27.9338,1540.6344],[27.867,-27.8904,1530.5221],[27.8641,-27.8531,1543.441],[27.8628,-27.7895,1579.6667],[27.8028,-27.7862,1555.6669],[27.7418,-27.8064,1529.0652],[27.7142,-27.8077,1501.1658],[27.6806,-27.8014,1457.8645],[27.6477,-27.8308,1412.9966],[27.6445,-27.8269,1413.7522],[27.6476,-27.8264,1412.8816],[27.649,-27.8238,1419.403],[27.6456,-27.8193,1415.9392],[27.6421,-27.8196,1411.8282],[27.6379,-27.8156,1410.0769],[27.6345,-27.811,1413.8948],[27.6361,-27.8076,1411.7385],[27.6325,-27.8022,1420.1992],[27.6298,-27.8009,1411.0541],[27.6287,-27.8031,1407.7811],[27.6212,-27.8017,1409.6498],[27.6166,-27.7956,1409.1246],[27.6093,-27.7958,1403.1327],[27.6072,-27.7946,1403.0983],[27.6066,-27.7867,1407.0303],[27.602,-27.7793,1406.9642],[27.5949,-27.7777,1403.9102],[27.5942,-27.7811,1401.4707],[27.5918,-27.7816,1401.2246],[27.5841,-27.7773,1403.4252],[27.5823,-27.7781,1398.0918],[27.5904,-27.7536,1434.3953],[27.5668,-27.738,1482.0117],[27.5857,-27.7135,1482.744],[27.6394,-27.6816,1515.0277],[27.6251,-27.6577,1505.0188],[27.6214,-27.6568,1502.4669],[27.5768,-27.6185,1516.5087],[27.5752,-27.6206,1519.3488],[27.5473,-27.6148,1499.7817],[27.4786,-27.6312,1498.5789],[27.4267,-27.631,1472.7412],[27.432,-27.6277,1466.3118],[27.434,-27.6157,1457.2181],[27.4686,-27.6194,1478.4347],[27.465,-27.6075,1465.2379],[27.4677,-27.6059,1462.09],[27.436,-27.5705,1425.0139],[27.4496,-27.5364,1445.5514],[27.4532,-27.5212,1450.736],[27.4437,-27.5122,1459.3866],[27.4341,-27.4924,1436.3049],[27.4434,-27.4829,1415.1798],[27.4233,-27.4696,1416.0155],[27.397,-27.4587,1396.9355],[27.3788,-27.4794,1396.3993],[27.3939,-27.4974,1417.9928],[27.3842,-27.5066,1411.7799],[27.3706,-27.4863,1391.2715],[27.3648,-27.4946,1388.597],[27.3349,-27.4846,1423.7045],[27.3111,-27.4882,1436.835],[27.3034,-27.5088,1437.9291]]]]}
,"properties": {"GID_3": "ZAF.2.1.3_1","GID_0": "ZAF","country": "SouthAfrica","GID_1": "ZAF.2_1","province": "FreeState","NL_NAME_1": "NA","GID_2": "ZAF.2.1_1","county": "FezileDabi","NL_NAME_2": "NA","city": "Moqhaka","VARNAME_3": "NA","NL_NAME_3": "NA","TYPE_3": "LocalMunicipality","ENGTYPE_3": "LocalMunicipality","CC_3": "FS201","HASC_3": "NA","name": "Moqhaka.city","area_km2": 7936.632,"hist_schema_id": "Elevation0-9000","hist_area_km2": {"1275": 26.765,"1300": 459.317,"1325": 1107.732,"1350": 1525.909,"1375": 996.213,"1400": 742.094,"1425": 764.082,"1450": 665.0,"1475": 467.166,"1500": 401.787,"1525": 359.115,"1550": 281.532,"1575": 116.081,"1600": 23.07,"1625": 0.696,"1650": 0.076}}}