{"type":"Feature","properties":{"GID_3":"ZAF.9.4.7_1","GID_0":"ZAF","country":"SouthAfrica","GID_1":"ZAF.9_1","province":"WesternCape","NL_NAME_1":"NA","GID_2":"ZAF.9.4_1","county":"Eden","NL_NAME_2":"NA","city":"Oudtshoorn","VARNAME_3":"NA","NL_NAME_3":"NA","TYPE_3":"LocalMunicipality","ENGTYPE_3":"LocalMunicipality","CC_3":"WC045","HASC_3":"NA","name":"Oudtshoorn.city"},
"geometry":{"type": "MultiPolygon","coordinates": [[[[22.3207,-33.8275,941.7959],[22.3401,-33.8229,664.4673],[22.3325,-33.8185,584.4286],[22.3688,-33.7928,620.2585],[22.3212,-33.741,501.1608],[22.3262,-33.7341,529.1546],[22.3193,-33.7319,550.4744],[22.3182,-33.7351,524.6752],[22.2886,-33.7533,508.0913],[22.2871,-33.7446,507.3155],[22.2934,-33.745,454.5569],[22.2959,-33.7403,458.9587],[22.2942,-33.7303,571.4669],[22.2849,-33.7053,536.0311],[22.2942,-33.7109,555.3572],[22.3453,-33.7253,523.0235],[22.3659,-33.6849,502.5224],[22.3718,-33.6594,593.0205],[22.4308,-33.6657,483.9657],[22.4556,-33.647,735.7192],[22.5014,-33.6389,674.5037],[22.5029,-33.6393,670.892],[22.5004,-33.6492,646.8689],[22.5083,-33.645,661.0095],[22.5252,-33.6402,656.9126],[22.5887,-33.6367,1069.8411],[22.6263,-33.6224,1315.4033],[22.6593,-33.6438,1456.312],[22.6748,-33.6441,1299.7452],[22.6893,-33.6471,1307.7228],[22.7087,-33.6438,1362.0797],[22.7557,-33.6407,1601.4081],[22.7301,-33.583,748.4614],[22.7232,-33.5734,684.291],[22.7161,-33.5317,532.0945],[22.7599,-33.5307,811.0658],[22.7285,-33.4542,872.0123],[22.7544,-33.4439,931.8726],[22.7744,-33.4197,1726.3988],[22.7145,-33.4149,1984.5919],[22.6643,-33.4157,1988.6711],[22.5818,-33.4047,1634.4359],[22.5157,-33.4097,2020.9987],[22.4647,-33.4045,2064.8093],[22.3913,-33.3641,1802.9731],[22.2887,-33.334,1808.4318],[22.214,-33.315,1742.0223],[22.1822,-33.3217,1860.6348],[22.1453,-33.3354,1811.8025],[22.0509,-33.3515,1585.5992],[22.0058,-33.3555,1869.7909],[21.9629,-33.3662,1922.8257],[21.9021,-33.365,1791.5322],[21.9034,-33.4017,730.5342],[21.9198,-33.4619,618.5939],[21.9285,-33.4791,775.181],[21.9328,-33.5164,522.8345],[21.9363,-33.525,447.8768],[21.9757,-33.5807,281.9482],[21.9273,-33.5792,325.2588],[21.9392,-33.6218,228.5069],[21.92,-33.627,221.6734],[21.935,-33.6677,366.5831],[21.905,-33.6796,558.0571],[21.8809,-33.6673,354.8583],[21.8881,-33.688,682.1143],[21.89,-33.7128,942.2998],[21.8375,-33.7373,990.2272],[21.7679,-33.7213,908.6965],[21.7228,-33.7053,753.0527],[21.7225,-33.6938,701.3301],[21.7155,-33.6816,172.2449],[21.7078,-33.6866,186.6027],[21.6987,-33.6953,176.5131],[21.6909,-33.7126,184.3006],[21.6772,-33.724,201.2042],[21.6774,-33.7258,158.1465],[21.6805,-33.7254,201.8905],[21.7195,-33.7409,126.4487],[21.7158,-33.7706,332.3291],[21.7123,-33.7823,215.4989],[21.7092,-33.7885,218.0926],[21.6952,-33.7914,270.4165],[21.6951,-33.807,338.5986],[21.7493,-33.7939,268.2169],[21.7616,-33.8279,193.3326],[21.6954,-33.8524,302.4429],[21.7445,-33.8547,508.8937],[21.7839,-33.8521,663.3855],[21.8038,-33.8549,703.9167],[21.8644,-33.8554,588.0044],[21.9328,-33.8654,585.484],[21.9853,-33.8662,1113.6075],[22.017,-33.8594,1211.8521],[22.0427,-33.8839,1309.3801],[22.0637,-33.883,1244.2412],[22.0751,-33.8495,1062.8303],[22.1237,-33.8464,1213.8719],[22.1342,-33.8696,1468.0267],[22.1709,-33.8691,1028.2074],[22.1875,-33.8769,1095.7731],[22.1986,-33.8782,1025.6943],[22.2139,-33.8881,1034.1942],[22.2337,-33.8882,1424.9673],[22.1935,-33.8514,652.9555],[22.2754,-33.8514,792.4545],[22.2891,-33.8579,980.7308],[22.3207,-33.8275,941.7959]]]]}}